13-Aug-2016 SAID35 WAEL 130900 METAR WAEK 130900Z 25006KT 6000 RA FEW017CB SCT018 29/24 Q1009=
13-Aug-2016 SAID35 WAEL 131000 METAR WAEK 131000Z 28003KT 7000 RA FEW017CB SCT018 28/24 Q1010=
13-Aug-2016 SAID35 WAEL 131100 METAR WAEK 131100Z 06005KT 8000 FEW017CB SCT018 26/25 Q1010=
13-Aug-2016 SAID35 WAEL 131300 METAR WAEK 131300Z 04003KT 8000 SCT017 25/24 Q1012=
13-Aug-2016 SAID35 WAEL 131400 METAR WAEK 131400Z 07003KT 8000 SCT017 25/24 Q1012=
13-Aug-2016 SAID35 WAEL 131500 METAR WAEK 131500Z 04002KT 8000 SCT017 25/24 Q1011=
13-Aug-2016 SAID35 WAEL 131600 METAR WAEK 131600Z 07002KT 8000 SCT017 24/23 Q1010=
13-Aug-2016 SAID35 WAEL 131800 METAR WAEK 131800Z 00000KT 9000 FEW017 24/22 Q1010=
13-Aug-2016 SAID35 WAEL 132100 METAR WAEK 132100Z 07002KT 8000 SCT017 24/22 Q1010=
15-Mar-2017 SAID35 WAEL 152300 METAR WAEK 152300Z 00000KT 9000 FEW017 25/24 Q1010=
16-Mar-2017 SAID35 WAEL 160000 METAR WAEK 160000Z 06002KT 9000 FEW017 29/24 Q1010=
16-Mar-2017 SAID35 WAEL 160100 METAR WAEK 160100Z 00000KT 9000 FEW017 29/23 Q1010=
16-Mar-2017 SAID35 WAEL 160200 METAR WAEK 160200Z 26005KT 9000 FEW017 30/23 Q1010=
16-Mar-2017 SAID35 WAEL 160300 METAR WAEK 160300Z 23006KT 9000 SCT017 31/25 Q1009=
16-Mar-2017 SAID35 WAEL 160400 METAR WAEK 160400Z 23006KT 9000 SCT017 31/25 Q1009=
16-Mar-2017 SAID35 WAEL 160500 METAR WAEK 160500Z 23006KT 9000 SCT017 31/24 Q1008=
16-Mar-2017 SAID35 WAEL 160600 METAR WAEK 160600Z 23006KT 9000 SCT017 31/24 Q1008=
07-Apr-2021 SAID35 WAEK 070500 METAR WAEK 070500Z 07007KT 9999 SCT018 32/25 Q1007=
07-Apr-2021 SAID35 WAEK 070600 METAR WAEK 070600Z 05007KT 9999 SCT018 32/25 Q1006=
08-Apr-2021 SAID35 WAEK 080000 METAR WAEK 080000Z 36002KT 9999 SCT019 28/26 Q1010=
08-Apr-2021 SAID35 WAEK 090000 METAR WAEK 080000Z 33002KT 9999 FEW019 29/25 Q1010=
08-Apr-2021 SAID35 WAEK 080200 METAR WAEK 080200Z 12002KT 9999 SCT018 32/27 Q1009=
08-Apr-2021 SPID35 WAEK 080325 SPECI WAEK 080325Z 28008KT 9000 TS FEW CB015 BKN018=
08-Apr-2021 SAID35 WAEK 080400 METAR WAEK 080400Z 2802KT 9000 FEW CB015 SCT018 29/25 Q1007=
09-Apr-2021 SAID35 WAEK 090300 METAR WAEK 090300Z 22006KT 9999 FEW019 32/26 Q1009=
10-Apr-2021 SAID35 WAEK 100000 METAR WAEK 100000Z 34002KT 9999 SCT 019 24/24 Q1011=
10-Apr-2021 SAID35 WAEK 100100 METAR WAEK 100100Z 11004KT 9999 FEW 019 30/25 Q1012=
10-Apr-2021 SAID35 WAEK 100200 METAR WAEK 100200Z 12006KT 9999 FEW 019 31/25 Q1011=
10-Apr-2021 SAID35 WAEK 100300 METAR WAEK 100300Z 160006KT 9999 FEW 019 32/24 Q1010=
10-Apr-2021 SAID35 WAEK 100400 METAR WAEK 100400Z 14006KT 9999 SCT019 33/25 Q1009=
10-Apr-2021 SAID35 WAEK 100500 METAR WAEK 100500Z 34011KT 7000 FEW CB015 SCTCU018 31/24 Q1009TS=
10-Apr-2021 SAID35 WAEK 100600 METAR WAEK 100615Z 32007KT 7000 FEW CB019 BKNCU 018 24/23 Q1009RA=
10-Apr-2021 SAID35 WAEK 102300 METAR WAEK 102300Z 30002KT 9999 SCT 019 27/25 Q1012=
11-Apr-2021 SAID35 WAEK 110000 METAR WAEK 110000Z 31003KT 9999 SCT 019 28/24 Q1012=
11-Apr-2021 SAID35 WAEK 110100 METAR WAEK 110100Z 16006KT 9999 SCT 018 29/25 Q1012=
11-Apr-2021 SAID35 WAEK 110200 METAR WAEK 110200Z 110006KT 9999 SCT018 30/26 Q1012=
11-Apr-2021 SAID35 WAEK 110300 METAR WAEK 110300Z 150006KT 9999 SCT018 30/26 Q1011=
11-Apr-2021 SAID35 WAEK 110400 METAR WAEK 110400Z 15003KT 8000 FEW CB016 BKN 018 29/26 Q1010=
11-Apr-2021 SAID35 WAEK 110500 METAR WAEK 110500Z 16005KT 8000 FEW016CB BKN018 29/26 Q1011=
11-Apr-2021 SAID35 WAEK 110600 METAR WAEK 110600Z 09004KT 8000 FEW CB016 BKN 018 30/25 Q1009=
11-Apr-2021 SAID35 WAEK 112200 METAR WAEK 112200Z 33002KT 9999 SCT019 24/22 Q1011 NOSIG=
11-Apr-2021 SAID35 WAEK 112300 METAR WAEK 112300Z 31002KT 9999 SCT 018 25/23 Q1011=
12-Apr-2021 SAID35 WAEK 120200 METAR WAEK 120200Z 10002KT 8000 FEWCB015 BKN018 28/25 Q1011=
12-Apr-2021 SPID35 WAEK 120215 SPECI WAEK 120215Z 32009KT 7000 RA FEW015CB BKN018=
12-Apr-2021 SPID35 WAEK 120235 SPECI WAEK 120235Z 06002KT 8000 FEW015CB BKN018 RERA=
12-Apr-2021 SAID35 WAEK 120400 METAR WAEK 120400Z 05003KT 9999 SCT018 30/26 Q1010=
12-Apr-2021 SAID35 WAEK 122300 METAR WAEK 122300Z 24003KT 9999 SCT019 27/26 Q1011=
13-Apr-2021 SAID35 WAEK 130000 METAR WAEK 130000Z 21004KT 9999 SCT019 29/26 Q1011=
13-Apr-2021 SAID35 WAEK 130100 METAR WAEK 130100Z 20007KT 9999 SCT019 30/25 Q1011=
13-Apr-2021 SAID35 WAEK 130200 METAR WAEK 130200Z 21007KT 8000 FEW015CB SCT018 31/26 Q1011=
13-Apr-2021 SAID35 WAEK 130300 METAR WAEK 130300Z 29006KT 8000 FEW015CB SCT018 32/23 Q1010 NOSIG=
13-Apr-2021 SAID35 WAEK 130400 METAR WAEK 130400Z 21005KT 8000 FEW015CB SCT018 31/23 Q1010=
13-Apr-2021 SAID35 WAEK 130500 METAR WAEK 130500Z 35004KT 8000 FEW016CB SCT018 29/24 Q1009=
13-Apr-2021 SAID35 WAEK 130600 METAR WAEK 130600Z 34003KT 9999 SCT018 29/24 Q1008=
13-Apr-2021 SAID35 WAEK 132200 METAR WAEK 132200Z 35002KT 8000 FEW015CB BKN018 23/22 Q1010=
13-Apr-2021 SAID35 WAEK 132300 METAR WAEK 132300Z 24004KT 8000 FEW016CB BKN018 28/26 Q1009=
14-Apr-2021 SAID35 WAEK 140000 METAR WAEK 140000Z 24002KT 9999 SCT018 29/26 Q1010=
14-Apr-2021 SAID35 WAEK 140100 METAR WAEK 140100Z 18005KT 9999 SCT018 30/26 Q1011=
14-Apr-2021 SAID35 WAEK 140200 METAR WAEK 140200Z 21005KT 8000 FEW016CB SCT18 30/25 Q1010=
14-Apr-2021 SAID35 WAEK 140500 METAR WAEK 140500Z 19010KT 8000 FEW015CB BKN018 31/26 Q1008=
14-Apr-2021 SAID35 WAEK 142200 METAR WAEK 142200Z 31002KT 8000 FEW015 CB BKN 018 23/22 Q1008=
14-Apr-2021 SAID35 WAEK 142300 METAR WAEK 142300Z 30003KT 9999 BKN 018 25/24 Q1010=
15-Apr-2021 SAID35 WAEK 150000 METAR WAEK 150000Z 21006KT 9999 BKN 018 28/25 Q1010=
15-Apr-2021 SAID35 WAEK 150200 METAR WAEK 150200Z 22009KT 9999 SCT018 29/25 Q1010=
15-Apr-2021 SAID35 WAEK 150300 METAR WAEK 150300Z 21009KT 9999 SCT 019 30/25 Q1009=
15-Apr-2021 SAID35 WAEK 150400 METAR WAEK 150400Z 21010KT 9999 SCT019 30/25 Q1008=
15-Apr-2021 SAID35 WAEK 150500 METAR WAEK 150500Z 20009KT 9999 SCT 019 32/25 Q1007=
15-Apr-2021 SAID35 WAEK 150600 METAR WAEK 150600Z 19012KT 8000 FEW016CB SCT018 30/25 Q1006=
15-Apr-2021 SAID35 WAEK 152200 METAR WAEK 152200Z 20004KT 7000 FEW015CB BKN018 24/24 Q1009=
15-Apr-2021 SAID35 WAEK 152300 METAR WAEK 152300Z 28002KT 7000 FEW015CB BKN018 26/26 Q1010=
16-Apr-2021 SAID35 WAEK 160000 METAR WAEK 160000Z 21005KT 9999 BKN018 27/26 Q1010=
16-Apr-2021 SAID35 WAEK 160100 METAR WAEK 160100Z 23008KT 9999 BKN 018 28/26 Q1010=
16-Apr-2021 SAID35 WAEK 160200 METAR WAEK 160200Z 20007KT 7000 FEW015CB BKN018 30/26 Q1011=
16-Apr-2021 SAID35 WAEK 160300 METAR WAEK 160300Z 20005KT 7000 FEW015CB BKN018 29/26 Q1009=
16-Apr-2021 SAID35 WAEK 160500 METAR WAEK 160500Z 25010KT 8000 FEW015CB BKN018 31/24 Q1008=
16-Apr-2021 SAID35 WAEK 160600 METAR WAEK 160600Z 26006KT 8000 FEW015CB SCT018 30/25 Q1007=
16-Apr-2021 SAID35 WAEK 162200 METAR WAEK 162200Z 33002KT 9999 SCT019 23/22 Q1007=
16-Apr-2021 SAID35 WAEK 162300 METAR WAEK 162300Z 33004KT 9999 SCT 019 26/24 Q1008=
17-Apr-2021 SAID35 WAEK 170000 METAR WAEK 170000Z 22007KT 9999 SCT018 30/25 Q1010=
17-Apr-2021 SAID35 WAEK 170100 METAR WAEK 170100Z 19009KT 8000 FEW016 SCT018 30/26 Q1010=
17-Apr-2021 SAID35 WAEK 170200 METAR WAEK 170200Z 18010KT 8000 FEW016CB SCT018 31/26 Q1011=
17-Apr-2021 SAID35 WAEK 170300 METAR WAEK 170300Z 18010KT 8000 SCT018 32/25 Q1009=
17-Apr-2021 SAID35 WAEK 170400 METAR WAEK 170400Z 18013KT 8000 FEW016CB SSCT018 32/26 Q1008=
17-Apr-2021 SAID35 WAEK 170500 METAR WAEK 170500Z 23009KT 8000 FEW016CB SCT018 32/24 Q1007=
17-Apr-2021 SAID35 WAEK 170600 METAR WAEK 170600Z 24010KT 8000 FEW016 CB SCT018 31/24 Q1006=
17-Apr-2021 SAID35 WAEK 172200 METAR WAEK 172200Z 21002KT 9999 SCT019 24/23 Q1008=
17-Apr-2021 SAID35 WAEK 172300 METAR WAEK 172300Z 17004KT 9999 SCT019 26/24 Q1008=
18-Apr-2021 SAID35 WAEK 180000 METAR WAEK 180000Z 21008KT 9999 SCT019 30/25 Q1010=
18-Apr-2021 SAID35 WAEK 180100 METAR WAEK 180100Z 22007KT 8000 FEW016CB SCT018 29/25 Q1010=
18-Apr-2021 SAID35 WAEK 180200 METAR WAEK 180200Z 23004KT 8000 FEW016CB SCT018 30/24 Q1010=
18-Apr-2021 SAID35 WAEK 180300 METAR WAEK 180300Z 24008KT 8000 FEW016CB SCT018 32/25 Q1009=
18-Apr-2021 SAID35 WAEK 180400 METAR WAEK 180400Z 23010KT 8000 FEW016CB SCT018 32/25 Q1008=
18-Apr-2021 SAID35 WAEK 180500 METAR WAEK 180500Z 22008KT 8000 FEW016CB SCT018 32/24 Q1007=
19-Apr-2021 SAID35 WAEK 190000 CCA METAR WAEK 190000Z 25004KT 9999 SCT019 29/26 Q1010=
19-Apr-2021 SAID35 WAEK 190200 METAR WAEK 190200Z 19010KT 9999 SCT019 30/26 Q1010=
19-Apr-2021 SAID35 WAEK 190300 METAR WAEK 190300Z 22005KT 9000 FEWCB018 SCT019 30/27 Q1009=
19-Apr-2021 SAID35 WAEK 190400 METAR WAEK 190400Z 23003KT 9000 FEWCB016 SCT018 26/25 Q1008 RA=
20-Apr-2021 SAID35 WAEK 200000 METAR WAEK 200000Z 18004KT 9999 SCT019 30/27 Q1011=
20-Apr-2021 SAID35 WAEK 200100 METAR WAEK 200100Z 17004KT 9999 SCT019 30/25 Q1010=
20-Apr-2021 SAID35 WAEK 200200 METAR WAEK 200200Z 19004KT 9999 SCT018 31/26 Q1010=
20-Apr-2021 SAID35 WAEK 200300 METAR WAEK 200300Z 23007KT 9999 SCT018 31/24 Q1009=
20-Apr-2021 SAID35 WAEK 200400 METAR WAEK 200400Z 2002KT 9999 SCT018 32/25 Q1008=
20-Apr-2021 SAID35 WAEK 200500 METAR WAEK 200500Z 1706KT 9999 SCT018 31/25 Q1007=
20-Apr-2021 SAID35 WAEK 200600 METAR WAEK 200600Z 19009KT 9999 SCT018 32/25 Q1007=
21-Apr-2021 SAID35 WAEK 210000 METAR WAEK 210000Z 20003KT 9999 SCT019 29/26 Q1011=
21-Apr-2021 SAID35 WAEK 210200 METAR WAEK 210200Z 19003KT 9999 SCT019 31/24 Q1010=
21-Apr-2021 SAID35 WAEK 210300 METAR WAEK 210300Z 20006KT 9999 SCT019 31/24 Q1009=
21-Apr-2021 SAID35 WAEK 210500 METAR WAEK 210500Z 24005KT 9999 SCT019 32/23 Q1008=
21-Apr-2021 SAID35 WAEK 210600 METAR WAEK 210600Z 22206KT 9999 SCT019 32/24 Q1008=
22-Apr-2021 SAID35 WAEK 220000 METAR WAEK 220000Z 14002KT 9999 SCT019 30/27 Q1011=
22-Apr-2021 SAID35 WAEK 230000 METAR WAEK 220000Z 07002KT 9999 SCT019 29/26 Q1010=
22-Apr-2021 SAID35 WAEK 220100 METAR WAEK 220100Z 27002KT 9999 SCT019 31/25 Q1010=
22-Apr-2021 SAID35 WAEK 230100 METAR WAEK 220100Z 11002KT 9999 SCT019 31/26 Q1011=
22-Apr-2021 SAID35 WAEK 230200 METAR WAEK 220200Z 15004KT 9999 SCT019 32/26 Q1010=
22-Apr-2021 SAID35 WAEK 220300 METAR WAEK 220300Z 19007KT 9999 SCT019 33/23 Q1009=
22-Apr-2021 SAID35 WAEK 230300 METAR WAEK 220300Z 18004KT 9999 SCT019 32/24 Q1009=
22-Apr-2021 SAID35 WAEK 220400 METAR WAEK 220400Z 19006KT 9999 SCT019 34/23 Q1008=
22-Apr-2021 SAID35 WAEK 220500 METAR WAEK 220500Z 20005KT 9999 SCT019 34/24 Q1007=
22-Apr-2021 SAID35 WAEK 220600 METAR WAEK 220600Z 17005KT 9999 SCT019 34/25 Q1007=
24-Apr-2021 SAID35 WAEK 240000 METAR WAEK 240000Z 19005KT 9999 SCT019 30/26 Q1012=
24-Apr-2021 SAID35 WAEK 240100 METAR WAEK 240100Z 18007KT 9999 SCT019 31/26 Q1011=
24-Apr-2021 SAID35 WAEK 240200 METAR WAEK 240200Z 18006KT 9999 SCT019 32/26 Q1011=
24-Apr-2021 SAID35 WAEK 242200 METAR WAEK 242200Z 32002KT 9999 SCT018 25/25 Q1010=
25-Apr-2021 SAID35 WAEK 250200 METAR WAEK 250200Z 18007KT 8000 FEW016CB SCT018 32/27 Q1011=
25-Apr-2021 SAID35 WAEK 250300 METAR WAEK 250300Z 21007KT 8000 FEW015CB BKN 018 31/27 Q1010TS=
25-Apr-2021 SAID35 WAEK 250500 METAR WAEK 250500Z 21007KT 8000 FEW015CB BKN 018 31/25 Q1009=
25-Apr-2021 SAID35 WAEK 250600 METAR WAEK 250600Z 30003KT 9999 SCT 018 30/25 Q1007=
25-Apr-2021 SAID35 WAEK 252200 METAR WAEK 252200Z 30002KT 9999 SCT018 25/24 Q1010=
25-Apr-2021 SAID35 WAEK 252300 METAR WAEK 252300Z 32002KT 9999 SCT019 26/25 Q1012=
26-Apr-2021 SAID35 WAEK 260000 METAR WAEK 260000Z 27004KT 9999 SCT020 29/26 Q1012=
26-Apr-2021 SAID35 WAEK 260100 METAR WAEK 260100Z 18004KT 9999 SCT020 31/25 Q1011=
26-Apr-2021 SAID35 WAEK 260200 METAR WAEK 260200Z 18005KT 9999 SCT020 32/25 Q1011=
26-Apr-2021 SAID35 WAEK 260300 METAR WAEK 260300Z 21005KT 9999 SCT020 32/25 Q1010=
26-Apr-2021 SAID35 WAEK 260500 METAR WAEK 260500Z 19007KT 9999 SCT020 34/22 Q1008=
26-Apr-2021 SAID35 WAEK 260600 METAR WAEK 260600Z 21006KT 9999 SCT019 34/22 Q1007=
26-Apr-2021 SAID35 WAEK 262300 METAR WAEK 262300Z 32003KT 9999 SCT020 26/25 Q1012=
27-Apr-2021 SAID35 WAEK 270000 METAR WAEK 270000Z 35003KT 9999 SCT020 29/26 Q1012=
27-Apr-2021 SAID35 WAEK 270200 METAR WAEK 270200Z 35003KT 9999 SCT019 31/25 Q1011=
27-Apr-2021 SAID35 WAEK 270300 METAR WAEK 270300Z 35003KT 9999 SCT019 32/26 Q1011=
27-Apr-2021 SAID35 WAEK 270400 METAR WAEK 270400Z 12004KT 9999 SCT019 33/26 Q1010=
27-Apr-2021 SAID35 WAEK 272300 METAR WAEK 272300Z 34003KT 9999 SCT020 27/25 Q1012=
28-Apr-2021 SAID35 WAEK 280000 METAR WAEK 280000Z 33002KT 9999 SCT020 28/25 Q1013=
28-Apr-2021 SAID35 WAEK 280100 METAR WAEK 280100Z 31003KT 9999 SCT018 30/25 Q1013=
28-Apr-2021 SAID35 WAEK 280300 METAR WAEK 280300Z 12003KT 9999 SCT019 32/22 Q1012=
28-Apr-2021 SAID35 WAEK 282300 METAR WAEK 282300Z 31002KT 9999 BKN018 26/25 Q1011=
29-Apr-2021 SAID35 WAEK 290200 METAR WAEK 290200Z 180006KT 8000 FEW015CB BKN018 31/26 Q1011=
29-Apr-2021 SAID35 WAEK 290400 METAR WAEK 290400Z 28003KT 8000 FEW015CB BKN018 31/26 Q1010=
29-Apr-2021 SAID35 WAEK 290500 METAR WAEK 290500Z 23003KT 8000 FEW015CB BKN018 29/25 Q1009 TS=
30-Apr-2021 SAID35 WAEK 300000 METAR WAEK 300000Z 33003KT 9999 SCT020 28/26 Q1011=
30-Apr-2021 SAID35 WAEK 300300 METAR WAEK 300300Z 09005KT 9999 SCT019 31/25 Q1010=
30-Apr-2021 SAID35 WAEK 300400 METAR WAEK 300400Z 08004KT 9999 SCT019 32/25 Q1009=
30-Apr-2021 SAID35 WAEK 300600 METAR WAEK 300600Z 13005KT 8000 FEW015CB BKN018 30/24 Q1008=
01-May-2021 SAID35 WAEK 010000 METAR WAEK 010000Z 33002KT 9999 SCT020 28/25 Q1011=
01-May-2021 SAID35 WAEK 010100 METAR WAEK 010100Z 19002KT 9999 SCT020 29/25 Q1013=
01-May-2021 SAID35 WAEK 010300 METAR WAEK 010300Z 12006KT 8000 FEW015 SCT018 32/25 Q1011 TS=
01-May-2021 SAID35 WAEK 010400 METAR WAEK 010400Z 12005KT 8000 FEW016 SCT018 32/25 Q1010 TS=
01-May-2021 SAID35 WAEK 010600 METAR WAEK 010600Z 09006KT 7000 FEW015CB SCT018 31/25 Q1008TS=
02-May-2021 SAID35 WAEK 020100 METAR WAEK 020100Z 17006KT 9999 SCT018 30/26 Q1012=
02-May-2021 SAID35 WAEK 020200 METAR WAEK 020200Z 22005KT 9999 SCT018 31/25 Q1011=
02-May-2021 SAID35 WAEK 020300 METAR WAEK 020300Z 19005KT 9999 SCT019 32/25 Q1010=
02-May-2021 SAID35 WAEK 020400 METAR WAEK 020400Z 20007KT 8000 FEW016CB SCT018 32/25 Q1010=
02-May-2021 SAID35 WAEK 020600 METAR WAEK 020600Z 31004KT 8000 FEW016CB SCT018 32/23 Q1008TS=
03-May-2021 SAID35 WAEK 030000 METAR WAEK 030000Z 07002KT 9999 SCT019 28/26 Q1009=
03-May-2021 SAID35 WAEK 030200 METAR WAEK 030200Z 14005KT 9999 SCT019 32/26 Q1009=
03-May-2021 SAID35 WAEK 030400 METAR WAEK 030400Z 18003KT 9999 SCT018 33/25 Q1007=
03-May-2021 SAID35 WAEK 030500 METAR WAEK 030500Z 21005KT 9999 SCT018 33/24 Q1006=
03-May-2021 SAID35 WAEK 030600 METAR WAEK 030600Z 18005KT 9999 SCT018 32/26 Q1006=
04-May-2021 SAID35 WAEK 040100 METAR WAEK 040100Z 12005KT 9999 SCT019 31/27 Q1009=
04-May-2021 SAID35 WAEK 040200 METAR WAEK 040200Z 14005KT 9999 SCT019 31/27 Q1008=
04-May-2021 SAID35 WAEK 040300 METAR WAEK 040300Z 10005KT 9999 SCT019 31/26 Q1007=
04-May-2021 SAID35 WAEK 040400 METAR WAEK 040400Z 18005KT 9999 SCT019 33/26 Q1006=
04-May-2021 SAID35 WAEK 040500 METAR WAEK 040500Z 19011KT 9999 SCT019 33/26 Q1005=
05-May-2021 SAID35 WAEK 050000 METAR WAEK 050000Z 03002KT 9999 SCT019 29/26 Q1009=
05-May-2021 SAID35 WAEK 050100 METAR WAEK 050100Z 07004KT 9999 SCT019 30/26 Q1009=
05-May-2021 SAID35 WAEK 050200 METAR WAEK 050200Z 06004KT 9999 SCT019 32/26 Q1009=
05-May-2021 SAID35 WAEK 050300 METAR WAEK 050300Z 05004KT 9999 SCT019 32/26 Q1007=
05-May-2021 SAID35 WAEK 050600 METAR WAEK 050600Z 10004 KT 9999 SCT019 32/26 Q1006=
06-May-2021 SAID35 WAEK 060000 METAR WAEK 060000Z 35006KT 9999 SCT019 28/26 Q1009=
06-May-2021 SAID35 WAEK 060100 METAR WAEK 060100Z 01005KT 9999 SCT018 30/26 Q1008=
06-May-2021 SAID35 WAEK 060200 METAR WAEK 060200Z 08008KT 9999 SCT019 31/26 Q1008=
06-May-2021 SAID35 WAEK 060300 METAR WAEK 060300Z 05008KT 9999 SCT019 32/26 Q1007=
06-May-2021 SAID35 WAEK 060400 METAR WAEK 060400Z 08007KT 9999 SCT018 31/26 Q1005=
06-May-2021 SAID35 WAEK 060600 METAR WAEK 060600Z 05011KT 9000 FEWCB016 SCT018 30/26 Q1005=
07-May-2021 SAID35 WAEK 070000 METAR WAEK 070000Z 25002 KT 9999 SCT019 29/26 Q1009=
07-May-2021 SAID35 WAEK 070100 METAR WAEK 070100Z 18005KT 9999 SCT019 30/26 Q1009=
07-May-2021 SAID35 WAEK 070200 METAR WAEK 070200Z 18002KT 9999 SCT019 32/26 Q1009=
07-May-2021 SAID35 WAEK 070300 METAR WAEK 070300Z 120027T 9999 SCT019 31/26 Q1008=
07-May-2021 SAID35 WAEK 070500 METAR WAEK 070500Z 190067T 9999 SCT019 34/25 Q1006=
07-May-2021 SAID35 WAEK 070600 METAR WAEK 070600Z 180087T 9999 SCT019 33/25 Q1005=
08-May-2021 SAID35 WAEK 080000 METAR WAEK 080000Z 21005 KT 9999 SCT019 29/24 Q1009=
08-May-2021 SAID35 WAEK 080100 METAR WAEK 080100Z 18006KT 9999 SCT019 30/25 Q1009=
08-May-2021 SAID35 WAEK 080300 METAR WAEK 080300Z 20005KT 9999 SCT019 30/25 Q1008=
08-May-2021 SAID35 WAEK 080400 METAR WAEK 080400Z 15005KT 9999 SCT019 32/25 Q1007=
08-May-2021 SAID35 WAEK 080600 METAR WAEK 080600Z 22011KT 9000 FEWCB016 SCT018 30/26 Q1005=
10-May-2021 SAID35 WAEK 100000 METAR WAEK 100000Z 33004 KT 9999 SCT018 28/25 Q1009=
10-May-2021 SAID35 WAEK 102300 METAR WAEK 102300Z 33003KT 9999 SCT018 25/25 Q1010=
11-May-2021 SAID35 WAEK 110000 METAR WAEK 110000Z 31003KT 9999 SCT019 28/26 Q1010=
11-May-2021 SAID35 WAEK 110600 METAR WAEK 110600Z 10005 KT 8000 FEWCB016 SCT018 30/25 Q1007 TS =
11-May-2021 SAID35 WAEK 112300 METAR WAEK 112300Z 33003KT 9999 SCT019 27/25 Q1009=
12-May-2021 SAID35 WAEK 120000 METAR WAEK 120000Z 34003KT 9999 SCT020 29/26 Q1009=
14-May-2021 SAID35 WAEK 140300 METAR WAEK 140300Z 22005KT 9999 SCT018 32/25 Q1012=
14-May-2021 SAID35 WAEK 140600 METAR WAEK 140600Z 21004KT 8000 FEW016CB SCT018 30/23 Q1009=
15-May-2021 SAID35 WAEK 150000 METAR WAEK 150000Z 33004KT 9999 SCT019 28/25 Q1010=
15-May-2021 SAID35 WAEK 150300 METAR WAEK 150300Z 22007KT 9000 FEW016CB SCT018 30/26 Q1009=
15-May-2021 SAID35 WAEK 152300 METAR WAEK 152300Z 29004KT 9999 SCT018 25/25 Q1008=
16-May-2021 SAID35 WAEK 160000 METAR WAEK 160000Z 31004KT 9999 SCT018 27/26 Q1008=
16-May-2021 SAID35 WAEK 160100 METAR WAEK 160100Z 18004KT 9999 SCT018 30/26 Q1008=
16-May-2021 SAID35 WAEK 160300 METAR WAEK 160300Z 03003KT 9000 FEW016CB SCT018 30/26 Q1007=
17-May-2021 SAID35 WAEK 170000 METAR WAEK 170000Z 23005KT 9999 SCT018 29/26 Q1009=
17-May-2021 SAID35 WAEK 170100 METAR WAEK 170100Z 22005KT 9999 SCT018 30/26 Q1009=
17-May-2021 SAID35 WAEK 170200 METAR WAEK 170200Z 230006KT 9999 SCT018 31/25 Q1009=
17-May-2021 SAID35 WAEK 170500 METAR WAEK 170500Z 230070006KT 9999 SCT018 32/26 Q1006=
17-May-2021 SAID35 WAEK 170600 METAR WAEK 170600Z 24007KT 9999 SCT018 32/26 Q1005=
18-May-2021 SAID35 WAEK 180000 METAR WAEK 180000Z 25002KT 8000 FEBCB016 SCTCU018 26/26 Q1010RA=
18-May-2021 SAID35 WAEK 180100 METAR WAEK 180100Z 33002KT 9000 FEWCB016 SCTCU018 26/26 Q1010RERA=
18-May-2021 SAID35 WAEK 180400 METAR WAEK 180400Z 35005KT 9000 FEWCB016 SCTCU018 27/26 Q1008=
19-May-2021 SAID35 WAEK 190000 METAR WAEK 190000Z 33003KT 9999 SCT019 29/26 Q1009=
19-May-2021 SAID35 WAEK 190100 METAR WAEK 190100Z 11003KT 9999 SCT019 31/26 Q1009=
19-May-2021 SAID35 WAEK 190200 METAR WAEK 190200Z 12004KT 9999 SCT019 32/25 Q1009=
19-May-2021 SAID35 WAEK 192300 METAR WAEK 192300Z 32002KT 9999 SCT019 28/26 Q1010=
20-May-2021 SAID35 WAEK 200000 METAR WAEK 200000Z 36003KT 9999 SCT019 30/26 Q1011=
21-May-2021 SAID35 WAEK 210000 METAR WAEK 210000Z 20002KT 9999 SCT018 28/27 Q1011=
21-May-2021 SAID35 WAEK 210100 METAR WAEK 210100Z 17007KT 9999 SCT018 30/27 Q1011=
21-May-2021 SAID35 WAEK 210200 METAR WAEK 210200Z 23007KT 9999 FEWCB 016 SCT018 30/27 Q1010=
21-May-2021 SAID35 WAEK 210400 METAR WAEK 210400Z 33006KT 9000 FEWCB 016 SCT018 30/27 Q1019=
21-May-2021 SAID35 WAEK 210500 METAR WAEK 210500Z 32008KT 9000 FEWCB 016 SCT018 28/26 Q1009=
22-May-2021 SAID35 WAEK 220000 METAR WAEK 220000Z 35003KT 8000 FEWCB 016 BKN018 25/25 Q1011RA=
22-May-2021 SAID35 WAEK 220300 METAR WAEK 220300Z 14002KT 99999 SCT018 30/25 Q1010=
22-May-2021 SAID35 WAEK 222300 METAR WAEK 222300Z 20004KT 8000 FEWCB 015 BKN018 28/26 Q1009=
23-May-2021 SAID35 WAEK 230000 METAR WAEK 230000Z 18004KT 9000 FEWCB016 SCT018 28/26 Q1010=
23-May-2021 SAID35 WAEK 230200 METAR WAEK 230200Z 26003KT 8000 FEWCB016 SCT018 28/26 Q1010=
23-May-2021 SAID35 WAEK 230500 METAR WAEK 230500Z 22004KT 8000 FEWCB016 SCT018 28/25 Q1008=
23-May-2021 SAID35 WAEK 230600 METAR WAEK 230600Z 22004KT 8000 RERA FEWCB016 SCT018 28/25 Q1007=
23-May-2021 SAID35 WAEK 232300 METAR WAEK 232300Z 28004KT 7000 RERA FEWCB015 SCT018 26/26 Q1012=
24-May-2021 SAID35 WAEK 240000 METAR WAEK 240000Z 17005KT 8000 FEWCB016 SCT018 27/26 Q1012=
24-May-2021 SAID35 WAEK 240100 METAR WAEK 240100Z 20005KT 8000 FEWCB016 SCT018 28/26 Q1012=
24-May-2021 SAID35 WAEK 240200 METAR WAEK 240200Z 20012KT 8000 FEWCB016 SCT018 28/25 Q1012=
24-May-2021 SAID35 WAEK 240300 METAR WAEK 240300Z 21009KT 8000 FEWCB016 SCT018 28/25 Q1012=
24-May-2021 SAID35 WAEK 240400 METAR WAEK 240400Z 24003KT 8000 FEWCB016 SCT018 29/25 Q1012=
24-May-2021 SAID35 WAEK 240600 METAR WAEK 240600Z 21004KT 8000 FEWCB016 SCT018 28/25 Q1009=
24-May-2021 SAID35 WAEK 242300 METAR WAEK 242300Z 21002KT 9999 SCT018 27/25 Q1011=
25-May-2021 SAID35 WAEK 250000 METAR WAEK 250000Z 20004KT 9999 SCT019 30/26 Q1011=
25-May-2021 SAID35 WAEK 250200 METAR WAEK 250200Z 19006KT 9999 SCT019 31/26 Q1011=
25-May-2021 SAID35 WAEK 250500 METAR WAEK 250500Z 20007KT 9000 FEWCB016 SCT018 33/25 Q1008=
25-May-2021 SAID35 WAEK 250600 METAR WAEK 250600Z 23004KT 8000 FEWCB016 SCT019 31/25 Q1007=
25-May-2021 SAID35 WAEK 252300 METAR WAEK 252300Z 31002KT 9999 SCT019 26/26 Q1012=
26-May-2021 SAID35 WAEK 260000 METAR WAEK 260000Z 36002KT 9999 SCT019 27/26 Q1012=
26-May-2021 SAID35 WAEK 260100 METAR WAEK 260100Z 19005KT 9999 BKN019 29/26 Q1012=
26-May-2021 SAID35 WAEK 260200 METAR WAEK 260200Z 21003KT 9999 BKN018 31/26 Q1012=
26-May-2021 SAID35 WAEK 260300 METAR WAEK 260300Z 23005KT 9999 BKN018 30/26 Q1011=
27-May-2021 SAID35 WAEK 270000 METAR WAEK 270000Z 21002KT 9999 SCT019 29/26 Q1011=
27-May-2021 SAID35 WAEK 270200 METAR WAEK 270200Z 20004KT 9999 SCT019 32/25 Q1011=
27-May-2021 SAID35 WAEK 270300 METAR WAEK 270300Z 22005KT 9999 SCT019 30/25 Q1010=
27-May-2021 SAID35 WAEK 270400 METAR WAEK 270400Z 23006KT 9999 SCT019 32/25 Q1009=
27-May-2021 SAID35 WAEK 270600 METAR WAEK 270600Z 22004KT 9999 SCT018 34/24 Q1008=
27-May-2021 SAID35 WAEK 272300 METAR WAEK 272300Z 36002KT 9999 SCT019 26/25 Q1012=
28-May-2021 SAID35 WAEK 280000 METAR WAEK 280000Z 34002KT 9999 SCT019 29/26 Q1012=
28-May-2021 SAID35 WAEK 280300 METAR WAEK 280300Z 13004KT 9999 SCT019 32/26 Q1012=
28-May-2021 SAID35 WAEK 280600 METAR WAEK 280600Z 23005KT 9999 SCT019 33/24 Q1008=
29-May-2021 SAID35 WAEK 290000 METAR WAEK 290000Z 20004KT 9999 SCT019 30/26 Q1010=
29-May-2021 SAID35 WAEK 290100 METAR WAEK 290100Z 22006KT 9000 FEWCB016 SCT018 31/25 Q1010=
29-May-2021 SAID35 WAEK 290200 METAR WAEK 290200Z 21004KT 9000 FEWCB016 SCT018 32/25 Q1010=
29-May-2021 SAID35 WAEK 290300 METAR WAEK 290300Z 23005KT 9000 FEWCB016 SCT018 32/25 Q1009=
29-May-2021 SAID35 WAEK 290400 METAR WAEK 290400Z 23006KT 9999 SCT018 33/25 Q1008=
29-May-2021 SAID35 WAEK 290500 METAR WAEK 290500Z 22007KT 8000 FEWCB016 SCT018 31/25 Q1007=
29-May-2021 SAID35 WAEK 290600 METAR WAEK 290600Z 23005KT 8000 FEW016CB SCT018 31/26 Q1006=
30-May-2021 SAID35 WAEK 300000 METAR WAEK 300000Z 24004KT 9999 SCT018 28/26 Q1010=
30-May-2021 SAID35 WAEK 300300 METAR WAEK 300300Z 20010KT 9999 SCT019 32/26 Q1007=
30-May-2021 SAID35 WAEK 300400 METAR WAEK 300400Z 22009KT 9999 SCT019 33/26 Q1006=
30-May-2021 SAID35 WAEK 300500 METAR WAEK 300500Z 21010KT 9999 SCT019 33/25 Q1006=
30-May-2021 SAID35 WAEK 300600 METAR WAEK 300600Z 23010KT 9999 SCT019 32/25 Q1005=
31-May-2021 SAID35 WAEK 310000 METAR WAEK 310000Z 21005KT 9999 SCT019 28/24 Q1009=
31-May-2021 SAID35 WAEK 310100 METAR WAEK 310100Z 20007KT 9999 SCT018 28/25 Q1009=
31-May-2021 SAID35 WAEK 310200 METAR WAEK 310200Z 20008KT 9999 SCT018 29/25 Q1009=
31-May-2021 SAID35 WAEK 310400 METAR WAEK 310400Z 18006KT 9999 SCT018 32/24 Q1007=
31-May-2021 SAID35 WAEK 310600 METAR WAEK 310600Z 20007KT 9000 FEW016 SCT018 33/24 Q1005=
01-Jun-2021 SAID35 WAEK 010000 METAR WAEK 010000Z 20005KT 9999 SCT019 30/26 Q1009=
01-Jun-2021 SAID35 WAEK 010100 METAR WAEK 010100Z 19007KT 9999 SCT019 31/25 Q1009=
01-Jun-2021 SAID35 WAEK 010300 METAR WAEK 010300Z 20005KT 9999 SCT019 32/25 Q1008=
02-Jun-2021 SAID35 WAEK 020000 METAR WAEK 020000Z 33002KT 9999 SCT019 27/25 Q1012=
02-Jun-2021 SAID35 WAEK 020200 METAR WAEK 020200Z 19003KT 9999 SCT018 30/25 Q1009=
02-Jun-2021 SAID35 WAEK 020300 METAR WAEK 020300Z 07002KT 9999 SCT018 30/25 Q1010=
03-Jun-2021 SAID35 WAEK 030000 METAR WAEK 030000Z 27002KT 9999 SCT019 30/26 Q1011=
03-Jun-2021 SAID35 WAEK 030100 METAR WAEK 030100Z 11002KT 9999 SCT019 31/26 Q1011=
03-Jun-2021 SAID35 WAEK 030400 METAR WAEK 030400Z 06003KT 9999 SCT019 32/24 Q1009=
04-Jun-2021 SAID35 WAEK 040000 METAR WAEK 040000Z 23002KT 9999 SCT019 30/26 Q1012=
04-Jun-2021 SAID35 WAEK 040200 METAR WAEK 040200Z 22004KT 9999 SCT019 32/25 Q1011=
04-Jun-2021 SAID35 WAEK 040400 METAR WAEK 040400Z 19006KT 9999 SCT019 32/25 Q1009=
05-Jun-2021 SAID35 WAEK 050000 METAR WAEK 050000Z 35005KT 9999 SCT018 27/26 Q1012=
05-Jun-2021 SAID35 WAEK 050300 METAR WAEK 050300Z 36004KT 9999 SCT018 30/25 Q1010=
05-Jun-2021 SAID35 WAEK 050400 METAR WAEK 050400Z 36003KT 9999 SCT018 31/24 Q1009=
06-Jun-2021 SAID35 WAEK 060000 METAR WAEK 060000Z 22004KT 9999 SCT019 29/25 Q1009=
06-Jun-2021 SAID35 WAEK 060100 METAR WAEK 060100Z 21005KT 9999 SCT019 31/26 Q1009=
06-Jun-2021 SAID35 WAEK 060400 METAR WAEK 060400Z 20004KT 9999 SCT019 33/25 Q1008=
07-Jun-2021 SAID35 WAEK 070000 METAR WAEK 070000Z 34004KT 9999 SCT019 29/25 Q1012=
07-Jun-2021 SAID35 WAEK 070100 METAR WAEK 070100Z 25002T 9999 SCT019 30/25 Q1012=
07-Jun-2021 SAID35 WAEK 070200 METAR WAEK 070200Z 16002T 9999 SCT019 31/26 Q1012=
07-Jun-2021 SAID35 WAEK 070300 METAR WAEK 070300Z 17003T 9999 SCT019 31/26 Q1011=
08-Jun-2021 SAID35 WAEK 080000 METAR WAEK 080000Z 30005KT 9999 SCT019 27/26 Q1010=
08-Jun-2021 SAID35 WAEK 080100 METAR WAEK 080100Z 31905KT 9999 SCT019 30/26 Q1011=
09-Jun-2021 SAID35 WAEK 090000 METAR WAEK 090000Z 31002KT 9999 SCT019 29/26 Q1011=
09-Jun-2021 SAID35 WAEK 090400 METAR WAEK 090400Z 23006KT 9999 SCT019 32/25 Q1009=
09-Jun-2021 SAID35 WAEK 090500 METAR WAEK 090500Z 22005KT 9999 SCT018 32/25 Q1008=
09-Jun-2021 SAID35 WAEK 092300 METAR WAEK 092300Z 00000KT 9999 SCT019 29/26 Q1010=
10-Jun-2021 SAID35 WAEK 100000 METAR WAEK 100000Z 24005KT 9999 SCT018 30/26 Q1010=
10-Jun-2021 SAID35 WAEK 100100 METAR WAEK 100100Z 19006KT 9999 SCT019 31/25 Q1010=
10-Jun-2021 SAID35 WAEK 100200 METAR WAEK 100200Z 20008KT 9999 SCT019 31/25 Q1010=
10-Jun-2021 SAID35 WAEK 100400 METAR WAEK 100400Z 24006KT 9999 SCT019 33/25 Q1008=
10-Jun-2021 SAID35 WAEK 100500 METAR WAEK 100500Z 22007KT 9999 SCT019 32/25 Q1007=
10-Jun-2021 SAID35 WAEK 102200 METAR WAEK 102200Z 25002KT 9999 SCT019 27/25 Q1009=
11-Jun-2021 SAID35 WAEK 110000 METAR WAEK 110000Z 17003KT 9999 SCT019 29/26 Q1010=
11-Jun-2021 SAID35 WAEK 110100 METAR WAEK 110100Z 21004KT 9999 SCT019 30/26 Q1010=
11-Jun-2021 SAID35 WAEK 110200 METAR WAEK 110200Z 21005KT 9999 SCT019 31/26 Q1009=
12-Jun-2021 SAID35 WAEK 120000 METAR WAEK 120000Z 32003KT 9000 FEWCB 16 SCT018 25/25 Q1012=
12-Jun-2021 SAID35 WAEK 120200 METAR WAEK 120200Z 06002KT 99999 SCT018 29/25 Q1011=
12-Jun-2021 SAID35 WAEK 120400 METAR WAEK 120400Z 08006KT 99999 SCT019 32/24 Q1010=
13-Jun-2021 SAID35 WAEK 130000 METAR WAEK 130000Z 35004KT 8000 FEW 016 SCT018 25/25 Q1012=
13-Jun-2021 SAID35 WAEK 130300 METAR WAEK 130300Z 34004KT 9000 FEW016CB SCT018 29/25 Q1011=
13-Jun-2021 SAID35 WAEK 130600 METAR WAEK 130600Z 05006KT 9000 FEW016CB SCT018 29/26 Q1009=
13-Jun-2021 SAID35 WAEK 132300 METAR WAEK 132300Z 33002KT 9000 SCT018 26/26 Q1011=
14-Jun-2021 SAID35 WAEK 140200 METAR WAEK 140200Z 10003KT 9000 FEW016CB SCT018 29/26 Q1011=
14-Jun-2021 SAID35 WAEK 140300 METAR WAEK 140300Z 07002KT 9000 FEW016CB SCT018 29/25 Q1010=
14-Jun-2021 SAID35 WAEK 140500 METAR WAEK 140500Z 03007KT 7000 FEW015CB BKN018 27/26 Q1010 RA=
14-Jun-2021 SAID35 WAEK 140600 METAR WAEK 140600Z 07007KT 6000 FEW015CB BKN018 25/24 Q1010 RA=
14-Jun-2021 SAID35 WAEK 142300 METAR WAEK 142300Z 32002KT 9999 SCT019 25/24 Q1010=
15-Jun-2021 SAID35 WAEK 150000 METAR WAEK 150000Z 02002KT 9999 SCT019 27/24 Q1011=
15-Jun-2021 SAID35 WAEK 150100 METAR WAEK 150100Z 12003KT 9000 FEW016CB SCT018 29/25 Q1011 =
15-Jun-2021 SAID35 WAEK 150300 METAR WAEK 150300Z 15005KT 9000 FEW016CB SCT018 31/25 Q1010=
16-Jun-2021 SAID35 WAEK 160100 METAR WAEK 160100Z 00000KT 7000 FEW015CB BKN018 25/25 Q1013=
16-Jun-2021 SAID35 WAEK 160200 METAR WAEK 160200Z 30002KT 8000 FEW015CB BKN018 26/25 Q1013=
16-Jun-2021 SAID35 WAEK 160300 METAR WAEK 160300Z 35002KT 8000 FEW015CB BKN018 27/26 Q1012=
16-Jun-2021 SAID35 WAEK 160400 METAR WAEK 160400Z 00000KT 8000 FEW015CB SCT018 26/26 Q1011=
16-Jun-2021 SAID35 WAEK 160600 METAR WAEK 160600Z 00000KT 9999 SCT018 31/26 Q1009=
16-Jun-2021 SAID35 WAEK 162300 METAR WAEK 162300Z 31003KT 9999 SCT020 26/25 Q1012=
17-Jun-2021 SAID35 WAEK 170100 METAR WAEK 170100Z 00000KT 9999 SCT019 29/25 Q1012=
17-Jun-2021 SAID35 WAEK 170300 METAR WAEK 170300Z 13005KT 9999 SCT019 31/25 Q1011=
17-Jun-2021 SAID35 WAEK 170500 METAR WAEK 170500Z 06008KT 9999 SCT019 32/25 Q1010=
17-Jun-2021 SAID35 WAEK 170600 METAR WAEK 170600Z 06009KT 9999 SCT019 32/25 Q1009=
18-Jun-2021 SAID35 WAEK 180000 METAR WAEK 180000Z 05002KT 9000 29/268 Q1012=
18-Jun-2021 SAID35 WAEK 180300 METAR WAEK 180300Z 13003KT 9999 SCT018 31/24 Q1011=
18-Jun-2021 SAID35 WAEK 180500 METAR WAEK 180500Z 17004KT 9999 SCT019 32/24 Q1010=
18-Jun-2021 SAID35 WAEK 180600 METAR WAEK 180600Z 22004KT 9000 FEW016CB SCT018 31/24 Q1008=
19-Jun-2021 SAID35 WAEK 190100 METAR WAEK 190100Z 23002KT 9999 SCT090 30/25 Q1012=
19-Jun-2021 SAID35 WAEK 190300 METAR WAEK 190300Z 26005KT 9999 SCT019 32/23 Q1011=
20-Jun-2021 SAID35 WAEK 200000 METAR WAEK 200000Z 19005KT 9999 29/25 Q1012=
20-Jun-2021 SAID35 WAEK 200300 METAR WAEK 200300Z 20007KT 9999 SCT019 31/25 Q1011=
21-Jun-2021 SAID35 WAEK 210000 METAR WAEK 210000Z 23003KT 9000 FEW CB016 CU018 27/26 Q1012=
21-Jun-2021 SAID35 WAEK 210100 METAR WAEK 210100Z 18003KT 9999 SCT018 29/25 Q1012=
21-Jun-2021 SAID35 WAEK 210200 METAR WAEK 210200Z 23006KT 9999 SCT018 30/26 Q1011=
21-Jun-2021 SAID35 WAEK 210300 METAR WAEK 210300Z 18008KT 9999 SCT018 31/24 Q1011=
21-Jun-2021 SAID35 WAEK 210400 METAR WAEK 210400Z 20008KT 9999 SCT018 31/25 Q1010=
22-Jun-2021 SAID35 WAEK 220000 METAR WAEK 220000Z 180003KT 99999CU019 28/26 Q1013=
22-Jun-2021 SAID35 WAEK 220100 METAR WAEK 220100Z 09003KT 99999 CU019 30/26 Q1012=
22-Jun-2021 SAID35 WAEK 220300 METAR WAEK 220300Z 14003KT 9999 SCT019 31/25 Q1011=
22-Jun-2021 SAID35 WAEK 220400 METAR WAEK 220400Z 13005KT 9999 SCT019 32/25 Q1011=
22-Jun-2021 SAID35 WAEK 220500 METAR WAEK 220500Z 14005KT 9999 SCT019 32/25 Q1010=
23-Jun-2021 SAID35 WAEK 230000 METAR WAEK 230000Z 32003KT 99999 CU019 27/26 Q1013=
23-Jun-2021 SAID35 WAEK 230100 METAR WAEK 230100Z CALM 99999 CU019 29/25 Q1013=
24-Jun-2021 SAID35 WAEK 240000 METAR WAEK 240000Z 290002KT 99999 CU019 28/24 Q1012=
24-Jun-2021 SAID35 WAEK 240200 METAR WAEK 240200Z 13003KT 99999 CU019 31/24 Q1011=
25-Jun-2021 SAID35 WAEK 250000 METAR WAEK 250000Z 23003KT 99999 CU019 29/25 Q1012=
26-Jun-2021 SAID35 WAEK 260000 METAR WAEK 260000Z 05005KT 99999 CU020 30/25 Q1012=
27-Jun-2021 SAID35 WAEK 270100 METAR WAEK 270100Z 30003KT 9000 FEW016 SCT018 27/26 Q1012=
27-Jun-2021 SAID35 WAEK 270200 METAR WAEK 270200Z 12003KT 9000 FEW016 SCT018 29/26 Q1012=
27-Jun-2021 SAID35 WAEK 270300 METAR WAEK 270300Z 12003KT 9999 SCT018 31/24 Q1011=
27-Jun-2021 SAID35 WAEK 270400 METAR WAEK 270400Z 13004KT 9000 FEW016 SCT018 31/24 Q1010=
27-Jun-2021 SAID35 WAEK 270600 METAR WAEK 270600Z 05008KT 8000 FEW056 BKN018 28/24 Q1009=
28-Jun-2021 SAID35 WAEK 280300 METAR WAEK 280300Z 23005KT 9999 SCT018 31/24 Q1011=
28-Jun-2021 SAID35 WAEK 280600 METAR WAEK 280600Z 21003KT 8000 FEW016 SCT018 28/25 Q1008=
28-Jun-2021 SAID35 WAEK 282300 METAR WAEK 282300Z 33003KT 9999 SCT019 26/25 Q1011=
29-Jun-2021 SAID35 WAEK 290100 METAR WAEK 290100Z 15002KT 9999 SCT019 30/26 Q1011=
29-Jun-2021 SAID35 WAEK 290300 METAR WAEK 290300Z 13006KT 9999 SCT018 31/26 Q1010=
29-Jun-2021 SAID35 WAEK 290600 METAR WAEK 290600Z 05006KT 8000 FEW016 SCT018 26/24 Q1008=
30-Jun-2021 SAID35 WAEK 300000 METAR WAEK 300000Z 00000KT 9999 SCT020 28/25 Q1011=
30-Jun-2021 SAID35 WAEK 300300 METAR WAEK 300300Z 11004KT 9999 SCT019 31/26 Q1010=
30-Jun-2021 SAID35 WAEK 300500 METAR WAEK 300500Z 21008KT 8000 FEW015CB SCT018 30/26 Q1009=
30-Jun-2021 SAID35 WAEK 300600 METAR WAEK 300600Z 31006KT 7000 FEW015 BKN018 26/24 Q1009=
30-Jun-2021 SAID35 WAEK 302300 METAR WAEK 302300Z 33003KT 8000 FEW016CB SCT018 25/24 Q1011=
01-Jul-2021 SAID35 WAEK 010000 METAR WAEK 010000Z 20005KT 8000 FEW016CB SCT018 28/25 Q1011=
01-Jul-2021 SAID35 WAEK 010100 METAR WAEK 010100Z 20006KT 9000 FEW016CB SCT018 29/25 Q1011=
01-Jul-2021 SAID35 WAEK 010200 METAR WAEK 010200Z 21008KT 9999 SCT018 29/25 Q1010=
01-Jul-2021 SAID35 WAEK 010300 METAR WAEK 010300Z 19010KT 9999 SCT018 30/25 Q1010=
01-Jul-2021 SAID35 WAEK 010600 METAR WAEK 010600Z 17006KT 9999 BKN018 32/25 Q1007=
02-Jul-2021 SAID35 WAEK 020000 METAR WAEK 020000Z 34002KT 9999 SCT019 28/25 Q1010=
02-Jul-2021 SAID35 WAEK 020300 METAR WAEK 020300Z 15004KT 8000 FEW015CB BKN018 30/25 Q1009=
02-Jul-2021 SAID35 WAEK 020500 METAR WAEK 020500Z 22004KT 8000 FEW015CB BKN018 32/25 Q1007=
02-Jul-2021 SAID35 WAEK 020600 METAR WAEK 020600Z 32007KT 7000 FEW015CB BKN018 27/25 Q1007=
03-Jul-2021 SAID35 WAEK 030000 METAR WAEK 030000Z 34002KT 8000 FEW016CB SCT018 27/25 Q1009=
03-Jul-2021 SAID35 WAEK 030100 METAR WAEK 030100Z 22004KT 8000 FEW016CB SCT018 29/25 Q1009=
03-Jul-2021 SAID35 WAEK 030200 METAR WAEK 030200Z 18011KT 8000 FEW016CB SCT018 30/25 Q1009=
03-Jul-2021 SAID35 WAEK 030300 METAR WAEK 030300Z 20008KT 8000 FEW016CB SCT018 30/25 Q1008=
03-Jul-2021 SAID35 WAEK 030500 METAR WAEK 030500Z 12002KT 8000 FEW016CB SCT018 31/26 Q1007=
03-Jul-2021 SAID35 WAEK 030600 METAR WAEK 030600Z 23003KT 8000 FEW015CB BKN018 30/25 Q1006=
04-Jul-2021 SAID35 WAEK 040000 METAR WAEK 040000Z 20004KT 8000 FEW016CB SCT018 26/25 Q1010=
04-Jul-2021 SAID35 WAEK 040300 METAR WAEK 040300Z 23006KT 8000 FEW016CB SCT018 30/25 Q1008=
04-Jul-2021 SAID35 WAEK 040600 METAR WAEK 040600Z 22005KT 8000 FEW015CB SCT018 29/25 Q1006=
05-Jul-2021 SAID35 WAEK 050000 METAR WAEK 050000Z 31003KT 8000 FEW015CB SCT018 26/25 Q1012=
05-Jul-2021 SAID35 WAEK 050300 METAR WAEK 050300Z 13008KT 7000 FEW015CB BKN018 30/23 Q1011=
05-Jul-2021 SAID35 WAEK 050600 METAR WAEK 050600Z 06008KT 8000 FEW056 BKN018 28/24 Q1009=
06-Jul-2021 SAID35 WAEK 060000 METAR WAEK 060000Z 33003KT 9999 SCT018 26/25 Q1012=
06-Jul-2021 SAID35 WAEK 060300 METAR WAEK 060300Z 22004KT 9999 SCT018 31/24 Q1011=
06-Jul-2021 SAID35 WAEK 060600 METAR WAEK 060600Z 06008KT 9999 SCT018 28/24 Q1009=
07-Jul-2021 SAID35 WAEK 070000 METAR WAEK 070000Z 22004KT 9999 SCT018 29/25 Q1009=
07-Jul-2021 SAID35 WAEK 072300 METAR WAEK 070300Z 31002KT 9999 SCT018 25/25 Q1010=
08-Jul-2021 SAID35 WAEK 080000 METAR WAEK 080000Z 0000KT 9999 SCT018 28/26 Q1010=
08-Jul-2021 SAID35 WAEK 080500 METAR WAEK 080500Z 21004KT 9999 SCT018 33/24 Q1007=
09-Jul-2021 SAID35 WAEK 090000 METAR WAEK 090000Z 0000KT 9999 SCT019 27/26 Q1009=
09-Jul-2021 SAID35 WAEK 090100 METAR WAEK 090100Z 19003KT 9999 SCT018 30/25 Q1009=
09-Jul-2021 SAID35 WAEK 090300 METAR WAEK 090300Z 15007KT 9999 SCT018 30/24 Q1009=
09-Jul-2021 SAID35 WAEK 090600 METAR WAEK 090600Z 31005KT 8000 FEW015CB BKN018 28/24 Q1007=
10-Jul-2021 SAID35 WAEK 100000 METAR WAEK 100000Z 31002KT 9999 SCT018 26/25 Q1010=
10-Jul-2021 SAID35 WAEK 100100 METAR WAEK 100100Z 01002KT 9999 SCT018 28/25 Q1009=
10-Jul-2021 SAID35 WAEK 100300 METAR WAEK 100300Z 00000KT 9999 SCT018 31/26 Q1008=
10-Jul-2021 SAID35 WAEK 100500 METAR WAEK 100500Z 13006KT 8000 FEW016CB SCT018 29/25 Q1007=
10-Jul-2021 SAID35 WAEK 100600 METAR WAEK 100600Z 13006KT 8000 FEW015CB BKN018 28/24 Q1007=
11-Jul-2021 SAID35 WAEK 110000 METAR WAEK 110000Z 32002KT 9999 SCT019 28/25 Q1010=
11-Jul-2021 SAID35 WAEK 110300 METAR WAEK 110300Z 09003KT 9999 SCT018 30/24 Q1009=
11-Jul-2021 SAID35 WAEK 110600 METAR WAEK 110600Z 08012KT 8000 FEW015CB BKN018 29/24 Q1008=
12-Jul-2021 SAID35 WAEK 120300 METAR WAEK 120300Z 13004KT 9999 SCT018 30/24 Q1009=
12-Jul-2021 SAID35 WAEK 120600 METAR WAEK 120600Z 07007KT 8000 FEW015CB BKN018 29/24 Q1008=
13-Jul-2021 SAID35 WAEK 130000 METAR WAEK 130000Z 22004KT 9999 SCT019 27/25 Q1009=
13-Jul-2021 SAID35 WAEK 130300 METAR WAEK 130300Z 18006KT 9999 SCT018 31/25 Q1007=
13-Jul-2021 SAID35 WAEK 130600 METAR WAEK 130600Z 21006KT 8000 FEW016CB SCT018 29/24 Q1005=
14-Jul-2021 SAID35 WAEK 140000 METAR WAEK 140000Z 00000KT 9999 SCT019 28/25 Q1011=
14-Jul-2021 SAID35 WAEK 140300 METAR WAEK 140300Z 14006KT 9999 SCT018 31/26 Q1010=
14-Jul-2021 SAID35 WAEK 140600 METAR WAEK 140600Z 06006KT 8000 FEW016CB SCT018 26/24 Q1008=
15-Jul-2021 SAID35 WAEK 150000 METAR WAEK 150000Z 32004KT 7000 FEW015CB BKN018 28/24 Q1009=
15-Jul-2021 SAID35 WAEK 150600 METAR WAEK 150600Z 19006KT 8000 FEW015CB BKN018 25/24 Q1004=
16-Jul-2021 SAID35 WAEK 160000 METAR WAEK 160000Z 33003KT 9999 SCT019 29/25 Q1011=
16-Jul-2021 SAID35 WAEK 160300 METAR WAEK 160300Z 18004KT 9999 SCT019 31/25 Q1010=
16-Jul-2021 SAID35 WAEK 160600 METAR WAEK 160600Z 13007KT 9999 SCT018 30/25 Q1008=
17-Jul-2021 SAID35 WAEK 170000 METAR WAEK 170000Z 27003KT 7000 FEW015CB BKN018 24/24 Q1011=
17-Jul-2021 SAID35 WAEK 170300 METAR WAEK 170300Z 21004KT 8000 FEW015CB BKN018 26/25 Q1010=
17-Jul-2021 SAID35 WAEK 170600 METAR WAEK 170600Z 20006KT 8000 FEW015CB BKN018 26/24 Q1007=
18-Jul-2021 SAID35 WAEK 180000 METAR WAEK 180000Z 20006KT 8000 FEW015CB BKN018 27/24 Q1011=
18-Jul-2021 SAID35 WAEK 180300 METAR WAEK 180300Z 19005KT 8000 FEW015CB BKN018 29/24 Q1010=
18-Jul-2021 SAID35 WAEK 180600 METAR WAEK 180600Z 19007 KT 8000 FEW015CB BKN018 26/24 Q1007=
19-Jul-2021 SAID35 WAEK 190000 METAR WAEK 190000Z 24002KT 99999 SCTCU018 30/24 Q1011=
19-Jul-2021 SAID35 WAEK 190300 METAR WAEK 190300Z 24005KT 9999 SCT CU019 31/25 Q1009=
19-Jul-2021 SAID35 WAEK 190600 METAR WAEK 190600Z 21005KT 99999 SCTCU018 31/24 Q1007=
20-Jul-2021 SAID35 WAEK 200000 METAR WAEK 200000Z 26002KT 99999 SCTCU018 28/26 Q1011=
20-Jul-2021 SAID35 WAEK 200600 METAR WAEK 200600Z 21005KT 99999 SCTCU018 30/24 Q1010=
21-Jul-2021 SAID35 WAEK 210000 METAR WAEK 210000Z 24007KT 99999 SCTCU018 28/26 Q1011=
21-Jul-2021 SAID35 WAEK 210500 METAR WAEK 210500Z 19009KT 9000 FEWCB016 SCTCU018 33/26 Q1008=
21-Jul-2021 SAID35 WAEK 210600 METAR WAEK 210600Z 20009KT 90000 FEWCB016 SCTCU018 30/24 Q1008=
22-Jul-2021 SAID35 WAEK 220000 METAR WAEK 220000Z 21007KT 99999 SCTCU019 28/24 Q1011=
22-Jul-2021 SAID35 WAEK 220600 METAR WAEK 220600Z 21005KT 99999 SCTCU018 31/23 Q1007=
23-Jul-2021 SAID35 WAEK 230000 METAR WAEK 230000Z 19005KT 99999 SCTCU019 29/25 Q1010=
23-Jul-2021 SAID35 WAEK 230300 METAR WAEK 230300Z 2405KT 99999 SCT CU019 31/24 Q1009=
23-Jul-2021 SAID35 WAEK 230600 METAR WAEK 230600Z 21807KT 99999 SCTCU018 31/23 Q1007=
24-Jul-2021 SAID35 WAEK 240000 METAR WAEK 240000Z 20006KT 99999 SCTCU019 29/25 Q1011=
24-Jul-2021 SAID35 WAEK 240300 METAR WAEK 240300Z 22006KT 99999 SCT CU019 30/25 Q1008=
24-Jul-2021 SAID35 WAEK 240600 METAR WAEK 240600Z 22206KT 99999 SCTCU018 31/23 Q1009=
25-Jul-2021 SAID35 WAEK 250000 METAR WAEK 250000Z 23002KT 99999 SCTCU019 29/24 Q1011=
25-Jul-2021 SAID35 WAEK 250100 METAR WAEK 250100Z 19007KT 99999 SCTCU019 30/24 Q1011=
25-Jul-2021 SAID35 WAEK 250200 METAR WAEK 250200Z 23004KT 99999 SCTCU019 30/24 Q1010=
25-Jul-2021 SAID35 WAEK 250300 METAR WAEK 250300Z 21004KT 99999 SCT CU019 30/25 Q1010=
25-Jul-2021 SAID35 WAEK 250600 METAR WAEK 250600Z 20010KT 99999 SCTCU018 31/24 Q1007=
25-Jul-2021 SAID35 WAEK 252300 METAR WAEK 252300Z 22002KT 99999 SCT CU019 28/24 Q1010=
26-Jul-2021 SAID35 WAEK 260000 METAR WAEK 260000Z 22005KT 99999 SCTCU019 29/24 Q1011=
26-Jul-2021 SAID35 WAEK 260300 METAR WAEK 260300Z 22004KT 99999 SCT CU019 31/25 Q1009=
27-Jul-2021 SAID35 WAEK 270000 METAR WAEK 270000Z 20008KT 99999 SCTCU019 30/24 Q1010=
27-Jul-2021 SAID35 WAEK 270200 METAR WAEK 270200Z 21009KT 99999 SCTCU019 31/23 Q1010=
27-Jul-2021 SAID35 WAEK 270300 METAR WAEK 270300Z 20006KT 99999 SCT CU020 32/23 Q1009=
27-Jul-2021 SAID35 WAEK 270600 METAR WAEK 270600Z 21005KT 99999 FEWCU020 33/23 Q1007=
28-Jul-2021 SAID35 WAEK 280000 METAR WAEK 280000Z 19006KT 99999 SCTCU019 29/25 Q1011=
29-Jul-2021 SAID35 WAEK 290000 METAR WAEK 290000Z 19004KT 9999 SCT018 29/26 Q1011=
29-Jul-2021 SAID35 WAEK 290100 METAR WAEK 290100Z 20005KT 9999 SCT019 31/26 Q1010=
29-Jul-2021 SAID35 WAEK 290300 METAR WAEK 290300Z 20006KT 9999 SCT020 32/24 Q1010=
29-Jul-2021 SAID35 WAEK 290400 METAR WAEK 290400Z 25006KT 9999 SCT019 32/24 Q1009=
29-Jul-2021 SAID35 WAEK 290600 METAR WAEK 290600Z 25006KT 9999 SCT018 32/23 Q1007=
30-Jul-2021 SAID35 WAEK 300000 METAR WAEK 300000Z 11002KT 9999 SCT018 28/25 Q1012=
30-Jul-2021 SAID35 WAEK 300200 METAR WAEK 300200Z 05003KT 9999 SCT018 32/23 Q1011=
30-Jul-2021 SAID35 WAEK 300400 METAR WAEK 300400Z 08006KT 9999 SCT020 32/25 Q1010=
30-Jul-2021 SAID35 WAEK 300600 METAR WAEK 300600Z 11006KT 9999 SCT019 32/25 Q1008=
31-Jul-2021 SAID35 WAEK 310000 METAR WAEK 310000Z 21002KT 9999 SCT018 28/26 Q1012=
31-Jul-2021 SAID35 WAEK 310200 METAR WAEK 310200Z 25003KT 9999 SCT019 31/25 Q1011=
31-Jul-2021 SAID35 WAEK 310300 METAR WAEK 310300Z 19007KT 9999 SCT019 32/25 Q1010=
31-Jul-2021 SAID35 WAEK 310400 METAR WAEK 310400Z 20009KT 9999 SCT019 33/24 Q1010=
31-Jul-2021 SAID35 WAEK 310600 METAR WAEK 310600Z 25008KT 9999 SCT019 31/24 Q1008=
01-Aug-2021 SAID35 WAEK 010000 METAR WAEK 010000Z 20004KT 9999 SCT018 29/25 Q1011=
01-Aug-2021 SAID35 WAEK 010100 METAR WAEK 010100Z 24005KT 9999 SCT018 31/25 Q1011=
01-Aug-2021 SAID35 WAEK 010300 METAR WAEK 010300Z 22006KT 9999 SCT018 30/26 Q1010=
01-Aug-2021 SAID35 WAEK 010600 METAR WAEK 010600Z 24007KT 9999 SCT018 29/25 Q1008=
02-Aug-2021 SAID35 WAEK 020000 METAR WAEK 020000Z 23004KT 9999 SCT018 28/25 Q1012=
02-Aug-2021 SAID35 WAEK 020200 METAR WAEK 020200Z 25004KT 9999 SCT018 31/25 Q1012=
02-Aug-2021 SAID35 WAEK 020300 METAR WAEK 020300Z 24005KT 9999 SCT018 31/26 Q1011=
02-Aug-2021 SAID35 WAEK 020600 METAR WAEK 020600Z 26008KT 9999 SCT018 28/25 Q1009=
03-Aug-2021 SAID35 WAEK 030100 METAR WAEK 030100Z 18005KT 9999 SCT018 31/25 Q1012=
03-Aug-2021 SAID35 WAEK 030200 METAR WAEK 030200Z 21004KT 9999 SCT018 31/25 Q1012=
03-Aug-2021 SAID35 WAEK 030300 METAR WAEK 030300Z 19005KT 9999 SCT019 32/25 Q1011=
03-Aug-2021 SAID35 WAEK 030500 METAR WAEK 030500Z 19008KT 9999 SCT018 33/23 Q1009=
03-Aug-2021 SAID35 WAEK 030600 METAR WAEK 030600Z 20010KT 9999 SCT018 33/24 Q1009=
04-Aug-2021 SAID35 WAEK 040000 METAR WAEK 040000Z 23002KT 9999 SCT018 29/26 Q1013=
04-Aug-2021 SAID35 WAEK 040100 METAR WAEK 040100Z 17004KT 9999 SCT018 31/25 Q1013=
04-Aug-2021 SAID35 WAEK 040200 METAR WAEK 040200Z 21005KT 9999 SCT018 31/24 Q1013=
04-Aug-2021 SAID35 WAEK 040300 METAR WAEK 040300Z 22007KT 9999 SCT019 32/24 Q1012=
04-Aug-2021 SAID35 WAEK 040600 METAR WAEK 040600Z 20006KT 9999 SCT018 30/25 Q1009=
05-Aug-2021 SAID35 WAEK 050300 METAR WAEK 050300Z 15004KT 9999 SCT018 31/24 Q1012=
05-Aug-2021 SAID35 WAEK 050400 METAR WAEK 050400Z 13003KT 9999 SCT018 30/24 Q1010=
05-Aug-2021 SAID35 WAEK 050500 METAR WAEK 050500Z 19005KT 9999 SCT018 30/24 Q1010=
05-Aug-2021 SAID35 WAEK 050600 METAR WAEK 050600Z 24003KT 9999 SCT018 32/25 Q1008=
06-Aug-2021 SAID35 WAEK 060100 METAR WAEK 060100Z 22007KT 9999 SCT018 29/26 Q1012=
06-Aug-2021 SAID35 WAEK 060300 METAR WAEK 060300Z 24005KT 9999 SCT018 29/25 Q1012=
06-Aug-2021 SAID35 WAEK 060600 METAR WAEK 060600Z 22007KT 9999 SCT018 32/25 Q1009=
07-Aug-2021 SAID35 WAEK 070300 METAR WAEK 070300Z 23006KT 9999 SCT019 30/25 Q1012=
07-Aug-2021 SAID35 WAEK 070600 METAR WAEK 070600Z 24007KT 9999 SCT018 31/25 Q1009=
08-Aug-2021 SAID35 WAEK 080300 METAR WAEK 080300Z 23005KT 9999 SCT018 32/24 Q1012=
09-Aug-2021 SAID35 WAEK 090000 METAR WAEK 090000Z 28002KT 9999 SCT018 29/26 Q1012=
09-Aug-2021 SAID35 WAEK 090100 METAR WAEK 090100Z 19005KT 9999 SCT018 29/26 Q1012=
09-Aug-2021 SAID35 WAEK 090200 METAR WAEK 090200Z 24008KT 9999 SCT08 30/24 Q1012=
09-Aug-2021 SAID35 WAEK 090600 METAR WAEK 090600Z 23006KT 9999 SCT018 31/24 Q1009=
10-Aug-2021 SAID35 WAEK 100000 METAR WAEK 100000Z 13002KT 9999 SCT018 29/25 Q1012=
10-Aug-2021 SAID35 WAEK 100300 METAR WAEK 100300Z 18002KT 9999 SCT019 31/24 Q1011=
10-Aug-2021 SAID35 WAEK 100500 METAR WAEK 100500Z 0805KT 9999 FEWCB016 SCTCU018 30/25 Q1010=
10-Aug-2021 SAID35 WAEK 100600 METAR WAEK 100600Z 0805KT 9999 FEWCB016 SCTCU018 30/25 Q1010=
11-Aug-2021 SAID35 WAEK 110000 METAR WAEK 110000Z 32003KT 9999 SCT019 27/24 Q1013=
11-Aug-2021 SAID35 WAEK 110300 METAR WAEK 110300Z 11004KT 9999 SCT019 31/24 Q1011=
11-Aug-2021 SAID35 WAEK 110600 METAR WAEK 110600Z 09003KT 9999 SCT018 31/24 Q1009=
12-Aug-2021 SAID35 WAEK 120000 METAR WAEK 120000Z 17002KT 9999 SCT019 29/26 Q1013=
12-Aug-2021 SAID35 WAEK 120600 METAR WAEK 120600Z 06004KT 9999 SCT018 30/24 Q1009=
13-Aug-2021 SAID35 WAEK 130000 METAR WAEK 130000Z 26004KT 9999 SCT018 27/24 Q1011=
13-Aug-2021 SAID35 WAEK 130300 METAR WAEK 130300Z 21003KT 9000 FEWCB016 SCTCU018 29/25 Q1010=
13-Aug-2021 SAID35 WAEK 130600 METAR WAEK 130600Z 34002KT 9000 FEW016CB SCT018 24/23 Q1008RA=
14-Aug-2021 SAID35 WAEK 140300 METAR WAEK 140300Z 32005KT 9000 SCT018 30/25 Q1011=
14-Aug-2021 SAID35 WAEK 140600 METAR WAEK 140600Z 10006KT 9000 SCT018 30/23 Q1008=
15-Aug-2021 SAID35 WAEK 150000 METAR WAEK 150000Z 24005KT 9999 SCT018 27/25 Q1012=
15-Aug-2021 SAID35 WAEK 150300 METAR WAEK 150300Z 32005KT 9999 SCT018 31/24 Q1012=
15-Aug-2021 SAID35 WAEK 150600 METAR WAEK 150600Z 12006KT 8000 FEW016CB SCT018 30/25 Q1009=
16-Aug-2021 SAID35 WAEK 160000 METAR WAEK 160000Z 23004 KT 9999 SCT018 28/25 Q1009=
16-Aug-2021 SAID35 WAEK 160300 METAR WAEK 160300Z 21006KT 9999 SCT018 31/25 Q1007=
16-Aug-2021 SAID35 WAEK 160600 METAR WAEK 160600Z 23007KT 8000 FEW016CB SCT018 31/25 Q1005=
17-Aug-2021 SAID35 WAEK 170000 METAR WAEK 170000Z 08002KT 9999 SCT018 29/26 Q1012=
17-Aug-2021 SAID35 WAEK 170100 METAR WAEK 170100Z 19004KT 9999 SCT018 31/26 Q1012=
17-Aug-2021 SAID35 WAEK 170300 METAR WAEK 170300Z 11002KT 9999 SCT019 32/24 Q1010=
17-Aug-2021 SAID35 WAEK 170400 METAR WAEK 170400Z 1 11006KT 9999 SCT018 32/24 Q1009=
17-Aug-2021 SAID35 WAEK 170500 METAR WAEK 170500Z 14007KT 9999 BKN018 32/24 Q1008=
17-Aug-2021 SAID35 WAEK 170600 METAR WAEK 170600Z 15010KT 9999 BKN018 31/24 Q1007=
18-Aug-2021 SAID35 WAEK 180000 METAR WAEK 180000Z 21002KT 9999 FEW020 29/26 Q1010=
18-Aug-2021 SAID35 WAEK 180300 METAR WAEK 180300Z 11002KT 9999 SCT020 32/24 Q1008=
18-Aug-2021 SAID35 WAEK 180600 METAR WAEK 180600Z 17006KT 9999 SCT019 32/24 Q1005=
19-Aug-2021 SAID35 WAEK 190000 METAR WAEK 190000Z 34004KT 9999 SCT019 26/25 Q1010=
19-Aug-2021 SAID35 WAEK 190100 METAR WAEK 190100Z 22002KT 9999 SCT018 29/25 Q1012=
19-Aug-2021 SAID35 WAEK 190200 METAR WAEK 190200Z 03003KT 8000 FEW016 SCT018 30/25 Q1010=
19-Aug-2021 SAID35 WAEK 190400 METAR WAEK 190400Z 07008KT 8000 FEW015CB BKN018 29/25 Q1010=
19-Aug-2021 SAID35 WAEK 190600 METAR WAEK 190600Z 18003KT 8000 FEW015CB BKN018 27/25 Q1008=
20-Aug-2021 SAID35 WAEK 200000 METAR WAEK 200000Z 31002KT 9999 SCT019 28/25 Q1012=
20-Aug-2021 SAID35 WAEK 200100 METAR WAEK 200100Z 16002KT 9999 SCT019 30/25 Q1011=
20-Aug-2021 SAID35 WAEK 200300 METAR WAEK 200300Z 14003KT 8000 FEW015CB SCT018 30/25 Q1010=
20-Aug-2021 SAID35 WAEK 200500 METAR WAEK 200500Z 15004KT 8000 FEW015CB SCT018 30/25 Q1008=
20-Aug-2021 SAID35 WAEK 200600 METAR WAEK 200600Z 13005KT 8000 FEW015CB BKN018 30/25 Q1007=
21-Aug-2021 SAID35 WAEK 210000 METAR WAEK 210000Z 330004KT 9999 SCT019 26/24 Q1010=
21-Aug-2021 SAID35 WAEK 210300 METAR WAEK 210300Z 15005KT 8000 FEW015CB SCT018 30/25 Q1010=
21-Aug-2021 SAID35 WAEK 210600 METAR WAEK 210600Z 14006KT 8000 FEW015CB BKN018 27/25 Q1008=
22-Aug-2021 SAID35 WAEK 220000 METAR WAEK 220000Z 300005KT 9999 SCT019 29/24 Q1011=
22-Aug-2021 SAID35 WAEK 220300 METAR WAEK 220300Z 06005KT 8000 FEW015CB SCT018 30/25 Q1010=
22-Aug-2021 SAID35 WAEK 220600 METAR WAEK 220600Z 13005KT 8000 FEW015CB BKN018 27/25 Q1008=
23-Aug-2021 SAID35 WAEK 230000 METAR WAEK 230000Z 28002KT 9999 SCT018 27/25 Q1011=
23-Aug-2021 SAID35 WAEK 230300 METAR WAEK 230300Z 15002KT 8000 FEW015CB SCT018 28/26 Q1010=
23-Aug-2021 SAID35 WAEK 230600 METAR WAEK 230600Z 13003KT 9000 FEW016CB BKN018 28/26 Q1008=
24-Aug-2021 SAID35 WAEK 240000 METAR WAEK 240000Z 00000KT 9999 SCT019 27/25 Q1010=
24-Aug-2021 SAID35 WAEK 240100 METAR WAEK 240100Z 00000KT 9999 SCT019 29/24 Q1011=
24-Aug-2021 SAID35 WAEK 240300 METAR WAEK 240300Z 11005KT 9999 SCT018 29/25 Q1010=
24-Aug-2021 SAID35 WAEK 240600 METAR WAEK 240600Z 05005KT 9000 BKN018 30/24 Q1008=
25-Aug-2021 SAID35 WAEK 250000 METAR WAEK 250000Z 23004KT 9000 FEW016CB SCT018 27/66 Q1011=
26-Aug-2021 SAID35 WAEK 260000 METAR WAEK 260000Z 00000KT 9999 SCT018 26/25 Q1011=
26-Aug-2021 SAID35 WAEK 260300 METAR WAEK 260300Z 14004KT 9999 SCT018 28/23 Q1010=
26-Aug-2021 SAID35 WAEK 260600 METAR WAEK 260600Z 13004KT 9999 SCT018 29/23 Q1008=
27-Aug-2021 SAID35 WAEK 270000 METAR WAEK 270000Z 00000KT 9999 SCT019 27/24 Q1010=
27-Aug-2021 SAID35 WAEK 270600 METAR WAEK 270600Z 15004KT 9999 SCT019 31/23 Q1007=
28-Aug-2021 SAID35 WAEK 280000 METAR WAEK 280000Z 30005KT 9999 SCT018 27/25 Q1010=
28-Aug-2021 SAID35 WAEK 280300 METAR WAEK 280300Z 07002KT 8000 FEW016CB SCT018 27/24 Q1008=
28-Aug-2021 SAID35 WAEK 280600 METAR WAEK 280600Z 70902KT 9000 FEW16CB SCT018 27/25 Q1006=
29-Aug-2021 SAID35 WAEK 290000 METAR WAEK 290000Z 23004KT 99999 SCT018 28/24 Q1010=
29-Aug-2021 SAID35 WAEK 290300 METAR WAEK 290300Z 23004KT 8000 FEW 015CB SCT018 27/24 Q1009=
29-Aug-2021 SAID35 WAEK 290600 METAR WAEK 290600Z 24006KT 8000 FEW015CB SCT018 27/25 Q1007=
30-Aug-2021 SAID35 WAEK 300600 METAR WAEK 300600Z 22006KT 8000 FEW015CB BKN018 26/25 Q1006=
31-Aug-2021 SAID35 WAEK 310000 METAR WAEK 310000Z 23002KT 99999 SCT019 28/24 Q1012=
31-Aug-2021 SAID35 WAEK 310100 METAR WAEK 310100Z 00000KT 9999 SCT019 30/25 Q1011=
31-Aug-2021 SAID35 WAEK 310200 METAR WAEK 310200Z 12002KT 9999 SCT019 30/25 Q1011=
31-Aug-2021 SAID35 WAEK 310300 METAR WAEK 310300Z 14005KT 9999 SCT019 32/25 Q1009=
01-Sep-2021 SAID35 WAEK 010300 METAR WAEK 010300Z 12003KT 9999 SCT018 32/24 Q1009=
01-Sep-2021 SAID35 WAEK 010500 METAR WAEK 010500Z 17006KT 7000 FEW015CB BKN018 25/24 Q1008=
01-Sep-2021 SAID35 WAEK 010600 METAR WAEK 010600Z 02003KT 7000 FEW015CB BKN018 25/25 Q1009=
02-Sep-2021 SAID35 WAEK 020000 METAR WAEK 020000Z 25002KT 99999 SCT018 28/25 Q1011=
02-Sep-2021 SAID35 WAEK 020600 METAR WAEK 020600Z 22004KT 9999 SCT018 32/25 Q1007=
03-Sep-2021 SAID35 WAEK 030000 METAR WAEK 030000Z 00000KT 99999 SCT019 29/25 Q1010=
03-Sep-2021 SAID35 WAEK 030100 METAR WAEK 030100Z 12404KT 9999 SCT019 31/26 Q1010 =
03-Sep-2021 SAID35 WAEK 030300 METAR WAEK 030300Z 10004KT 9000 FEW016CB SCT018 32/24 Q1008=
03-Sep-2021 SAID35 WAEK 030400 METAR WAEK 030400Z 08006KT 9000 FEW016CB SCT018 32/25 Q1007 =
03-Sep-2021 SAID35 WAEK 030600 METAR WAEK 030600Z 08005KT 8000 FEW160CB SCT018 31/25 Q1006=
04-Sep-2021 SAID35 WAEK 040100 METAR WAEK 040100Z 11004KT 9000 FEW016CB SCT018 29/25 Q1008 =
04-Sep-2021 SAID35 WAEK 040300 METAR WAEK 040300Z 08005KT 9000 FEW016CB SCT018 32/24 Q1009=
04-Sep-2021 SAID35 WAEK 040600 METAR WAEK 040600Z 07005KT 8000 FEW160CB SCT018 31/25 Q1005=
05-Sep-2021 SAID35 WAEK 050300 METAR WAEK 050300Z 06005KT 9999 SCT018 32/24 Q1010=
05-Sep-2021 SAID35 WAEK 050600 METAR WAEK 050600Z 11004KT 8000 FEW160CB SCT018 30/24 Q1007=
06-Sep-2021 SAID35 WAEK 060000 METAR WAEK 060000Z 27005KT 9999 SCT018 28/25 Q1012=
06-Sep-2021 SAID35 WAEK 060600 METAR WAEK 060600Z 08007KT 7000 FEW015CB BKN018 25/24 Q1010=
07-Sep-2021 SAID35 WAEK 070000 METAR WAEK 070000Z 30002KT 9999 SCT019 28/25 Q1012=
07-Sep-2021 SAID35 WAEK 070300 METAR WAEK 070300Z 14005KT 9999 SCT018 31/26 Q1010=
07-Sep-2021 SAID35 WAEK 070600 METAR WAEK 070600Z 07006KT 8000 FEW016CB SCT018 26/24 Q1008=
07-Sep-2021 SAID35 WAEK 072300 METAR WAEK 072300Z 23005KT 9999 SCT019 28/26 Q1009=
08-Sep-2021 SAID35 WAEK 080000 METAR WAEK 080000Z 21006KT 9999 SCT019 29/25 Q1009=
08-Sep-2021 SAID35 WAEK 080100 METAR WAEK 080000Z 23004KT 9999 SCT019 30/25 Q1008=
08-Sep-2021 SAID35 WAEK 080200 METAR WAEK 080200Z 19003KT 9999 SCT019 31/25 Q1009=
08-Sep-2021 SAID35 WAEK 080300 METAR WAEK 080300Z 20002KT 9999 SCT018 32/25 Q1008=
08-Sep-2021 SAID35 WAEK 080500 METAR WAEK 080500Z 20007KT 8000 FEW016CB SCT018 32/25 Q1007=
08-Sep-2021 SAID35 WAEK 080600 METAR WAEK 080600Z 20008KT 8000 FEW016CB SCT018 32/25 Q1006=
09-Sep-2021 SAID35 WAEK 090000 METAR WAEK 090000Z 32003KT 9999 SCT018 26/25 Q1010=
09-Sep-2021 SAID35 WAEK 090100 METAR WAEK 090000Z 35004KT 9000 FEW016CB BKN018 28/25 Q1011=
09-Sep-2021 SAID35 WAEK 090300 METAR WAEK 090300Z 09005KT 8000 FEW016CB BKN018 30/24 Q1010=
09-Sep-2021 SAID35 WAEK 090600 METAR WAEK 090600Z 06004KT 8000 FEW015CB BKN018 29/25 Q1008=
10-Sep-2021 SAID35 WAEK 100000 METAR WAEK 100000Z 31004KT 9999 SCT018 28/26 Q1011=
10-Sep-2021 SAID35 WAEK 100300 METAR WAEK 100300Z 06005KT 9999 CST019 32/25 Q1010=
10-Sep-2021 SAID35 WAEK 100600 METAR WAEK 100600Z 07009KT 9999 SCT019 32/26 Q1007=
11-Sep-2021 SAID35 WAEK 110000 METAR WAEK 110000Z 35003KT 9999 BKN018 27/25 Q1011=
11-Sep-2021 SAID35 WAEK 110100 METAR WAEK 110100Z 24004KT 9999 BKN018 27/25 Q1011=
11-Sep-2021 SAID35 WAEK 110300 METAR WAEK 110300Z 05003KT 8000 FEW15CB BKN018 28/25 Q1010=
11-Sep-2021 SAID35 WAEK 110400 METAR WAEK 110400Z 04002KT 8000 FEW015CB BKN018 26/25 Q1010=
11-Sep-2021 SAID35 WAEK 110600 METAR WAEK 110600Z 03005KT 8000 FEW015CB BKN018 27/24 Q1009=
12-Sep-2021 SAID35 WAEK 120000 METAR WAEK 120000Z 29003KT 9999 SCT018 28/25 Q1010=
12-Sep-2021 SAID35 WAEK 120300 METAR WAEK 120300Z 13004KT 9999 SCT019 31/23 Q1009=
12-Sep-2021 SAID35 WAEK 120600 METAR WAEK 120600Z 10007KT 9000 FEW016CB BKN018 31/25 Q1005=
13-Sep-2021 SAID35 WAEK 130000 METAR WAEK 130000Z 29003KT 9999 SCT018 27/26 Q1011=
13-Sep-2021 SAID35 WAEK 130300 METAR WAEK 130300Z 29003KT 9999 SCT018 31/25 Q1010=
13-Sep-2021 SAID35 WAEK 130600 METAR WAEK 130600Z 18004KT 9999 SCT019 32/23 Q1007=
14-Sep-2021 SAID35 WAEK 140000 METAR WAEK 140000Z 08003KT 9999 SCT018 28/25 Q1012=
14-Sep-2021 SAID35 WAEK 140300 METAR WAEK 140300Z 18006KT 9999 SCT018 32/25 Q1011=
14-Sep-2021 SAID35 WAEK 140600 METAR WAEK 140600Z 09006KT 9999 SCT018 32 /24 Q1008=
15-Sep-2021 SAID35 WAEK 150000 METAR WAEK 150000Z 32002KT 9999 SCT018 28/26 Q1011=
15-Sep-2021 SAID35 WAEK 150300 METAR WAEK 150300Z 16002KT 9999 SCT018 31/24 Q1010=
15-Sep-2021 SAID35 WAEK 150600 METAR WAEK 150600Z 17005KT 9999 SCT019 33 /23 Q1008=
16-Sep-2021 SAID35 WAEK 160000 METAR WAEK 160000Z 27003KT 9000 FEW016CB BKN018 27/25 Q1011=
16-Sep-2021 SAID35 WAEK 160300 METAR WAEK 160300Z 16009KT 9999 SCT018 30/25 Q1010=
16-Sep-2021 SAID35 WAEK 160600 METAR WAEK 160600Z 22006KT 8000 FEW016CB BKN018 27/25 Q1008 RA=
17-Sep-2021 SAID35 WAEK 170000 METAR WAEK 170000Z 19006KT 9999 BKN018 27/23 Q1011=
17-Sep-2021 SAID35 WAEK 170100 METAR WAEK 170100Z 18007KT 9999 BKN018 29/25 Q1011=
17-Sep-2021 SAID35 WAEK 170200 METAR WAEK 170200Z 21007KT 9000 FEW016CB BKN018 29/25 Q1011=
17-Sep-2021 SAID35 WAEK 170300 METAR WAEK 170300Z 21006KT 9000 FEW016CB BKN018 29/25 Q1010=
17-Sep-2021 SAID35 WAEK 170600 METAR WAEK 170600Z 22004KT 9000 FEW016CB BKN018 29/23 Q1008=
18-Sep-2021 SAID35 WAEK 180000 METAR WAEK 180000Z 32003KT 9000 FEW016CB BKN018 27/24 Q1011=
18-Sep-2021 SAID35 WAEK 180300 METAR WAEK 180300Z 09006KT 9000 FEW016CB BKN018 28/23 Q1010=
19-Sep-2021 SAID35 WAEK 190000 METAR WAEK 190000Z 03005KT 9999 SCT018 29/25 Q1011=
19-Sep-2021 SAID35 WAEK 190300 METAR WAEK 190300Z 04006KT 9999 SCT018 31/23 Q1009=
19-Sep-2021 SAID35 WAEK 190600 METAR WAEK 190600Z 07004KT 9999 BKN018 30/24 Q1008=
20-Sep-2021 SAID35 WAEK 200000 METAR WAEK 200000Z 27004KT 9999 SCT019 29/25 Q1011=
20-Sep-2021 SAID35 WAEK 200300 METAR WAEK 200300Z 18006KT 9999 SCT019 32/25 Q1009=
20-Sep-2021 SAID35 WAEK 200600 METAR WAEK 200600Z 24003KT 9999 SCT018 31/23 Q1009=
21-Sep-2021 SAID35 WAEK 210600 METAR WAEK 210600Z 09004KT 9000 FEW016CB SCT018 30/25 Q1008=
22-Sep-2021 SAID35 WAEK 220000 METAR WAEK 220000Z 33004KT 9000 FEW016CB SCT018 26/24 Q1012=
22-Sep-2021 SAID35 WAEK 220300 METAR WAEK 220300Z 10006KT 9999 SCT018 29/25 Q1011=
22-Sep-2021 SAID35 WAEK 220600 METAR WAEK 220600Z 08006KT 9999 SCT018 29/26 Q1012=
23-Sep-2021 SAID35 WAEK 230000 METAR WAEK 230000Z 18002KT 9999 SCT019 29/24 Q1011=
23-Sep-2021 SAID35 WAEK 230300 METAR WAEK 230300Z 19008KT 9999 SCT018 30/24 Q1010=
23-Sep-2021 SAID35 WAEK 230600 METAR WAEK 230600Z 20005KT 9000 FEW016CB SCT018 29/24 Q1008=
24-Sep-2021 SAID35 WAEK 240000 METAR WAEK 240000Z 21007KT 9000 FEW016CB SCT018 27/25 Q1011=
24-Sep-2021 SAID35 WAEK 240300 METAR WAEK 240300Z 19006KT 9000 FEW016CB SCT018 29/24 Q1009=
24-Sep-2021 SAID35 WAEK 240600 METAR WAEK 240600Z 21005KT 9000 FEW016CB SCT018 28/27 Q1007=
25-Sep-2021 SAID35 WAEK 250000 METAR WAEK 250000Z 20006KT 9999 SCT019 28/24 Q1010=
25-Sep-2021 SAID35 WAEK 250300 METAR WAEK 250300Z 19007KT 9999 SCT019 31/23 Q1009=
25-Sep-2021 SAID35 WAEK 250600 METAR WAEK 250600Z 18005KT 9999 SCT018 30/22 Q1007=
26-Sep-2021 SAID35 WAEK 260000 METAR WAEK 260000Z 16004KT 9999 SCT018 30/27 Q1009=
26-Sep-2021 SAID35 WAEK 260200 METAR WAEK 260200Z 20008KT 9000 SCT018 32/25 Q1008=
26-Sep-2021 SAID35 WAEK 260300 METAR WAEK 260300Z 21007KT 9999 SCT018 32/23 Q1008=
27-Sep-2021 SAID35 WAEK 270000 METAR WAEK 270000Z 00000KT 9999 SCT018 30/25 Q1009=
27-Sep-2021 SAID35 WAEK 270300 METAR WAEK 270300Z 12003KT 9999 SCT018 30/25 Q1008=
27-Sep-2021 SAID35 WAEK 270600 METAR WAEK 270600Z 18003KT 9999 BKN018 30/24 Q1006=
28-Sep-2021 SAID35 WAEK 280000 METAR WAEK 280000Z 08002KT 9999 SCT018 29/25 Q1010=
28-Sep-2021 SAID35 WAEK 280300 METAR WAEK 280300Z 11004KT 9999 SCT019 32/26 Q1008=
28-Sep-2021 SAID35 WAEK 280600 METAR WAEK 280600Z 09006KT 9999 SCT019 32/25 Q1006=
29-Sep-2021 SAID35 WAEK 290000 METAR WAEK 290000Z 00000KT 9999 BKN018 27/26 Q1011=
29-Sep-2021 SAID35 WAEK 290300 METAR WAEK 290300Z 00000KT 9999 BKN018 30/26 Q1009=
29-Sep-2021 SAID35 WAEK 290600 METAR WAEK 290600Z 22003KT 9999 BKN018 32/24 Q1007=
30-Sep-2021 SAID35 WAEK 300000 METAR WAEK 300000Z 16003KT 9999 SCT018 29/26 Q1010=
30-Sep-2021 SAID35 WAEK 300100 METAR WAEK 300100Z 22002KT 9999 SCT018 31/26 Q1010=
30-Sep-2021 SAID35 WAEK 300300 METAR WAEK 300300Z 26007KT 9999 SCT018 33/24 Q1008=
30-Sep-2021 SAID35 WAEK 300600 METAR WAEK 300600Z 08007KT 9999 SCT018 31/25 Q1007=
01-Oct-2021 SAID35 WAEK 010000 METAR WAEK 010000Z 13002KT 9999 SCT018 29/26 Q1010=
01-Oct-2021 SAID35 WAEK 010300 METAR WAEK 010300Z 08005KT 8000 FEW016CB BKN018 30/25 Q1009=
02-Oct-2021 SAID35 WAEK 020000 METAR WAEK 020000Z 09006KT 8000 FEW016CB BKN018 30/25 Q1007=
02-Oct-2021 SAID35 WAEK 020300 METAR WAEK 020300Z 09006KT 8000 FEW016CB BKN018 32/24 Q1008=
03-Oct-2021 SAID35 WAEK 030000 METAR WAEK 030000Z 12004KT 9999 SCT018 30/26 Q1009=
03-Oct-2021 SAID35 WAEK 030300 METAR WAEK 030300Z 08006KT 8000 FEW016CB BKN018 32/23 Q1008=
04-Oct-2021 SAID35 WAEK 040000 METAR WAEK 040000Z 18007KT 9999 SCT018 30/25 Q1008=
04-Oct-2021 SAID35 WAEK 040300 METAR WAEK 040300Z 20007KT 9999 SCT019 32/25 Q1006=
04-Oct-2021 SAID35 WAEK 040600 METAR WAEK 040600Z 22011KT 9999 SCT019 31/24 Q1004=
05-Oct-2021 SAID35 WAEK 050300 METAR WAEK 050300Z 22006KT 9999 SCT019 31/24 Q1007=
05-Oct-2021 SAID35 WAEK 050600 METAR WAEK 050600Z 21005KT 9999 SCT018 31/23 Q1005=
05-Oct-2021 SAID35 WAEK 060600 METAR WAEK 050600Z 21005KT 9999 SCT018 31/23 Q1005=
06-Oct-2021 SAID35 WAEK 060000 METAR WAEK 060000Z 17003KT 9999 SCT019 30/25 Q1009=
06-Oct-2021 SAID35 WAEK 060300 METAR WAEK 060300Z 17007KT 9999 SCT019 32/24 Q1007=
07-Oct-2021 SAID35 WAEK 070000 METAR WAEK 070000Z 19006KT 9999 SCT019 28/24 Q1009=
07-Oct-2021 SAID35 WAEK 070300 METAR WAEK 070300Z 22005KT 9999 SCT019 32/25 Q1007=
07-Oct-2021 SAID35 WAEK 070600 METAR WAEK 070600Z 17006KT 9999 SCT018 32/23 Q1005=
08-Oct-2021 SAID35 WAEK 080000 METAR WAEK 080000Z 21006KT 9999 SCT019 29/26 Q1009=
08-Oct-2021 SAID35 WAEK 080300 METAR WAEK 080300Z 20009KT 9999 SCT019 31/25 Q1008=
08-Oct-2021 SAID35 WAEK 080600 METAR WAEK 080600Z 18008KT 9999 SCT018 32/23 Q1006 =
09-Oct-2021 SAID35 WAEK 090000 METAR WAEK 090000Z 21006T 9999 SCT019 30/26 Q1009=
09-Oct-2021 SAID35 WAEK 090300 METAR WAEK 090300Z 19008KT 9999 SCT019 32/24 Q1008=
09-Oct-2021 SAID35 WAEK 090600 METAR WAEK 090600Z 22006KT 9999 SCT018 32/23 Q1006=
10-Oct-2021 SAID35 WAEK 100000 METAR WAEK 100000Z 17005KT 9999 SCT018 30/26 Q1009=
10-Oct-2021 SAID35 WAEK 100300 METAR WAEK 100300Z 08008KT 9999 SCT019 32/24 Q1008=
10-Oct-2021 SAID35 WAEK 100600 METAR WAEK 100600Z 08009KT 9999 SCT018 31/25 Q1006=
11-Oct-2021 SAID35 WAEK 110000 METAR WAEK 110000Z 17007KT 9999 SCT019 30/26 Q1007=
11-Oct-2021 SAID35 WAEK 110200 METAR WAEK 110200Z 19007KT 9999 SCT019 32/25 Q10107=
11-Oct-2021 SAID35 WAEK 110300 METAR WAEK 110300Z 19008KT 9999 SCT019 32/25 Q1006=
12-Oct-2021 SAID35 WAEK 120000 METAR WAEK 120000Z 21003KT 9999 SCT019 31/27 Q1008=
12-Oct-2021 SAID35 WAEK 120100 METAR WAEK 120100Z 23003KT 9999 SCT019 32/24 Q10108=
12-Oct-2021 SAID35 WAEK 120300 METAR WAEK 120300Z 21007KT 9999 SCT020 34/22 Q1006=
12-Oct-2021 SAID35 WAEK 120600 METAR WAEK 120600Z 20008KT 8000 FEW016CB SCT018 33/24 Q1004=
13-Oct-2021 SAID35 WAEK 130000 METAR WAEK 130000Z 34004KT 9999 SCT019 29/28 Q1009=
13-Oct-2021 SAID35 WAEK 130300 METAR WAEK 130300Z 10004KT 9999 SCT019 32/26 Q1006=
13-Oct-2021 SAID35 WAEK 130500 METAR WAEK 130500Z 07008KT 9999 SCT019 32/26 Q1006=
14-Oct-2021 SAID35 WAEK 140000 METAR WAEK 140000Z 21002KT 9999 SCT019 30/26 Q1009=
14-Oct-2021 SAID35 WAEK 140300 METAR WAEK 140300Z 15007KT 9000 FEW016CB SCT018 32/24 Q1008=
15-Oct-2021 SAID35 WAEK 150000 METAR WAEK 150000Z 23002KT 9999 SCT019 29/26 Q1009=
15-Oct-2021 SAID35 WAEK 150300 METAR WAEK 150300Z 23006KT 9999 SCT019 32/25 Q1008=
16-Oct-2021 SAID35 WAEK 160000 METAR WAEK 160000Z 36002KT 9999 SCT019 29/25 Q1010=
16-Oct-2021 SAID35 WAEK 160300 METAR WAEK 160300Z 23006KT 9999 SCT019 33/25 Q1009=
16-Oct-2021 SAID35 WAEK 160300 METAR WAEK 160300Z 23006KT 9999 SCT019 33/25 Q1009=
17-Oct-2021 SAID35 WAEK 170000 METAR WAEK 170000Z 34005KT 9999 SCT019 30/25 Q1010=
17-Oct-2021 SAID35 WAEK 170000 METAR WAEK 170000Z 34005KT 9999 SCT019 30/25 Q1010=
17-Oct-2021 SAID35 WAEK 170300 METAR WAEK 170300Z 12005KT 9999 SCT019 33/25 Q1008=
17-Oct-2021 SAID35 WAEK 170300 METAR WAEK 170300Z 12005KT 9999 SCT019 33/25 Q1008=
17-Oct-2021 SAID35 WAEK 170600 METAR WAEK 170600Z 17005KT 9999 SCT019 33/22 Q1006=
17-Oct-2021 SAID35 WAEK 170600 METAR WAEK 170600Z 17005KT 9999 SCT019 33/22 Q1006=
18-Oct-2021 SAID35 WAEK 180000 METAR WAEK 180000Z 34002KT 9999 SCT019 30/26 Q1011=
18-Oct-2021 SAID35 WAEK 180000 METAR WAEK 180000Z 34002KT 9999 SCT019 30/26 Q1011=
18-Oct-2021 SAID35 WAEK 180300 METAR WAEK 180300Z 35003KT 9999 SCT019 32/24 Q1010=
18-Oct-2021 SAID35 WAEK 180300 METAR WAEK 180300Z 35003KT 9999 SCT019 32/24 Q1010=
18-Oct-2021 SAID35 WAEK 180600 METAR WAEK 180600Z 34005KT 9999 SCT019 33/22 Q1008=
18-Oct-2021 SAID35 WAEK 180600 METAR WAEK 180600Z 34005KT 9999 SCT019 33/22 Q1008=
19-Oct-2021 SAID35 WAEK 190000 METAR WAEK 190000Z 34002KT 9999 SCT019 28/27 Q1011=
19-Oct-2021 SAID35 WAEK 190000 METAR WAEK 190000Z 34002KT 9999 SCT019 28/27 Q1011=
19-Oct-2021 SAID35 WAEK 190300 METAR WAEK 190300Z 35005KT 9999 SCT019 31/26 Q1011=
19-Oct-2021 SAID35 WAEK 190300 METAR WAEK 190300Z 35005KT 9999 SCT019 31/26 Q1011=
19-Oct-2021 SAID35 WAEK 190600 METAR WAEK 190600Z 32002KT 9999 SCT018 31/23 Q1009=
19-Oct-2021 SAID35 WAEK 190600 METAR WAEK 190600Z 32002KT 9999 SCT018 31/23 Q1009=
20-Oct-2021 SAID35 WAEK 200000 METAR WAEK 200000Z 31002KT 9999 SCT019 30/26 Q1014=
20-Oct-2021 SAID35 WAEK 200000 METAR WAEK 200000Z 31002KT 9999 SCT019 30/26 Q1014=
20-Oct-2021 SAID35 WAEK 200300 METAR WAEK 200300Z 10005KT 9999 SCT019 31/24 Q1012=
20-Oct-2021 SAID35 WAEK 200300 METAR WAEK 200300Z 10005KT 9999 SCT019 31/24 Q1012=
20-Oct-2021 SAID35 WAEK 200600 METAR WAEK 200600Z 08004KT 9999 SCT018 31/23 Q1010=
20-Oct-2021 SAID35 WAEK 200600 METAR WAEK 200600Z 08004KT 9999 SCT018 31/23 Q1010=
21-Oct-2021 SAID35 WAEK 210000 METAR WAEK 210000Z 22004KT 9000 FEW016CB SCT018 28/26 Q1012=
21-Oct-2021 SAID35 WAEK 210000 METAR WAEK 210000Z 22004KT 9000 FEW016CB SCT018 28/26 Q1012=
21-Oct-2021 SAID35 WAEK 210300 METAR WAEK 210300Z 09003KT 9000 FEW016CB SCT018 31/26 Q1010=
21-Oct-2021 SAID35 WAEK 210300 METAR WAEK 210300Z 09003KT 9000 FEW016CB SCT018 31/26 Q1010=
21-Oct-2021 SAID35 WAEK 210600 METAR WAEK 210600Z 33008KT 9000 FEW016CB SCT018 27/25 Q1009=
21-Oct-2021 SAID35 WAEK 210600 METAR WAEK 210600Z 33008KT 9000 FEW016CB SCT018 27/25 Q1009=
22-Oct-2021 SAID35 WAEK 220000 METAR WAEK 220000Z 17002KT 9999 BKN018 28/24 Q1013=
22-Oct-2021 SAID35 WAEK 220000 METAR WAEK 220000Z 17002KT 9999 BKN018 28/24 Q1013=
22-Oct-2021 SAID35 WAEK 220300 METAR WAEK 220300Z 24003KT 9999 BKN018 29/24 Q1011=
22-Oct-2021 SAID35 WAEK 220300 METAR WAEK 220300Z 24003KT 9999 BKN018 29/24 Q1011=
22-Oct-2021 SAID35 WAEK 220600 METAR WAEK 220600Z 23009KT 9000 FEW016CB SCT018 29/25 Q1009=
22-Oct-2021 SAID35 WAEK 220600 METAR WAEK 220600Z 23009KT 9000 FEW016CB SCT018 29/25 Q1009=
23-Oct-2021 SAID35 WAEK 230000 METAR WAEK 230000Z 18003KT 9999 BKN019 29/26 Q1012=
23-Oct-2021 SAID35 WAEK 230000 METAR WAEK 230000Z 18003KT 9999 BKN019 29/26 Q1012=
23-Oct-2021 SAID35 WAEK 230300 METAR WAEK 230300Z 18004KT 9999 SCT018 31/22 Q1011=
23-Oct-2021 SAID35 WAEK 230300 METAR WAEK 230300Z 18004KT 9999 SCT018 31/22 Q1011=
23-Oct-2021 SAID35 WAEK 230600 METAR WAEK 230600Z 21005KT 9000 FEW016CB SCT018 31/21 Q1009=
23-Oct-2021 SAID35 WAEK 230600 METAR WAEK 230600Z 21005KT 9000 FEW016CB SCT018 31/21 Q1009=
24-Oct-2021 SAID35 WAEK 240300 METAR WAEK 240300Z 12005KT 9999 SCT019 31/24 Q1009=
24-Oct-2021 SAID35 WAEK 240300 METAR WAEK 240300Z 12005KT 9999 SCT019 31/24 Q1009=
25-Oct-2021 SAID35 WAEK 240000 METAR WAEK 250000Z 17004KT 9999 SCT019 29/25 Q1010=
25-Oct-2021 SAID35 WAEK 240000 METAR WAEK 250000Z 17004KT 9999 SCT019 29/25 Q1010=
25-Oct-2021 SAID35 WAEK 250000 METAR WAEK 250000Z 05002KT 9999 SCT019 28/25 Q1010=
25-Oct-2021 SAID35 WAEK 250000 METAR WAEK 250000Z 05002KT 9999 SCT019 28/25 Q1010=
25-Oct-2021 SAID35 WAEK 250300 METAR WAEK 250300Z 07004KT 9999 SCT019 32/25 Q1009=
25-Oct-2021 SAID35 WAEK 250300 METAR WAEK 250300Z 07004KT 9999 SCT019 32/25 Q1009=
25-Oct-2021 SAID35 WAEK 250600 METAR WAEK 250600Z 06006KT 9999 BKN018 31/24 Q1006=
25-Oct-2021 SAID35 WAEK 250600 METAR WAEK 250600Z 06006KT 9999 BKN018 31/24 Q1006=
26-Oct-2021 SAID35 WAEK 260000 METAR WAEK 260000Z 03004KT 9999 SCT020 30/26 Q1011=
26-Oct-2021 SAID35 WAEK 260000 METAR WAEK 260000Z 03004KT 9999 SCT020 30/26 Q1011=
26-Oct-2021 SAID35 WAEK 260100 METAR WAEK 260100Z 10003KT 9999 SCT020 31/25 Q1011=
26-Oct-2021 SAID35 WAEK 260100 METAR WAEK 260100Z 10003KT 9999 SCT020 31/25 Q1011=
26-Oct-2021 SAID35 WAEK 260300 METAR WAEK 260300Z 06005KT 9999 SCT019 32/24 Q1009=
26-Oct-2021 SAID35 WAEK 260300 METAR WAEK 260300Z 06005KT 9999 SCT019 32/24 Q1009=
27-Oct-2021 SAID35 WAEK 270000 METAR WAEK 270000Z 05002KT 9999 SCT019 30/26 Q1012=
27-Oct-2021 SAID35 WAEK 270000 METAR WAEK 270000Z 05002KT 9999 SCT019 30/26 Q1012=
27-Oct-2021 SAID35 WAEK 270100 METAR WAEK 270100Z 12004KT 9999 SCT019 32/26 Q1012=
27-Oct-2021 SAID35 WAEK 270100 METAR WAEK 270100Z 12004KT 9999 SCT019 32/26 Q1012=
27-Oct-2021 SAID35 WAEK 270300 METAR WAEK 270300Z 10006KT 9999 SCT019 33/24 Q1010=
27-Oct-2021 SAID35 WAEK 270300 METAR WAEK 270300Z 10006KT 9999 SCT019 33/24 Q1010=
27-Oct-2021 SAID35 WAEK 270600 METAR WAEK 270600Z 05008KT 9000 SCT018 33/26 Q1008=
27-Oct-2021 SAID35 WAEK 270600 METAR WAEK 270600Z 05008KT 9000 SCT018 33/26 Q1008=
28-Oct-2021 SAID35 WAEK 280000 METAR WAEK 280000Z 35002KT 9999 SCT018 29/26 Q1011=
28-Oct-2021 SAID35 WAEK 280000 METAR WAEK 280000Z 35002KT 9999 SCT018 29/26 Q1011=
28-Oct-2021 SAID35 WAEK 280300 METAR WAEK 280300Z 08005KT 9999 SCT018 33/24 Q1009=
28-Oct-2021 SAID35 WAEK 280300 METAR WAEK 280300Z 08005KT 9999 SCT018 33/24 Q1009=
28-Oct-2021 SAID35 WAEK 280600 METAR WAEK 280600Z 06007KT 8000 FEW015CB BKN018 31/26 Q1007=
28-Oct-2021 SAID35 WAEK 280600 METAR WAEK 280600Z 06007KT 8000 FEW015CB BKN018 31/26 Q1007=
29-Oct-2021 SAID35 WAEK 290000 METAR WAEK 290000Z 30002KT 9999 SCT018 29/26 Q1012=
29-Oct-2021 SAID35 WAEK 290000 METAR WAEK 290000Z 30002KT 9999 SCT018 29/26 Q1012=
29-Oct-2021 SAID35 WAEK 290300 METAR WAEK 290300Z 13004KT 9999 SCT018 31/24 Q1011=
29-Oct-2021 SAID35 WAEK 290300 METAR WAEK 290300Z 13004KT 9999 SCT018 31/24 Q1011=
29-Oct-2021 SAID35 WAEK 290600 METAR WAEK 290600Z 08010KT 7000 FEW015CB BKN018 27/25 Q1010 RA=
29-Oct-2021 SAID35 WAEK 290600 METAR WAEK 290600Z 08010KT 7000 FEW015CB BKN018 27/25 Q1010 RA=
30-Oct-2021 SAID35 WAEK 300000 METAR WAEK 300000Z 36004KT 8000 FEW015CB BKN018 28/26 Q1012=
30-Oct-2021 SAID35 WAEK 300000 METAR WAEK 300000Z 36004KT 8000 FEW015CB BKN018 28/26 Q1012=
30-Oct-2021 SAID35 WAEK 300300 METAR WAEK 300300Z 09007KT 8000 FEW015CB BKN018 32/26 Q1011=
30-Oct-2021 SAID35 WAEK 300300 METAR WAEK 300300Z 09007KT 8000 FEW015CB BKN018 32/26 Q1011=
30-Oct-2021 SAID35 WAEK 300600 METAR WAEK 300600Z 13003KT 8000 FEW015CB BKN018 28/26 Q1009=
30-Oct-2021 SAID35 WAEK 300600 METAR WAEK 300600Z 13003KT 8000 FEW015CB BKN018 28/26 Q1009=
31-Oct-2021 SAID35 WAEK 310000 METAR WAEK 310000Z 31004KT 9000 FEW015CB BKN018 27/26 Q1011=
31-Oct-2021 SAID35 WAEK 310000 METAR WAEK 310000Z 31004KT 9000 FEW015CB BKN018 27/26 Q1011=
31-Oct-2021 SAID35 WAEK 310300 METAR WAEK 310300Z 08007KT 8000 FEW015CB BKN018 32/26 Q1012=
31-Oct-2021 SAID35 WAEK 310300 METAR WAEK 310300Z 08007KT 8000 FEW015CB BKN018 32/26 Q1012=
01-Nov-2021 SAID35 WAEK 010000 METAR WAEK 010000Z 00000KT 9999 SCT090 019 29/25 Q1012=
01-Nov-2021 SAID35 WAEK 010000 METAR WAEK 010000Z 00000KT 9999 SCT090 019 29/25 Q1012=
01-Nov-2021 SAID35 WAEK 010300 METAR WAEK 010300Z 08007KT 9999 SCT019 32/25 Q1010=
01-Nov-2021 SAID35 WAEK 010300 METAR WAEK 010300Z 08007KT 9999 SCT019 32/25 Q1010=
01-Nov-2021 SAID35 WAEK 310600 METAR WAEK 320600Z 15007KT 8000 FEW015CB BKN018 28/25 Q1009=
01-Nov-2021 SAID35 WAEK 310600 METAR WAEK 320600Z 15007KT 8000 FEW015CB BKN018 28/25 Q1009=
01-Nov-2021 SAID35 WAEK 010600 METAR WAEK 010600Z 15007KT 9999 BKN018 33/25 Q1007=
01-Nov-2021 SAID35 WAEK 010600 METAR WAEK 010600Z 15007KT 9999 BKN018 33/25 Q1007=
02-Nov-2021 SAID35 WAEK 020300 METAR WAEK 020300Z 15003KT 9999 BKN018 30/24 Q1010=
02-Nov-2021 SAID35 WAEK 020300 METAR WAEK 020300Z 15003KT 9999 BKN018 30/24 Q1010=
03-Nov-2021 SAID35 WAEK 030000 METAR WAEK 030000Z 09003KT 9999 SCT019 30/25 Q1011=
03-Nov-2021 SAID35 WAEK 030300 METAR WAEK 030300Z 11004KT 8000 FEW016CB BKN018 30/25 Q1010=
04-Nov-2021 SAID35 WAEK 040000 METAR WAEK 040000Z 27003KT 9999 SCT018 30/27 Q1010=
04-Nov-2021 SAID35 WAEK 040100 METAR WAEK 040100Z 16003KT 9999 SCT018 31/26 Q1010=
04-Nov-2021 SAID35 WAEK 040200 METAR WAEK 040200Z 06004KT 9999 BKN018 32/25 Q1010=
04-Nov-2021 SAID35 WAEK 040300 METAR WAEK 040300Z 5004KT 9999 BKN018 32/25 Q1009=
04-Nov-2021 SAID35 WAEK 040600 METAR WAEK 040600Z 24004KT 9999 BKN018 29/24 Q1007=
05-Nov-2021 SAID35 WAEK 050000 METAR WAEK 050000Z 09002KT 9999 SCT018 29/26 Q1010=
05-Nov-2021 SAID35 WAEK 050300 METAR WAEK 050300Z 11008KT 9999 BKN018 32/26 Q1008=
05-Nov-2021 SAID35 WAEK 050600 METAR WAEK 050600Z 03002KT 8000 FEW016 BKN018 28/25 Q1006=
06-Nov-2021 SAID35 WAEK 060300 METAR WAEK 060300Z 12006KT 9999 SCT019 32/26 Q1008=
06-Nov-2021 SAID35 WAEK 060600 METAR WAEK 060600Z 12008KT 8000 FEW015 BKN018 29/24 Q1005=
07-Nov-2021 SAID35 WAEK 070300 METAR WAEK 070300Z 13004KT 9999 SCT019 32/25 Q1008=
08-Nov-2021 SAID35 WAEK 080000 METAR WAEK 080000Z 00000KT 9999 SCT019 30/26 Q1008=
08-Nov-2021 SAID35 WAEK 080600 METAR WAEK 080600Z 03009KT 5000 FEW015CB BKN018 26/25 Q1007=
09-Nov-2021 SAID35 WAEK 090000 METAR WAEK 090000Z 18004KT 9999 SCT019 30/25 Q1009=
09-Nov-2021 SAID35 WAEK 090300 METAR WAEK 090300Z 11004KT SCT019 32/25 Q1007=
09-Nov-2021 SAID35 WAEK 090600 METAR WAEK 090600Z 11002KT SCT018 32/25 Q1005=
10-Nov-2021 SAID35 WAEK 100000 METAR WAEK 100000Z 35004KT 9999 BKN018 29/26 Q1009=
10-Nov-2021 SAID35 WAEK 100300 METAR WAEK 100300Z 35004KT FEW15CB SCT018 30/25 Q1007=
10-Nov-2021 SAID35 WAEK 100600 METAR WAEK 100600Z 02004KT SCT018 29/26 Q1006=
11-Nov-2021 SAID35 WAEK 110000 METAR WAEK 110000Z 34003KT 9999 SCT019 28/26 Q1009=
11-Nov-2021 SAID35 WAEK 110300 METAR WAEK 110300Z 32005KT SCT019 30/25 Q1009=
11-Nov-2021 SAID35 WAEK 110600 METAR WAEK 110600Z 02004KT SCT019 31/23 Q1007=
12-Nov-2021 SAID35 WAEK 120000 METAR WAEK 120000Z 36004KT 9999 SCT018 28/26 Q1010=
12-Nov-2021 SAID35 WAEK 120300 METAR WAEK 120300Z 05004KT SCT019 32/26 Q1009=
12-Nov-2021 SAID35 WAEK 120600 METAR WAEK 120600Z 07008KT SCT018 31/25 Q1006=
13-Nov-2021 SAID35 WAEK 130000 METAR WAEK 130000Z 04003KT 9999 SCT019 28/25 Q1010=
13-Nov-2021 SAID35 WAEK 130300 METAR WAEK 130300Z 05003KT SCT019 32/24 Q100=
13-Nov-2021 SAID35 WAEK 130600 METAR WAEK 130600Z 03003KT SCT018 31/24 Q1007=
14-Nov-2021 SAID35 WAEK 140000 METAR WAEK 140000Z 12004KT 9999 SCT019 29/25 Q1010=
14-Nov-2021 SAID35 WAEK 140300 METAR WAEK 140300Z 16005KT FEW016 SCT018 31/25 Q1009=
14-Nov-2021 SAID35 WAEK 140600 METAR WAEK 140600Z 11003KT FEW016 SCT018 31/25 Q1006=
15-Nov-2021 SAID35 WAEK 150000 METAR WAEK 150000Z 20003KT 9999 SCT019 29/26 Q1010=
15-Nov-2021 SAID35 WAEK 150300 METAR WAEK 150300Z 14006KT SCT018 30/25 Q1009=
15-Nov-2021 SAID35 WAEK 150600 METAR WAEK 150600Z 17004KT FEW016CB SCT018 30/24 Q1007=
16-Nov-2021 SAID35 WAEK 160000 METAR WAEK 160000Z 18003KT 9999 SCT019 29/26 Q1009=
16-Nov-2021 SAID35 WAEK 160300 METAR WAEK 160300Z 16005KT SCT019 30/25 Q1008=
16-Nov-2021 SAID35 WAEK 160600 METAR WAEK 160600Z 14005KT FEW016 SCT018 30/24 Q106=
17-Nov-2021 SAID35 WAEK 170000 METAR WAEK 170000Z 08002KT 9999 SCT019 28/26 Q1010=
17-Nov-2021 SAID35 WAEK 170300 METAR WAEK 170300Z 270065KT SCT018 31/25 Q1008=
17-Nov-2021 SAID35 WAEK 170600 METAR WAEK 170600Z 32003KT FEW016 SCT018 30/22 Q1006=
18-Nov-2021 SAID35 WAEK 180000 METAR WAEK 180000Z 14002KT 9999 SCT019 29/26 Q1009=
18-Nov-2021 SAID35 WAEK 180300 METAR WAEK 180300Z 13006KT SCT019 31/24 Q1007=
18-Nov-2021 SAID35 WAEK 180600 METAR WAEK 180600Z 19006KT SCT020 33/25 Q1004=
19-Nov-2021 SAID35 WAEK 190000 METAR WAEK 190000Z 04003KT 9999 SCT019 30/26 Q1008=
19-Nov-2021 SAID35 WAEK 190300 METAR WAEK 190300Z 11008KT SCT020 32/25 Q1007=
19-Nov-2021 SAID35 WAEK 190600 METAR WAEK 190600Z 07006KT SCT020 32/25 Q1005=
20-Nov-2021 SAID35 WAEK 200000 METAR WAEK 200000Z 32002KT 9999 SCT020 30/26 Q1008=
20-Nov-2021 SAID35 WAEK 200300 METAR WAEK 200300Z 33006KT SCT019 31/24 Q1006=
20-Nov-2021 SAID35 WAEK 200600 METAR WAEK 200600Z 31005KT SCT019 32/22 Q1006=
21-Nov-2021 SAID35 WAEK 210000 METAR WAEK 210000Z 00000KT 9999 SCT019 29/26 Q1010=
21-Nov-2021 SAID35 WAEK 210300 METAR WAEK 210300Z 11007KT 9999 SCT019 32/25 Q1009=
21-Nov-2021 SAID35 WAEK 210600 METAR WAEK 210600Z 09012KT 7000 FEW015CB BKN018 27/25 Q1007=
22-Nov-2021 SAID35 WAEK 220000 METAR WAEK 220000Z 32003KT 9999 SCT019 30/26 Q1010=
22-Nov-2021 SAID35 WAEK 220300 METAR WAEK 220300Z 03006KT 9999 BKN018 32/25 Q10098=
22-Nov-2021 SAID35 WAEK 220600 METAR WAEK 220600Z 30005KT 8000 FEW015CB BKN018 31/25 Q1007=
23-Nov-2021 SAID35 WAEK 230000 METAR WAEK 230000Z 31002KT 9999 SCT019 29/24 Q1009=
23-Nov-2021 SAID35 WAEK 230100 METAR WAEK 230100Z 17003KT 9999 SCT019 32/24 Q1009=
23-Nov-2021 SAID35 WAEK 230200 METAR WAEK 230200Z 12006KT 9999 SCT019 31/24 Q1008=
23-Nov-2021 SAID35 WAEK 230500 METAR WAEK 230500Z 15004KT 9999 BKN018 31/25 Q1006=
23-Nov-2021 SAID35 WAEK 230600 METAR WAEK 230600Z 30005KT 9000 FEW016CB BKN018 32/25 Q1005=
24-Nov-2021 SAID35 WAEK 240000 METAR WAEK 240000Z 00000KT 9999 SCT019 30/25 Q1009=
24-Nov-2021 SAID35 WAEK 240300 METAR WAEK 240300Z 19004KT 9000 FEW016CB SCT018 32/25 Q1007=
24-Nov-2021 SAID35 WAEK 240600 METAR WAEK 240600Z 20007KT 8000 FEW015CB BKN018 33/25 Q1004=
25-Nov-2021 SAID35 WAEK 250000 METAR WAEK 250000Z 36003KT 9999 SCT019 27/26 Q1009=
25-Nov-2021 SAID35 WAEK 250300 METAR WAEK 250300Z 19004KT 9999 SCT019 32/25 Q1007=
25-Nov-2021 SAID35 WAEK 250600 METAR WAEK 250600Z 24006KT 7000 FEW015CB BKN018 30/25 Q1005=
26-Nov-2021 SAID35 WAEK 260000 METAR WAEK 260000Z 35002KT 9999 BKN018 30/26 Q1009=
26-Nov-2021 SAID35 WAEK 260300 METAR WAEK 260300Z 11003KT 8000 FEW016 BKN018 31/25 Q1007=
26-Nov-2021 SAID35 WAEK 260600 METAR WAEK 260600Z 21004KT 6000 FEW015CB BKN018 25/24 Q1010=
27-Nov-2021 SAID35 WAEK 270000 METAR WAEK 270000Z 00000KT 9999 SCT019 29/26 Q1010=
27-Nov-2021 SAID35 WAEK 270300 METAR WAEK 270300Z 17007KT 9000 FEW016 BKN018 30/26 Q1008=
27-Nov-2021 SAID35 WAEK 270600 METAR WAEK 270600Z 27004KT 8000 FEW016CB BKN018 29/25 Q1006=
28-Nov-2021 SAID35 WAEK 280000 METAR WAEK 280000Z 18002KT 9999 SCT019 29/26 Q1009=
28-Nov-2021 SAID35 WAEK 280300 METAR WAEK 280300Z 24004KT 8000 FEW015BKN018 33/24 Q1007=
28-Nov-2021 SAID35 WAEK 280600 METAR WAEK 280600Z 22004KT 8000 FEW015CB BKN018 29/24 Q1006=
29-Nov-2021 SAID35 WAEK 290000 METAR WAEK 290000Z 18003KT 9999 SCT019 28/25 Q1009=
29-Nov-2021 SAID35 WAEK 290300 METAR WAEK 290300Z 21004KT 9999 SCT018 31/25 Q1008=
29-Nov-2021 SAID35 WAEK 290600 METAR WAEK 290600Z 20003KT 9000 FEW016CB BKN018 30/22 Q1006=
30-Nov-2021 SAID35 WAEK 300000 METAR WAEK 300000Z 24007KT 9999 SCT019 29/24 Q1009=
30-Nov-2021 SAID35 WAEK 300100 METAR WAEK 300100Z 24005KT 9999 BKN018 30/24 Q1009=
30-Nov-2021 SAID35 WAEK 300300 METAR WAEK 300300Z 21004KT 9000 FEW016CB BKN018 26/24 Q1008=
30-Nov-2021 SAID35 WAEK 300600 METAR WAEK 300600Z 21007KT 8000 FEW015CB BKN018 29/24 Q1005=
01-Dec-2021 SAID35 WAEK 010000 METAR WAEK 010000Z 18002KT 9999 SCT018 28/25 Q1010=
01-Dec-2021 SAID35 WAEK 010600 METAR WAEK 010600Z 18004KT 900 FEW015CB BKN018 29/24 Q1007=
02-Dec-2021 SAID35 WAEK 020000 METAR WAEK 020000Z 18006KT 9000 FEW015CB BKN018 26/24 Q1010=
02-Dec-2021 SAID35 WAEK 020300 METAR WAEK 020300Z 30002KT 9000 FEW016CB BKN018 26/25 Q1009=
02-Dec-2021 SAID35 WAEK 020600 METAR WAEK 020600Z 22012KT 9000 FEW015CB BKN018 26/25 Q1008=
03-Dec-2021 SAID35 WAEK 030000 METAR WAEK 030000Z 29003KT SCT018 28/26 Q1010=
03-Dec-2021 SAID35 WAEK 030600 METAR WAEK 030600Z 20004KT SCT018 30/22 Q1007=
04-Dec-2021 SAID35 WAEK 040000 METAR WAEK 040000Z 26002KT FEW016CB BKN018 24/24 Q1011 RA=
04-Dec-2021 SAID35 WAEK 040300 METAR WAEK 040300Z 23003KT 9000 FEW016CB BKN018 27/25 Q1009=
04-Dec-2021 SAID35 WAEK 040600 METAR WAEK 040600Z 23005KT 9000 FEWCB016 BKN018 89/24 Q1007=
05-Dec-2021 SAID35 WAEK 050000 METAR WAEK 050000Z 08005KT 9999 BKN018 25/25 Q1010=
05-Dec-2021 SAID35 WAEK 050300 METAR WAEK 050300Z 21004KT 9000 FEW015CB BKN018 30/25 Q1009=
05-Dec-2021 SAID35 WAEK 050600 METAR WAEK 050600Z 32002KT 7000 FEW015CB BKN018 25/24 Q1007 RA=
06-Dec-2021 SAID35 WAEK 060000 METAR WAEK 060000Z 27002KT 9999 BKN019 28/26 Q1008=
06-Dec-2021 SAID35 WAEK 060300 METAR WAEK 060300Z 20005KT 8000 FEW015CB BKN018 32/26 Q1007=
06-Dec-2021 SAID35 WAEK 060600 METAR WAEK 060600Z 05009KT 8000 FEW015CB BKN018 25/24 Q1005=
07-Dec-2021 SAID35 WAEK 070000 METAR WAEK 070000Z 00000KT 9999 SCT019 29/27 Q1009=
07-Dec-2021 SAID35 WAEK 070300 METAR WAEK 070300Z 09004KT 9000 FEW016CB BKN018 32/26 Q1007=
07-Dec-2021 SAID35 WAEK 070600 METAR WAEK 070600Z 17008KT 9000 FEW016CB BKN018 32/24 Q1006=
08-Dec-2021 SAID35 WAEK 080000 METAR WAEK 080000Z 00000KT 9999 SCT019 30/25 Q1010=
08-Dec-2021 SAID35 WAEK 080300 METAR WAEK 080300Z 29007KT 9999 SCT019 32/25 Q1009=
08-Dec-2021 SAID35 WAEK 080600 METAR WAEK 080600Z 34006KT 9999 BKN018 33/24 Q1006=
09-Dec-2021 SAID35 WAEK 090000 METAR WAEK 090000Z 00000KT 9999 SCT019 30/25 Q1010=
09-Dec-2021 SAID35 WAEK 090300 METAR WAEK 090300Z 18005KT 9999 SCT018 32/26 Q1008=
09-Dec-2021 SAID35 WAEK 090600 METAR WAEK 090600Z 31007KT 9999 SCT019 32/24 Q1006=
10-Dec-2021 SAID35 WAEK 100000 METAR WAEK 100000Z 00000KT 9999 SCT019 30/25 Q1010=
10-Dec-2021 SAID35 WAEK 100300 METAR WAEK 100300Z 13007KT 9999 SCT018 32/25 Q1008=
10-Dec-2021 SAID35 WAEK 100600 METAR WAEK 100600Z 32004KT 9000 FEW016CB SCT018 34/23 Q1006=
11-Dec-2021 SAID35 WAEK 110000 METAR WAEK 110000Z 00000KT 9999 SCT019 30/25 Q1010=
11-Dec-2021 SAID35 WAEK 110300 METAR WAEK 110300Z 20004KT 9000 FEW016CB SCT018 33/26 Q1008=
11-Dec-2021 SAID35 WAEK 110600 METAR WAEK 110600Z 18004KT 8000 FEW016CB SCT018 29/24 Q1007=
12-Dec-2021 SAID35 WAEK 120000 METAR WAEK 120000Z 00000KT 9999 SCT019 28/25 Q1010=
12-Dec-2021 SAID35 WAEK 120300 METAR WAEK 120300Z 13003KT 9999 SCT018 31/25 Q1009=
12-Dec-2021 SAID35 WAEK 120600 METAR WAEK 120600Z 19004KT 9999 SCT018 32/26 Q1006=
13-Dec-2021 SAID35 WAEK 130000 METAR WAEK 130000Z 00000KT 9999 SCT018 28/24 Q1009=
13-Dec-2021 SAID35 WAEK 130300 METAR WAEK 130300Z 21005KT 9999 SCT018 30/25 Q1008=
13-Dec-2021 SAID35 WAEK 130600 METAR WAEK 130600Z 20005KT 9000 FEWCB016 BKN018 30/23 Q1006=
14-Dec-2021 SAID35 WAEK 140000 METAR WAEK 140000Z 00000KT 9999 SCT019 29/24 Q1008=
14-Dec-2021 SAID35 WAEK 140300 METAR WAEK 140300Z 22003KT 9000 FEW016CB SCT018 27/26 Q1007=
14-Dec-2021 SAID35 WAEK 140600 METAR WAEK 140600Z 22004KT 9999 SCT019 31/24 Q1005=
15-Dec-2021 SAID35 WAEK 150000 METAR WAEK 150000Z 16002KT 9999 SCT019 30/25 Q1009=
15-Dec-2021 SAID35 WAEK 150300 METAR WAEK 150300Z 22005KT 9000 FEW016CB SCT018 31/24 Q1007=
15-Dec-2021 SAID35 WAEK 150600 METAR WAEK 150600Z 23003KT 9000 FEWCB016 BKN018 28/26 Q1005=
16-Dec-2021 SAID35 WAEK 160000 METAR WAEK 160000Z 19009KT 9999 SCT019 30/26 Q1008=
16-Dec-2021 SAID35 WAEK 160300 METAR WAEK 160300Z 21011KT 9999 SCT018 32/24 Q1007=
16-Dec-2021 SAID35 WAEK 160600 METAR WAEK 160600Z 21009KT 9000 FEWCB16 SCT018 31/20 Q1005=
17-Dec-2021 SAID35 WAEK 170000 METAR WAEK 170000Z 22002KT 9999 SCT019 29/25 Q1009=
17-Dec-2021 SAID35 WAEK 170300 METAR WAEK 170300Z 19011KT 9999 SCT019 32/25 Q1008=
17-Dec-2021 SAID35 WAEK 170600 METAR WAEK 170600Z 21009KT 9999 SCT019 34/26 Q1005=
18-Dec-2021 SAID35 WAEK 180000 METAR WAEK 180000Z 07003KT 9999 SCT018 29/25 Q1010=
18-Dec-2021 SAID35 WAEK 180300 METAR WAEK 180300Z 10002KT 9999 SCT019 31/25 Q1009=
18-Dec-2021 SAID35 WAEK 180600 METAR WAEK 180600Z 20005KT 9000 FEWCB016 BKN018 30/23 Q1006=
19-Dec-2021 SAID35 WAEK 190000 METAR WAEK 190000Z 31002KT 9999 SCT018 27/26 Q1011=
19-Dec-2021 SAID35 WAEK 190300 METAR WAEK 190300Z 06002KT 9999 BKN018 29/26 Q1010=
19-Dec-2021 SAID35 WAEK 190600 METAR WAEK 190600Z 34005KT 8000 FEW016CB BKN018 30/26 Q1008=
20-Dec-2021 SAID35 WAEK 200000 METAR WAEK 200000Z 28003KT 9999 BKN018 27/26 Q1012=
20-Dec-2021 SAID35 WAEK 200300 METAR WAEK 200300Z 09003KT 9999 BKN018 30/25 Q1011=
20-Dec-2021 SAID35 WAEK 200600 METAR WAEK 200600Z 17004KT 9000 FEW016CB BKN018 30/24 Q1009=
21-Dec-2021 SAID35 WAEK 210000 METAR WAEK 210000Z 27003KT 9999 SCT019 29/25 Q1012=
21-Dec-2021 SAID35 WAEK 210300 METAR WAEK 210300Z 16008KT 9000 FEW016CB BKN018 32/26 Q1011=
22-Dec-2021 SAID35 WAEK 220000 METAR WAEK 220000Z 29003KT 9999 SCT019 27/25 Q1011=
22-Dec-2021 SAID35 WAEK 220300 METAR WAEK 220300Z 20006KT 9000 FEW016CB BKN018 31/15 Q10110=
22-Dec-2021 SAID35 WAEK 220600 METAR WAEK 220600Z 05007KT 8000 FEW015CB BKN018 27/25 Q1007=
23-Dec-2021 SAID35 WAEK 230000 METAR WAEK 230000Z 00000KT 9999 SCT019 27/25 Q1010=
23-Dec-2021 SAID35 WAEK 230300 METAR WAEK 230300Z 33003KT 9000 FEW016CB BKN018 31/25 Q1009=
23-Dec-2021 SAID35 WAEK 230600 METAR WAEK 230600Z 12004KT 9000 FEW016CB BKN018 29/25 Q1007=
24-Dec-2021 SAID35 WAEK 240000 METAR WAEK 240000Z 02002KT 9999 SCT019 29/24 Q1010=
24-Dec-2021 SAID35 WAEK 240300 METAR WAEK 240300Z 09007KT 9999 SCT018 31/26 Q1008=
24-Dec-2021 SAID35 WAEK 240600 METAR WAEK 240600Z 06005KT 9000 FEW016CB BKN018 31/25 Q1007=
25-Dec-2021 SAID35 WAEK 250000 METAR WAEK 250000Z 31004KT 9999 SCT019 29/25 Q1010=
25-Dec-2021 SAID35 WAEK 250300 METAR WAEK 250300Z 11007KT 9000 FEW 016CB BKN018 30/25 Q1010=
25-Dec-2021 SAID35 WAEK 250600 METAR WAEK 250600Z 09004KT 9000 FEW016CB BKN018 30/25 Q1006=
26-Dec-2021 SAID35 WAEK 260000 METAR WAEK 260000Z 32005KT 9999 SCT019 28/25 Q1011=
26-Dec-2021 SAID35 WAEK 260300 METAR WAEK 260300Z 03005KT 9999 BKN018 30/24 Q1009=
26-Dec-2021 SAID35 WAEK 260600 METAR WAEK 260600Z 17008KT 9999 BKN018 29/24 Q1007=
27-Dec-2021 SAID35 WAEK 270000 METAR WAEK 270000Z 31002KT 90000 FEW016 BKN018 27/26 Q1011=
27-Dec-2021 SAID35 WAEK 270300 METAR WAEK 270300Z 19005KT 9999 BKN018 29/25 Q1010=
27-Dec-2021 SAID35 WAEK 270600 METAR WAEK 270600Z 18009KT 6000 FEWCB015 BKN018 26/25 Q1008=
28-Dec-2021 SAID35 WAEK 280000 METAR WAEK 280000Z 36010KT 90000 FEW016 BKN018 26/24 Q1011=
28-Dec-2021 SAID35 WAEK 280300 METAR WAEK 280300Z 32005KT 9000 FEWCB016 BKN018 28/24 Q1009=
28-Dec-2021 SAID35 WAEK 280400 METAR WAEK 280400Z 35005KT 9999 SCT018 29/23 Q1009=
28-Dec-2021 SAID35 WAEK 280600 METAR WAEK 280600Z 34004KT 9999 BKN018 29/24 Q1008=
29-Dec-2021 SAID35 WAEK 290000 METAR WAEK 290000Z 32002KT 9999 BKN018 26/24 Q1011=
29-Dec-2021 SAID35 WAEK 290300 METAR WAEK 290300Z 11006KT 9999 SCT018 30/24 Q1010=
29-Dec-2021 SAID35 WAEK 290600 METAR WAEK 290600Z 11006KT 9999 SCT018 30/23 Q1008=
30-Dec-2021 SAID35 WAEK 300000 METAR WAEK 300000Z 336003KT 9999 SCT019 29/25 Q1012=
30-Dec-2021 SAID35 WAEK 300300 METAR WAEK 300300Z 07005KT 9999 SCT019 30/24 Q1011=
30-Dec-2021 SAID35 WAEK 300600 METAR WAEK 300600Z 09006KT 9999 BKN018 30/23 Q1009=
31-Dec-2021 SAID35 WAEK 310000 METAR WAEK 310000Z 32003KT 9999 SCT019 27/25 Q1012=
31-Dec-2021 SAID35 WAEK 310300 METAR WAEK 310300Z 12008KT 9999 SCT019 31/24 Q1010=
31-Dec-2021 SAID35 WAEK 310600 METAR WAEK 310600Z 12004KT 9999 BKN018 30/24 Q1008=
01-Jan-2022 SAID35 WAEK 010000 METAR WAEK 010000Z 00000KT 9000 FEWCB016 BKN018 25/25 Q1011=
01-Jan-2022 SAID35 WAEK 010300 METAR WAEK 010300Z 06007KT 9000 FEWCB016 BKN018 75/25 Q1011=
01-Jan-2022 SAID35 WAEK 010600 METAR WAEK 010600Z 03006KT 90000 FEWCB016 BKN018 27/24 Q1009=
02-Jan-2022 SAID35 WAEK 020000 METAR WAEK 020000Z 34004KT 9999 SCT019 27/25 Q1011=
02-Jan-2022 SAID35 WAEK 020300 METAR WAEK 020300Z 22002KT 9999 BKN018 30/24 Q1009=
02-Jan-2022 SAID35 WAEK 020600 METAR WAEK 020600Z 07009KT 9999 SCT019 31/25 Q1007=
03-Jan-2022 SAID35 WAEK 030000 METAR WAEK 030000Z 34004KT 9000 FEW016CB BKN018 25/25 Q1011=
03-Jan-2022 SAID35 WAEK 030100 METAR WAEK 030100Z 04005KT 9999 SCT019 27/25 Q1012=
03-Jan-2022 SAID35 WAEK 030200 METAR WAEK 030200Z 03002KT 9999 SCT019 28/25 Q1010=
03-Jan-2022 SAID35 WAEK 030300 METAR WAEK 030300Z 08004KT 9999 SCT019 30/24 Q1009=
03-Jan-2022 SAID35 WAEK 030400 METAR WAEK 030400Z 07005KT 9000 FEW016CB BKN018 30/26 Q1009=
03-Jan-2022 SAID35 WAEK 030500 METAR WAEK 030500Z 32007KT 8000 FEW016CB BKN018 26/24 Q1009=
03-Jan-2022 SAID35 WAEK 030600 METAR WAEK 030600Z 29005KT 7000 FEW015CB BKN018 25/24 Q1008=
04-Jan-2022 SAID35 WAEK 040000 METAR WAEK 040000Z 31002KT 9999 SCT019 27/25 Q1011=
04-Jan-2022 SAID35 WAEK 040300 METAR WAEK 040300Z 09005KT 9999 SCT019 30/23 Q1009=
04-Jan-2022 SAID35 WAEK 040600 METAR WAEK 040600Z 08007KT 9000 FEW016CB BKN018 31/23 Q1008=
04-Jan-2022 SAID35 WAEK 042300 METAR WAEK 042300Z 33002KT 9999 SCT019 25/24 Q1011=
05-Jan-2022 SAID35 WAEK 050000 METAR WAEK 050000Z 3503KT 9999 SCT019 25/24 Q1011=
05-Jan-2022 SAID35 WAEK 050300 METAR WAEK 050300Z 07008KT 9000 FEW016CB BKN018 30/25 Q1010=
05-Jan-2022 SAID35 WAEK 050600 METAR WAEK 050600Z 06007KT 9000 FEW016CB BKN018 31/25 Q1007=
06-Jan-2022 SAID35 WAEK 060000 METAR WAEK 060000Z 22003KT 9999 BKN018 27/25 Q1012=
06-Jan-2022 SAID35 WAEK 060300 METAR WAEK 060300Z 22005KT 8000 FEW016CB BKN018 30/24 Q1010=
06-Jan-2022 SAID35 WAEK 060600 METAR WAEK 060600Z 15005KT 8000 FEW016CB BKN018 29/24 Q1008=
07-Jan-2022 SAID35 WAEK 070000 METAR WAEK 070000Z 26005KT 8000 FEW015CB BKN018 26/25 Q1012=
07-Jan-2022 SAID35 WAEK 070300 METAR WAEK 070300Z 11004KT 9000 FEW016CB BKN018 29/25 Q1010=
07-Jan-2022 SAID35 WAEK 070600 METAR WAEK 070600Z 08008KT 9000 FEW016CB BKN018 32/24 Q1008=
08-Jan-2022 SAID35 WAEK 080300 METAR WAEK 080300Z 10015KT 9999 SCT019 31/25 Q1011=
08-Jan-2022 SAID35 WAEK 080600 METAR WAEK 080600Z 31007KT 7000 FEW015CB BKN018 28/24 Q1008=
09-Jan-2022 SAID35 WAEK 090000 METAR WAEK 090000Z 00000KT 9999 SCT019 28/24 Q1012=
09-Jan-2022 SAID35 WAEK 090300 METAR WAEK 090300Z 14007KT 9999 BKN018 31/25 Q1010=
09-Jan-2022 SAID35 WAEK 090500 METAR WAEK 090500Z 06007KT 9999 SCT019 31/25 Q1008=
09-Jan-2022 SAID35 WAEK 090600 METAR WAEK 090600Z 03007KT 9999 SCT019 30/25 Q1007=
10-Jan-2022 SAID35 WAEK 100000 METAR WAEK 100000Z 27002KT 9999 SCT019 29/26 Q1012=
10-Jan-2022 SAID35 WAEK 100300 METAR WAEK 100300Z 11004KT 9999 SCT019 31/24 Q1010=
10-Jan-2022 SAID35 WAEK 100600 METAR WAEK 100600Z 13004KT 9999 SCT19 31/23 Q1008=
11-Jan-2022 SAID35 WAEK 110000 METAR WAEK 110000Z 32002KT 9999 SCT019 28/25 Q1013=
11-Jan-2022 SAID35 WAEK 110300 METAR WAEK 110300Z 12003KT 9999 SCT019 30/24 Q1011=
11-Jan-2022 SAID35 WAEK 110600 METAR WAEK 110600Z 14006KT 9999 SCT18 31/23 Q1009=
12-Jan-2022 SAID35 WAEK 120000 METAR WAEK 120000Z 33002KT 9999 SCT020 27/24 Q1011=
12-Jan-2022 SAID35 WAEK 120300 METAR WAEK 120300Z 06009KT 9999 SCT019 31/25 Q1010=
12-Jan-2022 SAID35 WAEK 120600 METAR WAEK 120600Z 08009KT 9999 SCT19 30/22 Q1008=
13-Jan-2022 SAID35 WAEK 130000 METAR WAEK 130000Z 02003KT 9999 SCT019 27/25 Q1012=
13-Jan-2022 SAID35 WAEK 130300 METAR WAEK 130300Z 03005KT 9999 SCT019 30/23 Q1010=
13-Jan-2022 SAID35 WAEK 130600 METAR WAEK 130600Z 08005KT 9999 SCT18 30/23 Q1009=
14-Jan-2022 SAID35 WAEK 140000 METAR WAEK 140000Z 03002KT 9999 SCT019 29/25 Q1011=
14-Jan-2022 SAID35 WAEK 140300 METAR WAEK 140300Z 12006KT 9999 SCT018 31/25 Q1010=
14-Jan-2022 SAID35 WAEK 140600 METAR WAEK 140600Z 24005KT 8000 FEWCB016 BKN18 25/25 Q1008=
15-Jan-2022 SAID35 WAEK 150000 METAR WAEK 150000Z 04003KT 9999 SCT019 29/25 Q1011=
15-Jan-2022 SAID35 WAEK 150300 METAR WAEK 150300Z 16005KT 8000 FEW015CB BKN018 31/25 Q1010=
15-Jan-2022 SAID35 WAEK 150600 METAR WAEK 150600Z 28004KT 8000 FEWCB015 BKN18 26/25 Q1008=
16-Jan-2022 SAID35 WAEK 160000 METAR WAEK 160000Z 01002KT 8000 FEW015CB BKN018 25/24 Q1011=
16-Jan-2022 SAID35 WAEK 160300 METAR WAEK 160300Z 31004KT 8000 FEW015CB BKN018 26/25 Q1011=
16-Jan-2022 SAID35 WAEK 160600 METAR WAEK 160600Z 35008KT 8000 FEWCB015 BKN18 26/25 Q1008=
17-Jan-2022 SAID35 WAEK 170000 METAR WAEK 170000Z 33002KT 9999 BKN019 25/24 Q1011=
17-Jan-2022 SAID35 WAEK 170300 METAR WAEK 170300Z 26002KT 9000 FEW015CB BKN018 29/24 Q1010=
17-Jan-2022 SAID35 WAEK 170600 METAR WAEK 170600Z 21006KT 9999 BKN018 26/25 Q1007=
18-Jan-2022 SAID35 WAEK 180000 METAR WAEK 180000Z 32002KT 9999 BKN019 26/26 Q1009=
18-Jan-2022 SAID35 WAEK 180300 METAR WAEK 180300Z 11004KT 8000 FEW015CB BKN018 30/25 Q1008=
18-Jan-2022 SAID35 WAEK 180600 METAR WAEK 180600Z 05006KT 9000 FEW016CB BKN018 32/25 Q1005=
19-Jan-2022 SAID35 WAEK 190000 METAR WAEK 190000Z 34003KT 9999 SCT019 28/25 Q1008=
19-Jan-2022 SAID35 WAEK 190300 METAR WAEK 190300Z 03002KT 9000 FEW016CB BKN018 30/25 Q1008=
20-Jan-2022 SAID35 WAEK 200000 METAR WAEK 200000Z 31003KT 9999 SCT019 26/25 Q1009=
20-Jan-2022 SAID35 WAEK 200300 METAR WAEK 200300Z 05003KT 9000 FEW016CB BKN018 30/25 Q1008=
20-Jan-2022 SAID35 WAEK 200600 METAR WAEK 200600Z 05008KT 9000 FEW016CB BKN018 31/24 Q1005=
21-Jan-2022 SAID35 WAEK 210000 METAR WAEK 210000Z 03004KT 9000 FEW016CB BKN018 26/25 Q1010=
21-Jan-2022 SAID35 WAEK 210300 METAR WAEK 210300Z 01005KT 9000 FEW016CB BKN018 26/25 Q1009=
21-Jan-2022 SAID35 WAEK 210600 METAR WAEK 210600Z 33013KT 6000 FEW015CB BKN018 27/24 Q1005=
22-Jan-2022 SAID35 WAEK 220000 METAR WAEK 220000Z 02002KT 8000 FEW015CB BKN018 24/24 Q1011=
22-Jan-2022 SAID35 WAEK 220300 METAR WAEK 220300Z 03002KT 9999 BKN018 27/24 Q1010=
22-Jan-2022 SAID35 WAEK 220600 METAR WAEK 220600Z 05004KT 9000 FEW015CB BKN018 28/25 Q1007=
23-Jan-2022 SAID35 WAEK 230000 METAR WAEK 230000Z 00000KT 9999 BKN018 27/26 Q1009=
23-Jan-2022 SAID35 WAEK 230300 METAR WAEK 230300Z 15006KT 9999 BKN018 31/25 Q1007=
23-Jan-2022 SAID35 WAEK 230600 METAR WAEK 230600Z 10003KT 8000 FEW016CB BKN018 28/25 Q1006=
24-Jan-2022 SAID35 WAEK 240000 METAR WAEK 240000Z 11002KT 9999 SCT019 28/25 Q1008=
24-Jan-2022 SAID35 WAEK 240300 METAR WAEK 240300Z 16007KT 9999 SCT018 30/25 Q1007=
24-Jan-2022 SAID35 WAEK 240600 METAR WAEK 240600Z 16006KT 9000 FEWCB016 BKN018 29/21 Q1005=
25-Jan-2022 SAID35 WAEK 250000 METAR WAEK 250000Z 16004KT 9999 SCT019 29/25 Q1009=
25-Jan-2022 SAID35 WAEK 250300 METAR WAEK 250300Z 16008KT 9999 SCT019 31/24 Q1007=
25-Jan-2022 SAID35 WAEK 250600 METAR WAEK 250600Z 20008KT 9999 SCT019 34/25 Q1005=
26-Jan-2022 SAID35 WAEK 260000 METAR WAEK 260000Z 33004KT 9999 SCT019 28/25 Q1010=
26-Jan-2022 SAID35 WAEK 260300 METAR WAEK 260300Z 04009KT 9999 SCT019 31/25 Q1008=
26-Jan-2022 SAID35 WAEK 260600 METAR WAEK 260600Z 06009KT 9999 SCT019 32/24 Q1007=
27-Jan-2022 SAID35 WAEK 270000 METAR WAEK 270000Z 33003KT 9999 SCT019 28/26 Q1011=
27-Jan-2022 SAID35 WAEK 270300 METAR WAEK 270300Z 36005KT 9999 SCT019 30/25 Q1009=
27-Jan-2022 SAID35 WAEK 270600 METAR WAEK 270600Z 01006KT 9999 SCT018 31/24 Q1008=
28-Jan-2022 SAID35 WAEK 280000 METAR WAEK 280000Z 25002KT 9999 SCT019 27/25 Q1011=
28-Jan-2022 SAID35 WAEK 280300 METAR WAEK 280300Z 29006KT 9999 SCT019 30/24 Q1010=
28-Jan-2022 SAID35 WAEK 280600 METAR WAEK 280600Z 01006KT 9999 SCT019 30/25 Q1008=
29-Jan-2022 SAID35 WAEK 290000 METAR WAEK 290000Z 32002KT 9999 SCT019 27/25 Q1011=
29-Jan-2022 SAID35 WAEK 290300 METAR WAEK 290300Z 10005KT 9999 SCT018 31/26 Q1010=
29-Jan-2022 SAID35 WAEK 290600 METAR WAEK 290600Z 06005KT 9000 FEWCB016 SCT018 30/25 Q1008=
30-Jan-2022 SAID35 WAEK 300000 METAR WAEK 300000Z 00000KT 9999 SCT019 27/24 Q1008=
30-Jan-2022 SAID35 WAEK 300300 METAR WAEK 300300Z 09008KT 9999 SCT019 31/26 Q1009=
30-Jan-2022 SAID35 WAEK 300600 METAR WAEK 300600Z 10008KT 9999 SCT019 32/25 Q1007=
31-Jan-2022 SAID35 WAEK 310000 METAR WAEK 310000Z 33003KT 9999 BKN019 26/24 Q1011=
31-Jan-2022 SAID35 WAEK 310300 METAR WAEK 310300Z 10006KT 9999 BKN019 30/24 Q1009=
31-Jan-2022 SAID35 WAEK 310600 METAR WAEK 310600Z 08007KT 9000 FEW016 BKN018 30/25 Q1007=
01-Feb-2022 SAID35 WAEK 010000 METAR WAEK 010000Z 32002KT 9000 FEW016CB BKN018 27/25 Q1010=
01-Feb-2022 SAID35 WAEK 010600 METAR WAEK 010600Z 07004KT 9999 BKN018 30/24 Q1007=
02-Feb-2022 SAID35 WAEK 020000 METAR WAEK 020000Z 31003KT 9999 SCT019 24/24 Q1011=
02-Feb-2022 SAID35 WAEK 020600 METAR WAEK 020600Z 07006KT 8000 FEW016CB BKN018 29/24 Q1007=
03-Feb-2022 SAID35 WAEK 030600 METAR WAEK 030600Z 08006KT 9000 FEW016CB BKN018 30/25 Q1005=
04-Feb-2022 SAID35 WAEK 040600 METAR WAEK 040600Z 08006KT 9000 SCT019 33/23 Q1006=
05-Feb-2022 SAID35 WAEK 050600 METAR WAEK 050600Z 03007KT 8000 FEW016CB BKN018 29/15 Q1006=
07-Feb-2022 SAID35 WAEK 070600 METAR WAEK 070600Z 35005KT 9000 FEW016CB BKN018 30/24 Q1007=
08-Feb-2022 SAID35 WAEK 080600 METAR WAEK 080600Z 01005KT 9000 FEW016CB BKN018 29/24 Q1009=
09-Feb-2022 SAID35 WAEK 090000 METAR WAEK 090000Z 34002KT 9000 FEW016CB BKN018 24/24 Q1011=
09-Feb-2022 SAID35 WAEK 090600 METAR WAEK 090600Z 00000KT 9000 FEW016CB BKN018 28/26 Q1009=
10-Feb-2022 SAID35 WAEK 100600 METAR WAEK 100600Z 06006KT 9999 SCT019 31/26 Q1008=
11-Feb-2022 SAID35 WAEK 110300 METAR WAEK 110300Z 04008KT 9999 SCT019 32/25 Q1008=
11-Feb-2022 SAID35 WAEK 110600 METAR WAEK 110600Z 05011KT 9000 FEW016CB BKN018 31/25 Q1006=
12-Feb-2022 SAID35 WAEK 120300 METAR WAEK 120300Z 07008KT 9999 SCT019 30/25 Q1007=
12-Feb-2022 SAID35 WAEK 120600 METAR WAEK 120600Z 06010KT 9000 FEW016CB BKN018 30/25 Q1005=
13-Feb-2022 SAID35 WAEK 130300 METAR WAEK 130300Z 16003KT 8000 FEW015CB BKN018 27/25 Q1009=
13-Feb-2022 SAID35 WAEK 130600 METAR WAEK 130600Z 08007KT 9000 FEW016CB BKN018 31/26 Q1007=
14-Feb-2022 SAID35 WAEK 140000 METAR WAEK 140000Z 35003KT 9000 FEW016CB BKN018 27/26 Q1009=
14-Feb-2022 SAID35 WAEK 140300 METAR WAEK 140300Z 07003KT 9999 SCT019 30/26 Q1008=
14-Feb-2022 SAID35 WAEK 140600 METAR WAEK 140600Z 04003KT 9999 SCT019 31/25 Q1008=
15-Feb-2022 SAID35 WAEK 150000 METAR WAEK 150000Z 30003KT 9999 SCT019 28/25 Q1010=
15-Feb-2022 SAID35 WAEK 150300 METAR WAEK 150300Z 11007KT 9999 SCT019 32/25 Q1009=
15-Feb-2022 SAID35 WAEK 150600 METAR WAEK 150600Z 16006KT 9000 FEW016CB SCT018 32/25 Q1005=
16-Feb-2022 SAID35 WAEK 160000 METAR WAEK 160000Z 34003KT 9999 SCT019 27/26 Q1008=
16-Feb-2022 SAID35 WAEK 160300 METAR WAEK 160300Z 11005KT 9000 FEW016CB BKN018 30/26 Q1007=
16-Feb-2022 SAID35 WAEK 160600 METAR WAEK 160600Z 30004KT 8000 FEW016CB SCT018 27/25 Q1005=
17-Feb-2022 SAID35 WAEK 170000 METAR WAEK 170000Z 34002KT 9999 SCT019 28/25 Q1008=
17-Feb-2022 SAID35 WAEK 170300 METAR WAEK 170300Z 09004KT 9000 FEW016CB BKN018 31/25 Q1007=
17-Feb-2022 SAID35 WAEK 170600 METAR WAEK 170600Z 18004KT 8000 FEW016CB SCT018 27/24 Q1005=
18-Feb-2022 SAID35 WAEK 180000 METAR WAEK 180000Z 03002KT 8000 FEW016CB BKN018 26/25 Q1009=
18-Feb-2022 SAID35 WAEK 180300 METAR WAEK 180300Z 09005KT 8000 FEW016CB BKN018 30/26 Q1009=
18-Feb-2022 SAID35 WAEK 180600 METAR WAEK 180600Z 28006KT 6000 FEW015CB BKN018 25/24 Q1007=
19-Feb-2022 SAID35 WAEK 190000 METAR WAEK 190000Z 32003KT 9999 BKN018 26/25 Q1010=
19-Feb-2022 SAID35 WAEK 190300 METAR WAEK 190300Z 13002KT 9999 BKN018 30/25 Q1008=
19-Feb-2022 SAID35 WAEK 190600 METAR WAEK 190600Z 34005KT 6000 FEW015CB BKN018 25/24 Q1007=
20-Feb-2022 SAID35 WAEK 200000 METAR WAEK 200000Z 00000KT 8000 FEW015CB BKN018 25/25 Q1010=
20-Feb-2022 SAID35 WAEK 200300 METAR WAEK 200300Z 00000KT 9000 FEW016CB BKN018 30/25 Q1008=
20-Feb-2022 SAID35 WAEK 200600 METAR WAEK 200600Z 72803KT 6000 FEW015CB BKN018 27/26 Q1007=
21-Feb-2022 SAID35 WAEK 210000 METAR WAEK 210000Z 31004KT 8000 FEW015CB BKN018 25/25 Q1009=
21-Feb-2022 SAID35 WAEK 210300 METAR WAEK 210300Z 34004KT 9000 FEW016CB BKN018 29/23 Q1008=
21-Feb-2022 SAID35 WAEK 210600 METAR WAEK 210600Z 31006KT 9000 FEW015CB BKN018 31/24 Q1006=
22-Feb-2022 SAID35 WAEK 220000 METAR WAEK 220000Z 01003KT 8000 FEW015CB BKN018 23/23 Q1013=
22-Feb-2022 SAID35 WAEK 220300 METAR WAEK 220300Z 03011KT 5000 FEW016CB BKN018 24/24 Q1013=
22-Feb-2022 SAID35 WAEK 220600 METAR WAEK 220600Z 01006KT 8000 FEW015CB BKN018 23/23 Q1011=
23-Feb-2022 SAID35 WAEK 230000 METAR WAEK 230000Z 35005KT 9999 SCT019 25/24 Q1011=
23-Feb-2022 SAID35 WAEK 230300 METAR WAEK 230300Z 11008KT 9999 SCT019 30/25 Q1010=
23-Feb-2022 SAID35 WAEK 230600 METAR WAEK 230600Z 08005KT 9999 SCT019 31/26 Q1009=
24-Feb-2022 SAID35 WAEK 240000 METAR WAEK 240000Z 36002KT 9999 SCT018 25/24 Q1012=
24-Feb-2022 SAID35 WAEK 240600 METAR WAEK 240600Z 09004KT 9000 FEW015CB BKN018 29/26 Q1009=
25-Feb-2022 SAID35 WAEK 250000 METAR WAEK 250000Z 35003KT 9999 SCT018 25/23 Q1012=
25-Feb-2022 SAID35 WAEK 250300 METAR WAEK 250300Z 04004KT 9999 SCT018 29/23 Q1010=
25-Feb-2022 SAID35 WAEK 250600 METAR WAEK 250600Z 08007KT 9999 BKN018 29/24 Q1007=
26-Feb-2022 SAID35 WAEK 260000 METAR WAEK 260000Z 01003KT 9999 SCT019 28/24 Q1011=
26-Feb-2022 SAID35 WAEK 260600 METAR WAEK 260600Z 28002KT 9999 SCT018 30/22 Q1008=
27-Feb-2022 SAID35 WAEK 270000 METAR WAEK 270000Z 32003KT 9999 BKN019 26/25 Q1011=
27-Feb-2022 SAID35 WAEK 270300 METAR WAEK 270300Z 12004KT 9000 FEW016CB BKN018 31/26 Q1009=
27-Feb-2022 SAID35 WAEK 270600 METAR WAEK 270600Z 09005KT 9000 FEW016CB BKN018 30/25 Q1006=
28-Feb-2022 SAID35 WAEK 280000 METAR WAEK 280000Z 36004KT 9999 BKN019 26/26 Q1011=
28-Feb-2022 SAID35 WAEK 280300 METAR WAEK 280300Z 05005KT 9999 BKN018 30/25 Q1009=
28-Feb-2022 SAID35 WAEK 280600 METAR WAEK 280600Z 06011KT 8000 FEW016CB BKN018 31/25 Q1007=
01-Mar-2022 SAID35 WAEK 010000 METAR WAEK 010000Z 02004KT 9999 SCT019 27/26 Q1011=
01-Mar-2022 SAID35 WAEK 010300 METAR WAEK 010300Z 08006KT 9999 SCT019 31/25 Q1009=
01-Mar-2022 SAID35 WAEK 010600 METAR WAEK 010600Z 07011KT 8000 FEW016CB BKN018 32/16 Q1006=
02-Mar-2022 SAID35 WAEK 020000 METAR WAEK 020000Z 31003KT 9999 SCT019 28/26 Q1010=
02-Mar-2022 SAID35 WAEK 020300 METAR WAEK 020300Z 10005KT 9999 SCT018 32/25 Q1009=
03-Mar-2022 SAID35 WAEK 030000 METAR WAEK 030000Z 33003KT 9000 FEW016CB BKN018 26/25 Q1011=
03-Mar-2022 SAID35 WAEK 030300 METAR WAEK 030300Z 02002KT 9000 FEW016CB BKN 018 29/26 Q1010=
03-Mar-2022 SAID35 WAEK 030600 METAR WAEK 030600Z 08008KT 9000 FEW016CB BKN018 30/26 Q1006=
04-Mar-2022 SAID35 WAEK 040000 METAR WAEK 040000Z 05002KT 9999 SCT020 29/26 Q1010=
04-Mar-2022 SAID35 WAEK 040300 METAR WAEK 040300Z 02002KT 9999 BKN 018 32/26 Q1009=
04-Mar-2022 SAID35 WAEK 040600 METAR WAEK 040600Z 12005KT 9999 SCT019 32/24 Q1006=
05-Mar-2022 SAID35 WAEK 050000 METAR WAEK 050000Z 34003KT 9999 SCT018 26/25 Q1009=
05-Mar-2022 SAID35 WAEK 050300 METAR WAEK 050300Z 13004KT 9999 BKN 018 30/26 Q1008=
05-Mar-2022 SAID35 WAEK 050600 METAR WAEK 050600Z 19008KT 8000 FEW016CB BKN018 30/26 Q1006=
06-Mar-2022 SAID35 WAEK 060000 METAR WAEK 060000Z 00000KT 9999 SCT019 29/25 Q1009=
06-Mar-2022 SAID35 WAEK 060300 METAR WAEK 060300Z 17006KT 8000 FEW016 BKN018 31/26 Q1009=
06-Mar-2022 SAID35 WAEK 060600 METAR WAEK 060600Z 18005KT 8000 FEW015CB BKN018 30/26 Q1006=
07-Mar-2022 SAID35 WAEK 070000 METAR WAEK 070000Z 30003KT 9000 FEW016 BKN018 25 / 24 Q1009=
07-Mar-2022 SAID35 WAEK 070300 METAR WAEK 070300Z 31003KT 9000 FEW016 BKN018 26/25 Q1008=
07-Mar-2022 SAID35 WAEK 070600 METAR WAEK 070600Z 30003KT9000 FEWCB BKN018 30/24 Q1006=
08-Mar-2022 SAID35 WAEK 080000 METAR WAEK 080000Z 24003KT 9999 SCT018 27/24 Q1008=
08-Mar-2022 SAID35 WAEK 080600 METAR WAEK 080600Z 18008KT 9999 SCT019 31/22 Q1006=
09-Mar-2022 SAID35 WAEK 090000 METAR WAEK 090000Z 24002KT 9999 SCT019 28/25 Q1009=
09-Mar-2022 SAID35 WAEK 090600 METAR WAEK 090600Z 21005KT 9999 FWCB016 SCT019 31/21 Q1007=
10-Mar-2022 SAID35 WAEK 100600 METAR WAEK 100600Z 34003KT 9999 FWCB016 SCT019 29/24 Q1007=
11-Mar-2022 SAID35 WAEK 110000 METAR WAEK 110000Z 02004KT 9999 SCT019 27/24 Q1009=
11-Mar-2022 SAID35 WAEK 110300 METAR WAEK 110300Z 06008KT 9999 SCT019 31/25 Q1008=
11-Mar-2022 SAID35 WAEK 110600 METAR WAEK 110600Z 04004KT 9999 FWCB016 SCT019 29/25 Q1005=
12-Mar-2022 SAID35 WAEK 120000 METAR WAEK 120000Z 36003KT 9999 SCT019 28/25 Q1008=
12-Mar-2022 SAID35 WAEK 120600 METAR WAEK 120600Z 06011KT 9999 SCT019 33/25 Q1004=
13-Mar-2022 SAID35 WAEK 130000 METAR WAEK 130000Z 30003KT 9999 SCT019 28/26 Q1009=
13-Mar-2022 SAID35 WAEK 130100 METAR WAEK 130100Z 30003KT 9999 SCT019 29/26 Q1009=
13-Mar-2022 SAID35 WAEK 130600 METAR WAEK 130600Z 06006KT 7000 FEW016CB BKN018 29/26 Q1006=
14-Mar-2022 SAID35 WAEK 140000 METAR WAEK 140000Z 00000KT 9999 SCT019 29/26 Q1010=
14-Mar-2022 SAID35 WAEK 140300 METAR WAEK 140300Z 12006KT 9999 SCT019 32/26 Q1008=
15-Mar-2022 SAID35 WAEK 150000 METAR WAEK 150000Z 00000KT 9999 SCT019 27/25 Q1008=
15-Mar-2022 SAID35 WAEK 150300 METAR WAEK 150300Z 19004KT 9999 SCT019 33/25 Q1007=
15-Mar-2022 SAID35 WAEK 150600 METAR WAEK 150600Z 13007KT 9999 SCT018 34/24 Q1004=
16-Mar-2022 SAID35 WAEK 160000 METAR WAEK 160000Z 02004KT 9999 SCT019 28/26 Q1008=
16-Mar-2022 SAID35 WAEK 160300 METAR WAEK 160300Z 06011KT 9000 FEW016CB SCT018 31/26 Q1007=
16-Mar-2022 SAID35 WAEK 160600 METAR WAEK 160600Z 34007KT 9999 BKN018 30/26 Q1005=
17-Mar-2022 SAID35 WAEK 170000 METAR WAEK 170000Z 08003KT 9999 SCT019 29/25 Q1008=
17-Mar-2022 SAID35 WAEK 170300 METAR WAEK 170300Z 02005KT 9000 SCT019 32/23 Q1007=
17-Mar-2022 SAID35 WAEK 170600 METAR WAEK 170600Z 05006KT 9000 FEW016CB BKN018 30/25 Q1005=
18-Mar-2022 SAID35 WAEK 180000 METAR WAEK 180000Z 31004KT 9999 BKN019 26/25 Q1008=
18-Mar-2022 SAID35 WAEK 180300 METAR WAEK 180300Z 05003KT 9999 BKN018 29/26 Q1007=
18-Mar-2022 SAID35 WAEK 180600 METAR WAEK 180600Z 06009KT 9999 BKN018 32/26 Q1004=
19-Mar-2022 SAID35 WAEK 190000 METAR WAEK 190000Z 00000KT 9999 SCT019 30/25 Q1007=
19-Mar-2022 SAID35 WAEK 190300 METAR WAEK 190300Z 08006KT 9999 SCT019 33/24 Q1006=
20-Mar-2022 SAID35 WAEK 200000 METAR WAEK 200000Z 01004KT 9999 SCT019 29/26 Q1009=
20-Mar-2022 SAID35 WAEK 200300 METAR WAEK 200300Z 08009KT 9999 SCT019 33/24 Q1006=
20-Mar-2022 SAID35 WAEK 200600 METAR WAEK 200600Z 06010KT 9999 SCT019 32/25 Q1004=
21-Mar-2022 SAID35 WAEK 210000 METAR WAEK 210000Z 15004KT 9999 SCT019 28/25 Q1011=
21-Mar-2022 SAID35 WAEK 210300 METAR WAEK 210300Z 11006KT 9999 SCT019 31/26 Q1010=
21-Mar-2022 SAID35 WAEK 210600 METAR WAEK 210600Z 14006KT 9999 SCT019 32/25 Q1009=
22-Mar-2022 SAID35 WAEK 220000 METAR WAEK 220000Z 33003KT 9999 SCT018 27/25 Q1010=
22-Mar-2022 SAID35 WAEK 220300 METAR WAEK 220300Z 09006KT 9999 SCT019 30/25 Q1010=
22-Mar-2022 SAID35 WAEK 220600 METAR WAEK 220600Z 13009KT 9999 SCT019 32/25 Q1007=
24-Mar-2022 SAID35 WAEK 240000 METAR WAEK 240000Z 22005KT 9999 SCT018 27/24 Q1012=
24-Mar-2022 SAID35 WAEK 240300 METAR WAEK 240300Z 17005KT 9999 SCT18 29/24 Q1010=
24-Mar-2022 SAID35 WAEK 240600 METAR WAEK 240600Z 18004KT 9999 SCT018 29/23 Q1008=
25-Mar-2022 SAID35 WAEK 250000 METAR WAEK 250000Z 33002KT 9999 BKN018 26/24 Q1012=
25-Mar-2022 SAID35 WAEK 250300 METAR WAEK 250300Z 11002KT 9999 BKN018 29/25 Q1010=
25-Mar-2022 SAID35 WAEK 250600 METAR WAEK 250600Z 17004KT 9999 SCT018 30/24 Q1008=
26-Mar-2022 SAID35 WAEK 260000 METAR WAEK 260000Z 00000KT 9999 SCT19 29/25 Q1012=
26-Mar-2022 SAID35 WAEK 260300 METAR WAEK 260300Z 25007KT 4000 FEWCB016 BKN018 25/24 Q101=
26-Mar-2022 SAID35 WAEK 260600 METAR WAEK 260600Z 07002KT 9000 FEWCB016 SCT018 25/24 Q1009=
27-Mar-2022 SAID35 WAEK 270000 METAR WAEK 270000Z 31002KT 9999 SCT019 28/25 Q1011=
27-Mar-2022 SAID35 WAEK 270300 METAR WAEK 270300Z 08006KT 9999 SCT019 30/25 Q1006=
27-Mar-2022 SAID35 WAEK 270600 METAR WAEK 270600Z 03011KT 9000 FEW016CB BKN018 29/25 Q1007=
28-Mar-2022 SAID35 WAEK 280000 METAR WAEK 280000Z 00000KT 9999 SCT019 29/26 Q1011=
28-Mar-2022 SAID35 WAEK 280300 METAR WAEK 280300Z 18005KT 8000 FEW015CN BKN018 31/25 Q1009=
28-Mar-2022 SAID35 WAEK 280600 METAR WAEK 280600Z 13004KT 9000 FEW016CN BKN018 31/25 Q1007=
29-Mar-2022 SAID35 WAEK 290000 METAR WAEK 290000Z 33003KT 9999 SCT020 28/25 Q1011=
29-Mar-2022 SAID35 WAEK 290300 METAR WAEK 290300Z 06007KT 9999 SCT019 31/25 Q1010=
29-Mar-2022 SAID35 WAEK 290600 METAR WAEK 290600Z 13004KT 6000 FEW015CN BKN018 24/24 Q1007 RA=
30-Mar-2022 SAID35 WAEK 300000 METAR WAEK 300000Z 31006KT 9999 SCT020 28/25 Q1011=
30-Mar-2022 SAID35 WAEK 300300 METAR WAEK 300300Z 10007KT 9000 FEW016 BKN018 30/26 Q1010=
30-Mar-2022 SAID35 WAEK 300600 METAR WAEK 300600Z 06006KT 8000 FEW015CN BKN018 26/23 Q1009=
31-Mar-2022 SAID35 WAEK 310000 METAR WAEK 310000Z 20002KT 9999 SCT019 28/25 Q1011=
31-Mar-2022 SAID35 WAEK 310300 METAR WAEK 310300Z 19006KT 9999 FEW016CB BKN018 31/25 Q1010=
31-Mar-2022 SAID35 WAEK 310600 METAR WAEK 310600Z 12004KT 9000 FEW016CN BKN018 31/24 Q1007=
01-Apr-2022 SAID35 WAEK 010000 METAR WAEK 010000Z 00000KT 9999 SCT019 27/24 Q1011=
01-Apr-2022 SAID35 WAEK 010300 METAR WAEK 010300Z 32007KT 9000 FEW016CB BKN018 32/25 Q1010=
01-Apr-2022 SAID35 WAEK 010600 METAR WAEK 010600Z 09005KT 9999 SCT019 31/25 Q1007=
02-Apr-2022 SAID35 WAEK 020000 METAR WAEK 020000Z 26002KT 9999 SCT019 28/25 Q1010=
02-Apr-2022 SAID35 WAEK 020300 METAR WAEK 020300Z 16006KT 9000 FEW016CB BKN018 31/25 Q1009=
02-Apr-2022 SAID35 WAEK 020600 METAR WAEK 020600Z 19007KT 7000 FEW015CB BKN018 25/24 Q1008=
03-Apr-2022 SAID35 WAEK 030000 METAR WAEK 030000Z 19002KT 9999 SCT019 29/24 Q1010=
03-Apr-2022 SAID35 WAEK 030300 METAR WAEK 030300Z 18006KT 9000 FEW016CB BKN018 31/25 Q1009=
03-Apr-2022 SAID35 WAEK 030600 METAR WAEK 030600Z 18008KT 8000 FEW015CB BKN018 25/24 Q1007=
04-Apr-2022 SAID35 WAEK 040000 METAR WAEK 040000Z 28003KT 9999 SCT018 28/24 Q1011=
04-Apr-2022 SAID35 WAEK 040300 METAR WAEK 040300Z 17005KT 9999 SCT018 31/24 Q1010=
04-Apr-2022 SAID35 WAEK 040600 METAR WAEK 040600Z 01005KT 9000 FEW016CB BKN018 28/24 Q1009=
05-Apr-2022 SAID35 WAEK 050000 METAR WAEK 050000Z 26002KT 9999 SCT019 28/25 Q1010=
05-Apr-2022 SAID35 WAEK 050300 METAR WAEK 050300Z 25005KT 9999 SCT019 31/24 Q1009=
05-Apr-2022 SAID35 WAEK 050600 METAR WAEK 050600Z 24006KT 9999 SCT019 32/26 Q1007=
06-Apr-2022 SAID35 WAEK 060000 METAR WAEK 060000Z 19008KT 9000 FEWCB018 SCT018 29/25 Q1009=
06-Apr-2022 SAID35 WAEK 060300 METAR WAEK 060300Z 24010KT 9000 FEWCB018 SCT018 32/25 Q1008=
06-Apr-2022 SAID35 WAEK 060600 METAR WAEK 060600Z 22007KT 9000 FEWCB018 SCT018 29/25 Q1006=
07-Apr-2022 SAID35 WAEK 070000 METAR WAEK 070000Z 22004KT 9999 SCT018 29/25 Q1009=
07-Apr-2022 SAID35 WAEK 070300 METAR WAEK 070300Z 20005KT 9999 SCT019 30/25 Q1007=
07-Apr-2022 SAID35 WAEK 070600 METAR WAEK 070600Z 20006KT 9999 SCT019 33/24 Q1004=
08-Apr-2022 SAID35 WAEK 080000 METAR WAEK 080000Z 18008KT 9999 SCT019 31/26 Q1008=
08-Apr-2022 SAID35 WAEK 080300 METAR WAEK 080300Z 04002KT 8000 FEWCB01 SCT018 25/24 Q1008=
08-Apr-2022 SAID35 WAEK 080600 METAR WAEK 080600Z 11003KT 9000 FEWCB016 BKN018 27/24 Q1006=
09-Apr-2022 SAID35 WAEK 090000 METAR WAEK 090000Z 19002KT 9999 SCT018 30/25 Q1008=
09-Apr-2022 SAID35 WAEK 090300 METAR WAEK 090300Z 25004KT 9999 SCT018 29/24 Q1007=
09-Apr-2022 SAID35 WAEK 090600 METAR WAEK 090600Z 31003KT 9999 SCT018 31/26 Q1005=
10-Apr-2022 SAID35 WAEK 100000 METAR WAEK 100000Z 21004KT 9999 SCT019 30/25 Q1008=
10-Apr-2022 SAID35 WAEK 100300 METAR WAEK 100300Z 23008KT 8000 FEW016CB BKN018 32/25 Q1007=
10-Apr-2022 SAID35 WAEK 100600 METAR WAEK 100600Z 19007KT 7000 FEW015CB BKN018 25/24 Q1007=
11-Apr-2022 SAID35 WAEK 110000 METAR WAEK 110000Z 21006KT 9999 SCT019 29/25 Q1009=
11-Apr-2022 SAID35 WAEK 110300 METAR WAEK 110300Z 21010KT 9999 BKN019 32/25 Q1007=
11-Apr-2022 SAID35 WAEK 110600 METAR WAEK 110600Z 24005KT 9999 SCT019 30/24 Q1005=
12-Apr-2022 SAID35 WAEK 120000 METAR WAEK 120000Z 22002KT 9999 SCT019 30/27 Q1008=
12-Apr-2022 SAID35 WAEK 120300 METAR WAEK 120300Z 24003KT 8000 FEW016CB BKN018 31/26 Q1007=
12-Apr-2022 SAID35 WAEK 120600 METAR WAEK 120600Z 19009KT 6000 FEW015CB BKN018 25/24 Q1005 RA=
13-Apr-2022 SAID35 WAEK 130000 METAR WAEK 130000Z 33002KT 9999 SCT019 29/26 Q1008=
13-Apr-2022 SAID35 WAEK 130300 METAR WAEK 130300Z 20002KT 9999 SCT019 32/26 Q1007=
13-Apr-2022 SAID35 WAEK 130600 METAR WAEK 130600Z 20007KT 9000 FEW015CB BKN018 31/26 Q1005=
14-Apr-2022 SAID35 WAEK 140000 METAR WAEK 140000Z 31003KT 9999 SCT019 29/26 Q1010=
14-Apr-2022 SAID35 WAEK 140300 METAR WAEK 140300Z 13006KT 9999 SCT019 32/25 Q1008=
14-Apr-2022 SAID35 WAEK 140600 METAR WAEK 140600Z 20006KT 9000 FEW016CB BKN018 33/24 Q1006=
15-Apr-2022 SAID35 WAEK 150000 METAR WAEK 150000Z 06002KT 9999 SCT019 30/26 Q1010=
15-Apr-2022 SAID35 WAEK 150300 METAR WAEK 150300Z 11006KT 9999 SCT019 32/25 Q1009=
15-Apr-2022 SAID35 WAEK 150600 METAR WAEK 150600Z 07004KT 9999 SCT019 32/25 Q1006=
16-Apr-2022 SAID35 WAEK 160000 METAR WAEK 160000Z 34004KT 9999 SCT019 29/25 Q1010=
16-Apr-2022 SAID35 WAEK 160300 METAR WAEK 160300Z 08006KT 9999 SCT019 33/26 Q1008=
16-Apr-2022 SAID35 WAEK 160600 METAR WAEK 160600Z 05006KT 9999 SCT019 29/26 Q1006=
17-Apr-2022 SAID35 WAEK 170000 METAR WAEK 170000Z 35004KT 9999 SCT019 29/26 Q1010=
17-Apr-2022 SAID35 WAEK 170300 METAR WAEK 170300Z 04005KT 9999 SCT019 33/26 Q1008=
17-Apr-2022 SAID35 WAEK 170600 METAR WAEK 170600Z 02005KT 9999 SCT019 29/24 Q1007=
18-Apr-2022 SAID35 WAEK 180000 METAR WAEK 180000Z 35003KT 9999 SCT019 28/26 Q1011=
18-Apr-2022 SAID35 WAEK 180300 METAR WAEK 180300Z 10007KT 9999 SCT019 32/25 Q1009=
18-Apr-2022 SAID35 WAEK 180600 METAR WAEK 180600Z 05005KT 9999 SCT019 31/22 Q1007=
19-Apr-2022 SAID35 WAEK 190000 METAR WAEK 190000Z 02003KT 9999 SCT019 29/25 Q10110=
19-Apr-2022 SAID35 WAEK 190300 METAR WAEK 190300Z 03006KT 9999 SCT019 32/24 Q1010=
19-Apr-2022 SAID35 WAEK 190600 METAR WAEK 190600Z 05005KT 9999 SCT019 32/24 Q1007=
20-Apr-2022 SAID35 WAEK 200000 METAR WAEK 200000Z 00004KT 9999 SCT019 29/25 Q1011=
20-Apr-2022 SAID35 WAEK 200300 METAR WAEK 200300Z 11007KT 9999 SCT019 32/25 Q1009=
20-Apr-2022 SAID35 WAEK 200600 METAR WAEK 200600Z 09006KT 9000 FEWCB016 SCT018 31/25 Q1007=
21-Apr-2022 SAID35 WAEK 210000 METAR WAEK 210000Z 20003KT 9999 SCT019 29/26 Q1010=
21-Apr-2022 SAID35 WAEK 210300 METAR WAEK 210300Z 12008KT 9999 SCT019 30/25 Q1009=
21-Apr-2022 SAID35 WAEK 210600 METAR WAEK 210600Z 31006KT 9000 FEWCB016 SCT018 25/23 Q1008=
22-Apr-2022 SAID35 WAEK 220000 METAR WAEK 220000Z 00000KT 9999 SCT019 28/25 Q1010=
22-Apr-2022 SAID35 WAEK 220300 METAR WAEK 220300Z 35004KT 9999 SCT019 31/23 Q1009=
22-Apr-2022 SAID35 WAEK 220600 METAR WAEK 220600Z 33003KT 9999 SCT019 31/23 Q1006=
23-Apr-2022 SAID35 WAEK 230000 METAR WAEK 230000Z 30005KT 90000 FEWCB016 SCT018 26/24 Q1010=
23-Apr-2022 SAID35 WAEK 230300 METAR WAEK 230300Z 22004KT 9999 SCT019 29/24 Q1009=
23-Apr-2022 SAID35 WAEK 230600 METAR WAEK 230600Z 20007KT 9999 SCT019 32/24 Q1007=
24-Apr-2022 SAID35 WAEK 240000 METAR WAEK 240000Z 21003KT 9999 SCT019 29/26 Q1008=
24-Apr-2022 SAID35 WAEK 240300 METAR WAEK 240300Z 15006KT 9999 SCT019 32/26 Q1008=
24-Apr-2022 SAID35 WAEK 240600 METAR WAEK 240600Z 34004KT 8000 FEW016CB BKN018 28/26 Q1006=
25-Apr-2022 SAID35 WAEK 250000 METAR WAEK 250000Z 30003KT 9999 SCT019 28/26 Q1008=
25-Apr-2022 SAID35 WAEK 250300 METAR WAEK 250300Z 05005KT 9999 SCT019 32/26 Q1007=
25-Apr-2022 SAID35 WAEK 250600 METAR WAEK 250600Z 10006KT 9999 SCT01O 33/26 Q1004=
26-Apr-2022 SAID35 WAEK 260000 METAR WAEK 260000Z 30003KT 9999 BKN018 28/26 Q1008=
26-Apr-2022 SAID35 WAEK 260300 METAR WAEK 260300Z 06008KT 9999 BKN018 31/26 Q1007=
26-Apr-2022 SAID35 WAEK 260600 METAR WAEK 260600Z 33006KT 9000 FEW016CB BKN018 28/14 Q1005=
27-Apr-2022 SAID35 WAEK 270000 METAR WAEK 270000Z 31003KT 9999 SCT019 28/26 Q1009=
27-Apr-2022 SAID35 WAEK 270300 METAR WAEK 270300Z 29002KT 9999 SCT019 32/26 Q1008=
27-Apr-2022 SAID35 WAEK 270600 METAR WAEK 270600Z 12006KT 8000 FEW016CB BKN018 30/25 Q1006=
28-Apr-2022 SAID35 WAEK 280000 METAR WAEK 280000Z 31002KT 9999 SCT019 27/25 Q1010=
28-Apr-2022 SAID35 WAEK 280300 METAR WAEK 280300Z 13004KT 9999 SCT019 31/25 Q1009=
28-Apr-2022 SAID35 WAEK 280600 METAR WAEK 280600Z 08006KT 8000 FEW016CB BKN018 27/24 Q1008=
29-Apr-2022 SAID35 WAEK 290000 METAR WAEK 290000Z 11002KT 9999 SCT019 28/24 Q1010=
29-Apr-2022 SAID35 WAEK 290600 METAR WAEK 290600Z 09005KT 8000 FEW016CB BKN018 30/25 Q1008=
30-Apr-2022 SAID35 WAEK 300000 METAR WAEK 300000Z 31003KT 9999 SCT019 27/25 Q1011=
30-Apr-2022 SAID35 WAEK 300300 METAR WAEK 300300Z 12006KT 9999 SCT019 30/26 Q1010=
30-Apr-2022 SAID35 WAEK 300600 METAR WAEK 300600Z 13006KT 8000 FEW016CB BKN018 29/25 Q1008=
01-May-2022 SAID35 WAEK 010000 METAR WAEK 010000Z 34004KT 9999 SCT019 28/26 Q1009=
01-May-2022 SAID35 WAEK 010300 METAR WAEK 010300Z 12006KT 9999 SCT019 32/26 Q1007=
01-May-2022 SAID35 WAEK 010600 METAR WAEK 010600Z 11006KT 8000 FEW016CB BKN018 29/25 Q1006=
02-May-2022 SAID35 WAEK 020000 METAR WAEK 020000Z 20003KT 9999 SCT019 30/26 Q1009=
02-May-2022 SAID35 WAEK 020300 METAR WAEK 020300Z 19009KT 9999 SCT019 32/23 Q1007=
03-May-2022 SAID35 WAEK 030000 METAR WAEK 030000Z 00000KT 9999 SCT018 29/25 Q1009=
03-May-2022 SAID35 WAEK 030300 METAR WAEK 030300Z 1503KT 9999 SCT019 32/26 Q1009=
03-May-2022 SAID35 WAEK 030600 METAR WAEK 030600Z 14006KT 8000 FEW016CB BKN018 29/25 Q1009=
04-May-2022 SAID35 WAEK 040000 METAR WAEK 040000Z 02003KT 9999 SCT018 29/26 Q1008=
04-May-2022 SAID35 WAEK 040300 METAR WAEK 040300Z 35005KT 9999 SCT019 31/25 Q1009=
04-May-2022 SAID35 WAEK 040600 METAR WAEK 040600Z 02003KT 9999 FEWCN016 SCT018 30/23 Q1007=
05-May-2022 SAID35 WAEK 050000 METAR WAEK 050000Z 34003KT 9999 SCT019 28/26 Q1009=
05-May-2022 SAID35 WAEK 050300 METAR WAEK 050300Z 14003KT 9999 SCT019 31/22 Q1008=
05-May-2022 SAID35 WAEK 050600 METAR WAEK 050600Z 36008KT 8000 FEWCB016 SCT018 26/24 Q1009=
06-May-2022 SAID35 WAEK 060000 METAR WAEK 060000Z 020003KT 9999 SCT019 30/26 Q1009=
06-May-2022 SAID35 WAEK 060300 METAR WAEK 060300Z 13004KT 9999 SCT019 32/25 Q1007=
06-May-2022 SAID35 WAEK 060600 METAR WAEK 060600Z 06004KT 9000 FEWCB016 SCT018 31/25 Q1005=
07-May-2022 SAID35 WAEK 070000 METAR WAEK 070000Z 04002KT 9999 SCT019 29/26 Q1008=
07-May-2022 SAID35 WAEK 070300 METAR WAEK 070300Z 13008KT 9999 SCT019 31/26 Q1006=
07-May-2022 SAID35 WAEK 070600 METAR WAEK 070600Z 13007KT 9999 SCT019 33/25 Q1004=
08-May-2022 SAID35 WAEK 080000 METAR WAEK 080000Z 00000KT 9999 SCT019 31/26 Q1008=
08-May-2022 SAID35 WAEK 080300 METAR WAEK 080300Z 12004KT 9999 SCT019 33/27 Q1006=
08-May-2022 SAID35 WAEK 080600 METAR WAEK 080600Z 14006KT 9999 SCT019 33/26 Q1003=
09-May-2022 SAID35 WAEK 090000 METAR WAEK 090000Z 33904KT 9999 SCT019 30/27 Q1008=
09-May-2022 SAID35 WAEK 090300 METAR WAEK 090300Z 07009KT 9000 FEW016CB BKN018 32/27 Q1007=
09-May-2022 SAID35 WAEK 090600 METAR WAEK 090600Z 07006KT 9999 BKN018 31/25 Q1005=
10-May-2022 SAID35 WAEK 100000 METAR WAEK 100000Z 01005KT 9000 FEW016CB BKN018 28/26 Q1010=
10-May-2022 SAID35 WAEK 100300 METAR WAEK 100300Z 07003KT 8000 FEW016CB BKN018 30/27 Q1009=
10-May-2022 SAID35 WAEK 100600 METAR WAEK 100600Z 28004KT 7000 FEW015CB BKN018 26/25 Q1007=
11-May-2022 SAID35 WAEK 110000 METAR WAEK 110000Z 27004KT 9999 BKN018 28/26 Q1010=
11-May-2022 SAID35 WAEK 110300 METAR WAEK 110300Z 01006KT 8000 FEW015CB BKN018 29/27 Q1009=
11-May-2022 SAID35 WAEK 110600 METAR WAEK 110600Z 07006KT 9000 FEW016CB BKN018 29/25 Q1006=
12-May-2022 SAID35 WAEK 120000 METAR WAEK 120000Z 03003 KT 9999 BKN018 30/26 Q1008=
12-May-2022 SAID35 WAEK 120300 METAR WAEK 120300Z 02002KT 9999 BKN019 34/25 Q1007=
13-May-2022 SAID35 WAEK 130000 METAR WAEK 130000Z 32003KT 9999 BKN019 29/27 Q1010=
13-May-2022 SAID35 WAEK 130300 METAR WAEK 130300Z 07005KT 9999 BKN019 33/26 Q1007=
14-May-2022 SAID35 WAEK 140000 METAR WAEK 140000Z 01003KT 9999 BKN019 27/26 Q1012=
14-May-2022 SAID35 WAEK 140300 METAR WAEK 140300Z 03005KT 9000 FEW016 BKN018 29/26 Q1012=
14-May-2022 SAID35 WAEK 140600 METAR WAEK 140600Z 07005KT 9999 BKN019 29/26 Q1009=
15-May-2022 SAID35 WAEK 150000 METAR WAEK 150000Z 32002KT 7000 FEW015CB BKN018 25/24 Q1014=
15-May-2022 SAID35 WAEK 150300 METAR WAEK 150300Z 03005KT 8000 FEW015 BKN018 29/25 Q1012=
15-May-2022 SAID35 WAEK 150600 METAR WAEK 150600Z 05005KT 8000 FEW015CB BKN019 29/25 Q1009=
16-May-2022 SAID35 WAEK 160000 METAR WAEK 160000Z 30003KT 9999 SCT019 30/26 Q1012=
16-May-2022 SAID35 WAEK 160300 METAR WAEK 160300Z 07004KT 9999 SCT018 32/24 Q1011=
16-May-2022 SAID35 WAEK 160600 METAR WAEK 160600Z 14003KT 9999 SCT019 32/22 Q1009=
17-May-2022 SAID35 WAEK 170000 METAR WAEK 170000Z 27002KT 9999 SCT020 30/25 Q1012=
17-May-2022 SAID35 WAEK 170300 METAR WAEK 170300Z 16006KT 9999 SCT019 32/24 Q1011=
17-May-2022 SAID35 WAEK 170600 METAR WAEK 170600Z 09009KT 9000 FEWCB016 SCT018 30/27 Q1008=
18-May-2022 SAID35 WAEK 180000 METAR WAEK 180000Z 32004KT 9999 SCT020 30/26 Q1013=
18-May-2022 SAID35 WAEK 180300 METAR WAEK 180300Z 33005KT 9999 SCT019 32/25 Q1012=
18-May-2022 SAID35 WAEK 180600 METAR WAEK 180600Z 36006KT 9999 SCT019 31/22 Q1009=
19-May-2022 SAID35 WAEK 190000 METAR WAEK 190000Z 00000KT 9999 SCT018 26/25 Q1013=
19-May-2022 SAID35 WAEK 190300 METAR WAEK 190300Z 35005KT 9999 SCT019 33/26 Q1012=
19-May-2022 SAID35 WAEK 190600 METAR WAEK 190600Z 33004KT 9999 SCT018 30/26 Q1010=
20-May-2022 SAID35 WAEK 200000 METAR WAEK 200000Z 02003KT 9999 SCT019 28/25 Q1012=
20-May-2022 SAID35 WAEK 200300 METAR WAEK 200300Z 12003KT 9999 SCT019 31/25 Q1009=
20-May-2022 SAID35 WAEK 200600 METAR WAEK 200600Z 07011KT 9999 SCT019 31/24 Q1007=
21-May-2022 SAID35 WAEK 210000 METAR WAEK 210000Z 00000KT 9999 SCT019 29/25 Q1010=
21-May-2022 SAID35 WAEK 210300 METAR WAEK 210300Z 11006KT 9999 SCT019 31/24 Q1009=
21-May-2022 SAID35 WAEK 210600 METAR WAEK 210600Z 10006KT 9000 FEWCB016 SCT019 30/27 Q1007=
22-May-2022 SAID35 WAEK 220000 METAR WAEK 220000Z 18004KT 7000 SCT019 30/26 Q1010=
22-May-2022 SAID35 WAEK 220300 METAR WAEK 220300Z 21003KT 9999 SCT019 32/25 Q1008=
22-May-2022 SAID35 WAEK 220600 METAR WAEK 220600Z 16005KT 9999 SCT019 33/25 Q1006=
23-May-2022 SAID35 WAEK 230000 METAR WAEK 230000Z 33005KT 9999 SCT019 29/25 Q1010=
23-May-2022 SAID35 WAEK 230300 METAR WAEK 230300Z 08006KT 9999 SCT019 32/25 Q1009=
23-May-2022 SAID35 WAEK 230600 METAR WAEK 230600Z 09008KT 8000 FEW015CB BKN018 27/25 Q1008=
24-May-2022 SAID35 WAEK 240000 METAR WAEK 240000Z 13002KT 9999 SCT019 29/26 Q1012=
24-May-2022 SAID35 WAEK 240300 METAR WAEK 240300Z 10009KT 9000 FEW015CB BKN018 28/26 Q1012=
25-May-2022 SAID35 WAEK 250000 METAR WAEK 250000Z 35003KT 9999 SCT019 27/25 Q1012=
25-May-2022 SAID35 WAEK 250300 METAR WAEK 250300Z 15002KT 9000 FEW015CB BKN018 29/26 Q1011=
25-May-2022 SAID35 WAEK 250600 METAR WAEK 250600Z 36006KT 8000 FEW015CB BKN018 29/26 Q1009=
26-May-2022 SAID35 WAEK 260000 METAR WAEK 260000Z 02002KT 9999 SCT019 27/24 Q1010=
26-May-2022 SAID35 WAEK 260300 METAR WAEK 260300Z 13005KT 9999 SCT019 31/26 Q1008=
26-May-2022 SAID35 WAEK 260600 METAR WAEK 260600Z 09009KT 9000 FEW016CB BKN018 33/24 Q1006=
27-May-2022 SAID35 WAEK 270000 METAR WAEK 270000Z 00000KT 9999 SCT019 29/26 Q1010=
27-May-2022 SAID35 WAEK 270300 METAR WAEK 270300Z 14003KT 9999 SCT019 31/26 Q1009=
27-May-2022 SAID35 WAEK 270600 METAR WAEK 270600Z 24002KT 7000 FEW015CB BKN018 28/25 Q1007=
28-May-2022 SAID35 WAEK 280000 METAR WAEK 280000Z 00000KT 9999 SCT019 29/26 Q1010=
28-May-2022 SAID35 WAEK 280300 METAR WAEK 280300Z 12005KT 9999 BKN018 31/26 Q1009=
28-May-2022 SAID35 WAEK 280600 METAR WAEK 280600Z 26004KT 8000 FEW015CB BKN018 29/25 Q1007=
29-May-2022 SAID35 WAEK 290000 METAR WAEK 290000Z 34004KT 8000 FEW015CB BKN018 24/24 Q1010=
29-May-2022 SAID35 WAEK 290300 METAR WAEK 290300Z 35004KT 8000 FEW015CB BKN018 27/25 Q1010=
29-May-2022 SAID35 WAEK 290600 METAR WAEK 290600Z 33003KT 8000 FEW015CB BKN018 26/24 Q1006=
30-May-2022 SAID35 WAEK 300000 METAR WAEK 300000Z 01003KT 9999 SCT019 27/24 Q1011=
30-May-2022 SAID35 WAEK 300300 METAR WAEK 300300Z 15004KT 9999 SCT018 31/24 Q1009=
30-May-2022 SAID35 WAEK 300600 METAR WAEK 300600Z 18007KT 9999 SCT018 32/24 Q1007=
31-May-2022 SAID35 WAEK 310000 METAR WAEK 310000Z 35005KT 9999 SCT020 29/25 Q1010=
31-May-2022 SAID35 WAEK 310300 METAR WAEK 310300Z 14005KT 9999 SCT019 31/24 Q1009=
31-May-2022 SAID35 WAEK 310600 METAR WAEK 310600Z 14007KT 9999 SCT019 32/23 Q1007=
01-Jun-2022 SAID35 WAEK 010000 METAR WAEK 010000Z 15002KT 9999 SCT019 29/25 Q1011=
01-Jun-2022 SAID35 WAEK 010300 METAR WAEK 010300Z 12006KT 9999 SCT019 31/25 Q1010=
01-Jun-2022 SAID35 WAEK 010600 METAR WAEK 010600Z 09008KT 9999 SCT019 32/24 Q1008=
02-Jun-2022 SAID35 WAEK 020000 METAR WAEK 020000Z 32002KT 9999 BKN018 27/25 Q1011=
02-Jun-2022 SAID35 WAEK 020300 METAR WAEK 020300Z 28005KT 9999 SCT018 31/26 Q1009=
02-Jun-2022 SAID35 WAEK 020600 METAR WAEK 020600Z 10006KT 9999 SCT019 30/27 Q1007=
03-Jun-2022 SAID35 WAEK 030000 METAR WAEK 030000Z 34002KT 9999 SCT019 29/25 Q1011=
03-Jun-2022 SAID35 WAEK 030300 METAR WAEK 030300Z 08004KT 9999 SCT019 31/24 Q1009=
03-Jun-2022 SAID35 WAEK 030600 METAR WAEK 030600Z 08011KT 9999 FEWCB016 SCT018 27/23 Q1008=
04-Jun-2022 SAID35 WAEK 040000 METAR WAEK 040000Z 02002KT 9999 SCT019 29/25 Q1011=
04-Jun-2022 SAID35 WAEK 040600 METAR WAEK 040600Z 16006KT 9999 SCT019 32/24 Q1008=
05-Jun-2022 SAID35 WAEK 050000 METAR WAEK 050000Z 23002KT 9999 SCT019 29/26 Q1011=
05-Jun-2022 SAID35 WAEK 050300 METAR WAEK 050300Z 29003KT 9999 SCT019 32/24 Q1010=
05-Jun-2022 SAID35 WAEK 050600 METAR WAEK 050600Z 33003KT 9999 BKN019 34/24 Q1007=
06-Jun-2022 SAID35 WAEK 060000 METAR WAEK 060000Z 23002KT 9999 SCT019 30/26 Q1009=
06-Jun-2022 SAID35 WAEK 060300 METAR WAEK 060300Z 14007KT 9999 SCT019 33/25 Q1008=
06-Jun-2022 SAID35 WAEK 060600 METAR WAEK 060600Z 18002KT 9000 FEW016CB BKN018 31/24 Q1006=
07-Jun-2022 SAID35 WAEK 070000 METAR WAEK 070000Z 25003KT 9999 SCT019 29/25 Q1010=
07-Jun-2022 SAID35 WAEK 070300 METAR WAEK 070300Z 12005KT 9999 SCT019 32/24 Q1008=
07-Jun-2022 SAID35 WAEK 070600 METAR WAEK 070600Z 12006KT 9000 SCT019 34/21 Q1006=
08-Jun-2022 SAID35 WAEK 080000 METAR WAEK 080000Z 33003KT 9999 SCT019 28/26 Q1010=
08-Jun-2022 SAID35 WAEK 080600 METAR WAEK 080600Z 11006KT 9999 SCT019 33/23 Q1006=
09-Jun-2022 SAID35 WAEK 090000 METAR WAEK 090000Z 33002KT 9999 SCT019 29/25 Q1010=
09-Jun-2022 SAID35 WAEK 090300 METAR WAEK 090300Z 06007KT 9999 SCT019 31/25 Q1008=
09-Jun-2022 SAID35 WAEK 090600 METAR WAEK 090600Z 05008KT 9999 SCT019 32/25 Q1006=
10-Jun-2022 SAID35 WAEK 100300 METAR WAEK 100300Z 12007KT 9999 SCT019 31/25 Q1009=
10-Jun-2022 SAID35 WAEK 100600 METAR WAEK 100600Z 12006KT 9999 SCT019 31/25 Q1007=
11-Jun-2022 SAID35 WAEK 110000 METAR WAEK 110000Z 33003KT 9999 SCT019 29/25 Q1010=
11-Jun-2022 SAID35 WAEK 110300 METAR WAEK 110300Z 10006KT 9999 SCT019 32/24 Q1009=
11-Jun-2022 SAID35 WAEK 110600 METAR WAEK 110600Z 09009KT 9999 SCT019 33/25 Q1006=
12-Jun-2022 SAID35 WAEK 120000 METAR WAEK 120000Z 32003KT 9999 SCT019 29/25 Q1010=
12-Jun-2022 SAID35 WAEK 120300 METAR WAEK 120300Z 07006KT 9999 SCT019 32/25 Q1009=
12-Jun-2022 SAID35 WAEK 120600 METAR WAEK 120600Z 06010KT 9999 SCT019 34/24 Q1007=
13-Jun-2022 SAID35 WAEK 130000 METAR WAEK 130000Z 00000KT 9999 SCT019 29/25 Q1010=
13-Jun-2022 SAID35 WAEK 130300 METAR WAEK 130300Z 15003KT 9999 SCT019 33/24 Q1010=
13-Jun-2022 SAID35 WAEK 130600 METAR WAEK 130600Z 11007KT 9999 SCT019 34/26 Q1007=
14-Jun-2022 SAID35 WAEK 140300 METAR WAEK 140300Z 02006KT 9999 SCT019 31/25 Q1010=
14-Jun-2022 SAID35 WAEK 140600 METAR WAEK 140600Z 05006KT 9999 SCT019 33/26 Q1008=
15-Jun-2022 SAID35 WAEK 150000 METAR WAEK 150000Z 35003KT 9999 FEWCB016 SCT018 27/25 Q1011=
15-Jun-2022 SAID35 WAEK 150300 METAR WAEK 150300Z 08007KT 9000 FEWCB016 BKN018 28/23 Q1011=
15-Jun-2022 SAID35 WAEK 150600 METAR WAEK 150600Z 36003KT 8000 FEWCB016 BKN018 25/24 Q1009=
16-Jun-2022 SAID35 WAEK 160000 METAR WAEK 160000Z 28002KT 9999 SCT019 28/24 Q1011=
16-Jun-2022 SAID35 WAEK 160300 METAR WAEK 160300Z 17002KT 9999 SCT019 30/23 Q1009=
16-Jun-2022 SAID35 WAEK 160600 METAR WAEK 160600Z 18004KT 9000 FEWCB016 SCT019 27/25 Q1008=
17-Jun-2022 SAID35 WAEK 170000 METAR WAEK 170000Z 05002KT 9999 SCT019 296/24 Q1010=
17-Jun-2022 SAID35 WAEK 170300 METAR WAEK 170300Z 06004KT 9999 SCT019 31/25 Q1011=
17-Jun-2022 SAID35 WAEK 170600 METAR WAEK 170600Z 32005KT 9999 SCT019 33/25 Q1009=
18-Jun-2022 SAID35 WAEK 180000 METAR WAEK 180000Z 00000KT 9999 SCT018 28/25 Q1010=
18-Jun-2022 SAID35 WAEK 180300 METAR WAEK 180300Z 15004KT 9999 SCT018 31/25 Q1009=
18-Jun-2022 SAID35 WAEK 180600 METAR WAEK 180600Z 04003KT 9999 FEWCB018 SCT018 28/25 Q1008=
19-Jun-2022 SAID35 WAEK 190000 METAR WAEK 190000Z 07002KT 9999 SCT019 29/26 Q1010=
19-Jun-2022 SAID35 WAEK 190300 METAR WAEK 190300Z 31002KT 9999 SCT019 31/24 Q1008=
19-Jun-2022 SAID35 WAEK 190600 METAR WAEK 190600Z 11005KT 8000 FEW015CN BKN018 31/25 Q1006=
20-Jun-2022 SAID35 WAEK 200300 METAR WAEK 200300Z 19007KT 9000 FEW016CB BKN018 31/25 Q1008=
20-Jun-2022 SAID35 WAEK 200600 METAR WAEK 200600Z 21006KT 9000 FEW016CN BKN018 32/25 Q1006=
21-Jun-2022 SAID35 WAEK 210000 METAR WAEK 210000Z 01002KT 9999 SCT019 28/26 Q1009=
21-Jun-2022 SAID35 WAEK 210600 METAR WAEK 210600Z 18004KT 9000 FEW016CN BKN018 33/25 Q1006=
22-Jun-2022 SAID35 WAEK 220000 METAR WAEK 220000Z 04005KT 9999 SCT019 30/25 Q1010=
22-Jun-2022 SAID35 WAEK 220300 METAR WAEK 220300Z 09003KT 9999 SCT019 32/25 Q1009=
22-Jun-2022 SAID35 WAEK 220600 METAR WAEK 220600Z 06007KT 8000 FEW016CB BKN018 30/25 Q10067=
23-Jun-2022 SAID35 WAEK 230000 METAR WAEK 230000Z 32002KT 9999 SCT019 28/25 Q1011=
23-Jun-2022 SAID35 WAEK 230300 METAR WAEK 230300Z 05006KT 9999 SCT019 31/25 Q1010=
23-Jun-2022 SAID35 WAEK 230600 METAR WAEK 230600Z 06010KT 9999 SCT019 31/25 Q10067=
24-Jun-2022 SAID35 WAEK 240000 METAR WAEK 240000Z 34003KT 9999 SCT019 28/26 Q1010=
24-Jun-2022 SAID35 WAEK 240300 METAR WAEK 240300Z 05004KT 9999 SCT019 32/23 Q1008=
24-Jun-2022 SAID35 WAEK 240600 METAR WAEK 240600Z 12005KT 9999 SCT019 32/23 Q10066=
25-Jun-2022 SAID35 WAEK 250000 METAR WAEK 250000Z 31002KT 9999 SCT019 26/25 Q1009=
25-Jun-2022 SAID35 WAEK 250300 METAR WAEK 250300Z 31003KT 9999 SCT019 31/25 Q1007=
25-Jun-2022 SAID35 WAEK 250600 METAR WAEK 250600Z 12005KT 8000 FEW015CB BKN018 30/23 Q1006=
26-Jun-2022 SAID35 WAEK 260000 METAR WAEK 260000Z 30004KT 9999 SCT019 29/26 Q1011=
26-Jun-2022 SAID35 WAEK 260300 METAR WAEK 260300Z 29004KT 9999 BKN018 33/25 Q1010=
26-Jun-2022 SAID35 WAEK 260600 METAR WAEK 260600Z 15004KT 8000 FEW015CB BKN018 31/25 Q1007=
27-Jun-2022 SAID35 WAEK 270000 METAR WAEK 270000Z 30003KT 9999 SCT019 27/25 Q1010=
27-Jun-2022 SAID35 WAEK 270300 METAR WAEK 270300Z 20008KT 9999 SCT019 32/24 Q1009=
28-Jun-2022 SAID35 WAEK 280000 METAR WAEK 280000Z 36003KT 8000 FEWCB016 SCT018 24/24 Q1010=
28-Jun-2022 SAID35 WAEK 280300 METAR WAEK 280300Z 36002KT 9000 FEWCB016 SCT018 27/25 Q1008=
28-Jun-2022 SAID35 WAEK 280600 METAR WAEK 280600Z 09006KT 9000 FEW015CB BKN018 29/25 Q1006=
29-Jun-2022 SAID35 WAEK 290000 METAR WAEK 290000Z 34002KT 9999 SCT018 27/25 Q1008=
29-Jun-2022 SAID35 WAEK 290300 METAR WAEK 290300Z 04002KT 9999 SCT019 32/25 Q1007=
29-Jun-2022 SAID35 WAEK 290600 METAR WAEK 290600Z 04006KT 99999 SCT018 33/25 Q1006=
30-Jun-2022 SAID35 WAEK 300000 METAR WAEK 300000Z 36003KT 9999 SCT019 28/25 Q1009=
30-Jun-2022 SAID35 WAEK 300300 METAR WAEK 300300Z 04006KT 9999 SCT019 31/24 Q1008=
30-Jun-2022 SAID35 WAEK 300600 METAR WAEK 300600Z 36008KT 9999 SCT019 30/24 Q1006=
01-Jul-2022 SAID35 WAEK 010000 METAR WAEK 010000Z 29003KT 9999 SCT019 29/25 Q1010=
01-Jul-2022 SAID35 WAEK 010300 METAR WAEK 010300Z 30006KT 9999 SCT019 31/24 Q1009=
01-Jul-2022 SAID35 WAEK 010600 METAR WAEK 010600Z 32003KT 9000 FEWCB016 SCT018 30/23 Q1006=
02-Jul-2022 SAID35 WAEK 020000 METAR WAEK 020000Z 30003KT 9000 FEWCB016 SCT018 26/25 Q1010=
02-Jul-2022 SAID35 WAEK 020300 METAR WAEK 020300Z 17008KT 9999 SCT018 30/26 Q1008=
02-Jul-2022 SAID35 WAEK 020600 METAR WAEK 020600Z 18007KT 9999 SCT019 32/26 Q1006=
03-Jul-2022 SAID35 WAEK 030000 METAR WAEK 030000Z 34003KT 7000 FEW015CB BKN018 25/24 Q1009=
03-Jul-2022 SAID35 WAEK 030300 METAR WAEK 030300Z 32003KT 8000 FEW015CB BKN018 27/26 Q1009=
03-Jul-2022 SAID35 WAEK 030600 METAR WAEK 030600Z 08002KT 8000 FEW016CB BKN018 30/25 Q1006=
04-Jul-2022 SAID35 WAEK 040000 METAR WAEK 040000Z 36003KT 9999 SCT019 27/25 Q1007=
04-Jul-2022 SAID35 WAEK 040600 METAR WAEK 040600Z 34008KT 8000 FEW015CB BKN018 29/25 Q1005=
05-Jul-2022 SAID35 WAEK 050000 METAR WAEK 050000Z 00000KT FEW016CB BKN018 29/25 Q1009=
05-Jul-2022 SAID35 WAEK 050300 METAR WAEK 050300Z 35004KT 7000 FEW016CB BKN018 28/25 Q1009=
05-Jul-2022 SAID35 WAEK 050600 METAR WAEK 050600Z 35002KT 8000 FEW016CB BKN018 31/25 Q1007=
06-Jul-2022 SAID35 WAEK 060000 METAR WAEK 060000Z 23002KT SCT019 9999 28/25 Q1009=
06-Jul-2022 SAID35 WAEK 060300 METAR WAEK 060300Z 11004KT 9999 SCT019 31/25 Q1008=
06-Jul-2022 SAID35 WAEK 060600 METAR WAEK 060600Z 08007KT 9999 SCT019 32/26 Q1007=
07-Jul-2022 SAID35 WAEK 070000 METAR WAEK 070000Z 30003KT 6000 FEW015CB BKN018 25/25 Q1011=
07-Jul-2022 SAID35 WAEK 070300 METAR WAEK 070300Z 29003KT 9000 FEW015CB BKN018 26/25 Q1010=
07-Jul-2022 SAID35 WAEK 070600 METAR WAEK 070600Z 21007KT 9000 FEW015CB BKN018 28/26 Q1007=
08-Jul-2022 SAID35 WAEK 080000 METAR WAEK 080000Z 36002KT 9999 BKN018 26/25 Q1010=
08-Jul-2022 SAID35 WAEK 080300 METAR WAEK 080300Z 12002KT 9999 BKN019 28/25 Q1009=
09-Jul-2022 SAID35 WAEK 090000 METAR WAEK 090000Z 34002KT 9999 BKN018 25/24 Q1010=
09-Jul-2022 SAID35 WAEK 090300 METAR WAEK 090300Z 03002KT 9999 BKN019 30/25 Q1008=
09-Jul-2022 SAID35 WAEK 090600 METAR WAEK 090600Z 22004KT 9999 BKN019 29/26 Q1007=
11-Jul-2022 SAID35 WAEK 110000 METAR WAEK 110000Z 32005KT 99999 FEWCB016 BKN018 25/24 Q1011=
11-Jul-2022 SAID35 WAEK 110300 METAR WAEK 110300Z 28002KT 9999 FEWCB016 BKN018 25/24 Q1011=
12-Jul-2022 SAID35 WAEK 120000 METAR WAEK 120000Z 30003KT 9999 BKN018 27/25 Q1010=
12-Jul-2022 SAID35 WAEK 120300 METAR WAEK 120300Z 22005KT 9000 FEWCB016 BKN018 27/25 Q1010=
12-Jul-2022 SAID35 WAEK 120600 METAR WAEK 120600Z 23004KT 9000 FEWCB016 BKN018 28/24 Q1008=
13-Jul-2022 SAID35 WAEK 130000 METAR WAEK 130000Z 18006KT 9999 BKN018 26/24 Q1010=
13-Jul-2022 SAID35 WAEK 130600 METAR WAEK 130600Z 22004KT 9999 BKN018 29/23 Q1007=
14-Jul-2022 SAID35 WAEK 140000 METAR WAEK 140000Z 25002KT 9999 SCT019 27/25 Q1010=
14-Jul-2022 SAID35 WAEK 140600 METAR WAEK 140600Z 19006KT 9999 SCT19 32/23 Q1007=
16-Jul-2022 SAID35 WAEK 160000 METAR WAEK 160000Z 25004KT 9999 SCT018 27/24 Q1011=
16-Jul-2022 SAID35 WAEK 160600 METAR WAEK 160600Z 18006KT 9999 SCT018 30/24 Q1007=
17-Jul-2022 SAID35 WAEK 170000 METAR WAEK 170000Z 19007KT 9999 SCT019 29/25 Q1010=
17-Jul-2022 SAID35 WAEK 170300 METAR WAEK 170300Z 21006KT 9999 SCT019 32/24 Q1009=
17-Jul-2022 SAID35 WAEK 170600 METAR WAEK 170600Z 21008KT 8000 FEW016CB BKN018 32/24 Q1007=
18-Jul-2022 SAID35 WAEK 180000 METAR WAEK 180000Z 32003KT 8000 FEW015CN BKN018 25/25 Q1011=
18-Jul-2022 SAID35 WAEK 180300 METAR WAEK 180300Z 34005KT 9000 FEW015CB BKN018 27/25 Q1010=
18-Jul-2022 SAID35 WAEK 180600 METAR WAEK 180600Z 31006KT 8000 FEW015CB BKN018 26/24 Q1009=
19-Jul-2022 SAID35 WAEK 190000 METAR WAEK 190000Z 32004KT 9999 BKN019 25/23 Q1011=
19-Jul-2022 SAID35 WAEK 190300 METAR WAEK 190300Z 34005KT 9000 BKN019 30/25 Q1010=
19-Jul-2022 SAID35 WAEK 190600 METAR WAEK 190600Z 26003KT 9999 BKN019 31/23 Q1007=
20-Jul-2022 SAID35 WAEK 200300 METAR WAEK 200300Z 12005KT 9999 SCT019 32/24 Q1010=
20-Jul-2022 SAID35 WAEK 200600 METAR WAEK 200600Z 21003KT 9999 SCT019 33/23 Q1006=
21-Jul-2022 SAID35 WAEK 210000 METAR WAEK 210000Z 33002KT 9999 BKN019 28/25 Q1010=
21-Jul-2022 SAID35 WAEK 210300 METAR WAEK 210300Z 20002KT 9000 FEW016CB BKN018 32/26 Q1010=
21-Jul-2022 SAID35 WAEK 210600 METAR WAEK 210600Z 21004KT 8000 FEW016CB BKN018 29/25 Q1009=
22-Jul-2022 SAID35 WAEK 220000 METAR WAEK 220000Z 29002KT 9999 SCT019 29/26 Q1011=
22-Jul-2022 SAID35 WAEK 220300 METAR WAEK 220300Z 20002KT 9999 SCT019 32/25 Q1010=
22-Jul-2022 SAID35 WAEK 220600 METAR WAEK 220600Z 21006KT 8000 FEW016CB BKN018 31/25 Q1008=
23-Jul-2022 SAID35 WAEK 230000 METAR WAEK 230000Z 32002KT 9999 SCT019 26/25 Q1011=
23-Jul-2022 SAID35 WAEK 230300 METAR WAEK 230300Z 23004KT 9999 BKN019 31/25 Q1009=
23-Jul-2022 SAID35 WAEK 230600 METAR WAEK 230600Z 22004KT 9000 FEW016CB BKN018 31/25 Q1007=
24-Jul-2022 SAID35 WAEK 240000 METAR WAEK 240000Z 28004KT 9999 SCT019 27/24 Q1011=
24-Jul-2022 SAID35 WAEK 240300 METAR WAEK 240300Z 23004KT 9999 SCT019 32/25 Q1009=
24-Jul-2022 SAID35 WAEK 240600 METAR WAEK 240600Z 24006KT 9000 FEW016CB BKN018 31/24 Q1008=
25-Jul-2022 SAID35 WAEK 250600 METAR WAEK 250600Z 22005KT 9000 FEW016CB BKN018 31/22 Q1006=
26-Jul-2022 SAID35 WAEK 260000 METAR WAEK 260000Z 00000KT 9999 SCT019 27/25 Q1010=
26-Jul-2022 SAID35 WAEK 260300 METAR WAEK 260300Z 18008KT 9999 SCT019 32/25 Q1009=
26-Jul-2022 SAID35 WAEK 260600 METAR WAEK 260600Z 17006KT 9000 FEW016CB BKN018 31/22 Q1007=
27-Jul-2022 SAID35 WAEK 270000 METAR WAEK 270000Z 00000KT 9999 SCT019 29/26 Q1009=
27-Jul-2022 SAID35 WAEK 270300 METAR WAEK 270300Z 23004KT 9999 SCT019 31/25 Q1009=
27-Jul-2022 SAID35 WAEK 270600 METAR WAEK 270600Z 26003KT 9999 SCT019 31/23 Q1007=
28-Jul-2022 SAID35 WAEK 280000 METAR WAEK 280000Z 25002KT 9999 SCT019 29/26 Q1009=
28-Jul-2022 SAID35 WAEK 280300 METAR WAEK 280300Z 22004KT 9999 SCT019 31/25 Q1009=
28-Jul-2022 SAID35 WAEK 280600 METAR WAEK 280600Z 24006KT 9999 SCT016 30/23 Q1007=
29-Jul-2022 SAID35 WAEK 290000 METAR WAEK 290000Z 36002KT 90000 BKN016 SCT018 26/25 Q1009=
29-Jul-2022 SAID35 WAEK 290300 METAR WAEK 290300Z 22004KT 9999 BKN019 31/24 Q1008=
29-Jul-2022 SAID35 WAEK 290600 METAR WAEK 290600Z 13003KT 9999 SCT016 30/25 Q1007=
30-Jul-2022 SAID35 WAEK 300600 METAR WAEK 300600Z 19008KT 9999 SCT018 32/23 Q1006=
31-Jul-2022 SAID35 WAEK 310000 METAR WAEK 310000Z 30002KT 9999 SCT019 27/25 Q1009=
31-Jul-2022 SAID35 WAEK 310600 METAR WAEK 310600Z 18007KT 9000 FEW016CB BKN018 30/23 Q1007=
01-Aug-2022 SAID35 WAEK 010000 METAR WAEK 010000Z 31003KT 9999 SCT019 29/25 Q1009=
01-Aug-2022 SAID35 WAEK 010300 METAR WAEK 010300Z 13004KT 9999 SCT018 32/25 Q1008=
01-Aug-2022 SAID35 WAEK 010600 METAR WAEK 010600Z 07010KT 9000 FEW016CB BKN018 33/25 Q1006=
02-Aug-2022 SAID35 WAEK 020000 METAR WAEK 020000Z 19002KT 9999 SCT019 29/26 Q1010=
02-Aug-2022 SAID35 WAEK 020300 METAR WAEK 020300Z 14004KT 9999 SCT018 32/26 Q1009=
02-Aug-2022 SAID35 WAEK 020600 METAR WAEK 020600Z 17008KT 9999 BKN018 31/24 Q1007=
03-Aug-2022 SAID35 WAEK 030000 METAR WAEK 030000Z 00000KT 9000 FEW016CB BKN018 26/25 Q1010=
03-Aug-2022 SAID35 WAEK 030300 METAR WAEK 030300Z 23003KT 9000 FEW016CB BKN018 30/26 Q1009=
03-Aug-2022 SAID35 WAEK 030600 METAR WAEK 030600Z 24002KT 9999 BKN018 28/25 Q1008=
05-Aug-2022 SAID35 WAEK 050000 METAR WAEK 050000Z 32002KT 9999 SCT019 28/25 Q1010=
05-Aug-2022 SAID35 WAEK 050600 METAR WAEK 050600Z 16006KT 9000 FEW016CB BKN018 31/25 Q1006=
06-Aug-2022 SAID35 WAEK 060000 METAR WAEK 060000Z 31002KT 9999 SCT019 27/25 Q1010=
06-Aug-2022 SAID35 WAEK 060300 METAR WAEK 060300Z 12004KT 9999 SCT019 30/26 Q1009=
06-Aug-2022 SAID35 WAEK 060600 METAR WAEK 060600Z 05006KT 9000 FEW016CB BKN018 30/25 Q1006=
07-Aug-2022 SAID35 WAEK 070000 METAR WAEK 070000Z 31002KT 9999 SCT019 27/25 Q1010=
07-Aug-2022 SAID35 WAEK 070300 METAR WAEK 070300Z 17005KT 9999 SCT019 30/25 Q1008=
07-Aug-2022 SAID35 WAEK 070600 METAR WAEK 070600Z 19005KT 9000 FEW016CB BKN018 31/24 Q1006=
08-Aug-2022 SAID35 WAEK 080000 METAR WAEK 080000Z 31002T 9999 FEWCB016 SCT018 25/24 Q1011=
08-Aug-2022 SAID35 WAEK 080300 METAR WAEK 080300Z 1700KT 9999 BKN018 30/25 Q1009=
08-Aug-2022 SAID35 WAEK 080600 METAR WAEK 080600Z 30007KT 6000 FEW016CB BKN018 25/24 Q1007=
09-Aug-2022 SAID35 WAEK 090000 METAR WAEK 090000Z 23003KT 9999 SCT019 28/25 Q1010=
09-Aug-2022 SAID35 WAEK 090300 METAR WAEK 090300Z 21007KT 9999 SCT019 30/23 Q1009=
09-Aug-2022 SAID35 WAEK 090600 METAR WAEK 090600Z 19007KT 99999 SCT018 31/25 Q1006=
10-Aug-2022 SAID35 WAEK 100000 METAR WAEK 100000Z 14002KT 9999 SCT018 28/26 Q1010=
10-Aug-2022 SAID35 WAEK 100300 METAR WAEK 100300Z 16003KT 9999 SCT018 32/27 Q1009=
10-Aug-2022 SAID35 WAEK 100600 METAR WAEK 100600Z 20006KT 99999 SCT019 33/24 Q1008=
11-Aug-2022 SAID35 WAEK 110000 METAR WAEK 110000Z 22002KT 9999 SCT019 28/24 Q1011=
11-Aug-2022 SAID35 WAEK 110300 METAR WAEK 110300Z 20005KT 9999 SCT019 31/21 Q1010=
12-Aug-2022 SAID35 WAEK 120000 METAR WAEK 120000Z 34002KT 9999 SCT018 28/25 Q1011=
12-Aug-2022 SAID35 WAEK 120300 METAR WAEK 120300Z 32002KT 9999 SCT018 33/25 Q1010=
12-Aug-2022 SAID35 WAEK 120600 METAR WAEK 120600Z 17005KT 9999 SCT018 32/22 Q1008=
13-Aug-2022 SAID35 WAEK 130000 METAR WAEK 130000Z 35004KT 9999 SCT019 25/24 Q1010=
13-Aug-2022 SAID35 WAEK 130300 METAR WAEK 130300Z 21005KT 9999 SCT019 32/25 Q1010=
13-Aug-2022 SAID35 WAEK 130600 METAR WAEK 130600Z 18013KT 9000 FEWCB016 BKN018 29/25 Q1007=
14-Aug-2022 SAID35 WAEK 140000 METAR WAEK 140000Z 30002KT 9999 SCT019 25/24 Q1010=
14-Aug-2022 SAID35 WAEK 140300 METAR WAEK 140300Z 23003KT 9000 FEW016CB BKN018 30/24 Q1009=
14-Aug-2022 SAID35 WAEK 140600 METAR WAEK 140600Z 21006KT 9999 SCT019 31/24 Q1007=
15-Aug-2022 SAID35 WAEK 150000 METAR WAEK 150000Z 00000KT 9999 SCT019 26/25 Q1010=
15-Aug-2022 SAID35 WAEK 150300 METAR WAEK 150300Z 22004KT 9999 BKN018 31/24 Q1009=
15-Aug-2022 SAID35 WAEK 150600 METAR WAEK 150600Z 24009KT 9000 FEW016CB BKN018 31/23 Q1007=
16-Aug-2022 SAID35 WAEK 160000 METAR WAEK 160000Z 00000KT 9000 FEW015 BKN018 24/23 Q1012=
16-Aug-2022 SAID35 WAEK 160300 METAR WAEK 160300Z 25002KT 8000 FEW016CB BKN018 25/24 Q1012=
16-Aug-2022 SAID35 WAEK 160600 METAR WAEK 160600Z 00000KT 8000 FEW016CB BKN018 26/23 Q1010=
17-Aug-2022 SAID35 WAEK 170000 METAR WAEK 170000Z 27003KT 9999 BKN019 25/24 Q1012=
17-Aug-2022 SAID35 WAEK 170300 METAR WAEK 170300Z 18008KT 9999 BKN019 30/24 Q1011=
17-Aug-2022 SAID35 WAEK 170600 METAR WAEK 170600Z 19008KT 9999 BKN019 31/25 Q1009=
18-Aug-2022 SAID35 WAEK 180000 METAR WAEK 180000Z 34002KT 9999 BKN019 26/25 Q1011=
18-Aug-2022 SAID35 WAEK 180300 METAR WAEK 180300Z 22006KT 9000 FEW016CB BKN018 28/25 Q1011=
18-Aug-2022 SAID35 WAEK 180600 METAR WAEK 180600Z 16005KT 9999 BKN019 32/23 Q1009=
20-Aug-2022 SAID35 WAEK 200000 METAR WAEK 200000Z 23004KT 9999 SCT019 29/25 Q1011=
20-Aug-2022 SAID35 WAEK 200300 METAR WAEK 200300Z 19003KT 9999 SCT019 33/24 Q1010=
20-Aug-2022 SAID35 WAEK 200600 METAR WAEK 200600Z 19012KT 8000 FEW015CB BKN018 29/25 Q1008=
21-Aug-2022 SAID35 WAEK 210000 METAR WAEK 210000Z 24003KT 9999 SCT019 28/25 Q1010=
21-Aug-2022 SAID35 WAEK 210600 METAR WAEK 210600Z 17010KT 8000 FEW015CB BKN018 29/25 Q1008=
22-Aug-2022 SAID35 WAEK 220000 METAR WAEK 220000Z 24002KT 9999 SCT018 27/24 Q1010=
23-Aug-2022 SAID35 WAEK 230000 METAR WAEK 230000Z 26007KT 9999 SCT018 27/25 Q1011=
23-Aug-2022 SAID35 WAEK 230300 METAR WAEK 230300Z 20006KT 9999 SCT018 31/24 Q1011=
23-Aug-2022 SAID35 WAEK 230600 METAR WAEK 230600Z 19006KT 9999 SCT018 30/23 Q1008=
24-Aug-2022 SAID35 WAEK 240000 METAR WAEK 240000Z 35006KT 9999 SCT018 26/25 Q1012=
25-Aug-2022 SAID35 WAEK 250000 METAR WAEK 250000Z 05005KT 9999 SCT019 28/25 Q1010=
25-Aug-2022 SAID35 WAEK 250600 METAR WAEK 250600Z 03007KT 9999 SCT019 33/22 Q1007=
26-Aug-2022 SAID35 WAEK 260000 METAR WAEK 260000Z 35003KT 9999 SCT019 27/24 Q1010=
26-Aug-2022 SAID35 WAEK 260600 METAR WAEK 260600Z 11005KT 9999 SCT019 32/23 Q1007=
27-Aug-2022 SAID35 WAEK 270000 METAR WAEK 270000Z 29003KT 9999 SCT018 27/24 Q1010=
27-Aug-2022 SAID35 WAEK 270600 METAR WAEK 270600Z 12005KT 9999 SCT019 32/22 Q1007=
28-Aug-2022 SAID35 WAEK 280000 METAR WAEK 280000Z 32003KT 9999 SCT020 26/25 Q1009=
28-Aug-2022 SAID35 WAEK 280300 METAR WAEK 280300Z 09005KT 9999 SCT019 32/23 Q1009=
28-Aug-2022 SAID35 WAEK 280600 METAR WAEK 280600Z 05006KT 9999 SCT019 33/25 Q1006=
29-Aug-2022 SAID35 WAEK 290000 METAR WAEK 290000Z 28002KT 9000 FEW016CB BKN018 26/25 Q1010=
29-Aug-2022 SAID35 WAEK 290300 METAR WAEK 290300Z 16004KT 8000 FEW015CB BKN018 27/26 Q1009=
29-Aug-2022 SAID35 WAEK 290600 METAR WAEK 290600Z 14004KT 8000 FEW015CB BKN018 27/25 Q1008=
30-Aug-2022 SAID35 WAEK 300000 METAR WAEK 300000Z 34004KT 9999 SCT019 28/25 Q1009=
30-Aug-2022 SAID35 WAEK 300300 METAR WAEK 300300Z 06005KT 9999 SCT019 31/26 Q1007=
31-Aug-2022 SAID35 WAEK 310000 METAR WAEK 310000Z 00000KT 9999 SCT019 29/25 Q1009=
31-Aug-2022 SAID35 WAEK 310300 METAR WAEK 310300Z 13004KT 9000 FEW016CB BKN018 31/25 Q1008=
31-Aug-2022 SAID35 WAEK 310600 METAR WAEK 310600Z 23007KT 9000 FEW016CB BKN018 32/25 Q1005=
01-Sep-2022 SAID35 WAEK 010000 METAR WAEK 010000Z 00000KT 9999 SCT019 28/26 Q1010=
01-Sep-2022 SAID35 WAEK 010300 METAR WAEK 010300Z 17002KT 9999 BKN018 29/25 Q1010=
01-Sep-2022 SAID35 WAEK 010600 METAR WAEK 010600Z 23007KT 9999 BKN018 32/24 Q1007=
02-Sep-2022 SAID35 WAEK 020000 METAR WAEK 020000Z 14002KT 9999 SCT019 28/26 Q1011=
02-Sep-2022 SAID35 WAEK 020300 METAR WAEK 020300Z 21003KT 9999 BKN018 29/26 Q1010=
02-Sep-2022 SAID35 WAEK 020600 METAR WAEK 020600Z 07004KT 9999 BKN018 31/23 Q1007=
03-Sep-2022 SAID35 WAEK 030000 METAR WAEK 030000Z 00000KT 9999 SCT019 26/25 Q1010=
03-Sep-2022 SAID35 WAEK 030300 METAR WAEK 030300Z 22004KT 9000 FEW016CB BKN018 29/25 Q1009=
03-Sep-2022 SAID35 WAEK 030600 METAR WAEK 030600Z 18006KT 9999 BKN018 32/25 Q1006=
04-Sep-2022 SAID35 WAEK 040000 METAR WAEK 040000Z 32002KT 9999 BKN018 26/24 Q1010=
04-Sep-2022 SAID35 WAEK 040300 METAR WAEK 040300Z 13004KT 9999 BKN018 29/24 Q1009=
04-Sep-2022 SAID35 WAEK 040600 METAR WAEK 040600Z 19005KT 9999 BKN018 31/25 Q1006=
05-Sep-2022 SAID35 WAEK 050000 METAR WAEK 050000Z 07002KT 9999 SCT18 28/25 Q1011=
05-Sep-2022 SAID35 WAEK 050300 METAR WAEK 050300Z 05005KT 9999 SCT019 32/24 Q1010=
05-Sep-2022 SAID35 WAEK 050600 METAR WAEK 050600Z 09010KT 9999 SCT019 32/25 Q1007=
06-Sep-2022 SAID35 WAEK 060000 METAR WAEK 060000Z 25003KT 9999 SCT18 29/25 Q1012=
06-Sep-2022 SAID35 WAEK 060300 METAR WAEK 060300Z 17004KT 9999 SCT019 31/24 Q1010=
06-Sep-2022 SAID35 WAEK 060600 METAR WAEK 060600Z 07004KT 9999 SCT019 32/24 Q1008=
07-Sep-2022 SAID35 WAEK 070000 METAR WAEK 070000Z 31002KT 9999 BKN18 27/25 Q1013=
07-Sep-2022 SAID35 WAEK 070300 METAR WAEK 070300Z 25002KT 9999 BKN018 29/22 Q1013=
07-Sep-2022 SAID35 WAEK 070600 METAR WAEK 070600Z 23005KT 9999 BKN018 30/23 Q1009=
08-Sep-2022 SAID35 WAEK 080000 METAR WAEK 080000Z 19004KT 9999 SCT19 28/25 Q1012=
08-Sep-2022 SAID35 WAEK 080300 METAR WAEK 080300Z 23002KT 9999 SCT019 32/22 Q1011=
09-Sep-2022 SAID35 WAEK 090000 METAR WAEK 090000Z 18003KT 9999 SCT19 29/26 Q1012=
09-Sep-2022 SAID35 WAEK 090600 METAR WAEK 090600Z 14007KT 9999 SCT019 30/24 Q1009=
10-Sep-2022 SAID35 WAEK 100000 METAR WAEK 100000Z 20002KT 9999 SCT18 29/24 Q1011=
10-Sep-2022 SAID35 WAEK 100600 METAR WAEK 100600Z 14006KT 9000 FEWCB016 SCT018 28/22 Q1008=
11-Sep-2022 SAID35 WAEK 110000 METAR WAEK 110000Z 32004KT 9999 SCT019 26/24 Q1012=
11-Sep-2022 SAID35 WAEK 110300 METAR WAEK 110300Z 01003KT 9999 BKN019 31/26 Q1010=
11-Sep-2022 SAID35 WAEK 110600 METAR WAEK 110600Z 05006KT 9999 BKN018 30/25 Q1007=
12-Sep-2022 SAID35 WAEK 120000 METAR WAEK 120000Z 00000KT 9999 SCT019 30/25 Q1011=
12-Sep-2022 SAID35 WAEK 120300 METAR WAEK 120300Z 07004KT 9999 BKN019 32/24 Q1009=
12-Sep-2022 SAID35 WAEK 120600 METAR WAEK 120600Z 21006KT 9000 FEW016CB BKN018 30/25 Q1007=
13-Sep-2022 SAID35 WAEK 130000 METAR WAEK 130000Z 28004KT 9999 SCT19 29/25 Q1012=
13-Sep-2022 SAID35 WAEK 130600 METAR WAEK 130600Z 21006KT 9000 FEW016CB BKN018 30/25 Q1009=
14-Sep-2022 SAID35 WAEK 140000 METAR WAEK 140000Z 24002KT 9999 SCT019 28/25 Q1012=
14-Sep-2022 SAID35 WAEK 140600 METAR WAEK 140600Z 17004KT 9999 BKN019 33/24 Q1008=
15-Sep-2022 SAID35 WAEK 150000 METAR WAEK 150000Z 19005KT 9999 SCT019 28/25 Q1011=
15-Sep-2022 SAID35 WAEK 150300 METAR WAEK 150300Z 13002KT 9999 SCT019 32/24 Q1009=
16-Sep-2022 SAID35 WAEK 160000 METAR WAEK 160000Z 32002KT 9999 SCT019 26/25 Q1011=
16-Sep-2022 SAID35 WAEK 160300 METAR WAEK 160300Z 17004KT 9999 SCT019 31/25 Q1009=
16-Sep-2022 SAID35 WAEK 160600 METAR WAEK 160600Z 17010KT 8000 FEW016CB BKN018 31/23 Q1007=
17-Sep-2022 SAID35 WAEK 170000 METAR WAEK 170000Z 21003KT 9999 SCT019 28/25 Q1011=
17-Sep-2022 SAID35 WAEK 170300 METAR WAEK 170300Z 18006KT 9999 SCT019 31/25 Q1009=
17-Sep-2022 SAID35 WAEK 170600 METAR WAEK 170600Z 18008KT 8000 FEW016CB BKN018 30/23 Q1008=
18-Sep-2022 SAID35 WAEK 180000 METAR WAEK 180000Z 34004KT 9999 SCT019 28/25 Q1012=
18-Sep-2022 SAID35 WAEK 180300 METAR WAEK 180300Z 20006KT 9999 SCT019 31/24 Q1010=
18-Sep-2022 SAID35 WAEK 180600 METAR WAEK 180600Z 19007KT 8000 FEW016CB BKN018 30/23 Q1007=
19-Sep-2022 SAID35 WAEK 190000 METAR WAEK 190000Z 33003T 9999 SCT018 27/25 Q1012=
19-Sep-2022 SAID35 WAEK 190300 METAR WAEK 190300Z 19004KT 9999 SCT019 31/23 Q1010=
19-Sep-2022 SAID35 WAEK 190600 METAR WAEK 190600Z 15004KT 9999 SCT019 32/24 Q1006=
20-Sep-2022 SAID35 WAEK 200000 METAR WAEK 200000Z 23003KT 9999 SCT019 29/24 Q1011=
20-Sep-2022 SAID35 WAEK 200300 METAR WAEK 200300Z 24005KT 9999 SCT019 31/24 Q1010=
20-Sep-2022 SAID35 WAEK 200600 METAR WAEK 200600Z 23003KT 9999 SCT019 31/22 Q1007=
21-Sep-2022 SAID35 WAEK 210000 METAR WAEK 210000Z 12003KT 9999 SCT019 27/24 Q1012=
21-Sep-2022 SAID35 WAEK 210300 METAR WAEK 210300Z 14004KT 9999 SCT019 31/24 Q1010=
21-Sep-2022 SAID35 WAEK 210600 METAR WAEK 210600Z 10007KT 9999 SCT019 31/25 Q1008=
22-Sep-2022 SAID35 WAEK 220000 METAR WAEK 220000Z 11003T 9999 SCT019 28/25 Q1011=
22-Sep-2022 SAID35 WAEK 220300 METAR WAEK 220300Z 10006KT 9999 SCT019 31/25 Q1010=
22-Sep-2022 SAID35 WAEK 220600 METAR WAEK 220600Z 14004KT 9999 SCT019 31/22 Q1007=
23-Sep-2022 SAID35 WAEK 230000 METAR WAEK 230000Z 00000KT 9999 SCT018 26/24 Q1011=
23-Sep-2022 SAID35 WAEK 230300 METAR WAEK 230300Z 25005KT 9999 SCT019 30/24 Q1009=
23-Sep-2022 SAID35 WAEK 230600 METAR WAEK 230600Z 24007KT 9999 SCT019 30/24 Q1007=
24-Sep-2022 SAID35 WAEK 240000 METAR WAEK 240000Z 20008KT 9999 SCT019 29/25 Q109=
24-Sep-2022 SAID35 WAEK 240300 METAR WAEK 240300Z 18009KT 9999 SCT019 31/23 Q1007=
24-Sep-2022 SAID35 WAEK 240600 METAR WAEK 240600Z 18007KT 9999 SCT019 31/22 Q1006=
25-Sep-2022 SAID35 WAEK 250000 METAR WAEK 250000Z 21005KT 9999 SCT019 28/25 Q1009=
25-Sep-2022 SAID35 WAEK 250300 METAR WAEK 250300Z 22009KT 9999 SCT019 32/25 Q1008=
25-Sep-2022 SAID35 WAEK 250600 METAR WAEK 250600Z 22008KT 9999 BKN018 32/24 Q1005=
26-Sep-2022 SAID35 WAEK 260000 METAR WAEK 260000Z 27004KT 9999 SCT019 28/26 Q1009=
26-Sep-2022 SAID35 WAEK 260300 METAR WAEK 260300Z 20007KT 9999 BKN019 31/23 Q1008=
26-Sep-2022 SAID35 WAEK 260600 METAR WAEK 260600Z 19006KT 8000 FEW016CN BKN018 30/24 Q1006=
27-Sep-2022 SAID35 WAEK 270000 METAR WAEK 270000Z 32002KT 9999 BKN019 26/25 Q1009=
27-Sep-2022 SAID35 WAEK 270300 METAR WAEK 270300Z 12003KT 9999 BKN019 31/25 Q1008=
27-Sep-2022 SAID35 WAEK 270600 METAR WAEK 270600Z 10008KT 8000 FEW016CB BKN018 29/25 Q1006=
28-Sep-2022 SAID35 WAEK 280000 METAR WAEK 280000Z 22003KT 9999 SCT019 28/25 Q1010=
28-Sep-2022 SAID35 WAEK 280300 METAR WAEK 280300Z 12005KT 9999 SCT019 31/24 Q1008=
28-Sep-2022 SAID35 WAEK 280600 METAR WAEK 280600Z 05011KT 9000 FEW016CB BKN018 31/25 Q1006=
29-Sep-2022 SAID35 WAEK 290000 METAR WAEK 290000Z 22003KT 9999 SCT019 28/25 Q1010=
29-Sep-2022 SAID35 WAEK 290300 METAR WAEK 290300Z 08007KT 9999 SCT019 31/26 Q1009=
29-Sep-2022 SAID35 WAEK 290600 METAR WAEK 290600Z 03009KT 9000 FEW016CB BKN018 31/25 Q1007=
30-Sep-2022 SAID35 WAEK 300000 METAR WAEK 300000Z 35003KT 9999 SCT019 29/25 Q1011=
30-Sep-2022 SAID35 WAEK 300300 METAR WAEK 300300Z 04004KT 9999 SCT019 32/23 Q1009=
30-Sep-2022 SAID35 WAEK 300600 METAR WAEK 300600Z 03009KT 9999 SCT019 32/25 Q1006=
01-Oct-2022 SAID35 WAEK 010000 METAR WAEK 010000Z 33004KT 9999 SCT019 29/25 Q1012=
01-Oct-2022 SAID35 WAEK 010300 METAR WAEK 010300Z 12007KT 9000 FEW016 BKN018 30/25 Q1009=
01-Oct-2022 SAID35 WAEK 010600 METAR WAEK 010600Z 06004KT 9999 SCT019 31/23 Q1005=
02-Oct-2022 SAID35 WAEK 020000 METAR WAEK 020000Z 33004KT 8000 FEW915CB BKN018 27/25 Q1011=
02-Oct-2022 SAID35 WAEK 020300 METAR WAEK 020300Z 15005KT 8000 FEW016 BKN018 28/24 Q1009=
02-Oct-2022 SAID35 WAEK 020600 METAR WAEK 020600Z 23005KT 9000 FEW015CB BKN018 29/24 Q1006=
03-Oct-2022 SAID35 WAEK 030000 METAR WAEK 030000Z 30003KT 9999 SCT018 28/25 Q1009=
03-Oct-2022 SAID35 WAEK 030300 METAR WAEK 030300Z 05004KT 9999 SCT019 31/23 Q1008=
03-Oct-2022 SAID35 WAEK 030600 METAR WAEK 030600Z 09007KT 9999 SCT018 31/24 Q1006=
04-Oct-2022 SAID35 WAEK 040000 METAR WAEK 040000Z 33002KT 9999 SCT018 29/26 Q1011=
04-Oct-2022 SAID35 WAEK 040300 METAR WAEK 040300Z 06022KT 5000 FEWCB016 BKN018 27/24 Q1010=
04-Oct-2022 SAID35 WAEK 040600 METAR WAEK 040600Z 02004KT 9999 FEWCB016 SCT018 26/24 Q1008=
05-Oct-2022 SAID35 WAEK 050000 METAR WAEK 050000Z 00000KT 9999 SCT019 26/25 Q1010=
05-Oct-2022 SAID35 WAEK 050300 METAR WAEK 050300Z 08005KT 9999 SCT019 31/26 Q1009=
05-Oct-2022 SAID35 WAEK 050600 METAR WAEK 050600Z 09008KT 9999 SCT019 32/24 Q1006=
06-Oct-2022 SAID35 WAEK 060000 METAR WAEK 060000Z 23003KT 9999 SCT019 28/26 Q1010=
06-Oct-2022 SAID35 WAEK 060300 METAR WAEK 060300Z 08006KT 9999 SCT019 30/24 Q1009=
06-Oct-2022 SAID35 WAEK 060600 METAR WAEK 060600Z 29005KT 9000 FEWCB016 BKN018 27/24 Q1006=
07-Oct-2022 SAID35 WAEK 070000 METAR WAEK 070000Z 32003KT 9000 FEWCB016 SCT018 25/25 Q1011=
07-Oct-2022 SAID35 WAEK 070300 METAR WAEK 070300Z 34003KT 9999 BKN018 29/25 Q1010=
07-Oct-2022 SAID35 WAEK 070600 METAR WAEK 070600Z 31004KT 9999 FEWCB016 BKN018 29/23 Q1007=
08-Oct-2022 SAID35 WAEK 080000 METAR WAEK 080000Z 06004KT 9999 SCT019 29/26 Q1011=
08-Oct-2022 SAID35 WAEK 080300 METAR WAEK 080300Z 07009KT 9999 SCT019 31/25 Q1009=
08-Oct-2022 SAID35 WAEK 080600 METAR WAEK 080600Z 04009KT 9999 SCT019 30/26 Q1007=
09-Oct-2022 SAID35 WAEK 090000 METAR WAEK 090000Z 00000KT 9999 SCT019 27/25 Q1011=
09-Oct-2022 SAID35 WAEK 090300 METAR WAEK 090300Z 15006KT 9999 SCT019 32/25 Q1010=
09-Oct-2022 SAID35 WAEK 090600 METAR WAEK 090600Z 14006KT 9999 SCT019 31/24 Q1007=
10-Oct-2022 SAID35 WAEK 100000 METAR WAEK 100000Z 34003KT 9999 SCT019 28/26 Q1010=
10-Oct-2022 SAID35 WAEK 100300 METAR WAEK 100300Z 13005KT 9999 BKN018 31/26 Q1009=
10-Oct-2022 SAID35 WAEK 100600 METAR WAEK 100600Z 17010KT 8000 FEW015CB BKN018 31/26 Q1006=
11-Oct-2022 SAID35 WAEK 110000 METAR WAEK 110000Z 20003KT 9999 BKN019 28/25 Q1010=
11-Oct-2022 SAID35 WAEK 110300 METAR WAEK 110300Z 18010KT 9000 BKN018 30/26 Q1008=
11-Oct-2022 SAID35 WAEK 110600 METAR WAEK 110600Z 19007KT 9999 BKN018 31/25 Q1005=
12-Oct-2022 SAID35 WAEK 120000 METAR WAEK 120000Z 20004KT 9999 BKN019 28/24 Q1019=
12-Oct-2022 SAID35 WAEK 120300 METAR WAEK 120300Z 20009KT 9000 BKN018 30/26 Q1008=
12-Oct-2022 SAID35 WAEK 120600 METAR WAEK 120600Z 19010KT 9999 BKN018 32/25 Q1006=
13-Oct-2022 SAID35 WAEK 130000 METAR WAEK 130000Z 20004KT 9999 SCT019 29/26 Q1019=
13-Oct-2022 SAID35 WAEK 130300 METAR WAEK 130300Z 17009KT 9000 BKN018 32/26 Q1007=
13-Oct-2022 SAID35 WAEK 130600 METAR WAEK 130600Z 22007KT 9000 FEW016CB BKN018 30/25 Q1006=
14-Oct-2022 SAID35 WAEK 140000 METAR WAEK 140000Z 23005KT 9999 SCT019 29/26 Q1019=
14-Oct-2022 SAID35 WAEK 140300 METAR WAEK 140300Z 18008KT 9999 BKN018 32/26 Q1007=
14-Oct-2022 SAID35 WAEK 140600 METAR WAEK 140600Z 20006KT 9999 BKN018 30/25 Q1005=
15-Oct-2022 SAID35 WAEK 150000 METAR WAEK 150000Z 00000KT 9999 SCT019 28/26 Q1009=
15-Oct-2022 SAID35 WAEK 150300 METAR WAEK 150300Z 08002KT 9999 BKN018 29/26 Q1008=
15-Oct-2022 SAID35 WAEK 150600 METAR WAEK 150600Z 18005KT 9999 BKN018 27/25 Q1004=
16-Oct-2022 SAID35 WAEK 160000 METAR WAEK 160000Z 31003KT 9999 SCT019 27/25 Q1009=
16-Oct-2022 SAID35 WAEK 160300 METAR WAEK 160300Z 12004KT 9999 SCT019 32/26 Q1008=
16-Oct-2022 SAID35 WAEK 160600 METAR WAEK 160600Z 05008KT 8000 FEW016CN BKN018 32/26 Q1006=
17-Oct-2022 SAID35 WAEK 170000 METAR WAEK 170000Z 31002KT 9999 SCT018 28/25 Q1011=
17-Oct-2022 SAID35 WAEK 170300 METAR WAEK 170300Z 09004KT 9999 SCT019 32/25 Q1010=
17-Oct-2022 SAID35 WAEK 170600 METAR WAEK 170600Z 29006KT 8000 FEW016CN BKN018 24/23 Q1009=
18-Oct-2022 SAID35 WAEK 180000 METAR WAEK 180000Z 31002KT 9999 SCT019 27/25 Q1011=
18-Oct-2022 SAID35 WAEK 180300 METAR WAEK 180300Z 05002KT 9999 SCT019 32/23 Q1010=
19-Oct-2022 SAID35 WAEK 190000 METAR WAEK 190000Z 31002KT 9999 SCT019 29/27 Q1011=
19-Oct-2022 SAID35 WAEK 190300 METAR WAEK 190300Z 35006KT 9999 SCT019 32/23 Q1010=
19-Oct-2022 SAID35 WAEK 190600 METAR WAEK 190600Z 11004KT 9999 SCT019 32/22 Q1007=
20-Oct-2022 SAID35 WAEK 200000 METAR WAEK 200000Z 30003KT 9999 SCT019 29/25 Q1013=
20-Oct-2022 SAID35 WAEK 200300 METAR WAEK 200300Z 34005KT 9999 SCT019 32/24 Q1011=
20-Oct-2022 SAID35 WAEK 200600 METAR WAEK 200600Z 30003KT 9999 SCT019 32/22 Q1009=
21-Oct-2022 SAID35 WAEK 210000 METAR WAEK 210000Z 04002KT 9999 SCT019 28/24 Q1013=
21-Oct-2022 SAID35 WAEK 210300 METAR WAEK 210300Z 03006KT 9999 SCT019 32/24 Q1011=
21-Oct-2022 SAID35 WAEK 210600 METAR WAEK 210600Z 06006KT 9000 FEWCB016 SCT018 29/25 Q1008=
22-Oct-2022 SAID35 WAEK 220000 METAR WAEK 220000Z 19005KT 9999 SCT019 29/26 Q1012=
22-Oct-2022 SAID35 WAEK 220600 METAR WAEK 220600Z 15003KT 3000 FEWCB016 BKN018 23/22 Q1009=
23-Oct-2022 SAID35 WAEK 230000 METAR WAEK 230000Z 29002KT 9999 SCT019 26/25 Q1010=
23-Oct-2022 SAID35 WAEK 230300 METAR WAEK 230300Z 19007KT 8000 FEW016CB BKN018 30/25 Q1009=
23-Oct-2022 SAID35 WAEK 230600 METAR WAEK 230600Z 27002KT 8000 FEW016CN BKN018 31/25 Q1006=
24-Oct-2022 SAID35 WAEK 240000 METAR WAEK 240000Z 19004KT 9999 SCT019 30/26 Q1009=
24-Oct-2022 SAID35 WAEK 240300 METAR WAEK 240300Z 20007KT 8000 FEW015CB BKN018 32/26 Q1008 TS=
24-Oct-2022 SAID35 WAEK 240600 METAR WAEK 240600Z 32002KT 8000 FEW015CB BKN018 29/25 Q1006=
25-Oct-2022 SAID35 WAEK 250600 METAR WAEK 250600Z 17005KT 9999 BKN018 31/26 Q1006=
26-Oct-2022 SAID35 WAEK 260300 METAR WAEK 260300Z 22005KT 8000 FEW015CB BKN018 30/26 Q1008=
26-Oct-2022 SAID35 WAEK 260600 METAR WAEK 260600Z 33003KT 9999 BKN018 30/26 Q1006=
27-Oct-2022 SAID35 WAEK 270000 METAR WAEK 270000Z 21004KT 9999 BKN018 29/26 Q1009=
27-Oct-2022 SAID35 WAEK 270300 METAR WAEK 270300Z 20005KT 9999 BKN018 31/25 Q1008=
27-Oct-2022 SAID35 WAEK 270600 METAR WAEK 270600Z 20007KT 8000 FEW015CB BKN018 29/24 Q1005=
28-Oct-2022 SAID35 WAEK 280000 METAR WAEK 280000Z 23006KT 9999 BKN018 29/25 Q1007=
28-Oct-2022 SAID35 WAEK 280600 METAR WAEK 280600Z 20007KT 9999 BKN018 33/24 Q1004=
29-Oct-2022 SAID35 WAEK 290000 METAR WAEK 290000Z 21006KT 9999 BKN019 29/26 Q1008=
29-Oct-2022 SAID35 WAEK 290300 METAR WAEK 290300Z 19002KT 9999 BKN018 31/25 Q1007=
29-Oct-2022 SAID35 WAEK 290600 METAR WAEK 290600Z 20007KT 9999 BKN018 33/24 Q1004=
30-Oct-2022 SAID35 WAEK 300000 METAR WAEK 300000Z 27002KT 9999 SCT019 28/25 Q1008=
30-Oct-2022 SAID35 WAEK 300300 METAR WAEK 300300Z 15004KT 8000 FEW016CB BKN018 30/25 Q1007 TS=
30-Oct-2022 SAID35 WAEK 300600 METAR WAEK 300600Z 16005KT 8000 FEW0 BKN018 29/25 Q1005 RETS=
31-Oct-2022 SAID35 WAEK 310000 METAR WAEK 310000Z 29003KT 9999 SCT018 25/24 Q1010=
31-Oct-2022 SAID35 WAEK 310300 METAR WAEK 310300Z 22002KT 9999 BKN018 30/24 Q1008=
31-Oct-2022 SAID35 WAEK 310600 METAR WAEK 310600Z 24003KT 9999 SCT019 30/21 Q1006=
01-Nov-2022 SAID35 WAEK 010000 METAR WAEK 010000Z 36004KT 9999 SCT019 29/26 Q1010=
01-Nov-2022 SAID35 WAEK 010300 METAR WAEK 010300Z 07008KT 9999 SCT019 31/24 Q1008=
01-Nov-2022 SAID35 WAEK 010600 METAR WAEK 010600Z 08006KT 9999 SCT019 32/23 Q1006=
02-Nov-2022 SAID35 WAEK 020000 METAR WAEK 020000Z 32004KT 9999 SCT018 26/25 Q1012=
02-Nov-2022 SAID35 WAEK 020300 METAR WAEK 020300Z 25006KT 9000 FEWCB016 BKN018 28/25 Q1010=
02-Nov-2022 SAID35 WAEK 020600 METAR WAEK 020600Z 15003KT FEWCB016 SCT018 30/24 Q1007=
03-Nov-2022 SAID35 WAEK 030000 METAR WAEK 030000Z 16003KT 9999 SCT019 27/26 Q1012=
03-Nov-2022 SAID35 WAEK 030600 METAR WAEK 030600Z 20003KT 9999 SCT019 31/25 Q1008=
04-Nov-2022 SAID35 WAEK 040000 METAR WAEK 040000Z 33002KT 9999 SCT019 28/25 Q1012=
04-Nov-2022 SAID35 WAEK 040300 METAR WAEK 040300Z 32004KT 9999 SCT019 32/24 Q1011=
04-Nov-2022 SAID35 WAEK 040600 METAR WAEK 040600Z 18005KT 9999 SCT019 31/26 Q1008=
05-Nov-2022 SAID35 WAEK 050000 METAR WAEK 050000Z 35003KT 9999 SCT019 29/26 Q1012=
05-Nov-2022 SAID35 WAEK 050300 METAR WAEK 050300Z 15007KT 9999 SCT018 32/26 Q1011=
05-Nov-2022 SAID35 WAEK 050600 METAR WAEK 050600Z 22006KT 9999 FEWCB016 SCT018 30/25 Q1008=
06-Nov-2022 SAID35 WAEK 060000 METAR WAEK 060000Z 35004KT 9999 BKN019 28/25 Q1012=
06-Nov-2022 SAID35 WAEK 060600 METAR WAEK 060600Z 16005KT 8000 FEW015 BKN018 30/25 Q1007 TS=
07-Nov-2022 SAID35 WAEK 070000 METAR WAEK 070000Z 00000KT 9999 SCT019 28/25 Q1011=
07-Nov-2022 SAID35 WAEK 070300 METAR WAEK 070300Z 18007KT 9000 FEW016CB BKN018 32/26 Q1009=
07-Nov-2022 SAID35 WAEK 070600 METAR WAEK 070600Z 34006KT 8000 FEW015 BKN018 30/24 Q1007=
08-Nov-2022 SAID35 WAEK 080000 METAR WAEK 080000Z 14003KT 9999 BKN018 29/26 Q1011=
08-Nov-2022 SAID35 WAEK 080300 METAR WAEK 080300Z 18007KT 9999 BKN019 30/25 Q1010=
09-Nov-2022 SAID35 WAEK 090000 METAR WAEK 090000Z 01003KT 9999 SCT019 29/25 Q1012=
09-Nov-2022 SAID35 WAEK 090300 METAR WAEK 090300Z 15006KT 9999 SCT019 31/25 Q1009=
09-Nov-2022 SAID35 WAEK 090600 METAR WAEK 090600Z 32005KT 8000 FEW015 BKN018 29/23 Q1006=
10-Nov-2022 SAID35 WAEK 100000 METAR WAEK 100000Z 32004KT 9999 SCT019 28/24 Q1010=
10-Nov-2022 SAID35 WAEK 100600 METAR WAEK 100600Z 34005KT 9000 FEW015 BKN018 29/25 Q1007=
11-Nov-2022 SAID35 WAEK 110000 METAR WAEK 110000Z 32002KT 9999 SCT019 28/25 Q1011=
11-Nov-2022 SAID35 WAEK 110300 METAR WAEK 110300Z 14006KT 8000 FEW015CB BKN018 31/26 Q1008 TS=
11-Nov-2022 SAID35 WAEK 110600 METAR WAEK 110600Z 32003KT 8000 FEW015 BKN018 26/25 Q1007=
13-Nov-2022 SAID35 WAEK 130000 METAR WAEK 130000Z 31004KT 9999 BKN019 28/25 Q101O=
13-Nov-2022 SAID35 WAEK 130300 METAR WAEK 130300Z 14006KT 9000 FEW016CB BKN018 32/25 Q1009=
13-Nov-2022 SAID35 WAEK 130600 METAR WAEK 130600Z 27006KT 8000 FEW015 BKN018 28/24 Q1006=
14-Nov-2022 SAID35 WAEK 140000 METAR WAEK 140000Z 27003KT 9999 SCT19 28/25 Q1009=
14-Nov-2022 SAID35 WAEK 140300 METAR WAEK 140300Z 32004KT 9999 SCT019 30/24 Q1009=
14-Nov-2022 SAID35 WAEK 140600 METAR WAEK 140600Z 29005KT 9000 FEW015 BKN018 29/25 Q1006=
15-Nov-2022 SAID35 WAEK 150000 METAR WAEK 150000Z 32003KT 9999 SCT19 28/26 Q1009=
15-Nov-2022 SAID35 WAEK 150300 METAR WAEK 150300Z 05002KT 9999 FEWCB016 SCT018 29/26 Q1007=
15-Nov-2022 SAID35 WAEK 150600 METAR WAEK 150600Z 34004KT 9000 FEW016 BKN018 27/24 Q1005=
16-Nov-2022 SAID35 WAEK 160000 METAR WAEK 160000Z 30002KT 9000 FEWCB016 SCT18 27/25 Q1009=
16-Nov-2022 SAID35 WAEK 160300 METAR WAEK 160300Z 18010KT 9000 FEWCB016 SCT018 28/25 Q1008=
16-Nov-2022 SAID35 WAEK 160600 METAR WAEK 160600Z 19005KT 8000 FEW016 BKN018 25/24 Q1005=
17-Nov-2022 SAID35 WAEK 170600 METAR WAEK 170600Z 23004KT 8000 FEWCB016 BKN018 26/23 Q1006=
18-Nov-2022 SAID35 WAEK 180000 METAR WAEK 180000Z 33002KT 9999 SCT19 28/25 Q1009=
18-Nov-2022 SAID35 WAEK 180300 METAR WAEK 180300Z 17008KT 9999 SCT018 31/24 Q1008=
18-Nov-2022 SAID35 WAEK 180600 METAR WAEK 180600Z 16005KT 9999 SCT018 30/23 Q1006=
19-Nov-2022 SAID35 WAEK 190000 METAR WAEK 190000Z 21005KT 9999 SCT18 28/24 Q1010=
19-Nov-2022 SAID35 WAEK 190300 METAR WAEK 190300Z 18007KT 9999 SCT018 31/25 Q1009=
19-Nov-2022 SAID35 WAEK 190600 METAR WAEK 190600Z 22002KT 6000 FEWCB016 BKN018 26/23 Q1006=
20-Nov-2022 SAID35 WAEK 200000 METAR WAEK 200000Z 34003KT 8000 FEW015CB BKN018 28/25 Q101O=
20-Nov-2022 SAID35 WAEK 200300 METAR WAEK 200300Z 34006KT 8000 FEW015CB BKN018 27/25 Q1009=
20-Nov-2022 SAID35 WAEK 200600 METAR WAEK 200600Z 10004KT 9000 FEW015 BKN018 26/24 Q1006=
21-Nov-2022 SAID35 WAEK 210000 METAR WAEK 210000Z 05003KT 9999 BKN018 28/26 Q1009=
21-Nov-2022 SAID35 WAEK 210300 METAR WAEK 210300Z 07004KT 9999 BKN018 28/27 Q1008=
21-Nov-2022 SAID35 WAEK 210600 METAR WAEK 210600Z 21004KT 9000 FEW016 BKN018 32/23 Q1006=
22-Nov-2022 SAID35 WAEK 220000 METAR WAEK 220000Z 05003KT 9000 FEW916CB BKN018 27/26 Q1010=
22-Nov-2022 SAID35 WAEK 220300 METAR WAEK 220300Z 07002KT 9999 BKN018 32/26 Q1008=
22-Nov-2022 SAID35 WAEK 220600 METAR WAEK 220600Z 22005KT 9999 BKN018 31/23 Q1006=
23-Nov-2022 SAID35 WAEK 230000 METAR WAEK 230000Z 21006KT 9999 BKN019 28/25 Q1012=
23-Nov-2022 SAID35 WAEK 230300 METAR WAEK 230300Z 23003KT 9999 BKN018 31/25 Q1010=
23-Nov-2022 SAID35 WAEK 230600 METAR WAEK 230600Z 22004KT 8000 FEW015CB BKN018 26/24 Q1007=
25-Nov-2022 SAID35 WAEK 250000 METAR WAEK 250000Z 31005KT 9999 SCT019 28/25 Q1012=
25-Nov-2022 SAID35 WAEK 250300 METAR WAEK 250300Z 08004KT 9999 BKN018 30/25 Q1011=
25-Nov-2022 SAID35 WAEK 250600 METAR WAEK 250600Z 09006KT 9000 FEW015CB BKN018 31/24 Q1008=
26-Nov-2022 SAID35 WAEK 260000 METAR WAEK 260000Z 34003KT 9999 SCT019 29/25 Q1012=
26-Nov-2022 SAID35 WAEK 260300 METAR WAEK 260300Z 09005KT 9999 BKN018 31/25 Q1010=
26-Nov-2022 SAID35 WAEK 260600 METAR WAEK 260600Z 06010KT 8000 FEW015CB BKN018 30/25 Q1007=
28-Nov-2022 SAID35 WAEK 280000 METAR WAEK 280000Z 04002KT 9999 SCT019 28/23 Q1010=
28-Nov-2022 SAID35 WAEK 280300 METAR WAEK 280300Z 12005KT 9999 SCT019 30/25 Q1008=
28-Nov-2022 SAID35 WAEK 280600 METAR WAEK 280600Z 30004KT 9999 SCT019 30/5 Q1006=
29-Nov-2022 SAID35 WAEK 290000 METAR WAEK 290000Z 34003KT 9999 SCT019 29/25 Q1009=
29-Nov-2022 SAID35 WAEK 290300 METAR WAEK 290300Z 36004KT 9999 FEWCB016 SCT018 30/25 Q1007=
29-Nov-2022 SAID35 WAEK 290600 METAR WAEK 290600Z 34003KT 9999 BKN018 29/25 Q1006=
30-Nov-2022 SAID35 WAEK 300000 METAR WAEK 300000Z 31003KT 9000 FEWCB016 SCT018 28/25 Q1009=
30-Nov-2022 SAID35 WAEK 300300 METAR WAEK 300300Z 21006KT 9000 FEW015CB BKN018 29/24 Q1007=
30-Nov-2022 SAID35 WAEK 300600 METAR WAEK 300600Z 01008KT 9000 FEW015CB BKN018 30/24 Q1005=
01-Dec-2022 SAID35 WAEK 010000 METAR WAEK 010000Z 30003KT 9999 SCT019 30/25 Q1018=
01-Dec-2022 SAID35 WAEK 010300 METAR WAEK 010300Z 19007KT 9000 FEW016CB BKN018 31/25 Q1006=
01-Dec-2022 SAID35 WAEK 010600 METAR WAEK 010600Z 33009KT 9000 FEW016CB BKN018 29/25 Q1004=
02-Dec-2022 SAID35 WAEK 020000 METAR WAEK 020000Z 36002KT 9999 SCT019 27/26 Q1008=
03-Dec-2022 SAID35 WAEK 030000 METAR WAEK 030000Z 31003KT 9999 SCT019 28/26 Q1008=
03-Dec-2022 SAID35 WAEK 030300 METAR WAEK 030300Z 09006KT 9000 FEW016CB BKN018 31/26 Q1007=
03-Dec-2022 SAID35 WAEK 030600 METAR WAEK 030600Z 01002KT 9000 FEW016CB BKN018 29/24 Q1004=
04-Dec-2022 SAID35 WAEK 040000 METAR WAEK 040000Z 32003KT 9999 SCT019 27/25 Q1009=
04-Dec-2022 SAID35 WAEK 040300 METAR WAEK 040300Z 23005KT 9999 SCT018 31/24 Q1008=
04-Dec-2022 SAID35 WAEK 040600 METAR WAEK 040600Z 20011KT 9000 FEW015CB BKN018 30/25 Q1005=
05-Dec-2022 SAID35 WAEK 050000 METAR WAEK 050000Z 31004KT 9999 BKN019 28/25 Q1010=
05-Dec-2022 SAID35 WAEK 050300 METAR WAEK 050300Z 19006KT 9000 FEW016CB BKN018 29/25 Q1008=
05-Dec-2022 SAID35 WAEK 050600 METAR WAEK 050600Z 20007KT 9000 FEW015CB BKN018 30/25 Q1006=
06-Dec-2022 SAID35 WAEK 060000 METAR WAEK 060000Z 20003KT 9000 FEW016CB BKN018 29/25 Q1009=
06-Dec-2022 SAID35 WAEK 060300 METAR WAEK 060300Z 19006KT BKN018 29/25 Q1008=
06-Dec-2022 SAID35 WAEK 060600 METAR WAEK 060600Z 20007KT 9999 BKN018 31/24 Q1005=
07-Dec-2022 SAID35 WAEK 070000 METAR WAEK 070000Z 02002KT 9999 SCT019 28/26 Q1009=
08-Dec-2022 SAID35 WAEK 080000 METAR WAEK 080000Z 18003KT 9999 SCT019 29/26 Q1008=
08-Dec-2022 SAID35 WAEK 080300 METAR WAEK 080300Z 16005KT 9999 BKN018 31/25 Q1007=
08-Dec-2022 SAID35 WAEK 080600 METAR WAEK 080600Z 16005KT 9000 FEW015CB BKN018 28/23 Q1005=
09-Dec-2022 SAID35 WAEK 090000 METAR WAEK 090000Z 17005KT 9999 SCT019 29/25 Q1009=
09-Dec-2022 SAID35 WAEK 090300 METAR WAEK 090300Z 61906KT 9000 FEW016CB BKN018 31/25 Q1006=
09-Dec-2022 SAID35 WAEK 090600 METAR WAEK 090600Z 24007KT 9999 SCT19 32/24 Q1004=
10-Dec-2022 SAID35 WAEK 100000 METAR WAEK 100000Z 11003KT 9999 SCT019 29/25 Q1009=
10-Dec-2022 SAID35 WAEK 100300 METAR WAEK 100300Z 19004KT 9999 SCT019 32/24 Q1007=
10-Dec-2022 SAID35 WAEK 100600 METAR WAEK 100600Z 19004KT 9999 SCT19 33/22 Q1005=
11-Dec-2022 SAID35 WAEK 110000 METAR WAEK 110000Z 33004KT 9999 SCT019 28/26 Q1010=
11-Dec-2022 SAID35 WAEK 110300 METAR WAEK 110300Z 35005KT 9999 SCT019 31/24 Q1008=
11-Dec-2022 SAID35 WAEK 110600 METAR WAEK 110600Z 32004KT 9999 SCT18 31/23 Q1006=
12-Dec-2022 SAID35 WAEK 120000 METAR WAEK 120000Z 04003KT 9999 SCT019 27/25 Q1010=
12-Dec-2022 SAID35 WAEK 120300 METAR WAEK 120300Z 36014KT 9999 FEWCB016 SCT18 29/25 Q1009=
12-Dec-2022 SAID35 WAEK 120600 METAR WAEK 120600Z 35004KT 9999 BKN018 30/24 Q1008=
13-Dec-2022 SAID35 WAEK 130000 METAR WAEK 130000Z 02002KT 9999 SCT019 27/25 Q1010=
13-Dec-2022 SAID35 WAEK 130300 METAR WAEK 130300Z 05005KT 9999 FEWCB016 SCT18 28/25 Q1009=
13-Dec-2022 SAID35 WAEK 130600 METAR WAEK 130600Z 02003KT 9999 FEWCB016 SCT018 29/25 Q1007=
15-Dec-2022 SAID35 WAEK 150000 METAR WAEK 150000Z 21006KT 9000 FEWCB016 SCT018 26/24 Q1009=
15-Dec-2022 SAID35 WAEK 150300 METAR WAEK 150300Z 19004KT 9999 SCT19 29/26 Q1008=
16-Dec-2022 SAID35 WAEK 160000 METAR WAEK 160000Z 01002KT 9999 SCT019 28/24 Q1007=
16-Dec-2022 SAID35 WAEK 160300 METAR WAEK 160300Z 140074KT 9999 SCT19 31/25 Q1006=
18-Dec-2022 SAID35 WAEK 180000 METAR WAEK 180000Z 36002KT 9000 FEW016CB BKN018 27/26 Q1007=
18-Dec-2022 SAID35 WAEK 180300 METAR WAEK 180300Z 21010KT 9999 BKN018 29/25 Q1006=
18-Dec-2022 SAID35 WAEK 180600 METAR WAEK 180600Z 19010KT 8000 FEW015CB BKN018 27/25 Q1003=
19-Dec-2022 SAID35 WAEK 190000 METAR WAEK 190000Z 16003KT 9999 SCT019 27/26 Q1007=
19-Dec-2022 SAID35 WAEK 190300 METAR WAEK 190300Z 08004KT 7000 FEW015CB BKN018 26/25 Q1006=
19-Dec-2022 SAID35 WAEK 190600 METAR WAEK 190600Z 01006KT 7000 FEW015CB BKN018 26/25 Q1003=
20-Dec-2022 SAID35 WAEK 200000 METAR WAEK 200000Z 16002KT 9999 SCT019 28/26 Q1006=
20-Dec-2022 SAID35 WAEK 200300 METAR WAEK 200300Z 13005KT 8000 FEW015CB BKN018 30/25 Q1005=
20-Dec-2022 SAID35 WAEK 200600 METAR WAEK 200600Z 24002 KT 7000 FEW015CB BKN018 29/26 Q1003=
21-Dec-2022 SAID35 WAEK 210000 METAR WAEK 210000Z 32002KT 9999 BKN019 26/25 Q1006=
21-Dec-2022 SAID35 WAEK 210300 METAR WAEK 210300Z 00000KT 7000 FEW015CB BKN018 26/25 Q1006=
21-Dec-2022 SAID35 WAEK 210600 METAR WAEK 210600Z 24002KT 8000 FEW015CB BKN018 27/26 Q1003=
22-Dec-2022 SAID35 WAEK 220000 METAR WAEK 220000Z 15002KT 9999 SCT019 29/26 Q1005=
22-Dec-2022 SAID35 WAEK 220300 METAR WAEK 220300Z 00000KT 8000 FEW016CB BKN018 29/26 Q1004=
22-Dec-2022 SAID35 WAEK 220600 METAR WAEK 220600Z 26004KT 9999 BKN018 32/25 Q1002=
23-Dec-2022 SAID35 WAEK 230000 METAR WAEK 230000Z 32002KT 9999 SCT019 28/26 Q1006=
23-Dec-2022 SAID35 WAEK 230300 METAR WAEK 230300Z 15006KT 9000 FEW016CB BKN018 32/25 Q1005=
23-Dec-2022 SAID35 WAEK 230600 METAR WAEK 230600Z 20006KT 8000 FEW015CB BKN018 31/26 Q1003=
24-Dec-2022 SAID35 WAEK 240000 METAR WAEK 240000Z 09004KT 9999 SCT019 29/26 Q1008=
24-Dec-2022 SAID35 WAEK 240300 METAR WAEK 240300Z 13006KT 9999 BKN018 32/26 Q1007=
24-Dec-2022 SAID35 WAEK 240600 METAR WAEK 240600Z 31007KT 8000 FEW015CB BKN018 29/25 Q1004=
25-Dec-2022 SAID35 WAEK 250000 METAR WAEK 250000Z 31003KT 9999 BKN018 29/26 Q1008=
25-Dec-2022 SAID35 WAEK 250300 METAR WAEK 250300Z 19005KT 6000 BKN018 24/23 Q1009 RA=
25-Dec-2022 SAID35 WAEK 250600 METAR WAEK 250600Z 27002KT 8000 FEW016CB BKN018 27/25 Q1007=
26-Dec-2022 SAID35 WAEK 260000 METAR WAEK 260000Z 00000KT 9999 SCT018 27/25 Q1011=
26-Dec-2022 SAID35 WAEK 260300 METAR WAEK 260300Z 20003KT 9999 SCT018 31/26 Q1009=
26-Dec-2022 SAID35 WAEK 260600 METAR WAEK 260600Z 21003KT 9999 SCT018 31/25 Q1008=
27-Dec-2022 SAID35 WAEK 270000 METAR WAEK 270000Z 03002KT 9000 FEWCB016 BKN018 25/25 Q1012=
28-Dec-2022 SAID35 WAEK 280000 METAR WAEK 280000Z 04002KT 9999 SCT018 28/5 Q1011=
28-Dec-2022 SAID35 WAEK 280300 METAR WAEK 280300Z 08003KT 9999 SCT018 29/24 Q1010=
28-Dec-2022 SAID35 WAEK 280600 METAR WAEK 280600Z 10002KT 9999 SCT018 30/23 Q1008=
29-Dec-2022 SAID35 WAEK 290000 METAR WAEK 290000Z 00000KT 9999 SCT018 26/26 Q1012=
29-Dec-2022 SAID35 WAEK 290300 METAR WAEK 290300Z 08004KT 9999 SCT018 30/23 Q1009=
29-Dec-2022 SAID35 WAEK 290600 METAR WAEK 290600Z 09005KT 9999 SCT018y30/24yQ1008=
30-Dec-2022 SAID35 WAEK 300000 METAR WAEK 300000Z 33002KT 9999 SCT018y27/26yQ1012=
31-Dec-2022 SAID35 WAEK 310000 METAR WAEK 310000Z 25002KT 9999 SCT018y27/24yQ1013=
31-Dec-2022 SAID35 WAEK 310300 METAR WAEK 310300Z 26006KT 9999 SCT019y31/24yQ1012=
31-Dec-2022 SAID35 WAEK 310600 METAR WAEK 310600Z 28003KT 9999 SCT18y29/24yQ1010=
02-Jan-2023 SAID35 WAEK 020000 METAR WAEK 020000Z 32003KT 9999 SCT019 28/25 Q1013=
02-Jan-2023 SAID35 WAEK 020600 METAR WAEK 020600Z 07007KT 9000 FEW016CB BKN018y29/26yQ1006=
03-Jan-2023 SAID35 WAEK 030000 METAR WAEK 030000Z 00000KT 9999 SCT019y29/24yQ1009=
03-Jan-2023 SAID35 WAEK 030600 METAR WAEK 030600Z 21004KT 8000 FEW015CB BKN018y30/24yQ1006=
05-Jan-2023 SAID35 WAEK 050000 METAR WAEK 050000Z 01002KT 9999 SCT019y28/26yQ1011=
05-Jan-2023 SAID35 WAEK 050300 METAR WAEK 050300Z 10008KT 9999 BKN018y31/25yQ1009=
05-Jan-2023 SAID35 WAEK 050600 METAR WAEK 050600Z 21003KT 9000 FEW016CB BKN018y29/26yQ1007=
07-Jan-2023 SAID35 WAEK 070000 METAR WAEK 070000Z 33002KT 9999 BKN018y25/24yQ1010=
07-Jan-2023 SAID35 WAEK 070300 METAR WAEK 070300Z 35005KT 9000 FEW016CB BKN018y215yQ1009=
07-Jan-2023 SAID35 WAEK 070600 METAR WAEK 070600Z 06012KT 8000 FEW015CB BKN018y29/25yQ1007=
08-Jan-2023 SAID35 WAEK 080000 METAR WAEK 080000Z 02002KT 9999 BKN019y28/25yQ1011=
08-Jan-2023 SAID35 WAEK 080300 METAR WAEK 080300Z 08010KT 9000 FEW016CB BKN018y30/25yQ1009=
08-Jan-2023 SAID35 WAEK 080600 METAR WAEK 080600Z 11004KT 8000 FEW016CB BKN018y230/25yQ1007=
09-Jan-2023 SAID35 WAEK 090000 METAR WAEK 090000Z 12002KT 8000 FEW015CN BKN018 25/24 Q1011=
09-Jan-2023 SAID35 WAEK 090300 METAR WAEK 090300Z 12004KT 9000 FEW015CB BKN018 28/25 Q1010=
09-Jan-2023 SAID35 WAEK 090600 METAR WAEK 090600Z 16005KT 9000 FEW015CB BKN018 28/25 Q1008=
10-Jan-2023 SAID35 WAEK 100000 METAR WAEK 100000Z 00000KT 9000 FEW015 BKN018y26/26yQ1011=
10-Jan-2023 SAID35 WAEK 100300 METAR WAEK 100300Z 21006KT 9000 FEW015CB BKN018y29/25yQ1010=
10-Jan-2023 SAID35 WAEK 100600 METAR WAEK 100600Z 20005KT 9000 FEW015CB BKN018y29/26yQ1008=
11-Jan-2023 SAID35 WAEK 110600 METAR WAEK 110600Z 21008KT 9000 FEWCB016 BKN018y30/26yQ1008=
12-Jan-2023 SAID35 WAEK 120000 METAR WAEK 120000Z 34003KT 9000 FEW015 BKN018 25/25 Q1011=
12-Jan-2023 SAID35 WAEK 120300 METAR WAEK 120300Z 20006KT 9999 SCT018y29/26yQ1010=
12-Jan-2023 SAID35 WAEK 120600 METAR WAEK 120600Z 19004KT 9999 BKN019y30/25yQ1009=
13-Jan-2023 SAID35 WAEK 130000 METAR WAEK 130000Z 28002KT 9999 SCT018 26/25 Q1010=
13-Jan-2023 SAID35 WAEK 130300 METAR WAEK 130300Z 21005KT 9999 SCT018 31/26 Q1008=
13-Jan-2023 SAID35 WAEK 130600 METAR WAEK 130600Z 22009KT 9999 SCT018y31/25yQ1007=
14-Jan-2023 SAID35 WAEK 140000 METAR WAEK 140000Z 00000KT 9999 SCT018y26/25yQ1009=
14-Jan-2023 SAID35 WAEK 140300 METAR WAEK 140300Z 21008KT 9999 SCT018y29/24yQ1008=
14-Jan-2023 SAID35 WAEK 140600 METAR WAEK 140600Z 20006KT 9999 SCT018y32/25yQ1007=
15-Jan-2023 SAID35 WAEK 150000 METAR WAEK 150000Z 07002KT 9999 SCT019y26/25yQ1009=
15-Jan-2023 SAID35 WAEK 150300 METAR WAEK 150300Z 16007KT 9999 SCT019y31/25yQ1008=
15-Jan-2023 SAID35 WAEK 150600 METAR WAEK 150600Z 19009KT 9000 FEWCB016 BKN018y33/25yQ1005=
16-Jan-2023 SAID35 WAEK 160600 METAR WAEK 160600Z 12006KT 9999 SCT018y32/24yQ1006=
17-Jan-2023 SAID35 WAEK 170000 METAR WAEK 170000Z 36002KT 9999 SCT019 27/26 Q1012=
17-Jan-2023 SAID35 WAEK 170300 METAR WAEK 170300Z 11006KT 9000 FEW016CB BKN018y31/26yQ1011=
17-Jan-2023 SAID35 WAEK 170600 METAR WAEK 170600Z 06008KT 8000 FEW016CB BKN018 29/25 Q1007=
18-Jan-2023 SAID35 WAEK 180000 METAR WAEK 180000Z 33002KT 9999 SCT019 24/24 Q1012=
18-Jan-2023 SAID35 WAEK 180300 METAR WAEK 180300Z 32002KT 9999 BKN018 27/25 Q1010=
18-Jan-2023 SAID35 WAEK 180600 METAR WAEK 180600Z 12004KT 9000 FEW016CB BKN018y30/25yQ1008=
19-Jan-2023 SAID35 WAEK 190000 METAR WAEK 190000Z 32003KT 9999 SCT019y25/24yQ1011=
19-Jan-2023 SAID35 WAEK 190300 METAR WAEK 190300Z 08004KT 9000 FEE016CB BKN018y29/26yQ1010=
19-Jan-2023 SAID35 WAEK 190600 METAR WAEK 190600Z 11006KT 9000 FEW016CB BKN018y29/26yQ1007=
20-Jan-2023 SAID35 WAEK 200000 METAR WAEK 200000Z 33003KT 9999 SCT019y26/24yQ1011=
20-Jan-2023 SAID35 WAEK 200300 METAR WAEK 200300Z 17006KT 9000 FEE016CB BKN018y29/25yQ1008=
20-Jan-2023 SAID35 WAEK 200600 METAR WAEK 200600Z 11006KT 8000 FEW015CB BKN018y28/25yQ1006=
22-Jan-2023 SAID35 WAEK 220000 METAR WAEK 220000Z 32002KT 999 SCT019 25/24 Q1010=
22-Jan-2023 SAID35 WAEK 220300 METAR WAEK 220300Z 10005KT 9000 FEW016CB BKN018y30/26yQ1007=
22-Jan-2023 SAID35 WAEK 220600 METAR WAEK 220600Z 26011KT 8000 FEW015CB BKN018 27/25 Q1005=
23-Jan-2023 SAID35 WAEK 230000 METAR WAEK 230000Z 34002KT 999 SCT019 24/23 Q1007=
23-Jan-2023 SAID35 WAEK 230600 METAR WAEK 230600Z 28008KT 8000 FEW015CB BKN018 27/25 Q1004=
24-Jan-2023 SAID35 WAEK 240000 METAR WAEK 240000Z 00000KT 999 SCT019y27/26yQ1007=
24-Jan-2023 SAID35 WAEK 240300 METAR WAEK 240300Z 23004KT 9000 FEW016CB BKN018y27/25yQ1006=
25-Jan-2023 SAID35 WAEK 250000 METAR WAEK 250000Z 32004KT 9000 FEWCB016 SCT018y26/25yQ1008=
25-Jan-2023 SAID35 WAEK 250300 METAR WAEK 250300Z 17006KT 9999 SCT018y30/27yQ1006=
25-Jan-2023 SAID35 WAEK 250600 METAR WAEK 250600Z 19005KT 9000 FEW016CB BKN018y29/25yQ1005=
26-Jan-2023 SAID35 WAEK 260000 METAR WAEK 260000Z 16002KT 9999 SCT018y29/27yQ1008=
26-Jan-2023 SAID35 WAEK 260300 METAR WAEK 260300Z 24007KT 9999 SCT019y31/26yQ1007=
27-Jan-2023 SAID35 WAEK 270000 METAR WAEK 270000Z 24002KT 9000 FEWCB016 BKN018y25/2yQ1010=
27-Jan-2023 SAID35 WAEK 270300 METAR WAEK 270300Z 13004KT 90000 FEWCB016 SCT018y29/25yQ1007=
27-Jan-2023 SAID35 WAEK 270600 METAR WAEK 270600Z 12004KT 9000 FEWCB016 SCT18y29/24yQ1006=
28-Jan-2023 SAID35 WAEK 280000 METAR WAEK 280000Z 20003KT 9999 SCT018y26/25yQ1008=
28-Jan-2023 SAID35 WAEK 280300 METAR WAEK 280300Z 12005KT 9999 SCT018 29/23 Q1007=
28-Jan-2023 SAID35 WAEK 280600 METAR WAEK 280600Z 14005KT 9999 SCT18y32/24yQ1005=
29-Jan-2023 SAID35 WAEK 290000 METAR WAEK 290000Z 26004KT 9999 SCT018y26/25yQ1009=
29-Jan-2023 SAID35 WAEK 290300 METAR WAEK 290300Z 25004KT 9999 SCT018y29/25yQ1008=
29-Jan-2023 SAID35 WAEK 290600 METAR WAEK 290600Z 27005KT 9999 SCT18y30/25yQ1007=
30-Jan-2023 SAID35 WAEK 300000 METAR WAEK 300000Z 00000KT 999 SCT019y27/26yQ1010=
30-Jan-2023 SAID35 WAEK 300300 METAR WAEK 300300Z 12005KT 9999 SCT019y31/26yQ1008=
30-Jan-2023 SAID35 WAEK 300600 METAR WAEK 300600Z 31004KT 9000 FEW016CB BKN018y27/25yQ1006=
31-Jan-2023 SAID35 WAEK 310300 METAR WAEK 310300Z 10007KT 9000 FEW016CB BKN018y30/26yQ1008=
01-Feb-2023 SAID35 WAEK 010000 METAR WAEK 010000Z 35004KT 9999 SCT019 27/26 Q1010=
01-Feb-2023 SAID35 WAEK 010600 METAR WAEK 010600Z 01005KT 9000 FEW016CB BKN018y28/26yQ1006=
02-Feb-2023 SAID35 WAEK 020000 METAR WAEK 020000Z 35005KT 6000 FEW015CB BKN018 24/24 Q1010=
02-Feb-2023 SAID35 WAEK 020300 METAR WAEK 020300Z 34004KT 9000 FEW016CB BKN018y25/25yQ1009=
02-Feb-2023 SAID35 WAEK 020600 METAR WAEK 020600Z 30002KT 9000 FEW016CB BKN018 28/26 Q1006=
03-Feb-2023 SAID35 WAEK 030000 METAR WAEK 030000Z 31002KT 9999 SCT019y26/26yQ1009=
03-Feb-2023 SAID35 WAEK 030300 METAR WAEK 030300Z 15006KT 9000 FEW016CB BKN018y30/26yQ1007=
03-Feb-2023 SAID35 WAEK 030600 METAR WAEK 030600Z 30007KT 8000 FEW015CB BKN018y28/24yQ1006=
04-Feb-2023 SAID35 WAEK 040300 METAR WAEK 040300Z 00000KT 9999 BKN018y29/26yQ1008=
04-Feb-2023 SAID35 WAEK 040600 METAR WAEK 040600Z 09004KT 9000 FEW016CB BKN018y29/24yQ1006=
05-Feb-2023 SAID35 WAEK 050000 METAR WAEK 050000Z 00000KT 9999 SCT019y225/23yQ1009=
06-Feb-2023 SAID35 WAEK 060000 METAR WAEK 060000Z 34002KT 9000 FEWCB016 BKN018y25/24yQ1010=
06-Feb-2023 SAID35 WAEK 060300 METAR WAEK 060300Z 33005KT 9000 FEW016CB BKN018 25/25 Q1010=
06-Feb-2023 SAID35 WAEK 060600 METAR WAEK 060600Z 03004KT 9000 FEW016CB BKN018y27/25yQ1007=
07-Feb-2023 SAID35 WAEK 070000 METAR WAEK 070000Z 33003KT 9999 SCT018y26/25yQ1010=
07-Feb-2023 SAID35 WAEK 070300 METAR WAEK 070300Z 12006KT 9999 SCT019 30/26 Q1008=
07-Feb-2023 SAID35 WAEK 070600 METAR WAEK 070600Z 33010KT 9000 FEW016CB BKN018 27/24 Q1006=
08-Feb-2023 SAID35 WAEK 080000 METAR WAEK 080000Z 16005KT 3000 FEWCB015 BKN018y24/24yQ1011=
08-Feb-2023 SAID35 WAEK 080300 METAR WAEK 080300Z 29003KT 9000 FEWCB016 BKN018y26/25yQ1010=
08-Feb-2023 SAID35 WAEK 080600 METAR WAEK 080600Z 31003KT 8000 FEW016CB BKN018y25/24yQ1007=
09-Feb-2023 SAID35 WAEK 090000 METAR WAEK 090000Z 32002KT 9999 SCT018y25/24yQ1010=
09-Feb-2023 SAID35 WAEK 090300 METAR WAEK 090300Z 11005KT 9999 SCT019y27/24yQ1009=
09-Feb-2023 SAID35 WAEK 090600 METAR WAEK 090600Z 18006KT 9999 SCT018y31/26yQ1006=
11-Feb-2023 SAID35 WAEK 110000 METAR WAEK 110000Z 35003KT 9999 SCT018 27/26 Q1010=
11-Feb-2023 SAID35 WAEK 110300 METAR WAEK 110300Z 08007KT 9999 SCT018 30/25 Q1009=
11-Feb-2023 SAID35 WAEK 110600 METAR WAEK 110600Z 08006KT 9999 SCT019 31/25 Q1006=
12-Feb-2023 SAID35 WAEK 120000 METAR WAEK 120000Z 34003KT 9999 SCT019 26/24 Q1010=
12-Feb-2023 SAID35 WAEK 120300 METAR WAEK 120300Z 11009KT 9000 FEW016CB BKN018 30/26 Q1008=
12-Feb-2023 SAID35 WAEK 120600 METAR WAEK 120600Z 05006KT 7000 FEW015CB BKN018 29/25 Q1006=
13-Feb-2023 SAID35 WAEK 130000 METAR WAEK 130000Z 31002KT 9999 SCT019y26/25yQ1010=
13-Feb-2023 SAID35 WAEK 130300 METAR WAEK 130300Z 11009KT 9000 FEW016CB BKN018y30/26yQ1007=
13-Feb-2023 SAID35 WAEK 130600 METAR WAEK 130600Z 11005KT 9000 FEW016CB BKN018y31/26yQ1005=
14-Feb-2023 SAID35 WAEK 140000 METAR WAEK 140000Z 36005KT 9000 BKN018y25/24yQ1009=
14-Feb-2023 SAID35 WAEK 140300 METAR WAEK 140300Z 35007KT 8000 FEW015CB BKN018y27/26yQ1009=
14-Feb-2023 SAID35 WAEK 140600 METAR WAEK 140600Z 34009KT 8000 FEW015CB BKN018y25/24yQ1005=
15-Feb-2023 SAID35 WAEK 150000 METAR WAEK 150000Z 18002KT 8000 FEW015CB BKN018 24/24yQ1009yRERA=
16-Feb-2023 SAID35 WAEK 160000 METAR WAEK 160000Z 32004KT 9999 SCT019 25/24 Q1010=
16-Feb-2023 SAID35 WAEK 160300 METAR WAEK 160300Z 30002KT 9999 BKN018 29/25 Q1009=
16-Feb-2023 SAID35 WAEK 160600 METAR WAEK 160600Z 02009KT 7000 FEW015CB BKN018 28/24 Q1007=
17-Feb-2023 SAID35 WAEK 170000 METAR WAEK 170000Z 33003KT 9999 SCT019 26/24 Q1009=
17-Feb-2023 SAID35 WAEK 170300 METAR WAEK 170300Z 13006KT 9999 BKN018 31/26 Q1009=
17-Feb-2023 SAID35 WAEK 170600 METAR WAEK 170600Z 29002KT 8000 FEW015CB BKN018y28/27yQ1006=
18-Feb-2023 SAID35 WAEK 180000 METAR WAEK 180000Z 19003KT 9999 SCT019y28/26yQ1009=
18-Feb-2023 SAID35 WAEK 180300 METAR WAEK 180300Z 29002KT 9999 BKN019y32/25yQ1007=
18-Feb-2023 SAID35 WAEK 180600 METAR WAEK 180600Z 20009KT 9999 BKN019y32/25yQ1005=
19-Feb-2023 SAID35 WAEK 190000 METAR WAEK 190000Z 34002KT 9999 SCT019y28/26yQ1010=
19-Feb-2023 SAID35 WAEK 190300 METAR WAEK 190300Z 34004KT 8000 FEW015CB BKN018 27/25yQ1010yRERA=
19-Feb-2023 SAID35 WAEK 190600 METAR WAEK 190600Z 36005KT 9000 FEW015CB BKN018y29/26yQ1006=
21-Feb-2023 SAID35 WAEK 210000 METAR WAEK 210000Z 15002KT 9999 SCT018y28/24yQ1011=
21-Feb-2023 SAID35 WAEK 210300 METAR WAEK 210300Z 10005KT 9999 SCT019 30/23 Q1010=
21-Feb-2023 SAID35 WAEK 210600 METAR WAEK 210600Z 00000KT 9000 FEWCB016 BKN018 26/25 Q1008=
22-Feb-2023 SAID35 WAEK 220000 METAR WAEK 220000Z 23004KT 9999 SCT019y28/24yQ1011=
22-Feb-2023 SAID35 WAEK 220300 METAR WAEK 220300Z 18005KT 9999 SCT019y29/24yQ1010=
22-Feb-2023 SAID35 WAEK 220600 METAR WAEK 220600Z 18002KT 9000 FEWCB016 BKN018y27/25yQ1008=
23-Feb-2023 SAID35 WAEK 230000 METAR WAEK 230000Z 36002KT 9999 SCT019y26/25yQ1009=
23-Feb-2023 SAID35 WAEK 230300 METAR WAEK 230300Z 06004KT 9000 FEWCB016 BKN018y28/26yQ1008=
23-Feb-2023 SAID35 WAEK 230600 METAR WAEK 230600Z 20004KT 9000 FEWCB016 BKN018y28/25yQ1006=
24-Feb-2023 SAID35 WAEK 240000 METAR WAEK 240000Z 36002KT 9999 SCT018y28/27yQ1010=
24-Feb-2023 SAID35 WAEK 240300 METAR WAEK 240300Z 10004KT 9999 SCT018y29/26yQ1008=
24-Feb-2023 SAID35 WAEK 240600 METAR WAEK 240600Z 32003KT 9000 FEWCB016 BKN018y26/26yQ1007=
26-Feb-2023 SAID35 WAEK 260000 METAR WAEK 260000Z 33003KT 9999 SCT019y26/25yQ1011=
26-Feb-2023 SAID35 WAEK 260300 METAR WAEK 260300Z 09008KT 9000 FEW016CB BKN018 31/26 Q1010=
26-Feb-2023 SAID35 WAEK 260600 METAR WAEK 260600Z 05011KT 8000 FEW016CB BKN018y31/25yQ1007=
27-Feb-2023 SAID35 WAEK 270000 METAR WAEK 270000Z 34003KT 9999 SCT019 28/26 Q1012=
27-Feb-2023 SAID35 WAEK 270300 METAR WAEK 270300Z 11006KT 9000 FEW016CB BKN018 31/26 Q1011=
27-Feb-2023 SAID35 WAEK 270600 METAR WAEK 270600Z 07008KT 9999 BKN018 32/26 Q1008=
28-Feb-2023 SAID35 WAEK 280000 METAR WAEK 280000Z 33005KT 9999 SCT018y27/26yQ1012=
28-Feb-2023 SAID35 WAEK 280300 METAR WAEK 280300Z 06008KT 9999 BKN018y30/25yQ1011=
28-Feb-2023 SAID35 WAEK 280600 METAR WAEK 280600Z 03011KT 9999 BKN019y31/23yQ1008=
01-Mar-2023 SAID35 WAEK 010000 METAR WAEK 010000Z 23002KT 9999 SCT019y26/25yQ1011=
01-Mar-2023 SAID35 WAEK 010300 METAR WAEK 010300Z 08005KT 9999 SCT019y30/25yQ1010=
01-Mar-2023 SAID35 WAEK 010600 METAR WAEK 010600Z 08009KT 9999 BKN019y32/24yQ1007=
02-Mar-2023 SAID35 WAEK 020000 METAR WAEK 020000Z 00000KT 9999 SCT019y28/26yQ1012=
02-Mar-2023 SAID35 WAEK 020600 METAR WAEK 020600Z 00000KT 8000 FEW015CB BKN018y26/25yQ1010=
03-Mar-2023 SAID35 WAEK 030000 METAR WAEK 030000Z 32003KT 9999 SCT019y28/26yQ1012=
03-Mar-2023 SAID35 WAEK 030300 METAR WAEK 030300Z 13006KT 9000 FEW016CB BKN018 29/25 Q1012=
03-Mar-2023 SAID35 WAEK 030600 METAR WAEK 030600Z 07004KT 9999 SCT018y30/25yQ1009=
04-Mar-2023 SAID35 WAEK 040000 METAR WAEK 040000Z 33004KT 9999 SCT019y27/25yQ1013=
04-Mar-2023 SAID35 WAEK 040300 METAR WAEK 040300Z 36008KT 9000 FEW016CB BKN018y31/26yQ1012=
05-Mar-2023 SAID35 WAEK 050000 METAR WAEK 050000Z 01002KT 9999 BKN019y27/25yQ1013=
05-Mar-2023 SAID35 WAEK 050300 METAR WAEK 050300Z 02002KT 9000 FEW015CB BKN018y28/25yQ1011=
05-Mar-2023 SAID35 WAEK 050600 METAR WAEK 050600Z 06003KT 8000 FEW015CB BKN018y27/25yQ1010=
06-Mar-2023 SAID35 WAEK 060000 METAR WAEK 060000Z 00000KT 9000 FEWCB016 BKN018y25/25yQ1013=
06-Mar-2023 SAID35 WAEK 060300 METAR WAEK 060300Z 30005KT 9000 FEW015CB BKN018y29/25yQ1012=
07-Mar-2023 SAID35 WAEK 070300 METAR WAEK 070300Z 13007KT 9999 SCT019y30/25yQ1012=
07-Mar-2023 SAID35 WAEK 070600 METAR WAEK 070600Z 03005KT 9000 FEW016CB BKN018y26/25yQ1010=
08-Mar-2023 SAID35 WAEK 080000 METAR WAEK 080000Z 01005KT 9999 SCT019y27/25yQ1013=
08-Mar-2023 SAID35 WAEK 080300 METAR WAEK 080300Z 11007KT 9999 SCT019y30/27yQ1012=
08-Mar-2023 SAID35 WAEK 080600 METAR WAEK 080600Z 07007KT 9000 FEW016CB BKN018y30/25yQ1009=
09-Mar-2023 SAID35 WAEK 090000 METAR WAEK 090000Z 03003KT 9999 SCT019 28/26 Q1012=
09-Mar-2023 SAID35 WAEK 090300 METAR WAEK 090300Z 13006KT 9999 SCT019y30/25yQ1011=
09-Mar-2023 SAID35 WAEK 090600 METAR WAEK 090600Z 11007KT 9999 SCT019y31/25yQ1008=
10-Mar-2023 SAID35 WAEK 100000 METAR WAEK 100000Z 33002KT 9999 SCT020y28/26yQ1011=
10-Mar-2023 SAID35 WAEK 100600 METAR WAEK 100600Z 11007KT 9999 SCT019y31/23yQ1007=
11-Mar-2023 SAID35 WAEK 110000 METAR WAEK 110000Z 30004KT 9999 SCT019y28/25yQ1012=
12-Mar-2023 SAID35 WAEK 120300 METAR WAEK 120300Z 15008KT 9999 SCT019y31/25yQ1009=
13-Mar-2023 SAID35 WAEK 130000 METAR WAEK 130000Z 34003KT 9999 SCT019 28/25 Q1011=
13-Mar-2023 SAID35 WAEK 130300 METAR WAEK 130300Z 18004KT 9999 SCT019 31/26 Q1008=
13-Mar-2023 SAID35 WAEK 130600 METAR WAEK 130600Z 4005KT 9999 BKN018y32/25yQ1005=
14-Mar-2023 SAID35 WAEK 140000 METAR WAEK 140000Z 23002KT 9999 SCT019y29/26yQ1010=
14-Mar-2023 SAID35 WAEK 140300 METAR WAEK 140300Z 16010KT 9999 SCT019 32/26 Q1008=
14-Mar-2023 SAID35 WAEK 140600 METAR WAEK 140600Z 28007KT 9000 FEW016CB BKN018y30/25yQ1006=
15-Mar-2023 SAID35 WAEK 150000 METAR WAEK 150000Z 33004KT 9000 FEW016CB BKN018y29/25yQ1013=
15-Mar-2023 SAID35 WAEK 150300 METAR WAEK 150300Z 36005KT 9000 FEW016CB BKN018y28/25yQ1011=
15-Mar-2023 SAID35 WAEK 150600 METAR WAEK 150600Z 13006KT 9000 FEW016CB BKN018y29/25yQ1007=
16-Mar-2023 SAID35 WAEK 160000 METAR WAEK 160000Z 19002KT 9000 FEW016CB BKN018y27/26yQ1013=
16-Mar-2023 SAID35 WAEK 160300 METAR WAEK 160300Z 12004KT 9000 FEW016CB BKN018y31/26yQ1011=
16-Mar-2023 SAID35 WAEK 160600 METAR WAEK 160600Z 33005KT 7000 FEW015CB BKN018y27/24yQ1008=
17-Mar-2023 SAID35 WAEK 170000 METAR WAEK 170000Z 33002KT 9999 SCT019y28/25yQ1012=
17-Mar-2023 SAID35 WAEK 170600 METAR WAEK 170600Z 13005KT 9999 FEW019y32/24yQ1006=
18-Mar-2023 SAID35 WAEK 180000 METAR WAEK 180000Z 31005KT 9999 SCT019 27/26 Q1011=
18-Mar-2023 SAID35 WAEK 180300 METAR WAEK 180300Z 35004KT 9999 SCT019 31/26 Q1009=
18-Mar-2023 SAID35 WAEK 180600 METAR WAEK 180600Z 04004KT 9000 FEW016CB BKN018y29/25yQ1008=
19-Mar-2023 SAID35 WAEK 190000 METAR WAEK 190000Z 32003KT 9999 SCT019 28/26 Q1012=
19-Mar-2023 SAID35 WAEK 190300 METAR WAEK 190300Z 12005KT 9999 SCT019 32/25 Q1010=
19-Mar-2023 SAID35 WAEK 190600 METAR WAEK 190600Z 15005KT 9000 FEW016CB BKN018y30/24yQ1007=
20-Mar-2023 SAID35 WAEK 200300 METAR WAEK 200300Z 08009KT 9999 SCT019y32/25yQ1009=
20-Mar-2023 SAID35 WAEK 200600 METAR WAEK 200600Z 04008KT 9999 SCT019y32/25yQ1006=
21-Mar-2023 SAID35 WAEK 210000 METAR WAEK 210000Z 02002KT 9999 SCT019y28/25yQ1009=
21-Mar-2023 SAID35 WAEK 210600 METAR WAEK 210600Z 02010KT 9000 FEWCB016 BKN018y30/26yQ1006=
23-Mar-2023 SAID35 WAEK 230000 METAR WAEK 230000Z 06006KT 9999 SCT019 27/25 Q1010=
23-Mar-2023 SAID35 WAEK 230300 METAR WAEK 230300Z 08004KT 9999 SCT019y31/24yQ1009=
23-Mar-2023 SAID35 WAEK 230600 METAR WAEK 230600Z 09005KT 9999 SCT019y31/24yQ1007=
24-Mar-2023 SAID35 WAEK 240000 METAR WAEK 240000Z 28002KT 9999 SCT019 28/26 Q1011=
24-Mar-2023 SAID35 WAEK 240300 METAR WAEK 240300Z 05005KT 9999 SCT019y32/25yQ1010=
24-Mar-2023 SAID35 WAEK 240600 METAR WAEK 240600Z 10007KT 9999 SCT019y31/25yQ1007=
25-Mar-2023 SAID35 WAEK 250000 METAR WAEK 250000Z 13002KT 9999 SCT019y28/26yQ1010=
25-Mar-2023 SAID35 WAEK 250300 METAR WAEK 250300Z 14004KT 9999 SCT018y30/25yQ1009=
25-Mar-2023 SAID35 WAEK 250600 METAR WAEK 250600Z 08005KT 9999 SCT019y30/24yQ1007=
26-Mar-2023 SAID35 WAEK 260000 METAR WAEK 260000Z 00000KT 9999 BKN018y27/26yQ1009=
26-Mar-2023 SAID35 WAEK 260300 METAR WAEK 260300Z 17006KT 9000 FEW016CB BKN018y31/26yQ1008=
26-Mar-2023 SAID35 WAEK 260600 METAR WAEK 260600Z 19007KT 9000 FEW016CB BKN018y31/26yQ1007=
28-Mar-2023 SAID35 WAEK 280000 METAR WAEK 280000Z 29002KT 9999 BKN018 26/25 Q1010=
28-Mar-2023 SAID35 WAEK 280300 METAR WAEK 280300Z 20007KT 9000 FEW015CB BKN018y30/26yQ1009=
28-Mar-2023 SAID35 WAEK 280600 METAR WAEK 280600Z 35005KT 8000 FEW015CB BKN018y29/26yQ1007=
29-Mar-2023 SAID35 WAEK 290000 METAR WAEK 290000Z 24003KT 9999 BKN019 27/25 Q1010=
29-Mar-2023 SAID35 WAEK 290300 METAR WAEK 290300Z 22007KT 9000 FEW015CB BKN018y30/25yQ1009=
29-Mar-2023 SAID35 WAEK 290600 METAR WAEK 290600Z 12006KT 8000 FEW015CB BKN018y29/26yQ1007=
30-Mar-2023 SAID35 WAEK 300000 METAR WAEK 300000Z 00000KT 9999 BKN019y26/25yQ1010=
30-Mar-2023 SAID35 WAEK 300300 METAR WAEK 300300Z 06002KT 9999 BKN018y29/26yQ1009=
30-Mar-2023 SAID35 WAEK 300600 METAR WAEK 300600Z 21005KT 9000 FEW016CB BKN018y29/26yQ1006=
31-Mar-2023 SAID35 WAEK 310000 METAR WAEK 310000Z 14002KT 9999 BKN019y29/26yQ1010=
31-Mar-2023 SAID35 WAEK 310300 METAR WAEK 310300Z 16005KT 9999 BKN019y31/25yQ1009=
31-Mar-2023 SAID35 WAEK 310600 METAR WAEK 310600Z 31010KT 8000 FEW015CB BKN018y25/24yQ1007=
01-Apr-2023 SAID35 WAEK 010000 METAR WAEK 010000Z 22005KT 9999 SCT019y28/25yQ1010=
01-Apr-2023 SAID35 WAEK 010600 METAR WAEK 010600Z 12005KT 7000 FEW015CB BKN018y29/25yQ1006=
02-Apr-2023 SAID35 WAEK 020000 METAR WAEK 020000Z 23002KT 9999 SCT019 29/25 Q1010=
02-Apr-2023 SAID35 WAEK 020300 METAR WAEK 020300Z 14002KT 9000 FEW015CB BKN018y28/26yQ1009=
02-Apr-2023 SAID35 WAEK 020600 METAR WAEK 020600Z 23002KT 9000 FEW015CB BKN018y28/25yQ1007=
03-Apr-2023 SAID35 WAEK 030000 METAR WAEK 030000Z 35003KT 9999 SCT018y26/26yQ1010=
03-Apr-2023 SAID35 WAEK 030300 METAR WAEK 030300Z 35005KT 9000 FEW015CB BKN018y27/24yQ1009=
03-Apr-2023 SAID35 WAEK 030600 METAR WAEK 030600Z 31006KT 9999 SCT018y29/25yQ1006=
04-Apr-2023 SAID35 WAEK 040000 METAR WAEK 040000Z 08002KT 9999 SCT019y29/25yQ1010=
04-Apr-2023 SAID35 WAEK 040300 METAR WAEK 040300Z 20008KT 9999 SCT018y29/25yQ1008=
04-Apr-2023 SAID35 WAEK 040600 METAR WAEK 040600Z 31006KT 9000 FEWCB016 BKN018y29/25yQ1007=
05-Apr-2023 SAID35 WAEK 050300 METAR WAEK 050300Z 24005KT 9000 FEWCB016 BKN018y28/25yQ1011=
06-Apr-2023 SAID35 WAEK 060000 METAR WAEK 060000Z 00000KT 9999 SCT019y27/26yQ1011=
06-Apr-2023 SAID35 WAEK 060300 METAR WAEK 060300Z 14004KT 9000 FEWCB016 BKN018y29/25yQ1010=
06-Apr-2023 SAID35 WAEK 060600 METAR WAEK 060600Z 22003KT 9000 FEWCB016 BKN018y26/25yQ1008=
07-Apr-2023 SAID35 WAEK 070000 METAR WAEK 070000Z 29004KT 9999 SCT019y28/25yQ1010=
07-Apr-2023 SAID35 WAEK 070300 METAR WAEK 070300Z 18006KT 9999 SCT019y30/25yQ1009=
07-Apr-2023 SAID35 WAEK 070600 METAR WAEK 070600Z 21006KT 9999 SCT018y30/25yQ1007=
08-Apr-2023 SAID35 WAEK 080000 METAR WAEK 080000Z 15003KT 9999 SCT018y28/26yQ1011=
08-Apr-2023 SAID35 WAEK 080300 METAR WAEK 080300Z 16006KT 9000 FEWCB016 BKN018y29/25y1011=
08-Apr-2023 SAID35 WAEK 080600 METAR WAEK 080600Z 15006KT 9000 FEWCB016 BKN018y28/24yQ1009=
09-Apr-2023 SAID35 WAEK 090300 METAR WAEK 090300Z 17007KT 9000 FEW016CB BKN018y31/24yQ1009=
09-Apr-2023 SAID35 WAEK 090600 METAR WAEK 090600Z 18007KT 9999 SCT019y33/24yQ1007=
10-Apr-2023 SAID35 WAEK 100000 METAR WAEK 100000Z 33004KT 9999 SCT019y28/25yQ1011=
10-Apr-2023 SAID35 WAEK 100300 METAR WAEK 100300Z 17006KT 9999 BKN019y32/24yQ1009=
10-Apr-2023 SAID35 WAEK 100600 METAR WAEK 100600Z 21004KT 9999 SCT019y31/24yQ1006=
11-Apr-2023 SAID35 WAEK 110000 METAR WAEK 110000Z 14002KT 9999 SCT019y29/25yQ1011=
11-Apr-2023 SAID35 WAEK 110300 METAR WAEK 110300Z 13008KT 9999 SCT019y32/26yQ1009=
11-Apr-2023 SAID35 WAEK 110600 METAR WAEK 110600Z 20007KT 9000 FEW016CB BKN018y33/24yQ1006=
12-Apr-2023 SAID35 WAEK 120000 METAR WAEK 120000Z 35002KT 9999 SCT019y29/26yQ1010=
12-Apr-2023 SAID35 WAEK 120300 METAR WAEK 120300Z 12006KT 9999 BKN019y32/25yQ1009=
12-Apr-2023 SAID35 WAEK 120600 METAR WAEK 120600Z 08006KT 9000 FEW016CB BKN018y32/26yQ1007=
13-Apr-2023 SAID35 WAEK 130600 METAR WAEK 130600Z 06007KT 9999 SCT019y33/25yQ1007=
14-Apr-2023 SAID35 WAEK 140300 METAR WAEK 140300Z 09005KT 9999 BKN018y32/26yQ1010=
14-Apr-2023 SAID35 WAEK 140600 METAR WAEK 140600Z 31003KT 9000 FEW015CB BKN018y25/24yQ1008=
15-Apr-2023 SAID35 WAEK 150000 METAR WAEK 150000Z 33003KT 9999 BKN019y27/26yQ1010=
15-Apr-2023 SAID35 WAEK 150300 METAR WAEK 150300Z 09004KT 8000 FEW015CB BKN018y31/26yQ1009=
15-Apr-2023 SAID35 WAEK 150600 METAR WAEK 150600Z 0904KT 9000 FEW016CB BKN018y31/26yQ1007=
16-Apr-2023 SAID35 WAEK 160000 METAR WAEK 160000Z 33002KT 9999 BKN019y29/27yQ1010=
16-Apr-2023 SAID35 WAEK 160300 METAR WAEK 160300Z 21007KT 9999 BKN019y32/25yQ1009=
16-Apr-2023 SAID35 WAEK 160600 METAR WAEK 160600Z 13005KT 9999 BKN018y33/23yQ1006=
17-Apr-2023 SAID35 WAEK 170000 METAR WAEK 170000Z 34002KT 9999 BKN019y28/26yQ1012=
18-Apr-2023 SAID35 WAEK 180000 METAR WAEK 180000Z 34002KT 9999 BKN019y28/26yQ1013=
18-Apr-2023 SAID35 WAEK 180300 METAR WAEK 180300Z 13006KT 9999 BKN019 31/25 Q1011=
18-Apr-2023 SAID35 WAEK 180600 METAR WAEK 180600Z 12004KT 8000 FEW015CB BKN018y30/24yQ1009=
19-Apr-2023 SAID35 WAEK 190000 METAR WAEK 190000Z 35004KT 9999 SCT019y28/26yQ1012=
19-Apr-2023 SAID35 WAEK 190300 METAR WAEK 190300Z 14006KT 9999 BKN019y32/25yQ1008=
19-Apr-2023 SAID35 WAEK 190600 METAR WAEK 190600Z 22003KT 8000 FEW015CB BKN018y31/24yQ1005=
20-Apr-2023 SAID35 WAEK 200000 METAR WAEK 200000Z 34005KT 9999 SCT019y27/25yQ1009=
20-Apr-2023 SAID35 WAEK 200300 METAR WAEK 200300Z 14003KT 9999 SCT19y30/24yQ1007=
20-Apr-2023 SAID35 WAEK 200600 METAR WAEK 200600Z 29004KT 9000 FEW015CB BKN018y30/25yQ1006=
21-Apr-2023 SAID35 WAEK 210000 METAR WAEK 210000Z 34003KT 9999 SCT019y28/26yQ1010=
21-Apr-2023 SAID35 WAEK 210600 METAR WAEK 210600Z 33008KT 9000 FEW015CB BKN018y27/24yQ1006=
22-Apr-2023 SAID35 WAEK 220000 METAR WAEK 220000Z 00000KT 9999 SCT019y28/26yQ1010=
22-Apr-2023 SAID35 WAEK 220300 METAR WAEK 220300Z 220025KT 9999 SCT19y31/23yQ1008=
22-Apr-2023 SAID35 WAEK 220600 METAR WAEK 220600Z 23007KT 9999 SCT019y34/22yQ1006=
23-Apr-2023 SAID35 WAEK 230000 METAR WAEK 230000Z 02003KT 9999 SCT019y28/25yQ1010=
23-Apr-2023 SAID35 WAEK 230300 METAR WAEK 230300Z 12007KT 9999 SCT19y32/25yQ1009=
23-Apr-2023 SAID35 WAEK 230600 METAR WAEK 230600Z 09004KT 9999 SCT019y30/23yQ1006=
24-Apr-2023 SAID35 WAEK 240000 METAR WAEK 240000Z 32003KT 9999 SCT020y28/25yQ1010=
24-Apr-2023 SAID35 WAEK 240300 METAR WAEK 240300Z 10008KT 9999 SCT19y30/25yQ1008=
24-Apr-2023 SAID35 WAEK 240600 METAR WAEK 240600Z 19008KT 9000 FEWCB016 BKN018y31/25yQ1006=
25-Apr-2023 SAID35 WAEK 250000 METAR WAEK 250000Z 34003KT 9999 SCT020y28/26yQ1009=
25-Apr-2023 SAID35 WAEK 250300 METAR WAEK 250300Z 10007KT 9999 SCT19y30/23yQ1008=
25-Apr-2023 SAID35 WAEK 250600 METAR WAEK 250600Z 11008KT 9000 FEWCB016 BKN018y33/24yQ1005=
26-Apr-2023 SAID35 WAEK 260000 METAR WAEK 260000Z 35005KT 9999 SCT019y28/26yQ1009=
26-Apr-2023 SAID35 WAEK 260300 METAR WAEK 260300Z 10006KT 9999 SCT19y31/25yQ1008=
26-Apr-2023 SAID35 WAEK 260600 METAR WAEK 260600Z 018010KT 9999 SCT019y32/26yQ1005=
27-Apr-2023 SAID35 WAEK 270000 METAR WAEK 270000Z 02002KT 9999 SCT019y28/26yQ1010=
27-Apr-2023 SAID35 WAEK 270300 METAR WAEK 270300Z 06008KT 9999 SCT019y32/26yQ1008=
27-Apr-2023 SAID35 WAEK 270600 METAR WAEK 270600Z 05013KT 9999 SCT018y31/26yQ1006=
28-Apr-2023 SAID35 WAEK 280000 METAR WAEK 280000Z 00000KT 9999 SCT019y28/26yQ1010=
28-Apr-2023 SAID35 WAEK 280300 METAR WAEK 280300Z 08004KT 9999 SCT019y30/26yQ1009=
28-Apr-2023 SAID35 WAEK 280600 METAR WAEK 280600Z 07006KT 9999 SCT018y31/25yQ1006=
29-Apr-2023 SAID35 WAEK 290300 METAR WAEK 290300Z 22004KT 9999 SCT019y33/26yQ1007=
29-Apr-2023 SAID35 WAEK 290600 METAR WAEK 290600Z 19008KT 9000 FEWCB016 SCT018y32/23yQ1004=
30-Apr-2023 SAID35 WAEK 300000 METAR WAEK 300000Z 29003KT 9999 BKN018 29/26 Q1009=
30-Apr-2023 SAID35 WAEK 300300 METAR WAEK 300300Z 19011KT 9000 FEW016CB BKN018y31/26yQ1007=
30-Apr-2023 SAID35 WAEK 300600 METAR WAEK 300600Z 02006KT 8000 FEW015CB BKN018y28/25yQ1004=
01-May-2023 SAID35 WAEK 010000 METAR WAEK 010000Z 23006KT 9999 BKN019y29/26yQ1009=
01-May-2023 SAID35 WAEK 010300 METAR WAEK 010300Z 18008KT 8000 FEW015CB BKN018y32/25yQ1008=
01-May-2023 SAID35 WAEK 010600 METAR WAEK 010600Z 02006KT 9000 FEW015CB BKN018y30/25yQ1006=
02-May-2023 SAID35 WAEK 020000 METAR WAEK 020000Z 21007KT 9999 SCT019y30/26yQ1010=
02-May-2023 SAID35 WAEK 020300 METAR WAEK 020300Z 22005KT 9999 BKN019y33/25yQ1009=
02-May-2023 SAID35 WAEK 020600 METAR WAEK 020600Z 19009KT 9999 FEW016CB BKN018y34/25yQ1006=
03-May-2023 SAID35 WAEK 030000 METAR WAEK 030000Z 35004KT 9999 BKN019y26/26yQ1011=
03-May-2023 SAID35 WAEK 030300 METAR WAEK 030300Z 09004KT 9000 FEW016CB BKN018y31/27yQ1009=
04-May-2023 SAID35 WAEK 040000 METAR WAEK 040000Z 31003KT 9999 SCT019y27/26yQ1009=
04-May-2023 SAID35 WAEK 040300 METAR WAEK 040300Z 09004KT 9000 FEW015CB BKN018y30/27yQ1007=
04-May-2023 SAID35 WAEK 040600 METAR WAEK 040600Z 29003KT 8000 FEW015CB BKN018y31/26yQ1006=
05-May-2023 SAID35 WAEK 050000 METAR WAEK 050000Z 28005KT 9999 SCT019y28/26yQ1008=
05-May-2023 SAID35 WAEK 050300 METAR WAEK 050300Z 13006KT 9000 FEW016CB BKN018y30/26yQ1006=
05-May-2023 SAID35 WAEK 050600 METAR WAEK 050600Z 19006KT 9000 FEW016CB BKN018y32/25yQ1003=
06-May-2023 SAID35 WAEK 060000 METAR WAEK 060000Z 21002KT 9999 SCT019y28/26yQ1007=
06-May-2023 SAID35 WAEK 060300 METAR WAEK 060300Z 18007KT 9000 FEW016CB BKN018y31/25yQ1006=
07-May-2023 SAID35 WAEK 070300 METAR WAEK 070300Z 19007KT 9999 BKN019y33/26yQ1009=
08-May-2023 SAID35 WAEK 080000 METAR WAEK 080000Z 09002KT 9999 SCT019y30/26yQ1009=
08-May-2023 SAID35 WAEK 080300 METAR WAEK 080300Z 08006KT 9000 FEW015CB BKN018y30/26yQ1008=
08-May-2023 SAID35 WAEK 080600 METAR WAEK 080600Z 10004KT 9000 FEW015CB BKN018y27/26yQ1007=
09-May-2023 SAID35 WAEK 090000 METAR WAEK 090000Z 18003KT 9999 SCT019y29/26yQ1010=
09-May-2023 SAID35 WAEK 090300 METAR WAEK 090300Z 09005KT 9999 SCT019y32/25yQ1009=
09-May-2023 SAID35 WAEK 090600 METAR WAEK 090600Z 09004KT 9999 SCT019y30/24y1007=
10-May-2023 SAID35 WAEK 100000 METAR WAEK 100000Z 19005KT 9999 SCT019y28/26yQ1011=
10-May-2023 SAID35 WAEK 100300 METAR WAEK 100300Z 26006KT 9000 FEWCB016 BKN018y30/25yQ1010=
10-May-2023 SAID35 WAEK 100600 METAR WAEK 100600Z 09004KT 9000 FEWCB016 BKN018y27/26y1008=
11-May-2023 SAID35 WAEK 110000 METAR WAEK 110000Z 30002KT 9000 FEWCB016 BKN018y26/25yQ1012=
11-May-2023 SAID35 WAEK 110300 METAR WAEK 110300Z 20006KT 9999 SCT018y31/26yQ1010=
12-May-2023 SAID35 WAEK 120000 METAR WAEK 120000Z 26002KT 9999 BKN018y27/26yQ1013=
12-May-2023 SAID35 WAEK 120300 METAR WAEK 120300Z 20007KT 9999 SCT018y30/24yQ1011=
12-May-2023 SAID35 WAEK 120600 METAR WAEK 120600Z 21004KT 9000 FEWCB016 BKN018y30/25y1009=
13-May-2023 SAID35 WAEK 130000 METAR WAEK 130000Z 35006KT 9999 SCT019y28/26yQ1012=
13-May-2023 SAID35 WAEK 130300 METAR WAEK 130300Z 14005KT 9999 SCT019y31/25yQ1011=
13-May-2023 SAID35 WAEK 130600 METAR WAEK 130600Z 10006KT 9999 SCT019y31/24yQ1008=
14-May-2023 SAID35 WAEK 140000 METAR WAEK 140000Z 31005KT 9999 SCT019y26/25yQ1010=
14-May-2023 SAID35 WAEK 140600 METAR WAEK 140600Z 18009KT 9000 FEW016CB BKN018y31/24yQ1008=
15-May-2023 SAID35 WAEK 150000 METAR WAEK 150000Z 31002KT 9999 SCT019y28/26yQ1011=
15-May-2023 SAID35 WAEK 150300 METAR WAEK 150300Z 14008KT 9999 BKN018y33/25yQ1011=
15-May-2023 SAID35 WAEK 150600 METAR WAEK 150600Z 10009KT 6000 FEW015CB BKN018y27/25yQ1007=
16-May-2023 SAID35 WAEK 160000 METAR WAEK 160000Z 22002KT 9999 SCT019 29/25 Q1012=
16-May-2023 SAID35 WAEK 160300 METAR WAEK 160300Z 23012KT 8000 FEW015CN BKN018y30/26yQ1012=
16-May-2023 SAID35 WAEK 160600 METAR WAEK 160600Z 31003KT 8000 FEW015CB BKN018 30/25 Q1009=
17-May-2023 SAID35 WAEK 170000 METAR WAEK 170000Z 20009KT 9999 SCT019y30/26yQ1013=
17-May-2023 SAID35 WAEK 170300 METAR WAEK 170300Z 18009KT 9999 FEW019y33/25yQ1012=
17-May-2023 SAID35 WAEK 170600 METAR WAEK 170600Z 19007KT 9999 BKN018y32/25yQ1009=
18-May-2023 SAID35 WAEK 180000 METAR WAEK 180000Z 32002KT 9999 BKN019y28/25yQ1014=
18-May-2023 SAID35 WAEK 180600 METAR WAEK 180600Z 17006KT 9999 BKN019y31/25yQ1009=
19-May-2023 SAID35 WAEK 190600 METAR WAEK 190600Z 19006KT 9000 FEW016CB BKN018y31/25yQ1009=
20-May-2023 SAID35 WAEK 200000 METAR WAEK 200000Z 17006KT 9999 BKN019y28/26yQ1012=
20-May-2023 SAID35 WAEK 200300 METAR WAEK 200300Z 20006KT 9999 BKN019y33/25yQ1012=
20-May-2023 SAID35 WAEK 200600 METAR WAEK 200600Z 20006KT 9990 SCT019 32/25 Q1009=
21-May-2023 SAID35 WAEK 210000 METAR WAEK 210000Z 30003KT 9999 SCT019y29/24yQ1012=
21-May-2023 SAID35 WAEK 210300 METAR WAEK 210300Z 20005KT 9999 SCT019y31/26yQ1010=
21-May-2023 SAID35 WAEK 210600 METAR WAEK 210600Z 17007KT 9999 SCT019y30/24yQ1008=
22-May-2023 SAID35 WAEK 220000 METAR WAEK 220000Z 27003KT 9999 SCT019y28/24yQ1012=
22-May-2023 SAID35 WAEK 220300 METAR WAEK 220300Z 20007KT 9999 SCT019y32/22yQ1011=
22-May-2023 SAID35 WAEK 220600 METAR WAEK 220600Z 19008KT 9999 SCT019y32/23yQ1009=
23-May-2023 SAID35 WAEK 230000 METAR WAEK 230000Z 21005KT 9999 SCT019y29/25yQ1012=
23-May-2023 SAID35 WAEK 230300 METAR WAEK 230300Z 20008KT 9999 SCT019y31/24yQ1011=
23-May-2023 SAID35 WAEK 230600 METAR WAEK 230600Z 19008KT 9999 SCT019y33/23yQ1009=
24-May-2023 SAID35 WAEK 240300 METAR WAEK 240300Z 19007KT 9999 SCT019y31/25yQ1011=
24-May-2023 SAID35 WAEK 240600 METAR WAEK 240600Z 20008KT 9999 SCT019y31/25yQ1009=
25-May-2023 SAID35 WAEK 250000 METAR WAEK 250000Z 21003KT 9999 SCT019y29/26yQ1012=
25-May-2023 SAID35 WAEK 250300 METAR WAEK 250300Z 19007KT 9999 SCT019y32/25yQ1011=
25-May-2023 SAID35 WAEK 250600 METAR WAEK 250600Z 23004 KT 8000 FEWCB016 BON018y28/26yQ1010=
26-May-2023 SAID35 WAEK 260300 METAR WAEK 260300Z 29004KT 9000 FEWCB016 BKN018y27/24yQ1012=
26-May-2023 SAID35 WAEK 260600 METAR WAEK 260600Z 21005KT 9000 FEWCB016 BKN018y28/24yQ1010=
27-May-2023 SAID35 WAEK 270000 METAR WAEK 270000Z 23005KT 9999 SCT019y29/24yQ1010=
27-May-2023 SAID35 WAEK 270300 METAR WAEK 270300Z 21008KT 9999 SCT018y30/23yQ1009=
27-May-2023 SAID35 WAEK 270600 METAR WAEK 270600Z 20005KT 9000 FEWCB016 BKN018y31/24yQ1007=
28-May-2023 SAID35 WAEK 280000 METAR WAEK 280000Z 18008KT 9999 SCT019 29/245 Q1010=
28-May-2023 SAID35 WAEK 280300 METAR WAEK 280300Z 21007KT 9999 SCT019y32/25yQ1009=
28-May-2023 SAID35 WAEK 280600 METAR WAEK 280600Z 21006KT 9999 SCT019y32/25yQ1007=
29-May-2023 SAID35 WAEK 290000 METAR WAEK 290000Z 23002KT 9999 SCT019y28/26yQ1011=
29-May-2023 SAID35 WAEK 290300 METAR WAEK 290300Z 22003KT 9999 SCT019y33/25yQ1009=
29-May-2023 SAID35 WAEK 290600 METAR WAEK 290600Z 20008KT 9999 SCT019y32/25yQ1007=
30-May-2023 SAID35 WAEK 300000 METAR WAEK 300000Z 32003KT 9999 SCT019y28/26yQ1011=
30-May-2023 SAID35 WAEK 300300 METAR WAEK 300300Z 6006KT 9999 SCT020y2/25yQ1009=
30-May-2023 SAID35 WAEK 300600 METAR WAEK 300600Z 20008KT 9999 SCT019y32/25yQ1007=
31-May-2023 SAID35 WAEK 310000 METAR WAEK 310000Z 21006KT 9999 SCT020y29/26yQ1011=
31-May-2023 SAID35 WAEK 310300 METAR WAEK 310300Z 25005KT 9999 SCT020y32/25yQ1009=
31-May-2023 SAID35 WAEK 310600 METAR WAEK 310600Z 19011KT 9000 FEW016CB BKN018 31/25 Q1007=
01-Jun-2023 SAID35 WAEK 010000 METAR WAEK 010000Z 20006KT 9999 SCT020y29/26yQ1011=
01-Jun-2023 SAID35 WAEK 010300 METAR WAEK 010300Z 13006KT 9999 SCT020y33/25yQ1009=
01-Jun-2023 SAID35 WAEK 010600 METAR WAEK 010600Z 13006KT 9999 SCT019y32/25yQ1007=
02-Jun-2023 SAID35 WAEK 020000 METAR WAEK 020000Z 23002KT 9999 SCT019y28/25yQ1011=
02-Jun-2023 SAID35 WAEK 020300 METAR WAEK 020300Z 19006KT 9999 SCT019y32/25yQ1010=
02-Jun-2023 SAID35 WAEK 020600 METAR WAEK 020600Z 20005KT 9000 FEW016CB BKN018y30/25yQ1008=
03-Jun-2023 SAID35 WAEK 030000 METAR WAEK 030000Z 00000KT 9999 SCT019y28/25yQ1011=
03-Jun-2023 SAID35 WAEK 030300 METAR WAEK 030300Z 19006KT 9999 SCT019y33/25yQ1010=
03-Jun-2023 SAID35 WAEK 030600 METAR WAEK 030600Z 20008KT 8000 FEW016 BKN018y31/26Q1007=
04-Jun-2023 SAID35 WAEK 040000 METAR WAEK 040000Z 30003KT 9999 SCT019y28/26yQ1011=
04-Jun-2023 SAID35 WAEK 040300 METAR WAEK 040300Z 29006KT 9999 SCT019y32/25yQ1009=
04-Jun-2023 SAID35 WAEK 040600 METAR WAEK 040600Z 16006KT 8000 FEW016CB BKN018y30/25yQ1007=
05-Jun-2023 SAID35 WAEK 050000 METAR WAEK 050000Z 20003KT 9999 SCT019y28/25yQ1010=
05-Jun-2023 SAID35 WAEK 050600 METAR WAEK 050600Z 18009KT 9999 SCT019y32/23yQ1007=
06-Jun-2023 SAID35 WAEK 060300 METAR WAEK 060300Z 21007KT 9999 SCT019y32/24yQ1009=
06-Jun-2023 SAID35 WAEK 060600 METAR WAEK 060600Z 18009KT 9999 SCT019y32/25yQ1007=
07-Jun-2023 SAID35 WAEK 070000 METAR WAEK 070000Z 18003KT 9999 SCT019y29/25yQ1015=
07-Jun-2023 SAID35 WAEK 070300 METAR WAEK 070300Z 19007KT 9999 SCT019y31/23yQ1011=
07-Jun-2023 SAID35 WAEK 070600 METAR WAEK 070600Z 18003KT 9999 SCT019y32/25yQ1009=
08-Jun-2023 SAID35 WAEK 080000 METAR WAEK 080000Z 23003KT 9999 SCT019y28/25yQ1011=
08-Jun-2023 SAID35 WAEK 080300 METAR WAEK 080300Z 28005KT 9999 SCT019y31/23yQ1010=
09-Jun-2023 SAID35 WAEK 090600 METAR WAEK 090600Z 19007KT 9999 SCT019y32/24yQ1006=
10-Jun-2023 SAID35 WAEK 100000 METAR WAEK 100000Z 19002KT 9999 SCT019y29/26yQ1010=
10-Jun-2023 SAID35 WAEK 100300 METAR WAEK 100300Z 17007KT 9999 SCT019y31/25yQ1009=
10-Jun-2023 SAID35 WAEK 100600 METAR WAEK 100600Z 19007KT 9999 SCT019y30/23yQ1007=
11-Jun-2023 SAID35 WAEK 110000 METAR WAEK 110000Z 33002KT 9999 SCT019 28/26 Q1011=
11-Jun-2023 SAID35 WAEK 110300 METAR WAEK 110300Z 19005KT 9999 SCT019y32/25yQ1009=
11-Jun-2023 SAID35 WAEK 110600 METAR WAEK 110600Z 20005KT 9000 FEW016CB BKN018 30/25 Q1007=
12-Jun-2023 SAID35 WAEK 120000 METAR WAEK 120000Z 18005KT 9999 SCT019y29/26yQ1010=
12-Jun-2023 SAID35 WAEK 120300 METAR WAEK 120300Z 18005KT 9999 SCT019y33/25yQ1009=
12-Jun-2023 SAID35 WAEK 120600 METAR WAEK 120600Z 13011KT 8000 FEW016CB BKN018y30/25yQ1007=
13-Jun-2023 SAID35 WAEK 130000 METAR WAEK 130000Z 34002KT 9999 SCT019y29/25yQ1011=
13-Jun-2023 SAID35 WAEK 130300 METAR WAEK 130300Z 12003KT 9999 SCT019y32/26yQ1010=
13-Jun-2023 SAID35 WAEK 130600 METAR WAEK 130600Z 33007KT 7000 FEW015CB BKN018y29/25yQ1009=
14-Jun-2023 SAID35 WAEK 140000 METAR WAEK 140000Z 23003KT 9999 SCT019 27/26 Q1012=
14-Jun-2023 SAID35 WAEK 140300 METAR WAEK 140300Z 12003KT 9999 SCT019y33/25yQ1010=
14-Jun-2023 SAID35 WAEK 140600 METAR WAEK 140600Z 18014KT 8000 FEW015CB BKN018 31/26 Q1009=
15-Jun-2023 SAID35 WAEK 150000 METAR WAEK 150000Z 21005KT 9999 BKN019y27/25yQ1011=
15-Jun-2023 SAID35 WAEK 150600 METAR WAEK 150600Z 18014KT 9999 BKN019y30/26yQ1008=
16-Jun-2023 SAID35 WAEK 160600 METAR WAEK 160600Z 18014KT 5000 FEW015CB BKN018y28/25yQ1009=
17-Jun-2023 SAID35 WAEK 170000 METAR WAEK 170000Z 28002KT 9000 FEW016CB BKN018y26/25yQ1012=
17-Jun-2023 SAID35 WAEK 170300 METAR WAEK 170300Z 20003KT 9000 FEW016CB BKN018y30/24yQ1011=
17-Jun-2023 SAID35 WAEK 170600 METAR WAEK 170600Z 10006KT 9000 FEW016CB BKN018y31/25yQ1009=
18-Jun-2023 SAID35 WAEK 180000 METAR WAEK 180000Z 31003KT 9999 BKN019y27/25yQ1012=
18-Jun-2023 SAID35 WAEK 180300 METAR WAEK 180300Z 20003KT 9999 BKN019y31/26yQ1009=
18-Jun-2023 SAID35 WAEK 180600 METAR WAEK 180600Z 21005KT 9000 FEW015CB BKN018y30/25yQ1008=
20-Jun-2023 SAID35 WAEK 200000 METAR WAEK 200000Z 21003KT 9999 SCT019y27/25yQ1011=
20-Jun-2023 SAID35 WAEK 200600 METAR WAEK 200600Z 21005KT 9000 FEW016CB BKN018y29/23yQ1008=
21-Jun-2023 SAID35 WAEK 210000 METAR WAEK 210000Z 21005KT 8000 FEW015CB BKN018y24/23yQ1013=
21-Jun-2023 SAID35 WAEK 210300 METAR WAEK 210300Z 20005KT 9000 FEWCB016 BKN018y27/25yQ1012=
21-Jun-2023 SAID35 WAEK 210600 METAR WAEK 210600Z 23008KT 9999 SCT18 29/25 Q1009=
22-Jun-2023 SAID35 WAEK 220300 METAR WAEK 220300Z 19004KT 9999 BKN018y29/22yQ1010=
22-Jun-2023 SAID35 WAEK 220600 METAR WAEK 220600Z 19006KT 9000 FEWCB016 SCT18y26/25yQ1008=
23-Jun-2023 SAID35 WAEK 230000 METAR WAEK 230000Z 19005KT 9999 SCT019y27/24yQ1010=
23-Jun-2023 SAID35 WAEK 230300 METAR WAEK 230300Z 20004KT 9999 SCT019y31/23yQ1010=
23-Jun-2023 SAID35 WAEK 230600 METAR WAEK 230600Z 21005KT 9000 FEWCB016 SCT18y30/26yQ1007=
25-Jun-2023 SAID35 WAEK 250000 METAR WAEK 250000Z 17003KT 9999 BKN019y29/25yQ1010=
25-Jun-2023 SAID35 WAEK 250300 METAR WAEK 250300Z 19003KT 9999 BKN019y31/26yQ1008=
25-Jun-2023 SAID35 WAEK 250600 METAR WAEK 250600Z 21005KT 9000 FEW016CB BKN018y31/25yQ1006=
26-Jun-2023 SAID35 WAEK 260000 METAR WAEK 260000Z 18005KT 9999 BKN019y28/25yQ1010=
26-Jun-2023 SAID35 WAEK 260300 METAR WAEK 260300Z 12004KT 9999 SCT19y31/25yQ1010=
26-Jun-2023 SAID35 WAEK 260600 METAR WAEK 260600Z 21008KT 9999 SCT019y32/25yQ1007=
27-Jun-2023 SAID35 WAEK 270000 METAR WAEK 270000Z 32003KT 9999 SCT019y28/25yQ1011=
27-Jun-2023 SAID35 WAEK 270300 METAR WAEK 270300Z 14004KT 9999 SCT19y32/23yQ1010=
27-Jun-2023 SAID35 WAEK 270600 METAR WAEK 270600Z 05006KT 9999 SCT019y31/25yQ1009=
28-Jun-2023 SAID35 WAEK 280000 METAR WAEK 280000Z 00000KT 9000 FEW016CB BKN018y26/25yQ1009=
28-Jun-2023 SAID35 WAEK 280300 METAR WAEK 280300Z 31002KT 9000 FEW016CB BKN018y26/25yQ1012=
28-Jun-2023 SAID35 WAEK 280600 METAR WAEK 280600Z 22004KT 9999 BKN018y29/25yQ1010=
30-Jun-2023 SAID35 WAEK 300000 METAR WAEK 300000Z 32004KT 9999 SCT019y28/25yQ1012=
30-Jun-2023 SAID35 WAEK 300300 METAR WAEK 300300Z 13006KT 9999 SCT019y30/26yQ1010=
30-Jun-2023 SAID35 WAEK 300600 METAR WAEK 300600Z 12003KT 9999 SCT019y31/23yQ1007=
01-Jul-2023 SAID35 WAEK 010000 METAR WAEK 010000Z 32003KT 9999 SCT019y28/25yQ1012=
01-Jul-2023 SAID35 WAEK 010300 METAR WAEK 010300Z 05004KT 9999 SCT019 31/23 Q1011=
01-Jul-2023 SAID35 WAEK 010600 METAR WAEK 010600Z 04005KT 9999 SCT019y31/23yQ1008=
02-Jul-2023 SAID35 WAEK 020000 METAR WAEK 020000Z 00000KT 9999 BKN019y27/25yQ1012=
02-Jul-2023 SAID35 WAEK 020300 METAR WAEK 020300Z 08005KT 9999 BKN019y31/25yQ1011=
02-Jul-2023 SAID35 WAEK 030300 METAR WAEK 020300Z 19003KT 9999 BKN019y32/25yQ1010=
02-Jul-2023 SAID35 WAEK 020600 METAR WAEK 020600Z 14004KT 9999 SCT019y31/25yQ1008=
03-Jul-2023 SAID35 WAEK 030000 METAR WAEK 030000Z 31003KT 9999 BKN019y28/25yQ1012=
03-Jul-2023 SAID35 WAEK 030600 METAR WAEK 030600Z 10006KT 8000 FEW015CB BKN018y28/24yQ1009=
05-Jul-2023 SAID35 WAEK 050000 METAR WAEK 050000Z 30008KT 9000 FEW016CB BKN018y28/26yQ1012=
05-Jul-2023 SAID35 WAEK 050300 METAR WAEK 050300Z 16008KT 9999 BKN018y31/25yQ1010=
05-Jul-2023 SAID35 WAEK 050600 METAR WAEK 050600Z 03006KT 7000 FEW015CN BKN018y28/24yQ1009=
06-Jul-2023 SAID35 WAEK 060000 METAR WAEK 060000Z 30008KT 9999 BKN019y27/25yQ1012=
06-Jul-2023 SAID35 WAEK 060300 METAR WAEK 060300Z 05003KT 9999 BKN019y31/26yQ1011=
06-Jul-2023 SAID35 WAEK 060600 METAR WAEK 060600Z 21006KT 9000 FEW016CN BKN018y31/26yQ1009=
07-Jul-2023 SAID35 WAEK 070000 METAR WAEK 070000Z 00000KT 9999 BKN019y28/26yQ1012=
07-Jul-2023 SAID35 WAEK 070300 METAR WAEK 070300Z 08006KT 9999 BKN019y32/26yQ1011=
07-Jul-2023 SAID35 WAEK 070600 METAR WAEK 070600Z 07007KT 9000 FEW016CB BKN018y31/26yQ1009=
08-Jul-2023 SAID35 WAEK 080000 METAR WAEK 080000Z 25002KT 9999 SCT019y28/26yQ1012=
08-Jul-2023 SAID35 WAEK 080300 METAR WAEK 080300Z 19006KT 9999 BKN019y31/25yQ1011=
08-Jul-2023 SAID35 WAEK 080600 METAR WAEK 080600Z 12005KT 8000 FEW016CB BKN018y30/25yQ1009=
09-Jul-2023 SAID35 WAEK 090000 METAR WAEK 090000Z 30005KT 9999 BKN019 28/25 Q1012=
09-Jul-2023 SAID35 WAEK 090300 METAR WAEK 090300Z 10003KT 9999 BKN019 30/25 Q1010=
09-Jul-2023 SAID35 WAEK 090600 METAR WAEK 090600Z 18005KT 9999 BKN018y30/25yQ1008=
10-Jul-2023 SAID35 WAEK 100000 METAR WAEK 100000Z 15003KT 9999 SCT019y29/26yQ1009=
12-Jul-2023 SAID35 WAEK 120600 METAR WAEK 120600Z 20008KT 9999 SCT018y30/24yQ1007=
13-Jul-2023 SAID35 WAEK 130000 METAR WAEK 130000Z 32003KT 9999 BKN018y27/25yQ1011=
13-Jul-2023 SAID35 WAEK 130300 METAR WAEK 130300Z 22003KT 9999 FEWCB016 BKN018y30/24yQ1010=
14-Jul-2023 SAID35 WAEK 140000 METAR WAEK 140000Z 32003KT 9000 BKN018y27/25yQ1011=
15-Jul-2023 SAID35 WAEK 150000 METAR WAEK 150000Z 18003KT 9000 FEW016CB BKN018y25/24yQ1011=
16-Jul-2023 SAID35 WAEK 160000 METAR WAEK 160000Z 00000KT 9000 FEW016CB BKN018y26/25yQ1010=
16-Jul-2023 SAID35 WAEK 160300 METAR WAEK 160300Z 18008KT 9999 BKN018y31/26yQ1009=
16-Jul-2023 SAID35 WAEK 160600 METAR WAEK 160600Z 30006KT 8000 FEW015CB BKN018y29/25yQ1007=
17-Jul-2023 SAID35 WAEK 170000 METAR WAEK 170000Z 00000KT 9999 BKN018y27/25yQ1011=
17-Jul-2023 SAID35 WAEK 170300 METAR WAEK 170300Z 20006KT 9999 BKN019y30/25yQ1010=
17-Jul-2023 SAID35 WAEK 170600 METAR WAEK 170600Z 30006KT 8000 FEW016CB BKN018y28/24yQ1008=
18-Jul-2023 SAID35 WAEK 180000 METAR WAEK 180000Z 00000KT 9999 BKN019y29/25yQ1011=
18-Jul-2023 SAID35 WAEK 180300 METAR WAEK 180300Z 17012KT 9999 BKN019y31/26yQ1009=
18-Jul-2023 SAID35 WAEK 180600 METAR WAEK 180600Z 19009KT 9999 BKN019y32/25yQ1007=
19-Jul-2023 SAID35 WAEK 190000 METAR WAEK 190000Z 22007KT 9999 BKN019y29/25yQ1009=
19-Jul-2023 SAID35 WAEK 190300 METAR WAEK 190300Z 17012KT 9000 FEW016CB BKN018 30/23 Q1009=
19-Jul-2023 SAID35 WAEK 190600 METAR WAEK 190600Z 20011KT 9999 BKN019 31/23 Q1007=
20-Jul-2023 SAID35 WAEK 200000 METAR WAEK 200000Z 20006KT 9999 BKN019y29/25yQ1009=
20-Jul-2023 SAID35 WAEK 200300 METAR WAEK 200300Z 19007KT 9999 BKN019y30/24yQ1009=
20-Jul-2023 SAID35 WAEK 200600 METAR WAEK 200600Z 20006KT 9999 BKN019 32/25 Q1006=
22-Jul-2023 SAID35 WAEK 220000 METAR WAEK 220000Z 22005KT 9999 BKN020y29/25yQ1012=
22-Jul-2023 SAID35 WAEK 220300 METAR WAEK 220300Z 23004KT 9999 BKN020y30/24yQ1010=
23-Jul-2023 SAID35 WAEK 230000 METAR WAEK 230000Z 19008KT 9999 BKN019y28/25yQ1012=
23-Jul-2023 SAID35 WAEK 230300 METAR WAEK 230300Z 21007KT 9999 BKN020y30/24yQ1011=
23-Jul-2023 SAID35 WAEK 230600 METAR WAEK 230600Z 21008KT 9999 SCT019y31/24Q1009=
24-Jul-2023 SAID35 WAEK 240000 METAR WAEK 240000Z 18009KT 9999 BKN019y29/24yQ1011=
24-Jul-2023 SAID35 WAEK 240300 METAR WAEK 240300Z 19010KT 9999 BKN019y31/23yQ1010=
24-Jul-2023 SAID35 WAEK 240600 METAR WAEK 240600Z 23009KT 9999 SCT019y32/22yQ1007=
26-Jul-2023 SAID35 WAEK 260000 METAR WAEK 260000Z 23004KT 9999 SCT019 29/23 Q1012=
26-Jul-2023 SAID35 WAEK 260300 METAR WAEK 260300Z 25005KT 9999 SCT019y32/24yQ1010=
26-Jul-2023 SAID35 WAEK 260600 METAR WAEK 260600Z 27004KT 9999 SCT019y32/23yQ1008=
27-Jul-2023 SAID35 WAEK 270000 METAR WAEK 270000Z 21006KT 9999 SCT019y29/24yQ1012=
27-Jul-2023 SAID35 WAEK 270300 METAR WAEK 270300Z 23007KT 9999 SCT019y32/24yQ1010=
27-Jul-2023 SAID35 WAEK 270600 METAR WAEK 270600Z 22010KT 9999 SCT019y32/24yQ1009=
28-Jul-2023 SAID35 WAEK 280000 METAR WAEK 280000Z 24004KT 9999 SCT019y29/25yQ1011=
28-Jul-2023 SAID35 WAEK 280300 METAR WAEK 280300Z 21005KT 9999 SCT019y32/24yQ1010=
28-Jul-2023 SAID35 WAEK 280600 METAR WAEK 280600Z 21008KT 9999 SCT019y32/23yQ1008=
30-Jul-2023 SAID35 WAEK 300000 METAR WAEK 300000Z 22003KT 9999 SCT019y30/24yQ1013=
30-Jul-2023 SAID35 WAEK 300300 METAR WAEK 300300Z 23008KT 9999 SCT019y32/23yQ1011=
30-Jul-2023 SAID35 WAEK 300600 METAR WAEK 300600Z 22009KT 9999 SCT019y33/23yQ1008=
31-Jul-2023 SAID35 WAEK 310000 METAR WAEK 310000Z 30003KT 9000 FEWCB016 SCT018y29/25yQ1013=
31-Jul-2023 SAID35 WAEK 310600 METAR WAEK 310600Z 17007KT 9999 SCT019y33/25yQ1009=
01-Aug-2023 SAID35 WAEK 010000 METAR WAEK 010000Z 30003KT 9999 SCT019y28/25yQ1012=
01-Aug-2023 SAID35 WAEK 010300 METAR WAEK 010300Z 18006KT 9999 SCT019y31/24yQ1011=
01-Aug-2023 SAID35 WAEK 010600 METAR WAEK 010600Z 21007KT 9999 SCT019y31/25yQ1008=
02-Aug-2023 SAID35 WAEK 020000 METAR WAEK 020000Z 22002KT 9000 FEWCB016 SCT018y28/25yQ1013=
02-Aug-2023 SAID35 WAEK 020300 METAR WAEK 020300Z 14005KT 9999 SCT019y31/25yQ1012=
02-Aug-2023 SAID35 WAEK 020600 METAR WAEK 020600Z 19011KT 9999 SCT019y31/24yQ1010=
03-Aug-2023 SAID35 WAEK 040000 METAR WAEK 030000Z 27003KT 9999 SCT019y28/26yQ1016=
03-Aug-2023 SAID35 WAEK 030300 METAR WAEK 030300Z 27004KT 9999 SCT019y31/25yQ1013=
03-Aug-2023 SAID35 WAEK 030600 METAR WAEK 030600Z 19011KT 9999 SCT019y33/24y3yQ1011=
04-Aug-2023 SAID35 WAEK 040300 METAR WAEK 040300Z 18005KT 9999 SCT019y32/25yQ1014=
05-Aug-2023 SAID35 WAEK 050000 METAR WAEK 050000Z 21005KT 9999 SCT019y28/24yQ1014=
05-Aug-2023 SAID35 WAEK 050300 METAR WAEK 050300Z 22011KT 9999 SCT018y31/25yQ1014=
06-Aug-2023 SAID35 WAEK 060000 METAR WAEK 060000Z 22007KT 9999 SCT019y29/24yQ1012=
06-Aug-2023 SAID35 WAEK 060300 METAR WAEK 060300Z 23010KT 9999 SCT019y33/24yQ1011=
06-Aug-2023 SAID35 WAEK 060600 METAR WAEK 060600Z 22008KT 9999 SCT019y32/23yQ1008=
07-Aug-2023 SAID35 WAEK 070000 METAR WAEK 070000Z 21007KT 9999 SCT019y29/25yQ1012=
07-Aug-2023 SAID35 WAEK 070300 METAR WAEK 070300Z 20007KT 9999 BKN019y30/24yQ1011=
07-Aug-2023 SAID35 WAEK 070600 METAR WAEK 070600Z 19008KT 9999 SCT018y31/23yQ1009=
09-Aug-2023 SAID35 WAEK 090000 METAR WAEK 090000Z 21009KT 9999 SCT019y28/24yQ1013=
09-Aug-2023 SAID35 WAEK 090300 METAR WAEK 090300Z 23011KT 9999 SCT019y31/23yQ1012=
09-Aug-2023 SAID35 WAEK 090600 METAR WAEK 090600Z 21011KT 9999 SCT019y33/21yQ1010=
10-Aug-2023 SAID35 WAEK 100000 METAR WAEK 100000Z 21007KT 9999 SCT019y28/24yQ1012=
10-Aug-2023 SAID35 WAEK 100600 METAR WAEK 100600Z 21011KT 9999 SCT019y32/23yQ1008=
11-Aug-2023 SAID35 WAEK 110000 METAR WAEK 110000Z 21006KT 9999 SCT019y28/23yQ1013=
11-Aug-2023 SAID35 WAEK 110300 METAR WAEK 110300Z 20008KT 9999 SCT019y31/23yQ1011=
11-Aug-2023 SAID35 WAEK 110600 METAR WAEK 110600Z 21012KT 9999 SCT019y33/22yQ1008=
12-Aug-2023 SAID35 WAEK 120000 METAR WAEK 120000Z 23006KT 9999 SCT019y28/23yQ1012=
14-Aug-2023 SAID35 WAEK 140000 METAR WAEK 140000Z 20006KT 9999 SCT019y28/23yQ1012=
14-Aug-2023 SAID35 WAEK 140300 METAR WAEK 140300Z 20005KT 9999 SCT019 32/23 Q1011=
14-Aug-2023 SAID35 WAEK 140600 METAR WAEK 140600Z 19008KT 9999 SCT019y34/23yQ1009=
15-Aug-2023 SAID35 WAEK 150000 METAR WAEK 150000Z 21006KT 9999 SCT019y32/24yQ1012=
15-Aug-2023 SAID35 WAEK 150300 METAR WAEK 150300Z 22005KT 9999 SCT019y37/22yQ1011=
15-Aug-2023 SAID35 WAEK 150600 METAR WAEK 150600Z 22014KT 9999 SCT019y34/24yQ1009=
16-Aug-2023 SAID35 WAEK 160000 METAR WAEK 160000Z 24004KT 9999 SCT019y29/26yQ1013=
16-Aug-2023 SAID35 WAEK 160300 METAR WAEK 160300Z 21007KT 9999 SCT019y34/24yQ1012=
16-Aug-2023 SAID35 WAEK 160600 METAR WAEK 160600Z 20010KT 9999 SCT019y33/24yQ1010=
17-Aug-2023 SAID35 WAEK 170000 METAR WAEK 170000Z 23004KT 9999 SCT019y28/25yQ1013=
19-Aug-2023 SAID35 WAEK 190000 METAR WAEK 190000Z 21006KT 9999 SCT019y32/25yQ1012=
19-Aug-2023 SAID35 WAEK 190600 METAR WAEK 190600Z 20007KT 9999 SCT019y35/23yQ1009=
20-Aug-2023 SAID35 WAEK 200000 METAR WAEK 200000Z 22005KT 9999 BKN019y30/25yQ1012=
20-Aug-2023 SAID35 WAEK 200300 METAR WAEK 200300Z 21007KT 9999 BKN019y30/24yQ1011=
21-Aug-2023 SAID35 WAEK 210300 METAR WAEK 210300Z 20006KT 9999 SCT019y32/25yQ1010=
21-Aug-2023 SAID35 WAEK 210600 METAR WAEK 210600Z 21010KT 9999 BKN018y32/24yQ1008=
22-Aug-2023 SAID35 WAEK 220000 METAR WAEK 220000Z 19005KT 9000 FEW016CB BKN018y28/24yQ1012=
22-Aug-2023 SAID35 WAEK 220300 METAR WAEK 220300Z 20006KT 9000 FEW016CB BKN018y30/23yQ1011=
22-Aug-2023 SAID35 WAEK 220600 METAR WAEK 220600Z 22003KT 8000 FEW016CB BKN018y27/24yQ1009=
24-Aug-2023 SAID35 WAEK 240000 METAR WAEK 240000Z 20006KT 9999 SCT019 28/24 Q1012=
24-Aug-2023 SAID35 WAEK 240300 METAR WAEK 240300Z 21006KT 9999 SCT019 32/24 Q1010=
24-Aug-2023 SAID35 WAEK 240600 METAR WAEK 240600Z 23007KT 9999 SCT019y32/23yQ1008=
26-Aug-2023 SAID35 WAEK 260300 METAR WAEK 260300Z 16007KT 9000 FEW016CB BKN018y28/23yQ1010=
26-Aug-2023 SAID35 WAEK 260600 METAR WAEK 260600Z 23005KT 9000 FEW016CB BKN018y26/23yQ1007=
27-Aug-2023 SAID35 WAEK 270300 METAR WAEK 270300Z 20006KT 9000 FEW016CB BKN018y29/23yQ1010=
27-Aug-2023 SAID35 WAEK 270600 METAR WAEK 270600Z 22006KT 9000 FEW016CB BKN018y27/23yQ1008=
28-Aug-2023 SAID35 WAEK 280300 METAR WAEK 280300Z 19004KT 9999 SCT019y31/23yQ1009=
28-Aug-2023 SAID35 WAEK 280600 METAR WAEK 280600Z 21014KT 9999 SCT019y32/22yQ1007=
29-Aug-2023 SAID35 WAEK 290300 METAR WAEK 290300Z 22005KT 9999 SCT018y29/23yQ1009=
29-Aug-2023 SAID35 WAEK 290600 METAR WAEK 290600Z 19008KT 9999 FEW016CB BKN018y29/25yQ1007=
30-Aug-2023 SAID35 WAEK 300300 METAR WAEK 300300Z 20001KT 9999 SCT018y30/24yQ1010=
30-Aug-2023 SAID35 WAEK 300600 METAR WAEK 300600Z 22003KT 9000 FEW016CB BKN018y30/24yQ1008=
31-Aug-2023 SAID35 WAEK 310300 METAR WAEK 310300Z 21006KT 9999 SCT018y29/23yQ1011=
31-Aug-2023 SAID35 WAEK 310600 METAR WAEK 310600Z 21006KT 9000 FEW016CB BKN018y28/23yQ1009=
01-Sep-2023 SAID35 WAEK 010300 METAR WAEK 010300Z 19006KT 9999 SCT019y30/23yQ1011=
03-Sep-2023 SAID35 WAEK 030300 METAR WAEK 030300Z 19011KT 9999 SCT019y31/24yQ1010=
03-Sep-2023 SAID35 WAEK 030600 METAR WAEK 030600Z 21009KT 9999 SCT019y31/23yQ1010=
04-Sep-2023 SAID35 WAEK 040600 METAR WAEK 040600Z 21008KT 9000 FEW016CB BKN018y30/23yQ1007=
05-Sep-2023 SAID35 WAEK 050300 METAR WAEK 050300Z 19004KT 9000 FEW016CB BKN018y30/24yQ1010=
06-Sep-2023 SAID35 WAEK 060000 METAR WAEK 060000Z 21004KT 9000 FEW016CB BKN018y27/24yQ1012=
06-Sep-2023 SAID35 WAEK 060300 METAR WAEK 060300Z 20006KT 9000 FEW016CB BKN018y28/24yQ1011=
06-Sep-2023 SAID35 WAEK 060600 METAR WAEK 060600Z 20007KT 9000 FEW016CB BKN018y29/23yQ1009=
08-Sep-2023 SAID35 WAEK 080300 METAR WAEK 080300Z 24007KT 9999 BKN019y31/22yQ1010=
08-Sep-2023 SAID35 WAEK 080600 METAR WAEK 080600Z 19010KT 9000 FEW016CB BKN018y30/23yQ1008=
09-Sep-2023 SAID35 WAEK 090300 METAR WAEK 090300Z 22008KT 9999 BKN019y31/22yQ1010=
09-Sep-2023 SAID35 WAEK 090600 METAR WAEK 090600Z 20010KT 9999 BKN019y30/23yQ1008=
10-Sep-2023 SAID35 WAEK 100300 METAR WAEK 100300Z 23007KT 9999 BKN019y31/22yQ1010=
10-Sep-2023 SAID35 WAEK 100600 METAR WAEK 100600Z 21009KT 9000 FEW016CB BKN018y29/23yQ1008=
11-Sep-2023 SAID35 WAEK 110600 METAR WAEK 110600Z 21004KT 9999 SCT019y31/23yQ1008=
13-Sep-2023 SAID35 WAEK 130300 METAR WAEK 130300Z 21007KT 9999 SCT019y30/24yQ1011=
13-Sep-2023 SAID35 WAEK 130600 METAR WAEK 130600Z 31008KT 8000 FEW016CB BKN018y25/24yQ1010=
14-Sep-2023 SAID35 WAEK 140600 METAR WAEK 140600Z 24007KT 9999 SCT018y31/24yQ1009=
15-Sep-2023 SAID35 WAEK 150300 METAR WAEK 150300Z 03003KT 8000 FEW016CB BKN018y27/25yQ1013=
15-Sep-2023 SAID35 WAEK 150600 METAR WAEK 150600Z 00000KT 9000 FEWCB016 SCT018y27/25yQ1011=
16-Sep-2023 SAID35 WAEK 160300 METAR WAEK 160300Z 19003KT 9999 SCT019y32/23yQ1011=
16-Sep-2023 SAID35 WAEK 160600 METAR WAEK 160600Z 02008KT 9999 SCT019y32/24yQ1009=
19-Sep-2023 SAID35 WAEK 190300 METAR WAEK 190300Z 20006KT 9999 BKN019y31/24yQ1010=
19-Sep-2023 SAID35 WAEK 190600 METAR WAEK 190600Z 22006KT 9999 BKN019y31/24yQ1008=
20-Sep-2023 SAID35 WAEK 200600 METAR WAEK 200600Z 22005KT 9999 BKN019y31/23yQ1008=
21-Sep-2023 SAID35 WAEK 210000 METAR WAEK 210000Z 19007KT 9999 SCT019 29/24 Q1011=
21-Sep-2023 SAID35 WAEK 210300 METAR WAEK 210300Z 23009KT 9999 BKN019y31/23yQ1010=
21-Sep-2023 SAID35 WAEK 210600 METAR WAEK 210600Z 22007KT 9999 SCT019y32/22yQ1007=
23-Sep-2023 SAID35 WAEK 230300 METAR WAEK 230300Z 21007KT 9999 BKN019y32/24yQ1008=
23-Sep-2023 SAID35 WAEK 230600 METAR WAEK 230600Z 20010KT 9999 SCT019 32/23 Q1007=
24-Sep-2023 SAID35 WAEK 240000 METAR WAEK 240000Z 21006KT 9999 SCT019y28/24yQ1011=
24-Sep-2023 SAID35 WAEK 240300 METAR WAEK 240300Z 22010KT 9999 SCT019y32/23yQ1009=
24-Sep-2023 SAID35 WAEK 240600 METAR WAEK 240600Z 23011KT 9999 SCT019y31/23yQ1007=
25-Sep-2023 SAID35 WAEK 250300 METAR WAEK 250300Z 20008KT 9999 SCT019y32/22yQ1009=
25-Sep-2023 SAID35 WAEK 250600 METAR WAEK 250600Z 20008KT 9999 SCT019y33/22yQ1007=
26-Sep-2023 SAID35 WAEK 260300 METAR WAEK 260300Z 21010KT 9999 SCT019y32/22yQ1010=
26-Sep-2023 SAID35 WAEK 260600 METAR WAEK 260600Z 20010KT 9999 SCT019y32/21yQ1007=
27-Sep-2023 SAID35 WAEK 270300 METAR WAEK 270300Z 21008KT 9999 SCT019y31/23yQ1010=
27-Sep-2023 SAID35 WAEK 270600 METAR WAEK 270600Z 21012KT 9999 SCT019y33/22yQ1008=
28-Sep-2023 SAID35 WAEK 280300 METAR WAEK 280300Z 22010KT 9999 SCT019y32/22yQ1011=
28-Sep-2023 SAID35 WAEK 280600 METAR WAEK 280600Z 23008KT 9999 SCT019y33/23yQ1008=
29-Sep-2023 SAID35 WAEK 290000 METAR WAEK 290000Z 20003KT 9999 SCT019y28/25yQ1012=
29-Sep-2023 SAID35 WAEK 290300 METAR WAEK 290300Z 25008KT 9999 SCT019y31/22yQ1011=
29-Sep-2023 SAID35 WAEK 290600 METAR WAEK 290600Z 24009KT 9999 SCT019y33/23yQ1009=
