13-Jul-2013 SAID35 WADB 130700 METAR WAFB 130700Z 19012KT 9999 FEW015 32/23 Q1006=
27-Mar-2014 SAID35 WADB 270700 METAR WAFB 270700Z 35010KT 5000 HZ FEW015CB SCT017 33/25 Q1006=
