01-Jan-2023 SAID35 WAGB 010730 METAR WAGB 010730Z 24005KT 9999 FEW015 34/21 Q1007 NOSIG=  
02-Jan-2023 SAID35 WAGB 020300 METAR WAGB 020300Z 00000KT 9999 SCT014 30/24 Q1011 NOSIG=  
03-Jan-2023 SAID35 WAGB 030630 METAR WAGB 030630Z 25004KT 9999 BKN014 32/24 Q1008 NOSIG=  
05-Jan-2023 SAID35 WAGB 050200 METAR WAGB 050200Z 31004KT 9999 SCT011 29/23 Q1013 NOSIG=  
05-Jan-2023 SAID35 WAGB 050300 METAR WAGB 050300Z 20003KT 9000 SCT012 29/23 Q1011 NOSIG=  
05-Jan-2023 SAID35 WAGB 050330 METAR WAGB 050330Z 26006KT 9000 SCT012 29/23 Q1011 NOSIG=  
05-Jan-2023 SAID35 WAGB 050400 METAR WAGB 050400Z 24005KT 9999 SCT012 29/23 Q1010 NOSIG=  
05-Jan-2023 SAID35 WAGB 050430 METAR WAGB 050430Z 27005KT 9999 SCT012 30/23 Q1009 NOSIG=  
05-Jan-2023 SAID35 WAGB 050500 METAR WAGB 050500Z 22005KT 9999 SCT012 30/23 Q1009 NOSIG=  
06-Jan-2023 SAID35 WAGB 060300 METAR WAGB 060300Z 25004KT 9000 BKN008 28/25 Q1012 NOSIG=  
06-Jan-2023 SAID35 WAGB 060330 METAR WAGB 060330Z 29003KT 9000 BKN009 28/25 Q1011 NOSIG=  
01-Mar-2023 SAID35 WAGB 010000 METAR WAGB 010000Z 32003KT 5000 -RA BKN009 24/23 Q1014 NOSIG=  
01-Mar-2023 SAID35 WAGB 010030 METAR WAGB 010030Z 01003KT 5000 -RA BKN009 24/23 Q1014 NOSIG=  
01-Mar-2023 SAID35 WAGB 010100 METAR WAGB 010100Z 04002KT 5000 -RA BKN010 24/23 Q1014 NOSIG=  
01-Mar-2023 SAID35 WAGB 010130 METAR WAGB 010130Z 04003KT 5000 -RA BKN010 24/23 Q1015 NOSIG=  
01-Mar-2023 SAID35 WAGB 010200 METAR WAGB 010200Z 27003KT 5000 -RA BKN010 24/23 Q1015 NOSIG=  
01-Mar-2023 SAID35 WAGB 010230 METAR WAGB 010230Z 30002KT 5000 -RA BKN010 24/23 Q1015 NOSIG=  
01-Mar-2023 SAID35 WAGB 010300 METAR WAGB 010300Z 00000KT 5000 -RA BKN011 24/23 Q1012 NOSIG=  
01-Mar-2023 SAID35 WAGB 010300 CCA METAR WAGB 010300Z 00000KT 5000 -RA BKN011 24/23 Q1014 NOSIG=  
01-Mar-2023 SAID35 WAGB 010330 METAR WAGB 010330Z 33004KT 5000 -RA BKN011 24/23 Q1014 NOSIG=  
01-Mar-2023 SAID35 WAGB 010330 CCA METAR COR WAGB 010330Z 33004KT 5000 BKN011 24/23 Q1014 NOSIG RERA=  
01-Mar-2023 SAID35 WAGB 010330 CCB METAR COR WAGB 010330Z 33004KT 5000 BKN011 24/23 Q1014 RERA NOSIG=  
01-Mar-2023 SAID35 WAGB 010500 METAR WAGB 010500Z 35005KT 9000 SCT009 26/25 Q1012 NOSIG=  
01-Mar-2023 SAID35 WAGB 010530 METAR WAGB 010530Z 35006KT 9000 SCT009 27/25 Q1011 NOSIG=  
01-Mar-2023 SAID35 WAGB 010600 METAR WAGB 010600Z 34006KT 9999 SCT010 27/25 Q1011 NOSIG=  
01-Mar-2023 SAID35 WAGB 010630 METAR WAGB 010630Z 00000KT 8000 BKN011 28/24 Q1011 NOSIG=  
01-Mar-2023 SAID35 WAGB 010700 METAR WAGB 010700Z 35006KT 9999 SCT011 27/25 Q1010 NOSIG=  
01-Mar-2023 SAID35 WAGB 010730 METAR WAGB 010730Z 35002KT 9999 SCT011 27/25 Q1010 NOSIG=  
01-Mar-2023 SAID35 WAGB 010800 METAR WAGB 010800Z 13002KT 9000 BKN011 28/25 Q1010 NOSIG=  
01-Mar-2023 SAID35 WAGB 010830 METAR WAGB 010830Z 00000KT 9000 BKN011 28/24 Q1010 NOSIG=  
01-Mar-2023 SAID35 WAGB 010900 METAR WAGB 010900Z 00000KT 8000 BKN011 28/25 Q1010 NOSIG=  
01-Mar-2023 SAID35 WAGB 010930 METAR WAGB 010930Z 00000KT 6000 VCSH BKN010 27/25 Q1011=  
01-Mar-2023 SAID35 WAGB 011000 METAR WAGB 011000Z 00000KT 7000 BKN010 27/25 Q1011 NOSIG=  
01-Mar-2023 SAID35 WAGB 011100 METAR WAGB 011100Z 00000KT 6000 BKN010 26/25 Q1011 NOSIG=  
01-Mar-2023 SAID35 WAGB 011130 METAR WAGB 011130Z 00000KT 5000 VCSH BKN010 26/25 Q1012=  
01-Mar-2023 SAID35 WAGB 011200 METAR WAGB 011200Z 00000KT 6000 BKN010 26/25 Q1012=  
01-Mar-2023 SAID35 WAGB 011230 METAR WAGB 011230Z 00000KT 6000 BKN010 26/25 Q1013=  
01-Mar-2023 SAID35 WAGB 011300 METAR WAGB 011300Z 00000KT 6000 BKN010 26/25 Q1013=  
01-Mar-2023 SAID35 WAGB 011330 METAR WAGB 011330Z 00000KT 6000 BKN010 26/25 Q1014=  
01-Mar-2023 SAID35 WAGB 011400 METAR WAGB 011400Z 00000KT 6000 BKN010 26/25 Q1014=  
01-Mar-2023 SAID35 WAGB 011430 METAR WAGB 011430Z 00000KT 6000 BKN010 26/25 Q1014=  
01-Mar-2023 SAID35 WAGB 011500 METAR WAGB 011500Z 00000KT 5000 VCSH BKN010 26/25 Q1014=  
01-Mar-2023 SPID33 WAGB 011515 SPECI WAGB 011515Z 00000KT 5000 -RA BKN010 26/25 Q1014=  
01-Mar-2023 SAID35 WAGB 011530 METAR WAGB 011530Z 00000KT 5000 -RA BKN010 26/25 Q1014=  
01-Mar-2023 SAID35 WAGB 011600 METAR WAGB 011600Z 00000KT 5000 VCSH BKN010 25/25 Q1014 RERA=  
01-Mar-2023 SAID35 WAGB 011630 METAR WAGB 011630Z 00000KT 5000 VCSH BKN010 25/25 Q1013=  
01-Mar-2023 SAID35 WAGB 011700 METAR WAGB 011700Z 00000KT 5000 VCSH BKN010 25/24 Q1013=  
01-Mar-2023 SAID35 WAGB 011730 METAR WAGB 011730Z 00000KT 5000 VCSH BKN010 25/24 Q1013=  
01-Mar-2023 SAID35 WAGB 011800 METAR WAGB 011800Z 00000KT 5000 VCSH BKN010 25/24 Q1012=  
01-Mar-2023 SAID35 WAGB 011830 METAR WAGB 011830Z 00000KT 5000 VCSH BKN010 25/24 Q1012=  
01-Mar-2023 SAID35 WAGB 011900 METAR WAGB 011900Z 00000KT 5000 VCSH BKN010 25/24 Q1011=  
01-Mar-2023 SAID35 WAGB 011930 METAR WAGB 011930Z 00000KT 5000 VCSH BKN010 25/24 Q1011=  
01-Mar-2023 SAID35 WAGB 012000 METAR WAGB 012000Z 00000KT 5000 HZ BKN010 24/24 Q1011=  
01-Mar-2023 SAID35 WAGB 012030 METAR WAGB 012030Z 00000KT 5000 HZ BKN010 24/24 Q1011=  
01-Mar-2023 SAID35 WAGB 012100 METAR WAGB 012100Z 00000KT 5000 HZ BKN009 24/24 Q1011=  
01-Mar-2023 SAID35 WAGB 012130 METAR WAGB 012130Z 00000KT 5000 HZ BKN009 24/24 Q1011=  
01-Mar-2023 SAID35 WAGB 012200 METAR WAGB 012200Z 00000KT 5000 HZ BKN009 24/24 Q1011=  
01-Mar-2023 SAID35 WAGB 012230 METAR WAGB 012230Z 00000KT 5000 HZ BKN009 24/24 Q1012=  
01-Mar-2023 SAID35 WAGB 012300 METAR WAGB 012300Z 00000KT 5000 HZ BKN009 24/24 Q1012=  
01-Mar-2023 SAID35 WAGB 012330 METAR WAGB 012330Z 00000KT 5000 HZ BKN009 24/24 Q1012=  
02-Mar-2023 SAID35 WAGB 020000 METAR WAGB 020000Z 00000KT 4000 BR BKN010 25/24 Q1013=  
02-Mar-2023 SAID35 WAGB 020030 METAR WAGB 020030Z 00000KT 4000 -RA BKN010 24/24 Q1013=  
02-Mar-2023 SAID35 WAGB 020100 METAR WAGB 020100Z 00000KT 6000 BKN010 25/24 Q1013 NOSIG=  
02-Mar-2023 SAID35 WAGB 020130 METAR WAGB 020130Z 00000KT 7000 BKN010 26/24 Q1013 NOSIG=  
02-Mar-2023 SAID35 WAGB 020200 METAR WAGB 020200Z 00000KT 8000 BKN012 27/24 Q1013 NOSIG=  
02-Mar-2023 SAID35 WAGB 020300 METAR WAGB 020200Z 00000KT 8000 BKN012 27/24 Q1013 NOSIG=  
02-Mar-2023 SAID35 WAGB 020300 METAR WAGB 020300Z 00000KT 9000 SCT010 30/24 Q1012 NOSIG=  
02-Mar-2023 SAID35 WAGB 020330 METAR WAGB 020330Z 03003KT 9999 BKN010 31/24 Q1012 NOSIG=  
02-Mar-2023 SAID35 WAGB 020400 METAR WAGB 020400Z 00000KT 9999 BKN013 30/24 Q1012 NOSIG=  
02-Mar-2023 SAID35 WAGB 020430 METAR WAGB 020430Z 09004KT 9999 SCT012 32/23 Q1011 NOSIG=  
02-Mar-2023 SAID35 WAGB 020500 METAR WAGB 020500Z 01004KT 9999 SCT012 32/24 Q1011 NOSIG=  
02-Mar-2023 SAID35 WAGB 020530 METAR WAGB 020530Z 03005KT 9999 SCT012 32/24 Q1011 NOSIG=  
02-Mar-2023 SAID35 WAGB 020600 METAR WAGB 020600Z 00000KT 9999 SCT013 31/24 Q1010 NOSIG=  
02-Mar-2023 SAID35 WAGB 020630 METAR WAGB 020630Z 06003KT 9999 SCT013 31/24 Q1010 NOSIG=  
02-Mar-2023 SAID35 WAGB 020700 METAR WAGB 020700Z 07003KT 9999 SCT013 32/24 Q1010 NOSIG=  
02-Mar-2023 SAID35 WAGB 020730 METAR WAGB 020730Z 00000KT 9999 SCT013 32/24 Q1009 NOSIG=  
02-Mar-2023 SAID35 WAGB 020800 METAR WAGB 020800Z 08004KT 9999 SCT014 32/24 Q1009 NOSIG=  
02-Mar-2023 SAID35 WAGB 020830 METAR WAGB 020830Z 00000KT 9999 SCT014 32/24 Q1009 NOSIG=  
02-Mar-2023 SAID35 WAGB 020900 METAR WAGB 020900Z 00000KT 9999 FEW015TCU SCT016 33/24 Q1009 NOSIG=  
02-Mar-2023 SAID35 WAGB 020930 METAR WAGB 020930Z 00000KT 9999 FEW015TCU SCT016 33/24 Q1009 NOSIG=  
02-Mar-2023 SAID35 WAGB 021000 METAR WAGB 021000Z 00000KT 9999 FEW015CB FEW016 32/24 Q1009 NOSIG=  
02-Mar-2023 SAID35 WAGB 021030 METAR WAGB 021030Z 00000KT 9999 FEW015CB FEW016 31/24 Q1010 NOSIG=  
02-Mar-2023 SAID35 WAGB 021100 METAR WAGB 021100Z 00000KT 9999 FEW015CB FEW016 30/25 Q1011 NOSIG=  
02-Mar-2023 SAID35 WAGB 021130 METAR WAGB 021130Z 00000KT 9000 FEW015CB FEW016 30/25 Q1011 NOSIG=  
02-Mar-2023 SAID35 WAGB 021200 METAR WAGB 021200Z 00000KT 9000 VCTS FEW015CB 29/25 Q1011=  
02-Mar-2023 SAID35 WAGB 021230 METAR WAGB 021230Z 00000KT 9000 VCTS FEW015CB 29/25 Q1012=  
02-Mar-2023 SAID35 WAGB 021300 METAR WAGB 021300Z 00000KT 9000 VCTS FEW014CB FEW015 28/25 Q1012=  
02-Mar-2023 SAID35 WAGB 021330 METAR WAGB 021330Z 00000KT 9000 VCTS FEW014CB FEW015 28/25 Q1012=  
02-Mar-2023 SAID35 WAGB 021400 METAR WAGB 021400Z 00000KT 8000 FEW014CB FEW015 28/26 Q1013=  
02-Mar-2023 SAID35 WAGB 021430 METAR WAGB 021430Z 00000KT 8000 FEW014CB FEW015 27/26 Q1013=  
02-Mar-2023 SAID35 WAGB 021500 METAR WAGB 021500Z 00000KT 8000 FEW014 27/25 Q1013=  
02-Mar-2023 SAID35 WAGB 021530 METAR WAGB 021530Z 00000KT 8000 FEW014 27/25 Q1013=  
02-Mar-2023 SAID35 WAGB 021600 METAR WAGB 021600Z 00000KT 8000 SCT013 27/25 Q1013=  
02-Mar-2023 SAID35 WAGB 021630 METAR WAGB 021630Z 00000KT 8000 SCT013 27/25 Q1013=  
02-Mar-2023 SAID35 WAGB 021700 METAR WAGB 021700Z 00000KT 7000 VCTS FEW012CB FEW013 26/24 Q1012=  
02-Mar-2023 SAID35 WAGB 021730 METAR WAGB 021730Z 20002KT 6000 TS FEW012CB FEW013 26/24 Q1013=  
02-Mar-2023 SAID35 WAGB 021800 METAR WAGB 021800Z 00000KT 7000 VCTS FEW012CB SCT013 26/24 Q1013=  
02-Mar-2023 SAID35 WAGB 021830 METAR WAGB 021830Z 33003KT 6000 -RA FEW012CB SCT013 26/24 Q1013=  
02-Mar-2023 SPID35 WAGB 021838 CCA SPECI WAGB 021838Z 03010KT 4000 RA FEW012CB SCT013 26/24 Q1013=  
02-Mar-2023 SAID35 WAGB 021900 METAR WAGB 021900Z 01007KT 3000 RA FEW012CB BKN013 24/23 Q1014=  
02-Mar-2023 SAID35 WAGB 021930 METAR WAGB 021930Z 06003KT 3000 TSRA FEW012CB BKN013 24/23 Q1014=  
02-Mar-2023 SAID35 WAGB 022000 METAR WAGB 022000Z 00000KT 3000 TSRA FEW012CB BKN013 24/21 Q1014=  
02-Mar-2023 SAID35 WAGB 022030 METAR WAGB 022030Z 00000KT 3000 RA FEW012CB BKN013 24/21 Q1014 RETS=  
02-Mar-2023 SAID35 WAGB 022100 METAR WAGB 022100Z 00000KT 3000 RA FEW011CB BKN012 22/22 Q1013=  
02-Mar-2023 SAID35 WAGB 022130 METAR WAGB 022130Z 00000KT 3000 -RA FEW011CB BKN012 22/22 Q1013=  
02-Mar-2023 SAID35 WAGB 022200 METAR WAGB 022200Z 00000KT 3000 -RA FEW010CB BKN011 22/22 Q1013=  
02-Mar-2023 SAID35 WAGB 022230 METAR WAGB 022230Z 00000KT 4000 -RA FEW010CB BKN011 22/22 Q1013=  
02-Mar-2023 SAID35 WAGB 022300 METAR WAGB 022300Z 00000KT 4000 -RA BKN011 22/22 Q1013=  
02-Mar-2023 SAID35 WAGB 022330 METAR WAGB 022330Z 00000KT 4000 BKN011 22/22 Q1013 RERA=  
03-Mar-2023 SAID35 WAGB 030000 METAR WAGB 030000Z 00000KT 4000 FEW009 23/22 Q1015 NOSIG=  
03-Mar-2023 SAID35 WAGB 030030 METAR WAGB 030030Z 00000KT 5000 FEW009 23/22 Q1015 NOSIG=  
03-Mar-2023 SAID35 WAGB 030100 METAR WAGB 030100Z 00000KT 5000 FEW010 23/22 Q1015 NOSIG=  
03-Mar-2023 SAID35 WAGB 030130 METAR WAGB 030130Z 00000KT 5000 FEW010 23/22 Q1015 NOSIG=  
03-Mar-2023 SAID35 WAGB 030200 METAR WAGB 030200Z 04003KT 6000 SCT010 24/23 Q1015 NOSIG=  
03-Mar-2023 SAID35 WAGB 030200 CCA METAR WAGB 030200Z 02005KT 5000 BKN009 25/22 Q1014 NOSIG=  
03-Mar-2023 SAID35 WAGB 030230 METAR WAGB 030230Z 33003KT 5000 BKN009 25/23 Q1014 NOSIG=  
03-Mar-2023 SAID35 WAGB 030300 METAR WAGB 030300Z 35004KT 7000 SCT010 26/23 Q1014 NOSIG=  
03-Mar-2023 SAID35 WAGB 030330 METAR WAGB 030330Z 02003KT 8000 SCT010 28/23 Q1014 NOSIG=  
03-Mar-2023 SAID35 WAGB 030400 CCA METAR WAGB 030400Z 29004KT 9000 SCT011 28/24 Q1014 NOSIG=  
03-Mar-2023 SAID35 WAGB 030400 METAR WAGB 030400Z 29004KT 9000 SCT011 28/23 Q1014 NOSIG=  
03-Mar-2023 SAID35 WAGB 030430 METAR WAGB 030430Z VRB02KT 9000 FEW011 29/23 Q1013 NOSIG=  
03-Mar-2023 SAID35 WAGB 030500 METAR WAGB 030500Z 00000KT 9999 FEW012 29/23 Q1013 NOSIG=  
03-Mar-2023 SAID35 WAGB 030530 METAR WAGB 030530Z VRB02KT 9999 FEW012 30/22 Q1012 NOSIG=  
03-Mar-2023 SAID35 WAGB 030600 METAR WAGB 030600Z 19003KT 9999 SCT012 29/24 Q1012 NOSIG=  
03-Mar-2023 SAID35 WAGB 030630 METAR WAGB 030630Z 00000KT 9999 SCT012 29/24 Q1012 NOSIG=  
03-Mar-2023 SAID35 WAGB 030700 METAR WAGB 030700Z 22004KT 9999 SCT012 30/24 Q1011 NOSIG=  
03-Mar-2023 SAID35 WAGB 030730 METAR WAGB 030730Z 21003KT 9999 SCT012 30/24 Q1011 NOSIG=  
03-Mar-2023 SAID35 WAGB 030800 METAR WAGB 030800Z 00000KT 9999 FEW012TCU SCT013 30/24 Q1010 NOSIG=  
03-Mar-2023 SAID35 WAGB 030830 METAR WAGB 030830Z 00000KT 9999 FEW012TCU SCT013 30/24 Q1010 NOSIG=  
03-Mar-2023 SAID35 WAGB 030900 METAR WAGB 030900Z 00000KT 9999 FEW013CB SCT014 29/24 Q1010 NOSIG=  
03-Mar-2023 SAID35 WAGB 030930 METAR WAGB 030930Z 00000KT 9999 FEW013CB SCT014 29/24 Q1010 NOSIG=  
03-Mar-2023 SAID35 WAGB 031000 METAR WAGB 031000Z 00000KT 9999 FEW013CB SCT014 29/25 Q1011 NOSIG=  
03-Mar-2023 SAID35 WAGB 031030 METAR WAGB 031030Z 00000KT 9999 FEW013CB SCT014 29/25 Q1011 NOSIG=  
03-Mar-2023 SAID35 WAGB 031100 METAR WAGB 031100Z 00000KT 9000 FEW013CB SCT014 28/25 Q1012 NOSIG=  
03-Mar-2023 SAID35 WAGB 031130 METAR WAGB 031130Z 00000KT 9000 FEW013CB SCT014 27/25 Q1012 NOSIG=  
03-Mar-2023 SAID35 WAGB 031200 METAR WAGB 031200Z 00000KT 8000 FEW013CB SCT014 27/25 Q1012 NOSIG=  
03-Mar-2023 SAID35 WAGB 031230 METAR WAGB 031230Z 00000KT 8000 FEW013CB SCT014 27/25 Q1012 NOSIG=  
03-Mar-2023 SAID35 WAGB 031300 METAR WAGB 031300Z 00000KT 8000 FEW014CB SCT015 27/25 Q1013 NOSIG=  
03-Mar-2023 SAID35 WAGB 031400 METAR WAGB 031400Z 00000KT 8000 FEW013CB SCT014 26/25 Q1014 NOSIG=  
03-Mar-2023 SAID35 WAGB 031430 METAR WAGB 031430Z 00000KT 8000 FEW013CB SCT014 26/25 Q1014 NOSIG=  
03-Mar-2023 SAID35 WAGB 031500 METAR WAGB 031500Z 00000KT 8000 SCT012 26/25 Q1014 NOSIG=  
03-Mar-2023 SAID35 WAGB 031530 METAR WAGB 031530Z 00000KT 8000 SCT012 26/25 Q1014 NOSIG=  
03-Mar-2023 SAID35 WAGB 031600 METAR WAGB 031600Z 00000KT 6000 SCT012 25/24 Q1013=  
03-Mar-2023 SAID35 WAGB 031630 METAR WAGB 031630Z 00000KT 6000 SCT012 25/24 Q1013=  
03-Mar-2023 SAID35 WAGB 031700 METAR WAGB 031700Z 00000KT 6000 SCT011 25/24 Q1013=  
03-Mar-2023 SAID35 WAGB 031730 METAR WAGB 031730Z 00000KT 6000 SCT011 25/24 Q1013=  
03-Mar-2023 SAID35 WAGB 031800 METAR WAGB 031800Z 00000KT 5000 HZ SCT011 25/24 Q1013=  
03-Mar-2023 SAID35 WAGB 031830 METAR WAGB 031830Z 00000KT 5000 HZ SCT011 25/24 Q1013=  
03-Mar-2023 SAID35 WAGB 031900 METAR WAGB 031900Z 00000KT 5000 HZ SCT010 25/24 Q1012=  
03-Mar-2023 SAID35 WAGB 031930 METAR WAGB 031930Z 00000KT 5000 HZ SCT010 25/24 Q1012=  
03-Mar-2023 SAID35 WAGB 032000 METAR WAGB 032000Z 00000KT 5000 HZ SCT010 24/23 Q1012=  
03-Mar-2023 SAID35 WAGB 032030 METAR WAGB 032030Z 00000KT 5000 HZ SCT010 24/23 Q1012=  
03-Mar-2023 SAID35 WAGB 032100 METAR WAGB 032100Z 00000KT 5000 HZ SCT010 24/23 Q1012=  
03-Mar-2023 SAID35 WAGB 032130 METAR WAGB 032130Z 00000KT 5000 HZ SCT010 24/23 Q1012=  
03-Mar-2023 SAID35 WAGB 032200 METAR WAGB 032200Z 00000KT 5000 BKN010 25/24 Q1013=  
03-Mar-2023 SAID35 WAGB 032230 METAR WAGB 032230Z 00000KT 5000 BKN010 25/24 Q1014=  
03-Mar-2023 SAID35 WAGB 032300 METAR WAGB 032300Z 00000KT 5000 HZ BKN010 25/24 Q1014=  
03-Mar-2023 SAID35 WAGB 032330 METAR WAGB 032330Z 00000KT 5000 HZ BKN010 25/24 Q1014=  
04-Mar-2023 SAID35 WAGB 040000 METAR WAGB 040000Z 00000KT 7000 BKN011 25/24 Q1015 NOSIG=  
04-Mar-2023 SAID35 WAGB 040030 METAR WAGB 040030Z 00000KT 7000 BKN011 26/24 Q1015 NOSIG=  
04-Mar-2023 SAID35 WAGB 040100 METAR WAGB 040100Z 00000KT 9000 BKN012 27/25 Q1015 NOSIG=  
04-Mar-2023 SAID35 WAGB 040130 METAR WAGB 040130Z 00000KT 9000 BKN012 27/25 Q1015 NOSIG=  
04-Mar-2023 SAID35 WAGB 040200 METAR WAGB 040200Z 27003KT 9000 BKN012 28/25 Q1015 NOSIG=  
04-Mar-2023 SAID35 WAGB 040230 METAR WAGB 040230Z 03004KT 8000 BKN012 30/24 Q1014 NOSIG=  
04-Mar-2023 SAID35 WAGB 040300 METAR WAGB 040300Z 02005KT 8000 BKN012 30/24 Q1014 NOSIG=  
04-Mar-2023 SAID35 WAGB 040330 METAR WAGB 040330Z 30004KT 8000 BKN012 30/24 Q1013 NOSIG=  
04-Mar-2023 SAID35 WAGB 040400 METAR WAGB 040400Z 01004KT 8000 BKN012 30/24 Q1013 NOSIG=  
04-Mar-2023 SAID35 WAGB 040430 METAR WAGB 040430Z 02003KT 6000 -SHRA BKN012 30/24 Q1013 TEMPO FM0500 RA=  
04-Mar-2023 SAID35 WAGB 040500 METAR WAGB 040500Z 36009KT 0200 RA BKN013 30/24 Q1013 NOSIG=  
04-Mar-2023 SAID35 WAGB 040530 METAR WAGB 040530Z 03005KT 5000 BKN013 27/25 Q1011=  
04-Mar-2023 SAID35 WAGB 040530 CCA METAR COR WAGB 040530Z 03005KT 5000 DZ BKN013 27/25 Q1011=  
04-Mar-2023 SAID35 WAGB 040600 METAR WAGB 040600Z 18004KT 7000 RA FEW013CB BKN014 26/24 Q1012 NOSIG=  
04-Mar-2023 SAID35 WAGB 040630 METAR WAGB 040630Z 28003KT 7000 TSRA FEW013CB BKN014 25/24 Q1011 NOSIG=  
04-Mar-2023 SAID35 WAGB 040700 METAR WAGB 040700Z 03003KT -RA 7000 FEW013CB BKN014 25/24 Q1011 RETS NOSIG=  
04-Mar-2023 SAID35 WAGB 040730 METAR WAGB 040730Z 03003KT 8000 FEW013CB BKN014 25/24 Q1011 NOSIG=  
04-Mar-2023 SAID35 WAGB 040800 METAR WAGB 040800Z 03003KT 8000 FEW013CB SCT014 26/25 Q1011 NOSIG=  
04-Mar-2023 SAID35 WAGB 040900 METAR WAGB 040900Z 35003KT 8000 FEW013CB FEW014 26/24 Q1011 NOSIG=  
04-Mar-2023 SAID35 WAGB 040930 METAR WAGB 040930Z 01003KT 8000 FEW013CB FEW014 26/24 Q1011 NOSIG=  
04-Mar-2023 SAID35 WAGB 041100 METAR WAGB 041100Z 00000KT 7000 VCTS FEW012CB SCT013 25/24 Q1013 NOSIG=  
04-Mar-2023 SAID35 WAGB 041200 METAR WAGB 041200Z 00000KT 7000 VCTS FEW012CB SCT013 25/24 Q1014=  
04-Mar-2023 SAID35 WAGB 041230 METAR WAGB 041230Z 00000KT 7000 VCTS FEW012CB SCT013 25/24 Q1014=  
04-Mar-2023 SAID35 WAGB 041300 METAR WAGB 041300Z 00000KT 7000 VCTS FEW012CB 25/24 Q1015=  
04-Mar-2023 SAID35 WAGB 041330 METAR WAGB 041330Z 00000KT 7000 VCTS FEW012CB 25/24 Q1015=  
04-Mar-2023 SAID35 WAGB 041400 METAR WAGB 041400Z 25006KT 5000 -RA FEW011CB BKN012 25/24 Q1010=  
04-Mar-2023 SAID35 WAGB 041430 METAR WAGB 041430Z 25006KT 5000 -RA FEW011CB BKN012 25/24 Q1010=  
04-Mar-2023 SAID35 WAGB 041500 METAR WAGB 041500Z 00000KT 5000 -RA FEW011CB BKN012 26/24 Q1016=  
04-Mar-2023 SAID35 WAGB 041530 METAR WAGB 041530Z 00000KT 5000 -RA FEW011CB BKN012 26/24 Q1016=  
04-Mar-2023 SAID35 WAGB 041600 METAR WAGB 041600Z 00000KT 5000 -RA FEW011CB BKN012 24/24 Q1016=  
04-Mar-2023 SAID35 WAGB 041630 METAR WAGB 041630Z 00000KT 5000 -RA FEW011CB BKN012 24/24 Q1016=  
04-Mar-2023 SAID35 WAGB 041700 METAR WAGB 041700Z 00000KT 4000 -RA FEW011CB BKN012 24/23 Q1015=  
04-Mar-2023 SAID35 WAGB 041730 METAR WAGB 041730Z 00000KT 4000 -RA FEW011CB BKN012 24/23 Q1015=  
04-Mar-2023 SAID35 WAGB 041800 METAR WAGB 041800Z 00000KT 4000 -RA FEW011CB BKN012 24/23 Q1015=  
04-Mar-2023 SAID35 WAGB 041830 METAR WAGB 041830Z 00000KT 4000 -RA FEW011CB BKN012 24/23 Q1015=  
04-Mar-2023 SAID35 WAGB 041900 METAR WAGB 041900Z 00000KT 4000 -RA BKN010 24/23 Q1014=  
04-Mar-2023 SAID35 WAGB 041930 METAR WAGB 041930Z 00000KT 4000 -RA BKN010 24/23 Q1014=  
04-Mar-2023 SAID35 WAGB 042000 METAR WAGB 042000Z 00000KT 4000 -RA BKN010 24/23 Q1014=  
04-Mar-2023 SAID35 WAGB 042030 METAR WAGB 042030Z 00000KT 4000 -RA BKN010 24/23 Q1014=  
04-Mar-2023 SAID35 WAGB 042100 METAR WAGB 042100Z 00000KT 4000 BKN010 24/23 Q1013 RERA=  
04-Mar-2023 SAID35 WAGB 042130 METAR WAGB 042130Z 00000KT 4000 BKN010 24/23 Q1013=  
04-Mar-2023 SAID35 WAGB 042200 METAR WAGB 042200Z 00000KT 5000 VCSH BKN010 24/23 Q1013=  
04-Mar-2023 SAID35 WAGB 042230 METAR WAGB 042230Z 00000KT 5000 VCSH BKN010 24/23 Q1013=  
04-Mar-2023 SAID35 WAGB 042300 METAR WAGB 042300Z 00000KT 5000 VCSH BKN010 24/23 Q1013=  
04-Mar-2023 SAID35 WAGB 042330 METAR WAGB 042330Z 00000KT 5000 VCSH BKN010 24/23 Q1013=  
05-Mar-2023 SAID35 WAGB 050000 METAR WAGB 050000Z 00000KT 5000 BR BKN010 23/22 Q1015 BECMG FM0100 7000 NSW=  
05-Mar-2023 SAID35 WAGB 050030 METAR WAGB 050030Z 00000KT 5000 BR BKN010 23/22 Q1015 BECMG FM0100 7000 NSW=  
05-Mar-2023 SAID35 WAGB 050100 METAR WAGB 050100Z 00000KT 6000 BKN010 24/23 Q1015 NOSIG=  
05-Mar-2023 SAID35 WAGB 050130 METAR WAGB 050130Z 00000KT 6000 BKN010 24/23 Q1015 NOSIG=  
05-Mar-2023 SAID35 WAGB 050200 METAR WAGB 050200Z 00000KT 7000 BKN011 25/23 Q1015 NOSIG=  
05-Mar-2023 SAID35 WAGB 050230 METAR WAGB 050230Z 29003KT 8000 BKN011 26/24 Q1015 NOSIG=  
05-Mar-2023 SAID35 WAGB 050300 METAR WAGB 050300Z 25003KT 8000 BKN011 27/24 Q1015 NOSIG=  
05-Mar-2023 SAID35 WAGB 050330 METAR WAGB 050330Z 00000KT 8000 BKN011 27/24 Q1015 NOSIG=  
05-Mar-2023 SAID35 WAGB 050400 METAR WAGB 050400Z 03003KT 8000 BKN011 27/24 Q1014 NOSIG=  
05-Mar-2023 SAID35 WAGB 050430 METAR WAGB 050430Z 30003KT 8000 BKN012 28/25 Q1014 NOSIG=  
05-Mar-2023 SAID35 WAGB 050500 METAR WAGB 050500Z 32003KT 9000 BKN012 28/25 Q1014 NOSIG=  
05-Mar-2023 SAID35 WAGB 050530 METAR WAGB 050530Z 00000KT 9000 BKN012 28/25 Q1013 NOSIG=  
05-Mar-2023 SAID35 WAGB 050600 METAR WAGB 050600Z 33003KT 8000 VCSH BKN012 28/23 Q1012 NOSIG=  
05-Mar-2023 SAID35 WAGB 050630 METAR WAGB 050630Z 00000KT 8000 VCSH BKN012 28/23 Q1012 NOSIG=  
05-Mar-2023 SAID35 WAGB 050700 METAR WAGB 050700Z 00000KT 9000 BKN02 29/23 Q1011 NOSIG=  
05-Mar-2023 SAID35 WAGB 050700 CCA METAR COR WAGB 050700Z 00000KT 9000 BKN012 29/23 Q1011 NOSIG=  
05-Mar-2023 SAID35 WAGB 050730 METAR WAGB 050730Z 00000KT 9000 BKN012 29/23 Q1011 NOSIG=  
05-Mar-2023 SAID35 WAGB 050730 CCA METAR COR WAGB 050730Z 09003KT 9000 BKN012 29/23 Q1011 NOSIG=  
05-Mar-2023 SAID35 WAGB 050800 METAR WAGB 050800Z 27002KT 9999 SCT012 29/23 Q1011 NOSIG=  
05-Mar-2023 SAID35 WAGB 050830 METAR WAGB 050830Z 04003KT 9999 SCT012 29/23 Q1010 NOSIG=  
05-Mar-2023 SAID35 WAGB 050900 METAR WAGB 050900Z 03003KT 9999 SCT012 29/24 Q1011 NOSIG=  
05-Mar-2023 SAID35 WAGB 050930 METAR WAGB 050930Z 04002KT 9999 SCT012 29/24 Q1011 NOSIG=  
05-Mar-2023 SAID35 WAGB 051000 METAR WAGB 051000Z 00000KT 9999 BKN012 29/25 Q1011 NOSIG=  
05-Mar-2023 SAID35 WAGB 051030 METAR WAGB 051030Z 00000KT 9999 BKN012 29/25 Q1011 NOSIG=  
05-Mar-2023 SAID35 WAGB 051100 METAR WAGB 051100Z 00000KT 8000 SCT012 27/25 Q1012 NOSIG=  
05-Mar-2023 SAID35 WAGB 051130 METAR WAGB 051130Z 00000KT 8000 SCT012 27/25 Q1013 NOSIG=  
05-Mar-2023 SAID35 WAGB 051200 METAR WAGB 051200Z 00000KT 7000 SCT012 27/24 Q1013=  
05-Mar-2023 SAID35 WAGB 051230 METAR WAGB 051230Z 00000KT 7000 SCT012 27/24 Q1013=  
05-Mar-2023 SAID35 WAGB 051300 METAR WAGB 051300Z 00000KT 7000 VCTS FEW011CB BKN012 26/25 Q1014=  
05-Mar-2023 SAID35 WAGB 051330 METAR WAGB 051330Z 00000KT 7000 VCTS FEW011CB BKN012 26/25 Q1015=  
05-Mar-2023 SAID35 WAGB 051400 METAR WAGB 051400Z 00000KT 7000 VCTS FEW011CB BKN012 26/25 Q1015=  
05-Mar-2023 SAID35 WAGB 051430 METAR WAGB 051430Z 00000KT 7000 VCTS FEW011CB BKN012 26/25 Q1015=  
05-Mar-2023 SAID35 WAGB 051500 METAR WAGB 051500Z 00000KT 6000 BKN011 25/24 Q1015 RERA=  
05-Mar-2023 SAID35 WAGB 051530 METAR WAGB 051530Z 00000KT 6000 VCSH BKN011 25/24 Q1015=  
05-Mar-2023 SAID35 WAGB 051600 METAR WAGB 051600Z 00000KT 5000 VCSH BKN011 24/22 Q1015=  
05-Mar-2023 SAID35 WAGB 051630 METAR WAGB 051630Z 00000KT 4000 -RA BKN011 24/22 Q1015=  
05-Mar-2023 SAID35 WAGB 051700 METAR WAGB 051700Z 00000KT 4000 -RA BKN010 24/22 Q1014=  
05-Mar-2023 SAID35 WAGB 051730 METAR WAGB 051730Z 00000KT 5000 VCSH BKN010 24/22 Q1013 RERA=  
05-Mar-2023 SAID35 WAGB 051800 METAR WAGB 051800Z 00000KT 5000 VCSH BKN010 23/23 Q1013=  
05-Mar-2023 SAID35 WAGB 051830 METAR WAGB 051830Z 00000KT 5000 VCSH BKN010 23/23 Q1013=  
05-Mar-2023 SAID35 WAGB 051900 METAR WAGB 051900Z 00000KT 5000 HZ BKN010 23/23 Q1013=  
05-Mar-2023 SAID35 WAGB 051930 METAR WAGB 051930Z 00000KT 5000 HZ BKN010 23/23 Q1012=  
05-Mar-2023 SAID35 WAGB 052000 METAR WAGB 052000Z 00000KT 5000 HZ BKN010 23/23 Q1012=  
05-Mar-2023 SAID35 WAGB 052030 METAR WAGB 052030Z 00000KT 5000 HZ BKN010 23/23 Q1012=  
05-Mar-2023 SAID35 WAGB 052100 METAR WAGB 052100Z 00000KT 5000 HZ BKN010 23/22 Q1012=  
05-Mar-2023 SAID35 WAGB 052130 METAR WAGB 052130Z 00000KT 5000 HZ BKN010 23/22 Q1013=  
05-Mar-2023 SAID35 WAGB 052200 METAR WAGB 052200Z 00000KT 5000 HZ BKN010 23/22 Q1013=  
05-Mar-2023 SAID35 WAGB 052230 METAR WAGB 052230Z 00000KT 5000 HZ BKN010 23/22 Q1013=  
05-Mar-2023 SAID35 WAGB 052300 METAR WAGB 052300Z 00000KT 6000 SCT011 23/22 Q1013=  
05-Mar-2023 SAID35 WAGB 052330 METAR WAGB 052330Z 00000KT 6000 SCT011 23/22 Q1014=  
06-Mar-2023 SAID35 WAGB 060000 METAR WAGB 060000Z 00000KT 6000 BKN011 23/22 Q1014 NOSIG=  
06-Mar-2023 SAID35 WAGB 060030 METAR WAGB 060030Z 00000KT 6000 BKN011 23/22 Q1014 NOSIG=  
06-Mar-2023 SAID35 WAGB 060100 METAR WAGB 060100Z 00000KT 6000 SCT012 25/23 Q1014 NOSIG=  
06-Mar-2023 SAID35 WAGB 060130 METAR WAGB 060130Z 00000KT 6000 SCT012 25/23 Q1014 NOSIG=  
06-Mar-2023 SAID35 WAGB 060200 METAR WAGB 060200Z 00000KT 8000 SCT012 28/23 Q1014 NOSIG=  
06-Mar-2023 SAID35 WAGB 060230 METAR WAGB 060230Z 00000KT 8000 SCT012 28/23 Q1014 NOSIG=  
06-Mar-2023 SAID35 WAGB 060300 METAR WAGB 060300Z 20002KT 9000 SCT012 30/24 Q1013 NOSIG=  
06-Mar-2023 SAID35 WAGB 060330 METAR WAGB 060330Z 18003KT 9000 BKN012 30/23 Q1013 NOSIG=  
06-Mar-2023 SAID35 WAGB 060400 METAR WAGB 060400Z 24003KT 9999 BKN012 31/23 Q1013 NOSIG=  
06-Mar-2023 SAID35 WAGB 060430 METAR WAGB 060430Z 31002KT 9999 BKN012 32/23 Q1012 NOSIG=  
06-Mar-2023 SAID35 WAGB 060500 METAR WAGB 060500Z 21005KT 9999 FEW012TCU BKN013 32/22 Q1011 NOSIG=  
06-Mar-2023 SAID35 WAGB 060530 METAR WAGB 060530Z 21005KT 9999 FEW012TCU BKN013 32/22 Q1011 NOSIG=  
06-Mar-2023 SAID35 WAGB 060600 METAR WAGB 060600Z 18003KT 9999 VCSH FEW011CB SCT012 32/24 Q1010 NOSIG=  
06-Mar-2023 SAID35 WAGB 060630 METAR WAGB 060630Z 00000KT 9999 FEW011CB SCT012 32/24 Q1010 NOSIG=  
06-Mar-2023 SAID35 WAGB 060700 METAR WAGB 060700Z 00000KT 9999 SCT013 32/24 Q1009 NOSIG=  
06-Mar-2023 SAID35 WAGB 060730 METAR WAGB 060730Z 21005KT 9999 SCT013 32/24 Q1009 NOSIG=  
06-Mar-2023 SAID35 WAGB 060800 METAR WAGB 060800Z 24003KT 9999 FEW011CB SCT012 32/24 Q1009 NOSIG=  
06-Mar-2023 SPID35 WAGB 060823 CCA SPECI COR WAGB 060823Z 00000KT 9000 -RA FEW011CB SCT012 32/24 Q1009=  
06-Mar-2023 SAID35 WAGB 060830 METAR WAGB 060830Z 20004KT 9999 FEW011CB SCT012 32/24 Q1009 RERA NOSIG=  
06-Mar-2023 SAID35 WAGB 060900 METAR WAGB 060900Z 00000KT 9999 FEW011TCU SCT012 31/25 Q1008 NOSIG=  
06-Mar-2023 SAID35 WAGB 060930 CCA METAR COR WAGB 060930Z 08003KT 9999 FEW011TCU SCT012 31/25 Q1009 NOSIG=  
06-Mar-2023 SAID35 WAGB 060930 METAR WAGB 060930Z 08003KT 9999 FEW011TCU SCT012 31/25 Q1008 NOSIG=  
06-Mar-2023 SAID35 WAGB 061000 METAR WAGB 061000Z 00000KT 9999 SCT012 31/25 Q1009 NOSIG=  
06-Mar-2023 SAID35 WAGB 061030 METAR WAGB 061030Z 00000KT 9999 SCT012 31/25 Q1010 NOSIG=  
06-Mar-2023 SAID35 WAGB 061100 METAR WAGB 061100Z 00000KT 9000 SCT012 29/25 Q1010 NOSIG=  
06-Mar-2023 SAID35 WAGB 061130 METAR WAGB 061130Z 00000KT 8000 SCT012 29/25 Q1010 NOSIG=  
06-Mar-2023 SAID35 WAGB 061200 METAR WAGB 061200Z 00000KT 8000 VCTS FEW013CB FEW014 28/25 Q1011=  
06-Mar-2023 SAID35 WAGB 061230 METAR WAGB 061230Z 00000KT 8000 VCTS FEW013CB FEW014 28/25 Q1011=  
06-Mar-2023 SAID35 WAGB 061300 METAR WAGB 061300Z 20003KT 6000 -TSRA FEW012CB BKN013 26/24 Q1012=  
06-Mar-2023 SAID35 WAGB 061330 METAR WAGB 061330Z 21003KT 6000 -TSRA FEW012CB BKN013 25/24 Q1013=  
06-Mar-2023 SAID35 WAGB 061400 METAR WAGB 061400Z 00000KT 6000 -TSRA FEW012CB BKN013 25/24 Q1013=  
06-Mar-2023 SAID35 WAGB 061430 METAR WAGB 061430Z 00000KT 6000 -RA FEW012CB BKN013 25/24 Q1013 RETS=  
06-Mar-2023 SAID35 WAGB 061600 METAR WAGB 061600Z 00000KT 6000 FEW011CB BKN012 24/23 Q1013 RERA=  
06-Mar-2023 SAID35 WAGB 061700 METAR WAGB 061700Z 00000KT 5000 BR FEW011CB BKN012 24/23 Q1013=  
06-Mar-2023 SAID35 WAGB 061730 METAR WAGB 061730Z 00000KT 6000 SCT011 24/23 Q1012=  
06-Mar-2023 SAID35 WAGB 061800 METAR WAGB 061800Z 00000KT 6000 SCT011 23/22 Q1012=  
06-Mar-2023 SAID35 WAGB 061830 METAR WAGB 061830Z 00000KT 6000 SCT011 23/22 Q1012=  
06-Mar-2023 SAID35 WAGB 061900 METAR WAGB 061900Z 00000KT 5000 BR SCT011 23/22 Q1011=  
06-Mar-2023 SAID35 WAGB 061930 METAR WAGB 061930Z 00000KT 5000 BR SCT011 23/22 Q1012=  
06-Mar-2023 SAID35 WAGB 062000 METAR WAGB 062000Z 00000KT 5000 BR SCT011 23/22 Q1012=  
06-Mar-2023 SAID35 WAGB 062030 METAR WAGB 062030Z 00000KT 5000 BR SCT011 23/22 Q1012=  
06-Mar-2023 SAID35 WAGB 062100 METAR WAGB 062100Z 00000KT 5000 BR SCT011 23/22 Q1012=  
06-Mar-2023 SAID35 WAGB 062130 METAR WAGB 062103Z 00000KT 5000 BR SCT011 23/22 Q1012=  
06-Mar-2023 SAID35 WAGB 062200 METAR WAGB 062200Z 00000KT 5000 BR SCT011 23/22 Q1012=  
06-Mar-2023 SAID35 WAGB 062230 METAR WAGB 062230Z 00000KT 5000 BR FEW011 23/22 Q1012=  
06-Mar-2023 SAID35 WAGB 062300 METAR WAGB 062300Z 00000KT 5000 BR FEW010 23/23 Q1012=  
06-Mar-2023 SAID35 WAGB 062330 METAR WAGB 062330Z 00000KT 7000 SCT010 24/23 Q1013=  
07-Mar-2023 SAID35 WAGB 070000 METAR WAGB 070000Z 00000KT 7000 BKN010 24/23 Q1013 NOSIG=  
07-Mar-2023 SAID35 WAGB 070030 METAR WAGB 070030Z 04002KT 7000 BKN010 24/23 Q1014 NOSIG=  
07-Mar-2023 SAID35 WAGB 070100 METAR WAGB 070100Z 30004KT 7000 BKN010 25/23 Q1014 NOSIG=  
07-Mar-2023 SAID35 WAGB 070130 METAR WAGB 070130Z 01003KT 9000 BKN011 26/24 Q1014 NOSIG=  
07-Mar-2023 SAID35 WAGB 070200 METAR WAGB 070200Z 09003KT 9000 BKN011 27/24 Q1014 NOSIG=  
07-Mar-2023 SAID35 WAGB 070230 METAR WAGB 070230Z 21003KT 9000 BKN012 28/24 Q1014 NOSIG=  
07-Mar-2023 SAID35 WAGB 070300 METAR WAGB 070300Z 21003KT 9000 BKN012 29/24 Q1014 NOSIG=  
07-Mar-2023 SAID35 WAGB 070330 METAR WAGB 070330Z 25003KT 9000 BKN012 29/24 Q1013 NOSIG=  
07-Mar-2023 SAID35 WAGB 070400 METAR WAGB 070400Z 28006KT 9999 BKN013 30/23 Q1013 NOSIG=  
07-Mar-2023 SAID35 WAGB 070400 CCA METAR WAGB 070400Z 28006KT 9999 BKN013 30/23 Q1013 NOSIG=  
07-Mar-2023 SAID35 WAGB 070430 METAR WAGB 070430Z 27004KT 9999 BKN013 30/23 Q1013 NOSIG=  
07-Mar-2023 SAID35 WAGB 070500 METAR WAGB 070500Z 29005KT 9999 BKN013 31/23 Q1012 NOSIG=  
07-Mar-2023 SAID35 WAGB 070530 METAR WAGB 070530Z 26003KT 9999 BKN013 31/23 Q1012 NOSIG=  
07-Mar-2023 SAID35 WAGB 070600 METAR WAGB 070600Z 06004KT 9999 BKN012 32/25 Q1011 NOSIG=  
07-Mar-2023 SAID35 WAGB 070630 METAR WAGB 070630Z 00000KT 9999 BKN012 32/25 Q1011 NOSIG=  
07-Mar-2023 SAID35 WAGB 070700 METAR WAGB 070700Z 23005KT 9999 SCT013 32/24 Q1010 NOSIG=  
07-Mar-2023 SAID35 WAGB 070730 METAR WAGB 070730Z 00000KT 9999 SCT013 32/24 Q1009 NOSIG=  
07-Mar-2023 SAID35 WAGB 070800 METAR WAGB 070800Z 26004KT 9999 SCT014 32/24 Q1009 NOSIG=  
07-Mar-2023 SAID35 WAGB 070830 METAR WAGB 070830Z 24005KT 9999 SCT014 32/24 Q1009 NOSIG=  
07-Mar-2023 SAID35 WAGB 070900 METAR WAGB 070900Z 24003KT 9999 FEW014 32/24 Q1009 NOSIG=  
07-Mar-2023 SAID35 WAGB 070930 METAR WAGB 070930Z 24003KT 9999 FEW014 31/24 Q1009 NOSIG=  
07-Mar-2023 SAID35 WAGB 071000 METAR WAGB 071000Z 00000KT 9999 FEW014 28/26 Q1009 NOSIG=  
07-Mar-2023 SAID35 WAGB 071030 METAR WAGB 071030Z 00000KT 9999 FEW014 27/25 Q1010 NOSIG=  
07-Mar-2023 SAID35 WAGB 071100 METAR WAGB 071100Z 00000KT 9000 FEW014 29/25 Q1010 NOSIG=  
07-Mar-2023 SAID35 WAGB 071130 METAR WAGB 071130Z 00000KT 9000 FEW014 29/25 Q1010 NOSIG=  
07-Mar-2023 SAID35 WAGB 071200 METAR WAGB 071200Z 00000KT 7000 VCTS FEW013CB FEW014 28/25 Q1011 NOSIG=  
07-Mar-2023 SAID35 WAGB 071230 METAR WAGB 071230Z 00000KT 7000 VCTS FEW013CB FEW014 28/25 Q1011 NOSIG=  
07-Mar-2023 SAID35 WAGB 071300 METAR WAGB 071300Z 00000KT 7000 VCTS FEW012CB FEW013 27/25 Q1012=  
07-Mar-2023 SAID35 WAGB 071330 METAR WAGB 071330Z 00000KT 7000 VCTS FEW012CB FEW013 27/25 Q1012=  
07-Mar-2023 SAID35 WAGB 071400 METAR WAGB 071400Z 00000KT 7000 FEW012CB 27/25 Q1013=  
07-Mar-2023 SAID35 WAGB 071430 METAR WAGB 071430Z 00000KT 7000 FEW012CB 27/25 Q1013=  
07-Mar-2023 SAID35 WAGB 071500 METAR WAGB 071500Z 00000KT 7000 FEW012CB 26/25 Q1012=  
07-Mar-2023 SAID35 WAGB 071530 METAR WAGB 071530Z 00000KT 7000 FEW012CB 26/25 Q1012=  
07-Mar-2023 SAID35 WAGB 071600 METAR WAGB 071600Z 00000KT 6000 FEW012CB BKN013 26/24 Q1013=  
07-Mar-2023 SAID35 WAGB 071630 METAR WAGB 071630Z 00000KT 6000 FEW011CB BKN012 26/24 Q1013=  
07-Mar-2023 SAID35 WAGB 071700 METAR WAGB 071700Z 00000KT 6000 FEW011CB 25/24 Q1012=  
07-Mar-2023 SAID35 WAGB 071730 METAR WAGB 071730Z 00000KT 6000 FEW011CB 25/24 Q1012=  
07-Mar-2023 SAID35 WAGB 071800 METAR WAGB 071800Z 00000KT 6000 FEW012 25/24 Q1012=  
07-Mar-2023 SAID35 WAGB 071830 METAR WAGB 071830Z 00000KT 6000 FEW012 25/24 Q1012=  
07-Mar-2023 SAID35 WAGB 071900 METAR WAGB 071900Z 00000KT 6000 FEW011 25/24 Q1012=  
07-Mar-2023 SAID35 WAGB 071930 METAR WAGB 071930Z 00000KT 6000 FEW011 25/24 Q1012=  
07-Mar-2023 SAID35 WAGB 072000 METAR WAGB 072000Z 00000KT 6000 FEW011 25/24 Q1011=  
07-Mar-2023 SAID35 WAGB 072030 METAR WAGB 072030Z 00000KT 6000 FEW011 25/24 Q1011=  
07-Mar-2023 SAID35 WAGB 072100 METAR WAGB 072100Z 00000KT 6000 FEW011 25/24 Q1012=  
07-Mar-2023 SAID35 WAGB 072130 METAR WAGB 072130Z 00000KT 6000 FEW011 25/24 Q1012=  
07-Mar-2023 SAID35 WAGB 072200 METAR WAGB 072200Z 00000KT 6000 BKN011 23/22 Q1012=  
07-Mar-2023 SAID35 WAGB 072230 METAR WAGB 072230Z 00000KT 6000 BKN011 23/22 Q1012=  
07-Mar-2023 SAID35 WAGB 072300 METAR WAGB 072300Z 00000KT 1500 BR BKN010 25/24 Q1013=  
07-Mar-2023 SAID35 WAGB 072330 METAR WAGB 072330Z 00000KT 3000 BR BKN010 25/24 Q1013=  
08-Mar-2023 SAID35 WAGB 080000 METAR WAGB 080000Z 00000KT 7000 SCT012 25/24 Q1014 NOSIG=  
08-Mar-2023 SAID35 WAGB 080030 METAR WAGB 080030Z 00000KT 8000 BKN012 26/24 Q1014 NOSIG=  
08-Mar-2023 SAID35 WAGB 080100 METAR WAGB 080100Z 00000KT 9000 SCT013 27/25 Q1014 NOSIG=  
08-Mar-2023 SAID35 WAGB 080130 METAR WAGB 080130Z 00000KT 9000 SCT013 27/25 Q1014 NOSIG=  
08-Mar-2023 SAID35 WAGB 080200 METAR WAGB 080200Z 28002KT 9000 BKN013 28/25 Q1014 NOSIG=  
08-Mar-2023 SAID35 WAGB 080230 METAR WAGB 080230Z 00000KT 9000 BKN013 28/25 Q1014 NOSIG=  
08-Mar-2023 SAID35 WAGB 080300 METAR WAGB 080300Z 32004KT 9999 BKN011 28/24 Q1013 NOSIG=  
08-Mar-2023 SAID35 WAGB 080330 METAR WAGB 080330Z 01005KT 9000 BKN011 29/24 Q1012 NOSIG=  
08-Mar-2023 SAID35 WAGB 080400 METAR WAGB 080400Z 06005KT 9000 BKN011 31/25 Q1012 NOSIG=  
08-Mar-2023 SAID35 WAGB 080430 METAR WAGB 080430Z 04003KT 9000 BKN011 32/24 Q1012 NOSIG=  
08-Mar-2023 SAID35 WAGB 080500 METAR WAGB 080500Z 02005KT 6000 -RA FEW010CB BKN011 30/24 Q1011 NOSIG=  
08-Mar-2023 SAID35 WAGB 080530 METAR WAGB 080530Z 00000KT 7000 FEW010CB BKN011 30/24 Q1011 RERA NOSIG=  
08-Mar-2023 SAID35 WAGB 080600 METAR WAGB 080600Z 04006KT 9999 FEW014TCU BKN015 30/22 Q1011 NOSIG=  
08-Mar-2023 SAID35 WAGB 080630 METAR WAGB 080630Z 04006KT 9999 FEW014CB BKN015 30/22 Q1011 NOSIG=  
08-Mar-2023 SAID35 WAGB 080700 METAR WAGB 080700Z 09002KT 9999 FEW013CB BKN014 31/24 Q1010 NOSIG=  
08-Mar-2023 SAID35 WAGB 080730 METAR WAGB 080730Z 09002KT 9999 FEW013CB BKN014 31/24 Q1010 NOSIG=  
08-Mar-2023 SAID35 WAGB 080800 METAR WAGB 080800Z 00000KT 9999 FEW013CB BKN014 31/24 Q1009 NOSIG=  
08-Mar-2023 SAID35 WAGB 080830 METAR WAGB 080830Z 00000KT 9999 FEW013CB BKN014 31/24 Q1009 NOSIG=  
08-Mar-2023 SAID35 WAGB 080900 METAR WAGB 080900Z 09003KT 9999 FEW014CB 31/25 Q1009 NOSIG=  
08-Mar-2023 SAID35 WAGB 080930 METAR WAGB 080930Z 00000KT 9999 FEW014CB 31/25 Q1010 NOSIG=  
08-Mar-2023 SAID35 WAGB 081000 METAR WAGB 081000Z 15003KT 9000 FEW014CB 29/25 Q1010 NOSIG=  
08-Mar-2023 SAID35 WAGB 081030 METAR WAGB 081030Z 00000KT 9000 FEW014CB 28/25 Q1010 NOSIG=  
08-Mar-2023 SAID35 WAGB 081100 METAR WAGB 081100Z 20002KT 8000 VCTS FEW014CB SCT015 28/25 Q1011 NOSIG=  
08-Mar-2023 SAID35 WAGB 081130 METAR WAGB 081130Z 00000KT 8000 VCTS FEW014CB SCT015 28/25 Q1011 NOSIG=  
08-Mar-2023 SAID35 WAGB 081200 METAR WAGB 081200Z 00000KT 8000 VCTS FEW014CB SCT015 28/26 Q1012=  
08-Mar-2023 SAID35 WAGB 081230 METAR WAGB 081230Z 00000KT 8000 FEW014CB SCT015 28/26 Q1012=  
08-Mar-2023 SAID35 WAGB 081300 METAR WAGB 081300Z 00000KT 7000 FEW013CB SCT014 27/25 Q1012=  
08-Mar-2023 SAID35 WAGB 081330 METAR WAGB 081330Z 00000KT 7000 FEW013CB SCT014 27/25 Q1012=  
08-Mar-2023 SAID35 WAGB 081400 METAR WAGB 081400Z 00000KT 6000 SCT013 27/25 Q1013=  
08-Mar-2023 SAID35 WAGB 081430 METAR WAGB 081430Z 00000KT 6000 SCT013 27/25 Q1013=  
08-Mar-2023 SAID35 WAGB 081500 METAR WAGB 081500Z 00000KT 6000 SCT013 26/25 Q1013=  
08-Mar-2023 SAID35 WAGB 081530 METAR WAGB 081530Z 00000KT 6000 SCT013 26/25 Q1013=  
08-Mar-2023 SAID35 WAGB 081600 METAR WAGB 081600Z 00000KT 5000 FEW012 26/25 Q1013=  
08-Mar-2023 SAID35 WAGB 081630 METAR WAGB 081630Z 00000KT 5000 FEW012 26/25 Q1013=  
08-Mar-2023 SAID35 WAGB 081700 METAR WAGB 081700Z 00000KT 4500 FEW012 26/25 Q1013=  
08-Mar-2023 SAID35 WAGB 081730 METAR WAGB 081730Z 00000KT 4500 FEW012 26/25 Q1013=  
08-Mar-2023 SAID35 WAGB 081800 METAR WAGB 081800Z 00000KT 4500 VCTS FEW011CB SCT012 25/25 Q1011=  
08-Mar-2023 SAID35 WAGB 081830 METAR WAGB 081830Z 00000KT 4500 VCTS FEW011CB SCT012 25/25 Q1011=  
08-Mar-2023 SAID35 WAGB 081900 METAR WAGB 081900Z 00000KT 4000 BR FEW011CB SCT012 25/24 Q1011=  
08-Mar-2023 SAID35 WAGB 081930 METAR WAGB 081930Z 00000KT 4000 BR FEW011CB SCT012 25/24 Q1011=  
08-Mar-2023 SAID35 WAGB 082000 METAR WAGB 082000Z 00000KT 4000 BR FEW011CB SCT012 25/24 Q1011=  
08-Mar-2023 SAID35 WAGB 082030 METAR WAGB 082030Z 00000KT 4000 BR FEW011CB SCT012 25/24 Q1011=  
08-Mar-2023 SAID35 WAGB 082100 METAR WAGB 082100Z 00000KT 4000 BR SCT010 25/24 Q1011=  
08-Mar-2023 SAID35 WAGB 082130 METAR WAGB 082130Z 00000KT 4000 BR SCT010 25/24 Q1011=  
08-Mar-2023 SAID35 WAGB 082200 METAR WAGB 082200Z 00000KT 4000 BR SCT010 25/24 Q1012=  
08-Mar-2023 SAID35 WAGB 082200 CCA METAR WAGB 082200Z 00000KT 4000 VCTS FEW010CB SCT011 25/24 Q1012=  
08-Mar-2023 SAID35 WAGB 082230 METAR WAGB 082230Z 00000KT 4500 TS FEW010CB SCT011 25/24 Q1012=  
08-Mar-2023 SAID35 WAGB 082300 METAR WAGB 082300Z 00000KT 5000 FEW010CB SCT011 25/24 Q1012=  
08-Mar-2023 SAID35 WAGB 082330 METAR WAGB 082330Z 00000KT 5000 SCT010 25/24 Q1012=  
09-Mar-2023 SAID35 WAGB 090000 METAR WAGB 090000Z 00000KT 6000 BKN010 26/24 Q1013 NOSIG=  
09-Mar-2023 SAID35 WAGB 090030 METAR WAGB 090030Z 00000KT 6000 BKN009 26/24 Q1012 NOSIG=  
09-Mar-2023 SPID33 WAGB 090045 SPECI WAGB 090045Z 00000KT 6000 BKN009 26/24 Q1013 NOSIG=  
09-Mar-2023 SAID35 WAGB 090100 METAR WAGB 090100Z 00000KT 8000 BKN012 27/24 Q1013 NOSIG=  
09-Mar-2023 SAID35 WAGB 090100 CCA METAR WAGB 090100Z VRB02KT 6000 BKN009 26/24 Q1013 NOSIG=  
09-Mar-2023 SAID35 WAGB 090130 METAR WAGB 090130Z VRB02KT 7000 BKN009 26/24 Q1013 NOSIG=  
09-Mar-2023 SAID35 WAGB 090200 METAR WAGB 090200Z 25003KT 8000 BKN010 27/24 Q1013 NOSIG=  
09-Mar-2023 SAID35 WAGB 090230 METAR WAGB 090230Z VRB02KT 8000 BKN011 28/24 Q1012 NOSIG=  
09-Mar-2023 SAID35 WAGB 090300 METAR WAGB 090300Z 24005KT 9000 BKN012 29/24 Q1012 NOSIG=  
09-Mar-2023 SAID35 WAGB 090330 METAR WAGB 090330Z VRB02KT 9000 BKN012 29/24 Q1012 NOSIG=  
09-Mar-2023 SAID35 WAGB 090400 CCB METAR WAGB 090400Z 19005KT 9999 SCT012 30/24 Q1011 NOSIG=  
09-Mar-2023 SAID35 WAGB 090400 CCA METAR WAGB 090400Z 19003KT 9999 SCT012 30/24 Q1011 NOSIG=  
09-Mar-2023 SAID35 WAGB 090400 METAR WAGB 090400Z 1900KT 9999 SCT012 30/24 Q1011 NOSIG=  
09-Mar-2023 SAID35 WAGB 090430 METAR WAGB 090430Z 33004KT 9999 BKN012 30/25 Q1011 NOSIG=  
09-Mar-2023 SAID35 WAGB 090500 METAR WAGB 090500Z 25005KT 9999 BKN012 30/25 Q1010 NOSIG=  
09-Mar-2023 SAID35 WAGB 090530 METAR WAGB 090530Z 35005KT 9999 BKN012 30/24 Q1009=  
09-Mar-2023 SAID35 WAGB 090530 CCA METAR WAGB 090530Z 35005KT 9999 BKN012 30/24 Q1009 NOSIG=  
09-Mar-2023 SAID35 WAGB 090600 METAR WAGB 090600Z 00000KT 9999 FEW012TCU SCT013 30/24 Q1009 NOSIG=  
09-Mar-2023 SAID35 WAGB 090630 METAR WAGB 090630Z 24004KT 9999 FEW012TCU SCT013 30/24 Q1008 NOSIG=  
09-Mar-2023 SAID35 WAGB 090700 METAR WAGB 090700Z 23006KT 9999 FEW012TCU SCT013 31/25 Q1008 NOSIG=  
09-Mar-2023 SAID35 WAGB 090730 METAR WAGB 090730Z 18004KT 9999 FEW012TCU SCT013 31/25 Q1007 NOSIG=  
09-Mar-2023 SAID35 WAGB 090800 METAR WAGB 090800Z 02003KT 9999 SCT013 32/25 Q1007 NOSIG=  
09-Mar-2023 SAID35 WAGB 090830 METAR WAGB 090830Z 25003KT 9999 SCT013 32/25 Q1007 NOSIG=  
09-Mar-2023 SAID35 WAGB 090900 METAR WAGB 090900Z 25005KT 9999 FEW014TCU SCT015 32/25 Q1007 NOSIG=  
09-Mar-2023 SAID35 WAGB 090930 METAR WAGB 090930Z 25005KT 9999 FEW014TCU SCT015 32/25 Q1007 NOSIG=  
09-Mar-2023 SAID35 WAGB 091000 METAR WAGB 091000Z 00000KT 9999 FEW014CB SCT015 32/25 Q1008 NOSIG=  
09-Mar-2023 SAID35 WAGB 091030 METAR WAGB 091030Z 00000KT 9999 FEW014CB SCT015 32/25 Q1008 NOSIG=  
09-Mar-2023 SAID35 WAGB 091100 METAR WAGB 091100Z 00000KT 9000 FEW012CB BKN013 30/25 Q1009 TEMPO FM1135 -TSRA=  
09-Mar-2023 SAID35 WAGB 091130 METAR WAGB 091130Z 00000KT 8000 TS FEW012CB BKN013 30/25 Q1009 TEMPO FM1145 5000 -RA=  
09-Mar-2023 SAID35 WAGB 091200 METAR WAGB 091200Z 14004KT 8000 TS FEW012CB BKN013 29/25 Q1010=  
09-Mar-2023 SAID35 WAGB 091230 METAR WAGB 091230Z 00000KT 8000 RETS FEW012CB BKN013 28/25 Q1011=  
09-Mar-2023 SAID35 WAGB 091300 METAR WAGB 091300Z 05003KT 8000 FEW012CB BKN013 27/23 Q1011=  
09-Mar-2023 SAID35 WAGB 091330 METAR WAGB 091330Z 00000KT 8000 FEW012CB BKN013 27/23 Q1011=  
09-Mar-2023 SAID35 WAGB 091400 METAR WAGB 091400Z 00000KT 7000 FEW012CB BKN013 26/23 Q1011=  
09-Mar-2023 SAID35 WAGB 091430 METAR WAGB 091430Z 06004KT 6000 FEW012CB BKN013 26/23 Q1012=  
09-Mar-2023 SAID35 WAGB 091500 METAR WAGB 091500Z 05007KT 5000 VCSH FEW012CB BKN013 26/23 Q1012=  
09-Mar-2023 SAID35 WAGB 091530 METAR WAGB 091530Z 05004KT 6000 FEW012CB BKN013 26/23 Q1012=  
09-Mar-2023 SAID35 WAGB 091600 METAR WAGB 091600Z 05003KT 6000 FEW011CB SCT012 24/22 Q1011=  
09-Mar-2023 SAID35 WAGB 091630 METAR WAGB 091630Z 00000KT 6000 FEW011CB SCT012 24/22 Q1011=  
09-Mar-2023 SAID35 WAGB 091700 METAR WAGB 091700Z 20004KT 8000 VCTS FEW011CB SCT012 24/22 Q1011=  
09-Mar-2023 SAID35 WAGB 091730 METAR WAGB 091730Z 00000KT 8000 VCTS FEW011CB SCT012 24/22 Q1011=  
09-Mar-2023 SAID35 WAGB 091800 METAR WAGB 091800Z 00000KT 8000 VCTS FEW011CB SCT012 24/22 Q1011=  
09-Mar-2023 SAID35 WAGB 091830 METAR WAGB 091830Z 00000KT 7000 VCTS FEW011CB SCT012 24/22 Q1011=  
09-Mar-2023 SAID35 WAGB 091900 METAR WAGB 091900Z 00000KT 7000 VCTS FEW010CB SCT011 23/22 Q1010=  
09-Mar-2023 SAID35 WAGB 091930 METAR WAGB 091930Z 00000KT 6000 VCTS FEW010CB SCT011 23/22 Q1010=  
09-Mar-2023 SAID35 WAGB 092000 METAR WAGB 092000Z 00000KT 6000 SCT011 23/22 Q1010=  
09-Mar-2023 SAID35 WAGB 092030 METAR WAGB 092030Z 00000KT 6000 SCT011 23/22 Q1010=  
09-Mar-2023 SAID35 WAGB 092100 METAR WAGB 092100Z 00000KT 6000 BKN010 23/22 Q1010=  
09-Mar-2023 SAID35 WAGB 092130 METAR WAGB 092130Z 00000KT 5000 -RA BKN010 23/22 Q1010=  
09-Mar-2023 SAID35 WAGB 092200 METAR WAGB 092200Z 00000KT 5000 BKN010 23/22 Q1011 RERA=  
09-Mar-2023 SAID35 WAGB 092230 METAR WAGB 092230Z 00000KT 5000 BKN010 23/22 Q1011=  
09-Mar-2023 SAID35 WAGB 092300 METAR WAGB 092300Z 00000KT 6000 SCT010 23/23 Q1011=  
09-Mar-2023 SAID35 WAGB 092330 METAR WAGB 092330Z 00000KT 7000 SCT010 23/23 Q1012=  
10-Mar-2023 SAID35 WAGB 100000 METAR WAGB 100000Z 00000KT 6000 SCT010 24/23 Q1012 NOSIG=  
10-Mar-2023 SAID35 WAGB 100030 METAR WAGB 100030Z 00000KT 6000 SCT010 24/23 Q1012 NOSIG=  
10-Mar-2023 SAID35 WAGB 100100 METAR WAGB 100100Z 00000KT 5000 -RA BKN010 24/24 Q1013 NOSIG=  
10-Mar-2023 SAID35 WAGB 100130 METAR WAGB 100130Z 00000KT 4000 DZ BKN010 24/24 Q1013 NOSIG=  
10-Mar-2023 SAID35 WAGB 100200 METAR WAGB 100200Z 00000KT 4500 DZ BKN010 24/23 Q1013 NOSIG=  
10-Mar-2023 SAID35 WAGB 100230 METAR WAGB 100230Z 00000KT 5000 DZ BKN011 24/23 Q1013 NOSIG=  
10-Mar-2023 SAID35 WAGB 100300 METAR WAGB 100300Z 33003KT 6000 DZ BKN009 24/23 Q1012 NOSIG=  
10-Mar-2023 SAID35 WAGB 100330 METAR WAGB 100330Z 00000KT 7000 BKN010 25/23 Q1011 NOSIG=  
10-Mar-2023 SAID35 WAGB 100400 METAR WAGB 100400Z 00000KT 8000 BKN011 27/24 Q1010 NOSIG=  
10-Mar-2023 SAID35 WAGB 100430 METAR WAGB 100430Z 24003KT 9000 BKN012 28/24 Q1010 NOSIG=  
10-Mar-2023 SAID35 WAGB 100500 METAR WAGB 100500Z 00000KT 9999 BKN013 29/24 Q1009 NOSIG=  
10-Mar-2023 SAID35 WAGB 100530 METAR WAGB 100530Z 00000KT 9999 BKN013 29/24 Q1009 NOSIG=  
10-Mar-2023 SAID35 WAGB 100600 METAR WAGB 100600Z 06004KT 9999 BKN012 32/25 Q1008 NOSIG=  
10-Mar-2023 SAID35 WAGB 100700 METAR WAGB 100700Z 00000KT 9999 BKN013 32/24 Q1007 NOSIG=  
10-Mar-2023 SAID35 WAGB 100800 METAR WAGB 100800Z 04004KT 9999 FEW013CB BKN014 33/23 Q1006 NOSIG=  
10-Mar-2023 SAID35 WAGB 100830 METAR WAGB 100830Z 00000KT 9999 FEW013CB BKN014 33/24 Q1006 NOSIG=  
10-Mar-2023 SAID35 WAGB 100900 METAR WAGB 100900Z 26002KT 9999 FEW013CB BKN014 31/25 Q1007 NOSIG=  
10-Mar-2023 SAID35 WAGB 100930 METAR WAGB 100930Z 00000KT 9999 FEW013CB BKN014 31/24 Q1007 NOSIG=  
10-Mar-2023 SAID35 WAGB 101000 METAR WAGB 101000Z 26004KT 9999 TS FEW013CB SCT014 30/24 Q1008=  
10-Mar-2023 SAID35 WAGB 101030 METAR WAGB 101030Z 00000KT 8000 FEW012CB SCT013 29/24 Q1008 NOSIG=  
10-Mar-2023 SAID35 WAGB 101100 METAR WAGB 101100Z 00000KT 8000 FEW012CB BKN013 29/24 Q1009 NOSIG=  
10-Mar-2023 SAID35 WAGB 101130 METAR WAGB 101130Z 00000KT 7000 FEW012CB BKN013 28/24 Q1009 NOSIG=  
10-Mar-2023 SAID35 WAGB 101200 METAR WAGB 101200Z 00000KT 7000 FEW012CB BKN013 27/24 Q1009=  
10-Mar-2023 SAID35 WAGB 101230 METAR WAGB 101230Z 00000KT 7000 FEW012CB BKN013 27/24 Q1009=  
10-Mar-2023 SAID35 WAGB 101300 METAR WAGB 101300Z 00000KT 7000 BKN012 27/24 Q1010=  
10-Mar-2023 SAID35 WAGB 101330 METAR WAGB 101330Z 00000KT 7000 BKN012 27/24 Q1010=  
10-Mar-2023 SAID35 WAGB 101400 METAR WAGB 101400Z 00000KT 7000 BKN012 26/25 Q1010=  
10-Mar-2023 SAID35 WAGB 101430 METAR WAGB 101430Z 00000KT 7000 BKN012 26/25 Q1011=  
10-Mar-2023 SAID35 WAGB 101500 METAR WAGB 101500Z 00000KT 7000 BKN012 26/24 Q1011=  
10-Mar-2023 SAID35 WAGB 101530 METAR WAGB 101530Z 00000KT 7000 BKN012 26/24 Q1011=  
10-Mar-2023 SAID35 WAGB 101600 METAR WAGB 101600Z 00000KT 6000 BKN012 26/24 Q1011=  
10-Mar-2023 SAID35 WAGB 101630 METAR WAGB 101630Z 00000KT 6000 BKN012 26/24 Q1011=  
10-Mar-2023 SAID35 WAGB 101700 METAR WAGB 101700Z 00000KT 6000 BKN012 25/24 Q1010=  
10-Mar-2023 SAID35 WAGB 101730 METAR WAGB 101730Z 00000KT 6000 BKN012 25/24 Q1010=  
10-Mar-2023 SAID35 WAGB 101800 METAR WAGB 101800Z 00000KT 5000 HZ BKN012 25/24 Q1010=  
10-Mar-2023 SAID35 WAGB 101830 METAR WAGB 101830Z 00000KT 5000 HZ BKN012 25/24 Q1010=  
10-Mar-2023 SAID35 WAGB 101900 METAR WAGB 101900Z 00000KT 5000 HZ BKN012 25/24 Q1010=  
10-Mar-2023 SAID35 WAGB 101930 METAR WAGB 101930Z 00000KT 5000 HZ BKN012 25/24 Q1010=  
10-Mar-2023 SAID35 WAGB 102000 METAR WAGB 102000Z 00000KT 5000 HZ BKN012 25/24 Q1010=  
10-Mar-2023 SAID35 WAGB 102030 METAR WAGB 102030Z 00000KT 5000 HZ BKN012 25/24 Q1010=  
10-Mar-2023 SAID35 WAGB 102100 METAR WAGB 102100Z 00000KT 5000 HZ BKN011 25/24 Q1010=  
10-Mar-2023 SAID35 WAGB 102130 METAR WAGB 102130Z 00000KT 5000 HZ BKN011 25/24 Q1010=  
10-Mar-2023 SAID35 WAGB 102200 METAR WAGB 102200Z 00000KT 5000 HZ BKN011 25/24 Q1010=  
10-Mar-2023 SAID35 WAGB 102230 METAR WAGB 102230Z 00000KT 5000 HZ BKN011 25/24 Q1011=  
10-Mar-2023 SAID35 WAGB 102300 METAR WAGB 102300Z 00000KT 5000 HZ BKN010 25/24 Q1011=  
10-Mar-2023 SAID35 WAGB 102330 METAR WAGB 102330Z 00000KT 5000 HZ BKN010 25/24 Q1011=  
11-Mar-2023 SAID35 WAGB 110000 METAR WAGB 110000Z 00000KT 5000 HZ BKN010 26/24 Q1012=  
11-Mar-2023 SAID35 WAGB 110030 METAR WAGB 110030Z 00000KT 6000 BKN010 26/24 Q1012 NOSIG=  
11-Mar-2023 SAID35 WAGB 110100 METAR WAGB 110100Z 00000KT 7000 BKN010 26/24 Q1013 NOSIG=  
11-Mar-2023 SAID35 WAGB 110130 METAR WAGB 110130Z 00000KT 7000 BKN010 27/24 Q1013 NOSIG=  
11-Mar-2023 SAID35 WAGB 110200 METAR WAGB 110200Z 00000KT 7000 BKN010 27/24 Q1013 NOSIG=  
11-Mar-2023 SAID35 WAGB 110230 METAR WAGB 110230Z 00000KT 7000 BKN010 27/24 Q1013 NOSIG=  
11-Mar-2023 SAID35 WAGB 110300 METAR WAGB 110300Z 15004KT 7000 BKN011 28/24 Q1012=  
11-Mar-2023 SAID35 WAGB 110330 METAR WAGB 110330Z 00000KT 8000 BKN011 29/24 Q1012 NOSIG=  
11-Mar-2023 SAID35 WAGB 110400 METAR WAGB 110400Z 22002KT 8000 BKN012 29/24 Q1011 NOSIG=  
11-Mar-2023 SAID35 WAGB 110430 METAR WAGB 110430Z 00000KT 9999 BKN012 31/24 Q1010 NOSIG=  
11-Mar-2023 SAID35 WAGB 110500 METAR WAGB 110500Z 00000KT 9999 BKN012 31/24 Q1010 NOSIG=  
11-Mar-2023 SAID35 WAGB 110530 METAR WAGB 110530Z 00000KT 9999 BKN012 31/24 Q1009 NOSIG=  
11-Mar-2023 SAID35 WAGB 110600 METAR WAGB 110600Z 01005KT 9000 BKN012 31/24 Q1009 NOSIG=  
11-Mar-2023 SAID35 WAGB 110630 METAR WAGB 110630Z 04007KT 9000 BKN012 31/24 Q1009 NOSIG=  
11-Mar-2023 SAID35 WAGB 110700 METAR WAGB 110700Z 22000KT 8000 FEW011CB BKN012 30/25 Q1009 NOSIG=  
11-Mar-2023 SAID35 WAGB 110700 CCA METAR COR WAGB 110700Z 22005KT 8000 FEW011CB BKN012 30/25 Q1009=  
11-Mar-2023 SAID35 WAGB 110730 METAR WAGB 110730Z 23003KT 8000 FEW011CB BKN012 30/25 Q1008 NOSIG=  
11-Mar-2023 SAID35 WAGB 110800 METAR WAGB 110800Z 00000KT 9000 BKN012 28/25 Q1008 NOSIG=  
11-Mar-2023 SAID35 WAGB 110830 METAR WAGB 110830Z 27003KT 9000 BKN012 28/25 Q1008 NOSIG=  
11-Mar-2023 SAID35 WAGB 110900 METAR WAGB 110900Z 00000KT 9000 FEW013TCU SCT014 28/25 Q1009 NOSIG=  
11-Mar-2023 SAID35 WAGB 110930 METAR WAGB 110930Z 00000KT 9000 FEW013TCU SCT014 28/25 Q1009 NOSIG=  
11-Mar-2023 SAID35 WAGB 111000 METAR WAGB 111000Z 00000KT 8000 FEW013TCU BKN014 28/25 Q1009 NOSIG=  
11-Mar-2023 SAID35 WAGB 111030 METAR WAGB 111030Z 00000KT 8000 FEW013TCU BKN014 28/25 Q1009 NOSIG=  
11-Mar-2023 SAID35 WAGB 111100 METAR WAGB 111100Z 00000KT 8000 BKN014 27/25 Q1010 NOSIG=  
11-Mar-2023 SAID35 WAGB 111130 METAR WAGB 111130Z 00000KT 7000 BKN014 27/25 Q1010 NOSIG=  
11-Mar-2023 SAID35 WAGB 111200 METAR WAGB 111200Z 00000KT 7000 VCTS FEW012CB SCT013 26/25 Q1011=  
11-Mar-2023 SAID35 WAGB 111230 METAR WAGB 111230Z 00000KT 7000 VCTS FEW012CB SCT013 26/25 Q1011=  
11-Mar-2023 SAID35 WAGB 111300 METAR WAGB 111300Z 00000KT 7000 VCTS FEW012CB SCT013 26/25 Q1011=  
11-Mar-2023 SAID35 WAGB 111330 METAR WAGB 111330Z 00000KT 7000 VCTS FEW012CB SCT013 26/25 Q1012=  
11-Mar-2023 SAID35 WAGB 111400 METAR WAGB 111400Z 00000KT 7000 FEW012CB SCT013 26/25 Q1012=  
11-Mar-2023 SAID35 WAGB 111430 METAR WAGB 111430Z 00000KT 7000 FEW012CB SCT013 26/25 Q1012=  
11-Mar-2023 SAID35 WAGB 111500 METAR WAGB 111500Z 00000KT 7000 FEW012CB SCT013 25/25 Q1012=  
11-Mar-2023 SAID35 WAGB 111530 METAR WAGB 111530Z 00000KT 7000 FEW012CB SCT013 25/25 Q1012=  
11-Mar-2023 SAID35 WAGB 111600 METAR WAGB 111600Z 00000KT 7000 FEW012CB SCT013 25/24 Q1012=  
11-Mar-2023 SAID35 WAGB 111630 METAR WAGB 111630Z 00000KT 7000 FEW012CB SCT013 25/24 Q1011=  
11-Mar-2023 SAID35 WAGB 111700 METAR WAGB 111700Z 00000KT 7000 BKN011 25/24 Q1011=  
11-Mar-2023 SAID35 WAGB 111730 METAR WAGB 111730Z 00000KT 7000 BKN011 25/24 Q1011=  
11-Mar-2023 SAID35 WAGB 111800 METAR WAGB 111800Z 00000KT 6000 BKN011 25/24 Q1010=  
11-Mar-2023 SAID35 WAGB 111830 METAR WAGB 111830Z 00000KT 6000 BKN011 25/24 Q1010=  
11-Mar-2023 SAID35 WAGB 111900 METAR WAGB 111900Z 00000KT 5000 BR BKN009 25/24 Q1010=  
11-Mar-2023 SAID35 WAGB 111930 METAR WAGB 111930Z 00000KT 5000 BR BKN009 25/24 Q1010=  
11-Mar-2023 SAID35 WAGB 112000 METAR WAGB 112000Z 00000KT 5000 BR BKN009 24/23 Q1010=  
11-Mar-2023 SAID35 WAGB 112030 METAR WAGB 112030Z 00000KT 5000 BR BKN009 24/23 Q1010=  
11-Mar-2023 SAID35 WAGB 112100 METAR WAGB 112100Z 00000KT 5000 BR BKN009 24/23 Q1010=  
11-Mar-2023 SAID35 WAGB 112130 METAR WAGB 112130Z 00000KT 5000 BR BKN009 24/23 Q1010=  
11-Mar-2023 SAID35 WAGB 112200 METAR WAGB 112200Z 00000KT 0700 FG VV004 24/24 Q1011=  
11-Mar-2023 SAID35 WAGB 112230 METAR WAGB 112230Z 00000KT 0700 FG VV008 24/24 Q1011=  
11-Mar-2023 SAID35 WAGB 112300 METAR WAGB 112300Z 00000KT 2000 BKN009 25/24 Q1011 REFG=  
11-Mar-2023 SAID35 WAGB 112330 METAR WAGB 112330Z 00000KT 5000 BKN009 25/24 Q1012=  
12-Mar-2023 SAID35 WAGB 120000 METAR WAGB 120000Z 00000KT 4000 BR BKN010 25/24 Q1012=  
12-Mar-2023 SAID35 WAGB 120030 METAR WAGB 120030Z 00000KT 5000 HZ BKN010 25/24 Q1012=  
12-Mar-2023 SAID35 WAGB 120100 METAR WAGB 120100Z 00000KT 3000 BR BKN009 25/24 Q1012 NOSIG=  
12-Mar-2023 SAID35 WAGB 120130 METAR WAGB 120130Z 00000KT 4000 BR BKN009 26/24 Q1012 NOSIG=  
12-Mar-2023 SAID35 WAGB 120200 METAR WAGB 120200Z 00000KT 6000 BKN010 26/24 Q1012 NOSIG=  
12-Mar-2023 SAID35 WAGB 120230 METAR WAGB 120230Z 28004KT 6000 BKN010 27/24 Q1012 NOSIG=  
12-Mar-2023 SAID35 WAGB 120300 METAR WAGB 120300Z 26004KT 7000 BKN010 27/24 Q1012 NOSIG=  
12-Mar-2023 SAID35 WAGB 120330 METAR WAGB 120330Z 27006KT 7000 BKN011 28/23 Q1011 NOSIG=  
12-Mar-2023 SAID35 WAGB 120400 METAR WAGB 120400Z 32006KT 7000 BKN011 28/23 Q1011 NOSIG=  
12-Mar-2023 SAID35 WAGB 120430 METAR WAGB 120430Z 28006KT 8000 BKN012 29/23 Q1010 NOSIG=  
12-Mar-2023 SAID35 WAGB 120500 METAR WAGB 120500Z 32006KT 8000 BKN012 29/23 Q1010 NOSIG=  
12-Mar-2023 SAID35 WAGB 120530 METAR WAGB 120530Z 31005KT 8000 BKN012 29/24 Q1009 NOSIG=  
12-Mar-2023 SAID35 WAGB 120600 METAR WAGB 120600Z 22005KT 9999 FEW013CB SCT014 29/24 Q1009 NOSIG=  
12-Mar-2023 SAID35 WAGB 120630 METAR WAGB 120630Z 20003KT 9999 FEW013CB SCT014 29/24 Q1009 NOSIG=  
12-Mar-2023 SAID35 WAGB 120700 METAR WAGB 120700Z 25003KT 9999 FEW013CB SCT014 30/24 Q1008 NOSIG=  
12-Mar-2023 SAID35 WAGB 120730 METAR WAGB 120730Z 24003KT 9999 FEW013CB SCT014 30/24 Q1008 NOSIG=  
12-Mar-2023 SAID35 WAGB 120800 METAR WAGB 120800Z 04003KT 9999 FEW013CB SCT014 29/24 Q1008 NOSIG=  
12-Mar-2023 SAID35 WAGB 120830 METAR WAGB 120830Z 03003KT 9999 FEW013CB SCT014 29/24 Q1008 NOSIG=  
12-Mar-2023 SAID35 WAGB 120900 METAR WAGB 120900Z 33005KT 9999 FEW013CB SCT014 29/25 Q1008 NOSIG=  
12-Mar-2023 SAID35 WAGB 120930 METAR WAGB 120930Z 35005KT 7000 VCSH FEW012CB BKN013 28/25 Q1009 NOSIG=  
12-Mar-2023 SAID35 WAGB 121000 METAR WAGB 121000Z 00000KT 7000 FEW015CB BKN016 26/23 Q1009 NOSIG=  
12-Mar-2023 SAID35 WAGB 121030 METAR WAGB 121030Z 00000KT 7000 VCSH FEW012CB BKN013 26/23 Q1010 NOSIG=  
12-Mar-2023 SAID35 WAGB 121100 METAR WAGB 121100Z 04003KT 7000 FEW012CB BKN013 25/24 Q1009 RERA=  
12-Mar-2023 SAID35 WAGB 121130 METAR WAGB 121130Z 00000KT 7000 VCTS FEW012CB BKN013 25/24 Q1010=  
12-Mar-2023 SAID35 WAGB 121200 METAR WAGB 121200Z 00000KT 6000 VCTS FEW012CB SCT013 25/23 Q1010=  
12-Mar-2023 SAID35 WAGB 121230 METAR WAGB 121230Z 00000KT 6000 VCTS FEW012CB SCT013 25/23 Q1010=  
12-Mar-2023 SAID35 WAGB 121300 METAR WAGB 121300Z 00000KT 6000 VCTS FEW011CB SCT012 24/23 Q1011=  
12-Mar-2023 SAID35 WAGB 121330 METAR WAGB 121330Z 00000KT 6000 FEW011CB SCT012 24/23 Q1011=  
12-Mar-2023 SAID35 WAGB 121400 METAR WAGB 121400Z 00000KT 5000 FEW011CB SCT012 24/23 Q1011=  
12-Mar-2023 SAID35 WAGB 121430 METAR WAGB 121430Z 00000KT 5000 FEW011CB SCT012 24/23 Q1011=  
12-Mar-2023 SAID35 WAGB 121500 METAR WAGB 121500Z 00000KT 5000 BKN011 24/23 Q1012=  
12-Mar-2023 SAID35 WAGB 121530 METAR WAGB 121530Z 00000KT 5000 BKN011 24/23 Q1012=  
12-Mar-2023 SAID35 WAGB 121600 METAR WAGB 121600Z 00000KT 5000 BKN011 24/23 Q1012=  
12-Mar-2023 SAID35 WAGB 121630 METAR WAGB 121630Z 00000KT 5000 BKN011 24/23 Q1012=  
12-Mar-2023 SAID35 WAGB 121700 METAR WAGB 121700Z 00000KT 4500 BKN010 24/23 Q1011=  
12-Mar-2023 SAID35 WAGB 121730 METAR WAGB 121730Z 00000KT 4500 BKN010 24/23 Q1011=  
12-Mar-2023 SAID35 WAGB 121800 METAR WAGB 121800Z 00000KT 4000 BR SCT010 24/23 Q1010=  
12-Mar-2023 SAID35 WAGB 121830 METAR WAGB 121830Z 00000KT 4000 BR SCT010 24/23 Q1010=  
12-Mar-2023 SAID35 WAGB 121900 METAR WAGB 121900Z 00000KT 3500 BR SCT010 24/23 Q1010=  
12-Mar-2023 SAID35 WAGB 121930 METAR WAGB 121930Z 00000KT 3500 BR SCT010 24/23 Q1010=  
12-Mar-2023 SAID35 WAGB 122000 METAR WAGB 122000Z 00000KT 3500 BR SCT009 24/23 Q1010=  
12-Mar-2023 SAID35 WAGB 122030 METAR WAGB 122030Z 00000KT 3500 BR SCT009 24/23 Q1010=  
12-Mar-2023 SAID35 WAGB 122100 METAR WAGB 122100Z 00000KT 3500 BR SCT009 24/23 Q1010=  
12-Mar-2023 SAID35 WAGB 122130 METAR WAGB 122130Z 00000KT 3500 BR SCT009 24/23 Q1010=  
12-Mar-2023 SAID35 WAGB 122200 METAR WAGB 122200Z 00000KT 4000 BR SCT009 24/23 Q1011=  
12-Mar-2023 SAID35 WAGB 122230 METAR WAGB 122230Z 00000KT 4000 BR SCT009 24/23 Q1011=  
12-Mar-2023 SAID35 WAGB 122300 METAR WAGB 122300Z 00000KT 4500 BKN009 24/23 Q1011=  
12-Mar-2023 SAID35 WAGB 122330 METAR WAGB 122330Z 00000KT 4500 BKN009 24/23 Q1011=  
13-Mar-2023 SAID35 WAGB 130000 METAR WAGB 130000Z 00000KT 5000 VCSH BKN010 25/24 Q1012=  
13-Mar-2023 SAID35 WAGB 130030 METAR WAGB 130030Z 00000KT 5000 VCSH BKN010 25/24 Q1012=  
13-Mar-2023 SAID35 WAGB 130100 METAR WAGB 130100Z 00000KT 7000 BKN010 25/24 Q1012 NOSIG=  
13-Mar-2023 SAID35 WAGB 130130 METAR WAGB 130130Z 19003KT 7000 BKN010 25/24 Q1012 NOSIG=  
13-Mar-2023 SAID35 WAGB 130200 METAR WAGB 130200Z 20003KT 7000 BKN011 26/24 Q1012 NOSIG=  
13-Mar-2023 SAID35 WAGB 130230 METAR WAGB 130230Z 19003KT 7000 BKN011 26/24 Q1012 NOSIG=  
13-Mar-2023 SAID35 WAGB 130300 METAR WAGB 130300Z 26003KT 7000 BKN011 27/23 Q1011 NOSIG=  
13-Mar-2023 SAID35 WAGB 130330 METAR WAGB 130330Z 00000KT 7000 BKN011 27/23 Q1011 NOSIG=  
13-Mar-2023 SAID35 WAGB 130400 METAR WAGB 130400Z 11002KT 9000 BKN012 29/24 Q1011 NOSIG=  
13-Mar-2023 SAID35 WAGB 130430 METAR WAGB 130430Z 00000KT 9000 BKN012 29/24 Q1009 NOSIG=  
13-Mar-2023 SAID35 WAGB 130500 METAR WAGB 130500Z 00000KT 9999 BKN011 29/24 Q1008 NOSIG=  
13-Mar-2023 SAID35 WAGB 130600 METAR WAGB 130600Z 00000KT 9999 BKN014 31/23 Q1007 NOSIG=  
13-Mar-2023 SAID35 WAGB 130700 METAR WAGB 130700Z 00000KT 9999 SCT015 32/24 Q1006 NOSIG=  
13-Mar-2023 SAID35 WAGB 130730 METAR WAGB 130730Z 00000KT 9999 SCT015 32/24 Q1006 NOSIG=  
13-Mar-2023 SAID35 WAGB 130800 METAR WAGB 130800Z 00000KT 9999 FEW014TCU SCT015 32/23 Q1006 NOSIG=  
13-Mar-2023 SAID35 WAGB 130830 METAR WAGB 130830Z 00000KT 9999 FEW014TCU SCT015 32/23 Q1006 NOSIG=  
13-Mar-2023 SAID35 WAGB 130900 METAR WAGB 130900Z 00000KT 9999 FEW014CB SCT015 32/23 Q1006 NOSIG=  
13-Mar-2023 SAID35 WAGB 130930 METAR WAGB 130930Z 00000KT 9999 FEW014CB SCT015 32/23 Q1006 NOSIG=  
13-Mar-2023 SAID35 WAGB 131000 METAR WAGB 131000Z 00000KT 9999 FEW014CB SCT015 31/24 Q1006 NOSIG=  
13-Mar-2023 SAID35 WAGB 131030 METAR WAGB 131030Z 00000KT 9999 FEW014CB SCT015 31/24 Q1006 NOSIG=  
13-Mar-2023 SAID35 WAGB 131100 METAR WAGB 131100Z 23011KT 4000 RA FEW012CB BKN013 28/23 Q1009 TEMPO FM1100 RA=  
13-Mar-2023 SAID35 WAGB 131130 METAR WAGB 131130Z 23011KT 4000 RA FEW012CB BKN013 28/23 Q1009 TEMPO FM1100 RA=  
13-Mar-2023 SAID35 WAGB 131200 METAR WAGB 131200Z 00000KT 4000 -TSRA FEW012CB BKN013 24/23 Q1010=  
13-Mar-2023 SAID35 WAGB 131230 METAR WAGB 131230Z 00000KT 4000 -TSRA FEW012CB BKN013 24/23 Q1010=  
13-Mar-2023 SAID35 WAGB 131300 METAR WAGB 131300Z 34006KT 5000 -RA FEW012CB BKN013 24/23 Q1011 RETS=  
13-Mar-2023 SAID35 WAGB 131330 METAR WAGB 131330Z 34006KT 5000 -RA FEW012CB BKN013 24/23 Q1011=  
13-Mar-2023 SAID35 WAGB 131400 METAR WAGB 131400Z 00000KT 5000 -RA FEW011CB BKN012 23/23 Q1011=  
13-Mar-2023 SAID35 WAGB 131430 METAR WAGB 131430Z 00000KT 5000 -RA FEW011CB BKN012 23/23 Q1011=  
13-Mar-2023 SAID35 WAGB 131500 METAR WAGB 131500Z 00000KT 4000 -RA FEW010CB BKN011 24/24 Q1011=  
13-Mar-2023 SAID35 WAGB 131530 METAR WAGB 131530Z 00000KT 4000 -RA FEW010CB BKN011 24/24 Q1011=  
13-Mar-2023 SAID35 WAGB 131600 METAR WAGB 131600Z 00000KT 4000 -RA FEW010CB BKN011 23/22 Q1010=  
13-Mar-2023 SAID35 WAGB 131630 METAR WAGB 131630Z 00000KT 4000 -RA FEW010CB BKN011 23/22 Q1010=  
13-Mar-2023 SAID35 WAGB 131700 METAR WAGB 131700Z 00000KT 4000 -RA BKN011 23/22 Q1009=  
13-Mar-2023 SAID35 WAGB 131730 METAR WAGB 131730Z 00000KT 4000 -RA BKN011 23/22 Q1009=  
13-Mar-2023 SAID35 WAGB 131800 METAR WAGB 131800Z 00000KT 4000 BR BKN010 23/22 Q1009 RERA=  
13-Mar-2023 SAID35 WAGB 131830 METAR WAGB 131830Z 00000KT 4000 BR BKN010 23/22 Q1009=  
13-Mar-2023 SAID35 WAGB 131900 METAR WAGB 131900Z 00000KT 4000 BR SCT010 23/22 Q1009=  
13-Mar-2023 SAID35 WAGB 131930 METAR WAGB 131930Z 00000KT 4000 BR SCT010 23/22 Q1009=  
13-Mar-2023 SAID35 WAGB 132000 METAR WAGB 132000Z 00000KT 4000 BR SCT010 23/22 Q1009=  
13-Mar-2023 SAID35 WAGB 132030 METAR WAGB 132030Z 00000KT 4000 BR SCT010 23/22 Q1009=  
13-Mar-2023 SAID35 WAGB 132100 METAR WAGB 132100Z 00000KT 2000 BR BKN009 23/22 Q1009=  
13-Mar-2023 SAID35 WAGB 132130 METAR WAGB 132130Z 00000KT 2000 BR BKN009 23/22 Q1009=  
13-Mar-2023 SAID35 WAGB 132200 METAR WAGB 132200Z 00000KT 4000 BR BKN010 23/22 Q1010=  
13-Mar-2023 SAID35 WAGB 132230 METAR WAGB 132230Z 00000KT 4000 BR BKN010 23/22 Q1010=  
13-Mar-2023 SAID35 WAGB 132300 METAR WAGB 132300Z 00000KT 4000 BR BKN010 23/23 Q1010=  
13-Mar-2023 SAID35 WAGB 132330 METAR WAGB 132330Z 00000KT 4000 BR BKN010 23/23 Q1010=  
14-Mar-2023 SAID35 WAGB 140000 CCA METAR WAGB 140000Z 20003KT 5000 BKN009 24/23 Q1011 NOSIG=  
14-Mar-2023 SAID35 WAGB 140000 METAR WAGB 140000Z 20003KT 5000 BKN009 24/23 Q1011 NOSIG=  
14-Mar-2023 SAID35 WAGB 140030 METAR WAGB 140030Z 18003KT 5000 BKN009 24/23 Q1011 NOSIG=  
14-Mar-2023 SAID35 WAGB 140100 METAR WAGB 140100Z 18003KT 5000 BKN009 25/23 Q1012 NOSIG=  
14-Mar-2023 SAID35 WAGB 140130 CCA METAR WAGB 140130Z 21004KT 5000 BKN009 25/23 Q1012 NOSIG=  
14-Mar-2023 SAID35 WAGB 140200 METAR WAGB 140200Z 27003KT 5000 VCSH BKN009 24/23 Q1012 NOSIG=  
14-Mar-2023 SAID35 WAGB 140230 METAR WAGB 140230Z 19005KT 6000 BKN009 25/23 Q1012 NOSIG=  
14-Mar-2023 SAID35 WAGB 140300 METAR WAGB 140300Z 17002KT 6000 BKN009 25/23 Q1011 NOSIG=  
14-Mar-2023 SAID35 WAGB 140330 METAR WAGB 140330Z 18004KT 7000 BKN010 26/23 Q1010 NOSIG=  
14-Mar-2023 SAID35 WAGB 140400 METAR WAGB 140400Z 00000KT 8000 BKN010 27/23 Q1010 NOSIG=  
14-Mar-2023 SAID35 WAGB 140430 METAR WAGB 140430Z 23002KT 8000 BKN010 27/23 Q1010 NOSIG=  
14-Mar-2023 SAID35 WAGB 140500 METAR WAGB 140500Z 29003KT 8000 BKN011 27/23 Q1009 NOSIG=  
14-Mar-2023 SAID35 WAGB 140530 METAR WAGB 140530Z 25005KT 8000 BKN011 28/23 Q1009 NOSIG=  
14-Mar-2023 SAID35 WAGB 140600 METAR WAGB 140600Z 24005KT 9999 BKN012 29/24 Q1008 NOSIG=  
14-Mar-2023 SAID35 WAGB 140630 METAR WAGB 140630Z 23003KT 9999 BKN012 29/24 Q1007 NOSIG=  
14-Mar-2023 SAID35 WAGB 140700 METAR WAGB 140700Z 21003KT 9999 BKN013 30/24 Q1007 NOSIG=  
14-Mar-2023 SAID35 WAGB 140730 METAR WAGB 140730Z 00000KT 9999 BKN013 30/24 Q1007 NOSIG=  
14-Mar-2023 SAID35 WAGB 140800 METAR WAGB 140800Z 26003KT 9999 FEW013CB SCT014 30/23 Q1007 NOSIG=  
14-Mar-2023 SAID35 WAGB 140830 METAR WAGB 140830Z 28003KT 9999 FEW013CB SCT014 30/23 Q1007 NOSIG=  
14-Mar-2023 SAID35 WAGB 140900 METAR WAGB 140900Z 00000KT 9999 FEW014 BKN062 30/24 Q1007 NOSIG=  
14-Mar-2023 SAID35 WAGB 140930 METAR WAGB 140930Z 00000KT FEW014 BKN062 29/24 Q1007 NOSIG=  
14-Mar-2023 SAID35 WAGB 141000 METAR WAGB 141000Z 00000KT 9999 FEW014 BKN062 29/24 Q1008=  
14-Mar-2023 SAID35 WAGB 141030 METAR WAGB 141030Z 00000KT 9999 FEW014 BKN062 29/24 Q1008 NOSIG=  
14-Mar-2023 SAID35 WAGB 141100 METAR WAGB 141100Z 00000KT 9999 FEW014CB FEW015 28/24 Q1009 NOSIG=  
14-Mar-2023 SAID35 WAGB 141130 METAR WAGB 141130Z 00000KT 9000 FEW013CB FEW014 27/24 Q1009 NOSIG=  
14-Mar-2023 SAID35 WAGB 141200 METAR WAGB 141200Z 00000KT 9000 FEW014 27/25 Q1010=  
14-Mar-2023 SAID35 WAGB 141300 METAR WAGB 141300Z 00000KT 8000 FEW013 26/24 Q1010=  
14-Mar-2023 SAID35 WAGB 141330 METAR WAGB 141330Z 00000KT 8000 FEW013 26/24 Q1011=  
14-Mar-2023 SAID35 WAGB 141400 METAR WAGB 141400Z 00000KT 8000 FEW013 26/24 Q1011=  
14-Mar-2023 SAID35 WAGB 141430 METAR WAGB 141430Z 00000KT 8000 FEW013 26/24 Q1011=  
14-Mar-2023 SAID35 WAGB 141500 METAR WAGB 141500Z 00000KT 8000 FEW013 25/24 Q1011=  
14-Mar-2023 SAID35 WAGB 141530 METAR WAGB 141530Z 00000KT 8000 FEW013 25/24 Q1011=  
14-Mar-2023 SAID35 WAGB 141600 METAR WAGB 141600Z 00000KT 7000 BKN011 25/24 Q1011=  
14-Mar-2023 SAID35 WAGB 141630 METAR WAGB 141630Z 00000KT 6000 BKN011 25/24 Q1011=  
14-Mar-2023 SAID35 WAGB 141700 METAR WAGB 141700Z 00000KT 6000 BKN010 25/24 Q1011=  
14-Mar-2023 SAID35 WAGB 141730 METAR WAGB 141730Z 00000KT 6000 BKN010 25/24 Q1010=  
14-Mar-2023 SAID35 WAGB 141800 METAR WAGB 141800Z 00000KT 6000 BKN010 25/24 Q1010 NOSIG=  
14-Mar-2023 SAID35 WAGB 141830 METAR WAGB 141830Z 00000KT 6000 BKN010 25/24 Q1010 NOSIG=  
14-Mar-2023 SAID35 WAGB 141900 METAR WAGB 141900Z 00000KT 6000 VCSH BKN010 25/24 Q1010 NOSIG=  
14-Mar-2023 SAID35 WAGB 141930 METAR WAGB 141930Z 00000KT 6000 VCSH BKN010 25/24 Q1010 NOSIG=  
14-Mar-2023 SAID35 WAGB 142000 METAR WAGB 142000Z 00000KT 5000 VCSH BKN010 25/24 Q1010 NOSIG=  
14-Mar-2023 SAID35 WAGB 142030 METAR WAGB 142030Z 00000KT 5000 VCSH BKN010 25/24 Q1010 NOSIG=  
14-Mar-2023 SAID35 WAGB 142100 METAR WAGB 142100Z 00000KT 5000 VCSH BKN010 25/24 Q1010 NOSIG=  
14-Mar-2023 SAID35 WAGB 142130 METAR WAGB 142130Z 00000KT 5000 VCSH BKN010 25/24 Q1010 NOSIG=  
14-Mar-2023 SAID35 WAGB 142200 METAR WAGB 142200Z 00000KT 4000 VCSH BKN010 25/24 Q1010 NOSIG=  
14-Mar-2023 SAID35 WAGB 142230 METAR WAGB 142230Z 00000KT 4000 VCSH BKN010 25/24 Q1010 NOSIG=  
14-Mar-2023 SAID35 WAGB 142300 METAR WAGB 142300Z 00000KT 5000 BKN011 24/24 Q1011 NOSIG=  
14-Mar-2023 SAID35 WAGB 142330 METAR WAGB 142330Z 00000KT 5000 BKN011 24/24 Q1011 NOSIG=  
15-Mar-2023 SAID35 WAGB 150000 METAR WAGB 150000Z 00000KT 5000 HZ BKN011 25/24 Q1011=  
15-Mar-2023 SAID35 WAGB 150030 METAR WAGB 150030Z 00000KT 6000 BKN011 25/24 Q1012 NOSIG=  
15-Mar-2023 SAID35 WAGB 150100 METAR WAGB 150100Z 00000KT 7000 BKN011 26/24 Q1012 NOSIG=  
15-Mar-2023 SAID35 WAGB 150130 METAR WAGB 150130Z 00000KT 8000 BKN012 27/24 Q1012 NOSIG=  
15-Mar-2023 SAID35 WAGB 150200 METAR WAGB 150200Z 00000KT 8000 BKN012 27/24 Q1012 NOSIG=  
15-Mar-2023 SAID35 WAGB 150200 CCA METAR WAGB 150200Z 35005KT 8000 BKN011 28/24 Q1011 NOSIG=  
15-Mar-2023 SAID35 WAGB 150230 METAR WAGB 150230Z 00000KT 8000 BN012 27/24 Q1012 NOSIG=  
15-Mar-2023 SAID35 WAGB 150300 METAR WAGB 150300Z 01004KT 9000 SCT012 28/24 Q1011 NOSIG=  
15-Mar-2023 SAID35 WAGB 150330 METAR WAGB 150330Z 34005KT 9000 BKN012 28/24 Q1011 NOSIG=  
15-Mar-2023 SAID35 WAGB 150400 CCA METAR WAGB 150400Z 33005KT 9000 BKN012 28/23 Q1010 NOSIG=  
15-Mar-2023 SAID35 WAGB 150400 METAR WAGB 150400Z 33005KT 9000 BKN012 28/24 Q1010 NOSIG=  
15-Mar-2023 SAID35 WAGB 150430 METAR WAGB 150430Z VRB02KT 9000 BKN012 28/23 Q1010 NOSIG=  
15-Mar-2023 SAID35 WAGB 150500 METAR WAGB 150500Z 35003KT 9999 BKN012 31/23 Q1010 NOSIG=  
15-Mar-2023 SAID35 WAGB 150530 METAR WAGB 150530Z 09003KT 9999 SCT012 31/23 Q1009 NOSIG=  
15-Mar-2023 SAID35 WAGB 150600 METAR WAGB 150600Z VRB02KT 9999 SCT013 32/23 Q1008 NOSIG=  
15-Mar-2023 SAID35 WAGB 150630 METAR WAGB 150630Z 35003KT 9999 SCT013 33/23 Q1008 NOSIG=  
15-Mar-2023 SAID35 WAGB 150700 METAR WAGB 150700Z 03004KT 9999 FEW013TCU SCT014 32/24 Q1008 NOSIG=  
15-Mar-2023 SAID35 WAGB 150730 METAR WAGB 150730Z 04005KT 9999 FEW013TCU SCT014 32/24 Q1008 NOSIG=  
15-Mar-2023 SAID35 WAGB 150800 METAR WAGB 150800Z 00000KT 9999 FEW013TCU SCT014 33/24 Q1007 NOSIG=  
15-Mar-2023 SAID35 WAGB 150830 METAR WAGB 150830Z 00000KT 9999 FEW013TCU SCT014 33/24 Q1007 NOSIG=  
15-Mar-2023 SAID35 WAGB 150900 METAR WAGB 150900Z 00000KT 9999 FEW013CB SCT014 33/23 Q1007 NOSIG=  
15-Mar-2023 SAID35 WAGB 150930 METAR WAGB 150930Z 00000KT 9999 FEW013CB SCT014 33/23 Q1007 NOSIG=  
15-Mar-2023 SAID35 WAGB 151000 METAR WAGB 151000Z 00000KT 9999 FEW013CB SCT014 32/23 Q1008 NOSIG=  
15-Mar-2023 SAID35 WAGB 151030 METAR WAGB 151030Z 00000KT 9999 FEW013CB SCT014 32/23 Q1008 NOSIG=  
15-Mar-2023 SAID35 WAGB 151100 METAR WAGB 151100Z 00000KT 8000 FEW013CB 30/25 Q1009 NOSIG=  
15-Mar-2023 SAID35 WAGB 151130 METAR WAGB 151130Z 00000KT 8000 FEW013CB 30/25 Q1009 NOSIG=  
15-Mar-2023 SAID35 WAGB 151200 METAR WAGB 151200Z 00000KT 8000 VCTS FEW012CB FEW013 29/25 Q1010=  
15-Mar-2023 SAID35 WAGB 151230 METAR WAGB 151230Z 00000KT 8000 VCTS FEW012CB FEW013 29/25 Q1010=  
15-Mar-2023 SAID35 WAGB 151300 METAR WAGB 151300Z 00000KT 7000 TS FEW012CB BKN013 28/25 Q1011=  
15-Mar-2023 SAID35 WAGB 151330 METAR WAGB 151330Z 00000KT 5000 -TSRA FEW012CB BKN013 28/25 Q1011=  
15-Mar-2023 SAID35 WAGB 151400 METAR WAGB 151400Z 00000KT 5000 -RA FEW012CB BKN013 27/25 Q1011=  
15-Mar-2023 SAID35 WAGB 151430 METAR WAGB 151430Z 00000KT 5000 -RA FEW012CB BKN013 27/25 Q1011=  
15-Mar-2023 SAID35 WAGB 151500 METAR WAGB 151500Z 00000KT 5000 -RA FEW012CB BKN013 26/24 Q1011=  
15-Mar-2023 SAID35 WAGB 151500 CCA METAR WAGB 151500Z 00000KT 5000 -RA FEW012CB BKN013 26/24 Q1011 RETS=  
15-Mar-2023 SAID35 WAGB 151530 METAR WAGB 151530Z 00000KT 5000 -RA FEW012CB BKN013 26/24 Q1011=  
15-Mar-2023 SAID35 WAGB 151600 METAR WAGB 151600Z 00000KT 5000 -RA FEW012CB BKN013 26/24 Q1011=  
15-Mar-2023 SAID35 WAGB 151630 METAR WAGB 151630Z 00000KT 5000 -RA FEW012CB BKN013 26/24 Q1011=  
15-Mar-2023 SAID35 WAGB 151700 METAR WAGB 151700Z 00000KT 5000 -RA FEW012CB BKN013 26/24 Q1011=  
15-Mar-2023 SAID35 WAGB 151730 METAR WAGB 151730Z 00000KT 5000 -RA FEW012CB BKN013 26/24 Q1011=  
15-Mar-2023 SAID35 WAGB 151800 METAR WAGB 151800Z 00000KT 6000 FEW011CB BKN012 25/24 Q1010 RERA=  
15-Mar-2023 SAID35 WAGB 151830 METAR WAGB 151830Z 00000KT 6000 FEW011CB BKN012 25/24 Q1010=  
15-Mar-2023 SAID35 WAGB 151900 METAR WAGB 151900Z 00000KT 5000 VCSH FEW011CB BKN012 25/24 Q1010=  
15-Mar-2023 SAID35 WAGB 151930 METAR WAGB 151930Z 00000KT 5000 VCSH FEW011CB BKN012 25/24 Q1010=  
15-Mar-2023 SAID35 WAGB 152000 METAR WAGB 152000Z 00000KT 5000 VCSH FEW011CB BKN012 25/24 Q1010=  
15-Mar-2023 SAID35 WAGB 152030 METAR WAGB 152030Z 00000KT 5000 VCSH FEW011CB BKN012 25/24 Q1010=  
15-Mar-2023 SAID35 WAGB 152100 METAR WAGB 152100Z 00000KT 5000 VCSH BKN010 25/24 Q1010=  
15-Mar-2023 SAID35 WAGB 152130 METAR WAGB 152130Z 00000KT 5000 VCSH BKN010 25/24 Q1011=  
15-Mar-2023 SAID35 WAGB 152200 METAR WAGB 152200Z 00000KT 5000 VCSH BKN010 25/24 Q1011=  
15-Mar-2023 SAID35 WAGB 152230 METAR WAGB 152230Z 00000KT 5000 VCSH BKN010 25/24 Q1011=  
15-Mar-2023 SAID35 WAGB 152300 METAR WAGB 152300Z 00000KT 5000 -RA BKN010 25/24 Q1012=  
15-Mar-2023 SAID35 WAGB 152330 METAR WAGB 152330Z 00000KT 5000 -RA BKN010 25/24 Q1012=  
16-Mar-2023 SAID35 WAGB 160000 METAR WAGB 160000Z 00000KT 5000 -RA BKN010 25/24 Q1012 NOSIG=  
16-Mar-2023 SAID35 WAGB 160030 METAR WAGB 160030Z 00000KT 2000 -RA BKN009 24/24 Q1012 NOSIG=  
16-Mar-2023 SAID35 WAGB 160100 METAR WAGB 160100Z 32003KT 5000 BKN009 24/24 Q1013 NOSIG=  
16-Mar-2023 SAID35 WAGB 160130 METAR WAGB 160130Z 35003KT 5000 BKN010 26/24 Q1013 NOSIG=  
16-Mar-2023 SAID35 WAGB 160200 METAR WAGB 160200Z 00000KT 5000 BKN010 27/24 Q1012 NOSIG=  
16-Mar-2023 SAID35 WAGB 160230 METAR WAGB 160230Z 00000KT 6000 BKN010 27/24 Q1012 NOSIG=  
16-Mar-2023 SAID35 WAGB 160300 METAR WAGB 160300Z 00000KT 6000 BKN010 28/24 Q1012 NOSIG=  
16-Mar-2023 SAID35 WAGB 160330 METAR WAGB 160330Z 20006KT 6000 BKN010 28/25 Q1012 NOSIG=  
16-Mar-2023 SAID35 WAGB 160400 METAR WAGB 160400Z 24004KT 7000 BKN012 29/25 Q1011 NOSIG=  
16-Mar-2023 SAID35 WAGB 160430 METAR WAGB 160400Z 20004KT 1500 RA BKN010 27/24 Q1011 NOSIG=  
16-Mar-2023 SPID33 WAGB 160423 SPECI WAGB 160423Z 23005KT 7000 RA FEW010CB BKN011 28/25 Q1011=  
16-Mar-2023 SAID35 WAGB 160430 METAR WAGB 160430Z 20004KT 1500 RA BKN010 27/24 Q1011 NOSIG=  
16-Mar-2023 SAID35 WAGB 160500 METAR WAGB 160500Z 20002KT 1500 RA BKN011 25/25 Q1011 NOSIG=  
16-Mar-2023 SAID35 WAGB 160530 METAR WAGB 160530Z 00000KT 5000 -RA BKN012 26/25 Q1010 NOSIG=  
16-Mar-2023 SAID35 WAGB 160600 METAR WAGB 160600Z 26002KT 5000 FEW012CB BKN012 27/25 Q1009 NOSIG=  
16-Mar-2023 SAID35 WAGB 160630 METAR WAGB 160630Z 21003KT 6000 FEW012CB BKN012 27/25 Q1009 NOSIG=  
16-Mar-2023 SAID35 WAGB 160700 METAR WAGB 160700Z 18004KT 6000 FEW012CB BKN012 27/24 Q1008 NOSIG=  
16-Mar-2023 SAID35 WAGB 160730 METAR WAGB 160730Z VRB02KT 6000 FEW012CB BKN013 27/24 Q1008 NOSIG=  
16-Mar-2023 SAID35 WAGB 160800 METAR WAGB 160800Z 16002KT 7000 FEW012CB BKN013 28/25 Q1007 NOSIG=  
16-Mar-2023 SAID35 WAGB 160830 METAR WAGB 160830Z 22003KT 9999 FEW012TCU SCT013 29/25 Q1008 NOSIG=  
16-Mar-2023 SAID35 WAGB 160900 METAR WAGB 160900Z 20005KT 9999 FEW013TCU SCT014 29/24 Q1008 NOSIG=  
16-Mar-2023 SAID35 WAGB 160930 METAR WAGB 160930Z 00000KT 9999 FEW013TCU SCT014 29/24 Q1009 NOSIG=  
16-Mar-2023 SAID35 WAGB 161000 METAR WAGB 161000Z 00000KT 9999 FEW013CB FEW014 28/25 Q1009 NOSIG=  
16-Mar-2023 SAID35 WAGB 161030 METAR WAGB 161030Z 00000KT 9999 FEW013CB FEW014 28/25 Q1010 NOSIG=  
16-Mar-2023 SAID35 WAGB 161100 METAR WAGB 161100Z 00000KT 9000 BKN013 27/25 Q1010 NOSIG=  
16-Mar-2023 SAID35 WAGB 161130 METAR WAGB 161130Z 00000KT 9000 BKN012 27/25 Q1010 NOSIG=  
16-Mar-2023 SAID35 WAGB 161200 METAR WAGB 161200Z 00000KT 9000 VCTS FEW013CB SCT014 27/25 Q1011=  
16-Mar-2023 SAID35 WAGB 161230 METAR WAGB 161230Z 00000KT 7000 VCTS FEW013CB BKN014 27/25 Q1011=  
16-Mar-2023 SAID35 WAGB 161300 METAR WAGB 161300Z 16004KT 5000 RA FEW012CB BKN013 25/24 Q1013=  
16-Mar-2023 SAID35 WAGB 161330 METAR WAGB 161330Z 16002KT 5000 -RA FEW012CB BKN013 24/24 Q1013=  
16-Mar-2023 SAID35 WAGB 161400 METAR WAGB 161400Z 00000KT 6000 FEW012CB BKN013 25/24 Q1012 RERA=  
16-Mar-2023 SAID35 WAGB 161430 METAR WAGB 161430Z 06002KT 6000 FEW012CB BKN013 25/24 Q1012=  
16-Mar-2023 SAID35 WAGB 161500 METAR WAGB 161500Z 00000KT 6000 FEW011CB BKN012 25/24 Q1012=  
16-Mar-2023 SAID35 WAGB 161530 METAR WAGB 161530Z 00000KT 5000 -RA FEW011CB BKN012 25/24 Q1012=  
16-Mar-2023 SAID35 WAGB 161600 METAR WAGB 161600Z 00000KT 5000 -RA FEW011CB BKN012 24/24 Q1012=  
16-Mar-2023 SAID35 WAGB 161630 METAR WAGB 161630Z 00000KT 5000 -RA FEW010CB OVC011 24/24 Q1011=  
16-Mar-2023 SAID35 WAGB 161700 METAR WAGB 161700Z 00000KT 5000 -RA FEW010CB OVC011 24/24 Q1011=  
16-Mar-2023 SAID35 WAGB 161730 METAR WAGB 161730Z 00000KT 5000 FEW010CB OVC011 24/24 Q1011 RERA=  
16-Mar-2023 SAID35 WAGB 161800 METAR WAGB 161800Z 11003KT 6000 BKN010 24/24 Q1010=  
16-Mar-2023 SAID35 WAGB 161830 METAR WAGB 161830Z 09002KT 6000 BKN010 24/24 Q1010=  
16-Mar-2023 SAID35 WAGB 161900 METAR WAGB 161900Z 00000KT 5000 HZ BKN009 24/24 Q1010=  
16-Mar-2023 SAID35 WAGB 161930 METAR WAGB 161930Z 00000KT 4000 HZ BKN009 24/24 Q1010=  
16-Mar-2023 SAID35 WAGB 162000 METAR WAGB 162000Z 00000KT 3000 BR OVC009 24/24 Q1010=  
16-Mar-2023 SAID35 WAGB 162030 METAR WAGB 162030Z 00000KT 2500 -RA BR OVC009 24/24 Q1010=  
16-Mar-2023 SAID35 WAGB 162100 METAR WAGB 162100Z 00000KT 2500 OVC008 24/24 Q1011 RERA=  
16-Mar-2023 SAID35 WAGB 162130 METAR WAGB 162130Z 00000KT 2500 OVC008 24/24 Q1011=  
16-Mar-2023 SAID35 WAGB 162200 METAR WAGB 162200Z 00000KT 6000 BKN008 24/24 Q1011=  
16-Mar-2023 SAID35 WAGB 162230 METAR WAGB 162230Z 00000KT 6000 BKN008 24/24 Q1012=  
16-Mar-2023 SAID35 WAGB 162300 METAR WAGB 162300Z 00000KT 7000 BKN008 24/24 Q1012=  
16-Mar-2023 SAID35 WAGB 162330 METAR WAGB 162330Z 00000KT 7000 BKN008 24/24 Q1013=  
17-Mar-2023 SAID35 WAGB 170000 METAR WAGB 170000Z 00000KT 7000 BKN009 25/24 Q1013 NOSIG=  
17-Mar-2023 SAID35 WAGB 170030 METAR WAGB 170030Z 00000KT 7000 BKN009 25/24 Q1013 NOSIG=  
17-Mar-2023 SAID35 WAGB 170100 METAR WAGB 170100Z 00000KT 7000 BKN010 26/24 Q1013 NOSIG=  
17-Mar-2023 SAID35 WAGB 170130 METAR WAGB 170130Z 06003KT 7000 BKN010 26/24 Q1013 NOSIG=  
17-Mar-2023 SAID35 WAGB 170200 METAR WAGB 170200Z 03004KT 8000 BKN011 27/25 Q1013 NOSIG=  
17-Mar-2023 SAID35 WAGB 170230 METAR WAGB 170230Z 04003KT 8000 BKN011 27/25 Q1013 NOSIG=  
17-Mar-2023 SAID35 WAGB 170300 METAR WAGB 170300Z 07003KT 9999 BKN012 29/24 Q1012 NOSIG=  
17-Mar-2023 SAID35 WAGB 170330 METAR WAGB 170330Z 00000KT 9999 BKN012 30/24 Q1012 NOSIG=  
17-Mar-2023 SAID35 WAGB 170400 METAR WAGB 170400Z 12003KT 9999 BKN012 30/24 Q1011 NOSIG=  
17-Mar-2023 SAID35 WAGB 170430 METAR WAGB 170430Z 09004KT 9999 BKN012 30/24 Q1011 NOSIG=  
17-Mar-2023 SAID35 WAGB 170500 METAR WAGB 170500Z 10003KT 9999 SCT013 31/24 Q1010 NOSIG=  
17-Mar-2023 SAID35 WAGB 170530 METAR WAGB 170530Z 05003KT 9999 SCT013 31/24 Q1009 NOSIG=  
17-Mar-2023 SAID35 WAGB 170600 METAR WAGB 170600Z 10005KT 9999 SCT013 32/24 Q1009 NOSIG=  
17-Mar-2023 SAID35 WAGB 170630 METAR WAGB 170630Z 09004KT 9999 SCT013 32/24 Q1008 NOSIG=  
17-Mar-2023 SAID35 WAGB 170700 METAR WAGB 170700Z 00000KT 9999 SCT013 32/24 Q1008 NOSIG=  
17-Mar-2023 SAID35 WAGB 170730 METAR WAGB 170730Z 00000KT 9999 SCT013 32/24 Q1007 NOSIG=  
17-Mar-2023 SAID35 WAGB 170800 METAR WAGB 170800Z 00000KT 9999 SCT013 32/25 Q1007 NOSIG=  
17-Mar-2023 SAID35 WAGB 170830 METAR WAGB 170830Z 00000KT 9999 SCT013 32/25 Q1007 NOSIG=  
17-Mar-2023 SAID35 WAGB 170900 METAR WAGB 170900Z 00000KT 9999 FEW014TCU FEW015 32/24 Q1006 NOSIG=  
17-Mar-2023 SAID35 WAGB 170930 METAR WAGB 170930Z 00000KT 9999 FEW014TCU FEW015 32/24 Q1006 NOSIG=  
17-Mar-2023 SAID35 WAGB 171000 METAR WAGB 171000Z 00000KT 9999 FEW014TCU FEW015 30/25 Q1007 NOSIG=  
17-Mar-2023 SAID35 WAGB 171030 METAR WAGB 171030Z 00000KT 9999 FEW014TCU FEW015 28/25 Q1008 NOSIG=  
17-Mar-2023 SAID35 WAGB 171100 METAR WAGB 171100Z 00000KT 9999 FEW014 29/26 Q1009 NOSIG=  
17-Mar-2023 SAID35 WAGB 171200 METAR WAGB 171200Z 00000KT 8000 SCT013 28/26 Q1009 NOSIG=  
17-Mar-2023 SAID35 WAGB 171230 METAR WAGB 171230Z 00000KT 8000 SCT013 28/26 Q1009 NOSIG=  
17-Mar-2023 SAID35 WAGB 171300 METAR WAGB 171300Z 00000KT 8000 SCT013 28/26 Q1010=  
17-Mar-2023 SAID35 WAGB 171330 METAR WAGB 171330Z 00000KT 8000 SCT013 27/25 Q1010=  
17-Mar-2023 SAID35 WAGB 171400 METAR WAGB 171400Z 00000KT 8000 SCT012 27/25 Q1011=  
17-Mar-2023 SAID35 WAGB 171430 METAR WAGB 171430Z 00000KT 8000 SCT012 27/25 Q1011=  
17-Mar-2023 SAID35 WAGB 171500 METAR WAGB 171500Z 00000KT 7000 SCT012 26/25 Q1011=  
17-Mar-2023 SAID35 WAGB 171530 METAR WAGB 171530Z 00000KT 7000 SCT012 26/25 Q1011=  
17-Mar-2023 SAID35 WAGB 171600 METAR WAGB 171600Z 00000KT 6000 SCT011 26/25 Q1011=  
17-Mar-2023 SAID35 WAGB 171630 METAR WAGB 171630Z 00000KT 6000 SCT011 26/25 Q1011=  
17-Mar-2023 SAID35 WAGB 171700 METAR WAGB 171700Z 00000KT 6000 SCT011 26/25 Q1011=  
17-Mar-2023 SAID35 WAGB 171730 METAR WAGB 171730Z 00000KT 6000 SCT011 26/25 Q1011=  
17-Mar-2023 SAID35 WAGB 171800 METAR WAGB 171800Z 00000KT 6000 SCT011 26/25 Q1010=  
17-Mar-2023 SAID35 WAGB 171830 METAR WAGB 171830Z 00000KT 6000 SCT011 25/24 Q1010=  
17-Mar-2023 SAID35 WAGB 171900 METAR WAGB 171900Z 00000KT 6000 BKN011 25/24 Q1010=  
17-Mar-2023 SAID35 WAGB 171930 METAR WAGB 171930Z 00000KT 6000 BKN011 25/24 Q1010=  
17-Mar-2023 SAID35 WAGB 172000 METAR WAGB 172000Z 00000KT 6000 BKN011 25/24 Q1009=  
17-Mar-2023 SAID35 WAGB 172030 METAR WAGB 172030Z 00000KT 6000 BKN011 25/24 Q1010=  
17-Mar-2023 SAID35 WAGB 172100 METAR WAGB 172100Z 00000KT 6000 BKN011 25/25 Q1010=  
17-Mar-2023 SAID35 WAGB 172130 METAR WAGB 172130Z 00000KT 6000 BKN011 25/25 Q1010=  
17-Mar-2023 SAID35 WAGB 172200 METAR WAGB 172200Z 00000KT 6000 BKN011 25/25 Q1010=  
17-Mar-2023 SAID35 WAGB 172230 METAR WAGB 172230Z 00000KT 6000 BKN011 25/25 Q1010=  
17-Mar-2023 SAID35 WAGB 172300 METAR WAGB 172300Z 00000KT 6000 BKN011 25/24 Q1010=  
17-Mar-2023 SAID35 WAGB 172330 METAR WAGB 172330Z 00000KT 6000 BKN011 25/24 Q1010=  
18-Mar-2023 SAID35 WAGB 180000 METAR WAGB 180000Z 00000KT 6000 BKN012 26/25 Q1011 NOSIG=  
18-Mar-2023 SAID35 WAGB 180030 METAR WAGB 180030Z 00000KT 7000 BKN012 27/24 Q1011 NOSIG=  
18-Mar-2023 SAID35 WAGB 180100 METAR WAGB 180100Z 00000KT 7000 BKN012 27/25 Q1012 NOSIG=  
18-Mar-2023 SAID35 WAGB 180130 METAR WAGB 180130Z 00000KT 8000 BKN012 28/24 Q1012 NOSIG=  
18-Mar-2023 SAID35 WAGB 180200 METAR WAGB 180200Z 00000KT 9000 BKN012 28/24 Q1012 NOSIG=  
18-Mar-2023 SAID35 WAGB 180230 METAR WAGB 180230Z 00000KT 9999 BKN012 29/24 Q1011 NOSIG=  
18-Mar-2023 SAID35 WAGB 180300 METAR WAGB 180300Z 21002KT 9999 BKN012 31/24 Q1011 NOSIG=  
18-Mar-2023 SAID35 WAGB 180330 METAR WAGB 180330Z 33003KT 9999 FEW011TCU BKN012 30/24 Q1011 NOSIG=  
18-Mar-2023 SAID35 WAGB 180400 METAR WAGB 180400Z 00000KT 9999 FEW011TCU BKN012 30/24 Q1010 NOSIG=  
18-Mar-2023 SAID35 WAGB 180430 METAR WAGB 180430Z 22003KT 9999 FEW011TCU BKN012 30/25 Q1009 NOSIG=  
18-Mar-2023 SAID35 WAGB 180500 METAR WAGB 180500Z 27005KT 9999 FEW011TCU BKN012 30/25 Q1009 NOSIG=  
18-Mar-2023 SPID33 WAGB 180510 SPECI WAGB 180510Z 35009KT 4000 RA FEW011TCU BKN012 28/25 Q1008=  
18-Mar-2023 SAID35 WAGB 180530 METAR WAGB 180530Z 33008KT 4000 RA FEW011TCU BKN012 26/24 Q1008 TEMPO TL0710 RA=  
18-Mar-2023 SAID35 WAGB 180600 METAR WAGB 180600Z 20004KT 9999 FEW014CB BKN015 30/26 Q1008 NOSIG=  
18-Mar-2023 SAID35 WAGB 180630 METAR WAGB 180630Z 00000KT 9999 TS FEW014CB BKN015 30/26 Q1008 NOSIG=  
18-Mar-2023 SAID35 WAGB 180700 METAR WAGB 180700Z 00000KT 8000 TS FEW013CB BKN014 28/24 Q1007 NOSIG=  
18-Mar-2023 SAID35 WAGB 180730 METAR WAGB 180730Z 00000KT 8000 TS FEW013CB BKN014 28/24 Q1007 NOSIG=  
18-Mar-2023 SAID35 WAGB 180800 METAR WAGB 180800Z 00000KT 8000 FEW013CB BKN014 27/24 Q1007 NOSIG=  
18-Mar-2023 SAID35 WAGB 180830 METAR WAGB 180830Z 00000KT 8000 FEW013CB BKN014 27/24 Q1007 NOSIG=  
18-Mar-2023 SAID35 WAGB 180900 METAR WAGB 180900Z 20002KT 9000 FEW013CB SCT014 27/24 Q1007 NOSIG=  
18-Mar-2023 SAID35 WAGB 180930 METAR WAGB 180930Z 18002KT 9000 FEW013CB SCT014 27/24 Q1008=  
18-Mar-2023 SAID35 WAGB 181000 METAR WAGB 181000Z 03003KT 9000 FEW013CB SCT014 27/23 Q1008=  
18-Mar-2023 SAID35 WAGB 181030 METAR WAGB 181030Z 00000KT 9000 FEW013CB SCT014 26/23 Q1008=  
18-Mar-2023 SAID35 WAGB 181100 METAR WAGB 181100Z 00000KT 9000 FEW013CB SCT014 26/24 Q1008=  
18-Mar-2023 SAID35 WAGB 181130 METAR WAGB 181130Z 00000KT 9000 FEW013CB SCT014 26/24 Q1008=  
18-Mar-2023 SAID35 WAGB 181200 METAR WAGB 181200Z 00000KT 8000 FEW012CB SCT013 26/24 Q1008=  
18-Mar-2023 SAID35 WAGB 181230 METAR WAGB 181230Z 00000KT 8000 FEW012CB SCT013 26/24 Q1008=  
18-Mar-2023 SAID35 WAGB 181300 METAR WAGB 181300Z 00000KT 8000 SCT013 25/24 Q1009=  
18-Mar-2023 SAID35 WAGB 181330 METAR WAGB 181330Z 00000KT 8000 SCT013 25/24 Q1009=  
18-Mar-2023 SAID35 WAGB 181400 METAR WAGB 181400Z 00000KT 7000 SCT013 25/24 Q1010=  
18-Mar-2023 SAID35 WAGB 181430 METAR WAGB 181430Z 00000KT 7000 SCT012 25/24 Q1010=  
18-Mar-2023 SAID35 WAGB 181500 METAR WAGB 181500Z 00000KT 6000 SCT012 25/24 Q1011=  
18-Mar-2023 SAID35 WAGB 181530 METAR WAGB 181530Z 00000KT 6000 SCT012 25/24 Q1011=  
18-Mar-2023 SAID35 WAGB 181600 METAR WAGB 181600Z 19003KT 6000 SCT012 25/24 Q1011=  
18-Mar-2023 SAID35 WAGB 181630 METAR WAGB 181630Z 00000KT 5000 SCT011 25/24 Q1011=  
18-Mar-2023 SAID35 WAGB 181700 METAR WAGB 181700Z 00000KT 5000 BKN011 24/24 Q1011=  
18-Mar-2023 SAID35 WAGB 181730 METAR WAGB 181730Z 00000KT 4500 BR BKN011 24/24 Q1011=  
18-Mar-2023 SAID35 WAGB 181800 METAR WAGB 181800Z 00000KT 4500 BR BKN010 24/23 Q1010=  
18-Mar-2023 SAID35 WAGB 181830 METAR WAGB 181830Z 00000KT 4500 BR BKN010 24/23 Q1010=  
18-Mar-2023 SAID35 WAGB 181900 METAR WAGB 181900Z 00000KT 4500 BR BKN010 24/23 Q1010=  
18-Mar-2023 SAID35 WAGB 181930 METAR WAGB 181930Z 00000KT 4500 BR BKN010 24/23 Q1010=  
18-Mar-2023 SAID35 WAGB 182000 METAR WAGB 182000Z 00000KT 3500 BR BKN010 24/24 Q1009=  
18-Mar-2023 SAID35 WAGB 182030 METAR WAGB 182030Z 00000KT 3500 BR BKN010 24/24 Q1009=  
18-Mar-2023 SAID35 WAGB 182100 METAR WAGB 182100Z 00000KT 4000 BR BKN009 24/24 Q1009=  
18-Mar-2023 SAID35 WAGB 182130 METAR WAGB 182130Z 00000KT 4000 BR BKN009 24/24 Q1009=  
18-Mar-2023 SAID35 WAGB 182200 METAR WAGB 182200Z 00000KT 4000 BR SCT009 24/23 Q1009=  
18-Mar-2023 SAID35 WAGB 182230 METAR WAGB 182230Z 00000KT 4000 BR SCT009 24/23 Q1009=  
18-Mar-2023 SAID35 WAGB 182300 METAR WAGB 182300Z 00000KT 4000 BR SCT009 24/23 Q1010=  
18-Mar-2023 SAID35 WAGB 182330 METAR WAGB 182330Z 00000KT 4500 BR SCT009 24/23 Q1010=  
19-Mar-2023 SAID35 WAGB 190000 METAR WAGB 190000Z 04002KT 1500 BR FEW008 24/24 Q1011 BECMG TL0045 6000=  
19-Mar-2023 SAID35 WAGB 190030 METAR WAGB 190030Z 05002KT 6000 FEW008 24/24 Q1011 BECMG NOSIG=  
19-Mar-2023 SAID35 WAGB 190100 METAR WAGB 190100Z 00000KT 8000 FEW009 25/24 Q1011 NOSIG=  
19-Mar-2023 SAID35 WAGB 190130 METAR WAGB 190130Z 00000KT 9999 FEW010 26/24 Q1011 NOSIG=  
19-Mar-2023 SAID35 WAGB 190200 METAR WAGB 190200Z 09002KT 9999 SCT010 28/25 Q1011 NOSIG=  
19-Mar-2023 SAID35 WAGB 190230 METAR WAGB 190230Z 08004KT 9999 BKN011 29/25 Q1010 NOSIG=  
19-Mar-2023 SAID35 WAGB 190300 METAR WAGB 190300Z 10003KT 9999 BKN011 30/25 Q1010 NOSIG=  
19-Mar-2023 SAID35 WAGB 200300 METAR WAGB 190300Z 11004KT 9000 BKN011 30/27 Q1010 NOSIG=  
19-Mar-2023 SAID35 WAGB 190330 METAR WAGB 190330Z 09003KT 9999 BKN012 31/25 Q1009 NOSIG=  
19-Mar-2023 SAID35 WAGB 200330 METAR WAGB 190330Z 34002KT 9000 BKN011 30/27 Q1010 NOSIG=  
19-Mar-2023 SAID35 WAGB 190400 METAR WAGB 190400Z 07004KT 9999 SCT013 31/25 Q1009 NOSIG=  
19-Mar-2023 SAID35 WAGB 200400 CCA METAR WAGB 190400Z 35003KT 7000 BKN011 29/25 Q1010 NOSIG=  
19-Mar-2023 SAID35 WAGB 200400 METAR WAGB 190400Z KT 7000 BKN011 29/25 Q1010 NOSIG=  
19-Mar-2023 SAID35 WAGB 190430 METAR WAGB 190430Z 10005KT 9999 SCT013 32/24 Q1008 NOSIG=  
19-Mar-2023 SAID35 WAGB 200430 CCA METAR WAGB 190430Z 15004KT 7000 BKN012 29/25 Q1010 NOSIG=  
19-Mar-2023 SAID35 WAGB 190500 METAR WAGB 190500Z 10004KT 9999 SCT013 32/24 Q1008 NOSIG=  
19-Mar-2023 SAID35 WAGB 200500 METAR WAGB 190500Z 18005KT 8000 VCSH FEW011CB BKN012 29/25 Q1008 NOSIG=  
19-Mar-2023 SAID35 WAGB 190530 METAR WAGB 190530Z 10007KT 9999 SCT013 33/24 Q1007 NOSIG=  
19-Mar-2023 SAID35 WAGB 200530 METAR WAGB 190530Z 0000KT 8000 VCSH FEW011CB BKN012 30/25 Q1008 NOSIG=  
19-Mar-2023 SAID35 WAGB 200530 CCA METAR WAGB 190530Z 0000KT 8000 VCSH FEW011CB BKN012 30/25 Q1008 NOSIG=  
19-Mar-2023 SAID35 WAGB 190600 METAR WAGB 190600Z 12004KT 9999 SCT013 33/24 Q1006 NOSIG=  
19-Mar-2023 SAID35 WAGB 190630 METAR WAGB 190630Z 03005KT 9999 SCT013 33/25 Q1006 NOSIG=  
19-Mar-2023 SAID35 WAGB 190700 METAR WAGB 190700Z 06005KT 9999 SCT013 33/24 Q1006 NOSIG=  
19-Mar-2023 SAID35 WAGB 190730 METAR WAGB 190730Z 06005KT 9999 SCT013 33/24 Q1005 NOSIG=  
19-Mar-2023 SAID35 WAGB 190800 METAR WAGB 190800Z 05005KT 9999 SCT013 34/24 Q1005 NOSIG=  
19-Mar-2023 SAID35 WAGB 190830 METAR WAGB 190830Z 03005KT 9999 SCT013 34/24 Q1004 NOSIG=  
19-Mar-2023 SAID35 WAGB 190900 METAR WAGB 190900Z 04003KT 9999 FEW014CB SCT015 34/25 Q1004 NOSIG=  
19-Mar-2023 SAID35 WAGB 190930 METAR WAGB 190930Z 00000KT 9999 FEW014TCU SCT015 34/25 Q1005 NOSIG=  
19-Mar-2023 SAID35 WAGB 191000 METAR WAGB 191000Z 00000KT 9999 FEW014CB SCT015 33/24 Q1005 NOSIG=  
19-Mar-2023 SAID35 WAGB 191030 METAR WAGB 191030Z 00000KT 9999 FEW014CB SCT015 32/24 Q1006 NOSIG=  
19-Mar-2023 SAID35 WAGB 191100 METAR WAGB 191100Z 00000KT 9999 FEW014CB FEW015 30/25 Q1006 NOSIG=  
19-Mar-2023 SAID35 WAGB 191130 METAR WAGB 191130Z 00000KT 9999 FEW014CB SCT015 30/25 Q1007 NOSIG=  
19-Mar-2023 SAID35 WAGB 191200 METAR WAGB 191200Z 00000KT 8000 FEW012CB FEW013 30/26 Q1007=  
19-Mar-2023 SAID35 WAGB 191230 METAR WAGB 191230Z 00000KT 8000 FEW012CB FEW013 30/26 Q1007=  
19-Mar-2023 SAID35 WAGB 191300 METAR WAGB 191300Z 00000KT 7000 SCT012CB 28/25 Q1008=  
19-Mar-2023 SAID35 WAGB 191300 CCA METAR WAGB 191300Z 00000KT 7000 SCT012 28/25 Q1008=  
19-Mar-2023 SAID35 WAGB 191330 METAR WAGB 191330Z 00000KT 7000 SCT012 28/25 Q1008=  
19-Mar-2023 SAID35 WAGB 191400 METAR WAGB 191400Z 00000KT 7000 SCT012 28/25 Q1008=  
19-Mar-2023 SAID35 WAGB 191430 METAR WAGB 191430Z 00000KT 7000 SCT012 28/25 Q1008=  
19-Mar-2023 SAID35 WAGB 191430 CCA METAR WAGB 191430Z 00000KT 7000 SCT012 28/25 Q1009=  
19-Mar-2023 SAID35 WAGB 191500 CCA METAR WAGB 191500Z VRB02KT 6000 SCT012 27/25 Q1009=  
19-Mar-2023 SAID35 WAGB 191500 METAR WAGB 191500Z VRB02KT 6000 SCT012CB 27/25 Q1009=  
19-Mar-2023 SAID35 WAGB 191530 METAR WAGB 191530Z 00000KT 6000 SCT012 27/25 Q1009=  
19-Mar-2023 SAID35 WAGB 191600 METAR WAGB 191600Z 00000KT 6000 SCT012 27/25 Q1009=  
19-Mar-2023 SAID35 WAGB 191630 METAR WAGB 191630Z 00000KT 6000 SCT012 27/25 Q1009=  
19-Mar-2023 SAID35 WAGB 191700 METAR WAGB 191700Z 00000KT 6000 BKN012 26/25 Q1008=  
19-Mar-2023 SAID35 WAGB 191730 METAR WAGB 191730Z 00000KT 6000 BKN012 26/25 Q1008=  
19-Mar-2023 SAID35 WAGB 191800 METAR WAGB 191800Z 00000KT 5000 HZ BKN011 26/25 Q1008=  
19-Mar-2023 SAID35 WAGB 191830 METAR WAGB 191830Z 00000KT 5000 HZ BKN011 26/25 Q1008=  
19-Mar-2023 SAID35 WAGB 191900 METAR WAGB 191900Z 00000KT 5000 HZ BKN011 26/25 Q1007=  
19-Mar-2023 SAID35 WAGB 191930 METAR WAGB 191930Z 00000KT 5000 HZ BKN011 26/25 Q1007=  
19-Mar-2023 SAID35 WAGB 192000 METAR WAGB 192000Z 00000KT 5000 HZ BKN011 26/25 Q1007=  
19-Mar-2023 SAID35 WAGB 192030 METAR WAGB 192030Z 00000KT 5000 HZ BKN011 26/25 Q1007=  
19-Mar-2023 SAID35 WAGB 192100 METAR WAGB 192100Z 00000KT 5000 VCTS FEW010 BKN011 25/25 Q1007=  
19-Mar-2023 SAID35 WAGB 192100 CCA METAR WAGB 192100Z 00000KT 5000 VCTS FEW010CB BKN011 25/25 Q1007=  
19-Mar-2023 SAID35 WAGB 192130 METAR WAGB 192130Z 00000KT 5000 VCTS FEW010 BKN011 25/25 Q1007=  
19-Mar-2023 SAID35 WAGB 192130 CCA METAR WAGB 192130Z 00000KT 5000 VCTS FEW010CB BKN011 25/25 Q1007=  
19-Mar-2023 SAID35 WAGB 192200 METAR WAGB 192200Z 00000KT 5000 VCTS FEW010 BKN011 25/25 Q1008=  
19-Mar-2023 SAID35 WAGB 192200 CCA METAR WAGB 192200Z 00000KT 5000 VCTS FEW010CB BKN011 25/25 Q1008=  
19-Mar-2023 SAID35 WAGB 192230 METAR WAGB 192230Z VRB02KT 5000 VCTS FEW010 BKN011 25/25 Q1009=  
19-Mar-2023 SAID35 WAGB 192230 CCA METAR WAGB 192230Z 00000KT 5000 VCTS FEW010CB BKN011 25/25 Q1009=  
19-Mar-2023 SAID35 WAGB 192230 CCB METAR WAGB 192230Z VRB02KT 5000 VCTS FEW010CB BKN011 25/25 Q1009=  
19-Mar-2023 SAID35 WAGB 192300 METAR WAGB 192300Z 00000KT 5000 VCSH FEW010CB BKN011 25/24 Q1009=  
19-Mar-2023 SAID35 WAGB 192330 METAR WAGB 192330Z 00000KT 5000 VCSH FEW010CB BKN011 25/24 Q1010=  
20-Mar-2023 SAID35 WAGB 200000 METAR WAGB 200000Z 17003KT 8000 FEW011CB FEW012 26/25 Q1010 NOSIG=  
20-Mar-2023 SAID35 WAGB 200030 METAR WAGB 200030Z 19003KT 8000 FEW012CB BKN013 26/25 Q1010 NOSIG=  
20-Mar-2023 SAID35 WAGB 200100 METAR WAGB 200100Z 19003KT 8000 FEW012CB BKN013 26/25 Q1010=  
20-Mar-2023 SAID35 WAGB 200130 METAR WAGB 200130Z 00000KT 8000 FEW012CB SCT013 27/25 Q1011=  
20-Mar-2023 SAID35 WAGB 200200 METAR WAGB 200200Z 00000KT 9000 BKN013 28/25 Q1011=  
20-Mar-2023 SAID35 WAGB 200230 METAR WAGB 200230Z 00000KT 9999 BKN013 29/25 Q1011=  
20-Mar-2023 SAID35 WAGB 200300 METAR WAGB 200300Z 00000KT 9999 BKN014 30/24 Q1010 NOSIG=  
20-Mar-2023 SAID35 WAGB 200600 METAR WAGB 200600Z 23005KT 8000 VCSH FEW012CB BKN013 29/26 Q1008 NOSIG=  
20-Mar-2023 SAID35 WAGB 200630 METAR WAGB 200630Z 18003KT 8000 VCSH FEW011CB BKN012 29/26 Q1008 NOSIG=  
20-Mar-2023 SAID35 WAGB 200700 METAR WAGB 200700Z 23007KT 8000 FEW012CB BKN013 28/25 Q1007 NOSIG=  
20-Mar-2023 SAID35 WAGB 200730 METAR WAGB 200730Z 24005KT 8000 FEW012CB BKN013 28/25 Q1006 NOSIG=  
20-Mar-2023 SAID35 WAGB 200800 METAR WAGB 200800Z 26004KT 8000 FEW012CB BKN013 28/25 Q1006 NOSIG=  
20-Mar-2023 SAID35 WAGB 200800 CCA METAR COR WAGB 200800Z 26004KT 8000 TS FEW012CB BKN013 28/25 Q1006=  
20-Mar-2023 SAID35 WAGB 200830 METAR WAGB 200830Z 24003KT 8000 TS FEW012CB BKN013 28/25 Q1006 NOSIG=  
20-Mar-2023 SAID35 WAGB 200900 METAR WAGB 200900Z 28002KT 9000 FEW013CB SCT014 27/25 Q1007 NOSIG=  
20-Mar-2023 SAID35 WAGB 200930 METAR WAGB 200930Z 00000KT 9000 FEW013CB SCT014 27/25 Q1007 NOSIG=  
20-Mar-2023 SAID35 WAGB 201000 METAR WAGB 201000Z 00000KT 9000 FEW013CB FEW014 27/25 Q1008 NOSIG=  
20-Mar-2023 SAID35 WAGB 201030 METAR WAGB 201030Z 00000KT 9000 FEW013CB SCT014 27/25 Q1008 NOSIG=  
20-Mar-2023 SAID35 WAGB 201100 METAR WAGB 201100Z 00000KT 9000 FEW013CB FEW014 27/25 Q1008 NOSIG=  
20-Mar-2023 SAID35 WAGB 201130 METAR WAGB 201130Z 00000KT 8000 FEW013CB FEW014 26/24 Q1008 NOSIG=  
20-Mar-2023 SAID35 WAGB 201200 METAR WAGB 201200Z 00000KT 9000 FEW013CB FEW014 26/25 Q1009=  
20-Mar-2023 SAID35 WAGB 201230 METAR WAGB 201230Z 00000KT 9000 FEW013CB FEW014 26/25 Q1009=  
20-Mar-2023 SAID35 WAGB 201300 METAR WAGB 201300Z 00000KT 8000 VCTS FEW013CB FEW014 26/25 Q1009=  
20-Mar-2023 SAID35 WAGB 201330 METAR WAGB 201330Z 00000KT 7000 VCTS FEW013CB FEW014 25/25 Q1010=  
20-Mar-2023 SAID35 WAGB 201400 METAR WAGB 201400Z 00000KT 5000 BR FEW013CB FEW014 25/25 Q1010=  
20-Mar-2023 SAID35 WAGB 201430 METAR WAGB 201430Z 00000KT 5000 BR FEW013CB FEW014 25/25 Q1010=  
20-Mar-2023 SAID35 WAGB 201500 METAR WAGB 201500Z 00000KT 5000 BR FEW012CB FEW013 25/25 Q1010=  
20-Mar-2023 SAID35 WAGB 201530 METAR WAGB 201530Z 00000KT 5000 BR FEW012CB FEW013 25/25 Q1010=  
20-Mar-2023 SAID35 WAGB 201600 METAR WAGB 201600Z 00000KT 5000 BR FEW013CB FEW014 25/24 Q1010=  
20-Mar-2023 SAID35 WAGB 201630 METAR WAGB 201630Z 00000KT 5000 BR FEW013CB FEW014 25/24 Q1010=  
20-Mar-2023 SAID35 WAGB 201700 METAR WAGB 201700Z 00000KT 4000 BR FEW011CB FEW013 25/24 Q1010=  
20-Mar-2023 SAID35 WAGB 201730 METAR WAGB 201730Z 00000KT 4000 BR FEW011CB FEW013 25/24 Q1010=  
20-Mar-2023 SAID35 WAGB 201800 METAR WAGB 201800Z 00000KT 4000 BR FEW011CB SCT012 25/24 Q1010=  
20-Mar-2023 SAID35 WAGB 201830 METAR WAGB 201830Z 00000KT 4000 BR FEW011CB SCT012 25/24 Q1010=  
20-Mar-2023 SAID35 WAGB 201900 METAR WAGB 201900Z 00000KT 4000 BR FEW001CB BKN011 25/24 Q1009=  
20-Mar-2023 SAID35 WAGB 201930 METAR WAGB 201930Z 00000KT 4000 BR FEW001CB BKN011 25/24 Q1009=  
20-Mar-2023 SAID35 WAGB 202000 METAR WAGB 202000Z 00000KT 5000 BR SCT010 25/24 Q1009=  
20-Mar-2023 SAID35 WAGB 202030 METAR WAGB 202030Z 00000KT 5000 BR SCT010 25/24 Q1009=  
20-Mar-2023 SAID35 WAGB 202100 METAR WAGB 202100Z 00000KT 5000 BR FEW010 25/24 Q1009=  
20-Mar-2023 SAID35 WAGB 202130 METAR WAGB 202130Z 00000KT 5000 BR FEW010 25/24 Q1009=  
20-Mar-2023 SAID35 WAGB 202200 METAR WAGB 202200Z 00000KT 6000 SCT009 24/24 Q1009=  
20-Mar-2023 SAID35 WAGB 202230 METAR WAGB 202230Z 00000KT 6000 SCT009 24/24 Q1010=  
20-Mar-2023 SAID35 WAGB 202300 METAR WAGB 202300Z 00000KT 7000 SCT009 24/23 Q1010=  
20-Mar-2023 SAID35 WAGB 202330 METAR WAGB 202330Z 00000KT 7000 SCT009 24/23 Q1010=  
20-Mar-2023 SAID35 WAGB 202330 CCA METAR COR WAGB 202330Z 00000KT 5000 -RA SCT009 24/23 Q1011=  
21-Mar-2023 SAID35 WAGB 210000 METAR WAGB 210000Z 00000KT 4000 -RA SCT010 24/23 Q1011=  
21-Mar-2023 SAID35 WAGB 210100 METAR WAGB 210010Z 04002KT 8000 BKN007 25/24 Q1011 NOSIG=  
21-Mar-2023 SAID35 WAGB 210030 METAR WAGB 210030Z 35002KT 7000 BKN007 24/24 Q1011 RERA=  
21-Mar-2023 SAID35 WAGB 210100 METAR WAGB 210100Z 00000KT 7000 BKN010 25/23 Q1011 NOSIG=  
21-Mar-2023 SAID35 WAGB 210100 CCA METAR COR WAGB 210100Z 04002KT 8000 BKN007 25/24 Q1011 NOSIG=  
21-Mar-2023 SAID35 WAGB 210130 METAR WAGB 210130Z 33002KT 9000 BKN008 26/24 Q1011 NOSIG=  
21-Mar-2023 SAID35 WAGB 210200 METAR WAGB 210200Z 02002KT 9000 BKN008 26/24 Q1011 NOSIG=  
21-Mar-2023 SAID35 WAGB 210230 METAR WAGB 210230Z 00000KT 9000 SCT008 27/24 Q1011 NOSIG=  
21-Mar-2023 SAID35 WAGB 210300 METAR WAGB 210300Z 00000KT 9999 BKN010 28/24 Q1011 NOSIG=  
21-Mar-2023 SAID35 WAGB 210330 METAR WAGB 210330Z 26002KT 9999 BKN010 29/24 Q1010 NOSIG=  
21-Mar-2023 SAID35 WAGB 210400 METAR WAGB 210400Z 00000KT 9999 BKN011 29/25 Q1010 NOSIG=  
21-Mar-2023 SAID35 WAGB 210430 METAR WAGB 210430Z 01005KT 9999 BKN011 30/25 Q1009 NOSIG=  
21-Mar-2023 SAID35 WAGB 210500 CCA METAR WAGB 210500Z 28005KT 9999 SCT012 31/25 Q1008 NOSIG=  
21-Mar-2023 SAID35 WAGB 210530 METAR WAGB 210530Z 32004KT 9999 SCT012 32/25 Q1008 NOSIG=  
21-Mar-2023 SAID35 WAGB 210600 METAR WAGB 210600Z 15003KT 9999 SCT013 32/23 Q1007 NOSIG=  
21-Mar-2023 SAID35 WAGB 210630 METAR WAGB 210630Z 10003KT 9999 SCT013 32/23 Q1007 NOSIG=  
21-Mar-2023 SAID35 WAGB 210700 METAR WAGB 210700Z 04003KT 9999 SCT013 32/23 Q1007 NOSIG=  
21-Mar-2023 SAID35 WAGB 210730 CCA METAR COR WAGB 210730Z 05003KT 9999 SCT013 32/23 Q1006 NOSIG=  
21-Mar-2023 SAID35 WAGB 210730 METAR WAGB 210730Z 05003KT 9999 SCT013 33/24 Q1007 NOSIG=  
21-Mar-2023 SAID35 WAGB 210800 METAR WAGB 210800Z 28003KT 9999 FEW013TCU SCT014 33/23 Q1006 NOSIG=  
21-Mar-2023 SAID35 WAGB 210830 METAR WAGB 210830Z 00000KT 9999 FEW013TCU SCT014 33/23 Q1005 NOSIG=  
21-Mar-2023 SAID35 WAGB 210900 METAR WAGB 210900Z 25005KT 9999 FEW015 33/23 Q1005 NOSIG=  
21-Mar-2023 SAID35 WAGB 210930 METAR WAGB 210930Z 24003KT 9999 FEW015 33/23 Q1005 NOSIG=  
21-Mar-2023 SAID35 WAGB 211000 METAR WAGB 211000Z 00000KT 9999 FEW015 33/24 Q1005 NOSIG=  
21-Mar-2023 SAID35 WAGB 211030 METAR WAGB 211030Z 00000KT 9999 FEW015 32/24 Q1006 NOSIG=  
21-Mar-2023 SAID35 WAGB 211100 METAR WAGB 211100Z 00000KT 9999 FEW015 31/25 Q1006=  
21-Mar-2023 SAID35 WAGB 211130 METAR WAGB 211130Z 00000KT 9999 FEW015 30/25 Q1007 NOSIG=  
21-Mar-2023 SAID35 WAGB 211200 METAR WAGB 211200Z 00000KT 7000 FEW014 29/25 Q1007=  
21-Mar-2023 SAID35 WAGB 211230 METAR WAGB 211230Z 00000KT 7000 FEW014 29/25 Q1007=  
21-Mar-2023 SAID35 WAGB 211300 METAR WAGB 211300Z 00000KT 7000 FEW014 28/25 Q1008=  
21-Mar-2023 SAID35 WAGB 211330 METAR WAGB 211330Z 00000KT 7000 FEW014 28/25 Q1008=  
21-Mar-2023 SAID35 WAGB 211400 METAR WAGB 211400Z 00000KT 6000 FEW013 27/25 Q1009=  
21-Mar-2023 SAID35 WAGB 211430 METAR WAGB 211430Z 00000KT 6000 FEW013 27/25 Q1009=  
21-Mar-2023 SAID35 WAGB 211500 METAR WAGB 211500Z 00000KT 6000 SCT013 27/25 Q1010=  
21-Mar-2023 SAID35 WAGB 211530 METAR WAGB 211530Z 00000KT 6000 SCT013 27/25 Q1010=  
21-Mar-2023 SAID35 WAGB 211600 METAR WAGB 211600Z 00000KT 6000 SCT012 27/25 Q1009=  
21-Mar-2023 SAID35 WAGB 211630 METAR WAGB 211630Z 00000KT 6000 SCT012 27/25 Q1009=  
21-Mar-2023 SAID35 WAGB 211700 METAR WAGB 211700Z 00000KT 6000 SCT012 26/25 Q1009=  
21-Mar-2023 SAID35 WAGB 211730 METAR WAGB 211730Z 00000KT 6000 SCT012 26/25 Q1009=  
21-Mar-2023 SAID35 WAGB 211800 METAR WAGB 211800Z 00000KT 6000 SCT011 26/25 Q1008=  
21-Mar-2023 SAID35 WAGB 211830 METAR WAGB 211830Z 00000KT 6000 SCT011 26/25 Q1008=  
21-Mar-2023 SAID35 WAGB 211900 METAR WAGB 211900Z 00000KT 4000 BR SCT011 26/25 Q1008=  
21-Mar-2023 SAID35 WAGB 211930 METAR WAGB 211930Z 00000KT 4000 BR SCT011 26/25 Q1008=  
21-Mar-2023 SAID35 WAGB 212000 METAR WAGB 212000Z 00000KT 4000 VCTS FEW010CB SCT011 26/25 Q1008=  
21-Mar-2023 SAID35 WAGB 212030 METAR WAGB 212030Z 00000KT 4000 VCTS FEW010CB SCT011 26/25 Q1008=  
21-Mar-2023 SAID35 WAGB 212100 METAR WAGB 212100Z 00000KT 4000 VCTS FEW010CB SCT011 26/24 Q1008=  
21-Mar-2023 SAID35 WAGB 212130 METAR WAGB 212130Z 00000KT 4000 FEW010CB SCT011 26/24 Q1008=  
21-Mar-2023 SAID35 WAGB 212200 METAR WAGB 212200Z 00000KT 4000 VCTS FEW010CB SCT011 25/24 Q1009=  
21-Mar-2023 SAID35 WAGB 212230 METAR WAGB 212230Z 00000KT 4000 FEW010CB SCT011 25/24 Q1009=  
21-Mar-2023 SAID35 WAGB 212300 METAR WAGB 212300Z 00000KT 3000 VCSH FEW009CB BKN010 25/24 Q1010=  
21-Mar-2023 SAID35 WAGB 212330 METAR WAGB 212330Z 00000KT 4000 BR FEW009CB BKN010 25/24 Q1010=  
22-Mar-2023 SAID35 WAGB 220000 METAR WAGB 220000Z 00000KT 4500 BR BKN010 26/25 Q1011 NOSIG=  
22-Mar-2023 SAID35 WAGB 220030 METAR WAGB 220030Z 00000KT 5000 VCSH BKN010 26/25 Q1011 NOSIG=  
22-Mar-2023 SAID35 WAGB 220100 CCA METAR WAGB 220100Z 00000KT 4000 SHRA BKN010 26/24 Q1011 NOSIG=  
22-Mar-2023 SAID35 WAGB 220100 METAR WAGB 220100Z 00000KT 4000 SHRA BKN010 26/24 Q1011=  
22-Mar-2023 SAID35 WAGB 220130 METAR WAGB 220130Z 20004KT 3000 RA BKN010 26/24 Q1011 NOSIG=  
22-Mar-2023 SAID35 WAGB 220200 METAR WAGB 220200Z 00000KT 4000 BKN010 25/24 Q1011 RERA=  
22-Mar-2023 SAID35 WAGB 220230 METAR WAGB 220230Z 00000KT 4500 BKN010 25/24 Q1011 NOSIG=  
22-Mar-2023 SAID35 WAGB 220300 METAR WAGB 220300Z 00000KT 9000 SCT009 27/24 Q1010 NOSIG=  
22-Mar-2023 SAID35 WAGB 220330 METAR WAGB 220300Z 00000KT 9000 SCT009 27/24 Q1010 NOSIG=  
22-Mar-2023 SAID35 WAGB 220400 METAR WAGB 220400Z 22003KT 9999 SCT010 28/24 Q1009 NOSIG=  
22-Mar-2023 SAID35 WAGB 220430 METAR WAGB 220430Z 02003KT 9999 SCT010 29/24 Q1008 NOSIG=  
22-Mar-2023 SAID35 WAGB 220500 METAR WAGB 220500Z 23003KT 9999 BKN011 29/24 Q1008 NOSIG=  
22-Mar-2023 SAID35 WAGB 220530 METAR WAGB 220530Z 00000KT 9000 SCT012 30/25 Q1007 NOSIG=  
22-Mar-2023 SAID35 WAGB 220600 METAR WAGB 220600Z 00000KT 9000 SCT012 31/25 Q1007 NOSIG=  
22-Mar-2023 SAID35 WAGB 220630 METAR WAGB 220630Z 00000KT 9000 SCT012 31/25 Q1007 NOSIG=  
22-Mar-2023 SAID35 WAGB 220700 METAR WAGB 220700Z 19003KT 9999 SCT012 31/26 Q1006 NOSIG=  
22-Mar-2023 SAID35 WAGB 220730 METAR WAGB 220730Z 17003KT 9999 SCT012 31/26 Q1005 NOSIG=  
22-Mar-2023 SAID35 WAGB 220800 METAR WAGB 220800Z 24005KT 9999 FEW013CB 32/25 Q1005 NOSIG=  
22-Mar-2023 SAID35 WAGB 220830 METAR WAGB 220830Z 00000KT 9999 FEW013CB 32/25 Q1005 NOSIG=  
22-Mar-2023 SAID35 WAGB 220900 METAR WAGB 220900Z 00000KT 9999 FEW013CB 32/25 Q1005 NOSIG=  
22-Mar-2023 SAID35 WAGB 221000 METAR WAGB 221000Z 00000KT 9999 FEW013CB 30/26 Q1006 NOSIG=  
22-Mar-2023 SAID35 WAGB 221030 METAR WAGB 221030Z 00000KT 9999 FEW013CB 30/26 Q1006 NOSIG=  
22-Mar-2023 SAID35 WAGB 221100 METAR WAGB 221100Z 00000KT 9000 FEW013CB BKN014 30/26 Q1007 NOSIG=  
22-Mar-2023 SAID35 WAGB 221200 METAR WAGB 221200Z 00000KT 8000 VCTS FEW013CB SCT014 29/26 Q1008=  
22-Mar-2023 SAID35 WAGB 221230 METAR WAGB 221230Z 00000KT 8000 VCTS FEW013CB SCT014 28/26 Q1008=  
22-Mar-2023 SAID35 WAGB 221300 METAR WAGB 221300Z 00000KT 8000 VCTS FEW012CB SCT013 28/26 Q1009=  
22-Mar-2023 SAID35 WAGB 221330 METAR WAGB 221330Z 00000KT 8000 VCTS FEW012CB SCT013 27/26 Q1009=  
22-Mar-2023 SAID35 WAGB 221500 METAR WAGB 221500Z 00000KT 7000 VCTS FEW012CB BKN013 27/26 Q1009=  
22-Mar-2023 SAID35 WAGB 221530 METAR WAGB 221530Z 00000KT 7000 -RA FEW012CB BKN013 27/26 Q1009=  
22-Mar-2023 SPID33 WAGB 221535 SPECI WAGB 221535Z 06006KT 3000 TSRA OVC011CB 25/24 Q1010=  
22-Mar-2023 SAID35 WAGB 221630 METAR WAGB 221630Z 00000KT 4000 TSRA OVC11CB 24/23 Q1010=  
22-Mar-2023 SAID35 WAGB 221700 METAR WAGB 221700Z 00000KT 5000 -TSRA FEW11CB BKN011 24/23 Q1010=  
22-Mar-2023 SAID35 WAGB 221800 METAR WAGB 221800Z 00000KT 4000 -TSRA FEW011CB BKN011 24/23 Q1010=  
22-Mar-2023 SAID35 WAGB 221830 METAR WAGB 221830Z 00000KT 4000 -TSRA FEW011CB BKN011 24/23 Q1010=  
22-Mar-2023 SAID35 WAGB 221900 METAR WAGB 221900Z 27005KT 4000 -TSRA FEW010CB BKN010 23/23 Q1009=  
22-Mar-2023 SAID35 WAGB 221930 METAR WAGB 221930Z 27004KT 4000 -TSRA FEW010CB BKN010 23/23 Q1009=  
22-Mar-2023 SAID35 WAGB 222000 METAR WAGB 222000Z 27005KT 4000 -TSRA FEW010CB BKN010 23/23 Q1009=  
22-Mar-2023 SAID35 WAGB 222030 METAR WAGB 222030Z 26003KT 4000 -TSRA FEW010CB BKN010 23/23 Q1009=  
22-Mar-2023 SAID35 WAGB 222100 METAR WAGB 222100Z 00000KT 4000 -RA FEW010CB BKN010 24/23 Q1009=  
22-Mar-2023 SAID35 WAGB 222130 METAR WAGB 222130Z 00000KT 4000 -RA FEW010CB BKN010 24/23 Q1010=  
22-Mar-2023 SAID35 WAGB 222200 CCA METAR WAGB 222200Z 00000KT 4000 FEW010CB BKN010 24/23 Q1009 RERA=  
22-Mar-2023 SAID35 WAGB 222200 METAR WAGB 222200Z 00000KT 4000 -RA FEW010CB BKN010 24/23 Q1010=  
22-Mar-2023 SAID35 WAGB 222230 METAR WAGB 222230Z 00000KT 6000 SCT010 24/23 Q1009=  
22-Mar-2023 SAID35 WAGB 222300 METAR WAGB 222300Z 00000KT 6000 BKN009 24/23 Q1009=  
22-Mar-2023 SAID35 WAGB 222330 METAR WAGB 222330Z 00000KT 6000 BKN009 24/23 Q1009=  
23-Mar-2023 SAID35 WAGB 230000 METAR WAGB 230000Z 00000KT 3000 BR BKN007 24/23 Q1009=  
23-Mar-2023 SAID35 WAGB 230030 METAR WAGB 230030Z VRB02KT 4500 HZ OVC008 25/23 Q1010=  
23-Mar-2023 SAID35 WAGB 230100 METAR WAGB 230100Z 35003KT 5000 HZ BKN009 25/24 Q1010=  
23-Mar-2023 SAID35 WAGB 230130 METAR WAGB 230130Z 00000KT 6000 BKN009 27/24 Q1010=  
23-Mar-2023 SAID34 WAGB 230200 METAR WAGB 230200Z VRB02KT 7000 BKN009 28/24 Q1010=  
23-Mar-2023 SAID35 WAGB 230200 METAR WAGB 230200Z 00000KT 7000 BKN013 27/25 Q1011 NOOSIG=  
23-Mar-2023 SAID35 WAGB 230230 METAR WAGB 230230Z VRB02KT 8000 SCT009 29/24 Q1010=  
23-Mar-2023 SAID35 WAGB 230300 METAR WAGB 230300Z 04004KT 9000 BKN010 30/24 Q1010=  
23-Mar-2023 SAID35 WAGB 230330 METAR WAGB 230330Z 13003KT 9000 BKN011 30/24 Q1009=  
23-Mar-2023 SAID35 WAGB 230400 METAR WAGB 230400Z 11004KT 9999 BKN011 31/24 Q1009 NOSIG=  
23-Mar-2023 SAID35 WAGB 230430 METAR WAGB 230430Z 01003KT 9999 BKN012 31/24 Q1008 NOSIG=  
23-Mar-2023 SAID35 WAGB 230500 METAR WAGB 230500Z 00000KT 9999 BKN012 32/24 Q1008 NOSIG=  
23-Mar-2023 SAID35 WAGB 230530 METAR WAGB 230530Z 00000KT 9999 BKN012 32/24 Q1008 NOSIG=  
23-Mar-2023 SAID35 WAGB 230600 METAR WAGB 230600Z 04004KT 9999 FEW013TCU SCT014 32/25 Q1007 RERA NOSIG=  
23-Mar-2023 SAID35 WAGB 230630 METAR WAGB 230630Z 04005KT 9999 FEW013TCU SCT014 32/25 Q1006 NOSIG=  
23-Mar-2023 SAID35 WAGB 230700 METAR WAGB 230700Z 00000KT 9999 FEW014TCU SCT015 33/24 Q1006 NOSIG=  
23-Mar-2023 SAID35 WAGB 230730 METAR WAGB 230730Z 00000KT 9999 FEW014TCU SCT015 33/24 Q1005 NOSIG=  
23-Mar-2023 SAID35 WAGB 230800 METAR WAGB 230800Z 13003KT 9999 FEW015TCU SCT016 33/24 Q1005 NOSIG=  
23-Mar-2023 SAID35 WAGB 230830 METAR WAGB 230830Z 06003KT 9999 FEW015TCU SCT016 33/24 Q1005 NOSIG=  
23-Mar-2023 SAID35 WAGB 230900 METAR WAGB 230900Z 28003KT 9999 FEW015TCU SCT016 33/24 Q1005 NOSIG=  
23-Mar-2023 SAID35 WAGB 230930 METAR WAGB 230930Z 30003KT 9999 FEW015TCU SCT016 33/24 Q1005 NOSIG=  
23-Mar-2023 SAID35 WAGB 231000 METAR WAGB 231000Z 00000KT 9999 FEW014TCU SCT015 32/26 Q1005 NOSIG=  
23-Mar-2023 SAID35 WAGB 231030 METAR WAGB 231030Z 00000KT 9999 FEW014TCU SCT015 32/26 Q1005 NOSIG=  
23-Mar-2023 SAID35 WAGB 231100 CCA METAR WAGB 231100Z 15004KT 9000 DZ FEW014TCU SCT015 29/26 Q1007 NOSIG=  
23-Mar-2023 SAID35 WAGB 231100 METAR WAGB 231100Z 15004KT 9000 DZ FEW014TCU SCT015 29/26 Q1007=  
23-Mar-2023 SAID35 WAGB 231130 METAR WAGB 231130Z 20003KT 8000 FEW014TCU SCT015 29/26 Q1007 NOSIG=  
23-Mar-2023 SAID35 WAGB 231200 METAR WAGB 231200Z 00000KT 8000 FEW013CB SCT014 27/24 Q1007=  
23-Mar-2023 SAID35 WAGB 231230 METAR WAGB 231230Z 00000KT 8000 FEW013CB SCT014 27/24 Q1007=  
23-Mar-2023 SAID35 WAGB 231300 METAR WAGB 231300Z 00000KT 8000 SCT013 27/25 Q1008=  
23-Mar-2023 SAID35 WAGB 231330 METAR WAGB 231330Z 00000KT 8000 SCT013 27/25 Q1008=  
23-Mar-2023 SAID35 WAGB 231400 METAR WAGB 231400Z 00000KT 8000 SCT012 26/25 Q1009=  
23-Mar-2023 SAID35 WAGB 231430 METAR WAGB 231430Z 00000KT 8000 SCT012 26/25 Q1009=  
23-Mar-2023 SAID35 WAGB 231500 METAR WAGB 231500Z 00000KT 7000 SCT012 26/25 Q1009=  
23-Mar-2023 SAID35 WAGB 231530 METAR WAGB 231530Z 00000KT 7000 SCT012 26/25 Q1009=  
23-Mar-2023 SAID35 WAGB 231600 METAR WAGB 231600Z 00000KT 7000 BKN011 26/25 Q1009=  
23-Mar-2023 SAID35 WAGB 231630 METAR WAGB 231630Z 00000KT 7000 BKN011 26/25 Q1009=  
23-Mar-2023 SAID35 WAGB 231700 METAR WAGB 231700Z 00000KT 7000 BKN011 26/25 Q1009=  
23-Mar-2023 SAID35 WAGB 231730 METAR WAGB 231730Z 00000KT 7000 BKN011 26/25 Q1009=  
23-Mar-2023 SAID35 WAGB 231800 METAR WAGB 231800Z 00000KT 6000 BKN011 25/24 Q1009=  
23-Mar-2023 SAID35 WAGB 231830 METAR WAGB 231830Z 00000KT 6000 BKN011 25/24 Q1009=  
23-Mar-2023 SAID35 WAGB 231900 METAR WAGB 231900Z 00000KT 5000 BKN011 25/24 Q1008=  
23-Mar-2023 SAID35 WAGB 231930 METAR WAGB 231930Z 00000KT 5000 BKN011 25/24 Q1008=  
23-Mar-2023 SAID35 WAGB 232000 METAR WAGB 232000Z 00000KT 5000 -RA FEW010CB BKN011 25/24 Q1008=  
23-Mar-2023 SAID35 WAGB 232030 METAR WAGB 232030Z 00000KT 5000 FEW010CB BKN011 25/24 Q1008 RERA=  
23-Mar-2023 SAID35 WAGB 232100 METAR WAGB 232100Z 00000KT 5000 VCTS FEW010CB BKN011 25/25 Q1009=  
23-Mar-2023 SAID35 WAGB 232130 METAR WAGB 232130Z 00000KT 5000 VCTS FEW010CB BKN011 25/25 Q1009=  
23-Mar-2023 SAID35 WAGB 232200 METAR WAGB 232200Z 00000KT 5000 HZ BKN011 25/25 Q1009=  
23-Mar-2023 SAID35 WAGB 232230 METAR WAGB 232230Z 00000KT 5000 HZ BKN011 25/25 Q1009=  
23-Mar-2023 SAID35 WAGB 232300 METAR WAGB 232300Z 00000KT 5000 HZ BKN011 26/25 Q1010=  
23-Mar-2023 SAID35 WAGB 232330 METAR WAGB 232330Z 00000KT 5000 HZ BKN011 26/25 Q1010=  
24-Mar-2023 SAID35 WAGB 240000 METAR WAGB 240000Z 00000KT 5000 HZ BKN011 26/25 Q1010 NOSIG=  
24-Mar-2023 SAID35 WAGB 240030 CCA METAR WAGB 240030Z 06004KT 5000 HZ BKN011 26/25 Q1011 NOSIG=  
24-Mar-2023 SAID35 WAGB 240030 METAR WAGB 240030Z 00000KT 5000 HZ BKN011 26/25 Q1011 NOSIG=  
24-Mar-2023 SAID35 WAGB 240100 METAR WAGB 240100Z 00000KT 7000 SCT011 27/25 Q1011 NOSIG=  
24-Mar-2023 SAID35 WAGB 240100 CCA METAR WAGB 240100Z 06003KT 7000 SCT011 27/25 Q1011 NOSIG=  
24-Mar-2023 SAID35 WAGB 240130 METAR WAGB 240130Z 04005KT 7000 SCT011 27/25 Q1011 NOSIG=  
24-Mar-2023 SAID35 WAGB 240200 METAR WAGB 240200Z 06005KT 8000 SCT012 27/24 Q1011 NOSIG=  
24-Mar-2023 SAID35 WAGB 240200 CCA METAR WAGB 240200Z 06005KT 8000 SCT012 30/25 Q1011 NOSIG=  
24-Mar-2023 SAID35 WAGB 240230 METAR WAGB 240230Z 05006KT 9999 BKN013 30/25 Q1010 NOSIG=  
24-Mar-2023 SAID35 WAGB 240300 METAR WAGB 240300Z 04005KT 9999 BKN013 30/25 Q1010 NOSIG=  
24-Mar-2023 SAID35 WAGB 240330 METAR WAGB 240330Z 02005KT 9999 BKN014 31/25 Q1009 NOSIG=  
24-Mar-2023 SAID35 WAGB 240400 METAR WAGB 240400Z 04004KT 9999 BKN015 32/24 Q1009 NOSIG=  
24-Mar-2023 SAID35 WAGB 240430 METAR WAGB 240430Z 06003KT 9999 BKN015 32/24 Q1008 NOSIG=  
24-Mar-2023 SAID35 WAGB 240500 METAR WAGB 240500Z 01004KT 9999 FEW014TCU BKN015 32/24 Q1008 NOSIG=  
24-Mar-2023 SAID35 WAGB 240530 METAR WAGB 240530Z 05005KT 9999 FEW014TCU BKN015 32/24 Q1007 NOSIG=  
24-Mar-2023 SAID35 WAGB 240600 METAR WAGB 240600Z 04006KT 9999 FEW014TCU BKN015 34/24 Q1007 NOSIG=  
24-Mar-2023 SAID35 WAGB 240630 METAR WAGB 240630Z 00000KT 9999 FEW014TCU BKN015 34/24 Q1007 NOSIG=  
24-Mar-2023 SAID35 WAGB 240700 METAR WAGB 240700Z 20003KT 9999 FEW014TCU BKN015 35/23 Q1006 NOSIG=  
24-Mar-2023 SAID35 WAGB 240730 METAR WAGB 240730Z 00000KT 9999 FEW014TCU BKN015 35/24 Q1005 NOSIG=  
24-Mar-2023 SAID35 WAGB 240800 METAR WAGB 240800Z 00000KT 9999 FEW014TCU BKN015 34/23 Q1005 NOSIG=  
24-Mar-2023 SAID35 WAGB 240830 METAR WAGB 240830Z 00000KT 9999 FEW014CB BKN015 34/24 Q1005 NOSIG=  
24-Mar-2023 SAID35 WAGB 240900 METAR WAGB 240900Z 00000KT 9999 FEW014CB SCT015 34/24 Q1005 NOSIG=  
24-Mar-2023 SAID35 WAGB 241000 METAR WAGB 241000Z 00000KT 9999 FEW014TCU FEW015 33/25 Q1006 NOSIG=  
24-Mar-2023 SAID35 WAGB 241030 METAR WAGB 241030Z 00000KT 9999 FEW014CB FEW015 32/24 Q1006 NOSIG=  
24-Mar-2023 SAID35 WAGB 241100 METAR WAGB 241100Z 00000KT 9999 FEW013CB SCT014 31/25 Q1007 NOSIG=  
24-Mar-2023 SAID35 WAGB 241130 METAR WAGB 241130Z 00000KT 9999 FEW013CB SCT014 31/25 Q1007 NOSIG=  
24-Mar-2023 SAID35 WAGB 241200 METAR WAGB 241200Z 00000KT 8000 FEW012CB SCT013 30/26 Q1008 NOSIG=  
24-Mar-2023 SAID35 WAGB 241230 METAR WAGB 241230Z 00000KT 8000 FEW012CB SCT013 30/26 Q1009 NOSIG=  
24-Mar-2023 SAID35 WAGB 241300 METAR WAGB 241300Z 00000KT 8000 VCTS FEW012CB SCT013 28/25 Q1009 NOSIG=  
24-Mar-2023 SAID35 WAGB 241330 METAR WAGB 241330Z 00000KT 8000 VCTS FEW012CB SCT013 28/25 Q1009 NOSIG=  
24-Mar-2023 SAID35 WAGB 241400 METAR WAGB 241400Z 00000KT 6000 VCTS FEW012CB SCT013 27/23 Q1010=  
24-Mar-2023 SAID35 WAGB 241430 METAR WAGB 241430Z 00000KT 6000 VCTS FEW012CB SCT013 27/23 Q1010=  
24-Mar-2023 SPID33 WAGB 241438 SPECI WAGB 241438Z 00000KT 6000 FEW012CB SCT013 27/25 Q1011=  
24-Mar-2023 SPID33 WAGB 241438 CCA SPECI WAGB 241438Z 00000KT 6000 RA FEW012CB SCT013 27/25 Q1011=  
24-Mar-2023 SAID35 WAGB 241500 METAR WAGB 241500Z 00000KT 5000 FEW012CB BKN013 25/24 Q1011 RERA=  
24-Mar-2023 SAID35 WAGB 241530 METAR WAGB 241530Z 00000KT 5000 VCTS FEW012CB BKN013 25/24 Q1011=  
24-Mar-2023 SAID35 WAGB 241600 METAR WAGB 241600Z 00000KT 5000 VCSH FEW012CB SCT013 25/24 Q1011=  
24-Mar-2023 SAID35 WAGB 241630 METAR WAGB 241630Z 00000KT 5000 -RA FEW012CB SCT013 25/24 Q1011=  
24-Mar-2023 SAID35 WAGB 241700 METAR WAGB 241700Z 00000KT 5000 -TSRA FEW012CB BKN013 25/24 Q1011=  
24-Mar-2023 SAID35 WAGB 241730 METAR WAGB 241730Z 00000KT 2000 TSRA FEW012CB BKN013 25/24 Q1011=  
24-Mar-2023 SAID35 WAGB 241800 METAR WAGB 241800Z 00000KT 4000 FEW011CB BKN011 24/24 Q1010 RERA=  
24-Mar-2023 SAID35 WAGB 241830 METAR WAGB 241830Z 00000KT 4000 -RA FEW011CB BKN011 24/24 Q1010=  
24-Mar-2023 SAID35 WAGB 241900 METAR WAGB 241900Z 00000KT 4000 -RA FEW011CB BKN011 24/24 Q1009=  
24-Mar-2023 SAID35 WAGB 241930 METAR WAGB 241930Z 00000KT 4000 -RA FEW011CB BKN011 24/24 Q1009=  
24-Mar-2023 SAID35 WAGB 242000 METAR WAGB 242000Z 00000KT 4000 FEW011CB BKN011 24/24 Q1009 RERA=  
24-Mar-2023 SAID35 WAGB 242030 METAR WAGB 242030Z 00000KT 4000 VCSH FEW011CB BKN011 24/24 Q1009=  
24-Mar-2023 SAID35 WAGB 242100 METAR WAGB 242100Z 00000KT 4000 VCSH BKN009 24/23 Q1009=  
24-Mar-2023 SAID35 WAGB 242130 METAR WAGB 242130Z 00000KT 4000 VCSH BKN009 24/23 Q1009=  
24-Mar-2023 SAID35 WAGB 242200 METAR WAGB 242200Z 00000KT 5000 BR BKN009 24/23 Q1010=  
24-Mar-2023 SAID35 WAGB 242230 METAR WAGB 242230Z 00000KT 5000 BR BKN009 24/23 Q1010=  
24-Mar-2023 SAID35 WAGB 242300 METAR WAGB 242300Z 00000KT 5000 BR BKN009 24/24 Q1011=  
24-Mar-2023 SAID35 WAGB 242330 METAR WAGB 242330Z 00000KT 5000 BR BKN009 24/24 Q1011=  
25-Mar-2023 SAID35 WAGB 250000 METAR WAGB 250000Z 00000KT 5000 HZ BKN009 25/24 Q1011=  
25-Mar-2023 SAID35 WAGB 250030 METAR WAGB 250030Z 00000KT 7000 SCT010 26/24 Q1011 NOSIG=  
25-Mar-2023 SAID35 WAGB 250100 METAR WAGB 250100Z 24003KT 7000 SCT010 27/24 Q1011 NOSIG=  
25-Mar-2023 SAID35 WAGB 250130 METAR WAGB 250130Z 24002KT 8000 SCT010 28/25 Q1012 NOSIG=  
25-Mar-2023 SAID35 WAGB 250200 METAR WAGB 250200Z 28003KT 9000 BKN012 29/24 Q1012 NOSIG=  
25-Mar-2023 SAID35 WAGB 250230 METAR WAGB 250230Z 10003KT 9999 BKN013 30/25 Q1011 NOSIG=  
25-Mar-2023 SAID35 WAGB 250300 METAR WAGB 250300Z 08005KT 9999 BKN013 31/25 Q1011 NOSIG=  
25-Mar-2023 SAID35 WAGB 250330 METAR WAGB 250330Z 11004KT 9999 BKN013 31/25 Q1011 NOSIG=  
25-Mar-2023 SAID35 WAGB 250400 METAR WAGB 250400Z 20003KT 9999 BKN013 31/25 Q1010 NOSIG=  
25-Mar-2023 SAID35 WAGB 250430 METAR WAGB 250430Z 12003KT 9999 BKN013 31/24 Q1009 NOSIG=  
25-Mar-2023 SAID35 WAGB 250500 METAR WAGB 250500Z 09004KT 7000 VCSH FEW012CB BKN013 30/24 Q1009 TEMPO FM0530 4000 SHRA=  
25-Mar-2023 SAID35 WAGB 250530 METAR WAGB 250530Z 03005KT 7000 VCSH FEW012CB BKN013 30/24 Q1008 NOSIG=  
25-Mar-2023 SAID35 WAGB 250600 METAR WAGB 250600Z 11003KT 9999 FEW013CB BKN014 32/24 Q1008 NOSIG=  
25-Mar-2023 SAID35 WAGB 250630 METAR WAGB 250630Z 03005KT 9999 FEW013CB BKN014 32/24 Q1007 NOSIG=  
25-Mar-2023 SAID35 WAGB 250700 METAR WAGB 250700Z 05004KT 9999 FEW013CB BKN014 31/25 Q1007 NOSIG=  
25-Mar-2023 SAID35 WAGB 250730 METAR WAGB 250730Z 15004KT 9999 FEW013CB BKN014 31/25 Q1006 NOSIG=  
25-Mar-2023 SAID35 WAGB 250730 CCA METAR WAGB 250730Z 09005KT 9999 FEW013CB BKN014 31/25 Q1006 NOSIG=  
25-Mar-2023 SAID35 WAGB 250800 METAR WAGB 250800Z VRB02KT 8000 TS FEW012CB BKN013 32/25 Q1006 NOSIG=  
25-Mar-2023 SAID35 WAGB 250830 METAR WAGB 250830Z 18003KT 8000 TS FEW012CB BKN013 32/25 Q1007 NOSIG=  
25-Mar-2023 SAID35 WAGB 250900 METAR WAGB 250900Z 20003KT 6000 -RA FEW012CB BKN013 28/26 Q1007 RETS=  
25-Mar-2023 SAID35 WAGB 250930 METAR WAGB 250930Z 04003KT 7000 FEW012CB BKN013 27/25 Q1007 RERA=  
25-Mar-2023 SAID35 WAGB 251000 METAR WAGB 251000Z 00000KT 7000 FEW012CB SCT013 27/26 Q1007 NOSIG=  
25-Mar-2023 SAID35 WAGB 251030 METAR WAGB 251030Z 00000KT 7000 FEW012CB SCT013 27/26 Q1008 NOSIG=  
25-Mar-2023 SAID35 WAGB 251100 METAR WAGB 251100Z 00000KT 7000 VCTS FEW011CB BKN012 27/26 Q1008=  
25-Mar-2023 SAID35 WAGB 251130 METAR WAGB 251130Z 19003KT 7000 VCTS FEW011CB BKN012 27/26 Q1009=  
25-Mar-2023 SAID35 WAGB 251200 METAR WAGB 251200Z 00000KT 6000 VCTS FEW012CB BKN013 26/25 Q1009=  
25-Mar-2023 SAID35 WAGB 251230 METAR WAGB 251230Z 00000KT 6000 VCTS FEW012CB BKN013 26/25 Q1009=  
25-Mar-2023 SAID35 WAGB 251300 METAR WAGB 251300Z 03003KT 6000 VCTS FEW011CB BKN012 26/25 Q1010=  
25-Mar-2023 SAID35 WAGB 251330 METAR WAGB 251330Z 03003KT 6000 VCTS FEW011CB BKN012 26/25 Q1010=  
25-Mar-2023 SAID35 WAGB 251400 METAR WAGB 251400Z 29004KT 3500 RA FEW011CB BKN012 26/25 Q1009=  
25-Mar-2023 SAID35 WAGB 251430 METAR WAGB 251430Z 23005KT 3000 TSRA FEW011CB BKN012 26/25 Q1009=  
25-Mar-2023 SAID35 WAGB 251500 METAR WAGB 251500Z 00000KT 3000 -TSRA FEW011CB BKN012 24/23 Q1012=  
25-Mar-2023 SAID35 WAGB 251530 METAR WAGB 251530Z 24003KT 3000 -TSRA FEW011CB BKN012 24/23 Q1012=  
25-Mar-2023 SAID35 WAGB 251600 METAR WAGB 251600Z 00000KT 3000 -RA BKN011 24/23 Q1012=  
25-Mar-2023 SAID35 WAGB 251630 METAR WAGB 251630Z 00000KT 3000 BKN011 24/23 Q1012 RERA=  
25-Mar-2023 SAID35 WAGB 251700 METAR WAGB 251700Z 00000KT 3000 BKN011 24/23 Q1011=  
25-Mar-2023 SAID35 WAGB 251730 METAR WAGB 251730Z 00000KT 3000 BKN011 24/23 Q1011=  
25-Mar-2023 SAID35 WAGB 251800 METAR WAGB 251800Z 00000KT 3500 BKN010 24/23 Q1010=  
25-Mar-2023 SAID35 WAGB 251830 METAR WAGB 251830Z 00000KT 3500 BKN010 24/23 Q1010=  
25-Mar-2023 SAID35 WAGB 251900 METAR WAGB 251900Z 00000KT 3500 BKN010 24/23 Q1010=  
25-Mar-2023 SAID35 WAGB 251930 METAR WAGB 251930Z 00000KT 3500 BKN010 24/23 Q1010=  
25-Mar-2023 SAID35 WAGB 252000 METAR WAGB 252000Z 00000KT 4000 BKN010 24/23 Q1009=  
25-Mar-2023 SAID35 WAGB 252030 METAR WAGB 252030Z 00000KT 4000 BKN010 24/23 Q1009=  
25-Mar-2023 SAID35 WAGB 252100 METAR WAGB 252100Z 00000KT 4000 BKN010 24/23 Q1009=  
25-Mar-2023 SAID35 WAGB 252130 METAR WAGB 252130Z 00000KT 4000 BKN010 24/23 Q1009=  
25-Mar-2023 SAID35 WAGB 252200 METAR WAGB 252200Z 00000KT 2500 BR BKN010 23/23 Q1009=  
25-Mar-2023 SAID35 WAGB 252230 METAR WAGB 252230Z 00000KT 2500 BR BKN010 23/23 Q1009=  
25-Mar-2023 SAID35 WAGB 252300 METAR WAGB 252300Z 00000KT 2500 BR BKN010 24/23 Q1010=  
25-Mar-2023 SAID35 WAGB 252330 METAR WAGB 252330Z 00000KT 2500 BR BKN010 24/23 Q1010=  
26-Mar-2023 SAID35 WAGB 260000 METAR WAGB 260000Z 05003KT 3000 BR BKN008 24/23 Q1011 BECMG TL0030 6000=  
26-Mar-2023 SAID35 WAGB 260030 METAR WAGB 260030Z 00000KT 6000 BKN008 24/23 Q1011 =  
26-Mar-2023 SAID35 WAGB 260100 METAR WAGB 260100Z 05003KT 7000 BKN008 25/24 Q1011 NOSIG=  
26-Mar-2023 SAID35 WAGB 260130 METAR WAGB 260130Z 04003KT 8000 BKN009 26/24 Q1011 NOSIG=  
26-Mar-2023 SAID35 WAGB 260200 METAR WAGB 260200Z 02002KT 8000 BKN009 27/23 Q1001 NOSIG=  
26-Mar-2023 SAID35 WAGB 260200 CCA METAR COR WAGB 260200Z 02002KT 8000 BKN009 27/23 Q1011 NOSIG=  
26-Mar-2023 SAID35 WAGB 260230 METAR WAGB 260230Z 00000KT 8000 BKN009 27/23 Q1011 NOSIG=  
26-Mar-2023 SAID35 WAGB 260300 METAR WAGB 260300Z 27004KT 8000 BKN010 30/24 Q1010 NOSIG=  
26-Mar-2023 SAID35 WAGB 260330 METAR WAGB 260330Z 32002KT 8000 BKN010 29/23 Q1010 NOSIG=  
26-Mar-2023 SAID35 WAGB 260400 METAR WAGB 260400Z 02004KT 9000 BKN011 31/24 Q1010 NOSIG=  
26-Mar-2023 SAID35 WAGB 260430 METAR WAGB 260430Z 34005KT 9000 BKN011 31/24 Q1009 NOSIG=  
26-Mar-2023 SAID35 WAGB 260500 METAR WAGB 260500Z 35003KT 9000 BKN011 31/24 Q1009 NOSIG=  
26-Mar-2023 SAID35 WAGB 260600 METAR WAGB 260600Z 19003KT 9999 BKN012 30/25 Q1008 NOSIG=  
26-Mar-2023 SAID35 WAGB 260630 METAR WAGB 260630Z 00000KT 9999 BKN012 30/25 Q1008 NOSIG=  
26-Mar-2023 SAID35 WAGB 260700 METAR WAGB 260700Z 00000KT 9999 BKN012 31/25 Q1007 NOSIG=  
26-Mar-2023 SAID35 WAGB 260730 METAR WAGB 260730Z 00000KT 9999 BKN012 31/25 Q1006 NOSIG=  
26-Mar-2023 SAID35 WAGB 260800 METAR WAGB 260800Z 18003KT 9999 FEW012TCU BKN013 31/25 Q1006 NOSIG=  
26-Mar-2023 SAID35 WAGB 260830 METAR WAGB 260830Z 00000KT 9999 FEW012TCU BKN013 30/25 Q1006 NOSIG=  
26-Mar-2023 SAID35 WAGB 260900 METAR WAGB 260900Z 23005KT 9999 FEW012TCU SCT013 31/25 Q1006 NOSIG=  
26-Mar-2023 SAID35 WAGB 260930 METAR WAGB 260930Z 00000KT 9999 FEW012TCU SCT013 31/25 Q1006 NOSIG=  
26-Mar-2023 SAID35 WAGB 261000 METAR WAGB 261000Z 00000KT 9999 FEW012TCU SCT013 31/25 Q1006 NOSIG=  
26-Mar-2023 SAID35 WAGB 261000 CCA METAR WAGB 261000Z 00000KT 9000 FEW012TCU SCT013 30/25 Q1007 NOSIG=  
26-Mar-2023 SAID35 WAGB 261030 METAR WAGB 261030Z 00000KT 9000 FEW012TCU SCT013 30/25 Q1007 NOSIG=  
26-Mar-2023 SAID35 WAGB 261100 METAR WAGB 261100Z 00000KT 8000 VCTS FEW012CB SCT013 29/25 Q1007 NOSIG=  
26-Mar-2023 SAID35 WAGB 261130 METAR WAGB 261130Z 00000KT 8000 VCTS FEW012CB SCT013 29/25 Q1008 NOSIG=  
26-Mar-2023 SAID35 WAGB 261200 METAR WAGB 261200Z 00000KT 7000 VCTS FEW012CB SCT013 28/25 Q1008 NOSIG=  
26-Mar-2023 SAID35 WAGB 261230 METAR WAGB 261230Z 00000KT 7000 VCTS FEW012CB SCT013 28/25 Q1009 NOSIG=  
26-Mar-2023 SAID35 WAGB 261300 METAR WAGB 261300Z 00000KT 7000 VCTS FEW012CB SCT013 28/25 Q1009 NOSIG=  
26-Mar-2023 SAID35 WAGB 261300 CCA METAR WAGB 261300Z 00000KT 7000 VCTS FEW012CB SCT013 28/25 Q1010 NOSIG=  
26-Mar-2023 SAID35 WAGB 261330 METAR WAGB 261330Z 00000KT 7000 VCTS FEW012CB SCT013 28/25 Q1010=  
26-Mar-2023 SAID35 WAGB 261400 METAR WAGB 261400Z 00000KT 7000 VCTS FEW012CB SCT013 27/25 Q1010=  
26-Mar-2023 SAID35 WAGB 261430 METAR WAGB 261430Z 00000KT 7000 VCTS FEW012CB SCT013 27/25 Q1010=  
26-Mar-2023 SAID35 WAGB 261500 METAR WAGB 261500Z 00000KT 6000 VCTS FEW012CB BKN013 26/25 Q1010=  
26-Mar-2023 SAID35 WAGB 261530 METAR WAGB 261530Z 00000KT 6000 VCTS FEW012CB BKN013 26/25 Q1010=  
26-Mar-2023 SAID35 WAGB 261600 METAR WAGB 261600Z 00000KT 6000 VCTS FEW012CB BKN013 27/25 Q1010=  
26-Mar-2023 SPID33 WAGB 261622 SPECI WAGB 261622Z 00000KT 6000 TS FEW012CB BKN013 27/25 Q1010=  
26-Mar-2023 SAID35 WAGB 261630 CCB METAR WAGB 261630Z 05004KT 6000 -TSRA FEW012CB BKN013 27/25 Q1010=  
26-Mar-2023 SAID35 WAGB 261630 CCA METAR WAGB 261630Z 00000KT 6000 -TSRA FEW012CB BKN013 27/25 Q1010=  
26-Mar-2023 SAID35 WAGB 261630 METAR WAGB 261630Z 00000KT 6000 TS FEW012CB BKN013 27/25 Q1010=  
26-Mar-2023 SAID35 WAGB 261700 METAR WAGB 261700Z 05007KT 5000 -TSRA FEW011CB BKN012 26/23 Q1010=  
26-Mar-2023 SAID35 WAGB 261730 METAR WAGB 261730Z 05004KT 5000 -TSRA FEW011CB BKN012 26/23 Q1010=  
26-Mar-2023 SAID35 WAGB 261800 CCA METAR WAGB 261800Z VRB02KT 4000 -TSRA FEW010CB BKN010 24/22 Q1010=  
26-Mar-2023 SAID35 WAGB 261800 METAR WAGB 261800Z 21002KT 4000 -TSRA FEW010CB BKN010 24/22 Q1010=  
26-Mar-2023 SAID35 WAGB 261800 CCB METAR WAGB 261800Z VRB02KT 4000 -TSRA FEW010CB 24/22 Q1010=  
26-Mar-2023 SAID35 WAGB 261830 METAR WAGB 261830Z 28004KT 3000 -TSRA FEW010CB 24/22 Q1010=  
26-Mar-2023 SAID35 WAGB 261900 METAR WAGB 261900Z 26003KT 4000 -RA FEW010CB 24/23 Q1011 RETS=  
26-Mar-2023 SAID35 WAGB 261930 METAR WAGB 261930Z VRB02KT 4000 -RA FEW010CB 24/23 Q1011=  
26-Mar-2023 SAID35 WAGB 262000 METAR WAGB 262000Z 26003KT 4000 -RA FEW010CB 23/23 Q1010=  
26-Mar-2023 SAID35 WAGB 262030 METAR WAGB 262030Z 00000KT 4000 -RA FEW010CB 23/23 Q1010=  
26-Mar-2023 SAID35 WAGB 262100 METAR WAGB 262100Z VRB02KT 5000 VCSH BKN009 23/22 Q1010=  
26-Mar-2023 SAID35 WAGB 262100 CCA METAR WAGB 262100Z 00000KT 5000 VCSH BKN009 23/22 Q1010 RERA=  
26-Mar-2023 SAID35 WAGB 262100 CCB METAR WAGB 262100Z VRB02KT 5000 VCSH BKN009 23/22 Q1010 RERA=  
26-Mar-2023 SAID35 WAGB 262130 METAR WAGB 262130Z 00000KT 5000 VCSH BKN009 23/22 Q1010=  
26-Mar-2023 SAID35 WAGB 262200 METAR WAGB 262200Z 00000KT 5000 VCSH BKN009 23/22 Q1010=  
26-Mar-2023 SAID35 WAGB 262230 METAR WAGB 262230Z 00000KT 5000 VCSH BKN009 23/22 Q1010=  
26-Mar-2023 SAID35 WAGB 262300 METAR WAGB 262300Z 00000KT 5000 HZ BKN010 23/22 Q1010=  
26-Mar-2023 SAID35 WAGB 262330 METAR WAGB 262330Z 00000KT 5000 HZ BKN010 23/22 Q1010=  
27-Mar-2023 SAID35 WAGB 270000 METAR WAGB 270000Z 00000KT 5000 SCT011 24/23 Q1010 NOSIG=  
27-Mar-2023 SAID35 WAGB 270030 METAR WAGB 270030Z 00000KT 6000 SCT011 24/23 Q1010 NOSIG=  
27-Mar-2023 SAID35 WAGB 270100 METAR WAGB 270100Z 00000KT 7000 SCT011 26/24 Q1011 NOSIG=  
27-Mar-2023 SAID35 WAGB 270130 METAR WAGB 270130Z 00000KT 9000 SCT011 26/24 Q1011 NOSIG=  
27-Mar-2023 SAID35 WAGB 270200 METAR WAGB 270200Z 05003KT 9000 SCT011 28/24 Q1011 NOSIG=  
27-Mar-2023 SAID35 WAGB 270230 METAR WAGB 270230Z 00000KT 9000 SCT011 28/24 Q1011 NOSIG=  
27-Mar-2023 SAID35 WAGB 270300 METAR WAGB 270300Z 04004KT 9999 SCT012 29/24 Q1010 NOSIG=  
27-Mar-2023 SAID35 WAGB 270330 METAR WAGB 270330Z 06003KT 9999 SCT012 30/24 Q1009 NOSIG=  
27-Mar-2023 SAID35 WAGB 270400 METAR WAGB 270400Z 00000KT 9999 SCT012 31/24 Q1009 NOSIG=  
27-Mar-2023 SAID35 WAGB 270430 METAR WAGB 270430Z 04003KT 9999 SCT013 31/24 Q1008 NOSIG=  
27-Mar-2023 SAID35 WAGB 270500 METAR WAGB 270500Z 34004KT 9999 BKN013 31/24 Q1008 NOSIG=  
27-Mar-2023 SAID35 WAGB 270530 METAR WAGB 270530Z 35004KT 9999 BKN013 32/24 Q1007 NOSIG=  
27-Mar-2023 SAID35 WAGB 270600 METAR WAGB 270600Z 00000KT 9999 BKN014 32/24 Q1007 NOSIG=  
27-Mar-2023 SAID35 WAGB 270630 METAR WAGB 270630Z 00000KT 9999 BKN014 32/24 Q1007 NOSIG=  
27-Mar-2023 SAID35 WAGB 270700 METAR WAGB 270700Z 00000KT 9999 BKN014 33/24 Q1007 NOSIG=  
27-Mar-2023 SAID35 WAGB 270730 METAR WAGB 270730Z 00000KT 9999 BKN014 33/24 Q1007 NOSIG=  
27-Mar-2023 SAID35 WAGB 270800 METAR WAGB 270800Z 32003KT 9999 FEW014CB SCT015 33/24 Q1006 NOSIG=  
27-Mar-2023 SAID35 WAGB 270830 METAR WAGB 270830Z 04004KT 9999 FEW014CB SCT015 33/24 Q1006 NOSIG=  
27-Mar-2023 SAID35 WAGB 270900 METAR WAGB 270900Z 00000KT 9999 FEW014CB SCT015 33/25 Q1006 NOSIG=  
27-Mar-2023 SAID35 WAGB 270930 METAR WAGB 270930Z 00000KT 9999 FEW014CB SCT015 33/25 Q1006 NOSIG=  
27-Mar-2023 SAID35 WAGB 271000 METAR WAGB 271000Z 00000KT 9999 FEW014CB SCT015 31/25 Q1006 NOSIG=  
27-Mar-2023 SAID35 WAGB 271030 METAR WAGB 271030Z 00000KT 9999 FEW014CB SCT015 31/25 Q1006 NOSIG=  
27-Mar-2023 SAID35 WAGB 271100 METAR WAGB 271100Z 00000KT 9000 FEW013CB SCT014 31/25 Q1007 NOSIG=  
27-Mar-2023 SAID35 WAGB 271130 METAR WAGB 271130Z 00000KT 9000 FEW013CB SCT014 31/25 Q1008 NOSIG=  
27-Mar-2023 SAID35 WAGB 271200 METAR WAGB 271200Z 00000KT 8000 VCTS FEW012CB SCT013 28/26 Q1008=  
27-Mar-2023 SAID35 WAGB 271230 METAR WAGB 271230Z 00000KT 8000 VCTS FEW012CB SCT013 28/26 Q1008=  
27-Mar-2023 SAID35 WAGB 271300 METAR WAGB 271300Z 00000KT 8000 VCTS FEW012CB SCT013 27/26 Q1009=  
27-Mar-2023 SAID35 WAGB 271300 CCA METAR COR WAGB 271300Z 00000KT 8000 VCTS FEW012CB SCT013 28/26 Q1009=  
27-Mar-2023 SAID35 WAGB 271330 METAR WAGB 271330Z 00000KT 8000 VCTS FEW012CB SCT013 28/26 Q1010=  
27-Mar-2023 SAID35 WAGB 271400 METAR WAGB 271400Z 04007KT 6000 TS FEW011CB BKN012 27/23 Q1011=  
27-Mar-2023 SAID35 WAGB 271430 METAR WAGB 271430Z 07007KT 6000 TS FEW011CB BKN012 27/23 Q1012=  
27-Mar-2023 SAID35 WAGB 271500 METAR WAGB 271500Z 05004KT 4000 -RA FEW011CB BKN012 26/23 Q1012 RETS=  
27-Mar-2023 SAID35 WAGB 271530 METAR WAGB 271530Z 02003KT 4000 -RA FEW011CB BKN012 25/23 Q1012=  
27-Mar-2023 SAID35 WAGB 271600 METAR WAGB 271600Z 00000KT 5000 -RA FEW011CB BKN012 25/24 Q1012=  
27-Mar-2023 SAID35 WAGB 271630 METAR WAGB 271630Z 00000KT 5000 -RA FEW011CB BKN012 25/24 Q1012=  
27-Mar-2023 SAID35 WAGB 271700 METAR WAGB 271700Z 00000KT 5000 VCSH FEW011CB BKN012 24/23 Q1012 RERA=  
27-Mar-2023 SAID35 WAGB 271730 METAR WAGB 271730Z 00000KT 4000 -RA FEW011CB BKN012 24/23 Q1012=  
27-Mar-2023 SAID35 WAGB 271800 METAR WAGB 271800Z 00000KT 4000 -RA FEW010CB BKN011 24/23 Q1011=  
27-Mar-2023 SAID35 WAGB 271830 METAR WAGB 271830Z 00000KT 4000 VCSH FEW010CB BKN011 24/23 Q1011 RERA=  
27-Mar-2023 SAID35 WAGB 271900 METAR WAGB 271900Z 00000KT 4000 BR BKN010 24/23 Q1011=  
27-Mar-2023 SAID35 WAGB 271930 METAR WAGB 271930Z 00000KT 4000 BR BKN010 24/23 Q1011=  
27-Mar-2023 SAID35 WAGB 272000 METAR WAGB 272000Z 00000KT 4000 BR BKN010 24/23 Q1011=  
27-Mar-2023 SAID35 WAGB 272030 METAR WAGB 272030Z 00000KT 4000 BR BKN010 24/23 Q1011=  
27-Mar-2023 SAID35 WAGB 272100 METAR WAGB 272100Z 00000KT 4000 -RA BKN010 24/23 Q1011=  
27-Mar-2023 SAID35 WAGB 272130 METAR WAGB 272130Z 00000KT 4000 -RA BKN010 24/23 Q1012=  
27-Mar-2023 SAID35 WAGB 272200 METAR WAGB 272200Z 00000KT 4000 -RA BKN010 23/23 Q1012=  
27-Mar-2023 SAID35 WAGB 272230 METAR WAGB 272230Z 00000KT 4000 -RA BKN010 23/23 Q1012=  
27-Mar-2023 SAID35 WAGB 272300 METAR WAGB 272300Z 00000KT 5000 -RA BKN010 23/23 Q1013=  
28-Mar-2023 SAID35 WAGB 280000 METAR WAGB 280000Z 00000KT 4000 -RA BKN010 24/23 Q1013=  
28-Mar-2023 SAID35 WAGB 280030 METAR WAGB 280030Z 00000KT 4000 -RA BKN010 24/23 Q1014=  
28-Mar-2023 SAID35 WAGB 280100 METAR WAGB 280100Z 01003KT 4000 -RA BKN008 24/23 Q1013=  
28-Mar-2023 SAID35 WAGB 280130 METAR WAGB 280130Z 34004KT 4000 -RA BKN008 24/23 Q1013=  
28-Mar-2023 SAID35 WAGB 280200 METAR WAGB 280200Z 35004KT 4500 BR BKN008 24/23 Q1013 RERA NOSIG=  
28-Mar-2023 SAID35 WAGB 280230 METAR WAGB 280230Z 34005KT 6000 SCT008 25/24 Q1012 NOSIG=  
28-Mar-2023 SAID35 WAGB 280300 METAR WAGB 280300Z 01006KT 6000 SCT008 25/24 Q1011 NOSIG=  
28-Mar-2023 SAID35 WAGB 280330 METAR WAGB 280330Z 03003KT 6000 SCT007 25/24 Q1010 NOSIG=  
28-Mar-2023 SAID35 WAGB 280400 METAR WAGB 280400Z 34004KT 7000 FEW007 26/24 Q1009 NOSIG=  
28-Mar-2023 SAID35 WAGB 280430 METAR WAGB 280430Z 06006KT 7000 SCT007 26/24 Q1009 NOSIG=  
28-Mar-2023 SAID35 WAGB 280500 METAR WAGB 280500Z 01003KT 8000 FEW008 27/24 Q1009 NOSIG=  
28-Mar-2023 SAID35 WAGB 280530 METAR WAGB 280530Z 03004KT 8000 SCT013 28/24 Q1008 NOSIG=  
28-Mar-2023 SAID35 WAGB 280600 METAR WAGB 280600Z 04004KT 9999 SCT013 30/24 Q1007 NOSIG=  
28-Mar-2023 SAID35 WAGB 280630 METAR WAGB 280630Z 00000KT 9999 SCT013 31/25 Q1007 NOSIG=  
28-Mar-2023 SAID35 WAGB 280700 METAR WAGB 280700Z 03003KT 9999 SCT013 31/24 Q1007 NOSIG=  
28-Mar-2023 SAID35 WAGB 280730 METAR WAGB 280730Z 00000KT 9999 SCT013 31/24 Q1006 NOSIG=  
28-Mar-2023 SAID35 WAGB 280800 METAR WAGB 280800Z 05004KT 9999 BKN013 31/24 Q1006 NOSIG=  
28-Mar-2023 SAID35 WAGB 280830 METAR WAGB 280830Z 00000KT 9999 SCT013 30/24 Q1006 NOSIG=  
28-Mar-2023 SAID35 WAGB 280900 METAR WAGB 280900Z 07002KT 9999 FEW014 30/25 Q1007 NOSIG=  
28-Mar-2023 SAID35 WAGB 280930 METAR WAGB 280930Z 00000KT 9999 FEW014 29/25 Q1007 NOSIG=  
28-Mar-2023 SAID35 WAGB 281000 METAR WAGB 281000Z 00000KT 9000 FEW013 29/25 Q1008 NOSIG=  
28-Mar-2023 SAID35 WAGB 281030 METAR WAGB 281030Z 00000KT 9000 FEW013 28/25 Q1008 NOSIG=  
28-Mar-2023 SAID35 WAGB 281100 METAR WAGB 281100Z 00000KT 8000 FEW012 28/26 Q1009 NOSIG=  
28-Mar-2023 SAID35 WAGB 281130 METAR WAGB 281130Z 00000KT 8000 FEW012 27/25 Q1009 NOSIG=  
28-Mar-2023 SAID35 WAGB 281200 METAR WAGB 281200Z 21003KT 8000 FEW012 27/25 Q1010=  
28-Mar-2023 SAID35 WAGB 281230 METAR WAGB 281230Z 23003KT 8000 FEW012 27/25 Q1010=  
28-Mar-2023 SAID35 WAGB 281300 METAR WAGB 281300Z 20002KT 8000 SCT012 26/25 Q1011=  
28-Mar-2023 SAID35 WAGB 281330 METAR WAGB 281330Z 19002KT 8000 SCT012 26/25 Q1012=  
28-Mar-2023 SAID35 WAGB 281400 METAR WAGB 281400Z 23002KT 8000 SCT011 26/25 Q1012=  
28-Mar-2023 SAID35 WAGB 281430 METAR WAGB 281430Z 00000KT 8000 SCT011 26/25 Q1012=  
28-Mar-2023 SAID35 WAGB 281500 METAR WAGB 281500Z 00000KT 8000 BKN011 26/25 Q1012=  
28-Mar-2023 SAID35 WAGB 281530 METAR WAGB 281530Z 00000KT 8000 BKN011 26/25 Q1011=  
28-Mar-2023 SAID35 WAGB 281600 METAR WAGB 281600Z 00000KT 8000 BKN011 26/24 Q1011=  
28-Mar-2023 SAID35 WAGB 281630 METAR WAGB 281630Z 00000KT 8000 BKN011 26/24 Q1011=  
28-Mar-2023 SAID35 WAGB 281700 METAR WAGB 281700Z 24003KT 8000 SCT011 25/23 Q1011=  
28-Mar-2023 SAID35 WAGB 281730 METAR WAGB 281730Z 22003KT 7000 -RA SCT011 25/23 Q1011=  
28-Mar-2023 SAID35 WAGB 281800 METAR WAGB 281800Z 25005KT 7000 BKN010 24/23 Q1010 RERA=  
28-Mar-2023 SAID35 WAGB 281830 METAR WAGB 281830Z 230002KT 5000 -RA BKN010 24/23 Q1010=  
28-Mar-2023 SAID35 WAGB 281900 METAR WAGB 281900Z 00000KT 5000 -RA BKN010 24/23 Q1010=  
28-Mar-2023 SAID35 WAGB 281930 METAR WAGB 281930Z 00000KT 5000 BKN010 24/23 Q1010 RERA=  
28-Mar-2023 SAID35 WAGB 282000 METAR WAGB 282000Z 00000KT 6000 BKN009 23/23 Q1010=  
28-Mar-2023 SAID35 WAGB 282030 METAR WAGB 282030Z 00000KT 6000 BKN009 23/23 Q1010=  
28-Mar-2023 SAID35 WAGB 282100 METAR WAGB 282100Z 21002KT 7000 BKN009 23/23 Q1010=  
28-Mar-2023 SAID35 WAGB 282130 METAR WAGB 282130Z 21002KT 7000 BKN009 23/23 Q1010=  
28-Mar-2023 SAID35 WAGB 282200 METAR WAGB 282200Z 00000KT 8000 SCT009 23/23 Q1011=  
28-Mar-2023 SAID35 WAGB 282230 METAR WAGB 282230Z 00000KT 8000 SCT009 23/23 Q1011=  
28-Mar-2023 SAID35 WAGB 282300 METAR WAGB 282300Z 00000KT 8000 SCT010 24/23 Q1011=  
28-Mar-2023 SAID35 WAGB 282330 METAR WAGB 282330Z 00000KT 8000 FEW010 24/23 Q1011=  
29-Mar-2023 SAID35 WAGB 290000 METAR WAGB 290000Z 00000KT 6000 FEW009 24/23 Q1012 NOSIG=  
29-Mar-2023 SAID35 WAGB 290030 METAR WAGB 290030Z 00000KT 6000 FEW009 24/23 Q1012 NOSIG=  
29-Mar-2023 SAID35 WAGB 290100 METAR WAGB 290100Z 00000KT 9000 FEW009 26/23 Q1012 NOSIG=  
29-Mar-2023 SAID35 WAGB 290200 METAR WAGB 290200Z 06004KT 9999 FEW010 28/23 Q1012 NOSIG=  
29-Mar-2023 SAID35 WAGB 290230 METAR WAGB 290230Z 00000KT 9999 FEW015 29/23 Q1011 NOSIG=  
29-Mar-2023 SAID35 WAGB 290300 METAR WAGB 290300Z 10004KT 9999 FEW015 29/24 Q1010 NOSIG=  
29-Mar-2023 SAID35 WAGB 290330 METAR WAGB 290330Z 21002KT 9999 FEW015 31/23 Q1009 NOSIG=  
29-Mar-2023 SAID35 WAGB 290400 METAR WAGB 290400Z 18005KT 9999 FEW015 31/23 Q1009 NOSIG=  
29-Mar-2023 SAID35 WAGB 290430 METAR WAGB 290430Z 16002KT 9999 SCT015 31/24 Q1008 NOSIG=  
29-Mar-2023 SAID35 WAGB 290500 METAR WAGB 290500Z 18004KT 9999 SCT015 31/23 Q1008 NOSIG=  
29-Mar-2023 SAID35 WAGB 290530 METAR WAGB 290530Z 25005KT 9999 SCT015 32/24 Q1008 NOSIG=  
29-Mar-2023 SAID35 WAGB 290600 METAR WAGB 290600Z 23004KT 9999 BKN014 33/24 Q1007 NOSIG=  
29-Mar-2023 SAID35 WAGB 290630 METAR WAGB 290630Z 00000KT 9999 BKN014 33/24 Q1007 NOSIG=  
29-Mar-2023 SAID35 WAGB 290700 METAR WAGB 290700Z 15002KT 9999 BKN014 34/24 Q1006 NOSIG=  
29-Mar-2023 SAID35 WAGB 290800 METAR WAGB 290800Z 15003KT 9000 FEW012CB BKN013 33/23 Q1006 NOSIG=  
29-Mar-2023 SAID35 WAGB 290830 METAR WAGB 290830Z 27004KT 8000 FEW012CB BKN013 31/23 Q1006 RESH NOSIG=  
29-Mar-2023 SAID35 WAGB 290900 METAR WAGB 290900Z 27003KT 9000 FEW012CB BKN013 30/25 Q1006 NOSIG=  
29-Mar-2023 SAID35 WAGB 290930 METAR WAGB 290930Z 00000KT 9000 FEW012CB BKN013 29/25 Q1006 NOSIG=  
29-Mar-2023 SAID35 WAGB 291000 METAR WAGB 291000Z 00000KT 9000 FEW012CB BKN013 30/27 Q1007 NOSIG=  
29-Mar-2023 SAID35 WAGB 291030 METAR WAGB 291030Z 00000KT 8000 FEW012CB BKN013 30/27 Q1007 NOSIG=  
29-Mar-2023 SAID35 WAGB 291100 METAR WAGB 291100Z 00000KT 8000 VCTS FEW012CB BKN013 29/26 Q1008=  
29-Mar-2023 SAID35 WAGB 291130 METAR WAGB 291130Z 00000KT 8000 VCTS FEW012CB BKN013 28/26 Q1008=  
29-Mar-2023 SAID35 WAGB 291200 METAR WAGB 291200Z 00000KT 6000 VCTS FEW012CB SCT013 28/25 Q1008=  
29-Mar-2023 SAID35 WAGB 291230 METAR WAGB 291230Z 00000KT 6000 VCTS FEW012CB SCT013 28/25 Q1008=  
29-Mar-2023 SAID35 WAGB 291300 METAR WAGB 291300Z 00000KT 6000 VCTS FEW012CB SCT013 27/25 Q1009=  
29-Mar-2023 SAID35 WAGB 291330 METAR WAGB 291330Z 00000KT 6000 VCTS FEW012CB SCT013 27/25 Q1009=  
29-Mar-2023 SAID35 WAGB 291400 METAR WAGB 291400Z 00000KT 6000 FEW011CB SCT012 27/25 Q1010=  
29-Mar-2023 SAID35 WAGB 291430 METAR WAGB 291430Z 00000KT 6000 FEW011CB SCT012 27/25 Q1010=  
29-Mar-2023 SAID35 WAGB 291500 METAR WAGB 291500Z 00000KT 6000 VCTS FEW011CB SCT012 26/24 Q1010=  
29-Mar-2023 SAID35 WAGB 291530 METAR WAGB 291530Z 00000KT 6000 VCTS FEW011CB SCT012 26/24 Q1010=  
29-Mar-2023 SAID35 WAGB 291600 METAR WAGB 291600Z 00000KT 6000 VCTS FEW011CB SCT012 26/24 Q1010=  
29-Mar-2023 SAID35 WAGB 291630 METAR WAGB 291630Z 00000KT 6000 VCTS FEW011CB SCT012 26/24 Q1010=  
29-Mar-2023 SAID35 WAGB 291700 METAR WAGB 291700Z 00000KT 6000 TS FEW010CB SCT011 26/24 Q1010=  
29-Mar-2023 SPID35 WAGB 291715 SPECI WAGB 291715Z 00000KT 4000 -TSRA FEW010CB SCT011 26/24 Q1009=  
29-Mar-2023 SAID35 WAGB 291730 METAR WAGB 291730Z 00000KT 4000 -TSRA FEW010CB SCT011 26/24 Q1010=  
29-Mar-2023 SAID35 WAGB 291800 METAR WAGB 291800Z 00000KT 4000 -RA FEW010CB BKN011 25/24 Q1009 RETS=  
29-Mar-2023 SAID35 WAGB 291830 METAR WAGB 291830Z 00000KT 4000 -RA FEW010CB BKN011 25/24 Q1009=  
29-Mar-2023 SAID35 WAGB 291900 METAR WAGB 291900Z 00000KT 2000 RA FEW010CB BKN011 25/24 Q1009=  
29-Mar-2023 SAID35 WAGB 291930 METAR WAGB 291930Z 00000KT 2000 TSRA FEW010CB BKN011 25/24 Q1009=  
29-Mar-2023 SAID35 WAGB 292000 METAR WAGB 292000Z 00000KT 3000 -RA FEW010CB BKN011 25/24 Q1009=  
29-Mar-2023 SAID35 WAGB 292030 METAR WAGB 292030Z 00000KT 3000 -RA FEW010CB BKN011 25/24 Q1009=  
29-Mar-2023 SAID35 WAGB 292100 METAR WAGB 292100Z 00000KT 3000 -RA FEW009CB BKN010 24/23 Q1009=  
29-Mar-2023 SAID35 WAGB 292130 METAR WAGB 292130Z 00000KT 3000 -RA FEW009CB BKN010 24/23 Q1009=  
29-Mar-2023 SAID35 WAGB 292200 METAR WAGB 292200Z 00000KT 3000 RA FEW009CB BKN010 24/23 Q1010=  
29-Mar-2023 SAID35 WAGB 292230 METAR WAGB 292230Z 00000KT 3000 RA FEW009CB BKN010 24/23 Q1010=  
29-Mar-2023 SAID35 WAGB 292300 METAR WAGB 292300Z 00000KT 2000 RA FEW009CB BKN010 24/23 Q1011=  
29-Mar-2023 SAID35 WAGB 292330 METAR WAGB 292330Z 00000KT 2000 RA FEW009CB BKN010 24/23 Q1011=  
30-Mar-2023 SAID35 WAGB 300000 METAR WAGB 300000Z 00000KT 3000 -RA BKN008 24/23 Q1011=  
30-Mar-2023 SAID35 WAGB 300030 CCA METAR WAGB 300030Z VRB02KT 3000 VCSH BKN008 24/23 Q1011 RERA NOSIG=  
30-Mar-2023 SAID35 WAGB 300030 METAR WAGB 300030Z VRB02KT 3000 VCSH BKN008 24/23 Q1011 RERA=  
30-Mar-2023 SAID35 WAGB 300100 METAR WAGB 300100Z 35003KT 5000 VCSH BKN008 24/23 Q1011 NOSIG=  
30-Mar-2023 SAID35 WAGB 300130 METAR WAGB 300130Z 34003KT 5000 VCSH BKN008 25/23 Q1011 NOSIG=  
30-Mar-2023 SAID35 WAGB 300200 METAR WAGB 300200Z 00000KT 7000 BKN010 26/23 Q1012 NOSIG=  
30-Mar-2023 SAID35 WAGB 300200 CCA METAR WAGB 300200Z 34003KT 6000 BKN009 26/23 Q1011 NOSIG=  
30-Mar-2023 SAID35 WAGB 300230 METAR WAGB 300230Z VRB02KT 7000 BKN010 26/23 Q1011 NOSIG=  
30-Mar-2023 SAID35 WAGB 300300 METAR WAGB 300300Z VRB02KT 8000 BKN010 27/24 Q1011 NOSIG=  
30-Mar-2023 SAID35 WAGB 300330 METAR WAGB 300330Z 32004KT 8000 BKN011 27/23 Q1010 NOSIG=  
30-Mar-2023 SAID35 WAGB 300400 METAR WAGB 300400Z 31003KT 8000 BKN011 27/23 Q1010 NOSIG=  
30-Mar-2023 SAID35 WAGB 300430 CCA METAR WAGB 300430Z VRB02KT 7000 -RA BKN011 27/23 Q1010 NOSIG=  
30-Mar-2023 SAID35 WAGB 300430 METAR WAGB 300430Z VRB02KT 8000 BKN011 27/23 Q1010 NOSIG=  
30-Mar-2023 SAID35 WAGB 300500 METAR WAGB 300500Z VRB02KT 6000 -RA BKN011 27/23 Q1009 NOSIG=  
30-Mar-2023 SAID35 WAGB 300500 CCA METAR WAGB 300500Z 00000KT 6000 -RA BKN011 27/23 Q1009 NOSIG=  
30-Mar-2023 SAID35 WAGB 300530 METAR WAGB 300530Z 00000KT 7000 VCSH BKN011 27/23 Q1008 RERA NOSIG=  
30-Mar-2023 SAID35 WAGB 300600 METAR WAGB 300600Z 00000KT 7000 -RA SCT010 29/24 Q1007 NOSIG=  
30-Mar-2023 SAID35 WAGB 300630 METAR WAGB 300630Z 00000KT 7000 -RA SCT010 29/24 Q1007 RERA NOSIG=  
30-Mar-2023 SAID35 WAGB 300700 METAR WAGB 300700Z 00000KT 8000 SCT010 28/24 Q1007 NOSIG=  
30-Mar-2023 SAID35 WAGB 300730 METAR WAGB 300730Z 00000KT 8000 SCT010 28/24 Q1007 NOSIG=  
30-Mar-2023 SAID35 WAGB 300800 METAR WAGB 300800Z 15003KT 9999 SCT011 29/24 Q1006 NOSIG=  
30-Mar-2023 SAID35 WAGB 300830 METAR WAGB 300830Z 00000KT 9999 SCT011 29/24 Q1006 NOSIG=  
30-Mar-2023 SAID35 WAGB 300900 METAR WAGB 300900Z 20002KT 9999 SCT012 30/24 Q1006 NOSIG=  
30-Mar-2023 SAID35 WAGB 300930 METAR WAGB 300930Z 20002KT 9999 SCT012 30/24 Q1007 NOSIG=  
30-Mar-2023 SAID35 WAGB 301000 METAR WAGB 301000Z 00000KT 9999 SCT012 29/24 Q1007 NOSIG=  
30-Mar-2023 SAID35 WAGB 301030 METAR WAGB 301030Z 00000KT 9000 SCT012 29/24 Q1007 NOSIG=  
30-Mar-2023 SAID35 WAGB 301100 METAR WAGB 301100Z 00000KT 8000 SCT013 28/25 Q1008 NOSIG=  
30-Mar-2023 SAID35 WAGB 301130 METAR WAGB 301130Z 00000KT 8000 SCT013 28/25 Q1008 NOSIG=  
30-Mar-2023 SAID35 WAGB 301200 METAR WAGB 301200Z 00000KT 8000 BKN010 27/24 Q1009=  
30-Mar-2023 SAID35 WAGB 301230 METAR WAGB 301230Z 00000KT 8000 BKN010 27/24 Q1010=  
30-Mar-2023 SAID35 WAGB 301300 METAR WAGB 301300Z 00000KT 8000 BKN010 26/25 Q1010=  
30-Mar-2023 SAID35 WAGB 301330 METAR WAGB 301330Z 00000KT 8000 BKN010 26/25 Q1010=  
30-Mar-2023 SAID35 WAGB 301400 METAR WAGB 301400Z 00000KT 8000 BKN010 26/25 Q1010=  
30-Mar-2023 SAID35 WAGB 301430 METAR WAGB 301430Z 00000KT 8000 BKN010 26/25 Q1011=  
30-Mar-2023 SAID35 WAGB 301500 METAR WAGB 301500Z 00000KT 8000 BKN010 26/25 Q1011=  
30-Mar-2023 SAID35 WAGB 301530 METAR WAGB 301530Z 00000KT 8000 BKN010 26/25 Q1011=  
30-Mar-2023 SAID35 WAGB 301600 METAR WAGB 301600Z 00000KT 6000 BKN010 26/25 Q1011=  
30-Mar-2023 SAID35 WAGB 301600 CCA METAR WAGB 301600Z 00000KT 6000 -RA BKN010 26/25 Q1011=  
30-Mar-2023 SAID35 WAGB 301700 METAR WAGB 301700Z 00000KT 3000 RA FEW010CB BKN011 25/25 Q1011=  
30-Mar-2023 SAID35 WAGB 301730 METAR WAGB 301730Z 00000KT 3000 RA FEW010CB BKN011 25/25 Q1011=  
30-Mar-2023 SAID35 WAGB 301800 METAR WAGB 301800Z 00000KT 3000 -RA FEW010CB BKN011 23/22 Q1011=  
30-Mar-2023 SAID35 WAGB 301830 METAR WAGB 301830Z 00000KT 5000 -RA FEW010CB BKN011 23/22 Q1011=  
30-Mar-2023 SAID35 WAGB 301900 METAR WAGB 301900Z 00000KT 5000 -RA FEW010CB BKN011 23/22 Q1010=  
30-Mar-2023 SAID35 WAGB 301930 METAR WAGB 301930Z 00000KT 5000 -RA FEW010CB BKN011 23/22 Q1010=  
30-Mar-2023 SAID35 WAGB 302000 METAR WAGB 302000Z 00000KT 5000 BKN009 23/22 Q1010 RERA=  
30-Mar-2023 SAID35 WAGB 302030 METAR WAGB 302030Z 00000KT 5000 VCSH BKN009 23/22 Q1010=  
30-Mar-2023 SAID35 WAGB 302100 METAR WAGB 302100Z 00000KT 5000 VCSH BKN009 23/22 Q1010=  
30-Mar-2023 SAID35 WAGB 302130 METAR WAGB 302130Z 00000KT 5000 VCSH BKN009 23/22 Q1010=  
30-Mar-2023 SAID35 WAGB 302200 METAR WAGB 302200Z 00000KT 5000 BR BKN009 23/23 Q1010=  
30-Mar-2023 SAID35 WAGB 302230 METAR WAGB 302230Z 00000KT 5000 BR BKN009 23/23 Q1010=  
30-Mar-2023 SAID35 WAGB 302300 METAR WAGB 302300Z 00000KT 5000 BR BKN009 23/23 Q1011=  
30-Mar-2023 SAID35 WAGB 302330 METAR WAGB 302330Z 00000KT 5000 BR BKN009 23/23 Q1011=  
31-Mar-2023 SAID35 WAGB 310000 METAR WAGB 310000Z 00000KT 4000 BR OVC008 24/23 Q1011 NOSIG=  
31-Mar-2023 SAID35 WAGB 310030 METAR WAGB 310030Z 00000KT 4000 BR OVC008 24/23 Q1012 NOSIG=  
31-Mar-2023 SAID35 WAGB 310100 METAR WAGB 310100Z 30003KT 5000 HZ BKN009 24/23 Q1012 NOSIG=  
31-Mar-2023 SAID35 WAGB 310130 METAR WAGB 310130Z 07003KT 7000 BKN009 25/23 Q1012 NOSIG=  
31-Mar-2023 SAID35 WAGB 310200 METAR WAGB 310200Z 00000KT 8000 SCT009 26/23 Q1012 NOSIG=  
31-Mar-2023 SAID35 WAGB 310230 METAR WAGB 310230Z 00000KT 8000 SCT009 27/23 Q1012 NOSIG=  
31-Mar-2023 SAID35 WAGB 310300 METAR WAGB 310300Z 31004KT 8000 SCT010 28/25 Q1011 NOSIG=  
31-Mar-2023 SAID35 WAGB 310330 METAR WAGB 310330Z 27005KT 9000 SCT010 28/25 Q1011 NOSIG=  
31-Mar-2023 SAID35 WAGB 310400 METAR WAGB 310400Z 06002KT 9000 SCT011 29/24 Q1011 NOSIG=  
31-Mar-2023 SAID35 WAGB 310430 METAR WAGB 310430Z 19004KT 9999 SCT011 30/24 Q1010 NOSIG=  
31-Mar-2023 SAID35 WAGB 310500 METAR WAGB 310500Z 20003KT 9999 BKN012 31/24 Q1010 NOSIG=  
31-Mar-2023 SAID35 WAGB 310530 METAR WAGB 310530Z 00000KT 9999 BKN012 30/24 Q1009 NOSIG=  
31-Mar-2023 SAID35 WAGB 310600 METAR WAGB 310600Z 24005KT 9999 FEW012TCU SCT013 31/24 Q1008 NOSIG=  
31-Mar-2023 SPID33 WAGB 310614 SPECI WAGB 310614Z VRB02KT 4000 -RA FEW012TCU SCT013 31/24 Q1008 NOSIG=  
31-Mar-2023 SPID33 WAGB 310614 CCA SPECI WAGB 310614Z VRB02KT 6000 -RA FEW012TCU SCT013 31/24 Q1008 NOSIG=  
31-Mar-2023 SAID35 WAGB 310630 METAR WAGB 310630Z 00000KT 9000 FEW012TCU SCT013 30/26 Q1007 RERA NOSIG=  
31-Mar-2023 SAID35 WAGB 310700 METAR WAGB 310700Z VRB02KT 9999 FEW012TCU SCT013 30/26 Q1007 NOSIG=  
31-Mar-2023 SPID33 WAGB 310708 SPECI WAGB 310708Z 07003KT 8000 -RA FEW012TCU SCT013 30/26 Q1007 NOSIG=  
31-Mar-2023 SAID35 WAGB 310730 METAR WAGB 310730Z VRB02KT 8000 FEW012CB SCT013 30/26 Q1007 NOSIG=  
31-Mar-2023 SAID35 WAGB 310730 CCA METAR WAGB 310730Z VRB02KT 9000 FEW012CB SCT013 30/26 Q1007 RERA NOSIG=  
31-Mar-2023 SAID35 WAGB 310800 METAR WAGB 310800Z 25006KT 8000 TS FEW012CB BKN013 29/26 Q1007 NOSIG=  
31-Mar-2023 SPID33 WAGB 310800 SPECI WAGB 310800Z 30006KT 6000 -TSRA FEW012CB BKN013 29/26 Q1008 NOSIG=  
31-Mar-2023 SPID33 WAGB 310815 CCA SPECI WAGB 310815Z 30006KT 6000 -TSRA FEW012CB BKN013 29/26 Q1008 NOSIG=  
31-Mar-2023 SAID35 WAGB 310830 METAR WAGB 310830Z 28004KT 4000 -TSRA FEW012CB BKN013 29/26 Q1008 NOSIG=  
31-Mar-2023 SAID35 WAGB 310900 CCA METAR WAGB 310900Z 00000KT 4000 -TSRA FEW012CB BKN013 25/24 Q1008 NOSIG=  
31-Mar-2023 SAID35 WAGB 310900 METAR WAGB 310900Z 00000KT 000 -TSRA FEW012CB BKN013 25/24 Q1008 NOSIG=  
31-Mar-2023 SAID35 WAGB 310930 METAR WAGB 310930Z 00000KT 4000 -TSRA FEW012CB BKN013 25/24 Q1008 NOSIG=  
31-Mar-2023 SAID35 WAGB 311000 METAR WAGB 311000Z 20009KT 4000 -TSRA FEW011CB BKN012 24/23 Q1010 NOSIG=  
31-Mar-2023 SAID35 WAGB 311030 METAR WAGB 311030Z 21008KT 4000 -RA FEW011CB BKN012 24/23 Q1010 RETS NOSIG=  
31-Mar-2023 SAID35 WAGB 311100 METAR WAGB 311100Z 20004KT 5000 -RA FEW011CB BKN012 23/23 Q1010 NOSIG=  
31-Mar-2023 SAID35 WAGB 311130 METAR WAGB 311130Z 00000KT 5000 -RA FEW011CB BKN012 23/23 Q1011 NOSIG=  
31-Mar-2023 SAID35 WAGB 311200 METAR WAGB 311200Z 19003KT 5000 FEW010CB BKN011 23/23 Q1011 RERA=  
31-Mar-2023 SAID35 WAGB 311230 METAR WAGB 311230Z 00000KT 5000 -RA FEW010CB BKN011 23/23 Q1012=  
31-Mar-2023 SAID35 WAGB 311300 METAR WAGB 311300Z 00000KT 5000 -RA FEW010CB BKN011 23/23 Q1012=  
31-Mar-2023 SAID35 WAGB 311330 METAR WAGB 311330Z 00000KT 5000 BR FEW010CB BKN011 23/23 Q1012=  
31-Mar-2023 SAID35 WAGB 311400 METAR WAGB 311400Z 00000KT 5000 BR FEW010CB SCT011 23/23 Q1012=  
31-Mar-2023 SAID35 WAGB 311430 METAR WAGB 311430Z 00000KT 5000 BR FEW010CB BKN011 23/23 Q1012=  
31-Mar-2023 SAID35 WAGB 311500 METAR WAGB 311500Z 00000KT 5000 BKN012 23/23 Q1012=  
31-Mar-2023 SAID35 WAGB 311530 METAR WAGB 311530Z 00000KT 5000 BR BKN012 23/23 Q1012=  
31-Mar-2023 SAID35 WAGB 311600 METAR WAGB 311600Z 00000KT 5000 BKN008 23/23 Q1012=  
31-Mar-2023 SAID35 WAGB 311630 METAR WAGB 311630Z 00000KT 5000 BR BKN008 23/23 Q1011=  
31-Mar-2023 SAID35 WAGB 311700 METAR WAGB 311700Z 00000KT 5000 BR BKN008 23/23 Q1011=  
31-Mar-2023 SAID35 WAGB 311730 METAR WAGB 311730Z 00000KT 5000 BR BKN008 23/23 Q1010=  
31-Mar-2023 SAID35 WAGB 311800 METAR WAGB 311800Z 00000KT 5000 BKN008 23/22 Q1009 RERA=  
31-Mar-2023 SAID35 WAGB 311800 CCA METAR WAGB 311800Z 00000KT 5000 BKN008 23/22 Q1009=  
31-Mar-2023 SAID35 WAGB 311830 METAR WAGB 311830Z 00000KT 5000 BR BKN008 23/23 Q1009=  
31-Mar-2023 SAID35 WAGB 311900 METAR WAGB 311900Z 00000KT 5000 BR BKN008 23/23 Q1009=  
31-Mar-2023 SAID35 WAGB 311930 METAR WAGB 311930Z 00000KT 4000 BR BKN008 23/23 Q1009=  
31-Mar-2023 SAID35 WAGB 312000 METAR WAGB 312000Z 00000KT 4000 BR BKN008 23/23 Q1009=  
31-Mar-2023 SAID35 WAGB 312030 METAR WAGB 312030Z 00000KT 4000 BR BKN008 23/23 Q1009=  
31-Mar-2023 SAID35 WAGB 312100 METAR WAGB 312100Z 00000KT 4000 BR BKN008 23/23 Q1009=  
31-Mar-2023 SAID35 WAGB 312130 METAR WAGB 312130Z 00000KT 4000 BR BKN008 23/23 Q1009=  
31-Mar-2023 SAID35 WAGB 312200 METAR WAGB 312200Z 00000KT 4000 BR BKN008 23/23 Q1009=  
31-Mar-2023 SAID35 WAGB 312230 METAR WAGB 312230Z 00000KT 5000 BR BKN007 23/23 Q1010=  
31-Mar-2023 SAID35 WAGB 312300 METAR WAGB 312300Z 00000KT 5000 BR BKN007 23/22 Q1010=  
31-Mar-2023 SAID35 WAGB 312330 METAR WAGB 312330Z 00000KT 5000 BR BKN007 23/22 Q1011=  
01-Apr-2023 SAID35 WAGB 010000 METAR WAGB 010000Z 00000KT 5000 BKN009 24/23 Q1011 NOSIG=  
01-Apr-2023 SAID35 WAGB 010030 METAR WAGB 010030Z 00000KT 5000 BKN009 24/23 Q1012 NOSIG=  
01-Apr-2023 SAID35 WAGB 010100 METAR WAGB 010100Z 00000KT 7000 BKN010 25/23 Q1012 NOSIG=  
01-Apr-2023 SAID35 WAGB 010130 METAR WAGB 010130Z 00000KT 7000 BKN010 25/23 Q1012 NOSIG=  
01-Apr-2023 SAID35 WAGB 010200 METAR WAGB 010200Z 00000KT 7000 BKN010 26/23 Q1011 NOSIG=  
01-Apr-2023 SAID35 WAGB 010200 CCA METAR WAGB 010200Z 00000KT 7000 BKN010 26/23 Q1012 NOSIG=  
01-Apr-2023 SAID35 WAGB 010230 METAR WAGB 010230Z 00000KT 9000 SCT011 29/23 Q1012 NOSIG=  
01-Apr-2023 SAID35 WAGB 010300 METAR WAGB 010300Z 16003KT 9000 SCT012 29/23 Q1012 NOSIG=  
01-Apr-2023 SAID35 WAGB 010330 METAR WAGB 010330Z 23004KT 9000 SCT012 30/22 Q1011 NOSIG=  
01-Apr-2023 SAID35 WAGB 010400 METAR WAGB 010400Z 17003KT 9000 SCT012 31/23 Q1011 NOSIG=  
01-Apr-2023 SAID35 WAGB 010430 METAR WAGB 010430Z 18004KT 9999 BKN012 31/23 Q1010 NOSIG=  
01-Apr-2023 SAID35 WAGB 010500 METAR WAGB 010500Z 20005KT 9999 BKN012 31/23 Q1010 NOSIG=  
01-Apr-2023 SAID35 WAGB 010530 METAR WAGB 010530Z 00000KT 9999 BKN012 31/23 Q1009 NOSIG=  
01-Apr-2023 SAID35 WAGB 010600 METAR WAGB 010600Z 24005KT 9000 BKN012 30/24 Q1009 NOSIG=  
01-Apr-2023 SAID35 WAGB 010630 METAR WAGB 010630Z 27003KT 9000 BKN012 30/24 Q1008 NOSIG=  
01-Apr-2023 SAID35 WAGB 010700 METAR WAGB 010700Z VRB02KT 9999 FEW012TCU BKN013 30/24 Q1008 NOSIG=  
01-Apr-2023 SAID35 WAGB 010730 METAR WAGB 010730Z 25005KT 9999 FEW012TCU BKN013 30/24 Q1008 NOSIG=  
01-Apr-2023 SAID35 WAGB 010800 CCB METAR WAGB 010800Z 27005KT 9999 FEW012TCU SCT013 31/23 Q1007 NOSIG=  
01-Apr-2023 SAID35 WAGB 010800 METAR WAGB 010800Z 27005KT 9999 BKN013 31/23 Q1007 NOSIG=  
01-Apr-2023 SAID35 WAGB 010800 CCA METAR WAGB 010800Z 27005KT 9999 FEW012TCU BKN013 31/23 Q1007 NOSIG=  
01-Apr-2023 SAID35 WAGB 010830 METAR WAGB 010830Z 30005KT 9999 FEW012TCU SCT013 31/23 Q1007 NOSIG=  
01-Apr-2023 SAID35 WAGB 010900 METAR WAGB 010900Z 00000KT 9999 FEW012TCU SCT013 31/23 Q1007 NOSIG=  
01-Apr-2023 SAID35 WAGB 010930 METAR WAGB 010930Z 00000KT 9999 FEW012TCU SCT013 31/23 Q1008 NOSIG=  
01-Apr-2023 SAID35 WAGB 011000 METAR WAGB 011000Z 00000KT 9999 FEW012CB SCT013 30/23 Q1008 NOSIG=  
01-Apr-2023 SAID35 WAGB 011030 METAR WAGB 011030Z 00000KT 9999 FEW012CB SCT013 29/23 Q1008 NOSIG=  
01-Apr-2023 SAID35 WAGB 011100 METAR WAGB 011100Z 00000KT 8000 FEW012CB SCT013 28/23 Q1009 NOSIG=  
01-Apr-2023 SAID35 WAGB 011130 METAR WAGB 011130Z 00000KT 8000 FEW012CB SCT013 28/23 Q1009 NOSIG=  
01-Apr-2023 SAID35 WAGB 011200 METAR WAGB 011200Z 00000KT 8000 FEW013 28/24 Q1009=  
01-Apr-2023 SAID35 WAGB 011230 METAR WAGB 011230Z 00000KT 8000 FEW013 28/24 Q1009=  
01-Apr-2023 SAID35 WAGB 011300 METAR WAGB 011300Z 00000KT 7000 FEW012 27/24 Q1010=  
01-Apr-2023 SAID35 WAGB 011330 METAR WAGB 011330Z 00000KT 7000 FEW012 27/24 Q1010=  
01-Apr-2023 SAID35 WAGB 011400 METAR WAGB 011400Z 00000KT 6000 FEW012 26/24 Q1011=  
01-Apr-2023 SAID35 WAGB 011430 METAR WAGB 011430Z 00000KT 6000 FEW012 26/24 Q1011=  
01-Apr-2023 SAID35 WAGB 011500 METAR WAGB 011500Z 00000KT 6000 FEW011 26/24 Q1011=  
01-Apr-2023 SAID35 WAGB 011600 METAR WAGB 011600Z 00000KT 5000 HZ FEW011 25/24 Q1011=  
01-Apr-2023 SAID35 WAGB 011630 METAR WAGB 011630Z 00000KT 5000 HZ FEW011 25/24 Q1011=  
01-Apr-2023 SAID35 WAGB 011700 METAR WAGB 011700Z 00000KT 5000 HZ FEW011 25/24 Q1010=  
01-Apr-2023 SAID35 WAGB 011730 METAR WAGB 011730Z 00000KT 5000 HZ FEW011 25/24 Q1010=  
01-Apr-2023 SAID35 WAGB 011800 METAR WAGB 011800Z 00000KT 5000 BR FEW011 26/25 Q1009=  
01-Apr-2023 SAID35 WAGB 011830 METAR WAGB 011830Z 00000KT 5000 BR FEW011 26/25 Q1009=  
01-Apr-2023 SAID35 WAGB 011900 METAR WAGB 011900Z 00000KT 4500 BR FEW011 24/24 Q1009=  
01-Apr-2023 SAID35 WAGB 011930 METAR WAGB 011930Z 00000KT 4500 BR FEW011 24/24 Q1009=  
01-Apr-2023 SAID35 WAGB 012000 METAR WAGB 012000Z 00000KT 4500 BR SCT010 24/23 Q1008=  
01-Apr-2023 SAID35 WAGB 012030 METAR WAGB 012030Z 00000KT 4500 BR SCT010 24/23 Q1008=  
01-Apr-2023 SAID35 WAGB 012100 METAR WAGB 012100Z 00000KT 4500 BR BKN010 24/23 Q1009=  
01-Apr-2023 SAID35 WAGB 012130 METAR WAGB 012130Z 00000KT 4500 BR BKN010 24/23 Q1009=  
01-Apr-2023 SAID35 WAGB 012200 METAR WAGB 012200Z 00000KT 5000 BR SCT010 24/23 Q1009=  
01-Apr-2023 SAID35 WAGB 012230 METAR WAGB 012230Z 00000KT 5000 BR SCT010 24/23 Q1009=  
01-Apr-2023 SAID35 WAGB 012300 METAR WAGB 012300Z 00000KT 5000 SCT010 24/23 Q1010=  
01-Apr-2023 SAID35 WAGB 012330 METAR WAGB 012330Z 00000KT 5000 SCT010 24/23 Q1010=  
02-Apr-2023 SAID35 WAGB 020000 METAR WAGB 020000Z 00000KT 6000 FEW010 25/24 Q1010 NOSIG=  
02-Apr-2023 SAID35 WAGB 020030 METAR WAGB 020030Z 00000KT 7000 FEW010 26/24 Q1011 NOSIG=  
02-Apr-2023 SAID35 WAGB 020100 METAR WAGB 020100Z 00000KT 8000 BKN012 27/24 Q1011 NOSIG=  
02-Apr-2023 SAID35 WAGB 020130 METAR WAGB 020130Z 00000KT 9000 BKN012 28/24 Q1011 NOSIG=  
02-Apr-2023 SAID35 WAGB 020200 METAR WAGB 020200Z 22002KT 9000 BKN012 28/24 Q1011 NOSIG=  
02-Apr-2023 SAID35 WAGB 020230 METAR WAGB 020230Z 00000KT 9999 BKN012 29/24 Q1011 NOSIG=  
02-Apr-2023 SAID35 WAGB 020300 METAR WAGB 020300Z 04003KT 9999 SCT011 29/23 Q1010=  
02-Apr-2023 SAID35 WAGB 020300 CCA METAR WAGB 020300Z 04003KT 9999 SCT011 29/23 Q1010 NOSIG=  
02-Apr-2023 SAID35 WAGB 020330 METAR WAGB 020330Z 24007KT 9999 SCT011 30/23 Q1010 NOSIG=  
02-Apr-2023 SAID35 WAGB 020400 METAR WAGB 020400Z 27005KT 9999 FEW010TCU SCT011 31/23 Q1010 NOSIG=  
02-Apr-2023 SAID35 WAGB 020500 METAR WAGB 020500Z 26008KT 9999 FEW011TCU SCT012 31/23 Q1008 NOSIG=  
02-Apr-2023 SAID35 WAGB 020530 METAR WAGB 020530Z 34005KT 9999 FEW011TCU FEW012 31/23 Q1008 NOSIG=  
02-Apr-2023 SAID35 WAGB 020600 METAR WAGB 020600Z 30006KT 9999 FEW011TCU FEW012 31/23 Q1007 NOSIG=  
02-Apr-2023 SAID35 WAGB 020630 METAR WAGB 020630Z 26004KT 9000 FEW011TCU SCT012 31/25 Q1007 NOSIG=  
02-Apr-2023 SAID35 WAGB 020700 METAR WAGB 020700Z 26003KT 9999 FEW012TCU SCT013 32/23 Q1007 NOSIG=  
02-Apr-2023 SAID35 WAGB 020730 METAR WAGB 020730Z 24003KT 9999 FEW012CB SCT013 32/23 Q1007 NOSIG=  
02-Apr-2023 SAID35 WAGB 020800 METAR WAGB 020800Z 30004KT 9999 FEW012CB SCT013 32/23 Q1006=  
02-Apr-2023 SAID35 WAGB 020830 METAR WAGB 020830Z 24003KT 9999 FEW012CB SCT013 31/23 Q1006 NOSIG=  
02-Apr-2023 SAID35 WAGB 020900 METAR WAGB 020900Z 21003KT 7000 VCSH FEW012CB BKN013 31/25 Q1007 NOSIG=  
02-Apr-2023 SAID35 WAGB 020930 METAR WAGB 020930Z 19009KT 5000 VCSH FEW012CB BKN013 29/25 Q1008 NOSIG=  
02-Apr-2023 SAID35 WAGB 021000 METAR WAGB 021000Z 00000KT 5000 TS FEW012CB BKN013 26/22 Q1007 NOSIG=  
02-Apr-2023 SAID35 WAGB 021100 METAR WAGB 021100Z 00000KT 5000 -RA FEW012CB BKN013 25/23 Q1008 NOSIG=  
02-Apr-2023 SAID35 WAGB 021130 METAR WAGB 021130Z 00000KT 5000 -RA FEW012CB BKN013 25/23 Q1008 NOSIG=  
02-Apr-2023 SAID35 WAGB 021200 METAR WAGB 021200Z 00000KT 5000 VCSH FEW012CB BKN013 25/23 Q1008=  
02-Apr-2023 SAID35 WAGB 021230 METAR WAGB 021230Z 00000KT 5000 VCSH FEW012CB BKN013 25/23 Q1008=  
02-Apr-2023 SAID35 WAGB 021300 METAR WAGB 021300Z 00000KT 5000 VCSH FEW012CB BKN013 25/23 Q1009=  
02-Apr-2023 SAID35 WAGB 021300 CCA METAR WAGB 021300Z 00000KT 6000 FEW012CB BKN013 24/23 Q1009=  
02-Apr-2023 SAID35 WAGB 021330 METAR WAGB 021330Z 00000KT 6000 FEW012CB BKN013 24/23 Q1009=  
02-Apr-2023 SAID35 WAGB 021400 METAR WAGB 021400Z 00000KT 6000 FEW012CB BKN013 24/23 Q1009=  
02-Apr-2023 SAID35 WAGB 021430 METAR WAGB 021430Z 00000KT 6000 FEW012CB BKN013 24/23 Q1010=  
02-Apr-2023 SAID35 WAGB 021500 METAR WAGB 021500Z 00000KT 6000 BKN012 24/23 Q1010 NOSIG=  
02-Apr-2023 SAID35 WAGB 021500 CCA METAR WAGB 021500Z 00000KT 6000 BKN012 24/23 Q1010=  
02-Apr-2023 SAID35 WAGB 021530 METAR WAGB 021530Z 00000KT 6000 BKN012 24/23 Q1010=  
02-Apr-2023 SAID35 WAGB 021600 METAR WAGB 021600Z 00000KT 6000 BKN012 24/23 Q1010=  
02-Apr-2023 SAID35 WAGB 021630 METAR WAGB 021630Z 00000KT 6000 BKN012 24/23 Q1010=  
02-Apr-2023 SAID35 WAGB 021630 CCA METAR WAGB 021630Z 00000KT 6000 BKN012 24/23 Q1009=  
02-Apr-2023 SAID35 WAGB 021700 METAR WAGB 021700Z 00000KT 6000 BKN012 24/23 Q1009=  
02-Apr-2023 SAID35 WAGB 021730 METAR WAGB 021730Z 00000KT 6000 BKN012 24/23 Q1009=  
02-Apr-2023 SAID35 WAGB 021800 METAR WAGB 021800Z 00000KT 5000 VCSH BKN011 24/23 Q1009=  
02-Apr-2023 SAID35 WAGB 021830 METAR WAGB 021830Z 00000KT 5000 VCSH BKN011 24/23 Q1009=  
02-Apr-2023 SAID35 WAGB 021900 METAR WAGB 021900Z 00000KT 5000 HZ BKN011 24/23 Q1009=  
02-Apr-2023 SAID35 WAGB 021930 METAR WAGB 021930Z 00000KT 5000 HZ BKN011 24/23 Q1009=  
02-Apr-2023 SAID35 WAGB 022000 METAR WAGB 022000Z 00000KT 5000 HZ BKN011 24/23 Q1009=  
02-Apr-2023 SAID35 WAGB 022030 METAR WAGB 022030Z 00000KT 5000 HZ BKN011 24/23 Q1009=  
02-Apr-2023 SAID35 WAGB 022100 METAR WAGB 022100Z 24007KT 4000 -RA BKN010 24/23 Q1010=  
02-Apr-2023 SAID35 WAGB 022130 METAR WAGB 022130Z 23006KT 4000 -RA BKN010 24/23 Q1010=  
02-Apr-2023 SAID35 WAGB 022200 METAR WAGB 022200Z 00000KT 5000 VCSH BKN010 23/22 Q1010 RERA=  
02-Apr-2023 SAID35 WAGB 022230 METAR WAGB 022230Z 00000KT 5000 VCSH BKN010 23/22 Q1010=  
02-Apr-2023 SAID35 WAGB 022230 CCA METAR WAGB 022230Z 00000KT 5000 VCSH BKN010 23/22 Q1011=  
02-Apr-2023 SPID33 WAGB 022240 SPECI WAGB 022240Z 22004KT 5000 -RA BKN009 23/22 Q1011=  
02-Apr-2023 SAID35 WAGB 022300 METAR WAGB 022300Z VRB02KT 5000 -RA BKN009 23/22 Q1011=  
02-Apr-2023 SAID35 WAGB 022330 METAR WAGB 022330Z 00000KT 5000 -RA BKN009 23/22 Q1011=  
03-Apr-2023 SAID35 WAGB 030000 METAR WAGB 030000Z 00000KT 4000 -RA BKN009 23/22 Q1011 NOSIG=  
03-Apr-2023 SAID35 WAGB 030030 METAR WAGB 030030Z 00000KT 4000 -RA BKN009 23/22 Q1012 NOSIG=  
03-Apr-2023 SAID35 WAGB 030100 METAR WAGB 030100Z 00000KT 4000 BR BKN009 24/23 Q1012 RERA NOSIG=  
03-Apr-2023 SAID35 WAGB 030130 METAR WAGB 030130Z 00000KT 4000 BR BKN009 24/23 Q1012 NOSIG=  
03-Apr-2023 SAID35 WAGB 030200 METAR WAGB 030200Z 00000KT 5000 VCSH BKN009 24/23 Q1012 RERA NOSIG=  
03-Apr-2023 SAID35 WAGB 030230 METAR WAGB 030230Z 00000KT 5000 VCSH BKN009 24/23 Q1012 NOSIG=  
03-Apr-2023 SAID35 WAGB 030300 METAR WAGB 030300Z 00000KT 6000 VCSH BKN009 25/23 Q1011 NOSIG=  
03-Apr-2023 SAID35 WAGB 030330 METAR WAGB 030330Z 00000KT 6000 VCSH BKN010 26/23 Q1010 NOSIG=  
03-Apr-2023 SAID35 WAGB 030400 METAR WAGB 030400Z 00000KT 7000 VCSH BKN010 26/23 Q1010 NOSIG=  
03-Apr-2023 SAID35 WAGB 030430 METAR WAGB 030430Z 00000KT 7000 VCSH BKN010 27/23 Q1009 NOSIG=  
03-Apr-2023 SAID35 WAGB 030500 METAR WAGB 030500Z 00000KT 7000 VCSH BKN010 27/23 Q1009 NOSIG=  
03-Apr-2023 SAID35 WAGB 030530 METAR WAGB 030530Z 00000KT 8000 BKN011 27/23 Q1008 NOSIG=  
03-Apr-2023 SAID35 WAGB 030600 METAR WAGB 030600Z 00000KT 8000 BKN011 27/23 Q1008 NOSIG=  
03-Apr-2023 SAID35 WAGB 030630 METAR WAGB 030630Z 00000KT 8000 BKN011 28/24 Q1008 NOSIG=  
03-Apr-2023 SAID35 WAGB 030700 METAR WAGB 030700Z 00000KT 8000 BKN011 28/24 Q1007 NOSIG=  
03-Apr-2023 SAID35 WAGB 030730 METAR WAGB 030730Z 00000KT 8000 BKN011 28/24 Q1007 NOSIG=  
03-Apr-2023 SAID35 WAGB 030800 METAR WAGB 030800Z 00000KT 8000 BKN011 28/24 Q1007 NOSIG=  
03-Apr-2023 SAID35 WAGB 030830 METAR WAGB 030830Z 00000KT 8000 BKN011 28/24 Q1007 NOSIG=  
03-Apr-2023 SAID35 WAGB 030900 METAR WAGB 030900Z 00000KT 8000 BKN011 28/24 Q1006 NOSIG=  
03-Apr-2023 SAID35 WAGB 030930 METAR WAGB 030930Z 00000KT 9999 SCT011 27/25 Q1007=  
03-Apr-2023 SAID35 WAGB 030930 CCA METAR WAGB 030930Z 00000KT 9999 SCT011 27/25 Q1007 NOSIG=  
03-Apr-2023 SAID35 WAGB 031000 METAR WAGB 031000Z 00000KT 9000 SCT011 27/25 Q1007 NOSIG=  
03-Apr-2023 SAID35 WAGB 031030 METAR WAGB 031030Z 00000KT 9000 SCT011 27/25 Q1007 NOSIG=  
03-Apr-2023 SAID35 WAGB 031100 METAR WAGB 031100Z 00000KT 8000 SCT011 26/25 Q1007 NOSIG=  
03-Apr-2023 SAID35 WAGB 031130 METAR WAGB 031130Z 00000KT 8000 SCT011 26/25 Q1008 NOSIG=  
03-Apr-2023 SAID35 WAGB 031200 METAR WAGB 031200Z 00000KT 8000 SCT011 25/24 Q1008=  
03-Apr-2023 SAID35 WAGB 031230 METAR WAGB 031230Z 00000KT 8000 SCT011 25/24 Q1008=  
03-Apr-2023 SAID35 WAGB 031300 METAR WAGB 031300Z 00000KT 8000 SCT011 25/24 Q1010=  
03-Apr-2023 SAID35 WAGB 031330 METAR WAGB 031330Z 00000KT 8000 SCT011 25/24 Q1010=  
03-Apr-2023 SAID35 WAGB 031400 METAR WAGB 031400Z 00000KT 8000 SCT011 25/24 Q1010=  
03-Apr-2023 SAID35 WAGB 031430 METAR WAGB 031430Z 00000KT 8000 SCT011 25/24 Q1010=  
03-Apr-2023 SAID35 WAGB 031500 METAR WAGB 031500Z 00000KT 7000 SCT011 25/24 Q1011=  
03-Apr-2023 SAID35 WAGB 031530 METAR WAGB 031530Z 00000KT 7000 SCT011 25/24 Q1011=  
03-Apr-2023 SAID35 WAGB 031600 METAR WAGB 031600Z 00000KT 7000 SCT011 25/24 Q1011=  
03-Apr-2023 SAID35 WAGB 031630 METAR WAGB 031630Z 00000KT 7000 SCT011 25/24 Q1011=  
03-Apr-2023 SAID35 WAGB 031700 METAR WAGB 031700Z 00000KT 7000 SCT011 25/24 Q1010=  
03-Apr-2023 SAID35 WAGB 031730 METAR WAGB 031730Z 00000KT 7000 SCT011 25/24 Q1010=  
03-Apr-2023 SAID35 WAGB 031800 METAR WAGB 031800Z 00000KT 7000 SCT011 25/23 Q1011=  
03-Apr-2023 SAID35 WAGB 031830 METAR WAGB 031830Z 00000KT 7000 SCT011 25/23 Q1011=  
03-Apr-2023 SAID35 WAGB 031900 METAR WAGB 031900Z 00000KT 4000 -RA BKN010 24/24 Q1011=  
03-Apr-2023 SAID35 WAGB 032000 METAR WAGB 032000Z 00000KT 4000 -RA BKN010 24/23 Q1010=  
03-Apr-2023 SAID35 WAGB 032030 METAR WAGB 032030Z 00000KT 4000 -RA BKN010 24/23 Q1010=  
03-Apr-2023 SAID35 WAGB 032100 METAR WAGB 032100Z 00000KT 4000 BKN010 24/23 Q1011 RERA=  
03-Apr-2023 SAID35 WAGB 032130 METAR WAGB 032130Z 00000KT 4000 BKN010 24/23 Q1011=  
03-Apr-2023 SAID35 WAGB 032200 METAR WAGB 032200Z 00000KT 5000 VCSH BKN010 24/23 Q1011=  
03-Apr-2023 SAID35 WAGB 032230 METAR WAGB 032230Z 00000KT 5000 VCSH BKN010 24/23 Q1011=  
03-Apr-2023 SAID35 WAGB 032300 METAR WAGB 032300Z 00000KT 5000 VCSH BKN010 24/23 Q1011=  
03-Apr-2023 SAID35 WAGB 032330 METAR WAGB 032330Z 00000KT 5000 VCSH BKN010 24/23 Q1011=  
04-Apr-2023 SAID35 WAGB 040000 METAR WAGB 040000Z 33003KT 5000 BKN009 23/22 Q1011 NOSIG=  
04-Apr-2023 SAID35 WAGB 040030 METAR WAGB 040030Z 04003KT 5000 BKN009 23/22 Q1011 NOSIG=  
04-Apr-2023 SAID35 WAGB 040100 METAR WAGB 040100Z 09003KT HZ 5000 BKN009 23/22 Q1011 NOSIG=  
04-Apr-2023 SAID35 WAGB 040130 METAR WAGB 040130Z 00000KT 5000 SCT006 24/22 Q1012 NOSIG=  
04-Apr-2023 SAID35 WAGB 040200 METAR WAGB 040200Z 07003KT 5000 SCT006 24/22 Q1011 NOSIG=  
04-Apr-2023 SAID35 WAGB 040230 METAR WAGB 040230Z 03002KT 6000 FEW007 25/22 Q1012 NOSIG=  
04-Apr-2023 SAID35 WAGB 040300 METAR WAGB 040300Z 00000KT 6000 FEW007 25/22 Q1012 NOSIG=  
04-Apr-2023 SAID35 WAGB 040330 METAR WAGB 040330Z 17003KT 6000 SCT007 25/23 Q1012 NOSIG=  
04-Apr-2023 SAID35 WAGB 040400 METAR WAGB 040400Z 25002KT 7000 SCT008 26/23 Q1011 NOSIG=  
04-Apr-2023 SAID35 WAGB 040430 METAR WAGB 040430Z 00000KT 7000 SCT008 27/22 Q1010 NOSIG=  
04-Apr-2023 SAID35 WAGB 040500 METAR WAGB 040500Z 00000KT 8000 SCT008 27/23 Q1010 NOSIG=  
04-Apr-2023 SAID35 WAGB 040530 METAR WAGB 040530Z 00000KT 8000 SCT009 27/23 Q1010 NOSIG=  
04-Apr-2023 SAID35 WAGB 040600 METAR WAGB 040600Z 00000KT 9000 SCT010 27/23 Q1009 NOSIG=  
04-Apr-2023 SAID35 WAGB 040630 METAR WAGB 040630Z 00000KT 9000 SCT010 27/23 Q1009 NOSIG=  
04-Apr-2023 SAID35 WAGB 040700 METAR WAGB 040700Z 00000KT 9000 SCT011 27/23 Q1008 NOSIG=  
04-Apr-2023 SAID35 WAGB 040730 METAR WAGB 040730Z 00000KT 9000 SCT011 27/23 Q1008 NOSIG=  
04-Apr-2023 SAID35 WAGB 040800 METAR WAGB 040800Z 00000KT 9000 SCT012 28/24 Q1008 NOSIG=  
04-Apr-2023 SAID35 WAGB 040830 METAR WAGB 040830Z 00000KT 9000 SCT012 28/24 Q1008 NOSIG=  
04-Apr-2023 SAID35 WAGB 040900 METAR WAGB 040900Z 00000KT 9000 FEW012 28/26 Q1008 NOSIG=  
04-Apr-2023 SAID35 WAGB 040930 METAR WAGB 040930Z 00000KT 9000 FEW012 28/26 Q1008 NOSIG=  
04-Apr-2023 SAID35 WAGB 041000 METAR WAGB 041000Z 00000KT 9000 FEW012 27/26 Q1008 NOSIG=  
04-Apr-2023 SAID35 WAGB 041030 METAR WAGB 041030Z 00000KT 9000 FEW012 27/26 Q1008 NOSIG=  
04-Apr-2023 SAID35 WAGB 041100 METAR WAGB 041100Z 00000KT 8000 FEW012 26/25 Q1009 NOSIG=  
04-Apr-2023 SAID35 WAGB 041130 METAR WAGB 041130Z 00000KT 8000 FEW012 26/25 Q1009 NOSIG=  
04-Apr-2023 SAID35 WAGB 041200 CCA METAR COR WAGB 041200Z 00000KT 7000 FEW012 26/24 Q1010=  
04-Apr-2023 SAID35 WAGB 041200 METAR WAGB 041200Z 00000KT 7000 FEW012CB 26/24 Q1010=  
04-Apr-2023 SAID35 WAGB 041230 METAR WAGB 041230Z 00000KT 7000 FEW012 25/24 Q1010=  
04-Apr-2023 SAID35 WAGB 041300 METAR WAGB 041300Z 00000KT 7000 FEW012 25/24 Q1011=  
04-Apr-2023 SAID35 WAGB 041330 METAR WAGB 041330Z 00000KT 7000 FEW012 25/24 Q1011=  
04-Apr-2023 SAID35 WAGB 041400 METAR WAGB 041400Z 00000KT 7000 FEW012 25/24 Q1011=  
04-Apr-2023 SAID35 WAGB 041430 METAR WAGB 041430Z 00000KT 8000 FEW012 25/24 Q1011=  
04-Apr-2023 SAID35 WAGB 041500 METAR WAGB 041500Z 00000KT 8000 FEW012 25/24 Q1011=  
04-Apr-2023 SAID35 WAGB 041530 METAR WAGB 041530Z 00000KT 8000 FEW012 25/24 Q1011=  
04-Apr-2023 SAID35 WAGB 041600 METAR WAGB 041600Z 00000KT 8000 FEW011 24/24 Q1013=  
04-Apr-2023 SAID35 WAGB 041600 CCA METAR COR WAGB 041600Z 00000KT 7000 FEW011 24/24 Q1010=  
04-Apr-2023 SAID35 WAGB 041630 METAR WAGB 041630Z 00000KT 7000 FEW011 24/24 Q1010=  
04-Apr-2023 SAID35 WAGB 041700 METAR WAGB 041700Z 00000KT 7000 FEW011 24/24 Q1010=  
04-Apr-2023 SAID35 WAGB 041730 METAR WAGB 041730Z 00000KT 7000 FEW011 24/24 Q1010=  
04-Apr-2023 SAID35 WAGB 041800 METAR WAGB 041800Z 00000KT 7000 FEW010 24/24 Q1010=  
04-Apr-2023 SAID35 WAGB 041830 METAR WAGB 041830Z 00000KT 7000 FEW010 24/24 Q1009=  
04-Apr-2023 SAID35 WAGB 041900 METAR WAGB 041900Z 00000KT 7000 FEW011 24/23 Q1009=  
04-Apr-2023 SAID35 WAGB 041930 METAR WAGB 041930Z 00000KT 7000 FEW011 24/23 Q1009=  
04-Apr-2023 SAID35 WAGB 042000 METAR WAGB 042000Z 00000KT 7000 FEW010 24/23 Q1010=  
04-Apr-2023 SAID35 WAGB 042030 METAR WAGB 042030Z 00000KT 7000 FEW010 24/23 Q1010=  
04-Apr-2023 SAID35 WAGB 042100 METAR WAGB 042100Z 00000KT 7000 FEW010 24/23 Q1010=  
04-Apr-2023 SAID35 WAGB 042130 METAR WAGB 042130Z 00000KT 7000 FEW010 24/23 Q1010=  
04-Apr-2023 SAID35 WAGB 042200 METAR WAGB 042200Z 00000KT 8000 FEW010 24/23 Q1010=  
04-Apr-2023 SAID35 WAGB 042230 METAR WAGB 042230Z 00000KT 8000 FEW010 24/23 Q1011=  
04-Apr-2023 SAID35 WAGB 042300 METAR WAGB 042300Z 00000KT 8000 FEW010 23/23 Q1011=  
04-Apr-2023 SAID35 WAGB 042330 METAR WAGB 042330Z 00000KT 8000 SCT010 24/23 Q1012=  
05-Apr-2023 SAID35 WAGB 050000 METAR WAGB 050000Z 00000KT 8000 SCT011 25/24 Q1012 NOSIG=  
05-Apr-2023 SAID35 WAGB 050030 METAR WAGB 050030Z 13003KT 8000 SCT011 25/24 Q1012 NOSIG=  
05-Apr-2023 SAID35 WAGB 050100 METAR WAGB 050100Z 20004KT 8000 SCT011 27/24 Q1012 NOSIG=  
05-Apr-2023 SAID35 WAGB 050130 METAR WAGB 050130Z 00000KT 8000 SCT011 28/25 Q1012 NOSIG=  
05-Apr-2023 SAID35 WAGB 050200 METAR WAGB 050200Z 03002KT 9000 BKN011 29/25 Q1012 NOSIG=  
05-Apr-2023 SAID35 WAGB 050200 CCA METAR WAGB 050200Z 00000KT 7000 BKN008 29/24 Q1012 NOSIG=  
05-Apr-2023 SAID35 WAGB 050230 METAR WAGB 050230Z 04003KT 8000 BKN008 29/24 Q1012 NOSIG=  
05-Apr-2023 SAID35 WAGB 050300 METAR WAGB 050300Z 35004KT 8000 BKN010 29/24 Q1011 NOSIG=  
05-Apr-2023 SAID35 WAGB 050330 METAR WAGB 050330Z 03003KT 8000 BKN010 29/24 Q1011 NOSIG=  
05-Apr-2023 SAID35 WAGB 050400 METAR WAGB 050400Z 35003KT 9000 BKN010 29/24 Q1010 NOSIG=  
05-Apr-2023 SAID35 WAGB 050430 METAR WAGB 050430Z VRB02KT 9000 BKN011 30/23 Q1010 NOSIG=  
05-Apr-2023 SAID35 WAGB 050500 METAR WAGB 050500Z 10003KT 9000 BKN011 31/23 Q1009 NOSIG=  
05-Apr-2023 SAID35 WAGB 050530 METAR WAGB 050530Z VRB02KT 9000 BKN011 31/23 Q1009 NOSIG=  
05-Apr-2023 SAID35 WAGB 050600 METAR WAGB 050600Z 20003KT 9999 BKN012 30/24 Q1008 NOSIG=  
05-Apr-2023 SAID35 WAGB 050630 METAR WAGB 050630Z 00000KT 9999 SCT013 31/25 Q1008 NOSIG=  
05-Apr-2023 SAID35 WAGB 050700 METAR WAGB 050700Z 20004KT 9999 SCT012 30/25 Q1007 NOSIG=  
05-Apr-2023 SAID35 WAGB 050730 METAR WAGB 050730Z 16003KT 9999 SCT013 29/25 Q1007 NOSIG=  
05-Apr-2023 SAID35 WAGB 050800 METAR WAGB 050800Z 18004KT 9999 SCT013 29/24 Q1007 NOSIG=  
05-Apr-2023 SAID35 WAGB 050830 METAR WAGB 050830Z 00000KT 9999 FEW012CB 30/25 Q1007 NOSIG=  
05-Apr-2023 SAID35 WAGB 050900 METAR WAGB 050900Z 00000KT 9999 FEW012CB SCT013 29/25 Q1007 NOSIG=  
05-Apr-2023 SAID35 WAGB 050930 METAR WAGB 050930Z 00000KT 9999 FEW012CB SCT013 29/25 Q1007 NOSIG=  
05-Apr-2023 SAID35 WAGB 051000 METAR WAGB 051000Z 00000KT 9000 SCT013 28/25 Q1008 NOSIG=  
05-Apr-2023 SAID35 WAGB 051030 METAR WAGB 051030Z 00000KT 9000 SCT013 28/25 Q1007 NOSIG=  
05-Apr-2023 SAID35 WAGB 051100 METAR WAGB 051100Z 00000KT 9000 FEW013 28/26 Q1007 NOSIG=  
05-Apr-2023 SAID35 WAGB 051230 METAR WAGB 051230Z 00000KT 8000 FEW013 27/24 Q1008=  
05-Apr-2023 SAID35 WAGB 051300 METAR WAGB 051300Z 00000KT 8000 SCT012 27/24 Q1009=  
05-Apr-2023 SAID35 WAGB 051330 METAR WAGB 051330Z 00000KT 7000 SCT012 27/25 Q1009=  
05-Apr-2023 SAID35 WAGB 051400 METAR WAGB 051400Z 00000KT 7000 SCT012 26/25 Q1010=  
05-Apr-2023 SAID35 WAGB 051430 METAR WAGB 051430Z 00000KT 7000 SCT012 26/25 Q1010=  
05-Apr-2023 SAID35 WAGB 051500 METAR WAGB 051500Z 00000KT 7000 SCT012 26/25 Q1010=  
05-Apr-2023 SAID35 WAGB 051530 METAR WAGB 051530Z 00000KT 7000 SCT012 26/25 Q1010=  
05-Apr-2023 SAID35 WAGB 051600 METAR WAGB 051600Z 00000KT 7000 SCT012 25/25 Q1010=  
05-Apr-2023 SAID35 WAGB 051630 METAR WAGB 051630Z 00000KT 7000 SCT012 25/25 Q1010=  
05-Apr-2023 SAID35 WAGB 051700 CCA METAR COR WAGB 051700Z 00000KT 6000 FEW012 25/24 Q1009=  
05-Apr-2023 SAID35 WAGB 051700 METAR WAGB 051700Z 00000KT 6000 FEW012 25/24 Q1010=  
05-Apr-2023 SAID35 WAGB 051730 METAR WAGB 051730Z 00000KT 6000 FEW012 25/24 Q1009=  
05-Apr-2023 SAID35 WAGB 051800 METAR WAGB 051800Z 00000KT 6000 FEW012 25/24 Q1009=  
05-Apr-2023 SAID35 WAGB 051830 METAR WAGB 051830Z 00000KT 6000 FEW012 25/24 Q1009=  
05-Apr-2023 SAID35 WAGB 051900 METAR WAGB 051900Z 00000KT 6000 SCT011 25/24 Q1009=  
05-Apr-2023 SAID35 WAGB 051930 METAR WAGB 051930Z 00000KT 6000 SCT011 25/24 Q1009=  
05-Apr-2023 SAID35 WAGB 052000 METAR WAGB 052000Z 00000KT 6000 SCT011 25/24 Q1009=  
05-Apr-2023 SAID35 WAGB 052030 METAR WAGB 052030Z 00000KT 6000 SCT011 25/24 Q1009=  
05-Apr-2023 SAID35 WAGB 052030 CCA METAR COR WAGB 052030Z 00000KT 3000 BR SCT011 25/24 Q1009=  
05-Apr-2023 SAID35 WAGB 052100 METAR WAGB 052100Z 00000KT 3000 BR SCT010 25/24 Q1009=  
05-Apr-2023 SAID35 WAGB 052130 METAR WAGB 052130Z 00000KT 3000 BR SCT010 25/24 Q1010=  
05-Apr-2023 SAID35 WAGB 052200 METAR WAGB 052200Z 00000KT 3000 BR SCT010 25/24 Q1010=  
05-Apr-2023 SAID35 WAGB 052230 METAR WAGB 052230Z 00000KT 2000 BR SCT010 25/24 Q1010=  
05-Apr-2023 SAID35 WAGB 052300 METAR WAGB 052300Z 00000KT 1000 BR SCT010 25/25 Q1011=  
05-Apr-2023 SAID35 WAGB 052330 METAR WAGB 052330Z 00000KT 1000 BR SCT010 25/25 Q1011=  
06-Apr-2023 SAID35 WAGB 060000 CCA METAR COR WAGB 060000Z 00000KT 0200 FG VV005 25/25 Q1011 BECMG TL0115 5000 NSW=  
06-Apr-2023 SAID35 WAGB 060000 METAR WAGB 060000Z 00000KT 0200 VV005 25/25 Q1011 BECMG TL0115 5000 NSW=  
06-Apr-2023 SAID35 WAGB 060030 METAR WAGB 060030Z 00000KT 0350 FG VV006 25/25 Q1012 BECMG TL0115 5000 NSW NSC=  
06-Apr-2023 SAID35 WAGB 060100 METAR WAGB 060100Z 00000KT 1500 BR BKN006 25/25 Q1012 BECMG TL0115 5000=  
06-Apr-2023 SAID35 WAGB 060130 METAR WAGB 060130Z 00000KT 7000 BKN008 27/25 Q1012 NOSIG=  
06-Apr-2023 SAID35 WAGB 060200 METAR WAGB 060200Z 15003KT 9000 SCT010 28/25 Q1011 NOSIG=  
06-Apr-2023 SAID35 WAGB 060230 METAR WAGB 060230Z 21006KT 999 SCT011 29/25 Q1011 NOSIG=  
06-Apr-2023 SAID35 WAGB 060230 CCA METAR COR WAGB 060230Z 21006KT 9999 SCT011 29/25 Q1011 NOSIG=  
06-Apr-2023 SAID35 WAGB 060300 METAR WAGB 060300Z 22006KT 9999 SCT012 30/25 Q1011 NOSIG=  
06-Apr-2023 SAID35 WAGB 060330 METAR WAGB 060330Z 24006KT 9999 BKN013 31/24 Q1011 NOSIG=  
06-Apr-2023 SAID35 WAGB 060400 METAR WAGB 060400Z 32005KT 9999 BKN014 32/24 Q1010 NOSIG=  
06-Apr-2023 SAID35 WAGB 060430 METAR WAGB 060430Z 21009KT 9999 BKN015 32/24 Q1009 NOSIG=  
06-Apr-2023 SAID35 WAGB 060500 METAR WAGB 060500Z 25008KT 9999 BKN016 33/24 Q1008 NOSIG=  
06-Apr-2023 SAID35 WAGB 060530 METAR WAGB 060530Z 27006KT 9999 BKN016 33/24 Q1007 NOSIG=  
06-Apr-2023 SAID35 WAGB 060600 METAR WAGB 060600Z 22004KT 9999 SCT013 33/23 Q1007 NOSIG=  
06-Apr-2023 SAID35 WAGB 060630 METAR WAGB 060630Z 00000KT 9999 SCT013 33/23 Q1007 NOSIG=  
06-Apr-2023 SAID35 WAGB 060700 METAR WAGB 060700Z 22003KT 9999 BKN013 32/23 Q1006 NOSIG=  
06-Apr-2023 SAID35 WAGB 060730 METAR WAGB 060730Z 00000KT 9999 BKN013 32/23 Q1006 NOSIG=  
06-Apr-2023 SAID35 WAGB 060800 METAR WAGB 060800Z 28004KT 9999 BKN013 32/23 Q1006 NOSIG=  
06-Apr-2023 SAID35 WAGB 060830 METAR WAGB 060830Z 29002KT 9999 BKN013 32/23 Q1006 NOSIG=  
06-Apr-2023 SAID35 WAGB 060900 CCA METAR WAGB 060900Z VRB02KT 9999 FEW012TCU BKN013 30/24 Q1006 NOSIG=  
06-Apr-2023 SAID35 WAGB 060900 METAR WAGB 060900Z 30002KT 9999 FEW012TCU BKN013 30/24 Q1006 NOSIG=  
06-Apr-2023 SAID35 WAGB 060930 METAR WAGB 060930Z 27003KT 9999 FEW012TCU BKN013 30/24 Q1007 NOSIG=  
06-Apr-2023 SAID35 WAGB 061000 METAR WAGB 061000Z 00000KT 9999 FEW012TCU BKN013 30/24 Q1007 NOSIG=  
06-Apr-2023 SPID33 WAGB 061011 SPECI WAGB 061011Z 29003KT 8000 TS FEW012CB BKN013 29/23 Q1007 NOSIG=  
06-Apr-2023 SAID35 WAGB 061030 METAR WAGB 061030Z 20008KT 8000 TS FEW012CB BKN013 29/23 Q1008 NOSIG=  
06-Apr-2023 SPID33 WAGB 061037 SPECI WAGB 061037Z 22008KT 4000 -TSRA FEW012CB BKN013 29/23 Q1010 NOSIG=  
06-Apr-2023 SAID35 WAGB 061100 CCA METAR WAGB 061100Z 25006KT 3000 -TSRA FEW012CB BKN013 24/23 Q1010 NOSIG=  
06-Apr-2023 SAID35 WAGB 061100 METAR WAGB 061100Z 25006KT 3000 -TSRA FEW012CB BKN013 24/23 Q1010=  
06-Apr-2023 SAID35 WAGB 061130 METAR WAGB 061130Z 00000KT 3000 -TSRA FEW012CB BKN013 24/23 Q1010 NOSIG=  
06-Apr-2023 SAID35 WAGB 061200 METAR WAGB 061200Z 00000KT 3000 RA FEW012CB BKN013 24/24 Q1011=  
06-Apr-2023 SAID35 WAGB 061230 METAR WAGB 061230Z 00000KT 3000 -RA FEW012CB BKN013 24/24 Q1011=  
06-Apr-2023 SAID35 WAGB 061300 METAR WAGB 061300Z 00000KT 6000 FEW012CB BKN013 24/23 Q1012 RERA=  
06-Apr-2023 SAID35 WAGB 061330 METAR WAGB 061330Z 00000KT 6000 FEW012CB BKN013 24/23 Q1012=  
06-Apr-2023 SAID35 WAGB 061400 METAR WAGB 061400Z 00000KT 4000 BR FEW011CB BKN012 24/23 Q1012=  
06-Apr-2023 SAID35 WAGB 061430 METAR WAGB 061430Z 00000KT 4000 -RA FEW011CB BKN012 24/23 Q1012=  
06-Apr-2023 SAID35 WAGB 061500 METAR WAGB 061500Z 00000KT 4000 -RA FEW011CB BKN012 24/23 Q1013=  
06-Apr-2023 SAID35 WAGB 061530 METAR WAGB 061530Z 00000KT 4000 -RA FEW011CB BKN012 24/23 Q1013=  
06-Apr-2023 SAID35 WAGB 061600 METAR WAGB 061600Z 00000KT 4000 -RA FEW011CB BKN012 24/23 Q1013=  
06-Apr-2023 SAID35 WAGB 061630 METAR WAGB 061630Z 00000KT 4000 -RA FEW011CB BKN012 24/23 Q1013=  
06-Apr-2023 SAID35 WAGB 061700 METAR WAGB 061700Z 00000KT 4000 -RA FEW010CB BKN011 23/22 Q1012=  
06-Apr-2023 SAID35 WAGB 061730 METAR WAGB 061730Z 00000KT 4000 -RA FEW010CB BKN011 23/22 Q1012=  
06-Apr-2023 SAID35 WAGB 061800 METAR WAGB 061800Z 00000KT 4000 -RA BKN011 23/23 Q1012=  
06-Apr-2023 SAID35 WAGB 061830 METAR WAGB 061830Z 00000KT 4000 -RA BKN011 23/23 Q1012=  
06-Apr-2023 SAID35 WAGB 061900 METAR WAGB 061900Z 00000KT 4000 -RA BKN010 23/23 Q1011=  
06-Apr-2023 SAID35 WAGB 061930 METAR WAGB 061930Z 00000KT 4000 -RA BKN010 23/23 Q1011=  
06-Apr-2023 SAID35 WAGB 062000 METAR WAGB 062000Z 00000KT 3000 BR BKN010 23/23 Q1011 RERA=  
06-Apr-2023 SAID35 WAGB 062030 METAR WAGB 062030Z 00000KT 3000 BR BKN010 23/23 Q1011=  
06-Apr-2023 SAID35 WAGB 062100 METAR WAGB 062100Z 00000KT 3000 -RA BKN010 23/23 Q1012=  
06-Apr-2023 SAID35 WAGB 062130 METAR WAGB 062130Z 00000KT 3000 -RA BKN010 23/23 Q1012=  
06-Apr-2023 SAID35 WAGB 062200 METAR WAGB 062200Z 00000KT 3000 -RA BKN010 23/23 Q1012=  
06-Apr-2023 SAID35 WAGB 062230 METAR WAGB 062230Z 00000KT 3000 -RA BKN010 23/23 Q1012=  
06-Apr-2023 SAID35 WAGB 062300 METAR WAGB 062300Z 00000KT 4000 VCSH BKN010 23/23 Q1012=  
06-Apr-2023 SAID35 WAGB 062330 METAR WAGB 062330Z 00000KT 4000 VCSH BKN010 23/23 Q1012=  
07-Apr-2023 SAID35 WAGB 070000 METAR WAGB 070000Z 00000KT 3000 VCSH BKN009 23/23 Q1013=  
07-Apr-2023 SAID35 WAGB 070030 METAR WAGB 070030Z 00000KT 4000 BR SCT009 24/23 Q1013=  
07-Apr-2023 SAID35 WAGB 070100 METAR WAGB 070100Z 00000KT 7000 BKN010 25/23 Q1013 NOSIG=  
07-Apr-2023 SAID35 WAGB 070200 METAR WAGB 070200Z VRB02KT 7000 BKN009 26/23 Q1012 NOSIG=  
07-Apr-2023 SAID35 WAGB 070230 METAR WAGB 070230Z 35003KT 7000 SCT009 26/23 Q1012 NOSIG=  
07-Apr-2023 SAID35 WAGB 070300 METAR WAGB 070300Z 00000KT 8000 SCT010 27/23 Q1012 NOSIG=  
07-Apr-2023 SAID35 WAGB 070330 METAR WAGB 070330Z 26003KT 8000 SCT010 28/23 Q1011 NOSIG=  
07-Apr-2023 SAID35 WAGB 070400 METAR WAGB 070400Z 27003KT 9000 FEW011 29/24 Q1011 NOSIG=  
07-Apr-2023 SAID35 WAGB 070430 METAR WAGB 070430Z 30003KT 9000 FEW011 30/24 Q1010 NOSIG=  
07-Apr-2023 SAID35 WAGB 070500 METAR WAGB 070500Z 21003KT 9000 FEW011 30/24 Q1010 NOSIG=  
07-Apr-2023 SAID35 WAGB 070530 METAR WAGB 070530Z 18005KT 9000 FEW011 30/24 Q1010 NOSIG=  
07-Apr-2023 SAID35 WAGB 070600 METAR WAGB 070600Z 17004KT 9999 FEW012 30/24 Q1009 NOSIG=  
07-Apr-2023 SAID35 WAGB 070630 METAR WAGB 070630Z 18004KT 9999 FEW012 30/23 Q1009 NOSIG=  
07-Apr-2023 SAID35 WAGB 070700 METAR WAGB 070700Z 19004KT 9999 FEW013 30/23 Q1008 NOSIG=  
07-Apr-2023 SAID35 WAGB 070730 METAR WAGB 070730Z 19005KT 9999 SCT013 31/23 Q1008 NOSIG=  
07-Apr-2023 SAID35 WAGB 070800 METAR WAGB 070800Z 16003KT 9999 SCT013 30/23 Q1008 NOSIG=  
07-Apr-2023 SAID35 WAGB 070830 METAR WAGB 070830Z 18004KT 9999 SCT013 30/24 Q1008 NOSIG=  
07-Apr-2023 SAID35 WAGB 070900 CCA METAR WAGB 070900Z 00000KT 9999 SCT012 30/24 Q1008 NOSIG=  
07-Apr-2023 SAID35 WAGB 071000 METAR WAGB 071000Z 00000KT 9999 SCT012 30/25 Q1009 NOSIG=  
07-Apr-2023 SAID35 WAGB 071030 METAR WAGB 071030Z 00000KT 9999 SCT012 30/25 Q1009 NOSIG=  
07-Apr-2023 SAID35 WAGB 071100 METAR WAGB 071100Z 00000KT 9000 SCT012 28/25 Q1010 NOSIG=  
07-Apr-2023 SAID35 WAGB 071130 METAR WAGB 071130Z 00000KT 9000 SCT012 28/25 Q1010 NOSIG=  
07-Apr-2023 SAID35 WAGB 071200 METAR WAGB 071200Z 00000KT 8000 SCT012 28/25 Q1010=  
07-Apr-2023 SAID35 WAGB 071230 METAR WAGB 071230Z 00000KT 8000 SCT012 28/25 Q1010=  
07-Apr-2023 SAID35 WAGB 071300 METAR WAGB 071300Z 00000KT 8000 SCT012 27/25 Q1011=  
07-Apr-2023 SAID35 WAGB 071330 METAR WAGB 071330Z 00000KT 8000 SCT012 27/25 Q1011=  
07-Apr-2023 SAID35 WAGB 071400 METAR WAGB 071400Z 00000KT 8000 SCT012 26/25 Q1011=  
07-Apr-2023 SAID35 WAGB 071430 METAR WAGB 071430Z 00000KT 7000 SCT012 26/25 Q1011=  
07-Apr-2023 SAID35 WAGB 071500 METAR WAGB 071500Z 00000KT 7000 SCT012 26/25 Q1012=  
07-Apr-2023 SAID35 WAGB 071530 METAR WAGB 071530Z 00000KT 7000 SCT012 26/25 Q1012=  
07-Apr-2023 SAID35 WAGB 071600 METAR WAGB 071600Z 00000KT 7000 SCT012 26/25 Q1012=  
07-Apr-2023 SAID35 WAGB 071630 METAR WAGB 071630Z 00000KT 7000 SCT012 26/25 Q1012=  
07-Apr-2023 SAID35 WAGB 071700 METAR WAGB 071700Z 00000KT 6000 BKN012 26/25 Q1011=  
07-Apr-2023 SPID33 WAGB 071720 SPECI WAGB 071720Z 00000KT 5000 -RA BKN010 26/25 Q1011=  
07-Apr-2023 SAID35 WAGB 071730 METAR WAGB 071730Z 00000KT 4000 -RA BKN010 26/25 Q1011=  
07-Apr-2023 SPID33 WAGB 071745 SPECI WAGB 071745Z 00000KT 5000 VCSH BKN010 26/25 Q1011 RERA=  
07-Apr-2023 SAID35 WAGB 071800 METAR WAGB 071800Z 00000KT 5000 VCSH BKN010 25/25 Q1011=  
07-Apr-2023 SAID35 WAGB 071830 METAR WAGB 071830Z 00000KT 5000 VCSH BKN010 25/25 Q1010=  
07-Apr-2023 SAID35 WAGB 071900 METAR WAGB 071900Z 00000KT 5000 VCSH BKN010 25/25 Q1010=  
07-Apr-2023 SAID35 WAGB 071930 METAR WAGB 071930Z 00000KT 5000 VCSH BKN010 25/25 Q1010=  
07-Apr-2023 SAID35 WAGB 072000 METAR WAGB 072000Z 00000KT 5000 VCSH BKN010 25/24 Q1010=  
07-Apr-2023 SAID35 WAGB 072030 METAR WAGB 072030Z 00000KT 5000 VCSH BKN010 25/24 Q1010=  
07-Apr-2023 SAID35 WAGB 072100 METAR WAGB 072100Z 00000KT 5000 VCSH BKN010 25/24 Q1010=  
07-Apr-2023 SAID35 WAGB 072130 METAR WAGB 072130Z 00000KT 5000 VCSH BKN010 25/24 Q1011=  
07-Apr-2023 SAID35 WAGB 072200 METAR WAGB 072200Z 00000KT 5000 VCSH BKN010 25/25 Q1011=  
07-Apr-2023 SAID35 WAGB 072230 METAR WAGB 072230Z 00000KT 5000 VCSH BKN010 25/25 Q1011=  
07-Apr-2023 SAID35 WAGB 072300 METAR WAGB 072300Z 00000KT 5000 VCSH SCT010 25/25 Q1012=  
07-Apr-2023 SAID35 WAGB 072330 METAR WAGB 072330Z 00000KT 5000 VCSH SCT010 25/25 Q1012=  
08-Apr-2023 SAID35 WAGB 080000 METAR WAGB 080000Z 00000KT 5000 VCSH BKN010 26/25 Q1013 NOSIG=  
08-Apr-2023 SAID35 WAGB 080030 METAR WAGB 080030Z 00000KT 5000 VCSH BKN010 26/25 Q1013 NOSIG=  
08-Apr-2023 SAID35 WAGB 080100 METAR WAGB 080100Z 00000KT 7000 SCT010 27/25 Q1013 NOSIG=  
08-Apr-2023 SAID35 WAGB 080130 METAR WAGB 080130Z 00000KT 7000 SCT010 27/25 Q1013 NOSIG=  
08-Apr-2023 SAID35 WAGB 080200 METAR WAGB 080200Z 00000KT 8000 SCT011 29/25 Q1013 NOSIG=  
08-Apr-2023 SAID35 WAGB 080230 METAR WAGB 080230Z 04003KT 8000 SCT011 29/25 Q1013 NOSIG=  
08-Apr-2023 SAID35 WAGB 080300 METAR WAGB 080300Z 32002KT 9999 BKN012 31/25 Q1013=  
08-Apr-2023 SAID35 WAGB 080330 METAR WAGB 080330Z 00000KT 9999 BKN013 31/24 Q1012 NOSIG=  
08-Apr-2023 SAID35 WAGB 080400 METAR WAGB 080400Z 00000KT 9999 BKN013 32/24 Q1011 NOSIG=  
08-Apr-2023 SAID35 WAGB 080430 METAR WAGB 080430Z 27004KT 9999 BKN013 32/24 Q1011 NOSIG=  
08-Apr-2023 SAID35 WAGB 080500 METAR WAGB 080500Z 32008KT 9999 BKN013 32/23 Q1010 NOSIG=  
08-Apr-2023 SAID35 WAGB 080530 METAR WAGB 080530Z 30006KT 9999 BKN013 32/23 Q1010 NOSIG=  
08-Apr-2023 SAID35 WAGB 080600 METAR WAGB 080600Z 28007KT 9999 BKN014 33/23 Q1009=  
08-Apr-2023 SAID35 WAGB 080630 METAR WAGB 080630Z 25008KT 9999 SCT014 33/23 Q1008 NOSIG=  
08-Apr-2023 SAID35 WAGB 080700 METAR WAGB 080700Z 27006KT 9999 SCT014 33/23 Q1007 NOSIG=  
08-Apr-2023 SAID35 WAGB 080730 METAR WAGB 080730Z 25004KT 9999 SCT014 33/23 Q1007 NOSIG=  
08-Apr-2023 SAID35 WAGB 080800 METAR WAGB 080800Z 17006KT 9999 SCT014 31/25 Q1007 NOSIG=  
08-Apr-2023 SAID35 WAGB 080830 METAR WAGB 080830Z 16005KT 9999 FEW014 30/25 Q1007 NOSIG=  
08-Apr-2023 SAID35 WAGB 080900 METAR WAGB 080900Z 00000KT 9999 FEW014CB FEW015 30/26 Q1008 NOSIG=  
08-Apr-2023 SAID35 WAGB 080930 METAR WAGB 080930Z 00000KT 9999 FEW014CB FEW015 30/26 Q1008 NOSIG=  
08-Apr-2023 SAID35 WAGB 081000 METAR WAGB 081000Z 00000KT 9999 FEW014CB FEW015 29/26 Q1009 NOSIG=  
08-Apr-2023 SAID35 WAGB 081030 METAR WAGB 081030Z 00000KT 9999 FEW014CB FEW015 29/26 Q1009 NOSIG=  
08-Apr-2023 SAID35 WAGB 081100 METAR WAGB 081100Z 00000KT 6000 -TSRA FEW013CB SCT014 26/25 Q1011 NOSIG=  
08-Apr-2023 SAID35 WAGB 081130 METAR WAGB 081130Z 21005KT 6000 TSRA FEW013CB BKN014 26/25 Q1011 NOSIG=  
08-Apr-2023 SAID35 WAGB 081200 METAR WAGB 081200Z 00000KT 6000 -TS FEW011CB BKN012 24/24 Q1011 RERA=  
08-Apr-2023 SAID35 WAGB 081230 METAR WAGB 081230Z 00000KT 6000 VCTS FEW011CB BKN012 24/24 Q1012 RETS=  
08-Apr-2023 SAID35 WAGB 081300 METAR WAGB 081300Z 00000KT 6000 VCTS FEW011CB BKN012 24/24 Q1012=  
08-Apr-2023 SAID35 WAGB 081330 METAR WAGB 081330Z 00000KT 6000 VCTS FEW011CB BKN012 24/24 Q1012=  
08-Apr-2023 SAID35 WAGB 081400 METAR WAGB 081400Z 00000KT 6000 VCTS FEW011CB BKN012 24/23 Q1013=  
08-Apr-2023 SAID35 WAGB 081430 METAR WAGB 081430Z 00000KT 7000 VCTS FEW011CB SCT012 24/24 Q1013=  
08-Apr-2023 SAID35 WAGB 081500 METAR WAGB 081500Z 00000KT 7000 FEW011CB SCT012 24/24 Q1013=  
08-Apr-2023 SAID35 WAGB 081530 METAR WAGB 081530Z 00000KT 7000 FEW011CB SCT012 24/24 Q1013=  
08-Apr-2023 SAID35 WAGB 081600 METAR WAGB 081600Z 00000KT 7000 FEW011CB SCT012 24/24 Q1013=  
08-Apr-2023 SAID35 WAGB 081630 METAR WAGB 081630Z 00000KT 7000 VCTS FEW011CB SCT012 24/24 Q1013=  
08-Apr-2023 SAID35 WAGB 081700 METAR WAGB 081700Z 00000KT 6000 VCTS FEW011CB SCT012 24/24 Q1013=  
08-Apr-2023 SAID35 WAGB 081730 METAR WAGB 081730Z 00000KT 6000 VCTS FEW011CB SCT012 24/24 Q1013=  
08-Apr-2023 SAID35 WAGB 081800 METAR WAGB 081800Z 00000KT 6000 VCTS FEW010CB BKN011 24/24 Q1013=  
08-Apr-2023 SAID35 WAGB 081830 METAR WAGB 081830Z 00000KT 6000 VCTS FEW010CB BKN011 24/24 Q1012=  
08-Apr-2023 SAID35 WAGB 081900 METAR WAGB 081900Z 00000KT 5000 -RA FEW010CB BKN011 23/23 Q1012=  
08-Apr-2023 SAID35 WAGB 081930 METAR WAGB 081930Z 00000KT 6000 VCTS FEW010CB BKN011 23/23 Q1011 RERA=  
08-Apr-2023 SAID35 WAGB 082000 METAR WAGB 082000Z 00000KT 6000 VCTS FEW010CB BKN011 23/22 Q1011=  
08-Apr-2023 SAID35 WAGB 082030 METAR WAGB 082030Z 00000KT 6000 VCTS FEW010CB BKN011 23/22 Q1011=  
08-Apr-2023 SAID35 WAGB 082100 METAR WAGB 082100Z 00000KT 6000 SCT010 23/22 Q1011=  
08-Apr-2023 SAID35 WAGB 082130 METAR WAGB 082130Z 00000KT 6000 SCT010 23/22 Q1012=  
08-Apr-2023 SAID35 WAGB 082200 METAR WAGB 082200Z 00000KT 6000 SCT010 23/22 Q1012=  
08-Apr-2023 SAID35 WAGB 082230 METAR WAGB 082230Z 00000KT 6000 SCT010 23/22 Q1012=  
08-Apr-2023 SAID35 WAGB 082300 METAR WAGB 082300Z 00000KT 6000 BKN009 23/22 Q1012=  
08-Apr-2023 SAID35 WAGB 082330 METAR WAGB 082330Z 00000KT 6000 BKN009 23/22 Q1012=  
09-Apr-2023 SAID35 WAGB 090000 METAR WAGB 090000Z 00000KT 5000 SCT010 24/23 Q1013 NOSIG=  
09-Apr-2023 SAID35 WAGB 090030 METAR WAGB 090030Z 00000KT 7000 BKN012 26/23 Q1013 NOSIG=  
09-Apr-2023 SAID35 WAGB 090100 METAR WAGB 090100Z 00000KT 8000 FEW012 26/23 Q1013 NOSIG=  
09-Apr-2023 SAID35 WAGB 090130 METAR WAGB 090130Z 00000KT 8000 FEW012 27/24 Q1013 NOSIG=  
09-Apr-2023 SAID35 WAGB 090200 METAR WAGB 090200Z 00000KT 9000 BKN012 28/24 Q1013 NOSIG=  
09-Apr-2023 SAID35 WAGB 090230 METAR WAGB 090230Z 00000KT 9000 BKN012 29/24 Q1012 NOSIG=  
09-Apr-2023 SAID35 WAGB 090300 METAR WAGB 090300Z 27004KT 9999 BKN013 29/24 Q1012 NOSIG=  
09-Apr-2023 SAID35 WAGB 090330 METAR WAGB 090330Z 28004KT 9999 BKN013 30/24 Q1012 NOSIG=  
09-Apr-2023 SAID35 WAGB 090400 METAR WAGB 090400Z 25004KT 9999 BKN013 31/25 Q1011 NOSIG=  
09-Apr-2023 SAID35 WAGB 090430 METAR WAGB 090430Z 00000KT 9999 BKN013 31/25 Q1010 NOSIG=  
09-Apr-2023 SAID35 WAGB 090500 METAR WAGB 090500Z 00000KT 9999 BKN013 32/24 Q1010 NOSIG=  
09-Apr-2023 SAID35 WAGB 090530 METAR WAGB 090530Z 00000KT 9999 BKN013 32/24 Q1009 NOSIG=  
09-Apr-2023 SAID35 WAGB 090600 METAR WAGB 090600Z 00000KT 9999 BKN013 33/23 Q1008 NOSIG=  
09-Apr-2023 SAID35 WAGB 090630 METAR WAGB 090630Z 30005KT 9999 BKN013 33/23 Q1008 NOSIG=  
09-Apr-2023 SAID35 WAGB 090700 METAR WAGB 090700Z 24005KT 9999 BKN013 33/23 Q1007 NOSIG=  
09-Apr-2023 SAID35 WAGB 090730 METAR WAGB 090730Z 24003KT 9999 SCT014 33/23 Q1007 NOSIG=  
09-Apr-2023 SAID35 WAGB 090800 METAR WAGB 090800Z 25005KT 9999 SCT014 33/23 Q1007 NOSIG=  
09-Apr-2023 SAID35 WAGB 090830 METAR WAGB 090830Z 3KT 9999 SCT014 33/23 Q1007 NOSIG=  
09-Apr-2023 SAID35 WAGB 090900 METAR WAGB 090900Z 26004KT 9999 FEW013TCU SCT014 33/23 Q1007 NOSIG=  
09-Apr-2023 SAID35 WAGB 090930 METAR WAGB 090930Z 19003KT 9999 FEW014TCU SCT015 33/24 Q1007=  
09-Apr-2023 SAID35 WAGB 090930 CCA METAR WAGB 090930Z 19003KT 9999 FEW014TCU SCT015 33/24 Q1007 NOSIG=  
09-Apr-2023 SAID35 WAGB 091000 METAR WAGB 091000Z 21003KT 9999 FEW013TCU SCT014 32/23 Q1007 NOSIG=  
09-Apr-2023 SAID35 WAGB 091030 CCA METAR WAGB 091030Z 00000KT 9999 FEW013TCU SCT014 32/23 Q1008 NOSIG=  
09-Apr-2023 SAID35 WAGB 091030 METAR WAGB 091030Z 00000KT 9999 FEW013TCU SCT014 32/23 Q1007 NOSIG=  
09-Apr-2023 SAID35 WAGB 091100 METAR WAGB 091100Z VRB02KT 9000 FEW013CB SCT014 29/25 Q1008 NOSIG=  
09-Apr-2023 SAID35 WAGB 091100 CCA METAR WAGB 091100Z VRB02KT 9000 FEW013TCU SCT014 29/25 Q1008 NOSIG=  
09-Apr-2023 SAID35 WAGB 091130 METAR WAGB 091130Z 00000KT 9000 FEW013TCU SCT014 29/25 Q1008 NOSIG=  
09-Apr-2023 SAID35 WAGB 091200 METAR WAGB 091200Z 00000KT 8000 VCTS FEW012CB SCT013 28/25 Q1009=  
09-Apr-2023 SAID35 WAGB 091230 METAR WAGB 091230Z 00000KT 8000 VCTS FEW012CB SCT013 28/25 Q1010=  
09-Apr-2023 SAID35 WAGB 091300 METAR WAGB 091300Z 00000KT 7000 VCTS FEW012CB BKN013 28/25 Q1010=  
09-Apr-2023 SAID35 WAGB 091330 METAR WAGB 091330Z 00000KT 7000 FEW012CB BKN013 28/25 Q1011 RERA=  
09-Apr-2023 SAID35 WAGB 091400 METAR WAGB 091400Z 00000KT 7000 TS FEW012CB BKN013 25/24 Q1011=  
09-Apr-2023 SAID35 WAGB 091430 METAR WAGB 091430Z 00000KT 7000 FEW012CB BKN013 25/24 Q1011 RETS=  
09-Apr-2023 SAID35 WAGB 091500 METAR WAGB 091500Z 00000KT 7000 VCTS FEW012CB BKN013 26/24 Q1011=  
09-Apr-2023 SAID35 WAGB 091530 METAR WAGB 091530Z 00000KT 7000 VCTS FEW012CB BKN013 26/24 Q1011=  
09-Apr-2023 SAID35 WAGB 091600 METAR WAGB 091600Z 00000KT 7000 VCTS FEW012CB BKN013 25/24 Q1011=  
09-Apr-2023 SAID35 WAGB 091700 METAR WAGB 091700Z 00000KT 6000 BKN010 25/24 Q1011=  
09-Apr-2023 SAID35 WAGB 091730 METAR WAGB 091730Z 00000KT 6000 BKN010 25/24 Q1011=  
09-Apr-2023 SAID35 WAGB 091800 METAR WAGB 091800Z 00000KT 6000 BKN010 25/24 Q1011=  
09-Apr-2023 SAID35 WAGB 091830 METAR WAGB 091830Z 00000KT 6000 BKN010 25/24 Q1011=  
09-Apr-2023 SAID35 WAGB 091900 METAR WAGB 091900Z 00000KT 6000 BKN010 25/24 Q1010=  
09-Apr-2023 SAID35 WAGB 091930 METAR WAGB 091930Z 00000KT 6000 BKN010 25/24 Q1010=  
09-Apr-2023 SAID35 WAGB 092000 METAR WAGB 092000Z 00000KT 5000 BR BKN009 25/24 Q1010=  
09-Apr-2023 SAID35 WAGB 092030 METAR WAGB 092030Z 00000KT 5000 BR BKN009 25/24 Q1010=  
09-Apr-2023 SAID35 WAGB 092100 METAR WAGB 092100Z 00000KT 5000 BR SCT009 24/24 Q1010=  
09-Apr-2023 SAID35 WAGB 092130 METAR WAGB 092130Z 00000KT 5000 BR SCT009 24/24 Q1010=  
09-Apr-2023 SAID35 WAGB 092200 METAR WAGB 092200Z 00000KT 5000 BR SCT009 25/24 Q1011=  
09-Apr-2023 SAID35 WAGB 092230 METAR WAGB 092230Z 00000KT 5000 BR SCT009 25/24 Q1011=  
09-Apr-2023 SAID35 WAGB 092300 CCA METAR WAGB 092300Z 00000KT 5000 -RA BKN009 25/24 Q1012=  
09-Apr-2023 SAID35 WAGB 092300 METAR WAGB 092300Z 00000KT 5000 BR BKN009 25/24 Q1012=  
09-Apr-2023 SAID35 WAGB 092330 CCA METAR WAGB 092330Z 00000KT 5000 BKN009 25/24 Q1012 RERA=  
10-Apr-2023 SAID35 WAGB 100000 METAR WAGB 100000Z 00000KT 6000 BKN011 25/24 Q1012 NOSIG=  
10-Apr-2023 SAID35 WAGB 100030 METAR WAGB 100030Z 00000KT 6000 BKN011 25/24 Q1012 NOSIG=  
10-Apr-2023 SAID35 WAGB 100100 METAR WAGB 100100Z 00000KT 7000 BKN012 26/24 Q1012 NOSIG=  
10-Apr-2023 SAID35 WAGB 100130 METAR WAGB 100130Z 00000KT 7000 BKN012 26/24 Q1012 NOSIG=  
10-Apr-2023 SAID35 WAGB 100200 METAR WAGB 100200Z 20003KT 8000 BKN012 28/25 Q1012 NOSIG=  
10-Apr-2023 SAID35 WAGB 100230 METAR WAGB 100230Z 20002KT 8000 BKN012 28/25 Q1012 NOSIG=  
10-Apr-2023 SAID35 WAGB 100300 METAR WAGB 100300Z 25004KT 8000 BKN013 28/25 Q1012 NOSIG=  
10-Apr-2023 SAID35 WAGB 100330 METAR WAGB 100330Z 25002KT 9000 BKN013 28/25 Q1011 NOSIG=  
10-Apr-2023 SAID35 WAGB 100400 METAR WAGB 100400Z 00000KT 9999 BKN010 29/25 Q1010 NOSIG=  
10-Apr-2023 SAID35 WAGB 100430 METAR WAGB 100430Z 16003KT 9999 BKN011 30/25 Q1010 NOSIG=  
10-Apr-2023 SAID35 WAGB 100500 METAR WAGB 100500Z 18006KT 9999 BKN011 31/25 Q1009 NOSIG=  
10-Apr-2023 SAID35 WAGB 100530 METAR WAGB 100530Z 26005KT 9999 BKN012 31/25 Q1009 NOSIG=  
10-Apr-2023 SAID35 WAGB 100600 METAR WAGB 100600Z 00000KT 9999 SCT013 32/25 Q1008 NOSIG=  
10-Apr-2023 SAID35 WAGB 100630 METAR WAGB 100630Z 35003KT 9999 SCT013 32/25 Q1008 NOSIG=  
10-Apr-2023 SAID35 WAGB 100700 METAR WAGB 100700Z 28003KT 9999 FEW012TCU SCT013 32/25 Q1007 NOSIG=  
10-Apr-2023 SAID35 WAGB 100800 METAR WAGB 100800Z 35003KT 9999 FEW013TCU 31/25 Q1006 NOSIG=  
10-Apr-2023 SAID35 WAGB 100830 METAR WAGB 100830Z 00000KT 9999 FEW012CB 31/24 Q1007 NOSIG=  
10-Apr-2023 SAID35 WAGB 100900 METAR WAGB 100900Z 00000KT 9999 FEW012CB 31/25 Q1007 NOSIG=  
10-Apr-2023 SAID35 WAGB 100930 METAR WAGB 100930Z 00000KT 9999 FEW014CB FEW015 31/25 Q1007 NOSIG=  
10-Apr-2023 SAID35 WAGB 101000 METAR WAGB 101000Z 00000KT 9999 FEW013CB FEW014 30/25 Q1008 NOSIG=  
10-Apr-2023 SAID35 WAGB 101030 METAR WAGB 101030Z 00000KT 9999 FEW013CB FEW014 30/25 Q1008 NOSIG=  
10-Apr-2023 SAID35 WAGB 101100 METAR WAGB 101100Z 00000KT 9999 FEW013CB FEW014 29/25 Q1008 NOSIG=  
10-Apr-2023 SAID35 WAGB 101130 METAR WAGB 101130Z 00000KT 9999 FEW013CB FEW014 28/25 Q1009 NOSIG=  
10-Apr-2023 SAID35 WAGB 101200 METAR WAGB 101200Z 00000KT 9000 FEW013CB FEW014 28/25 Q1009=  
10-Apr-2023 SAID35 WAGB 101230 METAR WAGB 101230Z 00000KT 7000 FEW013CB FEW014 27/25 Q1009=  
10-Apr-2023 SAID35 WAGB 101300 METAR WAGB 101300Z 14002KT 6000 FEW013CB SCT013 26/23 Q1010=  
10-Apr-2023 SAID35 WAGB 101330 METAR WAGB 101330Z 0000KT 5000 -RA FEW013CB BKN013 26/23 Q1011=  
10-Apr-2023 SAID35 WAGB 101400 METAR WAGB 101400Z 00000KT 5000 -RA BKN013 25/24 Q1012=  
10-Apr-2023 SAID35 WAGB 101430 METAR WAGB 101430Z 00000KT 5000 -RA BKN013 25/24 Q1012=  
10-Apr-2023 SAID35 WAGB 101500 METAR WAGB 101500Z 00000KT 7000 SCT012 25/24 Q1012 RERA=  
10-Apr-2023 SAID35 WAGB 101530 METAR WAGB 101530Z 00000KT 7000 SCT012 25/24 Q1012=  
10-Apr-2023 SAID35 WAGB 101600 METAR WAGB 101600Z 20002KT 7000 FEW012 25/24 Q1011=  
10-Apr-2023 SAID35 WAGB 101630 METAR WAGB 101630Z 0000KT 7000 FEW012 25/24 Q1011=  
10-Apr-2023 SAID35 WAGB 101700 METAR WAGB 101700Z 00000KT 6000 FEW011 24/23 Q1010=  
10-Apr-2023 SAID35 WAGB 101730 METAR WAGB 101730Z 00000KT 7000 FEW011 24/23 Q1010=  
10-Apr-2023 SAID35 WAGB 101800 METAR WAGB 101800Z 00000KT 7000 FEW010 24/23 Q1010=  
10-Apr-2023 SAID35 WAGB 101830 METAR WAGB 101830Z 00000KT 7000 FEW010 24/23 Q10009=  
10-Apr-2023 SAID35 WAGB 101830 CCA METAR COR WAGB 101830Z 00000KT 7000 FEW010 24/23 Q1010=  
10-Apr-2023 SAID35 WAGB 101900 METAR WAGB 101900Z 00000KT 5000 BR FEW010 24/23 Q1010=  
10-Apr-2023 SAID35 WAGB 101930 METAR WAGB 101930Z 00000KT 4000 BR FEW010 24/23 Q1010=  
10-Apr-2023 SAID35 WAGB 102000 METAR WAGB 102000Z 00000KT 2500 BR FEW009 24/23 Q1008=  
10-Apr-2023 SAID35 WAGB 102030 METAR WAGB 102030Z 00000KT 1500 BR FEW009 24/23 Q1009=  
10-Apr-2023 SAID35 WAGB 102100 METAR WAGB 102100Z 00000KT 1000 BR FEW009 24/23 Q1010=  
10-Apr-2023 SAID35 WAGB 102130 METAR WAGB 102130Z 00000KT 0800 FG FEW009 24/23 Q1010=  
10-Apr-2023 SAID35 WAGB 102200 METAR WAGB 102200Z 00000KT 0800 FG SCT009 24/23 Q1010=  
10-Apr-2023 SAID35 WAGB 102230 METAR WAGB 102230Z 00000KT 1000 BR SCT009 24/23 Q1010=  
10-Apr-2023 SAID35 WAGB 102300 METAR WAGB 102300Z 06002KT 1000 BR BKN009 24/23 Q1010=  
11-Apr-2023 SAID35 WAGB 110000 METAR WAGB 110000Z 00000KT 8000 BKN007 24/23 Q1011 NOSIG=  
11-Apr-2023 SAID35 WAGB 110030 METAR WAGB 110000Z 33002KT 4000 SCT009 25/24 Q1011 NOSIG=  
11-Apr-2023 SAID35 WAGB 110030 METAR WAGB 110030Z 35003KT 9000 BKN008 25/24 Q1011 NOSIG=  
11-Apr-2023 SAID35 WAGB 110100 METAR WAGB 110100Z 35002KT 5000 HZ BKN009 26/24 Q1011 NOSIG=  
11-Apr-2023 SAID35 WAGB 110130 METAR WAGB 110130Z 00000KT 9000 BKN009 26/24 Q1012 NOSIG=  
11-Apr-2023 SAID35 WAGB 110200 METAR WAGB 110200Z 00000KT 6000 BKN010 28/24 Q1011 NOSIG=  
11-Apr-2023 SAID35 WAGB 110230 METAR WAGB 110230Z 00000KT 8000 SCT010 29/24 Q1011 NOSIG=  
11-Apr-2023 SAID35 WAGB 110300 METAR WAGB 110300Z 29004KT 8000 SCT010 30/24 Q1011 NOSIG=  
11-Apr-2023 SAID35 WAGB 110330 METAR WAGB 110330Z 25005KT 9999 SCT012 31/24 Q1010 NOSIG=  
11-Apr-2023 SAID35 WAGB 110400 METAR WAGB 110400Z 25004KT 9999 BKN012 31/24 Q1010 NOSIG=  
11-Apr-2023 SAID35 WAGB 110430 METAR WAGB 110430Z 00000KT 9999 BKN013 32/25 Q1010 NOSIG=  
11-Apr-2023 SAID35 WAGB 110500 METAR WAGB 110500Z 29006KT 9999 BKN014 32/24 Q1009 NOSIG=  
11-Apr-2023 SAID35 WAGB 110530 METAR WAGB 110530Z 00000KT 9999 BKN014 33/25 Q1009 NOSIG=  
11-Apr-2023 SAID35 WAGB 110600 METAR WAGB 110600Z 23003KT 9999 BKN012 32/24 Q1007 NOSIG=  
11-Apr-2023 SAID35 WAGB 110630 METAR WAGB 110630Z VRB02KT 9999 BKN012 32/24 Q1007 NOSIG=  
11-Apr-2023 SAID35 WAGB 110700 METAR WAGB 110630Z 22005KT 9999 BKN012 32/24 Q1006 NOSIG=  
11-Apr-2023 SAID35 WAGB 110700 METAR WAGB 110700Z 22005KT 9999 BKN012 32/24 Q1006 NOSIG=  
11-Apr-2023 SAID35 WAGB 110730 METAR WAGB 110730Z 22005KT 9999 SCT012 33/23 Q1006 NOSIG=  
11-Apr-2023 SAID35 WAGB 110800 METAR WAGB 110800Z 21004KT 9999 SCT013 32/24 Q1006 NOSIG=  
11-Apr-2023 SAID35 WAGB 110830 METAR WAGB 110830Z 00000KT 9999 SCT013 32/24 Q1006 NOSIG=  
11-Apr-2023 SPID33 WAGB 110842 SPECI WAGB 110842Z 22003KT 9999 -RA SCT013 32/24 Q1006 NOSIG=  
11-Apr-2023 SAID35 WAGB 110900 METAR WAGB 110900Z 00000KT 9999 SCT012 32/26 Q1006 RERA NOSIG=  
11-Apr-2023 SAID35 WAGB 110930 METAR WAGB 110930Z 00000KT 9999 SCT012 32/26 Q1006 NOSIG=  
11-Apr-2023 SAID35 WAGB 111000 METAR WAGB 111000Z VRB02KT 9999 SCT012 32/26 Q1007 NOSIG=  
11-Apr-2023 SAID35 WAGB 111030 METAR WAGB 111030Z 00000KT 9999 SCT012 32/26 Q1007 NOSIG=  
11-Apr-2023 SAID35 WAGB 111100 METAR WAGB 111100Z 00000KT 9000 SCT012 30/27 Q1008 NOSIG=  
11-Apr-2023 SAID35 WAGB 111130 METAR WAGB 111130Z 00000KT 9000 SCT012 30/27 Q1008 NOSIG=  
11-Apr-2023 SAID35 WAGB 111200 METAR WAGB 111200Z 00000KT 9000 SCT012 29/27 Q1008 NOSIG=  
11-Apr-2023 SAID35 WAGB 111230 METAR WAGB 111230Z 00000KT 9000 SCT012 29/27 Q1009 NOSIG=  
11-Apr-2023 SAID35 WAGB 111300 METAR WAGB 111300Z 00000KT 9000 SCT012 28/26 Q1009 NOSIG=  
11-Apr-2023 SAID35 WAGB 111330 METAR WAGB 111330Z 00000KT 9000 SCT012 28/26 Q1010 NOSIG=  
11-Apr-2023 SAID35 WAGB 111400 METAR WAGB 111400Z 00000KT 8000 SCT012 27/26 Q1010 NOSIG=  
11-Apr-2023 SAID35 WAGB 111430 METAR WAGB 111430Z 00000KT 8000 SCT012 27/26 Q1010 NOSIG=  
11-Apr-2023 SAID35 WAGB 111500 METAR WAGB 111500Z 26003KT 8000 SCT012 27/26 Q1010 NOSIG=  
11-Apr-2023 SAID35 WAGB 111530 METAR WAGB 111530Z 00000KT 8000 SCT012 27/26 Q1010 NOSIG=  
11-Apr-2023 SAID35 WAGB 111600 METAR WAGB 111600Z 00000KT 8000 BKN012 26/25 Q1010 NOSIG=  
11-Apr-2023 SAID35 WAGB 111630 METAR WAGB 111630Z 00000KT 8000 BKN012 26/25 Q1010 NOSIG=  
11-Apr-2023 SAID35 WAGB 111700 METAR WAGB 111700Z 00000KT 8000 SCT012 26/25 Q1010 NOSIG=  
11-Apr-2023 SAID35 WAGB 111730 METAR WAGB 111730Z 00000KT 8000 SCT012 26/25 Q1010 NOSIG=  
11-Apr-2023 SAID35 WAGB 111800 METAR WAGB 111800Z 00000KT 7000 SCT011 26/25 Q1009 NOSIG=  
11-Apr-2023 SAID35 WAGB 111830 METAR WAGB 111830Z 00000KT 7000 SCT011 26/25 Q1009 NOSIG=  
11-Apr-2023 SAID35 WAGB 111900 METAR WAGB 111900Z 00000KT 7000 SCT011 26/25 Q1009 NOSIG=  
11-Apr-2023 SAID35 WAGB 111930 METAR WAGB 111930Z 18003KT 7000 SCT011 26/25 Q1009 NOSIG=  
11-Apr-2023 SAID35 WAGB 112000 METAR WAGB 112000Z 00000KT 7000 SCT011 25/25 Q1009 NOSIG=  
11-Apr-2023 SAID35 WAGB 112030 METAR WAGB 112030Z 00000KT 7000 SCT011 25/25 Q1009 NOSIG=  
11-Apr-2023 SAID35 WAGB 112100 METAR WAGB 112100Z 00000KT 5000 BR SCT011 25/24 Q1009 NOSIG=  
11-Apr-2023 SAID35 WAGB 112130 METAR WAGB 112130Z 00000KT 5000 BR SCT011 25/24 Q1009 NOSIG=  
11-Apr-2023 SAID35 WAGB 112200 METAR WAGB 112200Z 00000KT 5000 BR BKN010 25/24 Q1009 NOSIG=  
11-Apr-2023 SAID35 WAGB 112230 METAR WAGB 112230Z 00000KT 5000 BR BKN010 25/24 Q1010 NOSIG=  
11-Apr-2023 SAID35 WAGB 112300 METAR WAGB 112300Z 00000KT 6000 BKN010 25/24 Q1010 NOSIG=  
11-Apr-2023 SAID35 WAGB 112330 METAR WAGB 112330Z 00000KT 6000 BKN010 25/24 Q1010 NOSIG=  
12-Apr-2023 SAID35 WAGB 120000 METAR WAGB 120000Z 00000KT 7000 FEW008 26/25 Q1011 NOSIG=  
12-Apr-2023 SAID35 WAGB 120030 METAR WAGB 120030Z 00000KT 7000 FEW008 26/25 Q1011 NOSIG=  
12-Apr-2023 SAID35 WAGB 120100 METAR WAGB 120100Z 14004KT 8000 BKN010 27/25 Q1011 NOSIG=  
12-Apr-2023 SAID35 WAGB 120130 METAR WAGB 120130Z 21004KT 9000 BKN010 28/25 Q1011 NOSIG=  
12-Apr-2023 SAID35 WAGB 120200 METAR WAGB 120200Z 00000KT 9999 BKN011 30/26 Q1010 NOSIG=  
12-Apr-2023 SAID35 WAGB 120230 METAR WAGB 120230Z 33002KT 9999 BKN012 30/25 Q1010 NOSIG=  
12-Apr-2023 SAID35 WAGB 120300 METAR WAGB 120300Z 22002KT 9999 BKN013 32/25 Q1009 NOSIG=  
12-Apr-2023 SAID35 WAGB 120330 METAR WAGB 120330Z 30003KT 9999 BKN013 32/24 Q1008 NOSIG=  
12-Apr-2023 SAID35 WAGB 120400 METAR WAGB 120400Z 30004KT 9999 BKN014 32/24 Q1008 NOSIG=  
12-Apr-2023 SAID35 WAGB 120430 METAR WAGB 120430Z 32004KT 9999 BKN014 33/24 Q1007 NOSIG=  
12-Apr-2023 SAID35 WAGB 120500 METAR WAGB 120500Z 33004KT 9999 BKN014 33/24 Q1007 NOSIG=  
12-Apr-2023 SAID35 WAGB 120530 METAR WAGB 120530Z 33006KT 9999 FEW014TCU BKN015 33/23 Q1006 NOSIG=  
12-Apr-2023 SAID35 WAGB 120600 METAR WAGB 120600Z 23003KT 9999 BKN014 33/25 Q1006 NOSIG=  
12-Apr-2023 SAID35 WAGB 120630 METAR WAGB 120630Z 00000KT 9999 BKN014 33/25 Q1006 NOSIG=  
12-Apr-2023 SAID35 WAGB 120700 METAR WAGB 120700Z 24002KT 9999 BKN014 34/24 Q1006 NOSIG=  
12-Apr-2023 SAID35 WAGB 120730 METAR WAGB 120730Z 00000KT 9999 BKN014 34/24 Q1005 NOSIG=  
12-Apr-2023 SAID35 WAGB 120800 METAR WAGB 120800Z 23005KT 9999 FEW014 34/24 Q1005 NOSIG=  
12-Apr-2023 SAID35 WAGB 120830 METAR WAGB 120830Z 00000KT 9999 FEW014 34/24 Q1005 NOSIG=  
12-Apr-2023 SAID35 WAGB 120900 METAR WAGB 120900Z 23003KT 9999 FEW014 34/24 Q1006 NOSIG=  
12-Apr-2023 SAID35 WAGB 120930 METAR WAGB 120930Z 00000KT 9999 FEW014 34/24 Q1006 NOSIG=  
12-Apr-2023 SAID35 WAGB 121000 METAR WAGB 121000Z 00000KT 9999 FEW014 33/25 Q1006 NOSIG=  
12-Apr-2023 SAID35 WAGB 121030 METAR WAGB 121030Z 00000KT 9999 FEW014 33/25 Q1006 NOSIG=  
12-Apr-2023 SAID35 WAGB 121100 METAR WAGB 121100Z 00000KT 9000 FEW014 31/26 Q1007 NOSIG=  
12-Apr-2023 SAID35 WAGB 121100 CCA METAR WAGB 121100Z 00000KT 9000 FEW014 30/25 Q1007 NOSIG=  
12-Apr-2023 SAID35 WAGB 121130 METAR WAGB 121130Z 00000KT 9000 FEW014 30/25 Q1007 NOSIG=  
12-Apr-2023 SAID35 WAGB 121200 METAR WAGB 121200Z 00000KT 7000 FEW013 30/26 Q1008=  
12-Apr-2023 SAID35 WAGB 121230 METAR WAGB 121230Z 00000KT 7000 FEW013 29/26 Q1008=  
12-Apr-2023 SAID35 WAGB 121300 METAR WAGB 121300Z 00000KT 7000 SCT013 28/25 Q1009=  
12-Apr-2023 SAID35 WAGB 121330 METAR WAGB 121330Z 00000KT 7000 FEW012CB SCT013 28/25 Q1009=  
12-Apr-2023 SAID35 WAGB 121400 METAR WAGB 121400Z 00000KT 7000 VCTS FEW012CB SCT013 27/25 Q1010=  
12-Apr-2023 SAID35 WAGB 121430 METAR WAGB 121430Z 00000KT 7000 VCTS FEW012CB SCT013 27/25 Q1009=  
12-Apr-2023 SAID35 WAGB 121500 METAR WAGB 121500Z 00000KT 7000 VCTS FEW012CB SCT013 28/25 Q1010=  
12-Apr-2023 SAID35 WAGB 121530 METAR WAGB 121530Z 00000KT 7000 VCTS FEW012CB SCT013 27/25 Q1010=  
12-Apr-2023 SAID35 WAGB 121600 METAR WAGB 121600Z 00000KT 7000 BKN012 27/25 Q1010=  
12-Apr-2023 SAID35 WAGB 121630 METAR WAGB 121630Z 00000KT 7000 BKN012 27/25 Q1010=  
12-Apr-2023 SAID35 WAGB 121700 METAR WAGB 121700Z 00000KT 6000 BKN012 27/25 Q1010=  
12-Apr-2023 SAID35 WAGB 121730 METAR WAGB 121730Z 00000KT 6000 BKN012 27/25 Q1009=  
12-Apr-2023 SAID35 WAGB 121800 METAR WAGB 121800Z 00000KT 6000 BKN012 26/25 Q1009=  
12-Apr-2023 SAID35 WAGB 121830 METAR WAGB 121830Z 00000KT 6000 BKN012 26/25 Q1008=  
12-Apr-2023 SAID35 WAGB 121900 METAR WAGB 121900Z 00000KT 4000 -RA BKN011 25/24 Q1009=  
12-Apr-2023 SAID35 WAGB 121930 METAR WAGB 121930Z 00000KT 4000 -RA BKN011 25/24 Q1009=  
12-Apr-2023 SAID35 WAGB 122000 METAR WAGB 122000Z 00000KT 4000 -RA BKN011 25/24 Q1009=  
12-Apr-2023 SAID35 WAGB 122000 CCA METAR COR WAGB 122000Z 00000KT 5000 BKN011 25/24 Q1008=  
12-Apr-2023 SAID35 WAGB 122100 METAR WAGB 122100Z 00000KT 5000 BKN011 26/25 Q1009=  
12-Apr-2023 SAID35 WAGB 122130 METAR WAGB 122130Z 00000KT 5000 BKN011 26/25 Q1009=  
12-Apr-2023 SAID35 WAGB 122200 METAR WAGB 122200Z 00000KT 5000 BKN011 26/25 Q1009=  
12-Apr-2023 SAID35 WAGB 122230 METAR WAGB 122230Z 00000KT 5000 BKN011 26/25 Q1009=  
12-Apr-2023 SAID35 WAGB 122300 METAR WAGB 122300Z 00000KT 5000 VCSH SCT011 26/25 Q1011=  
12-Apr-2023 SAID35 WAGB 122330 METAR WAGB 122330Z 00000KT 5000 VCSH BKN011 26/25 Q1011=  
13-Apr-2023 SAID35 WAGB 130000 METAR WAGB 130000Z 09002KT 7000 BKN009 26/25 Q1011=  
13-Apr-2023 SAID35 WAGB 130030 METAR WAGB 130030Z 00000KT 7000 BKN009 26/25 Q1011=  
13-Apr-2023 SAID35 WAGB 130100 METAR WAGB 130100Z 27003KT 7000 BKN010 27/25 Q1011=  
13-Apr-2023 SAID35 WAGB 130130 METAR WAGB 130130Z 00000KT 8000 SCT010 27/25 Q1011=  
13-Apr-2023 SAID35 WAGB 130200 METAR WAGB 130200Z 00000KT 8000 BKN011 28/25 Q1011=  
13-Apr-2023 SAID35 WAGB 130230 METAR WAGB 130230Z 22002KT 8000 BKN011 29/25 Q1011=  
13-Apr-2023 SAID35 WAGB 130300 METAR WAGB 130300Z 00000KT 8000 BKN011 30/25 Q1011=  
13-Apr-2023 SAID35 WAGB 130330 METAR WAGB 130330Z 28004KT 8000 BKN011 30/25 Q1010=  
13-Apr-2023 SAID35 WAGB 130400 METAR WAGB 130400Z 27003KT 8000 BKN011 30/25 Q1010=  
13-Apr-2023 SAID35 WAGB 130430 METAR WAGB 130430Z 00000KT 9000 BKN012 31/25 Q1009=  
13-Apr-2023 SAID35 WAGB 130500 METAR WAGB 130500Z 23003KT 9000 SCT012 32/25 Q1009=  
13-Apr-2023 SAID35 WAGB 130530 METAR WAGB 130530Z 28004KT 9000 SCT012 33/26 Q1008=  
13-Apr-2023 SAID35 WAGB 130600 METAR WAGB 130600Z 00000KT 9999 SCT013 32/26 Q1008 NOSIG=  
13-Apr-2023 SAID35 WAGB 130630 METAR WAGB 130630Z 00000KT 9999 FEW014TCU 32/26 Q1008 NOSIG=  
13-Apr-2023 SAID35 WAGB 130700 METAR WAGB 130700Z 00000KT 7000 FEW014CB BKN015 31/26 Q1007 NOSIG=  
13-Apr-2023 SAID35 WAGB 130730 METAR WAGB 130730Z 00000KT 7000 -TS FEW014CB BKN015 30/26 Q1006 NOSIG=  
13-Apr-2023 SAID35 WAGB 130800 METAR WAGB 130800Z 06002KT 8000 FEW014CB SCT015 29/25 Q1006 NOSIG=  
13-Apr-2023 SAID35 WAGB 130830 METAR WAGB 130830Z 00000KT 8000 FEW014CB SCT015 29/25 Q1006 NOSIG=  
13-Apr-2023 SAID35 WAGB 130900 METAR WAGB 130900Z 00000KT 9000 FEW014CB FEW015 28/25 Q1006 NOSIG=  
13-Apr-2023 SAID35 WAGB 130930 METAR WAGB 130930Z 00000KT 9000 FEW014CB FEW015 28/25 Q1007 NOSIG=  
13-Apr-2023 SAID35 WAGB 131000 METAR WAGB 131000Z 00000KT 9000 FEW014TCU FEW015 28/25 Q1006 NOSIG=  
13-Apr-2023 SAID35 WAGB 131030 METAR WAGB 131030Z 00000KT 9000 FEW013CB FEW014 29/25 Q1007 NOSIG=  
13-Apr-2023 SAID35 WAGB 131100 METAR WAGB 131100Z 00000KT 9000 FEW013CB FEW014 28/26 Q1007 NOSIG=  
13-Apr-2023 SAID35 WAGB 131130 METAR WAGB 131130Z 00000KT 8000 FEW013CB FEW014 27/25 Q1007 NOSIG=  
13-Apr-2023 SAID35 WAGB 131200 METAR WAGB 131200Z 00000KT 8000 FEW012CB FEW013 27/25 Q1008=  
13-Apr-2023 SAID35 WAGB 131200 CCA METAR WAGB 131200Z 00000KT 8000 FEW013 27/25 Q1008=  
13-Apr-2023 SAID35 WAGB 131230 METAR WAGB 131230Z 00000KT 8000 FEW012CB FEW013 27/25 Q1008=  
13-Apr-2023 SAID35 WAGB 131230 CCA METAR WAGB 131230Z 00000KT 8000 FEW013 27/25 Q1008=  
13-Apr-2023 SAID35 WAGB 131300 METAR WAGB 131300Z 00000KT 8000 FEW013 27/25 Q1009=  
13-Apr-2023 SAID35 WAGB 131330 METAR WAGB 131330Z 00000KT 8000 FEW013 27/25 Q1009=  
13-Apr-2023 SAID35 WAGB 131400 METAR WAGB 131400Z 00000KT 7000 FEW012 27/25 Q1010=  
13-Apr-2023 SAID35 WAGB 131430 METAR WAGB 131430Z 00000KT 7000 FEW012 27/25 Q1010=  
13-Apr-2023 SAID35 WAGB 131500 METAR WAGB 131500Z 00000KT 7000 SCT012 26/25 Q1010=  
13-Apr-2023 SAID35 WAGB 131530 METAR WAGB 131530Z 00000KT 7000 SCT012 26/25 Q1010=  
13-Apr-2023 SAID35 WAGB 131600 METAR WAGB 131600Z 00000KT 6000 SCT012 25/25 Q1010=  
13-Apr-2023 SAID35 WAGB 131630 METAR WAGB 131630Z 00000KT 6000 SCT012 25/25 Q1010=  
13-Apr-2023 SAID35 WAGB 131700 METAR WAGB 131700Z 00000KT 6000 VCTS FEW012CB SCT013 25/25 Q1010=  
13-Apr-2023 SAID35 WAGB 131730 METAR WAGB 131730Z 00000KT 6000 VCTS FEW012CB SCT013 25/25 Q1009=  
13-Apr-2023 SAID35 WAGB 131800 METAR WAGB 131800Z 00000KT 6000 VCTS FEW012CB SCT013 25/25 Q1009=  
13-Apr-2023 SAID35 WAGB 131830 METAR WAGB 131830Z 00000KT 6000 VCTS FEW012CB SCT013 25/25 Q1009=  
13-Apr-2023 SAID35 WAGB 131900 METAR WAGB 131900Z 00000KT 5000 VCTS FEW012CB SCT013 25/24 Q1009=  
13-Apr-2023 SAID35 WAGB 131930 METAR WAGB 131930Z 00000KT 5000 VCTS FEW012CB SCT013 25/24 Q1009=  
13-Apr-2023 SAID35 WAGB 132000 METAR WAGB 132000Z 00000KT 5000 VCSH FEW011CB BKN012 25/24 Q1009=  
13-Apr-2023 SAID35 WAGB 132030 METAR WAGB 132030Z 00000KT 5000 VCSH FEW011CB BKN012 25/24 Q1009=  
13-Apr-2023 SAID35 WAGB 132100 METAR WAGB 132100Z 00000KT 5000 VCSH FEW011CB BKN012 25/25 Q1010=  
13-Apr-2023 SAID35 WAGB 132130 METAR WAGB 132130Z 00000KT 5000 VCSH FEW011CB BKN012 25/25 Q1010=  
13-Apr-2023 SAID35 WAGB 132200 METAR WAGB 132200Z 00000KT 5000 VCSH FEW010CB BKN011 25/24 Q1010=  
13-Apr-2023 SAID35 WAGB 132230 METAR WAGB 132230Z 00000KT 5000 VCSH FEW010CB BKN011 25/24 Q1010=  
13-Apr-2023 SAID35 WAGB 132230 CCA METAR WAGB 132230Z 00000KT 5000 VCSH FEW010CB BKN011 25/24 Q1011=  
13-Apr-2023 SAID35 WAGB 132300 METAR WAGB 132300Z 00000KT 5000 VCSH BKN010 25/24 Q1011=  
14-Apr-2023 SAID35 WAGB 140000 METAR WAGB 140000Z 00000KT 4500 HZ BKN011 26/25 Q1011 NOSIG=  
14-Apr-2023 SAID35 WAGB 140030 METAR WAGB 140030Z 00000KT 5000 HZ BKN011 26/25 Q1011 NOSIG=  
14-Apr-2023 SAID35 WAGB 140100 METAR WAGB 140100Z 00000KT 6000 BKN011 27/25 Q1012 NOSIG=  
14-Apr-2023 SAID35 WAGB 140130 METAR WAGB 140130Z 00000KT 6000 BKN011 27/25 Q1012 NOSIG=  
14-Apr-2023 SAID35 WAGB 140200 METAR WAGB 140200Z 00000KT 7000 BKN012 27/25 Q1012 NOSIG=  
14-Apr-2023 SAID35 WAGB 140230 METAR WAGB 140230Z 00000KT 7000 BKN012 27/25 Q1012 NOSIG=  
14-Apr-2023 SAID35 WAGB 140300 METAR WAGB 140300Z 00000KT 8000 BKN010 28/25 Q1011 NOSIG=  
14-Apr-2023 SAID35 WAGB 140330 METAR WAGB 140330Z 24003KT 8000 BKN010 29/25 Q1011 NOSIG=  
14-Apr-2023 SAID35 WAGB 140400 METAR WAGB 140400Z 18004KT 9000 BKN010 29/25 Q1010 NOSIG=  
14-Apr-2023 SAID35 WAGB 140430 METAR WAGB 140430Z 19003KT 9000 BKN010 29/25 Q1010 NOSIG=  
14-Apr-2023 SAID35 WAGB 140500 METAR WAGB 140500Z 28003KT 9000 BKN011 30/24 Q1009 NOSIG=  
14-Apr-2023 SAID35 WAGB 140530 METAR WAGB 140530Z 21003KT 9999 BKN012 31/25 Q1009 NOSIG=  
14-Apr-2023 SAID35 WAGB 140600 METAR WAGB 140600Z 28005KT 9000 BKN014 31/25 Q1008 NOSIG=  
14-Apr-2023 SAID35 WAGB 140630 METAR WAGB 140630Z 03004KT 9000 SCT014 32/25 Q1008 NOSIG=  
14-Apr-2023 SAID35 WAGB 140700 METAR WAGB 140700Z 09003KT 9000 SCT014 32/26 Q1007 NOSIG=  
14-Apr-2023 SAID35 WAGB 140730 METAR WAGB 140730Z 00000KT 9000 SCT014 32/26 Q1007 NOSIG=  
14-Apr-2023 SAID35 WAGB 140800 METAR WAGB 140800Z 27003KT 9000 FEW014 32/25 Q1007 NOSIG=  
14-Apr-2023 SAID35 WAGB 140830 METAR WAGB 140830Z 23003KT 9000 FEW014 32/25 Q1007 NOSIG=  
14-Apr-2023 SAID35 WAGB 140900 METAR WAGB 140900Z 05004KT 9000 FEW014 32/25 Q1007 NOSIG=  
14-Apr-2023 SAID35 WAGB 140930 METAR WAGB 140930Z 00000KT 9000 FEW014 32/25 Q1007 NOSIG=  
14-Apr-2023 SAID35 WAGB 141000 METAR WAGB 141000Z 00000KT 9000 FEW014 31/25 Q1007 NOSIG=  
14-Apr-2023 SAID35 WAGB 141030 METAR WAGB 141030Z 00000KT 9000 FEW014 30/25 Q1008 NOSIG=  
14-Apr-2023 SAID35 WAGB 141100 METAR WAGB 141100Z 00000KT 9000 FEW013CB FEW014 30/26 Q1008 NOSIG=  
14-Apr-2023 SAID35 WAGB 141130 METAR WAGB 141130Z 00000KT 9000 FEW013CB FEW014 29/25 Q1009 NOSIG=  
14-Apr-2023 SAID35 WAGB 141200 METAR WAGB 141200Z 00000KT 9000 FEW013CB FEW014 28/27 Q1009 NOSIG=  
14-Apr-2023 SAID35 WAGB 141230 METAR WAGB 141230Z 00000KT 9000 FEW013CB FEW014 28/27 Q1010 NOSIG=  
14-Apr-2023 SAID35 WAGB 141300 METAR WAGB 141300Z 00000KT 7000 VCTS FEW012CB FEW013 28/26 Q1010=  
14-Apr-2023 SAID35 WAGB 141330 METAR WAGB 141330Z 00000KT 7000 VCTS FEW012CB 28/26 Q1010=  
14-Apr-2023 SAID35 WAGB 141400 METAR WAGB 141400Z 00000KT 6000 VCTS FEW012CB BKN013 27/26 Q1010=  
14-Apr-2023 SAID35 WAGB 141430 METAR WAGB 141430Z 00000KT 6000 VCTS FEW012CB BKN013 27/26 Q1010=  
14-Apr-2023 SAID35 WAGB 141500 METAR WAGB 141500Z 00000KT 6000 VCTS FEW012CB BKN013 27/26 Q1011=  
14-Apr-2023 SAID35 WAGB 141530 METAR WAGB 141530Z 00000KT 6000 VCTS FEW012CB BKN013 27/26 Q1011=  
14-Apr-2023 SAID35 WAGB 141600 METAR WAGB 141600Z 00000KT 3000 -TSRA FEW010CB BKN011 27/26 Q1011=  
14-Apr-2023 SAID35 WAGB 141630 METAR WAGB 141630Z 00000KT 3000 -TSRA FEW010CB BKN011 27/26 Q1011=  
14-Apr-2023 SAID35 WAGB 141700 METAR WAGB 141700Z 00000KT 3000 -TSRA FEW010CB BKN011 25/24 Q1010=  
14-Apr-2023 SAID35 WAGB 141730 METAR WAGB 141730Z 00000KT 3000 -TSRA FEW010CB BKN011 25/24 Q1010=  
14-Apr-2023 SAID35 WAGB 141800 METAR WAGB 141800Z 00000KT 4000 -RA FEW010CB BKN011 24/23 Q1009 RETS=  
14-Apr-2023 SAID35 WAGB 141830 METAR WAGB 141830Z 00000KT 4000 -RA FEW010CB BKN011 24/23 Q1009=  
14-Apr-2023 SAID35 WAGB 141900 METAR WAGB 141900Z 00000KT 4000 -RA FEW010CB BKN011 24/24 Q1009=  
14-Apr-2023 SAID35 WAGB 141930 METAR WAGB 141930Z 00000KT 4000 -RA FEW010CB BKN011 24/24 Q1009=  
14-Apr-2023 SAID35 WAGB 142000 METAR WAGB 142000Z 00000KT 4000 BKN010 24/23 Q1008 RERA=  
14-Apr-2023 SAID35 WAGB 142030 METAR WAGB 142030Z 00000KT 4000 BKN010 24/23 Q1008 RERA=  
14-Apr-2023 SAID35 WAGB 142100 METAR WAGB 142100Z 00000KT 4000 BR BKN010 24/23 Q1009=  
14-Apr-2023 SAID35 WAGB 142130 METAR WAGB 142130Z 00000KT 4000 BR BKN010 24/23 Q1009=  
14-Apr-2023 SAID35 WAGB 142200 METAR WAGB 142200Z 00000KT 4000 BR BKN010 24/23 Q1009=  
14-Apr-2023 SAID35 WAGB 142230 METAR WAGB 142230Z 00000KT 4000 BR BKN010 24/23 Q1009=  
14-Apr-2023 SAID35 WAGB 142300 METAR WAGB 142300Z 00000KT 4000 VCSH BKN010 24/23 Q1010=  
14-Apr-2023 SAID35 WAGB 142330 METAR WAGB 142330Z 00000KT 4000 VCSH BKN010 24/23 Q1010=  
15-Apr-2023 SAID35 WAGB 150000 METAR WAGB 150000Z 00000KT 5000 VCSH BKN010 25/24 Q1011=  
15-Apr-2023 SAID35 WAGB 150030 METAR WAGB 150030Z 00000KT 5000 VCSH BKN010 25/24 Q1011=  
15-Apr-2023 SAID35 WAGB 150100 METAR WAGB 150100Z 00000KT 5000 BKN010 25/24 Q1011 RERA=  
15-Apr-2023 SAID35 WAGB 150100 CCA METAR COR WAGB 150100Z 00000KT 5000 BKN010 25/24 Q1011 RERA NOSIG=  
15-Apr-2023 SAID35 WAGB 150130 METAR WAGB 150130Z 00000KT 5000 VCSH BKN010 25/24 Q1011=  
15-Apr-2023 SAID35 WAGB 150200 METAR WAGB 150200Z 00000KT 7000 SCT011 26/24 Q1011 NOSIG=  
15-Apr-2023 SAID35 WAGB 150230 METAR WAGB 150230Z 00000KT 8000 BKN011 28/24 Q1011 NOSIG=  
15-Apr-2023 SAID35 WAGB 150300 METAR WAGB 150300Z 00000KT 8000 BKN011 29/24 Q1011 NOSIG=  
15-Apr-2023 SAID35 WAGB 150330 METAR WAGB 150330Z 00000KT 8000 BKN011 29/24 Q1010 NOSIG=  
15-Apr-2023 SAID35 WAGB 150400 METAR WAGB 150400Z 00000KT 8000 BKN011 30/25 Q1009 NOSIG=  
15-Apr-2023 SAID35 WAGB 150430 METAR WAGB 150430Z 21004KT 8000 BKN011 30/25 Q1009 NOSIG=  
15-Apr-2023 SAID35 WAGB 150500 METAR WAGB 150500Z 00000KT 8000 BKN012 30/25 Q1008 NOSIG=  
15-Apr-2023 SAID35 WAGB 150530 METAR WAGB 150530Z 00000KT 9000 BKN012 31/25 Q1008 NOSIG=  
15-Apr-2023 SAID35 WAGB 150600 METAR WAGB 150600Z 20004KT 9999 BKN013 31/26 Q1007 NOSIG=  
15-Apr-2023 SAID35 WAGB 150630 METAR WAGB 150630Z 18003KT 9999 BKN013 31/26 Q1007 NOSIG=  
15-Apr-2023 SAID35 WAGB 150700 METAR WAGB 150700Z 00000KT 9999 SCT014 32/25 Q1006 NOSIG=  
15-Apr-2023 SAID35 WAGB 150730 METAR WAGB 150730Z 00000KT 9999 SCT014 32/25 Q1006 NOSIG=  
15-Apr-2023 SAID35 WAGB 150800 METAR WAGB 150800Z 00000KT 9999 FEW013 33/25 Q1006 NOSIG=  
15-Apr-2023 SAID35 WAGB 150830 METAR WAGB 150830Z 00000KT 9999 FEW013 33/25 Q1006 NOSIG=  
15-Apr-2023 SAID35 WAGB 150900 METAR WAGB 150900Z VRB02KT 9999 FEW013 33/26 Q1006 NOSIG=  
15-Apr-2023 SAID35 WAGB 150930 METAR WAGB 150930Z 00000KT 9999 FEW013 33/26 Q1006 NOSIG=  
15-Apr-2023 SAID35 WAGB 151000 METAR WAGB 151000Z 00000KT 9999 FEW013 31/26 Q1006 NOSIG=  
15-Apr-2023 SAID35 WAGB 151030 METAR WAGB 151030Z 00000KT 9999 FEW013 31/26 Q1006 NOSIG=  
15-Apr-2023 SAID35 WAGB 151100 METAR WAGB 151100Z 00000KT 9000 FEW013 30/27 Q1007 NOSIG=  
15-Apr-2023 SAID35 WAGB 151130 METAR WAGB 151130Z 00000KT 9000 FEW013 30/27 Q1007 NOSIG=  
15-Apr-2023 SAID35 WAGB 151200 METAR WAGB 151200Z 00000KT 8000 VCTS FEW012CB FEW013 29/26 Q1008=  
15-Apr-2023 SAID35 WAGB 151230 METAR WAGB 151230Z 00000KT 8000 VCTS FEW012CB FEW013 29/26 Q1008=  
15-Apr-2023 SAID35 WAGB 151300 METAR WAGB 151300Z 00000KT 8000 VCTS FEW012CB FEW013 28/27 Q1009=  
15-Apr-2023 SAID35 WAGB 151330 METAR WAGB 151330Z 00000KT 8000 VCTS FEW012CB FEW013 28/27 Q1009=  
15-Apr-2023 SAID35 WAGB 151400 METAR WAGB 151400Z 00000KT 8000 VCTS FEW012CB FEW013 27/26 Q1009=  
15-Apr-2023 SAID35 WAGB 151430 METAR WAGB 151430Z 00000KT 8000 VCTS FEW012CB FEW013 27/26 Q1009=  
15-Apr-2023 SAID35 WAGB 151500 METAR WAGB 151500Z 00000KT 8000 VCTS FEW012CB SCT013 27/26 Q1010=  
15-Apr-2023 SAID35 WAGB 151530 METAR WAGB 151530Z 00000KT 8000 VCTS FEW012CB SCT013 27/26 Q1009=  
15-Apr-2023 SAID35 WAGB 151600 METAR WAGB 151600Z 23006KT 6000 VCTS FEW011CB BKN012 27/26 Q1010=  
15-Apr-2023 SPID33 WAGB 151616 SPECI WAGB 151616Z 22005KT 3000 TSRA FEW011CB OVC011 26/25 Q1010=  
15-Apr-2023 SAID35 WAGB 151630 METAR WAGB 151630Z 19009KT 2500 TSRA FEW011CB OVC011 25/24 Q1011=  
15-Apr-2023 SAID35 WAGB 151700 METAR WAGB 151700Z 20005KT 3500 TSRA FEW011CB OVC011 24/23 Q1011=  
15-Apr-2023 SAID35 WAGB 151730 METAR WAGB 151730Z 16003KT 4000 -TSRA FEW011CB OVC011 24/23 Q1010=  
15-Apr-2023 SAID35 WAGB 151800 METAR WAGB 151800Z 00000KT 4500 -TSRA FEW011CB BKN011 23/23 Q1010=  
15-Apr-2023 SAID35 WAGB 151830 METAR WAGB 151830Z 00000KT 4500 -RA FEW011CB BKN011 23/23 Q1010 RETS=  
15-Apr-2023 SAID35 WAGB 151900 METAR WAGB 151900Z 00000KT 4500 -RA FEW011CB BKN011 23/23 Q1010=  
15-Apr-2023 SAID35 WAGB 151930 METAR WAGB 151930Z 00000KT 4500 -RA FEW011CB BKN011 23/23 Q1010=  
15-Apr-2023 SAID35 WAGB 152100 METAR WAGB 152100Z 00000KT 4000 -RA FEW008CB BKN08 24/24 Q1009=  
15-Apr-2023 SAID35 WAGB 152130 METAR WAGB 152130Z 00000KT 4000 -RA FEW008CB BKN08 24/24 Q1010=  
15-Apr-2023 SAID35 WAGB 152200 METAR WAGB 152200Z 00000KT 5000 BKN008 23/23 Q1009 RERA=  
15-Apr-2023 SAID35 WAGB 152230 METAR WAGB 152230Z 00000KT 5000 BR BKN008 23/23 Q1009=  
15-Apr-2023 SAID35 WAGB 152300 METAR WAGB 152300Z 00000KT 5000 BR BKN008 23/23 Q1009=  
15-Apr-2023 SAID35 WAGB 152330 METAR WAGB 152330Z 00000KT 5000 BR BKN008 24/23 Q1010=  
16-Apr-2023 SAID35 WAGB 160000 METAR WAGB 160000Z 00000KT 4000 VCSH BKN009 23/23 Q1011=  
16-Apr-2023 SAID35 WAGB 160030 METAR WAGB 160030Z 00000KT 5000 HZ BKN009 24/23 Q1011=  
16-Apr-2023 SAID35 WAGB 160100 METAR WAGB 160100Z 00000KT 7000 BKN010 24/23 Q1011 NOSIG=  
16-Apr-2023 SAID35 WAGB 160130 METAR WAGB 160130Z 00000KT 8000 BKN010 25/24 Q1011 NOSIG=  
16-Apr-2023 SAID35 WAGB 160200 METAR WAGB 160200Z 00000KT 8000 BKN012 26/24 Q1011 NOSIG=  
16-Apr-2023 SAID35 WAGB 160230 METAR WAGB 160230Z 00000KT 9000 BKN012 28/24 Q1010 NOSIG=  
16-Apr-2023 SAID35 WAGB 160300 METAR WAGB 160300Z 00000KT 9000 BKN012 28/25 Q1011 NOSIG=  
16-Apr-2023 SAID35 WAGB 160330 METAR WAGB 160330Z 00000KT 9000 BKN012 28/24 Q1010 NOSIG=  
16-Apr-2023 SAID35 WAGB 160400 METAR WAGB 160400Z 00000KT 9000 BKN012 28/24 Q1009 NOSIG=  
16-Apr-2023 SAID35 WAGB 160430 METAR WAGB 160430Z 00000KT 9000 BKN012 29/24 Q1009 NOSIG=  
16-Apr-2023 SAID35 WAGB 160500 METAR WAGB 160500Z 00000KT 9000 BKN013 30/25 Q1009 NOSIG=  
16-Apr-2023 SAID35 WAGB 160530 METAR WAGB 160530Z 00000KT 9000 BKN013 30/25 Q1008 NOSIG=  
16-Apr-2023 SAID35 WAGB 160600 METAR WAGB 160600Z 05005KT 9000 BKN012 31/26 Q1008 NOSIG=  
16-Apr-2023 SPID33 WAGB 160611 SPECI WAGB 160611Z 16006KT 4000 RA BKN012 31/26 Q1008 NOSIG=  
16-Apr-2023 SAID35 WAGB 160630 CCA METAR WAGB 160630Z 00000KT 7000 BKN012 29/27 Q1007 RERA NOSIG=  
16-Apr-2023 SAID35 WAGB 160630 METAR WAGB 160630Z 00000KT 7000 BKN012 29/27 Q1008 RERA NOSIG=  
16-Apr-2023 SAID35 WAGB 160700 METAR WAGB 160700Z 09003KT 9000 TS FEW012CB BKN013 30/27 Q1007 NOSIG=  
16-Apr-2023 SAID35 WAGB 160730 METAR WAGB 160730Z 00000KT 9000 TS FEW012CB BKN013 30/27 Q1006 NOSIG=  
16-Apr-2023 SAID35 WAGB 160800 METAR WAGB 160800Z 21003KT 9000 TS FEW012CB BKN013 29/26 Q1007 NOSIG=  
16-Apr-2023 SAID35 WAGB 160830 METAR WAGB 160830Z 00000KT 9000 TS FEW012CB BKN013 28/25 Q1007 NOSIG=  
16-Apr-2023 SAID35 WAGB 160900 METAR WAGB 160900Z 19004KT 9000 FEW012CB BKN013 27/25 Q1007 RETS NOSIG=  
16-Apr-2023 SAID35 WAGB 160930 METAR WAGB 160930Z 19004KT 9000 FEW012CB BKN013 27/25 Q1008 NOSIG=  
16-Apr-2023 SAID35 WAGB 161000 METAR WAGB 161000Z 00000KT 7000 FEW012CB BKN013 26/24 Q1008 NOSIG=  
16-Apr-2023 SAID35 WAGB 161030 METAR WAGB 161030Z 00000KT 7000 FEW012CB BKN013 26/24 Q1008 NOSIG=  
16-Apr-2023 SAID35 WAGB 161100 METAR WAGB 161100Z 00000KT 7000 FEW012CB BKN013 25/24 Q1008 NOSIG=  
16-Apr-2023 SAID35 WAGB 161130 METAR WAGB 161130Z 00000KT 7000 FEW012CB BKN013 25/24 Q1009 NOSIG=  
16-Apr-2023 SAID35 WAGB 161200 METAR WAGB 161200Z 00000KT 7000 FEW012CB SCT013 25/24 Q1009=  
16-Apr-2023 SAID35 WAGB 161230 METAR WAGB 161230Z 00000KT 7000 FEW012CB SCT013 25/24 Q1010=  
16-Apr-2023 SAID35 WAGB 161300 METAR WAGB 161300Z 00000KT 6000 FEW011CB FEW012 25/24 Q1010=  
16-Apr-2023 SAID35 WAGB 161330 METAR WAGB 161330Z 00000KT 6000 FEW011CB FEW012 25/24 Q1011=  
16-Apr-2023 SAID35 WAGB 161400 METAR WAGB 161400Z 20002KT 6000 FEW011CB SCT012 24/23 Q1011=  
16-Apr-2023 SAID35 WAGB 161430 METAR WAGB 161430Z 00000KT 6000 FEW011CB SCT012 24/23 Q1012=  
16-Apr-2023 SAID35 WAGB 161500 METAR WAGB 161500Z 00000KT 6000 SCT012 25/24 Q1011 RERA=  
16-Apr-2023 SAID35 WAGB 161530 METAR WAGB 161530Z 00000KT 6000 SCT012 24/24 Q1012=  
16-Apr-2023 SAID35 WAGB 161600 METAR WAGB 161600Z 00000KT 6000 BKN011 24/24 Q1012=  
16-Apr-2023 SAID35 WAGB 161630 METAR WAGB 161630Z 00000KT 6000 BKN011 24/24 Q1012=  
16-Apr-2023 SAID35 WAGB 161700 METAR WAGB 161700Z 00000KT 5000 BR SCT011 24/23 Q1011=  
16-Apr-2023 SAID35 WAGB 161730 METAR WAGB 161730Z 00000KT 5000 BR SCT011 24/23 Q1011=  
16-Apr-2023 SAID35 WAGB 161800 METAR WAGB 161800Z 00000KT 5000 BR FEW010 24/23 Q1010=  
16-Apr-2023 SAID35 WAGB 161830 METAR WAGB 161830Z 00000KT 5000 BR FEW010 24/23 Q1010=  
16-Apr-2023 SAID35 WAGB 161900 METAR WAGB 161900Z 00000KT 3000 BR FEW010 23/23 Q1010=  
16-Apr-2023 SAID35 WAGB 161930 METAR WAGB 161930Z 00000KT 2000 BR FEW010 23/23 Q1010=  
16-Apr-2023 SAID35 WAGB 162000 METAR WAGB 162000Z 00000KT 1500 BR FEW009 23/23 Q1010=  
16-Apr-2023 SAID35 WAGB 162030 METAR WAGB 162030Z 00000KT 1500 BR FEW009 23/23 Q1010=  
16-Apr-2023 SAID35 WAGB 162100 METAR WAGB 162100Z 00000KT 1500 BR FEW009 23/22 Q1010=  
16-Apr-2023 SAID35 WAGB 162130 METAR WAGB 162130Z 00000KT 2000 BR FEW009 23/22 Q1010=  
16-Apr-2023 SAID35 WAGB 162200 METAR WAGB 162200Z 00000KT 4000 BR FEW009 23/23 Q1011=  
16-Apr-2023 SAID35 WAGB 162230 METAR WAGB 162230Z 00000KT 6000 FEW009 23/23 Q1011=  
16-Apr-2023 SAID35 WAGB 162300 METAR WAGB 162300Z 00000KT 7000 FEW009 23/23 Q1011=  
16-Apr-2023 SAID35 WAGB 162330 METAR WAGB 162330Z 00000KT 8000 FEW009 24/23 Q1012=  
17-Apr-2023 SAID35 WAGB 170000 METAR WAGB 170000Z 00000KT 8000 FEW011 25/23 Q1012 NOSIG=  
17-Apr-2023 SAID35 WAGB 170030 METAR WAGB 170030Z 00000KT 8000 FEW011 26/23 Q1012 NOSIG=  
17-Apr-2023 SAID35 WAGB 170100 METAR WAGB 170100Z 00000KT 9000 FEW011 27/24 Q1012 NOSIG=  
17-Apr-2023 SAID35 WAGB 170130 METAR WAGB 170130Z 35002KT 9000 FEW010 28/23 Q1012 NOSIG=  
17-Apr-2023 SAID35 WAGB 170200 METAR WAGB 170200Z 00000KT 9000 FEW010 30/24 Q1012 NOSIG=  
17-Apr-2023 SAID35 WAGB 170230 METAR WAGB 170230Z 27005KT 9999 FEW010 30/23 Q1012 NOSIG=  
17-Apr-2023 SAID35 WAGB 170300 METAR WAGB 170300Z 13002KT 9999 SCT010 31/24 Q1012 NOSIG=  
17-Apr-2023 SAID35 WAGB 170330 METAR WAGB 170330Z 25004KT 9999 SCT010 31/23 Q1011 NOSIG=  
17-Apr-2023 SAID35 WAGB 170400 METAR WAGB 170400Z 2104KT 9999 SCT012 32/24 Q1011 NOSIG=  
17-Apr-2023 SAID35 WAGB 170400 CCA METAR WAGB 170400Z 21004KT 9999 SCT012 32/24 Q1011 NOSIG=  
17-Apr-2023 SAID35 WAGB 170430 METAR WAGB 170430Z 25005KT 9999 BKN012 32/24 Q1010 NOSIG=  
17-Apr-2023 SAID35 WAGB 170500 METAR WAGB 170500Z 28003KT 9999 BKN012 32/23 Q1010 NOSIG=  
17-Apr-2023 SAID35 WAGB 170530 METAR WAGB 170530Z VRB02KT 9999 BKN012 33/24 Q1009 NOSIG=  
17-Apr-2023 SAID35 WAGB 170600 METAR WAGB 170600Z 21004KT 9999 BKN012 32/24 Q1009 NOSIG=  
17-Apr-2023 SAID35 WAGB 170630 METAR WAGB 170630Z 00000KT 9999 BKN013 33/24 Q1008 NOSIG=  
17-Apr-2023 SAID35 WAGB 170730 METAR WAGB 170730Z 00000KT 9999 BKN013 33/25 Q1007 NOSIG=  
17-Apr-2023 SAID35 WAGB 170800 METAR WAGB 170800Z 25005KT 9999 BKN014 33/24 Q1007 NOSIG=  
17-Apr-2023 SAID35 WAGB 170830 METAR WAGB 170830Z 00000KT 9999 BKN014 33/24 Q1007 NOSIG=  
17-Apr-2023 SAID35 WAGB 170900 METAR WAGB 170900Z 22003KT 9999 FEW013 33/24 Q1008 NOSIG=  
17-Apr-2023 SAID35 WAGB 170930 METAR WAGB 170930Z 00000KT 9999 FEW013 32/24 Q1008 NOSIG=  
17-Apr-2023 SAID35 WAGB 171000 METAR WAGB 171000Z 00000KT 9999 FEW013CB FEW014 32/24 Q1008 NOSIG=  
17-Apr-2023 SAID35 WAGK 171030 METAR WAGB 171030Z 00000KT 9999 FEW013CB FEW014 31/24 Q1008 NOSIG=  
17-Apr-2023 SAID35 WAGB 171100 METAR WAGB 171100Z 00000KT 9999 FEW013CB FEW014 30/25 Q1009 NOSIG=  
17-Apr-2023 SAID35 WAGB 171130 METAR WAGB 171130Z 00000KT 9999 FEW013CB FEW014 30/25 Q1010 NOSIG=  
17-Apr-2023 SAID35 WAGB 171200 METAR WAGB 171200Z 00000KT 9000 VCTS FEW013CB FEW014 29/26 Q1011=  
17-Apr-2023 SAID35 WAGB 171230 METAR WAGB 171230Z 00000KT 8000 VCTS FEW013CB FEW014 29/26 Q1011=  
17-Apr-2023 SAID35 WAGB 171300 METAR WAGB 171300Z 00000KT 7000 VCTS FEW012CB FEW013 28/26 Q1011=  
17-Apr-2023 SAID35 WAGB 171330 METAR WAGB 171330Z 00000KT 7000 FEW012CB FEW013 28/26 Q1011=  
17-Apr-2023 SAID35 WAGB 171400 METAR WAGB 171400Z 00000KT 7000 SCT013 28/26 Q1012=  
17-Apr-2023 SAID35 WAGB 171430 METAR WAGB 171430Z 00000KT 7000 SCT012 28/26 Q1012=  
17-Apr-2023 SAID35 WAGB 171500 METAR WAGB 171500Z 00000KT 7000 SCT012 27/26 Q1013=  
17-Apr-2023 SAID35 WAGB 171530 METAR WAGB 171530Z 00000KT 6000 SCT012 27/26 Q1013=  
17-Apr-2023 SAID35 WAGB 171600 METAR WAGB 171600Z 19003KT 6000 SCT012 26/25 Q1013=  
17-Apr-2023 SAID35 WAGB 171630 METAR WAGB 171630Z 00000KT 6000 SCT012 26/25 Q1013=  
17-Apr-2023 SAID35 WAGB 171700 METAR WAGB 171700Z 00000KT 5000 HZ SCT011 26/25 Q1012=  
17-Apr-2023 SAID35 WAGB 171730 METAR WAGB 171730Z 00000KT 5000 HZ SCT011 26/25 Q1012=  
17-Apr-2023 SAID35 WAGB 171800 METAR WAGB 171800Z 00000KT 5000 VCTS FEW010CB SCT011 25/24 Q1012=  
17-Apr-2023 SAID35 WAGB 171830 METAR WAGB 171830Z 00000KT 5000 VCTS FEW010CB SCT011 25/24 Q1012=  
17-Apr-2023 SAID35 WAGB 171900 METAR WAGB 171900Z 00000KT 5000 HZ FEW010CB SCT011 25/24 Q1012=  
17-Apr-2023 SAID35 WAGB 171930 METAR WAGB 171930Z 00000KT 5000 HZ FEW010CB SCT011 25/24 Q1012=  
17-Apr-2023 SAID35 WAGB 172000 METAR WAGB 172000Z 00000KT 5000 VCTS FEW010CB SCT011 25/24 Q1011=  
17-Apr-2023 SAID35 WAGB 172030 METAR WAGB 172030Z 00000KT 5000 FEW010CB SCT011 25/24 Q1011=  
17-Apr-2023 SAID35 WAGB 172100 METAR WAGB 172100Z 00000KT 5000 HZ FEW009CB SCT010 25/24 Q1011=  
17-Apr-2023 SAID35 WAGB 172200 METAR WAGB 172200Z 00000KT 5000 HZ FEW009CB SCT010 25/24 Q1012=  
17-Apr-2023 SAID35 WAGB 172230 METAR WAGB 172230Z 00000KT 5000 HZ FEW009CB SCT010 25/24 Q1012=  
17-Apr-2023 SAID35 WAGB 172300 METAR WAGB 172300Z 00000KT 6000 SCT009 25/24 Q1012=  
17-Apr-2023 SAID35 WAGB 172330 METAR WAGB 172330Z 00000KT 6000 SCT009 25/24 Q1012=  
18-Apr-2023 SAID35 WAGB 180000 METAR WAGB 180000Z 04004KT 7000 NSC 26/24 Q1012 NOSIG=  
18-Apr-2023 SAID35 WAGB 180030 METAR WAGB 180030Z VRB02KT 7000 FEW006 26/24 Q1012 NOSIG=  
18-Apr-2023 SAID35 WAGB 180100 METAR WAGB 180100Z 02004KT 8000 FEW006 27/24 Q1012 NOSIG=  
18-Apr-2023 SAID35 WAGB 180130 METAR WAGB 180130Z 01004KT 9000 FEW007 28/24 Q1012 NOSIG=  
18-Apr-2023 SAID35 WAGB 180200 METAR WAGB 180200Z 35003KT 9999 SCT009 29/24 Q1012 NOSIG=  
18-Apr-2023 SAID35 WAGB 180230 METAR WAGB 180230Z 00000KT 9999 BKN010 29/24 Q1012 NOSIG=  
18-Apr-2023 SAID35 WAGB 180300 METAR WAGB 180300Z 31003KT 9999 BKN010 30/24 Q1012 NOSIG=  
18-Apr-2023 SAID35 WAGB 180330 METAR WAGB 180330Z VRB02KT 9999 BKN012 31/23 Q1011 NOSIG=  
18-Apr-2023 SAID35 WAGB 180400 METAR WAGB 180400Z 00000KT 9999 BKN012 31/24 Q1010 NOSIG=  
18-Apr-2023 SAID35 WAGB 180430 METAR WAGB 180430Z 05003KT 9999 BKN012 32/24 Q1010 NOSIG=  
18-Apr-2023 SAID35 WAGB 180500 METAR WAGB 180500Z VRB02KT 9999 BKN012 33/24 Q1009 NOSIG=  
18-Apr-2023 SAID35 WAGB 180530 METAR WAGB 180500Z 13003KT 9999 BKN012 33/24 Q1009 NOSIG=  
18-Apr-2023 SAID35 WAGB 180600 METAR WAGB 180600Z 20005KT 9999 BKN015 34/25 Q1009 NOSIG=  
18-Apr-2023 SAID35 WAGB 180630 METAR WAGB 180630Z 00000KT 9999 BKN014 34/25 Q1008 NOSIG=  
18-Apr-2023 SAID35 WAGB 180700 METAR WAGB 180700Z 02003KT 9999 BKN015 34/24 Q1008 NOSIG=  
18-Apr-2023 SAID35 WAGB 180730 METAR WAGB 180730Z 00000KT 9999 BKN015 34/25 Q1007 NOSIG=  
18-Apr-2023 SAID35 WAGB 180800 METAR WAGB 180800Z 07003KT 9999 BKN015 34/24 Q1007 NOSIG=  
18-Apr-2023 SAID35 WAGB 180830 METAR WAGB 180830Z 00000KT 9999 BKN015 34/25 Q1007 NOSIG=  
18-Apr-2023 SAID35 WAGB 180900 METAR WAGB 180900Z 00000KT 9999 FEW014CB 34/25 Q1007 NOSIG=  
18-Apr-2023 SAID35 WAGB 180930 METAR WAGB 180930Z 00000KT 9999 FEW014CB 34/25 Q1007 NOSIG=  
18-Apr-2023 SAID35 WAGB 181000 METAR WAGB 181000Z 00000KT 9999 FEW014CB 33/26 Q1007=  
18-Apr-2023 SAID35 WAGB 181030 METAR WAGB 181030Z 00000KT 9999 FEW014CB 33/26 Q1007=  
18-Apr-2023 SAID35 WAGB 181100 METAR WAGB 181100Z 00000KT 9000 FEW014CB FEW015 32/26 Q1008 NOSIG=  
18-Apr-2023 SAID35 WAGB 181130 METAR WAGB 181130Z 00000KT 9000 FEW014CB 32/26 Q1008 NOSIG=  
18-Apr-2023 SAID35 WAGB 181200 METAR WAGB 181200Z 00000KT 8000 FEW014CB FEW015 30/26 Q1009=  
18-Apr-2023 SAID35 WAGB 181230 METAR WAGB 181230Z 00000KT 8000 FEW014CB FEW015 29/26 Q1010=  
18-Apr-2023 SAID35 WAGB 181300 METAR WAGB 181300Z 02002KT 8000 FEW011CB 29/27 Q1010=  
18-Apr-2023 SAID35 WAGB 181300 CCA METAR COR WAGB 181300Z 02002KT 8000 FEW014CB 29/27 Q1010=  
18-Apr-2023 SAID35 WAGB 181330 METAR WAGB 181330Z 00000KT 7000 FEW011CB 29/27 Q1010=  
18-Apr-2023 SAID35 WAGB 181330 CCA METAR COR WAGB 181330Z 00000KT 7000 FEW014CB 29/27 Q1010=  
18-Apr-2023 SAID35 WAGB 181400 METAR WAGB 181400Z 00000KT 6000 FEW013CB 28/26 Q1010=  
18-Apr-2023 SAID35 WAGB 181430 METAR WAGB 181430Z 00000KT 6000 FEW013CB 28/26 Q1010=  
18-Apr-2023 SAID35 WAGB 181500 METAR WAGB 181500Z 00000KT 5000 HZ FEW013 28/26 Q1010=  
18-Apr-2023 SAID35 WAGB 181530 METAR WAGB 181530Z 00000KT 5000 HZ FEW013 28/26 Q1010=  
18-Apr-2023 SAID35 WAGB 181600 METAR WAGB 181600Z 00000KT 5000 HZ FEW013 28/26 Q1010=  
18-Apr-2023 SAID35 WAGB 181630 METAR WAGB 181630Z 00000KT 5000 HZ FEW013 27/26 Q1010=  
18-Apr-2023 SAID35 WAGB 181700 METAR WAGB 181700Z 00000KT 4000 HZ FEW013 27/26 Q1010=  
18-Apr-2023 SAID35 WAGB 181800 METAR WAGB 181800Z 00000KT 4000 HZ FEW012 27/26 Q1009=  
18-Apr-2023 SAID35 WAGB 181830 METAR WAGB 181830Z 00000KT 4000 HZ FEW012 26/26 Q1009=  
18-Apr-2023 SAID35 WAGB 181900 METAR WAGB 181900Z 00000KT 5000 HZ FEW011 26/25 Q1009=  
18-Apr-2023 SAID35 WAGB 181930 METAR WAGB 181930Z 00000KT 5000 HZ FEW011 26/25 Q1009=  
18-Apr-2023 SAID35 WAGB 182000 METAR WAGB 182000Z 00000KT 5000 HZ SCT011 26/25 Q1008=  
18-Apr-2023 SAID35 WAGB 182030 METAR WAGB 182030Z 00000KT 5000 HZ SCT011 26/25 Q1008=  
18-Apr-2023 SAID35 WAGB 182100 METAR WAGB 182100Z 00000KT 5000 HZ SCT011 26/25 Q1008=  
18-Apr-2023 SAID35 WAGB 182130 METAR WAGB 182130Z 00000KT 5000 HZ SCT011 26/25 Q1008=  
18-Apr-2023 SAID35 WAGB 182200 METAR WAGB 182200Z 04002KT 6000 FEW009CB SCT010 26/25 Q1009=  
18-Apr-2023 SAID35 WAGB 182230 METAR WAGB 182230Z 33002KT 6000 FEW009CB SCT010 26/25 Q1009=  
18-Apr-2023 SAID35 WAGB 182300 METAR WAGB 182300Z 36002KT 6000 FEW009CB SCT010 26/25 Q1010=  
19-Apr-2023 SAID35 WAGB 190000 METAR WAGB 190000Z 00000KT 7000 FEW012 BKN013 27/25 Q1010 NOSIG=  
19-Apr-2023 SAID35 WAGB 190030 METAR WAGB 190030Z 00000KT 8000 BKN012 28/25 Q1010 NOSIG=  
19-Apr-2023 SAID35 WAGB 190100 METAR WAGB 190100Z 00000KT 8000 BKN012 28/25 Q1010 NOSIG=  
19-Apr-2023 SAID35 WAGB 190130 METAR WAGB 190130Z 25003KT 9000 SCT010 30/25 Q1011 NOSIG=  
19-Apr-2023 SAID35 WAGB 190200 METAR WAGB 190200Z 35002KT 9999 BKN011 30/25 Q1011 NOSIG=  
19-Apr-2023 SAID35 WAGB 190230 METAR WAGB 190230Z 31002KT 9999 BKN011 31/25 Q1010 NOSIG=  
19-Apr-2023 SAID35 WAGB 190300 METAR WAGB 190300Z 35003KT 9999 BKN011 31/25 Q1010 NOSIG=  
19-Apr-2023 SAID35 WAGB 190330 METAR WAGB 190330Z 35005KT 9999 BKN012 32/26 Q1009 NOSIG=  
19-Apr-2023 SAID35 WAGB 190400 METAR WAGB 190400Z 35006KT 9999 BKN012 32/25 Q1008 NOSIG=  
19-Apr-2023 SAID35 WAGB 190430 METAR WAGB 190430Z 05005KT 9999 BKN012 32/26 Q1008 NOSIG=  
19-Apr-2023 SAID35 WAGB 190500 METAR WAGB 190500Z 01005KT 9999 BKN013 33/25 Q1007 NOSIG=  
19-Apr-2023 SAID35 WAGB 190530 METAR WAGB 190530Z 34003KT 9999 FEW012TCU BKN013 32/25 Q1006 NOSIG=  
19-Apr-2023 SAID35 WAGB 190600 METAR WAGB 190600Z 27003KT 9999 FEW013TCU BKN014 31/26 Q1006 NOSIG=  
19-Apr-2023 SAID35 WAGB 190630 METAR WAGB 190630Z 27006KT 9999 FEW013TCU BKN014 31/26 Q1006 NOSIG=  
19-Apr-2023 SAID35 WAGB 190700 METAR WAGB 190700Z 27008KT 9999 FEW013TCU SCT014 28/24 Q1005 NOSIG=  
19-Apr-2023 SAID35 WAGB 190730 METAR WAGB 190730Z 25004KT 9999 FEW013TCU SCT014 28/24 Q1005 NOSIG=  
19-Apr-2023 SAID35 WAGB 190800 METAR WAGB 190800Z 00000KT 9999 FEW013CB SCT014 28/24 Q1005 NOSIG=  
19-Apr-2023 SAID35 WAGB 190830 METAR WAGB 190830Z 00000KT 9999 FEW013CB SCT014 28/24 Q1005 NOSIG=  
19-Apr-2023 SAID35 WAGB 190900 METAR WAGB 190900Z 00000KT 9999 FEW013CB FEW014 28/25 Q1005 NOSIG=  
19-Apr-2023 SAID35 WAGB 191000 METAR WAGB 191000Z 00000KT 9999 FEW013CB FEW014 28/25 Q1005 NOSIG=  
19-Apr-2023 SAID35 WAGB 191030 METAR WAGB 191030Z 00000KT 9999 FEW013CB FEW014 28/25 Q1005 NOSIG=  
19-Apr-2023 SAID35 WAGB 191100 METAR WAGB 191100Z 00000KT 9000 VCTS FEW013CB FEW014 27/24 Q1006=  
19-Apr-2023 SAID35 WAGB 191200 METAR WAGB 191200Z 00000KT 8000 VCTS FEW012 FEW013 27/25 Q1007=  
19-Apr-2023 SAID35 WAGB 191230 METAR WAGB 191230Z 00000KT 8000 VCTS FEW012 FEW013 27/25 Q1008=  
19-Apr-2023 SAID35 WAGB 191300 METAR WAGB 191300Z 00000KT 8000 VCTS FEW012 SCT013 27/25 Q1007=  
19-Apr-2023 SAID35 WAGB 191330 METAR WAGB 191330Z 00000KT 8000 VCTS FEW012 SCT013 27/25 Q1008=  
19-Apr-2023 SAID35 WAGB 191430 METAR WAGB 191430Z 00000KT 8000 VCTS FEW012 SCT013 27/25 Q1008=  
19-Apr-2023 SAID35 WAGB 191500 METAR WAGB 191500Z 00000KT 8000 FEW012 SCT013 26/25 Q1008=  
19-Apr-2023 SAID35 WAGB 191530 METAR WAGB 191530Z 00000KT 8000 FEW012 SCT013 26/25 Q1008=  
19-Apr-2023 SAID35 WAGB 191600 METAR WAGB 191600Z 00000KT 6000 FEW012 SCT013 25/24 Q1008=  
19-Apr-2023 SAID35 WAGB 191630 METAR WAGB 191630Z 00000KT 6000 FEW012 SCT013 25/24 Q1008=  
19-Apr-2023 SAID35 WAGB 191700 METAR WAGB 191700Z 00000KT 6000 FEW012 SCT013 25/24 Q1008=  
19-Apr-2023 SAID35 WAGB 191730 METAR WAGB 191730Z 00000KT 6000 FEW012 SCT013 25/24 Q1008=  
19-Apr-2023 SAID35 WAGB 191800 METAR WAGB 191800Z 00000KT 6000 SCT010 25/24 Q1007=  
19-Apr-2023 SAID35 WAGB 191830 METAR WAGB 191830Z 00000KT 6000 SCT010 25/24 Q1007=  
19-Apr-2023 SAID35 WAGB 191900 METAR WAGB 191900Z 00000KT 5000 HZ SCT009 25/24 Q1007=  
19-Apr-2023 SAID35 WAGB 192000 METAR WAGB 192000Z 00000KT 5000 HZ SCT009 25/24 Q1007=  
19-Apr-2023 SAID35 WAGB 192030 METAR WAGB 192030Z 00000KT 5000 HZ SCT009 25/24 Q1007=  
19-Apr-2023 SAID35 WAGB 192100 METAR WAGB 192100Z 00000KT 5000 HZ BKN008 25/24 Q1006=  
19-Apr-2023 SAID35 WAGB 192130 METAR WAGB 192130Z 00000KT 3000 BR BKN008 25/24 Q1006=  
19-Apr-2023 SAID35 WAGB 192200 METAR WAGB 192200Z 00000KT 5000 BR BKN009 25/24 Q1007=  
19-Apr-2023 SAID35 WAGB 192230 METAR WAGB 192230Z 00000KT 5000 BR BKN009 25/24 Q1007=  
19-Apr-2023 SAID35 WAGB 192300 METAR WAGB 192300Z 00000KT 5000 BR BKN009 25/24 Q1007=  
19-Apr-2023 SAID35 WAGB 192330 METAR WAGB 192330Z 00000KT 5000 BR BKN009 25/24 Q1007=  
19-Apr-2023 SAID35 WAGB 192330 CCA METAR WAGB 192330Z 00000KT 5000 BR SCT009 25/24 Q1007=  
20-Apr-2023 SAID35 WAGB 200000 METAR WAGB 200000Z 00000KT 2000 BR BKN006 25/24 Q1008 NOSIG=  
20-Apr-2023 SAID35 WAGB 200030 METAR WAGB 200030Z 32003KT 2000 SCT009 26/25 Q1008 NOSIG=  
20-Apr-2023 SAID35 WAGB 200100 METAR WAGB 200100Z 35003KT 5000 BKN010 28/25 Q1008 NOSIG=  
20-Apr-2023 SAID35 WAGB 200130 METAR WAGB 200130Z 03002KT 5000 BKN009 29/25 Q1008 NOSIG=  
20-Apr-2023 SAID35 WAGB 200200 METAR WAGB 200200Z 02003KT 7000 SCT010 29/25 Q1008 NOSIG=  
20-Apr-2023 SAID35 WAGB 200230 METAR WAGB 200230Z 02005KT 8000 SCT010 31/25 Q1008 NOSIG=  
20-Apr-2023 SAID35 WAGB 200300 METAR WAGB 200300Z 01004KT 9000 BKN011 30/25 Q1008 NOSIG=  
20-Apr-2023 SAID35 WAGB 200330 METAR WAGB 200330Z 04004KT 9000 BKN011 31/25 Q1008 NOSIG=  
20-Apr-2023 SAID35 WAGB 200400 METAR WAGB 200400Z 11003KT 9000 BKN011 30/26 Q1007 NOSIG=  
20-Apr-2023 SAID35 WAGB 200430 METAR WAGB 200430Z 05004KT 9000 FEW011TCU BKN012 31/26 Q1007 NOSIG=  
20-Apr-2023 SAID35 WAGB 200500 METAR WAGB 200500Z 01008KT 9000 FEW011TCU SCT012 31/25 Q1006 NOSIG=  
20-Apr-2023 SAID35 WAGB 200530 METAR WAGB 200530Z 01007KT 9000 FEW011TCU BKN012 30/25 Q1006 NOSIG=  
20-Apr-2023 SAID35 WAGB 200600 METAR WAGB 200600Z 26003KT 6000 TS FEW012CB BKN013 32/24 Q1006 TEMPO FM0700 3000 -TSRA=  
20-Apr-2023 SAID35 WAGB 200630 METAR WAGB 200630Z 23005KT 4000 -RA FEW012CB BKN013 32/24 Q1006 NOSIG=  
20-Apr-2023 SAID35 WAGB 200700 METAR WAGB 200700Z 24005KT 7000 FEW013CB BKN014 28/26 Q1005 RERA NOSIG=  
20-Apr-2023 SAID35 WAGB 200730 METAR WAGB 200730Z 00000KT 7000 FEW013CB BKN014 28/26 Q1005 NOSIG=  
20-Apr-2023 SAID35 WAGB 200800 METAR WAGB 200800Z 00000KT 7000 FEW014CB BKN015 28/25 Q1005=  
20-Apr-2023 SAID35 WAGB 200830 METAR WAGB 200830Z 00000KT 7000 FEW014CB BKN015 28/25 Q1005 NOSIG=  
20-Apr-2023 SAID35 WAGB 200900 METAR WAGB 200900Z 00000KT 7000 FEW014CB BKN015 28/26 Q1005 NOSIG=  
20-Apr-2023 SAID35 WAGB 200930 METAR WAGB 200930Z 00000KT 7000 FEW013CB BKN014 28/25 Q1006 NOSIG=  
20-Apr-2023 SAID35 WAGB 201000 METAR WAGB 201000Z 00000KT 7000 FEW013CB BKN014 28/25 Q1006 NOSIG=  
20-Apr-2023 SAID35 WAGB 201100 METAR WAGB 201100Z 00000KT 7000 VCTS FEW013CB SCT014 27/26 Q1007=  
20-Apr-2023 SAID35 WAGB 201200 METAR WAGB 201200Z 00000KT 7000 VCTS FEW012CB SCT013 27/25 Q1008=  
20-Apr-2023 SAID35 WAGB 201230 METAR WAGB 201230Z 00000KT 7000 VCTS FEW012CB SCT013 27/25 Q1008=  
20-Apr-2023 SAID35 WAGB 201300 METAR WAGB 201300Z 00000KT 6000 VCTS FEW012CB SCT013 27/25 Q1009=  
20-Apr-2023 SAID35 WAGB 201330 METAR WAGB 201330Z 00000KT 6000 FEW012CB SCT013 27/25 Q1009=  
20-Apr-2023 SAID35 WAGB 201400 METAR WAGB 201400Z 18003KT 6000 FEW012CB BKN013 26/25 Q1010=  
20-Apr-2023 SAID35 WAGB 201430 METAR WAGB 201430Z 20004KT 5000 FEW011CB BKN012 26/25 Q1010=  
20-Apr-2023 SAID35 WAGB 201500 METAR WAGB 201500Z 16003KT 5000 FEW011CB BKN012 26/25 Q1010=  
20-Apr-2023 SAID35 WAGB 201530 METAR WAGB 201530Z 00000KT 5000 FEW011CB BKN012 26/25 Q1010=  
20-Apr-2023 SAID35 WAGB 201600 METAR WAGB 201600Z 22005KT 5000 VCTS FEW011CB BKN012 25/24 Q1010=  
20-Apr-2023 SAID35 WAGB 201630 METAR WAGB 201630Z 20003KT 5000 VCTS FEW011CB BKN012 25/24 Q1010=  
20-Apr-2023 SAID35 WAGB 201700 METAR WAGB 201700Z 26004KT 5000 VCTS FEW011CB BKN012 26/25 Q1008=  
20-Apr-2023 SAID35 WAGB 201730 METAR WAGB 201730Z 0000KT 5000 FEW011CB BKN012 26/25 Q1008=  
20-Apr-2023 SAID35 WAGB 201800 METAR WAGB 201800Z 00000KT 4000 BR BKN011 25/23 Q1008=  
20-Apr-2023 SAID35 WAGB 201830 METAR WAGB 201830Z 00000KT 4000 DZ BKN011 25/23 Q1008=  
20-Apr-2023 SAID35 WAGB 201900 METAR WAGB 201900Z 00000KT 4000 VCSH BKN011 24/23 Q1007=  
20-Apr-2023 SAID35 WAGB 201930 METAR WAGB 201930Z 00000KT 4000 BR BKN011 24/23 Q1007=  
20-Apr-2023 SAID35 WAGB 202000 METAR WAGB 202000Z 00000KT 4000 BR BKN010 24/23 Q1007=  
20-Apr-2023 SAID35 WAGB 202030 METAR WAGB 202030Z 00000KT 4000 BR BKN010 24/23 Q1007=  
20-Apr-2023 SAID35 WAGB 202100 METAR WAGB 202100Z 00000KT 4000 BR BKN010 24/23 Q1007=  
20-Apr-2023 SAID35 WAGB 202130 METAR WAGB 202130Z 00000KT 4000 BR BKN010 24/23 Q1007=  
20-Apr-2023 SAID35 WAGB 202200 METAR WAGB 202200Z 00000KT 5000 SCT010 24/23 Q1007=  
20-Apr-2023 SAID35 WAGB 202230 METAR WAGB 202230Z 00000KT 5000 SCT010 24/23 Q1007=  
20-Apr-2023 SAID35 WAGB 202300 METAR WAGB 202300Z 00000KT 6000 SCT010 24/24 Q1008=  
20-Apr-2023 SAID35 WAGB 202330 METAR WAGB 202330Z 00000KT 6000 SCT010 24/24 Q1008=  
21-Apr-2023 SAID35 WAGB 210000 METAR WAGB 210000Z 06003KT 6000 BKN009 25/24 Q1008 NOSIG=  
21-Apr-2023 SAID35 WAGB 210030 METAR WAGB 210030Z 00000KT 6000 BKN009 26/24 Q1009 NOSIG=  
21-Apr-2023 SAID35 WAGB 210100 METAR WAGB 210100Z 05003KT 8000 SCT010 27/24 Q1009 NOSIG=  
21-Apr-2023 SAID35 WAGB 210130 METAR WAGB 210130Z 00000KT 8000 SCT010 28/24 Q1009 NOSIG=  
21-Apr-2023 SAID35 WAGB 210200 METAR WAGB 210200Z 21005KT 9000 BKN010 28/24 Q1010 NOSIG=  
21-Apr-2023 SAID35 WAGB 210230 METAR WAGB 210230Z 19003KT 9000 BKN010 28/24 Q1010 NOSIG=  
21-Apr-2023 SAID35 WAGB 210300 METAR WAGB 210300Z 23006KT 9999 BKN012 29/24 Q1009 NOSIG=  
21-Apr-2023 SAID35 WAGB 210330 METAR WAGB 210330Z 19005KT 9999 BKN013 30/24 Q1009 NOSIG=  
21-Apr-2023 SAID35 WAGB 210400 METAR WAGB 210400Z 18005KT 9999 BKN013 30/24 Q1008 NOSIG=  
21-Apr-2023 SAID35 WAGB 210430 METAR WAGB 210430Z 23004KT 9999 SCT013 31/24 Q1008 NOSIG=  
21-Apr-2023 SAID35 WAGB 210500 METAR WAGB 210500Z 27005KT 9999 SCT014 32/24 Q1008 NOSIG=  
21-Apr-2023 SAID35 WAGB 210530 METAR WAGB 210530Z 00000KT 9999 SCT014 32/24 Q1007 NOSIG=  
21-Apr-2023 SAID35 WAGB 210600 METAR WAGB 210600Z 26004KT 9999 BKN014 32/24 Q1006 NOSIG=  
21-Apr-2023 SAID35 WAGB 210630 METAR WAGB 210630Z 00000KT 9999 BKN014 32/24 Q1006 NOSIG=  
21-Apr-2023 SAID35 WAGB 210700 METAR WAGB 210700Z 00000KT 9999 BKN014 33/25 Q1006 NOSIG=  
21-Apr-2023 SAID35 WAGB 210730 METAR WAGB 210730Z 00000KT 9999 BKN014 33/25 Q1006 NOSIG=  
21-Apr-2023 SAID35 WAGB 210800 METAR WAGB 210800Z 00000KT 9999 BKN014 33/24 Q1005 NOSIG=  
21-Apr-2023 SAID35 WAGB 210900 METAR WAGB 210900Z 05004KT 9999 FEW014CB SCT015 34/24 Q1006 NOSIG=  
21-Apr-2023 SAID35 WAGB 210930 METAR WAGB 210930Z 00000KT 9999 FEW014CB BKN015 33/25 Q1006 NOSIG=  
21-Apr-2023 SAID35 WAGB 211000 METAR WAGB 211000Z 00000KT 9999 FEW014CB SCT015 32/25 Q1006 NOSIG=  
21-Apr-2023 SAID35 WAGB 211030 METAR WAGB 211030Z 00000KT 9999 FEW014CB SCT015 31/25 Q1007 NOSIG=  
21-Apr-2023 SAID35 WAGB 211100 METAR WAGB 211100Z 00000KT 9999 FEW013CB FEW014 30/25 Q1007 NOSIG=  
21-Apr-2023 SAID35 WAGB 211130 METAR WAGB 211130Z 00000KT 9999 FEW013CB FEW014 30/25 Q1008 NOSIG=  
21-Apr-2023 SAID35 WAGB 211200 METAR WAGB 211200Z 00000KT 9999 SCT013 29/26 Q1007 NOSIG=  
21-Apr-2023 SAID35 WAGB 211230 METAR WAGB 211230Z 00000KT 9999 SCT013 29/26 Q1008 NOSIG=  
21-Apr-2023 SAID35 WAGB 211300 METAR WAGB 211300Z 00000KT 9000 SCT012 28/26 Q1008 NOSIG=  
21-Apr-2023 SAID35 WAGB 211330 METAR WAGB 211330Z 00000KT 9000 SCT012 28/26 Q1009 NOSIG=  
21-Apr-2023 SAID35 WAGB 211400 METAR WAGB 211400Z 00000KT 8000 FEW012 28/26 Q1009 NOSIG=  
21-Apr-2023 SAID35 WAGB 211430 METAR WAGB 211430Z 00000KT 8000 FEW012 28/26 Q1009 NOSIG=  
21-Apr-2023 SAID35 WAGB 211500 METAR WAGB 211500Z 00000KT 8000 SCT012 27/25 Q1009 NOSIG=  
21-Apr-2023 SAID35 WAGB 211530 METAR WAGB 211530Z 00000KT 8000 SCT012 27/25 Q1009 NOSIG=  
21-Apr-2023 SAID35 WAGB 211600 METAR WAGB 211600Z 00000KT 7000 SCT012 26/25 Q1009 NOSIG=  
21-Apr-2023 SAID35 WAGB 211630 METAR WAGB 211630Z 00000KT 7000 SCT012 26/25 Q1009 NOSIG=  
21-Apr-2023 SAID35 WAGB 211700 METAR WAGB 211700Z 00000KT 6000 SCT012 26/25 Q1009 NOSIG=  
21-Apr-2023 SAID35 WAGB 211730 METAR WAGB 211730Z 00000KT 6000 SCT012 26/25 Q1009 NOSIG=  
21-Apr-2023 SAID35 WAGB 211800 METAR WAGB 211800Z 00000KT 5000 VCSH SCT011 26/25 Q1008 NOSIG=  
21-Apr-2023 SAID35 WAGB 211830 METAR WAGB 211830Z 00000KT 5000 VCSH SCT011 26/25 Q1008 NOSIG=  
21-Apr-2023 SAID35 WAGB 211900 METAR WAGB 211900Z 00000KT 5000 BR SCT011 25/25 Q1008 NOSIG=  
21-Apr-2023 SAID35 WAGB 211930 METAR WAGB 211930Z 00000KT 5000 BR SCT011 25/25 Q1008 NOSIG=  
21-Apr-2023 SAID35 WAGB 212000 METAR WAGB 212000Z 00000KT 5000 VCSH BKN011 25/24 Q1008 NOSIG=  
21-Apr-2023 SAID35 WAGB 212030 METAR WAGB 212030Z 00000KT 5000 VCSH BKN011 25/24 Q1007 NOSIG=  
21-Apr-2023 SAID35 WAGB 212100 METAR WAGB 212100Z 00000KT 4000 BR BKN010 25/24 Q1007 NOSIG=  
21-Apr-2023 SAID35 WAGB 212130 METAR WAGB 212130Z 00000KT 4000 BR BKN010 25/24 Q1007 NOSIG=  
21-Apr-2023 SAID35 WAGB 212200 METAR WAGB 212200Z 00000KT 5000 BR SCT010 25/24 Q1007 NOSIG=  
21-Apr-2023 SAID35 WAGB 212230 METAR WAGB 212230Z 00000KT 5000 BR SCT010 25/24 Q1007 NOSIG=  
21-Apr-2023 SAID35 WAGB 212300 METAR WAGB 212300Z 34003KT 6000 SCT011 25/24 Q1008 NOSIG=  
21-Apr-2023 SAID35 WAGB 212330 METAR WAGB 212330Z 00000KT 6000 SCT011 25/24 Q1008 NOSIG=  
22-Apr-2023 SAID35 WAGB 220000 METAR WAGB 220000Z 05005KT 7000 FEW011 27/25 Q1009 NOSIG=  
22-Apr-2023 SAID35 WAGB 220030 METAR WAGB 220030Z 08003KT 7000 FEW011 27/25 Q1009 NOSIG=  
22-Apr-2023 SAID35 WAGB 220100 METAR WAGB 220100Z 04006KT 8000 FEW011 28/26 Q1009 NOSIG=  
22-Apr-2023 SAID35 WAGB 220200 METAR WAGB 220200Z 04006KT 9000 FEW012 28/26 Q1009 NOSIG=  
22-Apr-2023 SAID35 WAGB 220230 METAR WAGB 220230Z 04006KT 9000 FEW012 28/26 Q1009 NOSIG=  
22-Apr-2023 SAID35 WAGB 220300 METAR WAGB 220300Z 04003KT 9000 FEW012 29/25 Q1010 NOSIG=  
22-Apr-2023 SAID35 WAGB 220330 METAR WAGB 220330Z 04003KT 9000 FEW012 29/25 Q1010 NOSIG=  
22-Apr-2023 SAID35 WAGB 220400 METAR WAGB 220400Z 16003KT 9999 SCT012 30/25 Q1008 NOSIG=  
22-Apr-2023 SAID35 WAGB 220430 METAR WAGB 220430Z 00000KT 9999 SCT012 30/25 Q1008 NOSIG=  
22-Apr-2023 SAID35 WAGB 220500 METAR WAGB 220500Z 04006KT 9999 BKN013 30/25 Q1007 NOSIG=  
22-Apr-2023 SAID35 WAGB 220500 CCA METAR WAGB 220500Z 04006KT 9999 FEW012TCU BKN013 30/25 Q1007=  
22-Apr-2023 SAID35 WAGB 220530 METAR WAGB 220530Z 04006KT 9999 FEW012TCU BKN013 30/25 Q1007 NOSIG=  
22-Apr-2023 SAID35 WAGB 220600 METAR WAGB 220600Z 10003KT 9999 FEW012TCU SCT013 31/25 Q1006 NOSIG=  
22-Apr-2023 SAID35 WAGB 220630 METAR WAGB 220630Z 10003KT 9999 FEW013TCU SCT014 31/25 Q1006 NOSIG=  
22-Apr-2023 SAID35 WAGB 220700 METAR WAGB 220700Z 00000KT 9999 FEW012TCU SCT013 33/26 Q1005 NOSIG=  
22-Apr-2023 SAID35 WAGB 220730 METAR WAGB 220730Z 00000KT 9999 FEW012TCU SCT013 33/26 Q1005 NOSIG=  
22-Apr-2023 SAID35 WAGB 220800 METAR WAGB 220800Z 00000KT 9999 FEW013TCU SCT014 33/26 Q1005 NOSIG=  
22-Apr-2023 SAID35 WAGB 220830 METAR WAGB 220830Z 00000KT 9999 TS FEW013CB SCT014 33/26 Q1005 NOSIG=  
22-Apr-2023 SAID35 WAGB 220900 METAR WAGB 220900Z 00000KT 7000 VCSH FEW013CB BKN014 30/23 Q1006 TEMPO FM1030 4000 RA=  
22-Apr-2023 SAID35 WAGB 220930 METAR WAGB 220930Z 00000KT 6000 -RA FEW013CB BKN014 30/23 Q1006 NOSIG=  
22-Apr-2023 SAID35 WAGB 221000 METAR WAGB 221000Z 00000KT 6000 -RA FEW013CB BKN014 29/24 Q1008 NOSIG=  
22-Apr-2023 SAID35 WAGB 221030 METAR WAGB 221030Z 00000KT 6000 -RA FEW013CB BKN014 29/24 Q1008 NOSIG=  
22-Apr-2023 SAID35 WAGB 221100 METAR WAGB 221100Z 00000KT 4000 -RA FEW013CB BKN014 27/24 Q1008 NOSIG=  
22-Apr-2023 SAID35 WAGB 221130 METAR WAGB 221130Z 00000KT 4000 -RA FEW013CB BKN014 27/24 Q1008 NOSIG=  
22-Apr-2023 SAID35 WAGB 221200 METAR WAGB 221200Z 05003KT 6000 FEW012CB BKN013 26/24 Q1009=  
22-Apr-2023 SAID35 WAGB 221230 METAR WAGB 221230Z 08002KT 6000 FEW012CB BKN013 26/24 Q1009=  
22-Apr-2023 SAID35 WAGB 221300 METAR WAGB 221300Z 00000KT 7000 VCTS FEW011CB SCT012 26/24 Q1009=  
22-Apr-2023 SAID35 WAGB 221330 METAR WAGB 221330Z 00000KT 7000 VCTS FEW011CB SCT012 26/24 Q1009=  
22-Apr-2023 SAID35 WAGB 221400 METAR WAGB 221400Z 00000KT 7000 SCT012 25/24 Q1009=  
22-Apr-2023 SAID35 WAGB 221430 METAR WAGB 221430Z 00000KT 7000 SCT012 25/24 Q1009=  
22-Apr-2023 SAID35 WAGB 221500 METAR WAGB 221500Z 00000KT 7000 FEW013 25/23 Q1010=  
22-Apr-2023 SAID35 WAGB 221530 METAR WAGB 221530Z 00000KT 7000 FEW013 25/23 Q1010=  
22-Apr-2023 SAID35 WAGB 221600 METAR WAGB 221600Z 00000KT 7000 FEW012 25/24 Q1010=  
22-Apr-2023 SAID35 WAGB 221630 METAR WAGB 221630Z 00000KT 7000 FEW012 25/24 Q1010=  
22-Apr-2023 SAID35 WAGB 221700 METAR WAGB 221700Z 00000KT 6000 FEW011 24/24 Q1009=  
22-Apr-2023 SAID35 WAGB 221730 METAR WAGB 221730Z 00000KT 6000 FEW011 24/24 Q1009=  
22-Apr-2023 SAID35 WAGB 221800 METAR WAGB 221800Z 00000KT 6000 FEW011 24/23 Q1008=  
22-Apr-2023 SAID35 WAGB 221830 METAR WAGB 221830Z 00000KT 6000 FEW011 24/23 Q1008=  
22-Apr-2023 SAID35 WAGB 221900 METAR WAGB 221900Z 00000KT 6000 FEW011 24/23 Q1008=  
22-Apr-2023 SAID35 WAGB 221930 METAR WAGB 221930Z 00000KT 6000 FEW011 24/23 Q1008=  
22-Apr-2023 SAID35 WAGB 222000 METAR WAGB 222000Z 00000KT 6000 FEW011 24/23 Q1008=  
22-Apr-2023 SAID35 WAGB 222030 METAR WAGB 222030Z 00000KT 5000 BR FEW011 24/23 Q1008=  
22-Apr-2023 SAID35 WAGB 222100 METAR WAGB 222100Z 00000KT 5000 BR FEW010 24/23 Q1008=  
22-Apr-2023 SAID35 WAGB 222130 METAR WAGB 222130Z 00000KT 5000 BR FEW010 24/23 Q1009=  
22-Apr-2023 SAID35 WAGB 222200 METAR WAGB 222200Z 00000KT 6000 FEW010 24/23 Q1009=  
22-Apr-2023 SAID35 WAGB 222230 METAR WAGB 222230Z 00000KT 6000 FEW010 24/23 Q1009=  
22-Apr-2023 SAID35 WAGB 222300 METAR WAGB 222300Z 00000KT 7000 FEW010 24/23 Q1009=  
23-Apr-2023 SAID35 WAGB 230000 METAR WAGB 230000Z 00000KT 7000 FEW010 26/24 Q1010 NOSIG=  
23-Apr-2023 SAID35 WAGB 230030 METAR WAGB 230030Z 00000KT 7000 FEW010 27/24 Q1010 NOSIG=  
23-Apr-2023 SAID35 WAGB 230100 METAR WAGB 230100Z 00000KT 8000 FEW010 28/24 Q1010 NOSIG=  
23-Apr-2023 SAID35 WAGB 230130 METAR WAGB 230130Z 00000KT 9000 FEW010 29/25 Q1010 NOSIG=  
23-Apr-2023 SAID35 WAGB 230200 METAR WAGB 230200Z 00000KT 9000 FEW010 29/25 Q1010 NOSIG=  
23-Apr-2023 SAID35 WAGB 230300 METAR WAGB 230300Z 07003KT 9999 SCT012 32/25 Q1010 NOSIG=  
23-Apr-2023 SAID35 WAGB 230330 METAR WAGB 230330Z 01005KT 9999 SCT012 32/24 Q1010 NOSIG=  
23-Apr-2023 SAID35 WAGB 230400 METAR WAGB 230400Z 02005KT 9999 SCT013 32/24 Q1009 NOSIG=  
23-Apr-2023 SAID35 WAGB 230430 METAR WAGB 230430Z 04004KT 9999 SCT013 33/24 Q1009 NOSIG=  
23-Apr-2023 SAID35 WAGB 230500 METAR WAGB 230500Z 06007KT 9999 SCT014 34/24 Q1008 NOSIG=  
23-Apr-2023 SAID35 WAGB 230530 METAR WAGB 230530Z 00000KT 9999 SCT014 34/24 Q1008 NOSIG=  
23-Apr-2023 SAID35 WAGB 230600 METAR WAGB 230600Z 06006KT 9999 BKN014 34/24 Q1007 NOSIG=  
23-Apr-2023 SAID35 WAGB 230630 METAR WAGB 230630Z 07005KT 9999 BKN014 34/24 Q1007 NOSIG=  
23-Apr-2023 SAID35 WAGB 230700 METAR WAGB 230700Z 00000KT 9999 SCT015 34/25 Q1006 NOSIG=  
23-Apr-2023 SAID35 WAGB 230730 METAR WAGB 230730Z 00000KT 9999 SCT015 34/25 Q1006 NOSIG=  
23-Apr-2023 SAID35 WAGB 230800 METAR WAGB 230800Z 04004KT 9999 FEW015CB 33/25 Q1006 NOSIG=  
23-Apr-2023 SAID35 WAGB 230830 METAR WAGB 230830Z 00000KT 9999 FEW015CB 33/25 Q1006 NOSIG=  
23-Apr-2023 SAID35 WAGB 230900 METAR WAGB 230900Z 00000KT 9999 FEW015CB FEW016 34/24 Q1006 NOSIG=  
23-Apr-2023 SAID35 WAGB 230930 METAR WAGB 230930Z 00000KT 9999 FEW015CB FEW016 34/24 Q1006 NOSIG=  
23-Apr-2023 SAID35 WAGB 231000 METAR WAGB 231000Z 00000KT 9999 TS FEW014CB FEW015 34/25 Q1007=  
23-Apr-2023 SAID35 WAGB 231030 METAR WAGB 231030Z 00000KT 9999 TS FEW013CB FEW014 34/25 Q1007 NOSIG=  
23-Apr-2023 SAID35 WAGB 231100 METAR WAGB 231100Z 00000KT 9999 TS FEW013CB FEW014 31/25 Q1007 NOSIG=  
23-Apr-2023 SAID35 WAGB 231130 METAR WAGB 231130Z 00000KT 9999 TS FEW013CB FEW014 31/25 Q1007 NOSIG=  
23-Apr-2023 SAID35 WAGB 231200 METAR WAGB 231200Z 09003KT 8000 FEW013CB SCT014 29/25 Q1010 RETS=  
23-Apr-2023 SAID35 WAGB 231200 CCA METAR WAGB 231200Z 09003KT 8000 FEW013CB SCT014 29/25 Q1008 RETS=  
23-Apr-2023 SAID35 WAGB 231230 METAR WAGB 231230Z 00000KT 8000 FEW013CB SCT014 29/25 Q1008=  
23-Apr-2023 SAID35 WAGB 231300 METAR WAGB 231300Z 00000KT 8000 FEW013CB SCT014 28/25 Q1009=  
23-Apr-2023 SAID35 WAGB 231330 METAR WAGB 231330Z 00000KT 8000 FEW013CB FEW014 28/25 Q1009=  
23-Apr-2023 SAID35 WAGB 231400 METAR WAGB 231400Z 00000KT 8000 VCTS FEW013CB FEW014 28/25 Q1009=  
23-Apr-2023 SAID35 WAGB 231430 METAR WAGB 231430Z 00000KT 8000 VCTS FEW013CB FEW014 28/25 Q1009=  
23-Apr-2023 SAID35 WAGB 231500 METAR WAGB 231500Z 00000KT 8000 VCTS FEW013CB FEW014 27/25 Q1009=  
23-Apr-2023 SAID35 WAGB 231600 METAR WAGB 231600Z 00000KT 7000 VCTS FEW012CB FEW013 27/25 Q1009=  
23-Apr-2023 SAID35 WAGB 231630 METAR WAGB 231630Z 00000KT 7000 VCTS FEW012CB FEW013 26/25 Q1009=  
23-Apr-2023 SAID35 WAGB 231700 METAR WAGB 231700Z 00000KT 7000 VCTS FEW012CB FEW013 26/25 Q1009=  
23-Apr-2023 SAID35 WAGB 231730 METAR WAGB 231730Z 00000KT 7000 VCTS FEW012CB FEW013 26/25 Q1008=  
23-Apr-2023 SAID35 WAGB 231800 METAR WAGB 231800Z 00000KT 7000 FEW012 26/25 Q1008=  
23-Apr-2023 SAID35 WAGB 231830 METAR WAGB 231830Z 00000KT 7000 FEW012 26/25 Q1008=  
23-Apr-2023 SAID35 WAGB 231900 METAR WAGB 231900Z 00000KT 7000 FEW012 26/24 Q1008=  
23-Apr-2023 SAID35 WAGB 231930 METAR WAGB 231930Z 00000KT 7000 FEW012 26/24 Q1008=  
23-Apr-2023 SAID35 WAGB 232000 METAR WAGB 232000Z 00000KT 7000 FEW012 26/24 Q1007=  
23-Apr-2023 SAID35 WAGB 232030 METAR WAGB 232030Z 00000KT 7000 FEW012 26/24 Q1007=  
23-Apr-2023 SAID35 WAGB 232100 METAR WAGB 232100Z 00000KT 7000 FEW012 25/24 Q1007=  
23-Apr-2023 SAID35 WAGB 232130 METAR WAGB 232130Z 00000KT 7000 FEW012 25/24 Q1008=  
23-Apr-2023 SAID35 WAGB 232200 METAR WAGB 232200Z 00000KT 7000 FEW012 25/24 Q1008=  
23-Apr-2023 SAID35 WAGB 232230 METAR WAGB 232230Z 00000KT 7000 FEW012 25/24 Q1008=  
23-Apr-2023 SAID35 WAGB 232300 METAR WAGB 232300Z 00000KT 8000 FEW012 25/24 Q1009=  
23-Apr-2023 SAID35 WAGB 232330 METAR WAGB 232330Z 00000KT 8000 FEW012 25/24 Q1009=  
24-Apr-2023 SAID35 WAGB 240000 METAR WAGB 240000Z 00000KT 6000 FEW011 27/25 Q1009 NOSIG=  
24-Apr-2023 SAID35 WAGB 240030 METAR WAGB 240030Z 00000KT 6000 FEW011 27/25 Q1010 NOSIG=  
24-Apr-2023 SAID35 WAGB 240100 METAR WAGB 240100Z 00000KT 7000 FEW011 28/25 Q1010 NOSIG=  
24-Apr-2023 SAID35 WAGB 240130 METAR WAGB 240130Z 00000KT 7000 FEW011 28/25 Q1010 NOSIG=  
24-Apr-2023 SAID35 WAGB 240200 METAR WAGB 240200Z 00000KT 8000 SCT011 31/25 Q1010 NOSIG=  
24-Apr-2023 SAID35 WAGB 240230 METAR WAGB 240230Z 00000KT 8000 SCT011 31/25 Q1009 NOSIG=  
24-Apr-2023 SAID35 WAGB 240300 METAR WAGB 240300Z 04006KT 9999 SCT011 32/24 Q1019 NOSIG=  
24-Apr-2023 SAID35 WAGB 240330 METAR WAGB 240330Z 05007KT 9999 SCT012 33/24 Q1009 NOSIG=  
24-Apr-2023 SAID35 WAGB 240400 METAR WAGB 240400Z 04006KT 9999 SCT012 34/24 Q1008 NOSIG=  
24-Apr-2023 SAID35 WAGB 240430 METAR WAGB 240430Z 35003KT 9999 SCT013 34/24 Q1007 NOSIG=  
24-Apr-2023 SAID35 WAGB 240500 METAR WAGB 240500Z 06006KT 9999 BKN013 34/24 Q1007 NOSIG=  
24-Apr-2023 SAID35 WAGB 240600 METAR WAGB 240600Z 00000KT 9999 FEW013CB SCT014 35/24 Q1006 NOSIG=  
24-Apr-2023 SAID35 WAGB 240630 METAR WAGB 240630Z 00000KT 9999 FEW013CB SCT014 35/24 Q1006 NOSIG=  
24-Apr-2023 SAID35 WAGB 240700 METAR WAGB 240700Z 00000KT 9999 FEW014CB SCT015 35/25 Q1005 NOSIG=  
24-Apr-2023 SAID35 WAGB 240730 METAR WAGB 240730Z 00000KT 9999 FEW014CB SCT015 35/25 Q1005 NOSIG=  
24-Apr-2023 SAID35 WAGB 240800 METAR WAGB 240800Z 00000KT 9999 FEW014CB 35/24 Q1005 NOSIG=  
24-Apr-2023 SAID35 WAGB 240830 METAR WAGB 240830Z 00000KT 9999 FEW014CB 35/24 Q1004 NOSIG=  
24-Apr-2023 SAID35 WAGB 240900 METAR WAGB 240900Z 03004KT 9999 FEW014CB FEW015 35/24 Q1005=  
24-Apr-2023 SAID35 WAGB 240900 CCA METAR WAGB 240900Z 03004KT 9999 FEW014CB 35/24 Q1005 NOSIG=  
24-Apr-2023 SAID35 WAGB 240930 METAR WAGB 240930Z 04003KT 9999 FEW014CB FEW015 34/24 Q1005 NOSIG=  
24-Apr-2023 SAID35 WAGB 241030 METAR WAGB 241030Z 00000KT 9999 FEW015 32/26 Q1006 NOSIG=  
24-Apr-2023 SAID35 WAGB 241100 METAR WAGB 241100Z 00000KT 9999 VCTS FEW014CB FEW015 32/26 Q1007=  
24-Apr-2023 SAID35 WAGB 241130 METAR WAGB 241130Z 00000KT 9999 VCTS FEW014CB FEW015 31/25 Q1007 NOSIG=  
24-Apr-2023 SAID35 WAGB 241200 METAR WAGB 241200Z 00000KT 8000 VCTS FEW014CB 30/26 Q1008=  
24-Apr-2023 SAID35 WAGB 241230 METAR WAGB 241230Z 00000KT 8000 VCTS FEW014CB 30/26 Q1008=  
24-Apr-2023 SAID35 WAGB 241300 METAR WAGB 241300Z 00000KT 7000 FEW013CB 30/26 Q1008=  
24-Apr-2023 SAID35 WAGB 241330 METAR WAGB 241330Z 00000KT 7000 FEW013CB 30/26 Q1008=  
24-Apr-2023 SAID35 WAGB 241400 METAR WAGB 241400Z 00000KT 6000 VCTS FEW013CB SCT014 29/26 Q1009=  
24-Apr-2023 SAID35 WAGB 241430 METAR WAGB 241430Z 00000KT 6000 VCTS FEW013CB SCT014 29/26 Q1009=  
24-Apr-2023 SAID35 WAGB 241500 METAR WAGB 241500Z 00000KT 6000 VCTS FEW012CB SCT013 28/26 Q1009=  
24-Apr-2023 SAID35 WAGB 241530 METAR WAGB 241530Z 00000KT 6000 VCTS FEW012CB SCT013 28/26 Q1009=  
24-Apr-2023 SAID35 WAGB 241600 METAR WAGB 241600Z 00000KT 6000 VCTS FEW011CB SCT012 28/26 Q1009=  
24-Apr-2023 SAID35 WAGB 241630 METAR WAGB 241630Z 00000KT 6000 -RA FEW010CB BKN011 28/26 Q1009=  
24-Apr-2023 SAID35 WAGB 241700 METAR WAGB 241700Z 00000KT 2000 TSRA FEW010CB BKN011 25/24 Q1009=  
24-Apr-2023 SAID35 WAGB 241730 METAR WAGB 241730Z 24006KT 2000 TSRA FEW010CB BKN011 25/24 Q1009=  
24-Apr-2023 SAID35 WAGB 241800 METAR WAGB 241800Z 24004KT 2000 TSRA FEW010CB BKN011 24/24 Q1010=  
24-Apr-2023 SAID35 WAGB 241830 METAR WAGB 241830Z 24004KT 2000 TSRA FEW010CB BKN011 24/24 Q1010=  
24-Apr-2023 SAID35 WAGB 241900 METAR WAGB 241900Z 00000KT 2000 TSRA FEW009CB BKN010 24/23 Q1010=  
24-Apr-2023 SAID35 WAGB 241930 METAR WAGB 241930Z 00000KT 2000 TSRA FEW009CB BKN010 24/23 Q1010=  
24-Apr-2023 SAID35 WAGB 242000 METAR WAGB 242000Z 00000KT 2000 -TSRA FEW009CB BKN010 24/23 Q1010=  
24-Apr-2023 SAID35 WAGB 242030 METAR WAGB 242030Z 00000KT 2000 -TSRA FEW009CB BKN010 24/23 Q1010=  
24-Apr-2023 SAID35 WAGB 242100 METAR WAGB 242100Z 00000KT 2000 -TSRA FEW009CB BKN010 23/23 Q1010=  
24-Apr-2023 SAID35 WAGB 242130 METAR WAGB 242130Z 00000KT 2000 -TSRA FEW009CB BKN010 23/23 Q1010=  
24-Apr-2023 SAID35 WAGB 242200 METAR WAGB 242200Z 00000KT 2000 -TSRA FEW009CB BKN010 23/23 Q1010=  
24-Apr-2023 SAID35 WAGB 242230 METAR WAGB 242230Z 00000KT 2000 -TSRA FEW009CB BKN010 23/23 Q1010=  
24-Apr-2023 SAID35 WAGB 242300 METAR WAGB 242300Z 00000KT 2000 -RA FEW009CB BKN010 23/23 Q1010=  
24-Apr-2023 SAID35 WAGB 242330 METAR WAGB 242330Z 00000KT 2000 -RA FEW009CB BKN010 23/23 Q1010=  
25-Apr-2023 SAID35 WAGB 250000 METAR WAGB 250000Z 00000KT 3000 -RA SCT005 23/23 Q1010 NOSIG=  
25-Apr-2023 SAID35 WAGB 250030 METAR WAGB 250030Z 06004KT 3000 BR SCT005 23/23 Q1010 RERA NOSIG=  
25-Apr-2023 SAID35 WAGB 250100 METAR WAGB 250100Z 08004KT 3500 BR SCT005 23/23 Q1010 NOSIG=  
25-Apr-2023 SAID35 WAGB 250130 METAR WAGB 250130Z 00000KT 4000 HZ FEW005 24/23 Q1010 NOSIG=  
25-Apr-2023 SAID35 WAGB 250200 METAR WAGB 250200Z 06004KT 5000 HZ SCT006 25/23 Q1010 NOSIG=  
25-Apr-2023 SAID35 WAGB 250230 METAR WAGB 250230Z 01006KT 6000 HZ SCT007 25/23 Q1010 NOSIG=  
25-Apr-2023 SAID35 WAGB 250300 METAR WAGB 250300Z 01004KT 6000 HZ SCT008 25/23 Q1010 NOSIG=  
25-Apr-2023 SAID35 WAGB 250330 METAR WAGB 250330Z 32004KT 6000 HZ SCT008 25/23 Q1010 NOSIG=  
25-Apr-2023 SAID35 WAGB 250400 METAR WAGB 250400Z 35004KT 7000 HZ SCT010 26/23 Q1010 NOSIG=  
25-Apr-2023 SAID35 WAGB 250430 METAR WAGB 250430Z 04002KT 8000 SCT010 28/23 Q1009 NOSIG=  
25-Apr-2023 SAID35 WAGB 250500 METAR WAGB 250500Z 01005KT 8000 SCT010 28/23 Q1008 NOSIG=  
25-Apr-2023 SAID35 WAGB 250530 METAR WAGB 250530Z 36004KT 9999 FEW012 28/23 Q1007 NOSIG=  
25-Apr-2023 SAID35 WAGB 250600 METAR WAGB 250600Z 15003KT 9999 BKN013 30/24 Q1007 NOSIG=  
25-Apr-2023 SAID35 WAGB 250630 METAR WAGB 250630Z 33004KT 9999 FEW012 30/23 Q1007 NOSIG=  
25-Apr-2023 SAID35 WAGB 250700 METAR WAGB 250700Z VRB02KT 9999 SCT012 30/23 Q1006 NOSIG=  
25-Apr-2023 SAID35 WAGB 250730 METAR WAGB 250730Z VRB03KT 9999 SCT012 30/23 Q1006 NOSIG=  
25-Apr-2023 SAID35 WAGB 250800 METAR WAGB 250800Z VRB02KT 9999 SCT012 30/23 Q1005 NOSIG=  
25-Apr-2023 SAID35 WAGB 250830 METAR WAGB 250830Z 26002KT 9999 SCT012 30/23 Q1005 NOSIG=  
25-Apr-2023 SAID35 WAGB 250900 METAR WAGB 250900Z 00000KT 9999 SCT012 30/23 Q1005 NOSIG=  
25-Apr-2023 SAID35 WAGB 250930 METAR WAGB 250900Z 28003KT 9999 FEW012 30/23 Q1005 NOSIG=  
25-Apr-2023 SAID35 WAGB 251000 METAR WAGB 251000Z 00000KT 9999 FEW013 28/24 Q1006 NOSIG=  
25-Apr-2023 SAID35 WAGB 251100 METAR WAGB 251100Z 00000KT 9999 FEW013 28/24 Q1007 NOSIG=  
25-Apr-2023 SAID35 WAGB 251130 METAR WAGB 251130Z 00000KT 9999 FEW013 28/24 Q1007 NOSIG=  
25-Apr-2023 SAID35 WAGB 251200 METAR WAGB 251200Z 00000KT 9999 FEW013 27/24 Q1008 NOSIG=  
25-Apr-2023 SAID35 WAGB 251230 METAR WAGB 251230Z 00000KT 9999 FEW013 27/24 Q1008 NOSIG=  
25-Apr-2023 SAID35 WAGB 251300 METAR WAGB 251300Z 00000KT 9000 FEW013 26/24 Q1008 NOSIG=  
25-Apr-2023 SAID35 WAGB 251330 METAR WAGB 251330Z 00000KT 9000 FEW013 26/24 Q1009 NOSIG=  
25-Apr-2023 SAID35 WAGB 251400 METAR WAGB 251400Z 00000KT 8000 FEW013 25/24 Q1009 NOSIG=  
25-Apr-2023 SAID35 WAGB 251430 METAR WAGB 251430Z 00000KT 8000 FEW013 25/24 Q1009 NOSIG=  
25-Apr-2023 SAID35 WAGB 251500 METAR WAGB 251500Z 00000KT 8000 SCT012 25/24 Q1009 NOSIG=  
25-Apr-2023 SAID35 WAGB 251530 METAR WAGB 251530Z 00000KT 8000 SCT012 25/24 Q1009 NOSIG=  
25-Apr-2023 SAID35 WAGB 251600 METAR WAGB 251600Z 00000KT 7000 BKN011 25/24 Q1009 NOSIG=  
25-Apr-2023 SAID35 WAGB 251630 METAR WAGB 251630Z 00000KT 7000 BKN011 25/24 Q1009 NOSIG=  
25-Apr-2023 SAID35 WAGB 251700 METAR WAGB 251700Z 00000KT 7000 SCT011 25/24 Q1008 NOSIG=  
25-Apr-2023 SAID35 WAGB 251730 METAR WAGB 251730Z 00000KT 7000 SCT011 25/24 Q1008 NOSIG=  
25-Apr-2023 SAID35 WAGB 251800 METAR WAGB 251800Z 00000KT 7000 FEW011 24/23 Q1008 NOSIG=  
25-Apr-2023 SAID35 WAGB 251830 METAR WAGB 251830Z 00000KT 5000 BR FEW011 24/23 Q1008 NOSIG=  
25-Apr-2023 SAID35 WAGB 251900 METAR WAGB 251900Z 00000KT 1000 BR FEW010 24/24 Q1008 NOSIG=  
25-Apr-2023 SAID35 WAGB 251930 METAR WAGB 251930Z 00000KT 1000 BR FEW010 24/24 Q1007 NOSIG=  
25-Apr-2023 SAID35 WAGB 252000 METAR WAGB 252000Z 00000KT 0500 FG FEW010 24/24 Q1008 NOSIG=  
25-Apr-2023 SAID35 WAGB 252030 METAR WAGB 252030Z 00000KT 0500 FG FEW010 24/24 Q1008 NOSIG=  
25-Apr-2023 SAID35 WAGB 252100 METAR WAGB 252100Z 00000KT 0800 FG FEW010 24/23 Q1008 NOSIG=  
25-Apr-2023 SAID35 WAGB 252130 METAR WAGB 252130Z 00000KT 0800 FG FEW010 24/23 Q1008 NOSIG=  
25-Apr-2023 SAID35 WAGB 252200 METAR WAGB 252200Z 00000KT 3000 BR SCT009 24/23 Q1008 NOSIG=  
25-Apr-2023 SAID35 WAGB 252230 METAR WAGB 252230Z 00000KT 1000 FG SCT009 24/23 Q1008 NOSIG=  
25-Apr-2023 SAID35 WAGB 252300 METAR WAGB 252300Z 00000KT 1000 FG SCT009 23/23 Q1008 NOSIG=  
25-Apr-2023 SAID35 WAGB 252330 METAR WAGB 252330Z 00000KT 2000 BR SCT009 23/23 Q1009 NOSIG=  
26-Apr-2023 SAID35 WAGB 260000 METAR WAGB 260000Z 00000KT 6000 BKN011 25/24 Q1009 NOSIG=  
26-Apr-2023 SAID35 WAGB 260030 METAR WAGB 260030Z 00000KT 7000 BKN012 26/24 Q1010 NOSIG=  
26-Apr-2023 SAID35 WAGB 260100 METAR WAGB 260100Z 00000KT 8000 FEW011 27/25 Q1010 NOSIG=  
26-Apr-2023 SAID35 WAGB 260130 METAR WAGB 260130Z 00000KT 8000 FEW011 27/24 Q1010 NOSIG=  
26-Apr-2023 SAID35 WAGB 260200 METAR WAGB 260200Z 28003KT 9000 FEW011 29/24 Q1010 NOSIG=  
26-Apr-2023 SAID35 WAGB 260230 METAR WAGB 260230Z 00000KT 9000 FEW011 29/24 Q1009 NOSIG=  
26-Apr-2023 SAID35 WAGB 260300 METAR WAGB 260300Z 35005KT 9999 FEW012 31/22 Q1009 NOSIG=  
26-Apr-2023 SAID35 WAGB 260330 METAR WAGB 260330Z 00000KT 9999 FEW013 32/23 Q1008 NOSIG=  
26-Apr-2023 SAID35 WAGB 260400 METAR WAGB 260400Z 09004KT 9999 FEW013 32/22 Q1008 NOSIG=  
26-Apr-2023 SAID35 WAGB 260430 METAR WAGB 260430Z 07004KT 9999 FEW013 33/22 Q1007 NOSIG=  
26-Apr-2023 SAID35 WAGB 260500 METAR WAGB 260500Z 08004KT 9999 FEW013 33/21 Q1007 NOSIG=  
26-Apr-2023 SAID35 WAGB 260530 METAR WAGB 260530Z 27003KT 9999 FEW013 33/21 Q1006 NOSIG=  
26-Apr-2023 SAID35 WAGB 260600 METAR WAGB 260600Z 11002KT 9999 SCT014 34/22 Q1006=  
26-Apr-2023 SAID35 WAGB 260630 METAR WAGB 260630Z 00000KT 9999 SCT015 34/22 Q1006 NOSIG=  
26-Apr-2023 SAID35 WAGB 260700 METAR WAGB 260700Z 07003KT 9999 FEW016 34/22 Q1005 NOSIG=  
26-Apr-2023 SAID35 WAGB 260730 METAR WAGB 260730Z 04002KT 9999 FEW016 34/22 Q1005 NOSIG=  
26-Apr-2023 SAID35 WAGB 260800 METAR WAGB 260800Z 25003KT 9999 FEW016 34/22 Q1005 NOSIG=  
26-Apr-2023 SAID35 WAGB 260830 METAR WAGB 260830Z 00000KT 9999 FEW016 34/22 Q1004 NOSIG=  
26-Apr-2023 SAID35 WAGB 260900 METAR WAGB 260900Z 20002KT 9999 FEW016 33/23 Q1005 NOSIG=  
26-Apr-2023 SAID35 WAGB 260930 METAR WAGB 260930Z 17002KT 9999 FEW016 33/23 Q1005 NOSIG=  
26-Apr-2023 SAID35 WAGB 261000 METAR WAGB 261000Z 00000KT 9999 FEW016 32/24 Q1005 NOSIG=  
26-Apr-2023 SAID35 WAGB 261030 METAR WAGB 261030Z 00000KT 9999 FEW016 31/24 Q1005 NOSIG=  
26-Apr-2023 SAID35 WAGB 261100 METAR WAGB 261100Z 00000KT 9999 FEW015 30/25 Q1006 NOSIG=  
26-Apr-2023 SAID35 WAGB 261130 METAR WAGB 261130Z 00000KT 9999 FEW015 29/25 Q1007 NOSIG=  
26-Apr-2023 SAID35 WAGB 261200 METAR WAGB 261200Z 00000KT 9999 FEW013 29/25 Q1007=  
26-Apr-2023 SAID35 WAGB 261230 METAR WAGB 261230Z 00000KT 9999 FEW013 29/25 Q1007=  
26-Apr-2023 SAID35 WAGB 261300 METAR WAGB 261300Z 00000KT 8000 FEW013 29/25 Q1008=  
26-Apr-2023 SAID35 WAGB 261330 METAR WAGB 261330Z 00000KT 8000 FEW013 29/25 Q1008=  
26-Apr-2023 SAID35 WAGB 261400 METAR WAGB 261400Z 00000KT 8000 FEW012 28/26 Q1009=  
26-Apr-2023 SAID35 WAGB 261430 METAR WAGB 261430Z 00000KT 8000 FEW012 28/26 Q1009=  
26-Apr-2023 SAID35 WAGB 261500 METAR WAGB 261500Z 00000KT 8000 FEW012 26/25 Q1009=  
26-Apr-2023 SAID35 WAGB 261530 METAR WAGB 261530Z 00000KT 8000 FEW012 26/25 Q1009=  
26-Apr-2023 SAID35 WAGB 261600 METAR WAGB 261600Z 00000KT 8000 SCT012 26/25 Q1009=  
26-Apr-2023 SAID35 WAGB 261700 METAR WAGB 261700Z 00000KT 6000 SCT011 26/25 Q1009=  
26-Apr-2023 SAID35 WAGB 261730 METAR WAGB 261730Z 00000KT 6000 SCT011 26/25 Q1009=  
26-Apr-2023 SAID35 WAGB 261800 METAR WAGB 261800Z 00000KT 6000 SCT011 26/24 Q1008=  
26-Apr-2023 SAID35 WAGB 261830 METAR WAGB 261830Z 00000KT 6000 SCT011 26/24 Q1008=  
26-Apr-2023 SAID35 WAGB 261900 METAR WAGB 261900Z 00000KT 6000 SCT010 25/24 Q1008=  
26-Apr-2023 SAID35 WAGB 261930 METAR WAGB 261930Z 00000KT 6000 SCT010 25/24 Q1008=  
26-Apr-2023 SAID35 WAGB 262000 METAR WAGB 262000Z 00000KT 6000 SCT010 25/24 Q1008=  
26-Apr-2023 SAID35 WAGB 262030 METAR WAGB 262030Z 00000KT 6000 SCT010 25/24 Q1008=  
26-Apr-2023 SAID35 WAGB 262100 METAR WAGB 262100Z 00000KT 5000 HZ SCT010 25/24 Q1008=  
26-Apr-2023 SAID35 WAGB 262130 METAR WAGB 262130Z 00000KT 5000 HZ SCT010 25/24 Q1008=  
26-Apr-2023 SAID35 WAGB 262200 METAR WAGB 262200Z 00000KT 5000 HZ SCT009 25/24 Q1009=  
26-Apr-2023 SAID35 WAGB 262230 METAR WAGB 262230Z 00000KT 5000 HZ SCT009 25/24 Q1009=  
26-Apr-2023 SAID35 WAGB 262300 METAR WAGB 262300Z 00000KT 5000 SCT009 25/24 Q1010=  
26-Apr-2023 SAID35 WAGB 262330 METAR WAGB 262330Z 00000KT 5000 SCT009 25/24 Q1010=  
27-Apr-2023 SAID35 WAGB 270000 METAR WAGB 270000Z 00000KT 6000 SCT009 26/25 Q1011 NOSIG=  
27-Apr-2023 SAID35 WAGB 270030 METAR WAGB 270030Z 00000KT 6000 SCT009 26/25 Q1011 NOSIG=  
27-Apr-2023 SAID35 WAGB 270100 METAR WAGB 270100Z 32004KT 6000 SCT010 28/24 Q1011 NOSIG=  
27-Apr-2023 SAID35 WAGB 270130 METAR WAGB 270130Z 34004KT 7000 BKN010 29/25 Q1011 NOSIG=  
27-Apr-2023 SAID35 WAGB 270200 METAR WAGB 270200Z 34003KT 8000 BKN011 29/25 Q1010 NOSIG=  
27-Apr-2023 SAID35 WAGB 270230 METAR WAGB 270230Z 33002KT 8000 SCT011 29/24 Q1010 NOSIG=  
27-Apr-2023 SAID35 WAGB 270300 METAR WAGB 270300Z 03004KT 9000 SCT012 31/24 Q1010 NOSIG=  
27-Apr-2023 SAID35 WAGB 270330 METAR WAGB 270330Z 02004KT 9000 SCT012 32/24 Q1009 NOSIG=  
27-Apr-2023 SAID35 WAGB 270400 METAR WAGB 270400Z 34005KT 9999 SCT012 32/25 Q1008 NOSIG=  
27-Apr-2023 SAID35 WAGB 270430 METAR WAGB 270430Z 18002KT 9999 SCT012 34/24 Q1008 NOSIG=  
27-Apr-2023 SAID35 WAGB 270500 METAR WAGB 270500Z 10002KT 9999 SCT012 34/24 Q1007 NOSIG=  
27-Apr-2023 SAID35 WAGB 270530 METAR WAGB 270530Z 04004KT 9999 SCT012 32/24 Q1007 NOSIG=  
27-Apr-2023 SAID35 WAGB 270600 METAR WAGB 270600Z 00000KT 9999 BKN013 33/25 Q1007 NOSIG=  
27-Apr-2023 SAID35 WAGB 270630 METAR WAGB 270630Z 00000KT 9999 BKN013 33/25 Q1007=  
27-Apr-2023 SAID35 WAGB 270700 METAR WAGB 270700Z 00000KT 9999 FEW013TCU BKN014 34/24 Q1005 NOSIG=  
27-Apr-2023 SAID35 WAGB 270730 METAR WAGB 270730Z 00000KT 9999 FEW013TCU BKN014 34/24 Q1005 NOSIG=  
27-Apr-2023 SAID35 WAGB 270800 METAR WAGB 270800Z 00000KT 9999 FEW013TCU SCT014 34/25 Q1005 NOSIG=  
27-Apr-2023 SAID35 WAGB 270830 METAR WAGB 270830Z 00000KT 9999 FEW013TCU SCT014 34/25 Q1005 NOSIG=  
27-Apr-2023 SAID35 WAGB 270900 METAR WAGB 270900Z 00000KT 9999 FEW014TCU FEW015 33/25 Q1005 NOSIG=  
27-Apr-2023 SAID35 WAGB 270930 METAR WAGB 270930Z 00000KT 9999 FEW014TCU FEW015 33/25 Q1005 NOSIG=  
27-Apr-2023 SAID35 WAGB 271000 METAR WAGB 271000Z 00000KT 9999 FEW014TCU FEW015 32/25 Q1006 NOSIG=  
27-Apr-2023 SAID35 WAGB 271030 METAR WAGB 271030Z 00000KT 9999 FEW014TCU FEW015 31/25 Q1006 NOSIG=  
27-Apr-2023 SAID35 WAGB 271100 METAR WAGB 271100Z 00000KT 9000 VCTS FEW015CB 31/25 Q1007 NOSIG=  
27-Apr-2023 SAID35 WAGB 271130 METAR WAGB 271130Z 00000KT 9000 VCTS FEW015CB 30/25 Q1007 NOSIG=  
27-Apr-2023 SAID35 WAGB 271200 METAR WAGB 271200Z 00000KT 8000 FEW015CB 29/26 Q1007=  
27-Apr-2023 SAID35 WAGB 271230 METAR WAGB 271230Z 00000KT 8000 FEW015CB 29/26 Q1007=  
27-Apr-2023 SAID35 WAGB 271300 METAR WAGB 271300Z 00000KT 8000 VCTS FEW014CB 28/26 Q1008=  
27-Apr-2023 SAID35 WAGB 271330 METAR WAGB 271330Z 00000KT 7000 FEW014CB 28/26 Q1008=  
27-Apr-2023 SAID35 WAGB 271400 METAR WAGB 271400Z 00000KT 7000 FEW013CB FEW014 28/26 Q1009=  
27-Apr-2023 SAID35 WAGB 271430 METAR WAGB 271430Z 00000KT 7000 FEW013CB FEW014 28/26 Q1009=  
27-Apr-2023 SAID35 WAGB 271500 METAR WAGB 271500Z 00000KT 7000 FEW013CB FEW014 27/26 Q1010=  
27-Apr-2023 SAID35 WAGB 271600 METAR WAGB 271600Z 00000KT 6000 SCT013 27/25 Q1009=  
27-Apr-2023 SAID35 WAGB 271630 METAR WAGB 271630Z 00000KT 6000 SCT013 27/25 Q1009=  
27-Apr-2023 SAID35 WAGB 271700 METAR WAGB 271700Z 00000KT 6000 SCT013 26/25 Q1009=  
27-Apr-2023 SPID33 WAGB 281720 SPECI WAGB 271720Z 02005KT 5000 -TSRA FEW011CB BKN012 27/25 Q1008=  
27-Apr-2023 SAID35 WAGB 271730 METAR WAGB 271730Z 00000KT 6000 SCT013 26/25 Q1009=  
27-Apr-2023 SAID35 WAGB 271800 METAR WAGB 271800Z 00000KT 6000 SCT012 26/25 Q1008=  
27-Apr-2023 SAID35 WAGB 271830 METAR WAGB 271830Z 00000KT 5000 SCT012 26/25 Q1008=  
27-Apr-2023 SAID35 WAGB 271900 METAR WAGB 271900Z 00000KT 6000 SCT012 25/24 Q1008=  
27-Apr-2023 SAID35 WAGB 271930 METAR WAGB 271930Z 00000KT 6000 SCT012 25/24 Q1008=  
27-Apr-2023 SAID35 WAGB 272000 METAR WAGB 272000Z 00000KT 6000 BKN012 24/23 Q1008=  
27-Apr-2023 SAID35 WAGB 272030 METAR WAGB 272030Z 00000KT 6000 BKN012 24/23 Q1008=  
27-Apr-2023 SAID35 WAGB 272100 METAR WAGB 272100Z 00000KT 6000 VCTS FEW011CB SCT012 25/25 Q1008=  
27-Apr-2023 SAID35 WAGB 272130 METAR WAGB 272100Z 00000KT 6000 FEW011CB SCT012 25/25 Q1008=  
27-Apr-2023 SAID35 WAGB 272200 METAR WAGB 272200Z 00000KT 6000 VCTS FEW011CB BKN012 25/24 Q1009=  
27-Apr-2023 SAID35 WAGB 272300 METAR WAGB 272300Z 00000KT 7000 SCT011 25/22 Q1010=  
27-Apr-2023 SAID35 WAGB 272330 METAR WAGB 272330Z 00000KT 7000 SCT011 25/22 Q1010=  
28-Apr-2023 SAID35 WAGB 280000 METAR WAGB 280000Z 00000KT 9999 FEW013 26/25 Q1010 NOSIG=  
28-Apr-2023 SAID35 WAGB 280030 METAR WAGB 280030Z 04004KT 9999 FEW013 27/25 Q1010 NOSIG=  
28-Apr-2023 SAID35 WAGB 280100 METAR WAGB 280100Z 05005KT 9999 FEW013 29/25 Q1010 NOSIG=  
28-Apr-2023 SAID35 WAGB 280130 METAR WAGB 280130Z 04004KT 9999 SCT014 30/25 Q1010 NOSIG=  
28-Apr-2023 SAID35 WAGB 280200 METAR WAGB 280200Z 03006KT 9999 FEW014 30/24 Q1010 NOSIG=  
28-Apr-2023 SAID35 WAGB 280230 METAR WAGB 280230Z 03006KT 9999 FEW014 31/24 Q1010 NOSIG=  
28-Apr-2023 SAID35 WAGB 280300 METAR WAGB 280300Z 03008KT 9999 SCT012 32/24 Q1009 NOSIG=  
28-Apr-2023 SAID35 WAGB 280330 METAR WAGB 280300Z 03007KT 9999 SCT012 32/24 Q1009 NOSIG=  
28-Apr-2023 SAID35 WAGB 280400 METAR WAGB 280400Z 07007KT 9999 SCT013 32/24 Q1008 NOSIG=  
28-Apr-2023 SAID35 WAGB 280500 METAR WAGB 280400Z 06006KT 9999 SCT014 33/24 Q1007 NOSIG=  
28-Apr-2023 SAID35 WAGB 280430 METAR WAGB 280430Z 07006KT 9999 SCT014 33/24 Q1007 NOSIG=  
28-Apr-2023 SAID35 WAGB 280500 METAR WAGB 280500Z 06006KT 9999 SCT014 33/24 Q1007 NOSIG=  
28-Apr-2023 SAID35 WAGB 280530 METAR WAGB 280530Z 03006KT 9999 SCT014 33/24 Q1006 NOSIG=  
28-Apr-2023 SAID35 WAGB 280600 METAR WAGB 280600Z 04004KT 9999 SCT016 34/25 Q1006 NOSIG=  
28-Apr-2023 SAID35 WAGB 280630 METAR WAGB 280630Z 04006KT 9999 SCT016 34/25 Q1005 NOSIG=  
28-Apr-2023 SAID35 WAGB 280700 METAR WAGB 280700Z 00000KT 9999 FEW015TCU 35/25 Q1005 NOSIG=  
28-Apr-2023 SAID35 WAGB 280730 METAR WAGB 280730Z 03006KT 9999 FEW015TCU 35/25 Q1004 NOSIG=  
28-Apr-2023 SAID35 WAGB 280800 METAR WAGB 280800Z 00000KT 9999 FEW017TCU 34/25 Q1004 NOSIG=  
28-Apr-2023 SAID35 WAGB 280900 METAR WAGB 280900Z 00000KT 9999 FEW016CB 32/25 Q1004 NOSIG=  
28-Apr-2023 SAID35 WAGB 280930 METAR WAGB 280930Z 00000KT 9999 FEW016CB 32/25 Q1004 NOSIG=  
28-Apr-2023 SAID35 WAGB 281000 METAR WAGB 281000Z 00000KT 9999 FEW015CB 31/25 Q1005 NOSIG=  
28-Apr-2023 SAID35 WAGB 281030 METAR WAGB 281030Z 00000KT 9999 FEW015CB 30/25 Q1006 NOSIG=  
28-Apr-2023 SAID35 WAGB 281100 METAR WAGB 281100Z 00000KT 9000 VCTS FEW014CB 31/26 Q1007 NOSIG=  
28-Apr-2023 SAID35 WAGB 281130 METAR WAGB 281130Z 00000KT 8000 VCTS FEW014CB 30/26 Q1007 NOSIG=  
28-Apr-2023 SAID35 WAGB 281200 METAR WAGB 281200Z 00000KT 9000 VCTS FEW013CB 29/26 Q1007 NOSIG=  
28-Apr-2023 SAID35 WAGB 281230 METAR WAGB 281230Z 00000KT 8000 VCTS FEW013CB 29/26 Q1008 NOSIG=  
28-Apr-2023 SAID35 WAGB 281300 METAR WAGB 281300Z 20003KT 8000 VCTS FEW012CB BKN013 28/26 Q1009 NOSIG=  
28-Apr-2023 SAID35 WAGB 281330 METAR WAGB 281330Z 20003KT 8000 VCTS FEW012CB BKN013 28/26 Q1009 NOSIG=  
28-Apr-2023 SAID35 WAGB 281400 METAR WAGB 281400Z 00000KT 7000 VCTS FEW012CB BKN013 28/26 Q1009=  
28-Apr-2023 SAID35 WAGB 281430 METAR WAGB 281430Z 00000KT 7000 VCTS FEW012CB BKN013 28/26 Q1009=  
28-Apr-2023 SAID35 WAGB 281500 METAR WAGB 281500Z 00000KT 6000 VCTS FEW012CB BKN013 27/26 Q1009=  
28-Apr-2023 SAID35 WAGB 281530 METAR WAGB 281530Z 00000KT 6000 VCTS FEW012CB BKN013 27/26 Q1009=  
28-Apr-2023 SAID35 WAGB 281600 METAR WAGB 281600Z 19002KT 6000 VCTS FEW011CB BKN012 27/25 Q1009=  
28-Apr-2023 SAID35 WAGB 281630 METAR WAGB 281630Z 25002KT 6000 VCTS FEW011CB BKN012 27/25 Q1009=  
28-Apr-2023 SAID35 WAGB 281700 METAR WAGB 281700Z 00000KT 6000 TS FEW011CB BKN012 27/25 Q1008=  
28-Apr-2023 SAID35 WAGB 281730 METAR WAGB 281730Z 03010KT 5000 TSRA FEW011CB BKN012 27/25 Q1008=  
28-Apr-2023 SAID35 WAGB 281800 METAR WAGB 281800Z 34003KT 4000 TSRA FEW010CB BKN011 26/25 Q1008=  
28-Apr-2023 SAID35 WAGB 281830 METAR WAGB 281830Z 00000KT 3500 TSRA FEW010CB BKN011 26/25 Q1009=  
28-Apr-2023 SAID35 WAGB 281900 METAR WAGB 281900Z 00000KT 3000 -TSRA FEW009CB BKN010 24/24 Q1009=  
28-Apr-2023 SAID35 WAGB 281930 METAR WAGB 281930Z 30005KT 2500 -TSRA FEW009CB BKN010 24/24 Q1009=  
28-Apr-2023 SAID35 WAGB 282000 METAR WAGB 282000Z 29003KT 2000 RA FEW009CB BKN010 24/23 Q1009=  
28-Apr-2023 SAID35 WAGB 282030 METAR WAGB 282030Z 00000KT 2000 RA FEW009CB BKN010 24/23 Q1009=  
28-Apr-2023 SAID35 WAGB 282100 METAR WAGB 282100Z 25002KT 2000 RA FEW009CB BKN010 24/23 Q1009=  
28-Apr-2023 SAID35 WAGB 282130 METAR WAGB 282130Z 00000KT 2000 RA FEW009CB BKN010 24/23 Q1010=  
28-Apr-2023 SAID35 WAGB 282200 METAR WAGB 282200Z 00000KT 1000 TSRA FEW009CB BKN010 24/23 Q1010=  
28-Apr-2023 SAID35 WAGB 282230 METAR WAGB 282230Z 00000KT 1000 RA FEW009CB BKN010 24/23 Q1010=  
28-Apr-2023 SAID35 WAGB 282300 METAR WAGB 282300Z 00000KT 3000 -RA FEW009CB BKN010 23/23 Q1010=  
28-Apr-2023 SAID35 WAGB 282330 METAR WAGB 282330Z 00000KT 3000 RA FEW009CB BKN010 23/23 Q1010=  
29-Apr-2023 SAID35 WAGB 290000 METAR WAGB 290000Z 00000KT 3000 SCT009 24/23 Q1011 RERA=  
29-Apr-2023 SAID35 WAGB 290030 METAR WAGB 290030Z 00000KT 4000 SCT009 24/23 Q1011 NOSIG=  
29-Apr-2023 SAID35 WAGB 290100 METAR WAGB 290100Z 00000KT 5000 VCSH BKN009 25/24 Q1011 NOSIG=  
29-Apr-2023 SAID35 WAGB 290130 METAR WAGB 290130Z 00000KT 5000 VCSH BKN009 25/24 Q1011 NOSIG=  
29-Apr-2023 SAID35 WAGB 290200 METAR WAGB 290200Z 00000KT 6000 BKN009 26/24 Q1011 NOSIG=  
29-Apr-2023 SAID35 WAGB 290230 METAR WAGB 290230Z 00000KT 6000 BKN009 26/24 Q1011 NOSIG=  
29-Apr-2023 SAID35 WAGB 290300 METAR WAGB 290300Z 11003KT 9999 BKN011 29/24 Q1010 NOSIG=  
29-Apr-2023 SAID35 WAGB 290330 METAR WAGB 290330Z 00000KT 9999 BKN011 30/24 Q1009 NOSIG=  
29-Apr-2023 SAID35 WAGB 290400 METAR WAGB 290400Z 09004KT 9999 BKN012 31/25 Q1009 NOSIG=  
29-Apr-2023 SAID35 WAGB 290430 METAR WAGB 290430Z 04005KT 9999 BKN012 31/25 Q1008 NOSIG=  
29-Apr-2023 SAID35 WAGB 290500 METAR WAGB 290500Z 04004KT 9999 BKN012 31/25 Q1007 NOSIG=  
29-Apr-2023 SAID35 WAGB 290530 METAR WAGB 290530Z 00000KT 9999 BKN012 31/25 Q1007 NOSIG=  
29-Apr-2023 SAID35 WAGB 290600 METAR WAGB 290600Z 32003KT 9999 SCT013 32/23 Q1007 NOSIG=  
29-Apr-2023 SAID35 WAGB 290630 METAR WAGB 290630Z 00000KT 9999 SCT013 32/23 Q1006 NOSIG=  
29-Apr-2023 SAID35 WAGB 290700 METAR WAGB 290700Z 01004KT 9999 SCT013 32/24 Q1005 NOSIG=  
29-Apr-2023 SAID35 WAGB 290730 METAR WAGB 290730Z 05003KT 9999 SCT013 32/24 Q1005 NOSIG=  
29-Apr-2023 SAID35 WAGB 290800 METAR WAGB 290800Z 00000KT 9999 FEW013 32/25 Q1005 NOSIG=  
29-Apr-2023 SAID35 WAGB 290830 METAR WAGB 290830Z 00000KT 9999 FEW013 32/25 Q1005 NOSIG=  
29-Apr-2023 SAID35 WAGB 290900 METAR WAGB 290900Z 04003KT 9999 FEW013CB FEW014 32/25 Q1005 NOSIG=  
29-Apr-2023 SAID35 WAGB 290930 METAR WAGB 290930Z 02003KT 9999 FEW013CB FEW014 31/25 Q1006 NOSIG=  
29-Apr-2023 SAID35 WAGB 291000 METAR WAGB 291000Z 00000KT 9999 FEW013CB FEW014 31/25 Q1006 NOSIG=  
29-Apr-2023 SAID35 WAGB 291030 METAR WAGB 291030Z 00000KT 9000 FEW013CB FEW014 30/25 Q1006 NOSIG=  
29-Apr-2023 SAID35 WAGB 291100 METAR WAGB 291100Z 00000KT 9000 FEW013CB FEW014 29/26 Q1007 NOSIG=  
29-Apr-2023 SAID35 WAGB 291130 METAR WAGB 291130Z 00000KT 9000 FEW013CB FEW014 29/26 Q1007 NOSIG=  
29-Apr-2023 SAID35 WAGB 291200 METAR WAGB 291200Z 18002KT 9000 FEW013CB 28/25 Q1008=  
29-Apr-2023 SAID35 WAGB 291230 METAR WAGB 291230Z 19002KT 9000 FEW013CB 27/25 Q1008=  
29-Apr-2023 SAID35 WAGB 291300 METAR WAGB 291300Z 20002KT 8000 FEW013CB 27/25 Q1009=  
29-Apr-2023 SAID35 WAGB 291330 METAR WAGB 291330Z 00000KT 8000 FEW013CB 27/25 Q1009=  
29-Apr-2023 SAID35 WAGB 291400 METAR WAGB 291400Z 00000KT 8000 FEW012CB 27/25 Q1009=  
29-Apr-2023 SAID35 WAGB 291430 METAR WAGB 291430Z 00000KT 8000 FEW012CB 26/25 Q1009=  
29-Apr-2023 SAID35 WAGB 291500 METAR WAGB 291500Z 00000KT 8000 FEW012CB 26/25 Q1009=  
29-Apr-2023 SAID35 WAGB 291530 METAR WAGB 291530Z 00000KT 7000 FEW012CB 26/25 Q1009=  
29-Apr-2023 SAID35 WAGB 291600 METAR WAGB 291600Z 00000KT 8000 FEW012CB 26/25 Q1009=  
29-Apr-2023 SAID35 WAGB 291630 METAR WAGB 291630Z 00000KT 8000 FEW012CB 26/25 Q1009=  
29-Apr-2023 SAID35 WAGB 291700 METAR WAGB 291700Z 00000KT 8000 FEW012CB 26/25 Q1008=  
29-Apr-2023 SAID35 WAGB 291730 METAR WAGB 291730Z 00000KT 8000 FEW012CB 26/25 Q1008=  
29-Apr-2023 SAID35 WAGB 291800 METAR WAGB 291800Z 00000KT 7000 SCT012 25/25 Q1008=  
29-Apr-2023 SAID35 WAGB 291830 METAR WAGB 291830Z 00000KT 7000 SCT012 25/25 Q1008=  
29-Apr-2023 SAID35 WAGB 291900 METAR WAGB 291900Z 00000KT 7000 SCT011 25/24 Q1008=  
29-Apr-2023 SAID35 WAGB 291930 METAR WAGB 291930Z 00000KT 7000 SCT011 25/24 Q1008=  
29-Apr-2023 SAID35 WAGB 292000 METAR WAGB 292000Z 00000KT 6000 BKN010 25/24 Q1008=  
29-Apr-2023 SAID35 WAGB 292030 METAR WAGB 292030Z 00000KT 6000 BKN010 25/24 Q1008=  
29-Apr-2023 SAID35 WAGB 292100 METAR WAGB 292100Z 00000KT 5000 VCSH BKN009 25/24 Q1008=  
29-Apr-2023 SAID35 WAGB 292130 METAR WAGB 292130Z 00000KT 4000 RA BKN009 25/24 Q1008=  
29-Apr-2023 SAID35 WAGB 292200 METAR WAGB 292200Z 17002KT 6000 SCT009 24/24 Q1008 RERA=  
29-Apr-2023 SAID35 WAGB 292230 METAR WAGB 292230Z 00000KT 7000 SCT009 24/24 Q1008=  
29-Apr-2023 SAID35 WAGB 292300 METAR WAGB 292300Z 00000KT 7000 SCT009 25/24 Q1008=  
29-Apr-2023 SAID35 WAGB 292330 METAR WAGB 292330Z 00000KT 7000 SCT009 25/24 Q1009=  
30-Apr-2023 SAID35 WAGB 300000 METAR WAGB 300000Z 00000KT 6000 SCT015 25/25 Q1010 NOSIG=  
30-Apr-2023 SAID35 WAGB 300030 METAR WAGB 300030Z 00000KT 6000 SCT015 26/25 Q1010 NOSIG=  
30-Apr-2023 SAID35 WAGB 300100 METAR WAGB 300100Z 00000KT 7000 SCT006 26/24 Q1010 NOSIG=  
30-Apr-2023 SAID35 WAGB 300130 METAR WAGB 300130Z 00000KT 7000 SCT007 26/24 Q1010 NOSIG=  
30-Apr-2023 SAID35 WAGB 300200 METAR WAGB 300200Z VRB02KT 8000 SCT009 27/25 Q1010 NOSIG=  
30-Apr-2023 SAID35 WAGB 300230 METAR WAGB 300230Z 00000KT 9999 BKN011 28/25 Q1009 NOSIG=  
30-Apr-2023 SAID35 WAGB 300300 METAR WAGB 300300Z 03004KT 9999 BKN011 28/25 Q1009 NOSIG=  
30-Apr-2023 SAID35 WAGB 300330 METAR WAGB 300330Z 01004KT 9999 BKN012 29/25 Q1009 NOSIG=  
30-Apr-2023 SAID35 WAGB 300400 METAR WAGB 300400Z 01005KT 9999 BKN012 30/25 Q1008 NOSIG=  
30-Apr-2023 SAID35 WAGB 300430 METAR WAGB 300430Z 03006KT 9999 BKN012 30/25 Q1008 NOSIG=  
30-Apr-2023 SAID35 WAGB 300500 METAR WAGB 300500Z 35004KT 9999 BKN012 30/25 Q1007 NOSIG=  
30-Apr-2023 SAID35 WAGB 300530 METAR WAGB 300530Z 34005KT 9999 BKN013 32/26 Q1007 NOSIG=  
30-Apr-2023 SAID35 WAGB 300600 METAR WAGB 300600Z 02005KT 9999 SCT012 30/25 Q1006 NOSIG=  
30-Apr-2023 SAID35 WAGB 300630 METAR WAGB 300630Z 02003KT 9999 SCT012 30/25 Q1006 NOSIG=  
30-Apr-2023 SAID35 WAGB 300700 METAR WAGB 300700Z 02006KT 9999 FEW012 30/25 Q1006 NOSIG=  
30-Apr-2023 SAID35 WAGB 300730 METAR WAGB 300730Z 02003KT 9999 FEW012 30/25 Q1005 NOSIG=  
30-Apr-2023 SAID35 WAGB 300800 METAR WAGB 300800Z 02005KT 9999 FEW011CB SCT012 31/24 Q1005 NOSIG=  
30-Apr-2023 SAID35 WAGB 300830 METAR WAGB 300830Z 03005KT 9999 FEW011CB SCT012 31/24 Q1005 NOSIG=  
30-Apr-2023 SAID35 WAGB 300900 METAR WAGB 300900Z 06004KT 9999 FEW011CB SCT012 30/24 Q1006 NOSIG=  
30-Apr-2023 SAID35 WAGB 300930 METAR WAGB 300930Z 03003KT 9999 FEW011CB SCT012 30/24 Q1006 NOSIG=  
30-Apr-2023 SAID35 WAGB 301000 METAR WAGB 301000Z 12002KT 9999 TS FEW011CB SCT012 30/24 Q1007 NOSIG=  
30-Apr-2023 SAID35 WAGB 301030 METAR WAGB 301030Z 00000KT 9999 FEW011CB SCT012 30/24 Q1007 NOSIG=  
30-Apr-2023 SAID35 WAGB 301100 METAR WAGB 301100Z 00000KT 9999 VCTS FEW011CB BKN012 28/24 Q1007 NOSIG=  
30-Apr-2023 SAID35 WAGB 301130 METAR WAGB 301130Z 00000KT 9999 VCTS FEW011CB BKN012 28/24 Q1008 NOSIG=  
30-Apr-2023 SAID35 WAGB 301200 METAR WAGB 301200Z 00000KT 7000 VCTS FEW011CB BKN012 27/24 Q1008=  
30-Apr-2023 SAID35 WAGB 301230 METAR WAGB 301230Z 00000KT 7000 VCTS FEW011CB BKN012 27/24 Q1008=  
30-Apr-2023 SAID35 WAGB 301300 METAR WAGB 301300Z 00000KT 6000 FEW011CB BKN012 26/24 Q1009=  
30-Apr-2023 SAID35 WAGB 301330 METAR WAGB 301330Z 00000KT 6000 FEW011CB BKN012 26/24 Q1009=  
30-Apr-2023 SAID35 WAGB 301400 METAR WAGB 301400Z 00000KT 6000 FEW011CB BKN012 26/24 Q1010=  
30-Apr-2023 SAID35 WAGB 301430 METAR WAGB 301430Z 00000KT 6000 FEW011CB BKN012 26/24 Q1010=  
30-Apr-2023 SAID35 WAGB 301500 METAR WAGB 301500Z 00000KT 6000 FEW011CB BKN012 26/24 Q1010=  
30-Apr-2023 SAID35 WAGB 301530 METAR WAGB 301530Z 00000KT 6000 FEW011CB BKN012 26/24 Q1010=  
30-Apr-2023 SAID35 WAGB 301600 METAR WAGB 301600Z 00000KT 6000 FEW011CB BKN012 25/24 Q1009=  
30-Apr-2023 SAID35 WAGB 301630 METAR WAGB 301630Z 00000KT 6000 FEW011CB BKN012 25/24 Q1009=  
30-Apr-2023 SAID35 WAGB 301700 METAR WAGB 301700Z 00000KT 6000 FEW011CB BKN012 25/24 Q1008=  
30-Apr-2023 SAID35 WAGB 301730 METAR WAGB 301730Z 00000KT 6000 FEW011CB BKN012 25/24 Q1008=  
30-Apr-2023 SAID35 WAGB 301800 METAR WAGB 301800Z 00000KT 6000 SCT011 25/24 Q1007=  
30-Apr-2023 SAID35 WAGB 301830 METAR WAGB 301830Z 00000KT 6000 SCT011 25/24 Q1007=  
30-Apr-2023 SAID35 WAGB 301900 METAR WAGB 301900Z 00000KT 6000 SCT011 25/24 Q1007=  
30-Apr-2023 SAID35 WAGB 301930 METAR WAGB 301930Z 00000KT 6000 SCT011 25/24 Q1007=  
30-Apr-2023 SAID35 WAGB 302000 METAR WAGB 302000Z 00000KT 6000 SCT011 25/24 Q1007=  
30-Apr-2023 SAID35 WAGB 302030 METAR WAGB 302030Z 00000KT 6000 SCT011 25/24 Q1007=  
30-Apr-2023 SAID35 WAGB 302100 METAR WAGB 302100Z 00000KT 3000 BR BKN011 24/24 Q1007=  
30-Apr-2023 SAID35 WAGB 302130 METAR WAGB 302130Z 00000KT 3000 BR BKN010 24/24 Q1007=  
30-Apr-2023 SAID35 WAGB 302200 METAR WAGB 302200Z 00000KT 0200 FG BKN010 24/24 Q1008=  
30-Apr-2023 SAID35 WAGB 302230 METAR WAGB 302230Z 00000KT 0200 FG BKN010 24/24 Q1008=  
30-Apr-2023 SAID35 WAGB 302300 METAR WAGB 302300Z 00000KT 0200 FG SCT009 24/24 Q1008=  
30-Apr-2023 SAID35 WAGB 302330 METAR WAGB 302330Z 00000KT 0500 FG SCT009 24/24 Q1008=  
01-May-2023 SAID35 WAGB 010000 METAR WAGB 010000Z 00000KT 5000 HZ BKN010 25/24 Q1009=  
01-May-2023 SAID35 WAGB 010030 METAR WAGB 010030Z 00000KT 7000 BKN010 27/24 Q1009 NOSIG=  
01-May-2023 SAID35 WAGB 010300 METAR WAGB 010300Z 00000KT 9999 BKN013 32/25 Q1008 NOSIG=  
01-May-2023 SAID35 WAGB 010330 METAR WAGB 010330Z 31005KT 9999 BKN013 32/25 Q1008 NOSIG=  
01-May-2023 SAID35 WAGB 010400 METAR WAGB 010400Z 08003KT 9999 BKN013 33/24 Q1008 NOSIG=  
01-May-2023 SAID35 WAGB 010430 METAR WAGB 010430Z 07002KT 9999 BKN014 33/24 Q1007 NOSIG=  
01-May-2023 SAID35 WAGB 010500 METAR WAGB 010500Z 00000KT 9999 BKN014 34/24 Q1007 NOSIG=  
01-May-2023 SAID35 WAGB 010530 METAR WAGB 010530Z 00000KT 9999 BKN014 34/24 Q1006 NOSIG=  
01-May-2023 SAID35 WAGB 010600 METAR WAGB 010600Z 00000KT 9999 BKN015 34/24 Q1006 NOSIG=  
01-May-2023 SAID35 WAGB 010630 METAR WAGB 010630Z 00000KT 9999 BKN015 34/24 Q1005 NOSIG=  
01-May-2023 SAID35 WAGB 010700 METAR WAGB 010700Z 34003KT 9999 FEW015CB BKN016 34/24 Q1005 NOSIG=  
01-May-2023 SAID35 WAGB 010730 METAR WAGB 010730Z 00000KT 9999 FEW015CB SCT016 35/24 Q1004 NOSIG=  
01-May-2023 SAID35 WAGB 010800 METAR WAGB 010800Z 35003KT 9999 FEW015CB BKN016 34/24 Q1004 NOSIG=  
01-May-2023 SAID35 WAGB 010830 METAR WAGB 010830Z 35003KT 9999 FEW015CB BKN016 34/24 Q1004 NOSIG=  
01-May-2023 SAID35 WAGB 010900 METAR WAGB 010900Z 00000KT 9999 FEW015CB SCT016 34/25 Q1005 NOSIG=  
01-May-2023 SAID35 WAGB 010930 METAR WAGB 010930Z 22006KT 7000 SHRA FEW014CB BKN015 32/25 Q1005 NOSIG=  
01-May-2023 SAID35 WAGB 011000 METAR WAGB 011000Z 00000KT 5000 -TSRA FEW013CB BKN014 28/26 Q1011 NOSIG=  
01-May-2023 SAID35 WAGB 011000 CCA METAR WAGB 011000Z 00000KT 5000 -TSRA FEW013CB BKN014 28/26 Q1006 NOSIG=  
01-May-2023 SAID35 WAGB 011030 METAR WAGB 011030Z 09005KT 5000 -TSRA FEW013CB BKN014 27/25 Q1007 NOSIG=  
01-May-2023 SAID35 WAGB 011100 METAR WAGB 011100Z 00000KT 6000 FEW013CB BKN014 26/25 Q1007=  
01-May-2023 SAID35 WAGB 011100 CCA METAR COR WAGB 011100Z 00000KT 6000 -RA FEW013CB BKN014 26/25 Q1007 RETS=  
01-May-2023 SAID35 WAGB 011130 METAR WAGB 011130Z 00000KT 6000 FEW013CB BKN014 26/25 Q1007=  
01-May-2023 SAID35 WAGB 011130 CCA METAR COR WAGB 011130Z 00000KT 6000 -RA FEW013CB BKN014 26/25 Q1007 NOSIG=  
01-May-2023 SAID35 WAGB 011200 METAR WAGB 011200Z 04003KT 9000 VCTS FEW012CB 26/24 Q1008 RERA=  
01-May-2023 SAID35 WAGB 011230 METAR WAGB 011230Z 00000KT 9000 VCTS FEW012CB SCT013 26/24 Q1008=  
01-May-2023 SAID35 WAGB 011300 METAR WAGB 011300Z 00000KT 8000 VCTS FEW011 SCT012 26/24 Q1009=  
01-May-2023 SAID35 WAGB 011330 METAR WAGB 011330Z 00000KT 8000 FEW011 SCT012 25/24 Q1009=  
01-May-2023 SAID35 WAGB 011400 METAR WAGB 011400Z 00000KT 8000 FEW011 SCT012 25/24 Q1009=  
01-May-2023 SAID35 WAGB 011430 METAR WAGB 011430Z 00000KT 8000 FEW011 SCT012 25/24 Q1010=  
01-May-2023 SAID35 WAGB 011500 METAR WAGB 011500Z 00000KT 8000 VCTS FEW011 SCT012 25/24 Q1009=  
01-May-2023 SAID35 WAGB 011530 METAR WAGB 011530Z 00000KT 8000 VCTS FEW011 SCT012 25/24 Q1009=  
01-May-2023 SAID35 WAGB 011600 METAR WAGB 011600Z 00000KT 8000 VCTS FEW010 SCT011 25/24 Q1009=  
01-May-2023 SAID35 WAGB 011630 METAR WAGB 011630Z 00000KT 8000 VCTS FEW010 SCT011 25/24 Q1009=  
01-May-2023 SAID35 WAGB 011700 METAR WAGB 011700Z 00000KT 8000 VCTS FEW010CB BKN011 25/24 Q1010=  
01-May-2023 SAID35 WAGB 011730 METAR WAGB 011730Z 00000KT 6000 -RA VCTS FEW010CB BKN011 25/24 Q1010=  
01-May-2023 SAID35 WAGB 011800 METAR WAGB 011800Z 00000KT 6000 -RA VCTS FEW010CB BKN011 25/24 Q1010=  
01-May-2023 SAID35 WAGB 011830 METAR WAGB 011830Z 00000KT 6000 -RA VCTS FEW010CB BKN011 25/24 Q1010=  
01-May-2023 SAID35 WAGB 011900 METAR WAGB 011900Z 00000KT 7000 FEW010CB OVC011 25/24 Q1010 RERA=  
01-May-2023 SAID35 WAGB 011930 METAR WAGB 011930Z 00000KT 7000 FEW010CB OVC011 25/24 Q1010=  
01-May-2023 SAID35 WAGB 012000 METAR WAGB 012000Z 00000KT 7000 FEW009CB OVC010 25/24 Q1010=  
01-May-2023 SAID35 WAGB 012030 METAR WAGB 012030Z 00000KT 7000 FEW009CB OVC010 25/24 Q1010=  
01-May-2023 SAID35 WAGB 012130 METAR WAGB 012130Z 00000KT 5000 -RA FEW008CB OVC09 25/24 Q1009=  
01-May-2023 SAID35 WAGB 012200 METAR WAGB 012200Z 00000KT 5000 RA FEW008CB OVC08 25/24 Q1010=  
01-May-2023 SAID35 WAGB 012230 METAR WAGB 012230Z 00000KT 5000 -TSRA FEW008CB OVC08 25/24 Q1010=  
01-May-2023 SAID35 WAGB 012300 CCA METAR COR WAGB 012300Z 00000KT 5000 -RA FEW008CB OVC08 25/24 Q1010 RETS=  
01-May-2023 SAID35 WAGB 012300 METAR WAGB 012300Z 00000KT 5000 -RA FEW008CB OVC08 25/24 Q1010=  
01-May-2023 SAID35 WAGB 012330 METAR WAGB 012300Z 00000KT 5000 -RA FEW008CB OVC08 25/24 Q1011=  
02-May-2023 SAID35 WAGB 020000 METAR WAGB 020000Z 00000KT 3000 -RA BKN006 24/23 Q1011=  
02-May-2023 SAID35 WAGB 020030 METAR WAGB 020030Z 00000KT 3500 -RA BKN006 24/23 Q1011=  
02-May-2023 SAID35 WAGB 020100 CCA METAR WAGB 020100Z 10004KT 3500 -RA BKN006 24/23 Q1011=  
02-May-2023 SAID35 WAGB 020100 METAR WAGB 020100Z 00000KT 3500 -RA BKN006 24/23 Q1011=  
02-May-2023 SAID35 WAGB 020130 METAR WAGB 020130Z 00000KT 3700 -RA BKN006 25/24 Q1011 NOSIG=  
02-May-2023 SAID35 WAGB 020200 METAR WAGB 020200Z 35004KT 4000 -RA BKN006 25/24 Q1011 NOSIG=  
02-May-2023 SAID35 WAGB 020230 METAR WAGB 020230Z 36004KT 4500 HZ BKN006 25/24 Q1012 RERA NOSIG=  
02-May-2023 SAID35 WAGB 020300 METAR WAGB 020300Z 01004KT 5000 DZ BKN006 25/24 Q1012 NOSIG=  
02-May-2023 SAID35 WAGB 020400 CCA METAR WAGB 020400Z 35003KT 6000 HZ BKN008 26/24 Q1011 NOSIG=  
02-May-2023 SAID35 WAGB 020430 METAR WAGB 020430Z 33004KT 6000 HZ BKN008 26/24 Q1011 NOSIG=  
02-May-2023 SAID35 WAGB 020500 METAR WAGB 020500Z 35005KT 7000 SCT009 27/24 Q1009 NOSIG=  
02-May-2023 SAID35 WAGB 020530 METAR WAGB 020530Z 35004KT 8000 SCT009 27/24 Q1009 NOSIG=  
02-May-2023 SAID35 WAGB 020600 METAR WAGB 020600Z 00000KT 9000 BKN012 28/24 Q1008 NOSIG=  
02-May-2023 SAID35 WAGB 020630 METAR WAGB 020630Z 00000KT 9000 BKN012 28/24 Q1008 NOSIG=  
02-May-2023 SAID35 WAGB 020700 METAR WAGB 020700Z 00000KT 9999 BKN012 29/24 Q1007 NOSIG=  
02-May-2023 SAID35 WAGB 020730 METAR WAGB 020730Z 00000KT 9999 BKN012 29/24 Q1007 NOSIG=  
02-May-2023 SAID35 WAGB 020800 METAR WAGB 020800Z 00000KT 9999 BKN012 29/23 Q1006 NOSIG=  
02-May-2023 SAID35 WAGB 020830 METAR WAGB 020830Z 00000KT 9999 BKN012 29/23 Q1006 NOSIG=  
02-May-2023 SAID35 WAGB 020900 METAR WAGB 020900Z 05003KT 9999 BKN012 29/25 Q1007 NOSIG=  
02-May-2023 SAID35 WAGB 020930 METAR WAGB 020930Z 05005KT 9999 BKN012 29/25 Q1007 NOSIG=  
02-May-2023 SAID35 WAGB 021000 METAR WAGB 021000Z 04002KT 9999 BKN012 28/25 Q1008 NOSIG=  
02-May-2023 SAID35 WAGB 021030 METAR WAGB 021030Z 04003KT 9999 BKN012 28/25 Q1009 NOSIG=  
02-May-2023 SAID35 WAGB 021100 METAR WAGB 021100Z 00000KT 9000 BKN012 27/25 Q1009 NOSIG=  
02-May-2023 SAID35 WAGB 021130 METAR WAGB 021130Z 00000KT 9000 BKN012 27/25 Q1010 NOSIG=  
02-May-2023 SAID35 WAGB 021200 METAR WAGB 021200Z 00000KT 7000 SCT012 26/25 Q1010=  
02-May-2023 SAID35 WAGB 021230 METAR WAGB 021230Z 00000KT 7000 SCT012 26/25 Q1010=  
02-May-2023 SAID35 WAGB 021300 METAR WAGB 021300Z 00000KT 7000 SCT012 26/25 Q1010=  
02-May-2023 SAID35 WAGB 021330 METAR WAGB 021330Z 00000KT 7000 SCT012 26/25 Q1010=  
02-May-2023 SAID35 WAGB 021400 METAR WAGB 021400Z 00000KT 7000 SCT012 26/25 Q1011=  
02-May-2023 SAID35 WAGB 021430 METAR WAGB 021430Z 00000KT 7000 SCT012 26/25 Q1011=  
02-May-2023 SAID35 WAGB 021500 METAR WAGB 021500Z 00000KT 7000 SCT011 25/24 Q1011=  
02-May-2023 SAID35 WAGB 021530 METAR WAGB 021530Z 00000KT 7000 SCT011 25/24 Q1011=  
02-May-2023 SAID35 WAGB 021600 METAR WAGB 021600Z 00000KT 7000 SCT013 25/24 Q1010=  
02-May-2023 SAID35 WAGB 021630 METAR WAGB 021630Z 00000KT 7000 SCT011 25/24 Q1010=  
02-May-2023 SAID35 WAGB 021700 METAR WAGB 021700Z 00000KT 7000 FEW011 25/24 Q1009=  
02-May-2023 SAID35 WAGB 021730 METAR WAGB 021730Z 00000KT 7000 FEW011 25/24 Q1009=  
02-May-2023 SAID35 WAGB 021800 METAR WAGB 021800Z 00000KT 3000 BR FEW011 25/24 Q1009=  
02-May-2023 SAID35 WAGB 021830 METAR WAGB 021830Z 00000KT 3000 BR FEW011 25/24 Q1009=  
02-May-2023 SAID35 WAGB 021900 METAR WAGB 021900Z 00000KT 4000 BR FEW011 24/24 Q1008=  
02-May-2023 SAID35 WAGB 021930 METAR WAGB 021930Z 00000KT 4000 BR FEW011 24/24 Q1008=  
02-May-2023 SAID35 WAGB 022000 METAR WAGB 022000Z 00000KT 2000 BR SCT011 24/23 Q1008=  
02-May-2023 SAID35 WAGB 022030 METAR WAGB 022030Z 00000KT 2000 BR SCT011 24/23 Q1008=  
02-May-2023 SAID35 WAGB 022100 METAR WAGB 022100Z 00000KT 0200 FG VV008 24/24 Q1009=  
02-May-2023 SAID35 WAGB 022130 METAR WAGB 022130Z 00000KT 0200 FG VV008 24/24 Q1009=  
02-May-2023 SAID35 WAGB 022200 METAR WAGB 022200Z 00000KT 0200 FG VV008 24/23 Q1009=  
02-May-2023 SAID35 WAGB 022230 METAR WAGB 022230Z 00000KT 0200 FG VV008 24/23 Q1009=  
02-May-2023 SAID35 WAGB 022300 METAR WAGB 022300Z 00000KT 0500 FG FEW010 24/23 Q1010=  
02-May-2023 SAID35 WAGB 022330 METAR WAGB 022330Z 00000KT 0500 FG FEW010 24/23 Q1010=  
03-May-2023 SAID35 WAGB 030000 METAR WAGB 030000Z 00000KT 1000 BR SCT008 25/24 Q1011 BECMG FM0030 TL0130 8000=  
03-May-2023 SAID35 WAGB 030030 METAR WAGB 030030Z 00000KT 3000 BR BKN008 25/24 Q1011 BECMG TL0130 8000=  
03-May-2023 SAID35 WAGB 030100 METAR WAGB 030100Z 31002KT 4000 BKN009 26/25 Q1011 BECMG TL0130 8000=  
03-May-2023 SAID35 WAGB 030130 METAR WAGB 030130Z 27002KT 7000 BKN009 27/25 Q1011 NOSIG=  
03-May-2023 SAID35 WAGB 030200 METAR WAGB 030200Z 08003KT 8000 SCT010 28/25 Q1011 NOSIG=  
03-May-2023 SAID35 WAGB 030230 METAR WAGB 030230Z 06006KT 9999 FEW011 29/25 Q1011 NOSIG=  
03-May-2023 SAID35 WAGB 030300 METAR WAGB 030300Z 00000KT 9999 FEW011 31/24 Q1011 NOSIG=  
03-May-2023 SAID35 WAGB 030330 METAR WAGB 030330Z 34005KT 9999 SCT012 32/25 Q1010 NOSIG=  
03-May-2023 SAID35 WAGB 030400 METAR WAGB 030400Z 32005KT 9999 BKN012 33/25 Q1009 NOSIG=  
03-May-2023 SAID35 WAGB 030430 METAR WAGB 030430Z 30004KT 9999 BKN012 31/24 Q1009 NOSIG=  
03-May-2023 SAID35 WAGB 030500 METAR WAGB 030500Z 25004KT 9999 BKN012 33/25 Q1009 NOSIG=  
03-May-2023 SAID35 WAGB 030530 METAR WAGB 030530Z 32004KT 9999 BKN012 33/24 Q1008 NOSIG=  
03-May-2023 SAID35 WAGB 030600 METAR WAGB 030600Z 33003KT 9999 BKN013 33/24 Q1008 NOSIG=  
03-May-2023 SAID35 WAGB 030630 METAR WAGB 030630Z 00000KT 9999 BKN013 33/24 Q1007 NOSIG=  
03-May-2023 SAID35 WAGB 030700 METAR WAGB 030700Z 00000KT 9999 FEW013 33/25 Q1007 NOSIG=  
03-May-2023 SAID35 WAGB 030730 METAR WAGB 030730Z 26003KT 9999 FEW013 33/25 Q1006 NOSIG=  
03-May-2023 SAID35 WAGB 030800 METAR WAGB 030800Z 00000KT 9999 FEW013 34/25 Q1006 NOSIG=  
03-May-2023 SAID35 WAGB 030830 METAR WAGB 030830Z 34003KT 9999 FEW013 34/25 Q1006 NOSIG=  
03-May-2023 SAID35 WAGB 030900 METAR WAGB 030900Z 00000KT 9999 FEW014CB FEW015 34/24 Q1006 NOSIG=  
03-May-2023 SAID35 WAGB 030930 METAR WAGB 030930Z 00000KT 9999 FEW014CB FEW015 33/24 Q1006 NOSIG=  
03-May-2023 SAID35 WAGB 031000 METAR WAGB 031000Z 00000KT 9999 FEW014CB FEW015 33/25 Q1006 NOSIG=  
03-May-2023 SAID35 WAGB 031030 METAR WAGB 031030Z 00000KT 9999 FEW014CB FEW015 32/25 Q1007 NOSIG=  
03-May-2023 SAID35 WAGB 031100 METAR WAGB 031100Z 00000KT 9999 FEW013CB FEW014 31/26 Q1007 NOSIG=  
03-May-2023 SAID35 WAGB 031130 METAR WAGB 031130Z 00000KT 9999 FEW013CB FEW014 31/24 Q1008 NOSIG=  
03-May-2023 SAID35 WAGB 031200 METAR WAGB 031200Z 14003KT 7000 FEW013CB BKN014 28/25 Q1012 RETS=  
03-May-2023 SAID35 WAGB 031300 METAR WAGB 031300Z 00000KT 7000 VCTS FEW013CB BKN014 27/25 Q1009=  
03-May-2023 SAID35 WAGB 031330 METAR WAGB 031330Z 00000KT 7000 VCTS FEW013CB BKN014 27/25 Q1010=  
03-May-2023 SAID35 WAGB 031400 METAR WAGB 031400Z 00000KT 7000 VCTS FEW013CB BKN014 26/25 Q1010=  
03-May-2023 SAID35 WAGB 031430 METAR WAGB 031430Z 00000KT 7000 VCTS FEW013CB SCT014 26/25 Q1010=  
03-May-2023 SAID35 WAGB 031500 METAR WAGB 031500Z 00000KT 7000 FEW012CB BKN013 27/25 Q1010=  
03-May-2023 SAID35 WAGB 031530 METAR WAGB 031530Z 00000KT 7000 FEW012CB BKN013 26/25 Q1010=  
03-May-2023 SAID35 WAGB 031530 CCA METAR WAGB 031530Z 00000KT 7000 FEW012CB BKN013 26/25 Q1010 RERA=  
03-May-2023 SAID35 WAGB 031600 METAR WAGB 031600Z 00000KT 7000 VCTS FEW012CB BKN013 26/25 Q1010=  
03-May-2023 SAID35 WAGB 031630 METAR WAGB 031630Z 00000KT 6000 SCT011 27/25 Q1009=  
03-May-2023 SAID35 WAGB 031700 METAR WAGB 031700Z 00000KT 7000 VCTS FEW012CB SCT013 26/25 Q1009=  
03-May-2023 SAID35 WAGB 031730 METAR WAGB 031730Z 00000KT 7000 VCTS FEW012CB SCT013 26/25 Q1009=  
03-May-2023 SAID35 WAGB 031800 METAR WAGB 031800Z 00000KT 7000 SCT012 26/25 Q1008=  
03-May-2023 SAID35 WAGB 031830 METAR WAGB 031830Z 00000KT 7000 SCT012 26/25 Q1008=  
03-May-2023 SAID35 WAGB 031900 METAR WAGB 031900Z 00000KT 6000 FEW011 26/25 Q1008=  
03-May-2023 SAID35 WAGB 031930 METAR WAGB 031930Z 00000KT 6000 FEW011 26/25 Q1008=  
03-May-2023 SAID35 WAGB 032000 METAR WAGB 032000Z 00000KT 6000 FEW011 25/24 Q1008=  
03-May-2023 SAID35 WAGB 032030 METAR WAGB 032030Z 00000KT 6000 FEW011 25/24 Q1008=  
03-May-2023 SAID35 WAGB 032100 METAR WAGB 032100Z 00000KT 6000 FEW011 25/24 Q1008=  
03-May-2023 SAID35 WAGB 032130 METAR WAGB 032130Z 00000KT 6000 FEW011 25/24 Q1008=  
03-May-2023 SAID35 WAGB 032200 METAR WAGB 032200Z 00000KT 6000 FEW011 25/24 Q1009=  
03-May-2023 SAID35 WAGB 032230 METAR WAGB 032230Z 00000KT 6000 FEW011 25/24 Q1009=  
03-May-2023 SAID35 WAGB 032300 METAR WAGB 032300Z 00000KT 8000 FEW011 25/24 Q1009=  
03-May-2023 SAID35 WAGB 032330 METAR WAGB 032330Z 00000KT 8000 FEW011 26/25 Q1009=  
04-May-2023 SAID35 WAGB 040000 METAR WAGB 040000Z 00000KT 8000 FEW011 27/25 Q1010 NOSIG=  
04-May-2023 SAID35 WAGB 040030 METAR WAGB 040030Z 00000KT 8000 SCT010 27/25 Q1009=  
04-May-2023 SAID35 WAGB 040100 METAR WAGB 040100Z 22002KT 8000 FEW010 28/25 Q1009 NOSIG=  
04-May-2023 SAID35 WAGB 040130 METAR WAGB 040130Z 30003KT 9000 FEW011 29/26 Q1010 NOSIG=  
04-May-2023 SAID35 WAGB 040200 METAR WAGB 040200Z 25002KT 9000 SCT011 30/26 Q1010 NOSIG=  
04-May-2023 SAID35 WAGB 040230 METAR WAGB 040230Z 19002KT 9000 BKN011 30/26 Q1009 NOSIG=  
04-May-2023 SAID35 WAGB 040300 METAR WAGB 040300Z 00000KT 9999 SCT012 32/25 Q1009 NOSIG=  
04-May-2023 SAID35 WAGB 040330 METAR WAGB 040330Z 01003KT 9999 SCT012 32/25 Q1009 NOSIG=  
04-May-2023 SAID35 WAGB 050330 METAR WAGB 040330Z 17004KT 9999 BKN013 32/24 Q1007 NOSIG=  
04-May-2023 SAID35 WAGB 040400 METAR WAGB 040400Z 27003KT 9999 SCT012 32/26 Q1008 NOSIG=  
04-May-2023 SAID35 WAGB 040430 METAR WAGB 040430Z 27003KT 9999 SCT012 32/25 Q1008 NOSIG=  
04-May-2023 SAID35 WAGB 050430 METAR WAGB 040430Z 00000KT 9999 FEW013TCU BKN014 32/25 Q1006 NOSIG=  
04-May-2023 SAID35 WAGB 040500 METAR WAGB 040500Z 27003KT 9999 SCT012 34/24 Q1007 NOSIG=  
04-May-2023 SAID35 WAGB 040600 METAR WAGB 040600Z 01003KT 9999 FEW013TCU SCT014 33/27 Q1006 NOSIG=  
04-May-2023 SAID35 WAGB 040630 METAR WAGB 040630Z 00000KT 9999 FEW013TCU SCT014 33/27 Q1006 NOSIG=  
04-May-2023 SAID35 WAGB 040700 METAR WAGB 040700Z 00000KT 9999 FEW017TCU 34/25 Q1005 NOSIG=  
04-May-2023 SAID35 WAGB 040730 METAR WAGB 040730Z 00000KT 9999 FEW017TCU 34/25 Q1005 NOSIG=  
04-May-2023 SAID35 WAGB 040800 METAR WAGB 040800Z 00000KT 9999 FEW017CB SCT018 34/25 Q1005 NOSIG=  
04-May-2023 SAID35 WAGB 040830 METAR WAGB 040830Z 00000KT 9999 FEW017CB SCT018 34/25 Q1005 NOSIG=  
04-May-2023 SAID35 WAGB 040900 METAR WAGB 040900Z 20004KT 9999 FEW017CB SCT018 33/26 Q1004 NOSIG=  
04-May-2023 SAID35 WAGB 040930 METAR WAGB 040930Z 00000KT 9999 FEW017CB SCT018 33/26 Q1004 NOSIG=  
04-May-2023 SAID35 WAGB 041000 METAR WAGB 041000Z 00000KT 9999 SCT017 30/24 Q1005 NOSIG=  
04-May-2023 SAID35 WAGB 041030 METAR WAGB 041030Z 00000KT 9999 FEW017 30/24 Q1005 NOSIG=  
04-May-2023 SAID35 WAGB 041100 METAR WAGB 041100Z 00000KT 9999 FEW017 29/24 Q1006 NOSIG=  
04-May-2023 SAID35 WAGB 041130 METAR WAGB 041130Z 00000KT 9999 FEW016 29/24 Q1006 NOSIG=  
04-May-2023 SAID35 WAGB 041200 METAR WAGB 041200Z 00000KT 8000 FEW014 28/25 Q1007=  
04-May-2023 SAID35 WAGB 041230 METAR WAGB 041230Z 00000KT 8000 FEW014 28/25 Q1007=  
04-May-2023 SAID35 WAGB 041300 METAR WAGB 041300Z 00000KT 8000 FEW014 28/25 Q1008=  
04-May-2023 SAID35 WAGB 041330 METAR WAGB 041330Z 00000KT 8000 FEW014 28/25 Q1008=  
04-May-2023 SAID35 WAGB 041400 METAR WAGB 041400Z 00000KT 8000 FEW014 27/25 Q1009=  
04-May-2023 SAID35 WAGB 041430 METAR WAGB 041430Z 00000KT 8000 FEW014 27/25 Q1009=  
04-May-2023 SAID35 WAGB 041500 METAR WAGB 041500Z 00000KT 8000 FEW011 27/25 Q1008=  
04-May-2023 SAID35 WAGB 041530 METAR WAGB 041530Z 00000KT 8000 FEW011 27/25 Q1008=  
04-May-2023 SAID35 WAGB 041600 METAR WAGB 041600Z 00000KT 8000 FEW011 26/25 Q1008=  
04-May-2023 SAID35 WAGB 041630 METAR WAGB 041630Z 00000KT 8000 FEW011 26/25 Q1008=  
04-May-2023 SAID35 WAGB 041700 METAR WAGB 041700Z 00000KT 7000 FEW011 26/25 Q1008=  
04-May-2023 SAID35 WAGB 041730 METAR WAGB 041730Z 00000KT 7000 FEW011 26/25 Q1008=  
04-May-2023 SAID35 WAGB 041800 METAR WAGB 041800Z 00000KT 6000 FEW010 26/25 Q1007=  
04-May-2023 SAID35 WAGB 041830 METAR WAGB 041830Z 00000KT 6000 FEW010 26/25 Q1007=  
04-May-2023 SAID35 WAGB 041900 METAR WAGB 041900Z 00000KT 6000 SCT010 26/25 Q1007=  
04-May-2023 SAID35 WAGB 041930 METAR WAGB 041930Z 00000KT 6000 SCT010 26/25 Q1007=  
04-May-2023 SAID35 WAGB 042000 METAR WAGB 042000Z 00000KT 6000 SCT010 26/24 Q1007=  
04-May-2023 SAID35 WAGB 042030 METAR WAGB 042030Z 00000KT 6000 SCT010 26/24 Q1007=  
04-May-2023 SAID35 WAGB 042100 METAR WAGB 042100Z 00000KT 6000 SCT010 26/24 Q1007=  
04-May-2023 SAID35 WAGB 042130 METAR WAGB 042130Z 00000KT 6000 SCT010 26/24 Q1007=  
04-May-2023 SAID35 WAGB 042200 METAR WAGB 042200Z 00000KT 6000 BKN010 26/25 Q1007=  
04-May-2023 SAID35 WAGB 042230 METAR WAGB 042230Z 00000KT 6000 BKN010 26/25 Q1007=  
04-May-2023 SAID35 WAGB 042300 METAR WAGB 042300Z 00000KT 6000 BKN010 26/25 Q1007=  
04-May-2023 SAID35 WAGB 042330 METAR WAGB 042330Z 00000KT 5000 BKN009 26/25 Q1007=  
05-May-2023 SAID35 WAGB 050000 METAR WAGB 050000Z 00000KT 7000 SCT012 27/25 Q1008 NOSIG=  
05-May-2023 SAID35 WAGB 050030 METAR WAGB 050030Z 00000KT 7000 SCT012 27/25 Q1008 NOSIG=  
05-May-2023 SAID35 WAGB 050100 METAR WAGB 050100Z 00000KT 8000 BKN012 28/26 Q1008 NOSIG=  
05-May-2023 SAID35 WAGB 050130 METAR WAGB 050130Z 00000KT 9000 BKN012 29/25 Q1008 NOSIG=  
05-May-2023 SAID35 WAGB 050200 METAR WAGB 050200Z 00000KT 9000 BKN012 30/26 Q1008 NOSIG=  
05-May-2023 SAID35 WAGB 050230 METAR WAGB 050230Z 00000KT 9000 BKN012 31/25 Q1008 NOSIG=  
05-May-2023 SAID35 WAGB 050300 METAR WAGB 050300Z 21007KT 9999 BKN013 32/25 Q1007 NOSIG=  
05-May-2023 SAID35 WAGB 050330 METAR WAGB 050330Z 17004KT 9999 BKN013 32/24 Q1007 NOSIG=  
05-May-2023 SAID35 WAGB 050400 METAR WAGB 050400Z 22007KT 9999 SCT013 33/25 Q1007 NOSIG=  
05-May-2023 SAID35 WAGB 050430 METAR WAGB 050430Z 00000KT 9999 FEW013TCU BKN014 32/25 Q1006 NOSIG=  
05-May-2023 SAID35 WAGB 050500 METAR WAGB 050500Z 20003KT 9999 FEW013TCU BKN014 32/25 Q1006 NOSIG=  
05-May-2023 SAID35 WAGB 050530 METAR WAGB 050530Z 26003KT 9999 FEW014TCU BKN015 33/26 Q1005 NOSIG=  
05-May-2023 SAID35 WAGB 050600 METAR WAGB 050600Z 25005KT 9999 FEW014TCU SCT015 33/25 Q1005 NOSIG=  
05-May-2023 SAID35 WAGB 050630 METAR WAGB 050630Z 27004KT 9999 FEW014TCU SCT015 34/25 Q1004 NOSIG=  
05-May-2023 SAID35 WAGB 050700 METAR WAGB 050700Z 22003KT 9999 FEW015TCU SCT016 33/26 Q1003 NOSIG=  
05-May-2023 SAID35 WAGB 050730 METAR WAGB 050730Z 00000KT 9999 FEW015TCU SCT016 33/26 Q1003 NOSIG=  
05-May-2023 SAID35 WAGB 050800 METAR WAGB 050800Z 21003KT 9999 FEW015TCU SCT016 33/26 Q1003 NOSIG=  
05-May-2023 SAID35 WAGB 050830 METAR WAGB 050830Z 20003KT 9999 FEW015TCU FEW016 32/26 Q1003 NOSIG=  
05-May-2023 SAID35 WAGB 050900 METAR WAGB 050900Z 00000KT 9999 FEW015 33/26 Q1003 NOSIG=  
05-May-2023 SAID35 WAGB 050930 METAR WAGB 050930Z 00000KT 9999 FEW015 33/26 Q1003 NOSIG=  
05-May-2023 SAID35 WAGB 051000 METAR WAGB 051000Z 00000KT 9999 FEW014 32/26 Q1004 NOSIG=  
05-May-2023 SAID35 WAGB 051030 METAR WAGB 051030Z 00000KT 9999 FEW014 32/26 Q1004 NOSIG=  
05-May-2023 SAID35 WAGB 051100 METAR WAGB 051100Z 00000KT 8000 FEW015 31/27 Q1005 NOSIG=  
05-May-2023 SAID35 WAGB 051130 METAR WAGB 051130Z 00000KT 8000 FEW015 31/27 Q1005 NOSIG=  
05-May-2023 SAID35 WAGB 051200 METAR WAGB 051200Z 00000KT 8000 VCTS FEW014CB SCT015 30/27 Q1005=  
05-May-2023 SAID35 WAGB 051230 METAR WAGB 051230Z 00000KT 8000 VCTS FEW014CB SCT015 30/27 Q1005=  
05-May-2023 SAID35 WAGB 051300 METAR WAGB 051300Z 00000KT 6000 FEW014CB SCT015 29/27 Q1006=  
05-May-2023 SAID35 WAGB 051330 METAR WAGB 051330Z 00000KT 5000 SHRA FEW014CB BKN015 29/27 Q1006=  
05-May-2023 SAID35 WAGB 051400 METAR WAGB 051400Z 00000KT 6000 FEW011CB BKN012 29/27 Q1007 RERA=  
05-May-2023 SAID35 WAGB 051430 METAR WAGB 051430Z 00000KT 6000 VCTS FEW013CB BKN014 29/27 Q1007=  
05-May-2023 SAID35 WAGB 051500 METAR WAGB 051500Z 00000KT 5000 VCTS FEW012CB BKN013 28/27 Q1007=  
05-May-2023 SAID35 WAGB 051530 METAR WAGB 051530Z 00000KT 5000 VCTS FEW012CB BKN013 28/27 Q1007=  
05-May-2023 SAID35 WAGB 051600 METAR WAGB 051600Z 00000KT 5000 SHRA FEW012CB BKN013 28/26 Q1008=  
05-May-2023 SAID35 WAGB 051630 METAR WAGB 051630Z 20004KT 3000 TSRA FEW012CB BKN013 28/26 Q1008=  
05-May-2023 SAID35 WAGB 051700 METAR WAGB 051700Z 00000KT 3000 -TSRA FEW011CB BKN012 27/26 Q1008=  
05-May-2023 SAID35 WAGB 051730 METAR WAGB 051730Z 00000KT 3500 TS FEW011CB BKN012 27/26 Q1008=  
05-May-2023 SAID35 WAGB 051800 METAR WAGB 051800Z 00000KT 3500 VCSH FEW011CB BKN012 26/25 Q1007=  
05-May-2023 SAID35 WAGB 051830 METAR WAGB 051830Z 00000KT 3500 FEW011CB BKN012 26/25 Q1007=  
05-May-2023 SAID35 WAGB 051900 METAR WAGB 051900Z 00000KT 3500 BR FEW010CB BKN011 26/22 Q1007=  
05-May-2023 SAID35 WAGB 051930 METAR WAGB 051930Z 00000KT 3500 BR FEW010CB BKN011 26/22 Q1007=  
05-May-2023 SAID35 WAGB 052000 METAR WAGB 052000Z 00000KT 3500 BR BKN011 25/25 Q1007=  
05-May-2023 SAID35 WAGB 052030 METAR WAGB 052030Z 00000KT 3500 BR BKN011 25/25 Q1007=  
05-May-2023 SAID35 WAGB 052100 METAR WAGB 052100Z 00000KT 4000 -RA BKN010 25/25 Q1007=  
05-May-2023 SAID35 WAGB 052130 METAR WAGB 052130Z 00000KT 4000 -RA BKN010 25/25 Q1007=  
05-May-2023 SAID35 WAGB 052200 METAR WAGB 052200Z 00000KT 4000 BR SCT010 25/25 Q1007 RERA=  
05-May-2023 SAID35 WAGB 052200 CCA METAR WAGB 052200Z 00000KT 4000 SCT010 25/25 Q1007 RERA=  
05-May-2023 SAID35 WAGB 052230 METAR WAGB 052230Z 00000KT 5000 SCT010 25/25 Q1007=  
05-May-2023 SAID35 WAGB 052300 METAR WAGB 052300Z 00000KT 5000 SCT010 25/25 Q1008=  
05-May-2023 SAID35 WAGB 052330 METAR WAGB 052330Z 00000KT 5000 SCT010 25/25 Q1008=  
06-May-2023 SAID35 WAGB 060000 METAR WAGB 060000Z 29003KT 5000 VCSH BKN010 25/24 Q1009 NOSIG=  
06-May-2023 SAID35 WAGB 060030 METAR WAGB 060030Z VRB02KT 5000 VCSH BKN010 25/24 Q1009 NOSIG=  
06-May-2023 SAID35 WAGB 060100 METAR WAGB 060100Z 00000KT 6000 BKN011 26/24 Q1009 NOSIG=  
06-May-2023 SAID35 WAGB 060130 METAR WAGB 060130Z 00000KT 6000 BKN011 26/24 Q1009 NOSIG=  
06-May-2023 SAID35 WAGB 060200 METAR WAGB 060200Z 00000KT 8000 SCT012 29/25 Q1009 NOSIG=  
06-May-2023 SAID35 WAGB 060230 METAR WAGB 060230Z 28003KT 8000 SCT012 29/25 Q1009 NOSIG=  
06-May-2023 SAID35 WAGB 060300 METAR WAGB 060300Z 00000KT 8000 SCT012 29/24 Q1009 NOSIG=  
06-May-2023 SAID35 WAGB 060330 METAR WAGB 060330Z 00000KT 8000 BKN012 30/25 Q1008 NOSIG=  
06-May-2023 SAID35 WAGB 070330 METAR WAGB 060330Z 00000KT 9999 FEW013TCU BKN014 31/25 Q1007 NOSIG=  
06-May-2023 SAID35 WAGB 060400 METAR WAGB 060400Z 00000KT 8000 BKN012 30/25 Q1007 NOSIG=  
06-May-2023 SAID35 WAGB 060430 METAR WAGB 060430Z 19003KT 8000 BKN012 30/25 Q1006 NOSIG=  
06-May-2023 SAID35 WAGB 060500 METAR WAGB 060500Z 00000KT 9999 BKN012 31/25 Q1006 NOSIG=  
06-May-2023 SAID35 WAGB 060530 METAR WAGB 060530Z 00000KT 9999 BKN012 31/25 Q1006 NOSIG=  
06-May-2023 SAID35 WAGB 060600 METAR WAGB 060600Z 29005KT 8000 FEW012CB SCT013 31/26 Q1005 NOSIG=  
06-May-2023 SAID35 WAGB 060630 METAR WAGB 060630Z 26005KT 8000 FEW012CB SCT013 30/26 Q1005 NOSIG=  
06-May-2023 SAID35 WAGB 060700 METAR WAGB 060700Z 00000KT 5000 VCSH FEW012CB BKN013 28/25 Q1005 NOSIG=  
06-May-2023 SAID35 WAGB 060730 METAR WAGB 060730Z 25004KT 5000 VCSH FEW012CB BKN013 28/25 Q1005 NOSIG=  
06-May-2023 SAID35 WAGB 060800 METAR WAGB 060800Z 27003KT 8000 FEW012CB 29/26 Q1005 NOSIG=  
06-May-2023 SAID35 WAGB 060800 CCA METAR WAGB 060800Z 27003KT 8000 FEW012CB SCT013 29/26 Q1005 NOSIG=  
06-May-2023 SAID35 WAGB 060830 METAR WAGB 060830Z 27003KT 8000 FEW012CB SCT013 29/26 Q1005 NOSIG=  
06-May-2023 SAID35 WAGB 060900 METAR WAGB 060900Z 00000KT 8000 FEW012CB SCT013 29/26 Q1005 NOSIG=  
06-May-2023 SAID35 WAGB 060930 METAR WAGB 060930Z 35003KT 8000 FEW012CB SCT013 29/26 Q1005 NOSIG=  
06-May-2023 SAID35 WAGB 061000 METAR WAGB 061000Z 26003KT 8000 FEW011CB SCT012 29/26 Q1005 NOSIG=  
06-May-2023 SAID35 WAGB 061030 METAR WAGB 061030Z 00000KT 8000 FEW011CB SCT012 29/26 Q1005 NOSIG=  
06-May-2023 SAID35 WAGB 061100 METAR WAGB 061100Z 00000KT 8000 FEW011CB SCT012 29/26 Q1006 NOSIG=  
06-May-2023 SAID35 WAGB 061130 METAR WAGB 061130Z 00000KT 8000 FEW011CB SCT012 29/26 Q1006 NOSIG=  
06-May-2023 SAID35 WAGB 061200 METAR WAGB 061200Z 00000KT 8000 VCTS FEW011CB SCT012 28/26 Q1007=  
06-May-2023 SAID35 WAGB 061230 METAR WAGB 061230Z 00000KT 8000 VCTS FEW011CB SCT012 28/26 Q1007=  
06-May-2023 SAID35 WAGB 061300 METAR WAGB 061300Z 00000KT 7000 VCTS FEW011CB SCT012 28/27 Q1008=  
06-May-2023 SAID35 WAGB 061330 METAR WAGB 061330Z 00000KT 7000 VCTS FEW011CB SCT012 27/26 Q1008=  
06-May-2023 SAID35 WAGB 061400 METAR WAGB 061400Z 00000KT 7000 VCTS FEW011CB SCT012 27/26 Q1008=  
06-May-2023 SAID35 WAGB 061430 METAR WAGB 061430Z 00000KT 7000 VCTS FEW011CB SCT012 27/26 Q1008=  
06-May-2023 SAID35 WAGB 061800 METAR WAGB 061800Z 00000KT 6000 SCT011 26/25 Q1007=  
06-May-2023 SAID35 WAGB 061830 METAR WAGB 061830Z 00000KT 6000 SCT011 26/25 Q1007=  
06-May-2023 SAID35 WAGB 061900 METAR WAGB 061900Z 00000KT 6000 BKN011 26/25 Q1007=  
06-May-2023 SAID35 WAGB 061930 METAR WAGB 061930Z 00000KT 6000 BKN011 26/25 Q1007=  
06-May-2023 SAID35 WAGB 062000 METAR WAGB 062000Z 00000KT 6000 BKN011 23/22 Q1012=  
06-May-2023 SAID35 WAGB 062030 METAR WAGB 062030Z 00000KT 6000 BKN011 23/22 Q1012=  
06-May-2023 SAID35 WAGB 062100 METAR WAGB 062100Z 00000KT 6000 SCT011 26/25 Q1007=  
06-May-2023 SAID35 WAGB 062130 METAR WAGB 062130Z 00000KT 6000 SCT011 26/25 Q1007=  
06-May-2023 SAID35 WAGB 062200 METAR WAGB 062200Z 00000KT 6000 SCT011 25/25 Q1008=  
06-May-2023 SAID35 WAGB 062230 METAR WAGB 062230Z 00000KT 6000 SCT011 25/25 Q1008=  
06-May-2023 SAID35 WAGB 062300 METAR WAGB 062300Z 00000KT 3000 BR SCT011 25/25 Q1008=  
06-May-2023 SAID35 WAGB 062330 METAR WAGB 062330Z 00000KT 5000 HZ SCT011 25/25 Q1008=  
07-May-2023 SAID35 WAGB 070000 METAR WAGB 070000Z 00000KT 5000 HZ FEW006 27/25 Q1009 NOSIG=  
07-May-2023 SAID35 WAGB 070030 METAR WAGB 070030Z 00000KT 5000 HZ FEW006 27/25 Q1009 NOSIG=  
07-May-2023 SAID35 WAGB 070100 METAR WAGB 070100Z 00000KT 8000 FEW009 29/26 Q1009 NOSIG=  
07-May-2023 SAID35 WAGB 070130 METAR WAGB 070130Z 00000KT 9000 SCT010 29/26 Q1009 NOSIG=  
07-May-2023 SAID35 WAGB 070200 METAR WAGB 070200Z 00000KT 9999 SCT011 30/26 Q1009 NOSIG=  
07-May-2023 SAID35 WAGB 070230 METAR WAGB 070230Z 00000KT 9999 SCT011 31/26 Q1009 NOSIG=  
07-May-2023 SAID35 WAGB 070300 METAR WAGB 070300Z 25002KT 9999 BKN012 31/25 Q1008 NOSIG=  
07-May-2023 SAID35 WAGB 070330 CCA METAR WAGB 070330Z 00000KT 9999 FEW013TCU BKN014 31/25 Q1007 NOSIG=  
07-May-2023 SAID35 WAGB 070430 METAR WAGB 070430Z 20005KT 9999 FEW013TCU BKN014 32/24 Q1006 NOSIG=  
07-May-2023 SAID35 WAGB 070500 CCA METAR WAGB 070500Z 12005KT 9999 FEW013TCU BKN014 32/24 Q1005 NOSIG=  
07-May-2023 SAID35 WAGB 070530 METAR WAGB 070530Z 05006KT 9000 -TS FEW013CB BKN014 31/25 Q1005 NOSIG=  
07-May-2023 SAID35 WAGB 070600 METAR WAGB 070600Z 00000KT 9999 FEW013CB BKN014 31/27 Q1005 RERA NOSIG=  
07-May-2023 SAID35 WAGB 070630 METAR WAGB 070630Z 00000KT 9999 FEW013CB BKN014 31/27 Q1005 NOSIG=  
07-May-2023 SAID35 WAGB 070700 METAR WAGB 070700Z 29005KT 9999 -TS FEW013CB BKN014 30/25 Q1005 NOSIG=  
07-May-2023 SPID33 WAGB 070717 SPECI WAGB 070717Z 25004KT 6000 -TSRA FEW013CB BKN014 30/25 Q1005 NOSIG=  
07-May-2023 SAID35 WAGB 070730 METAR WAGB 070730Z 24004KT 5000 -RA FEW013CB BKN014 30/25 Q1005 RETS NOSIG=  
07-May-2023 SAID35 WAGB 070800 METAR WAGB 070800Z 00000KT 8000 FEW013CB BKN014 28/25 Q1004 NOSIG=  
07-May-2023 SAID35 WAGB 070830 METAR WAGB 070830Z 00000KT 8000 FEW013CB BKN014 28/25 Q1004 NOSIG=  
07-May-2023 SAID35 WAGB 070900 METAR WAGB 070900Z 00000KT 9000 FEW013CB SCT014 28/26 Q1005 NOSIG=  
07-May-2023 SAID35 WAGB 070930 METAR WAGB 070930Z 00000KT 9000 FEW013CB SCT014 28/26 Q1005 NOSIG=  
07-May-2023 SAID35 WAGB 071000 METAR WAGB 071000Z 00000KT 9000 SCT013 28/27 Q1005 NOSIG=  
07-May-2023 SAID35 WAGB 071030 METAR WAGB 071030Z 00000KT 9000 SCT013 27/26 Q1006 NOSIG=  
07-May-2023 SAID35 WAGB 071100 METAR WAGB 071100Z 00000KT 8000 SCT013 28/26 Q1006 NOSIG=  
07-May-2023 SAID35 WAGB 071130 METAR WAGB 071130Z 00000KT 8000 SCT013 27/25 Q1006 NOSIG=  
07-May-2023 SAID35 WAGB 071200 METAR WAGB 071200Z 00000KT 8000 VCTS FEW012CB SCT013 27/26 Q1007=  
07-May-2023 SAID35 WAGB 071230 METAR WAGB 071230Z 00000KT 8000 VCTS FEW012CB SCT013 27/26 Q1007=  
07-May-2023 SAID35 WAGB 071300 METAR WAGB 071300Z 00000KT 8000 VCTS FEW012CB SCT013 27/26 Q1008=  
07-May-2023 SAID35 WAGB 071330 METAR WAGB 071330Z 00000KT 8000 VCTS FEW012CB SCT013 27/26 Q1008=  
07-May-2023 SAID35 WAGB 071400 METAR WAGB 071400Z 00000KT 8000 VCTS FEW012CB SCT013 27/26 Q1008=  
07-May-2023 SAID35 WAGB 071430 METAR WAGB 071430Z 00000KT 8000 VCTS FEW012CB SCT013 27/26 Q1008=  
07-May-2023 SAID35 WAGB 071500 METAR WAGB 071500Z 00000KT 7000 VCTS FEW012CB SCT013 27/26 Q1009=  
07-May-2023 SAID35 WAGB 071530 METAR WAGB 071530Z 00000KT 7000 -TSRA FEW012CB SCT013 27/26 Q1009=  
07-May-2023 SAID35 WAGB 071600 METAR WAGB 071600Z 23005KT 3000 RA FEW011CB BKN012 26/25 Q1009 RETS=  
07-May-2023 SAID35 WAGB 071630 METAR WAGB 071630Z 23005KT 4000 -RA FEW011CB BKN012 26/25 Q1009=  
07-May-2023 SAID35 WAGB 071700 METAR WAGB 071700Z 00000KT 4000 -RA FEW011CB BKN012 25/25 Q1008=  
07-May-2023 SAID35 WAGB 071730 METAR WAGB 071730Z 00000KT 5000 FEW011CB BKN012 25/25 Q1008 RERA=  
07-May-2023 SAID35 WAGB 071800 METAR WAGB 071800Z 00000KT 5000 VCSH FEW011CB BKN012 25/25 Q1008=  
07-May-2023 SAID35 WAGB 071830 METAR WAGB 071830Z 00000KT 5000 VCSH FEW011CB BKN012 25/25 Q1008=  
07-May-2023 SAID35 WAGB 071900 METAR WAGB 071900Z 00000KT 5000 VCSH FEW011CB BKN012 25/25 Q1007=  
07-May-2023 SAID35 WAGB 071930 METAR WAGB 071930Z 00000KT 5000 VCSH FEW011CB BKN012 25/25 Q1007=  
07-May-2023 SAID35 WAGB 072000 METAR WAGB 072000Z 00000KT 5000 VCSH FEW011CB BKN012 25/24 Q1007=  
07-May-2023 SAID35 WAGB 072030 METAR WAGB 072030Z 00000KT 5000 VCSH FEW011CB BKN012 25/24 Q1007=  
07-May-2023 SAID35 WAGB 072100 METAR WAGB 072100Z 00000KT 5000 HZ BKN011 25/24 Q1007=  
07-May-2023 SAID35 WAGB 072130 METAR WAGB 072130Z 00000KT 5000 HZ BKN011 25/24 Q1007=  
07-May-2023 SAID35 WAGB 072200 METAR WAGB 072200Z 00000KT 5000 HZ BKN011 25/24 Q1009=  
07-May-2023 SAID35 WAGB 072230 METAR WAGB 072230Z 00000KT 5000 HZ BKN011 25/24 Q1009=  
07-May-2023 SAID35 WAGB 072300 METAR WAGB 072300Z 00000KT 5000 HZ BKN011 26/24 Q1009=  
07-May-2023 SAID35 WAGB 072330 METAR WAGB 072330Z 00000KT 5000 HZ BKN011 26/24 Q1009=  
08-May-2023 SAID35 WAGB 080000 METAR WAGB 080000Z 00000KT 6000 BKN011 25/24 Q1010 NOSIG=  
08-May-2023 SAID35 WAGB 080030 METAR WAGB 080030Z 00000KT 6000 BKN011 25/24 Q1010 NOSIG=  
08-May-2023 SAID35 WAGB 080100 METAR WAGB 080100Z 25003KT 7000 BKN011 26/24 Q1010 NOSIG=  
08-May-2023 SAID35 WAGB 080130 METAR WAGB 080130Z 25003KT 7000 BKN011 26/24 Q1010 NOSIG=  
08-May-2023 SAID35 WAGB 080200 METAR WAGB 080200Z 27004KT 9000 BKN012 27/25 Q1010 NOSIG=  
08-May-2023 SAID35 WAGB 080230 METAR WAGB 080230Z 26004KT 7000 BKN011 27/25 Q1010 NOSIG=  
08-May-2023 SAID35 WAGB 080300 METAR WAGB 080300Z 24003KT 8000 BKN012 28/25 Q1010 NOSIG=  
08-May-2023 SAID35 WAGB 080330 METAR WAGB 080330Z 00000KT 9000 BKN012 28/25 Q1010 NOSIG=  
08-May-2023 SAID35 WAGB 080400 METAR WAGB 080400Z 31004KT 7000 BKN009 28/25 Q1010 NOSIG=  
08-May-2023 SAID35 WAGB 080430 METAR WAGB 080430Z 27004KT 8000 BKN009 28/25 Q1009 NOSIG=  
08-May-2023 SAID35 WAGB 080500 CCA METAR COR WAGB 080500Z 27004KT 8000 VCSH FEW009TCU SCT010 28/25 Q1009 NOSIG=  
08-May-2023 SAID35 WAGB 080500 METAR WAGB 080500Z 27004KT 8000 VCSH BKN009 28/25 Q1009 NOSIG=  
08-May-2023 SAID35 WAGB 080530 METAR WAGB 080530Z 22004KT 9000 VCSH FEW010TCU SCT011 28/25 Q1008 NOSIG=  
08-May-2023 SAID35 WAGB 080600 METAR WAGB 080600Z 27003KT 9000 FEW013CB SCT014 29/23 Q1008 NOSIG=  
08-May-2023 SAID35 WAGB 080630 METAR WAGB 080630Z 26003KT 9000 FEW013CB SCT014 29/23 Q1008 NOSIG=  
08-May-2023 SAID35 WAGB 080700 METAR WAGB 080700Z 00000KT 9999 FEW013CB SCT014 30/25 Q1007 NOSIG=  
08-May-2023 SAID35 WAGB 080730 METAR WAGB 080730Z 00000KT 9999 FEW013CB SCT014 30/25 Q1007 NOSIG=  
08-May-2023 SAID35 WAGB 080800 METAR WAGB 080800Z 33003KT 5000 VCSH FEW012CB SCT013 30/25 Q1007 NOSIG=  
08-May-2023 SAID35 WAGB 080830 METAR WAGB 080830Z 00000KT 5000 VCSH FEW012CB SCT013 30/25 Q1007 NOSIG=  
08-May-2023 SAID35 WAGB 080900 METAR WAGB 080900Z 28003KT 9999 FEW012CB SCT013 30/26 Q1007 NOSIG=  
08-May-2023 SAID35 WAGB 080930 METAR WAGB 080930Z 00000KT 9999 FEW013CB SCT014 30/26 Q1007 NOSIG=  
08-May-2023 SAID35 WAGB 081000 METAR WAGB 081000Z 00000KT 9999 FEW013CB FEW014 30/25 Q1007 NOSIG=  
08-May-2023 SAID35 WAGK 081030 METAR WAGB 081030Z 00000KT 9999 FEW013CB FEW014 29/25 Q1007 NOSIG=  
08-May-2023 SAID35 WAGB 081100 METAR WAGB 081100Z 00000KT 9000 FEW014CB FEW015 28/25 Q1007 NOSIG=  
08-May-2023 SAID35 WAGB 081130 METAR WAGB 081130Z 00000KT 9000 FEW013CB FEW014 28/25 Q1007 NOSIG=  
08-May-2023 SAID35 WAGB 081200 METAR WAGB 081200Z 00000KT 8000 FEW013CB FEW014 28/26 Q1008 NOSIG=  
08-May-2023 SAID35 WAGB 081230 METAR WAGB 081230Z 00000KT 8000 FEW013CB SCT014 28/26 Q1008 NOSIG=  
08-May-2023 SAID35 WAGB 081300 METAR WAGB 081300Z 00000KT 8000 BKN013 27/26 Q1009 NOSIG=  
08-May-2023 SAID35 WAGB 081330 METAR WAGB 081330Z 00000KT 8000 SCT013 27/26 Q1009 NOSIG=  
08-May-2023 SAID35 WAGB 081400 METAR WAGB 081400Z 00000KT 7000 SCT012 27/25 Q1010 NOSIG=  
08-May-2023 SAID35 WAGB 081430 METAR WAGB 081430Z 00000KT 7000 BKN012 27/25 Q1010 NOSIG=  
08-May-2023 SAID35 WAGB 081500 METAR WAGB 081500Z 00000KT 7000 BKN012 27/25 Q1010 NOSIG=  
08-May-2023 SAID35 WAGB 081530 METAR WAGB 081530Z 00000KT 7000 BKN012 27/25 Q1009 NOSIG=  
08-May-2023 SAID35 WAGB 081600 METAR WAGB 081600Z 00000KT 6000 BKN012 26/25 Q1009 NOSIG=  
08-May-2023 SAID35 WAGB 081630 METAR WAGB 081630Z 00000KT 6000 BKN012 26/25 Q1009 NOSIG=  
08-May-2023 SAID35 WAGB 081700 METAR WAGB 081700Z 00000KT 6000 BKN012 26/25 Q1009 NOSIG=  
08-May-2023 SAID35 WAGB 081730 METAR WAGB 081730Z 00000KT 6000 BKN012 26/25 Q1009 NOSIG=  
08-May-2023 SAID35 WAGB 081800 METAR WAGB 081800Z 00000KT 6000 SCT011 26/25 Q1009 NOSIG=  
08-May-2023 SAID35 WAGB 081830 METAR WAGB 081830Z 00000KT 6000 SCT011 26/25 Q1008 NOSIG=  
08-May-2023 SAID35 WAGB 081900 METAR WAGB 081900Z 00000KT 5000 BR SCT010 26/25 Q1008 NOSIG=  
08-May-2023 SAID35 WAGB 081930 METAR WAGB 081930Z 00000KT 5000 BR SCT010 26/25 Q1008 NOSIG=  
08-May-2023 SAID35 WAGB 082000 METAR WAGB 082000Z 00000KT 4000 BR SCT009 25/25 Q1008 NOSIG=  
08-May-2023 SAID35 WAGB 082030 METAR WAGB 082030Z 00000KT 3500 BR SCT009 25/25 Q1009 NOSIG=  
08-May-2023 SAID35 WAGB 082100 METAR WAGB 082100Z 00000KT 3000 BR SCT009 25/25 Q1009 NOSIG=  
08-May-2023 SAID35 WAGB 082130 METAR WAGB 082130Z 00000KT 3000 BR SCT009 25/25 Q1009 NOSIG=  
08-May-2023 SAID35 WAGB 082200 METAR WAGB 082200Z 00000KT 3000 BR SCT009 25/25 Q1009 NOSIG=  
08-May-2023 SAID35 WAGB 082230 METAR WAGB 082230Z 00000KT 4000 BR SCT009 25/25 Q1010 NOSIG=  
08-May-2023 SAID35 WAGB 082300 METAR WAGB 082300Z 00000KT 6000 BKN010 25/25 Q1010 NOSIG=  
08-May-2023 SAID35 WAGB 082330 METAR WAGB 082330Z 00000KT 6000 BKN010 25/25 Q1010 NOSIG=  
09-May-2023 SAID35 WAGB 090000 METAR WAGB 090000Z 00000KT 7000 BKN011 27/25 Q1011 NOSIG=  
09-May-2023 SAID35 WAGB 090030 METAR WAGB 090030Z 04003KT 6000 SCT008 27/25 Q1011 NOSIG=  
09-May-2023 SAID35 WAGB 090100 METAR WAGB 090100Z 17003KT 6000 BKN009 28/25 Q1011 NOSIG=  
09-May-2023 SAID35 WAGB 090130 METAR WAGB 090130Z 00000KT 7000 BKN009 28/25 Q1010 NOSIG=  
09-May-2023 SAID35 WAGB 090200 METAR WAGB 090200Z 00000KT 7000 BKN010 29/26 Q1010 NOSIG=  
09-May-2023 SAID35 WAGB 090230 METAR WAGB 090230Z 00000KT 7000 BKN010 29/26 Q1010 NOSIG=  
09-May-2023 SAID35 WAGB 090300 METAR WAGB 090300Z 00000KT 8000 BKN010 31/25 Q1010 NOSIG=  
09-May-2023 SAID35 WAGB 090330 METAR WAGB 090330Z 13003KT 8000 BKN010 31/25 Q1009 NOSIG=  
09-May-2023 SAID35 WAGB 090400 CCA METAR WAGB 090400Z 20003KT 8000 BKN010 30/25 Q1009 NOSIG=  
09-May-2023 SAID35 WAGB 090400 METAR WAGB 090400Z 20003KT 8000 BKN010 31/25 Q1009 NOSIG=  
09-May-2023 SAID35 WAGB 090430 METAR WAGB 090430Z 24007KT 8000 BKN010 30/25 Q1008 NOSIG=  
09-May-2023 SAID35 WAGB 090500 METAR WAGB 090500Z 29007KT 9999 SCT012 30/25 Q1008 NOSIG=  
09-May-2023 SAID35 WAGB 090530 METAR WAGB 090530Z 29007KT 9999 SCT012 30/25 Q1008 NOSIG=  
09-May-2023 SAID35 WAGB 090600 METAR WAGB 090600Z 00000KT 9999 SCT013 29/26 Q1007 NOSIG=  
09-May-2023 SAID35 WAGB 090630 METAR WAGB 090630Z 20003KT 9999 SCT013 29/26 Q1007 NOSIG=  
09-May-2023 SAID35 WAGB 090700 METAR WAGB 090700Z 00000KT 9999 SCT013 31/25 Q1007 NOSIG=  
09-May-2023 SAID35 WAGB 090730 METAR WAGB 090730Z 00000KT 9999 SCT013 31/25 Q1007 NOSIG=  
09-May-2023 SAID35 WAGB 090800 METAR WAGB 090800Z 00000KT 9999 SCT013 31/26 Q1006=  
09-May-2023 SAID35 WAGB 090830 METAR WAGB 090830Z 00000KT 9999 SCT013 31/26 Q1006 NOSIG=  
09-May-2023 SAID35 WAGB 090900 METAR WAGB 090900Z 21003KT 9999 FEW013TCU FEW014 32/26 Q1006 NOSIG=  
09-May-2023 SAID35 WAGB 090930 METAR WAGB 090930Z 25003KT 9999 FEW013TCU FEW014 32/26 Q1007 NOSIG=  
09-May-2023 SAID35 WAGB 091000 METAR WAGB 091000Z 23003KT 9999 FEW013TCU FEW014 31/26 Q1007 NOSIG=  
09-May-2023 SAID35 WAGB 091030 METAR WAGB 091030Z 21003KT 9999 FEW013TCU FEW014 31/26 Q1007=  
09-May-2023 SAID35 WAGB 091100 METAR WAGB 091100Z 23003KT 9000 TS FEW013CB SCT014 29/27 Q1008 NOSIG=  
09-May-2023 SAID35 WAGB 091130 METAR WAGB 091130Z 20003KT 9000 TS FEW013CB SCT014 29/27 Q1008 NOSIG=  
09-May-2023 SAID35 WAGB 091200 METAR WAGB 091200Z 00000KT 5000 -TSRA FEW012CB BKN013 29/26 Q1009=  
09-May-2023 SAID35 WAGB 091230 METAR WAGB 091230Z 00000KT 5000 -TSRA FEW012CB BKN013 29/26 Q1009=  
09-May-2023 SAID35 WAGB 091300 METAR WAGB 091300Z 00000KT 5000 TS FEW012CB BKN013 27/26 Q1010 RERA=  
09-May-2023 SAID35 WAGB 091330 METAR WAGB 091330Z 00000KT 5000 TS FEW012CB BKN013 27/26 Q1010=  
09-May-2023 SAID35 WAGB 091400 METAR WAGB 091400Z 00000KT 5000 -TSRA FEW012CB BKN013 26/25 Q1011=  
09-May-2023 SAID35 WAGB 091430 METAR WAGB 091430Z 00000KT 5000 -TSRA FEW012CB BKN013 26/25 Q1011=  
09-May-2023 SAID35 WAGB 091500 METAR WAGB 091500Z 00000KT 5000 -RA FEW011CB BKN012 26/25 Q1011=  
09-May-2023 SAID35 WAGB 091530 METAR WAGB 091530Z 00000KT 5000 -RA FEW011CB BKN012 26/25 Q1011=  
09-May-2023 SAID35 WAGB 091600 METAR WAGB 091600Z 00000KT 5000 BKN011 25/25 Q1011 RERA=  
09-May-2023 SAID35 WAGB 091630 METAR WAGB 091630Z 00000KT 5000 BKN011 25/25 Q1011=  
09-May-2023 SAID35 WAGB 091700 METAR WAGB 091700Z 00000KT 4000 BR BKN011 25/24 Q1010=  
09-May-2023 SAID35 WAGB 091730 METAR WAGB 091730Z 00000KT 4000 BR BKN011 25/24 Q1010=  
09-May-2023 SAID35 WAGB 091800 METAR WAGB 091800Z 00000KT 4000 BR BKN010 25/24 Q1010=  
09-May-2023 SAID35 WAGB 091830 METAR WAGB 091830Z 00000KT 4000 BR BKN010 25/24 Q1010=  
09-May-2023 SAID35 WAGB 091900 METAR WAGB 091900Z 00000KT 4000 BR BKN010 25/24 Q1010=  
09-May-2023 SAID35 WAGB 091930 METAR WAGB 091930Z 00000KT 4000 BR BKN010 25/24 Q1010=  
09-May-2023 SAID35 WAGB 092000 METAR WAGB 092000Z 00000KT 3000 -RA BKN010 25/24 Q1011=  
09-May-2023 SAID35 WAGB 092030 METAR WAGB 092030Z 00000KT 3000 -RA BKN010 25/24 Q1011=  
09-May-2023 SAID35 WAGB 092100 METAR WAGB 092100Z 00000KT 3000 -RA BKN010 25/24 Q1011=  
09-May-2023 SAID35 WAGB 092130 METAR WAGB 092130Z 00000KT 3000 -RA BKN010 25/24 Q1011=  
09-May-2023 SAID35 WAGB 092200 METAR WAGB 092200Z 00000KT 3000 -RA BKN010 25/24 Q1011=  
09-May-2023 SAID35 WAGB 092230 METAR WAGB 092230Z 00000KT 3000 -RA BKN010 25/24 Q1011=  
09-May-2023 SAID35 WAGB 092300 METAR WAGB 092300Z 00000KT 3000 -RA BKN010 24/24 Q1012=  
09-May-2023 SAID35 WAGB 092330 METAR WAGB 092330Z 00000KT 3000 -RA BKN010 24/24 Q1012=  
10-May-2023 SAID35 WAGB 100000 METAR WAGB 100000Z 00000KT 3000 -RA SCT009 24/24 Q1012=  
10-May-2023 SAID35 WAGB 100030 METAR WAGB 100030Z 00000KT 3000 -RA SCT009 24/23 Q1011=  
10-May-2023 SAID35 WAGB 100100 METAR WAGB 100100Z 00000KT 4000 SCT009 24/24 Q1011 RERA=  
10-May-2023 SAID35 WAGB 100130 METAR WAGB 100130Z 00000KT 5000 VCSH SCT009 24/24 Q1011=  
10-May-2023 SAID35 WAGB 100200 METAR WAGB 100200Z 00000KT 5000 VCSH BKN010 25/24 Q1011=  
10-May-2023 SAID35 WAGB 100300 METAR WAGB 100300Z 00000KT 9999 BKN010 26/24 Q1010 NOSIG=  
10-May-2023 SAID35 WAGB 100300 CCA METAR WAGB 100300Z 00000KT 6000 BKN010 26/24 Q1010 NOSIG=  
10-May-2023 SAID35 WAGB 100330 METAR WAGB 100330Z 00000KT 6000 BKN010 27/24 Q1010 NOSIG=  
10-May-2023 SAID35 WAGB 100400 METAR WAGB 100400Z 16003KT 7000 BKN011 27/23 Q1009 NOSIG=  
10-May-2023 SAID35 WAGB 100430 METAR WAGB 100430Z 23002KT 8000 BKN011 28/24 Q1009 NOSIG=  
10-May-2023 SAID35 WAGB 100500 METAR WAGB 100500Z 00000KT 8000 BKN012 29/24 Q1008 NOSIG=  
10-May-2023 SAID35 WAGB 100530 METAR WAGB 100530Z 00000KT 8000 BKN012 29/24 Q1008 NOSIG=  
10-May-2023 SAID35 WAGB 100600 METAR WAGB 100600Z 00000KT 9000 BKN012 29/24 Q1007 NOSIG=  
10-May-2023 SAID35 WAGB 100630 METAR WAGB 100630Z 00000KT 9000 BKN012 30/25 Q1007 NOSIG=  
10-May-2023 SAID35 WAGB 100700 METAR WAGB 100700Z 07003KT 9000 BKN012 30/25 Q1007 NOSIG=  
10-May-2023 SAID35 WAGB 100730 METAR WAGB 100730Z 00000KT 9000 BKN012 30/25 Q1007 NOSIG=  
10-May-2023 SAID35 WAGB 100800 METAR WAGB 100800Z 00000KT 9000 BKN012 29/25 Q1008 NOSIG=  
10-May-2023 SAID35 WAGB 100830 METAR WAGB 100830Z 00000KT 9000 BKN012 29/25 Q1008 NOSIG=  
10-May-2023 SAID35 WAGB 100900 METAR WAGB 100900Z 00000KT 9000 BKN012 28/25 Q1009 NOSIG=  
10-May-2023 SAID35 WAGB 100930 METAR WAGB 100930Z 00000KT 9000 BKN012 28/25 Q1009 NOSIG=  
10-May-2023 SAID35 WAGB 101000 METAR WAGB 101000Z 00000KT 9000 SCT013 28/25 Q1009 NOSIG=  
10-May-2023 SAID35 WAGB 101030 METAR WAGB 101030Z 00000KT 8000 SCT013 28/25 Q1009 NOSIG=  
10-May-2023 SAID35 WAGB 101100 METAR WAGB 101100Z 00000KT 7000 SCT012 27/25 Q1009 NOSIG=  
10-May-2023 SAID35 WAGB 101130 METAR WAGB 101130Z 00000KT 7000 SCT012 27/25 Q1010 NOSIG=  
10-May-2023 SAID35 WAGB 101200 METAR WAGB 101200Z 00000KT 7000 SCT012 27/25 Q1010=  
10-May-2023 SAID35 WAGB 101230 METAR WAGB 101230Z 00000KT 7000 SCT012 27/25 Q1010=  
10-May-2023 SAID35 WAGB 101300 METAR WAGB 101300Z 00000KT 7000 SCT012 26/25 Q1011=  
10-May-2023 SAID35 WAGB 101330 METAR WAGB 101330Z 00000KT 7000 SCT012 26/25 Q1011=  
10-May-2023 SAID35 WAGB 101400 METAR WAGB 101400Z 00000KT 7000 SCT012 26/25 Q1011=  
10-May-2023 SAID35 WAGB 101430 METAR WAGB 101430Z 00000KT 7000 SCT012 26/25 Q1011=  
10-May-2023 SAID35 WAGB 101500 METAR WAGB 101500Z 00000KT 7000 SCT011 26/24 Q1011=  
10-May-2023 SAID35 WAGB 101530 METAR WAGB 101530Z 00000KT 7000 SCT011 26/24 Q1011=  
10-May-2023 SAID35 WAGB 101600 METAR WAGB 101600Z 00000KT 6000 BKN012 25/24 Q1011=  
10-May-2023 SAID35 WAGB 101630 METAR WAGB 101630Z 00000KT 6000 BKN012 25/24 Q1011=  
10-May-2023 SAID35 WAGB 101700 METAR WAGB 101700Z 00000KT 6000 BKN010 25/24 Q1010=  
10-May-2023 SAID35 WAGB 101730 METAR WAGB 101730Z 00000KT 6000 BKN010 25/24 Q1010=  
10-May-2023 SAID35 WAGB 101800 METAR WAGB 101800Z 00000KT 5000 BKN010 25/24 Q1010=  
10-May-2023 SAID35 WAGB 101830 METAR WAGB 101830Z 00000KT 5000 BKN010 25/24 Q1010=  
10-May-2023 SAID35 WAGB 101900 METAR WAGB 101900Z 00000KT 5000 BKN010 25/24 Q1010=  
10-May-2023 SAID35 WAGB 101930 METAR WAGB 101930Z 00000KT 5000 BKN010 25/24 Q1010=  
10-May-2023 SAID35 WAGB 102000 METAR WAGB 102000Z 00000KT 5000 BKN010 25/24 Q1010=  
10-May-2023 SAID35 WAGB 102030 METAR WAGB 102030Z 00000KT 5000 BKN010 25/24 Q1010=  
10-May-2023 SAID35 WAGB 102100 METAR WAGB 102100Z 00000KT 5000 BKN010 25/24 Q1010=  
10-May-2023 SAID35 WAGB 102130 METAR WAGB 102130Z 00000KT 5000 BKN010 25/24 Q1010=  
10-May-2023 SAID35 WAGB 102200 METAR WAGB 102200Z 00000KT 0200 FG VV004 24/24 Q1011=  
10-May-2023 SAID35 WAGB 102230 METAR WAGB 102230Z 00000KT 5000 FEW010 24/24 Q1011 REFG=  
10-May-2023 SAID35 WAGB 102300 METAR WAGB 102300Z 00000KT 5000 FEW010 24/24 Q1012=  
10-May-2023 SAID35 WAGB 102330 METAR WAGB 102330Z 00000KT 5000 FEW010 24/24 Q1012=  
11-May-2023 SAID35 WAGB 110000 METAR WAGB 110000Z 03003KT 6000 SCT009 26/25 Q1012 NOSIG=  
11-May-2023 SAID35 WAGB 110030 METAR WAGB 110030Z 00000KT 7000 FEW010 28/25 Q1012 NOSIG=  
11-May-2023 SAID35 WAGB 110100 METAR WAGB 110100Z 03004KT 8000 FEW011 29/25 Q1012 NOSIG=  
11-May-2023 SAID35 WAGB 110130 METAR WAGB 110130Z 05004KT 8000 FEW011 30/25 Q1012 NOSIG=  
11-May-2023 SAID35 WAGB 110200 METAR WAGB 110200Z 03004KT 8000 SCT012 30/25 Q1012 NOSIG=  
11-May-2023 SAID35 WAGB 110230 METAR WAGB 110230Z 05006KT 9000 SCT012 31/25 Q1012 NOSIG=  
11-May-2023 SAID35 WAGB 110300 METAR WAGB 110300Z 05005KT 9000 SCT012 32/25 Q1011 NOSIG=  
11-May-2023 SAID35 WAGB 110330 METAR WAGB 110330Z 02007KT 9000 SCT012 32/25 Q1011 NOSIG=  
11-May-2023 SAID35 WAGB 110400 METAR WAGB 110400Z 09005KT 9999 BKN012 32/25 Q1010 NOSIG=  
11-May-2023 SAID35 WAGB 110430 METAR WAGB 110430Z 00000KT 9999 BKN012 33/25 Q1010 NOSIG=  
11-May-2023 SAID35 WAGB 110430 CCA METAR WAGB 110430Z 00000KT 9999 BKN012 32/25 Q1010 NOSIG=  
11-May-2023 SAID35 WAGB 110500 METAR WAGB 110500Z 03004KT 9999 BKN012 33/25 Q1009 NOSIG=  
11-May-2023 SAID35 WAGB 110530 METAR WAGB 110530Z 06005KT 9999 BKN012 33/25 Q1009 NOSIG=  
11-May-2023 SAID35 WAGB 110600 METAR WAGB 110600Z 08004KT 9999 BKN013 33/25 Q1009 NOSIG=  
11-May-2023 SAID35 WAGB 110630 METAR WAGB 110630Z 09003KT 9999 BKN013 33/25 Q1009 NOSIG=  
11-May-2023 SAID35 WAGB 110700 METAR WAGB 110700Z 04003KT 9999 BKN014 34/25 Q1008 NOSIG=  
11-May-2023 SAID35 WAGB 110730 METAR WAGB 110730Z 00000KT 9999 BKN014 34/25 Q1008 NOSIG=  
11-May-2023 SAID35 WAGB 110800 METAR WAGB 110800Z 00000KT 9999 FEW014TCU SCT015 34/25 Q1008 NOSIG=  
11-May-2023 SAID35 WAGB 110830 METAR WAGB 110830Z 00000KT 9999 FEW014TCU SCT015 34/25 Q1008 NOSIG=  
11-May-2023 SAID35 WAGB 110900 METAR WAGB 110900Z 00000KT 9999 FEW014TCU FEW015 34/25 Q1008 NOSIG=  
11-May-2023 SAID35 WAGB 110930 METAR WAGB 110930Z 00000KT 9999 FEW014TCU FEW015 34/25 Q1009 NOSIG=  
11-May-2023 SAID35 WAGB 111000 METAR WAGB 111000Z 00000KT 9999 FEW014CB FEW015 33/26 Q1009 NOSIG=  
11-May-2023 SAID35 WAGB 111100 METAR WAGB 111100Z 00000KT 9999 FEW014CB FEW015 31/26 Q1010 NOSIG=  
11-May-2023 SAID35 WAGB 111130 METAR WAGB 111130Z 00000KT 9999 FEW014CB FEW015 30/25 Q1010 NOSIG=  
11-May-2023 SAID35 WAGB 111200 METAR WAGB 111200Z 00000KT 9000 NSC 30/27 Q1011=  
11-May-2023 SAID35 WAGB 111230 METAR WAGB 111230Z 00000KT 8000 NSC 30/27 Q1011=  
11-May-2023 SAID35 WAGB 111300 METAR WAGB 111300Z 00000KT 8000 NSC 29/27 Q1011=  
11-May-2023 SAID35 WAGB 111330 METAR WAGB 111330Z 00000KT 8000 NSC 28/27 Q1011=  
11-May-2023 SAID35 WAGB 111400 METAR WAGB 111400Z 00000KT 7000 NSC 28/27 Q1011=  
11-May-2023 SAID35 WAGB 111430 METAR WAGB 111430Z 00000KT 7000 NSC 28/27 Q1011=  
11-May-2023 SAID35 WAGB 111500 METAR WAGB 111500Z 00000KT 6000 FEW014 28/26 Q1011=  
11-May-2023 SAID35 WAGB 111500 CCA METAR COR WAGB 111500Z 00000KT 6000 NSC 28/26 Q1011=  
11-May-2023 SAID35 WAGB 111530 METAR WAGB 111530Z 00000KT 6000 FEW014CB 27/26 Q1011=  
11-May-2023 SAID35 WAGB 111600 METAR WAGB 111600Z 00000KT 5000 HZ FEW012CB 27/26 Q1011=  
11-May-2023 SAID35 WAGB 111630 METAR WAGB 111630Z 00000KT 5000 HZ FEW012CB 27/26 Q1011=  
11-May-2023 SAID35 WAGB 111700 METAR WAGB 111700Z 00000KT 5000 HZ FEW012CB 27/26 Q1011=  
11-May-2023 SAID35 WAGB 111730 METAR WAGB 111730Z 00000KT 5000 HZ FEW012CB 27/26 Q1011=  
11-May-2023 SAID35 WAGB 111800 METAR WAGB 111800Z 00000KT 5000 HZ FEW012CB SCT013 27/26 Q1011=  
11-May-2023 SAID35 WAGB 111830 METAR WAGB 111830Z 00000KT 5000 HZ FEW012CB SCT013 27/26 Q1010=  
11-May-2023 SAID35 WAGB 111900 METAR WAGB 111900Z 00000KT 5000 BR BKN011 26/26 Q1010=  
11-May-2023 SAID35 WAGB 111930 METAR WAGB 111930Z 00000KT 5000 BR BKN011 26/26 Q1010=  
11-May-2023 SAID35 WAGB 112000 METAR WAGB 112000Z 00000KT 5000 BR BKN011 26/25 Q1011=  
11-May-2023 SAID35 WAGB 112030 METAR WAGB 112030Z 00000KT 5000 BR BKN011 26/25 Q1011=  
11-May-2023 SAID35 WAGB 112100 METAR WAGB 112100Z 00000KT 6000 BKN011 26/25 Q1011=  
11-May-2023 SAID35 WAGB 112130 METAR WAGB 112130Z 00000KT 6000 BKN011 26/25 Q1011=  
11-May-2023 SAID35 WAGB 112200 METAR WAGB 112200Z 05002KT 7000 BKN010 26/25 Q1012=  
11-May-2023 SAID35 WAGB 112230 METAR WAGB 112230Z 05002KT 8000 BKN010 26/25 Q1012=  
11-May-2023 SAID35 WAGB 112300 METAR WAGB 112300Z 00000KT 9000 FEW010 26/25 Q1012=  
11-May-2023 SAID35 WAGB 112330 METAR WAGB 112330Z 00000KT 9000 FEW010 27/25 Q1012=  
12-May-2023 SAID35 WAGB 120000 METAR WAGB 120000Z 00000KT 9000 FEW010 28/25 Q1012 NOSIG=  
12-May-2023 SAID35 WAGB 120030 METAR WAGB 120030Z 00000KT 9000 FEW010 28/25 Q1013 NOSIG=  
12-May-2023 SAID35 WAGB 120100 METAR WAGB 120100Z 00000KT 9999 FEW011 29/25 Q1013 NOSIG=  
12-May-2023 SAID35 WAGB 120130 METAR WAGB 120130Z 00000KT 9999 FEW011 29/25 Q1013 NOSIG=  
12-May-2023 SAID35 WAGB 120200 METAR WAGB 120200Z 02004KT 9999 SCT011 31/25 Q1012 NOSIG=  
12-May-2023 SAID35 WAGB 120230 METAR WAGB 120230Z 06005KT 9999 SCT011 31/25 Q1012 NOSIG=  
12-May-2023 SAID35 WAGB 120300 METAR WAGB 120300Z 07003KT 9999 SCT012 33/26 Q1011 NOSIG=  
12-May-2023 SAID35 WAGB 120330 METAR WAGB 120330Z 04006KT 9999 BKN012 33/25 Q1011 NOSIG=  
12-May-2023 SAID35 WAGB 120400 METAR WAGB 120400Z 03003KT 9999 BKN012 33/25 Q1010 NOSIG=  
12-May-2023 SAID35 WAGB 120430 METAR WAGB 120430Z 08004KT 9999 BKN012 33/25 Q1010 NOSIG=  
12-May-2023 SAID35 WAGB 120500 METAR WAGB 120500Z 01005KT 9999 BKN012 34/25 Q1009 NOSIG=  
12-May-2023 SAID35 WAGB 120530 METAR WAGB 120530Z 03003KT 9999 BKN012 35/25 Q1009 NOSIG=  
12-May-2023 SAID35 WAGB 120600 METAR WAGB 120600Z 13004KT 9999 BKN013 34/26 Q1009 NOSIG=  
12-May-2023 SAID35 WAGB 120630 METAR WAGB 120630Z 28003KT 9999 BKN013 34/26 Q1008 NOSIG=  
12-May-2023 SAID35 WAGB 120700 METAR WAGB 120700Z 00000KT 9999 BKN013 34/26 Q1008 NOSIG=  
12-May-2023 SAID35 WAGB 120730 METAR WAGB 120730Z VRB02KT 9999 BKN013 34/25 Q1008 NOSIG=  
12-May-2023 SAID35 WAGB 120800 METAR WAGB 120800Z 23004KT 9999 BKN013 34/25 Q1008 NOSIG=  
12-May-2023 SAID35 WAGB 120830 METAR WAGB 120830Z 00000KT 9999 BKN013 34/25 Q1007 NOSIG=  
12-May-2023 SAID35 WAGB 120900 METAR WAGB 120900Z 26003KT 9999 FEW013TCU SCT014 34/25 Q1008 NOSIG=  
12-May-2023 SAID35 WAGB 120930 METAR WAGB 120930Z 30003KT 9999 FEW013TCU SCT014 33/25 Q1008 NOSIG=  
12-May-2023 SAID35 WAGB 121000 METAR WAGB 121000Z 00000KT 9999 FEW013TCU SCT014 32/25 Q1008 NOSIG=  
12-May-2023 SAID35 WAGB 121030 METAR WAGB 121030Z 00000KT 9999 FEW013TCU SCT014 31/25 Q1008 NOSIG=  
12-May-2023 SAID35 WAGB 121100 METAR WAGB 121100Z 00000KT 9000 FEW013TCU SCT014 31/26 Q1009 NOSIG=  
12-May-2023 SAID35 WAGB 121130 METAR WAGB 121130Z 00000KT 9000 FEW013TCU SCT014 30/26 Q1009 NOSIG=  
12-May-2023 SAID35 WAGB 121200 METAR WAGB 121200Z 00000KT 8000 FEW013CB SCT014 30/27 Q1010=  
12-May-2023 SAID35 WAGB 121230 METAR WAGB 121230Z 00000KT 8000 FEW012CB SCT013 30/27 Q1010=  
12-May-2023 SAID35 WAGB 121300 METAR WAGB 121300Z 00000KT 7000 FEW013 29/26 Q1010=  
12-May-2023 SAID35 WAGB 121330 METAR WAGB 121330Z 00000KT 7000 FEW013 29/26 Q1010=  
12-May-2023 SAID35 WAGB 121400 METAR WAGB 121400Z 00000KT 7000 FEW013 28/26 Q1011=  
12-May-2023 SAID35 WAGB 121430 METAR WAGB 121430Z 00000KT 7000 FEW013 28/26 Q1011=  
12-May-2023 SAID35 WAGB 121500 METAR WAGB 121500Z 00000KT 6000 FEW012 28/26 Q1010=  
12-May-2023 SAID35 WAGB 121530 METAR WAGB 121530Z 00000KT 6000 FEW012 28/26 Q1010=  
12-May-2023 SAID35 WAGB 121600 METAR WAGB 121600Z 00000KT 6000 FEW012 27/26 Q1010=  
12-May-2023 SAID35 WAGB 121630 METAR WAGB 121630Z 00000KT 6000 FEW012 27/26 Q1010=  
12-May-2023 SAID35 WAGB 121700 METAR WAGB 121700Z 00000KT 6000 FEW012 27/25 Q1010=  
12-May-2023 SAID35 WAGB 121730 METAR WAGB 121730Z 00000KT 6000 FEW012 27/25 Q1010=  
12-May-2023 SAID35 WAGB 121800 METAR WAGB 121800Z 00000KT 5000 BR FEW012 27/25 Q1009=  
12-May-2023 SAID35 WAGB 121830 METAR WAGB 121830Z 00000KT 5000 BR FEW012 27/25 Q1009=  
12-May-2023 SAID35 WAGB 121900 METAR WAGB 121900Z 00000KT 5000 BR SCT011 27/25 Q1009=  
12-May-2023 SAID35 WAGB 121930 METAR WAGB 121930Z 00000KT 5000 BR SCT011 27/25 Q1009=  
12-May-2023 SAID35 WAGB 122000 METAR WAGB 122000Z 00000KT 5000 BR FEW011 26/25 Q1009=  
12-May-2023 SAID35 WAGB 122030 METAR WAGB 122030Z 00000KT 5000 BR FEW011 26/25 Q1009=  
12-May-2023 SAID35 WAGB 122100 METAR WAGB 122100Z 00000KT 5000 BR FEW011 26/25 Q1009=  
12-May-2023 SAID35 WAGB 122130 METAR WAGB 122130Z 00000KT 5000 BR FEW011 26/25 Q1009=  
12-May-2023 SAID35 WAGB 122200 METAR WAGB 122200Z 00000KT 5000 FEW011 26/25 Q1010=  
12-May-2023 SAID35 WAGB 122230 METAR WAGB 122230Z 00000KT 5000 FEW011 26/25 Q1010=  
12-May-2023 SAID35 WAGB 122300 METAR WAGB 122300Z 00000KT 6000 FEW011 26/25 Q1011=  
12-May-2023 SAID35 WAGB 122330 METAR WAGB 122330Z 00000KT 6000 FEW011 26/25 Q1011=  
13-May-2023 SAID35 WAGB 130000 METAR WAGB 130000Z 00000KT 6000 SCT011 27/26 Q1012 NOSIG=  
13-May-2023 SAID35 WAGB 130030 METAR WAGB 130030Z 00000KT 6000 SCT011 27/26 Q1012 NOSIG=  
13-May-2023 SAID35 WAGB 130100 METAR WAGB 130100Z 00000KT 8000 SCT011 28/25 Q1012 NOSIG=  
13-May-2023 SAID35 WAGB 130130 METAR WAGB 130130Z 00000KT 8000 SCT011 28/25 Q1012 NOSIG=  
13-May-2023 SAID35 WAGB 130200 METAR WAGB 130200Z 00000KT 8000 SCT011 29/26 Q1012 NOSIG=  
13-May-2023 SAID35 WAGB 130230 METAR WAGB 130230Z 27003KT 9000 SCT011 30/25 Q1012 NOSIG=  
13-May-2023 SAID35 WAGB 130300 METAR WAGB 130300Z 00000KT 9000 SCT012 31/25 Q1011 NOSIG=  
13-May-2023 SAID35 WAGB 130330 METAR WAGB 130330Z 00000KT 9000 SCT012 31/25 Q1011 NOSIG=  
13-May-2023 SAID35 WAGB 130400 METAR WAGB 130400Z 29003KT 9999 SCT013 31/25 Q1010 NOSIG=  
13-May-2023 SAID35 WAGB 130430 METAR WAGB 130403Z 32003KT 9999 SCT013 32/25 Q1010 NOSIG=  
13-May-2023 SAID35 WAGB 130500 METAR WAGB 130500Z 13003KT 9999 BKN013 33/25 Q1009 NOSIG=  
13-May-2023 SAID35 WAGB 130530 METAR WAGB 130500Z 18003KT 9999 BKN013 33/25 Q1008 NOSIG=  
13-May-2023 SAID35 WAGB 130600 METAR WAGB 130600Z 00000KT 9999 FEW014TCU SCT015 34/25 Q1008 NOSIG=  
13-May-2023 SAID35 WAGB 130630 METAR WAGB 130630Z 00000KT 9999 FEW014TCU SCT015 34/25 Q1008 NOSIG=  
13-May-2023 SAID35 WAGB 130700 METAR WAGB 130700Z 00000KT 9999 FEW014TCU SCT015 35/25 Q1007 NOSIG=  
13-May-2023 SAID35 WAGB 130730 METAR WAGB 130730Z 00000KT 9999 FEW014TCU SCT015 35/25 Q1007 NOSIG=  
13-May-2023 SAID35 WAGB 130800 METAR WAGB 130800Z 00000KT 9999 FEW014TCU SCT015 35/24 Q1007 NOSIG=  
13-May-2023 SAID35 WAGB 130830 METAR WAGB 130830Z 00000KT 9999 FEW014TCU SCT015 35/24 Q1007 NOSIG=  
13-May-2023 SAID35 WAGB 130900 METAR WAGB 130900Z 00000KT 9999 FEW014CB SCT015 33/26 Q1007 NOSIG=  
13-May-2023 SAID35 WAGB 130930 METAR WAGB 130930Z 00000KT 9999 FEW014CB SCT015 33/26 Q1007 NOSIG=  
13-May-2023 SAID35 WAGB 131000 METAR WAGB 131000Z 00000KT 9999 FEW014CB SCT015 32/27 Q1008 NOSIG=  
13-May-2023 SAID35 WAGB 131030 METAR WAGB 131030Z 00000KT 9999 FEW014CB SCT015 32/27 Q1008 NOSIG=  
13-May-2023 SAID35 WAGB 131100 METAR WAGB 131100Z 00000KT 9999 FEW014CB SCT015 28/23 Q1008 NOSIG=  
13-May-2023 SAID35 WAGB 131130 METAR WAGB 131130Z 00000KT 9999 FEW014CB SCT015 30/26 Q1009 NOSIG=  
13-May-2023 SAID35 WAGB 131200 METAR WAGB 131200Z 07005KT 8000 TS FEW012CB BKN013 29/25 Q1010=  
13-May-2023 SAID35 WAGB 131230 METAR WAGB 131230Z 30007KT 8000 TS FEW012CB BKN013 29/25 Q1011=  
13-May-2023 SAID35 WAGB 131300 METAR WAGB 131300Z 28005KT 8000 TS FEW012CB BKN013 27/25 Q1011=  
13-May-2023 SAID35 WAGB 131300 CCA METAR WAGB 131300Z 29003KT 8000 TS FEW012CB BKN013 27/25 Q1011=  
13-May-2023 SAID35 WAGB 131330 METAR WAGB 131330Z 00000KT 8000 VCTS FEW012CB BKN013 27/25 Q1012 RETS=  
13-May-2023 SAID35 WAGB 131400 METAR WAGB 131400Z 00000KT 8000 VCTS FEW012CB BKN013 26/24 Q1012=  
13-May-2023 SAID35 WAGB 131430 METAR WAGB 131430Z 00000KT 8000 VCTS FEW012CB BKN013 26/24 Q1012=  
13-May-2023 SAID35 WAGB 131500 METAR WAGB 131500Z 00000KT 7000 VCTS FEW012CB BKN013 26/25 Q1013=  
13-May-2023 SAID35 WAGB 131530 METAR WAGB 131530Z 24004KT 7000 VCTS FEW012CB BKN013 26/25 Q1013=  
13-May-2023 SAID35 WAGB 131600 METAR WAGB 131600Z VRB02KT 7000 BKN012 26/25 Q1012=  
13-May-2023 SAID35 WAGB 131630 METAR WAGB 131630Z 22003KT 7000 BKN012 26/25 Q1012=  
13-May-2023 SAID35 WAGB 131700 METAR WAGB 131700Z 28003KT 6000 BKN011 26/24 Q1012=  
13-May-2023 SAID35 WAGB 131730 METAR WAGB 131730Z 00000KT 6000 BKN011 26/24 Q1012=  
13-May-2023 SAID35 WAGB 131730 CCA METAR WAGB 131730Z VRB02KT 5000 -RA BKN011 26/24 Q1012=  
13-May-2023 SAID35 WAGB 131800 METAR WAGB 131800Z 00000KT 4000 -RA BKN011 25/24 Q1012=  
13-May-2023 SAID35 WAGB 131830 METAR WAGB 131830Z 00000KT 4000 -RA BKN011 25/24 Q1012=  
13-May-2023 SAID35 WAGB 131900 METAR WAGB 131900Z 00000KT 4000 -RA BKN011 24/24 Q1012=  
13-May-2023 SAID35 WAGB 131930 METAR WAGB 131930Z 00000KT 4000 -RA BKN011 24/24 Q1012=  
13-May-2023 SAID35 WAGB 132000 METAR WAGB 132000Z 00000KT 5000 VCSH BKN010 25/24 Q1012 RERA=  
13-May-2023 SAID35 WAGB 132030 METAR WAGB 132030Z 00000KT 5000 VCSH BKN010 25/24 Q1011=  
13-May-2023 SAID35 WAGB 132100 METAR WAGB 132100Z 00000KT 5000 VCSH BKN010 24/24 Q1012=  
13-May-2023 SAID35 WAGB 132130 METAR WAGB 132130Z 00000KT 5000 VCSH BKN010 24/24 Q1012=  
13-May-2023 SAID35 WAGB 132200 METAR WAGB 132200Z 00000KT 5000 VCSH BKN010 24/24 Q1012=  
13-May-2023 SAID35 WAGB 132230 METAR WAGB 132230Z 00000KT 5000 VCSH BKN010 24/24 Q1013=  
13-May-2023 SAID35 WAGB 132300 METAR WAGB 132300Z 00000KT 5000 VCSH BKN010 24/24 Q1013=  
13-May-2023 SAID35 WAGB 132330 METAR WAGB 132330Z 00000KT 5000 VCSH BKN010 24/24 Q1013=  
14-May-2023 SAID35 WAGB 140000 METAR WAGB 140000Z 00000KT 5000 VCSH SCT010 25/23 Q1013=  
14-May-2023 SAID35 WAGB 140030 METAR WAGB 140030Z 00000KT 6000 SCT010 25/23 Q1014 NOSIG=  
14-May-2023 SAID35 WAGB 140100 METAR WAGB 140100Z 00000KT 7000 FEW010 26/24 Q1014 NOSIG=  
14-May-2023 SAID35 WAGB 140130 METAR WAGB 140130Z 00000KT 8000 SCT012 27/24 Q1014 NOSIG=  
14-May-2023 SAID35 WAGB 140200 METAR WAGB 140200Z 00000KT 9000 SCT012 28/24 Q1013 NOSIG=  
14-May-2023 SAID35 WAGB 140300 METAR WAGB 140200Z 00000KT 9999 SCT011 28/24 Q1013 NOSIG=  
14-May-2023 SAID35 WAGB 140230 METAR WAGB 140230Z 00000KT 9000 SCT012 28/24 Q1014 NOSIG=  
14-May-2023 SAID35 WAGB 140300 METAR WAGB 140300Z 00000KT 9999 FEW012 29/24 Q1013 NOSIG=  
14-May-2023 SAID35 WAGB 140330 METAR WAGB 140300Z 00000KT 9999 SCT011 28/24 Q1013 NOSIG=  
14-May-2023 SAID35 WAGB 140330 METAR WAGB 140330Z 28008KT 9999 SCT012 30/24 Q1013 NOSIG=  
14-May-2023 SAID35 WAGB 140400 METAR WAGB 140400Z 27004KT 9999 SCT013 30/24 Q101 NOSIG=  
14-May-2023 SAID35 WAGB 140400 CCA METAR COR WAGB 140400Z 27004KT 9999 SCT013 30/24 Q1012 NOSIG=  
14-May-2023 SAID35 WAGB 140430 METAR WAGB 140430Z 25005KT 9999 BKN013 31/24 Q1012 NOSIG=  
14-May-2023 SAID35 WAGB 140500 METAR WAGB 140500Z 20005KT 9999 BKN014 31/24 Q1011 NOSIG=  
14-May-2023 SAID35 WAGB 140530 METAR WAGB 140530Z 19002KT 9999 BKN014 31/23 Q1011 NOSIG=  
14-May-2023 SAID35 WAGB 140600 METAR WAGB 140600Z 23003KT 9999 BKN013 32/24 Q1010 NOSIG=  
14-May-2023 SAID35 WAGB 140630 METAR WAGB 140630Z 25003KT 9999 BKN013 32/24 Q1010 NOSIG=  
14-May-2023 SAID35 WAGB 140700 METAR WAGB 140700Z 23005KT 9999 SCT013 33/25 Q1010 NOSIG=  
14-May-2023 SAID35 WAGB 140730 METAR WAGB 140730Z 20003KT 9999 SCT013 33/25 Q1009 NOSIG=  
14-May-2023 SAID35 WAGB 140800 METAR WAGB 140800Z 20004KT 9999 VCSH BKN012 32/25 Q1009 NOSIG=  
14-May-2023 SAID35 WAGB 140830 METAR WAGB 140830Z 20004KT 9999 BKN012 32/25 Q1009 NOSIG=  
14-May-2023 SAID35 WAGB 140900 METAR WAGB 140900Z 23004KT 9999 FEW013TCU BKN014 31/25 Q1009 NOSIG=  
14-May-2023 SAID35 WAGB 140930 METAR WAGB 140930Z 20005KT 9999 FEW013TCU BKN014 31/25 Q1009 NOSIG=  
14-May-2023 SAID35 WAGB 141000 METAR WAGB 141000Z 00000KT 9999 FEW013TCU BKN014 29/25 Q1010 RERA=  
14-May-2023 SAID35 WAGB 141030 METAR WAGB 141030Z 00000KT 9999 FEW013TCU SCT014 29/25 Q1010 NOSIG=  
14-May-2023 SAID35 WAGB 141100 METAR WAGB 141100Z 00000KT 9000 SCT014 29/25 Q1010 NOSIG=  
14-May-2023 SAID35 WAGB 141130 METAR WAGB 141130Z 00000KT 9000 SCT014 29/25 Q1010 NOSIG=  
14-May-2023 SAID35 WAGB 141200 METAR WAGB 141200Z 00000KT 8000 FEW013 28/26 Q1011=  
14-May-2023 SAID35 WAGB 141230 METAR WAGB 141230Z 00000KT 8000 FEW013 28/26 Q1011=  
14-May-2023 SAID35 WAGB 141300 METAR WAGB 141300Z 00000KT 8000 FEW013 27/26 Q1011=  
14-May-2023 SAID35 WAGB 141330 METAR WAGB 141330Z 00000KT 8000 FEW013 27/26 Q1012=  
14-May-2023 SAID35 WAGB 141400 METAR WAGB 141400Z 00000KT 8000 FEW013 27/26 Q1012=  
14-May-2023 SAID35 WAGB 141430 METAR WAGB 141430Z 00000KT 8000 FEW013 27/26 Q1012=  
14-May-2023 SAID35 WAGB 141500 METAR WAGB 141500Z 00000KT 8000 SCT012 26/25 Q1012=  
14-May-2023 SAID35 WAGB 141530 METAR WAGB 141530Z 00000KT 8000 SCT012 26/25 Q1012=  
14-May-2023 SAID35 WAGB 141600 METAR WAGB 141600Z 00000KT 8000 SCT012 26/25 Q1011=  
14-May-2023 SAID35 WAGB 141630 METAR WAGB 141630Z 00000KT 8000 SCT012 26/25 Q1011=  
14-May-2023 SAID35 WAGB 141700 METAR WAGB 141700Z 00000KT 6000 SCT011 26/25 Q1011=  
14-May-2023 SAID35 WAGB 141730 METAR WAGB 141730Z 00000KT 6000 SCT011 26/25 Q1011=  
14-May-2023 SAID35 WAGB 141800 METAR WAGB 141800Z 00000KT 6000 SCT011 26/25 Q1011=  
14-May-2023 SAID35 WAGB 141830 METAR WAGB 141830Z 00000KT 6000 SCT011 26/25 Q1011=  
14-May-2023 SAID35 WAGB 141900 METAR WAGB 141900Z 00000KT 6000 SCT011 26/25 Q1011=  
14-May-2023 SAID35 WAGB 141930 METAR WAGB 141930Z 00000KT 6000 SCT011 26/25 Q1011=  
14-May-2023 SAID35 WAGB 142000 METAR WAGB 142000Z 00000KT 6000 SCT011 25/24 Q1010=  
14-May-2023 SAID35 WAGB 142030 METAR WAGB 142030Z 00000KT 6000 SCT011 25/24 Q1010=  
14-May-2023 SAID35 WAGB 142100 METAR WAGB 142100Z 00000KT 6000 SCT011 25/24 Q1011=  
14-May-2023 SAID35 WAGB 142130 METAR WAGB 142130Z 00000KT 6000 SCT011 25/24 Q1011=  
14-May-2023 SAID35 WAGB 142200 METAR WAGB 142200Z 00000KT 6000 SCT011 25/24 Q1011=  
14-May-2023 SAID35 WAGB 142230 METAR WAGB 142230Z 00000KT 6000 SCT011 25/24 Q1011=  
14-May-2023 SAID35 WAGB 142300 METAR WAGB 142300Z 00000KT 6000 SCT011 26/25 Q1012=  
14-May-2023 SAID35 WAGB 142330 METAR WAGB 142330Z 00000KT 6000 BKN011 26/25 Q1013=  
15-May-2023 SAID35 WAGB 150000 METAR WAGB 150000Z 00000KT 9000 BKN011 26/25 Q1013 NOSIG=  
15-May-2023 SAID35 WAGB 150030 METAR WAGB 150030Z 00000KT 9000 BKN011 26/25 Q1013 NOSIG=  
15-May-2023 SAID35 WAGB 150100 METAR WAGB 150100Z 21002KT 9000 BKN011 27/25 Q1014 NOSIG=  
15-May-2023 SAID35 WAGB 150130 METAR WAGB 150130Z 20003KT 9999 BKN012 28/25 Q1014 NOSIG=  
15-May-2023 SAID35 WAGB 150200 METAR WAGB 150200Z 24004KT 9999 BKN012 28/26 Q1013 NOSIG=  
15-May-2023 SAID35 WAGB 150230 METAR WAGB 150230Z 23005KT 9999 BKN012 29/26 Q1013 NOSIG=  
15-May-2023 SAID35 WAGB 150300 METAR WAGB 150300Z 26004KT 9999 BKN013 31/26 Q1013 NOSIG=  
15-May-2023 SAID35 WAGB 150330 METAR WAGB 150330Z 22003KT 9999 BKN013 31/24 Q1012 NOSIG=  
15-May-2023 SAID35 WAGB 150400 METAR WAGB 150400Z 23004KT 9999 BKN013 32/24 Q1012 NOSIG=  
15-May-2023 SAID35 WAGB 150430 METAR WAGB 150430Z 18006KT 9999 BKN013 32/24 Q1012 NOSIG=  
15-May-2023 SAID35 WAGB 150500 METAR WAGB 150500Z 24005KT 9999 BKN013 32/24 Q1011 NOSIG=  
15-May-2023 SAID35 WAGB 150530 METAR WAGB 150530Z 24004KT 9999 BKN013 32/24 Q1011 NOSIG=  
15-May-2023 SAID35 WAGB 150600 METAR WAGB 150600Z 24006KT 9999 BKN015 34/25 Q1010 NOSIG=  
15-May-2023 SAID35 WAGB 150700 METAR WAGB 150700Z 00000KT 9999 SCT015 33/25 Q1009 NOSIG=  
15-May-2023 SAID35 WAGB 150730 METAR WAGB 150730Z 00000KT 9999 SCT015 33/25 Q1009 NOSIG=  
15-May-2023 SAID35 WAGB 150800 METAR WAGB 150800Z 24004KT 9999 FEW014TCU FEW015 33/25 Q1009 NOSIG=  
15-May-2023 SAID35 WAGB 150830 METAR WAGB 150830Z 00000KT 9999 FEW014TCU FEW015 33/25 Q1009 NOSIG=  
15-May-2023 SAID35 WAGB 150900 METAR WAGB 150900Z 24003KT 9999 FEW014TCU FEW015 33/25 Q1009 NOSIG=  
15-May-2023 SAID35 WAGB 150930 METAR WAGB 150930Z 00000KT 9999 FEW014TCU FEW015 33/25 Q1009 NOSIG=  
15-May-2023 SAID35 WAGB 151000 METAR WAGB 151000Z 00000KT 9999 FEW014TCU FEW015 32/25 Q1009 NOSIG=  
15-May-2023 SAID35 WAGB 151030 METAR WAGB 151030Z 00000KT 9999 FEW014TCU FEW015 32/25 Q1010 NOSIG=  
15-May-2023 SAID35 WAGB 151100 METAR WAGB 151100Z 00000KT 9000 FEW014TCU FEW015 31/26 Q1010 NOSIG=  
15-May-2023 SAID35 WAGB 151130 METAR WAGB 151130Z 00000KT 9000 FEW014TCU FEW015 31/26 Q1011 NOSIG=  
15-May-2023 SAID35 WAGB 151200 METAR WAGB 151200Z 00000KT 8000 VCTS FEW012CB SCT013 29/26 Q1011=  
15-May-2023 SAID35 WAGB 151230 METAR WAGB 151230Z 00000KT 8000 VCTS FEW012CB SCT013 29/26 Q1011=  
15-May-2023 SAID35 WAGB 151300 METAR WAGB 151300Z 00000KT 8000 VCTS FEW012CB SCT013 29/26 Q1012=  
15-May-2023 SAID35 WAGB 151330 METAR WAGB 151330Z 00000KT 8000 VCTS FEW012CB SCT013 29/26 Q1012=  
15-May-2023 SAID35 WAGB 151400 METAR WAGB 151400Z 00000KT 8000 VCTS FEW012CB SCT013 28/27 Q1012=  
15-May-2023 SAID35 WAGB 151430 METAR WAGB 151430Z 00000KT 8000 VCTS FEW012CB SCT013 28/27 Q1012=  
15-May-2023 SAID35 WAGB 151500 METAR WAGB 151500Z 00000KT 8000 VCTS FEW012CB SCT013 28/26 Q1012=  
15-May-2023 SAID35 WAGB 151530 METAR WAGB 151530Z 00000KT 8000 VCTS FEW012CB SCT013 28/26 Q1012=  
15-May-2023 SAID35 WAGB 151600 METAR WAGB 151600Z 00000KT 6000 BKN012 27/26 Q1012=  
15-May-2023 SAID35 WAGB 151630 METAR WAGB 151630Z 00000KT 6000 BKN012 27/26 Q1012=  
15-May-2023 SAID35 WAGB 151700 METAR WAGB 151700Z 00000KT 6000 BKN011 27/26 Q1012=  
15-May-2023 SAID35 WAGB 151730 METAR WAGB 151730Z 00000KT 6000 BKN011 27/26 Q1012=  
15-May-2023 SAID35 WAGB 151800 METAR WAGB 151800Z 00000KT 6000 BKN011 27/25 Q1012=  
15-May-2023 SAID35 WAGB 151830 METAR WAGB 151830Z 00000KT 6000 BKN011 27/25 Q1012=  
15-May-2023 SAID35 WAGB 151900 METAR WAGB 151900Z 00000KT 5000 BKN011 26/25 Q1011=  
15-May-2023 SAID35 WAGB 151930 METAR WAGB 151930Z 00000KT 5000 BKN011 26/25 Q1011=  
15-May-2023 SAID35 WAGB 152000 METAR WAGB 152000Z 00000KT 5000 BKN011 26/25 Q1011=  
15-May-2023 SAID35 WAGB 152030 METAR WAGB 152030Z 00000KT 5000 BKN011 26/25 Q1011=  
15-May-2023 SAID35 WAGB 152100 METAR WAGB 152100Z 00000KT 5000 SCT011 26/25 Q1011=  
15-May-2023 SAID35 WAGB 152130 METAR WAGB 152130Z 00000KT 5000 SCT011 26/25 Q1011=  
15-May-2023 SAID35 WAGB 152200 METAR WAGB 152200Z 00000KT 5000 SCT011 26/25 Q1012=  
15-May-2023 SAID35 WAGB 152230 METAR WAGB 152230Z 00000KT 5000 SCT011 26/25 Q1012=  
15-May-2023 SAID35 WAGB 152300 METAR WAGB 152300Z 00000KT 6000 SCT011 26/25 Q1013=  
15-May-2023 SAID35 WAGB 152330 METAR WAGB 152330Z 00000KT 6000 SCT011 26/25 Q1013=  
16-May-2023 SAID35 WAGB 160000 METAR WAGB 160000Z 24003KT 7000 SCT010 26/24 Q1013 NOSIG=  
16-May-2023 SAID35 WAGB 160030 METAR WAGB 160030Z 20005KT 7000 SCT010 27/24 Q1013 NOSIG=  
16-May-2023 SAID35 WAGB 160100 METAR WAGB 160100Z 24005KT 8000 FEW011 28/24 Q1014 NOSIG=  
16-May-2023 SAID35 WAGB 160130 METAR WAGB 160130Z 20004KT 8000 FEW011 29/24 Q1014 NOSIG=  
16-May-2023 SAID35 WAGB 160200 METAR WAGB 160200Z 17004KT 9000 SCT011 30/24 Q1014 NOSIG=  
16-May-2023 SAID35 WAGB 160200 CCA METAR WAGB 160200Z 17004KT 9000 SCT012 30/24 Q1014 NOSIG=  
16-May-2023 SAID35 WAGB 160200 CCB METAR WAGB 160200Z 17004KT 9000 SCT012 30/24 Q1014 NOSIG=  
16-May-2023 SAID35 WAGB 160230 METAR WAGB 160230Z 23004KT 9000 SCT012 31/24 Q1013 NOSIG=  
16-May-2023 SAID35 WAGB 160300 METAR WAGB 160300Z 23005KT 9999 BKN012 31/24 Q1013 NOSIG=  
16-May-2023 SAID35 WAGB 160330 METAR WAGB 160330Z 23005KT 9999 BKN012 31/24 Q1013 NOSIG=  
16-May-2023 SAID35 WAGB 160400 METAR WAGB 160400Z 18006KT 9999 BKN012 32/24 Q1012 NOSIG=  
16-May-2023 SAID35 WAGB 160430 METAR WAGB 160430Z 28005KT 9999 BKN012 32/24 Q1012 NOSIG=  
16-May-2023 SAID35 WAGB 160500 METAR WAGB 160500Z 22004KT 9999 BKN012 32/24 Q1011 NOSIG=  
16-May-2023 SAID35 WAGB 160530 METAR WAGB 160530Z 23008KT 9999 BKN012 32/24 Q1010 NOSIG=  
16-May-2023 SAID35 WAGB 160600 METAR WAGB 160600Z 24008KT 9999 BKN012 32/24 Q1010 NOSIG=  
16-May-2023 SAID35 WAGB 160630 METAR WAGB 160630Z 29005KT 9999 BKN012 32/23 Q1009 NOSIG=  
16-May-2023 SAID35 WAGB 160700 METAR WAGB 160700Z 20005KT 9999 BKN012 32/23 Q1009 NOSIG=  
16-May-2023 SAID35 WAGB 160730 METAR WAGB 160730Z 26004KT 9999 BKN012 34/23 Q1009 NOSIG=  
16-May-2023 SAID35 WAGB 160800 METAR WAGB 160800Z 18005KT 9999 BKN012 32/24 Q1009 NOSIG=  
16-May-2023 SAID35 WAGB 160830 METAR WAGB 160830Z 18003KT 9999 BKN012 32/24 Q1009 NOSIG=  
16-May-2023 SAID35 WAGB 160900 METAR WAGB 160900Z 18004KT 9999 SCT012 32/24 Q1009 NOSIG=  
16-May-2023 SAID35 WAGB 160930 METAR WAGB 160930Z 00000KT 9999 FEW013CB FEW014 33/25 Q1010 NOSIG=  
16-May-2023 SAID35 WAGB 161000 METAR WAGB 161000Z 00000KT 9999 FEW013CB FEW014 32/25 Q1010 NOSIG=  
16-May-2023 SAID35 WAGB 161030 METAR WAGB 161030Z 00000KT 9999 FEW013CB FEW014 31/25 Q1010 NOSIG=  
16-May-2023 SAID35 WAGB 161100 METAR WAGB 161100Z 00000KT 9999 FEW013CB FEW014 30/25 Q1011 NOSIG=  
16-May-2023 SAID35 WAGB 161130 METAR WAGB 161130Z 00000KT 8000 FEW013CB FEW014 29/26 Q1011 NOSIG=  
16-May-2023 SAID35 WAGB 161200 METAR WAGB 161200Z 00000KT 9000 FEW013 29/26 Q1012 NOSIG=  
16-May-2023 SAID35 WAGB 161230 METAR WAGB 161230Z 00000KT 9000 FEW013 29/26 Q1012 NOSIG=  
16-May-2023 SAID35 WAGB 161300 METAR WAGB 161300Z 00000KT 9000 FEW012 29/26 Q1012 NOSIG=  
16-May-2023 SAID35 WAGB 161330 METAR WAGB 161330Z 00000KT 9000 FEW012 29/26 Q1013 NOSIG=  
16-May-2023 SAID35 WAGB 161400 METAR WAGB 161400Z 00000KT 8000 FEW012 28/26 Q1013 NOSIG=  
16-May-2023 SAID35 WAGB 161430 METAR WAGB 161430Z 00000KT 8000 FEW012 28/26 Q1013 NOSIG=  
16-May-2023 SAID35 WAGB 161500 METAR WAGB 161500Z 00000KT 8000 FEW012 27/25 Q1013 NOSIG=  
16-May-2023 SAID35 WAGB 161530 METAR WAGB 161530Z 00000KT 8000 FEW012 27/25 Q1013 NOSIG=  
16-May-2023 SAID35 WAGB 161600 METAR WAGB 161600Z 00000KT 7000 SCT012 27/25 Q1013 NOSIG=  
16-May-2023 SAID35 WAGB 161630 METAR WAGB 161630Z 00000KT 7000 SCT012 27/25 Q1012 NOSIG=  
16-May-2023 SAID35 WAGB 161700 METAR WAGB 161700Z 00000KT 5000 HZ SCT011 26/25 Q1012 NOSIG=  
16-May-2023 SAID35 WAGB 161730 METAR WAGB 161730Z 00000KT 5000 HZ SCT011 26/25 Q1012 NOSIG=  
16-May-2023 SAID35 WAGB 161800 METAR WAGB 161800Z 29002KT 5000 BR BKN010 26/25 Q1012 NOSIG=  
16-May-2023 SAID35 WAGB 161830 METAR WAGB 161830Z 00000KT 5000 BR BKN010 26/25 Q1012 NOSIG=  
16-May-2023 SAID35 WAGB 161900 METAR WAGB 161900Z 00000KT 5000 BR BKN010 26/25 Q1012 NOSIG=  
16-May-2023 SAID35 WAGB 161930 METAR WAGB 161930Z 00000KT 5000 BR BKN010 26/25 Q1012 NOSIG=  
16-May-2023 SAID35 WAGB 162000 METAR WAGB 162000Z 00000KT 6000 FEW009CB SCT010 26/25 Q1012 NOSIG=  
16-May-2023 SAID35 WAGB 162030 METAR WAGB 162030Z 00000KT 6000 FEW009CB SCT010 26/25 Q1012 NOSIG=  
16-May-2023 SAID35 WAGB 162100 METAR WAGB 162100Z 00000KT 5000 BR FEW009CB SCT010 26/25 Q1012 NOSIG=  
16-May-2023 SAID35 WAGB 162130 METAR WAGB 162130Z 00000KT 5000 BR FEW009CB SCT010 26/25 Q1013 NOSIG=  
16-May-2023 SAID35 WAGB 162200 METAR WAGB 162200Z 00000KT 5000 BR BKN010 26/25 Q1013 NOSIG=  
16-May-2023 SAID35 WAGB 162230 METAR WAGB 162230Z 00000KT 5000 BR BKN010 26/25 Q1013 NOSIG=  
16-May-2023 SAID35 WAGB 162300 METAR WAGB 162300Z 00000KT 6000 VCSH FEW009CB BKN010 26/25 Q1014 NOSIG=  
16-May-2023 SAID35 WAGB 162330 METAR WAGB 162330Z 00000KT 6000 VCSH FEW009CB BKN010 26/25 Q1014 NOSIG=  
17-May-2023 SAID35 WAGB 170000 METAR WAGB 170000Z 00000KT 5000 VCSH BKN012 26/25 Q1014 NOSIG=  
17-May-2023 SAID35 WAGB 170030 METAR WAGB 170030Z 00000KT 5000 VCSH BKN010 26/25 Q1015 NOSIG=  
17-May-2023 SAID35 WAGB 170100 METAR WAGB 170100Z 01004KT 7000 BKN012 27/25 Q1015 NOSIG=  
17-May-2023 SAID35 WAGB 170130 METAR WAGB 170130Z 01003KT 7000 BKN012 27/25 Q1015 NOSIG=  
17-May-2023 SAID35 WAGB 170200 METAR WAGB 170200Z 05005KT 8000 BKN012 28/25 Q1015 NOSIG=  
17-May-2023 SAID35 WAGB 170230 METAR WAGB 170230Z 04003KT 8000 BKN012 28/25 Q1015 NOSIG=  
17-May-2023 SAID35 WAGB 170300 METAR WAGB 170300Z 33005KT 9000 SCT012 30/25 Q1014 NOSIG=  
17-May-2023 SAID35 WAGB 170330 METAR WAGB 170330Z 34003KT 9999 BKN012 30/25 Q1013 NOSIG=  
17-May-2023 SAID35 WAGB 170400 METAR WAGB 170400Z 02004KT 9999 BKN013 30/25 Q1013 NOSIG=  
17-May-2023 SAID35 WAGB 170430 METAR WAGB 170430Z 02007KT 9999 BKN013 30/25 Q1012 NOSIG=  
17-May-2023 SAID35 WAGB 170500 METAR WAGB 170500Z 30003KT 9999 BKN013 30/25 Q1012 NOSIG=  
17-May-2023 SAID35 WAGB 170530 METAR WAGB 170530Z 32003KT 9999 SCT013 30/24 Q1011 NOSIG=  
17-May-2023 SAID35 WAGB 170600 METAR WAGB 170600Z 01004KT 9999 SCT014 32/24 Q1011 NOSIG=  
17-May-2023 SAID35 WAGB 170630 METAR WAGB 170630Z 33002KT 9999 SCT014 32/24 Q1010 NOSIG=  
17-May-2023 SAID35 WAGB 170700 METAR WAGB 170700Z 00000KT 9999 SCT014 32/24 Q1010 NOSIG=  
17-May-2023 SAID35 WAGB 170730 METAR WAGB 170730Z 32005KT 9999 SCT014 31/24 Q1010 NOSIG=  
17-May-2023 SAID35 WAGB 170800 METAR WAGB 170800Z 31004KT 9999 FEW014 31/24 Q1010 NOSIG=  
17-May-2023 SAID35 WAGB 170830 METAR WAGB 170830Z 00000KT 9999 FEW014 30/24 Q1010 NOSIG=  
17-May-2023 SAID35 WAGB 170900 METAR WAGB 170900Z 00000KT 9999 FEW014 31/25 Q1010 NOSIG=  
17-May-2023 SAID35 WAGB 171000 METAR WAGB 171000Z 00000KT 9999 FEW013CB FEW014 30/26 Q1010 NOSIG=  
17-May-2023 SAID35 WAGB 171030 METAR WAGB 171030Z 00000KT 9999 FEW013CB FEW014 30/25 Q1010 NOSIG=  
17-May-2023 SAID35 WAGB 171100 METAR WAGB 171100Z 00000KT 9999 FEW013CB FEW014 29/26 Q1011 NOSIG=  
17-May-2023 SAID35 WAGB 171130 METAR WAGB 171130Z 00000KT 9999 FEW013CB FEW014 29/25 Q1011 NOSIG=  
17-May-2023 SAID35 WAGB 171200 METAR WAGB 171200Z 00000KT 7000 FEW013 28/26 Q1012=  
17-May-2023 SAID35 WAGB 171230 METAR WAGB 171230Z 00000KT 7000 FEW013 28/26 Q1012=  
17-May-2023 SAID35 WAGB 171300 METAR WAGB 171300Z 00000KT 7000 SCT012 27/26 Q1012=  
17-May-2023 SAID35 WAGB 171330 METAR WAGB 171330Z 00000KT 7000 SCT012 27/26 Q1012=  
17-May-2023 SAID35 WAGB 171400 METAR WAGB 171400Z 00000KT 7000 SCT012 27/26 Q1013=  
17-May-2023 SAID35 WAGB 171430 METAR WAGB 171430Z 00000KT 7000 SCT012 27/26 Q1013=  
17-May-2023 SAID35 WAGB 171500 METAR WAGB 171500Z 00000KT 7000 SCT012 27/26 Q1013=  
17-May-2023 SAID35 WAGB 171530 METAR WAGB 171530Z 00000KT 7000 SCT012 27/26 Q1013=  
17-May-2023 SAID35 WAGB 171600 METAR WAGB 171600Z 00000KT 6000 SCT011 26/25 Q1012=  
17-May-2023 SAID35 WAGB 171630 METAR WAGB 171630Z 00000KT 6000 SCT011 26/25 Q1012=  
17-May-2023 SAID35 WAGB 171700 METAR WAGB 171700Z 00000KT 6000 SCT011 26/25 Q1012=  
17-May-2023 SAID35 WAGB 171730 METAR WAGB 171730Z 00000KT 6000 SCT011 26/25 Q1012=  
17-May-2023 SAID35 WAGB 171800 METAR WAGB 171800Z 00000KT 6000 SCT011 26/25 Q1012=  
17-May-2023 SAID35 WAGB 171830 METAR WAGB 171830Z 00000KT 6000 SCT011 26/25 Q1012=  
17-May-2023 SAID35 WAGB 171900 METAR WAGB 171900Z 00000KT 6000 SCT011 25/25 Q1011=  
17-May-2023 SAID35 WAGB 171930 METAR WAGB 171930Z 00000KT 6000 SCT011 25/25 Q1011=  
17-May-2023 SAID35 WAGB 172000 METAR WAGB 172000Z 00000KT 6000 SCT011 25/25 Q1012=  
17-May-2023 SAID35 WAGB 172030 METAR WAGB 172030Z 00000KT 6000 SCT011 25/25 Q1012=  
17-May-2023 SAID35 WAGB 172100 METAR WAGB 172100Z 00000KT 6000 SCT011 25/25 Q1012=  
17-May-2023 SAID35 WAGB 172130 METAR WAGB 172130Z 00000KT 6000 SCT011 25/25 Q1012=  
17-May-2023 SAID35 WAGB 172200 METAR WAGB 172200Z 00000KT 6000 SCT011 25/25 Q1012=  
17-May-2023 SAID35 WAGB 172230 METAR WAGB 172230Z 00000KT 6000 SCT011 25/25 Q1012=  
17-May-2023 SAID35 WAGB 172300 METAR WAGB 172300Z 00000KT 7000 BKN011 26/25 Q1013=  
17-May-2023 SAID35 WAGB 172330 METAR WAGB 172330Z 00000KT 7000 SCT011 26/25 Q1013=  
18-May-2023 SAID35 WAGB 180000 METAR WAGB 180000Z 00000KT 7000 SCT011 27/25 Q1013 NOSIG=  
18-May-2023 SAID35 WAGB 180030 METAR WAGB 180030Z 05002KT 7000 SCT011 28/25 Q1013 NOSIG=  
18-May-2023 SAID35 WAGB 180100 METAR WAGB 180100Z 05004KT 7000 BKN011 28/25 Q1013 NOSIG=  
18-May-2023 SAID35 WAGB 180130 METAR WAGB 180130Z 00000KT 8000 BKN011 28/25 Q1013 NOSIG=  
18-May-2023 SAID35 WAGB 180200 METAR WAGB 180200Z 08002KT 9000 SCT012 31/25 Q1013 NOSIG=  
18-May-2023 SAID35 WAGB 180230 METAR WAGB 180230Z 03004KT 9000 SCT012 31/25 Q1013 NOSIG=  
18-May-2023 SAID35 WAGB 180300 METAR WAGB 180300Z 03002KT 9000 SCT012 30/25 Q1012 NOSIG=  
18-May-2023 SAID35 WAGB 180330 METAR WAGB 180330Z 03004KT 9999 BKN012 32/25 Q1012 NOSIG=  
18-May-2023 SAID35 WAGB 180400 METAR WAGB 180400Z 34004KT 9999 BKN012 32/25 Q1012 NOSIG=  
18-May-2023 SAID35 WAGB 180430 METAR WAGB 180430Z 25003KT 9999 BKN012 32/25 Q1011 NOSIG=  
18-May-2023 SAID35 WAGB 180500 METAR WAGB 180500Z 00000KT 9999 BKN013 33/25 Q1010 NOSIG=  
18-May-2023 SAID35 WAGB 180530 METAR WAGB 180530Z 30004KT 9999 FEW012CB BKN013 31/25 Q1010 NOSIG=  
18-May-2023 SAID35 WAGB 180600 METAR WAGB 180600Z 30004KT 8000 TS FEW012CB BKN013 29/22 Q1010 NOSIG=  
18-May-2023 SAID35 WAGB 180630 METAR WAGB 180630Z 29002KT 8000 FEW012CB BKN013 27/24 Q1008 NOSIG=  
18-May-2023 SAID35 WAGB 180700 METAR WAGB 180700Z 20003KT 8000 FEW012CB BKN013 28/25 Q1008 NOSIG=  
18-May-2023 SAID35 WAGB 180730 METAR WAGB 180730Z 18004KT 8000 FEW012CB BKN013 28/25 Q1008 NOSIG=  
18-May-2023 SAID35 WAGB 180800 METAR WAGB 180800Z 16002KT 8000 FEW012CB BKN013 28/25 Q1008 NOSIG=  
18-May-2023 SAID35 WAGB 180830 METAR WAGB 180830Z 00000KT 8000 FEW012CB BKN013 28/24 Q1008 NOSIG=  
18-May-2023 SAID35 WAGB 180900 METAR WAGB 180900Z 00000KT 8000 FEW012CB BKN013 28/24 Q1008 NOSIG=  
18-May-2023 SAID35 WAGB 180930 METAR WAGB 180930Z 00000KT 8000 FEW012CB SCT013 29/25 Q1009 NOSIG=  
18-May-2023 SAID35 WAGB 181000 METAR WAGB 181000Z 00000KT 8000 FEW012CB SCT013 29/25 Q1010 NOSIG=  
18-May-2023 SAID35 WAGB 181030 METAR WAGB 181030Z 00000KT 8000 FEW012CB SCT013 29/25 Q1011 NOSIG=  
18-May-2023 SAID35 WAGB 181100 METAR WAGB 181100Z 00000KT 5000 -RA FEW011CB SCT012 28/25 Q1011 NOSIG=  
18-May-2023 SAID35 WAGB 181130 CCA METAR COR WAGB 181130Z 00000KT 5000 TS FEW011CB SCT012 27/25 Q1011 NOSIG RERA=  
18-May-2023 SAID35 WAGB 181200 METAR WAGB 181200Z 15002KT 7000 FEW012CB SCT013 26/26 Q1012 RETS=  
18-May-2023 SAID35 WAGB 181230 METAR WAGB 181230Z 21004KT 7000 FEW012CB SCT013 26/26 Q1013=  
18-May-2023 SAID35 WAGB 181300 METAR WAGB 181300Z 20004KT 7000 FEW011CB SCT012 26/25 Q1013=  
18-May-2023 SAID35 WAGB 181330 METAR WAGB 181330Z 23002KT 7000 FEW011CB SCT012 26/25 Q1013=  
18-May-2023 SAID35 WAGB 181400 METAR WAGB 181400Z 22003KT 8000 FEW011CB FEW012 25/24 Q1013=  
18-May-2023 SAID35 WAGB 181430 METAR WAGB 181430Z 00000KT 8000 FEW011CB FEW012 25/24 Q1014=  
18-May-2023 SAID35 WAGB 181500 METAR WAGB 181500Z 00000KT 8000 SCT011 25/24 Q1014=  
18-May-2023 SAID35 WAGB 181530 METAR WAGB 181530Z 00000KT 8000 SCT011 25/24 Q1014=  
18-May-2023 SAID35 WAGB 181600 METAR WAGB 181600Z 00000KT 7000 BKN011 25/24 Q1014=  
18-May-2023 SAID35 WAGB 181630 METAR WAGB 181630Z 00000KT 7000 BKN011 25/24 Q1014=  
18-May-2023 SAID35 WAGB 181700 METAR WAGB 181700Z 00000KT 7000 BKN011 25/24 Q1013=  
18-May-2023 SAID35 WAGB 181730 METAR WAGB 181730Z 00000KT 7000 BKN011 25/24 Q1013=  
18-May-2023 SAID35 WAGB 181800 METAR WAGB 181800Z 27002KT 7000 BKN010 25/24 Q1013=  
18-May-2023 SAID35 WAGB 181900 METAR WAGB 181900Z 00000KT 7000 SCT010 24/24 Q1013=  
18-May-2023 SAID35 WAGB 181930 METAR WAGB 181930Z 00000KT 7000 SCT010 24/24 Q1013=  
18-May-2023 SAID35 WAGB 182000 METAR WAGB 182000Z 00000KT 7000 SCT010 24/24 Q1012=  
18-May-2023 SAID35 WAGB 182030 METAR WAGB 182030Z 00000KT 7000 SCT010 24/24 Q1012=  
18-May-2023 SAID35 WAGB 182100 METAR WAGB 182100Z 00000KT 8000 FEW009 24/23 Q1012=  
18-May-2023 SAID35 WAGB 182130 METAR WAGB 182130Z 00000KT 8000 FEW009 24/23 Q1012=  
18-May-2023 SAID35 WAGB 182200 METAR WAGB 182200Z 00000KT 8000 SCT009 OVC080 24/24 Q1012=  
18-May-2023 SAID35 WAGB 182200 CCA METAR COR WAGB 182200Z 00000KT 8000 SCT009 24/24 Q1012=  
18-May-2023 SAID35 WAGB 182230 METAR WAGB 182230Z 00000KT 8000 SCT009 24/24 Q1012=  
18-May-2023 SAID35 WAGB 182300 METAR WAGB 182300Z 00000KT 7000 SCT009 24/23 Q1012=  
18-May-2023 SAID35 WAGB 182330 METAR WAGB 182330Z 00000KT 7000 BKN009 24/23 Q1012=  
19-May-2023 SAID35 WAGB 190000 METAR WAGB 190000Z 22003KT 3500 BR OVC008CB 24/24 Q1012 NOSIG=  
19-May-2023 SAID35 WAGB 190030 METAR WAGB 190030Z 24003KT 4000 BR OVC008CB 24/24 Q1013 NOSIG=  
19-May-2023 SAID35 WAGB 190100 METAR WAGB 190100Z 00000KT 5000 HZ BKN009CB 25/24 Q1013 NOSIG=  
19-May-2023 SAID35 WAGB 190130 METAR WAGB 190130Z 00000KT 6000 BKN009 26/24 Q1013 NOSIG=  
19-May-2023 SAID35 WAGB 190200 METAR WAGB 190200Z 06003KT 9000 SCT010 28/24 Q1013 NOSIG=  
19-May-2023 SAID35 WAGB 190230 METAR WAGB 190230Z VRB02KT 9000 SCT010 28/24 Q1013 NOSIG=  
19-May-2023 SAID35 WAGB 190300 METAR WAGB 190300Z 00000KT 9999 SCT011 29/24 Q1013 NOSIG=  
19-May-2023 SAID35 WAGB 190330 METAR WAGB 190330Z 28004KT 9999 SCT011 30/24 Q1012 NOSIG=  
19-May-2023 SAID35 WAGB 190400 METAR WAGB 190400Z 36003KT 9999 BKN011 30/24 Q1012 NOSIG=  
19-May-2023 SAID35 WAGB 190430 METAR WAGB 190430Z 31002KT 9999 BKN012 31/24 Q1012 NOSIG=  
19-May-2023 SAID35 WAGB 190500 METAR WAGB 190500Z 36005KT 9999 BKN013 30/24 Q1011 NOSIG=  
19-May-2023 SAID35 WAGB 190530 METAR WAGB 190530Z 30004KT 9999 BKN013 31/24 Q1011 NOSIG=  
19-May-2023 SAID35 WAGB 190600 METAR WAGB 190600Z 06003KT 9999 FEW013CB BKN014 31/25 Q1010 NOSIG=  
19-May-2023 SAID35 WAGB 190630 METAR WAGB 190630Z 00000KT 8000 FEW012TCU BKN013 29/24 Q1009 TEMPO TL1545 4000 TSSHRA=  
19-May-2023 SAID35 WAGB 190630 CCA METAR COR WAGB 190630Z 00000KT 8000 FEW012TCU BKN013 29/24 Q1009 TEMPO TL0830 4000 TSSHRA=  
19-May-2023 SAID35 WAGB 190700 METAR WAGB 190700Z 23009KT 5000 TSRA FEW011TCU BKN012 26/24 Q1010 NOSIG=  
19-May-2023 SAID35 WAGB 190700 CCA METAR COR WAGB 190700Z 23009KT 5000 TSRA FEW011CB BKN012 26/24 Q1010 BECMG TL0815 NSW=  
19-May-2023 SAID35 WAGB 190730 METAR WAGB 190730Z 0000KT 8000 TS FEW012CB BKN013 25/24 Q1010 RERA BECMG TL0815 NSW=  
19-May-2023 SAID35 WAGB 190800 METAR WAGB 190800Z 06003KT 9000 FEW012CB BKN013 26/24 Q1009 RETS NOSIG=  
19-May-2023 SAID35 WAGB 190830 METAR WAGB 190830Z 01003KT 9000 FEW012CB BKN013 26/24 Q1009 NOSIG=  
19-May-2023 SAID35 WAGB 190900 METAR WAGB 190900Z 24002KT 999 FEW012CB SCT013 26/24 Q1009 NOSIG=  
19-May-2023 SAID35 WAGB 190900 CCA METAR COR WAGB 190900Z 24002KT 9999 FEW012CB SCT013 26/24 Q1009 NOSIG=  
19-May-2023 SAID35 WAGB 190930 METAR WAGB 190930Z 00000KT 9999 FEW012CB SCT013 27/25 Q1009 NOSIG=  
19-May-2023 SAID35 WAGB 191030 METAR WAGB 191030Z 00000KT 9999 FEW013CB FEW014 27/25 Q1010 NOSIG=  
19-May-2023 SAID35 WAGB 191100 METAR WAGB 191100Z 00000KT 9000 FEW013CB FEW014 27/25 Q1011 NOSIG=  
19-May-2023 SAID35 WAGB 191130 METAR WAGB 191130Z 00000KT 9000 FEW013CB FEW014 27/25 Q1011 NOSIG=  
19-May-2023 SAID35 WAGB 191200 METAR WAGB 191200Z 00000KT 8000 VCTS FEW013CB SCT014 26/25 Q1011=  
19-May-2023 SAID35 WAGB 191230 METAR WAGB 191230Z 00000KT 8000 VCTS FEW013CB SCT014 26/25 Q1011=  
19-May-2023 SAID35 WAGB 191300 METAR WAGB 191300Z 00000KT 7000 VCTS FEW012CB SCT013 26/25 Q1012=  
19-May-2023 SAID35 WAGB 191330 METAR WAGB 191330Z 00000KT 7000 VCTS FEW012CB SCT013 26/25 Q1012=  
19-May-2023 SAID35 WAGB 191400 METAR WAGB 191400Z 00000KT 6000 FEW012CB SCT013 26/25 Q1013=  
19-May-2023 SAID35 WAGB 191430 METAR WAGB 191430Z 00000KT 6000 FEW012CB SCT013 26/25 Q1013=  
19-May-2023 SAID35 WAGB 191500 METAR WAGB 191500Z 14003KT 6000 FEW012CB SCT013 25/24 Q1013=  
19-May-2023 SAID35 WAGB 191530 METAR WAGB 191530Z 10003KT 6000 FEW012CB SCT013 25/24 Q1013=  
19-May-2023 SAID35 WAGB 191600 METAR WAGB 191600Z 00000KT 6000 FEW011CB SCT012 25/24 Q1013=  
19-May-2023 SAID35 WAGB 191630 METAR WAGB 191630Z 00000KT 6000 FEW011CB SCT012 25/24 Q1013=  
19-May-2023 SAID35 WAGB 191700 METAR WAGB 191700Z 00000KT 5000 BKN012 24/22 Q1013=  
19-May-2023 SAID35 WAGB 191730 METAR WAGB 191730Z 00000KT 5000 BKN012 24/22 Q1013=  
19-May-2023 SAID35 WAGB 191800 METAR WAGB 191800Z 00000KT 5000 HZ BKN012CB 24/23 Q1012=  
19-May-2023 SAID35 WAGB 191800 CCA METAR WAGB 191800Z 00000KT 5000 HZ BKN012 24/23 Q1012=  
19-May-2023 SAID35 WAGB 191830 METAR WAGB 191830Z 00000KT 5000 HZ BKN012CB 24/23 Q1012=  
19-May-2023 SAID35 WAGB 191830 CCA METAR WAGB 191830Z 00000KT 5000 HZ BKN012 24/23 Q1012=  
19-May-2023 SAID35 WAGB 191900 METAR WAGB 191900Z 00000KT 5000 BR BKN011 24/22 Q1012=  
19-May-2023 SAID35 WAGB 191930 METAR WAGB 191930Z 00000KT 5000 BR BKN011 24/22 Q1012=  
19-May-2023 SAID35 WAGB 192000 METAR WAGB 192000Z 00000KT 5000 BR BKN011 24/23 Q1012=  
19-May-2023 SAID35 WAGB 192030 METAR WAGB 192030Z 00000KT 5000 BR BKN011 24/23 Q1012=  
19-May-2023 SAID35 WAGB 192100 METAR WAGB 192100Z 00000KT 5000 BR SCT010 24/23 Q1012=  
19-May-2023 SAID35 WAGB 192130 METAR WAGB 192130Z 00000KT 5000 BR SCT010 24/23 Q1012=  
19-May-2023 SAID35 WAGB 192200 METAR WAGB 192200Z 00000KT 5000 BKN010 24/23 Q1013=  
19-May-2023 SAID35 WAGB 192230 METAR WAGB 192230Z 00000KT 5000 BKN010 24/23 Q1013=  
19-May-2023 SAID35 WAGB 192300 METAR WAGB 192300Z 00000KT 6000 SCT010 24/23 Q1013=  
19-May-2023 SAID35 WAGB 192330 METAR WAGB 192330Z 00000KT 6000 SCT010 24/23 Q1013=  
20-May-2023 SAID35 WAGB 200000 METAR WAGB 200000Z 00000KT 6000 SCT010 25/23 Q1013 NOSIG=  
20-May-2023 SAID35 WAGB 200100 METAR WAGB 200100Z 00000KT 9000 SCT010 27/24 Q1013 NOSIG=  
20-May-2023 SAID35 WAGB 200130 METAR WAGB 200130Z 00000KT 9000 BKN010 28/24 Q1013 NOSIG=  
20-May-2023 SAID35 WAGB 200200 METAR WAGB 200200Z 00000KT 9000 BKN010 29/24 Q1012 NOSIG=  
20-May-2023 SAID35 WAGB 200230 METAR WAGB 200230Z 00000KT 9999 BKN010 30/24 Q1012 NOSIG=  
20-May-2023 SAID35 WAGB 200300 METAR WAGB 200300Z 00000KT 9999 BKN010 29/24 Q1011 NOSIG=  
20-May-2023 SAID35 WAGB 200330 METAR WAGB 200330Z 00000KT 9999 BKN010 29/24 Q1011 NOSIG=  
20-May-2023 SAID35 WAGB 200400 METAR WAGB 200400Z 00000KT 9999 SCT012 30/25 Q1011 NOSIG=  
20-May-2023 SAID35 WAGB 200430 METAR WAGB 200430Z 18003KT 9999 SCT012 31/24 Q1010 NOSIG=  
20-May-2023 SAID35 WAGB 200500 METAR WAGB 200500Z 21003KT 9999 SCT012 31/24 Q1010 NOSIG=  
20-May-2023 SAID35 WAGB 200530 METAR WAGB 200530Z 23004KT 9999 SCT012 31/24 Q1009 NOSIG=  
20-May-2023 SAID35 WAGB 200600 METAR WAGB 200600Z 18003KT 9999 BKN013 32/25 Q1009 NOSIG=  
20-May-2023 SAID35 WAGB 200630 METAR WAGB 200630Z 18003KT 9999 BKN013 32/25 Q1009 NOSIG=  
20-May-2023 SAID35 WAGB 200700 METAR WAGB 200700Z 21006KT 9999 SCT013 32/24 Q1008 NOSIG=  
20-May-2023 SAID35 WAGB 200730 METAR WAGB 200730Z 21004KT 9999 SCT013 32/24 Q1008 NOSIG=  
20-May-2023 SAID35 WAGB 200800 METAR WAGB 200800Z 21004KT 9999 FEW013TCU 32/24 Q1007 NOSIG=  
20-May-2023 SAID35 WAGB 200830 METAR WAGB 200830Z 21003KT 9999 FEW013TCU 32/23 Q1007 NOSIG=  
20-May-2023 SAID35 WAGB 200900 METAR WAGB 200900Z 00000KT 9999 FEW013TCU SCT014 32/25 Q1008 NOSIG=  
20-May-2023 SAID35 WAGB 200930 METAR WAGB 200930Z 00000KT 9999 FEW013TCU SCT014 32/25 Q1008 NOSIG=  
20-May-2023 SAID35 WAGB 201000 METAR WAGB 201000Z 00000KT 9999 FEW013TCU SCT014 30/25 Q1009 NOSIG=  
20-May-2023 SAID35 WAGB 201030 METAR WAGB 201030Z 00000KT 9999 FEW013TCU SCT014 30/25 Q1009 NOSIG=  
20-May-2023 SAID35 WAGB 201100 METAR WAGB 201100Z 00000KT 9999 FEW013CB SCT014 30/25 Q1009 NOSIG=  
20-May-2023 SAID35 WAGB 201130 METAR WAGB 201130Z 00000KT 9999 FEW013CB SCT014 30/25 Q1009 NOSIG=  
20-May-2023 SAID35 WAGB 201200 METAR WAGB 201200Z 00000KT 9000 VCTS FEW013CB FEW014 28/26 Q1011=  
20-May-2023 SAID35 WAGB 201200 CCA METAR WAGB 201200Z 00000KT 9000 VCTS FEW013CB 28/26 Q1011=  
20-May-2023 SAID35 WAGB 201230 METAR WAGB 201230Z 00000KT 8000 VCTS FEW013CB 28/26 Q1011=  
20-May-2023 SAID35 WAGB 201300 METAR WAGB 201300Z 00000KT 8000 VCTS FEW013CB 27/26 Q1012=  
20-May-2023 SAID35 WAGB 201330 METAR WAGB 201330Z 00000KT 8000 VCTS FEW013CB 27/26 Q1012=  
20-May-2023 SAID35 WAGB 201400 METAR WAGB 201400Z 00000KT 7000 VCTS FEW012CB 27/25 Q1012=  
20-May-2023 SAID35 WAGB 201430 METAR WAGB 201430Z 00000KT 7000 VCTS FEW012CB 27/25 Q1012=  
20-May-2023 SAID35 WAGB 201500 METAR WAGB 201500Z 00000KT 6000 VCTS FEW012CB 26/25 Q1012=  
20-May-2023 SAID35 WAGB 201530 METAR WAGB 201530Z 00000KT 6000 VCTS FEW012CB 26/25 Q1012=  
20-May-2023 SAID35 WAGB 201600 METAR WAGB 201600Z 00000KT 5000 BR FEW012CB 26/25 Q1012=  
20-May-2023 SAID35 WAGB 201600 CCA METAR WAGB 201600Z 00000KT 5000 VCTS FEW012CB 26/25 Q1012=  
20-May-2023 SAID35 WAGB 201630 METAR WAGB 201630Z 00000KT 5000 BR FEW012CB 26/25 Q1012=  
20-May-2023 SAID35 WAGB 201630 CCA METAR WAGB 201630Z 00000KT 5000 VCTS FEW012CB 26/25 Q1012=  
20-May-2023 SAID35 WAGB 201700 METAR WAGB 201700Z 00000KT 5000 BR FEW012CB 26/25 Q1012=  
20-May-2023 SAID35 WAGB 201730 METAR WAGB 201730Z 00000KT 5000 VCTS FEW012CB 26/25 Q1012=  
20-May-2023 SAID35 WAGB 201800 METAR WAGB 201800Z 00000KT 5000 VCTS FEW012CB 26/25 Q1012=  
20-May-2023 SAID35 WAGB 201830 METAR WAGB 201830Z 00000KT 5000 VCTS FEW012CB 26/25 Q1012=  
20-May-2023 SAID35 WAGB 201900 METAR WAGB 201900Z 00000KT 4000 VCTS FEW012CB25/24 Q1012=  
20-May-2023 SAID35 WAGB 201930 METAR WAGB 201930Z 00000KT 4000 VCTS FEW012CB25/24 Q1012=  
20-May-2023 SAID35 WAGB 202000 METAR WAGB 202000Z 00000KT 5000 VCTS FEW011CB SCT012 25/24 Q1012=  
20-May-2023 SAID35 WAGB 202030 METAR WAGB 202030Z 00000KT 5000 VCTS FEW011CB SCT012 25/24 Q1012=  
20-May-2023 SAID35 WAGB 202100 METAR WAGB 202100Z 00000KT 5000 VCTS FEW011CB SCT012 25/24 Q1012=  
20-May-2023 SAID35 WAGB 202130 METAR WAGB 202130Z 00000KT 5000 VCTS FEW011CB SCT012 25/24 Q1012=  
20-May-2023 SAID35 WAGB 202200 METAR WAGB 202200Z 00000KT 5000 BR SCT010 24/24 Q1012=  
20-May-2023 SAID35 WAGB 202230 METAR WAGB 202230Z 00000KT 5000 BR SCT010 24/24 Q1013=  
20-May-2023 SAID35 WAGB 202300 METAR WAGB 202300Z 00000KT 5000 BR SCT010 24/24 Q1013=  
20-May-2023 SAID35 WAGB 202330 METAR WAGB 202330Z 00000KT 5000 BR SCT010 24/24 Q1013=  
21-May-2023 SAID35 WAGB 210000 METAR WAGB 210000Z 00000KT 6000 FEW010 26/25 Q1013 NOSIG=  
21-May-2023 SAID35 WAGB 210030 METAR WAGB 210030Z 00000KT 6000 FEW010 27/25 Q1013 NOSIG=  
21-May-2023 SAID35 WAGB 210100 METAR WAGB 210100Z 00000KT 8000 FEW011 28/25 Q1013 NOSIG=  
21-May-2023 SAID35 WAGB 210130 METAR WAGB 210130Z 31006KT 8000 FEW011 28/25 Q1013 NOSIG=  
21-May-2023 SAID35 WAGB 210200 METAR WAGB 210200Z 31003KT 8000 SCT11 29/25 Q1013 NOSIG=  
21-May-2023 SAID35 WAGB 210230 METAR WAGB 210230Z 27003KT 8000 SCT011 30/25 Q1013 NOSIG=  
21-May-2023 SAID35 WAGB 210300 METAR WAGB 210300Z 35003KT 9999 SCT011 30/25 Q1012 NOSIG=  
21-May-2023 SAID35 WAGB 210330 METAR WAGB 210330Z 04004KT 9999 SCT012 30/24 Q1012 NOSIG=  
21-May-2023 SAID35 WAGB 210400 METAR WAGB 210400Z 04004KT 9999 SCT012 32/25 Q1011 NOSIG=  
21-May-2023 SAID35 WAGB 210430 METAR WAGB 210430Z 20003KT 9999 BKN012 32/25 Q1011 NOSIG=  
21-May-2023 SAID35 WAGB 210500 METAR WAGB 210500Z 24003KT 9999 BKN012 32/24 Q1010 NOSIG=  
21-May-2023 SAID35 WAGB 210530 METAR WAGB 210530Z 24003KT 9999 BKN012 32/24 Q1010 NOSIG=  
21-May-2023 SAID35 WAGB 210600 METAR WAGB 210600Z 05004KT 9999 BKN013 33/24 Q1010 NOSIG=  
21-May-2023 SAID35 WAGB 210630 METAR WAGB 210630Z 11005KT 9999 BKN013 33/24 Q1010 NOSIG=  
21-May-2023 SAID35 WAGB 210700 METAR WAGB 210700Z 08003KT 9999 FEW013TCU 33/24 Q1009 NOSIG=  
21-May-2023 SAID35 WAGB 210730 METAR WAGB 210730Z 07003KT 9999 FEW013TCU 33/24 Q1009 NOSIG=  
21-May-2023 SAID35 WAGB 210800 METAR WAGB 210800Z 06003KT 9999 FEW013TCU 33/24 Q1008 NOSIG=  
21-May-2023 SAID35 WAGB 210830 METAR WAGB 210830Z 00000KT 9999 FEW013TCU 33/24 Q1008 NOSIG=  
21-May-2023 SAID35 WAGB 210900 METAR WAGB 210900Z 05002KT 9999 FEW013TCU FEW014 32/26 Q1008 NOSIG=  
21-May-2023 SAID35 WAGB 210930 METAR WAGB 210930Z 00000KT 9999 FEW013TCU FEW014 32/25 Q1009 NOSIG=  
21-May-2023 SAID35 WAGB 211000 METAR WAGB 211000Z 00000KT 9999 FEW013CB FEW014 31/26 Q1009 NOSIG=  
21-May-2023 SAID35 WAGB 211030 METAR WAGB 211030Z 00000KT 9999 FEW013CB FEW014 30/25 Q1009 NOSIG=  
21-May-2023 SAID35 WAGB 211100 METAR WAGB 211100Z 00000KT 9999 FEW013CB FEW014 30/26 Q1010 NOSIG=  
21-May-2023 SAID35 WAGB 211130 METAR WAGB 211130Z 00000KT 9999 FEW013CB FEW014 29/25 Q1010 NOSIG=  
21-May-2023 SAID35 WAGB 211200 METAR WAGB 211200Z 00000KT 8000 VCTS FEW013CB FEW014 29/27 Q1010=  
21-May-2023 SAID35 WAGB 211230 METAR WAGB 211230Z 00000KT 8000 VCTS FEW013CB FEW014 29/27 Q1010=  
21-May-2023 SAID35 WAGB 211300 METAR WAGB 211300Z 00000KT 8000 VCTS FEW013CB FEW014 29/27 Q1011=  
21-May-2023 SAID35 WAGB 211330 METAR WAGB 211330Z 00000KT 8000 VCTS FEW013CB FEW014 29/27 Q1011=  
21-May-2023 SAID35 WAGB 211400 METAR WAGB 211400Z 00000KT 8000 VCTS FEW013CB FEW014 28/26 Q1011=  
21-May-2023 SAID35 WAGB 211430 METAR WAGB 211430Z 00000KT 8000 VCTS FEW013CB FEW014 28/26 Q1011=  
21-May-2023 SAID35 WAGB 211500 METAR WAGB 211500Z 00000KT 8000 VCTS FEW013CB FEW014 28/26 Q1012=  
21-May-2023 SAID35 WAGB 211530 METAR WAGB 211530Z 00000KT 8000 VCTS FEW013CB FEW014 28/26 Q1012=  
21-May-2023 SAID35 WAGB 211600 METAR WAGB 211600Z 00000KT 8000 VCTS FEW012CB SCT013 27/25 Q1012=  
21-May-2023 SAID35 WAGB 211630 METAR WAGB 211630Z 00000KT 8000 VCTS FEW012CB SCT013 27/25 Q1012=  
21-May-2023 SAID35 WAGB 211700 METAR WAGB 211700Z 00000KT 7000 VCTS FEW012CB SCT013 27/25 Q1012=  
21-May-2023 SAID35 WAGB 211730 METAR WAGB 211730Z 00000KT 7000 VCTS FEW012CB SCT013 27/25 Q1012=  
21-May-2023 SAID35 WAGB 211800 METAR WAGB 211800Z 00000KT 7000 FEW012CB SCT013 26/25 Q1011=  
21-May-2023 SAID35 WAGB 211830 METAR WAGB 211830Z 00000KT 7000 FEW012CB SCT013 26/25 Q1011=  
21-May-2023 SAID35 WAGB 211900 METAR WAGB 211900Z 00000KT 6000 FEW011CB SCT012 26/25 Q1011=  
21-May-2023 SAID35 WAGB 211930 METAR WAGB 211930Z 00000KT 6000 FEW011CB SCT012 26/25 Q1011=  
21-May-2023 SAID35 WAGB 212000 METAR WAGB 212000Z 00000KT 6000 FEW011CB SCT012 25/24 Q1011=  
21-May-2023 SAID35 WAGB 212030 METAR WAGB 212030Z 00000KT 6000 FEW011CB SCT012 25/24 Q1011=  
21-May-2023 SAID35 WAGB 212100 METAR WAGB 212100Z 00000KT 4000 -TSRA FEW011CB BKN012 25/24 Q1011=  
21-May-2023 SAID35 WAGB 212130 METAR WAGB 212130Z 00000KT 4000 -TSRA FEW011CB BKN012 25/24 Q1011=  
21-May-2023 SAID35 WAGB 212200 METAR WAGB 212200Z 00000KT 4000 -TSRA FEW011CB BKN012 25/24 Q1012=  
21-May-2023 SAID35 WAGB 212230 METAR WAGB 212230Z 00000KT 4000 -TSRA FEW011CB BKN012 25/24 Q1012=  
21-May-2023 SAID35 WAGB 212300 METAR WAGB 212300Z 00000KT 5000 -RA FEW011CB BKN012 25/24 Q1013 RETS=  
21-May-2023 SAID35 WAGB 212330 METAR WAGB 212330Z 00000KT 5000 -RA FEW011CB BKN012 25/24 Q1013=  
22-May-2023 SAID35 WAGB 220000 METAR WAGB 220000Z 05003KT 5000 BKN009 24/24 Q1014 RERA=  
22-May-2023 SAID35 WAGB 220030 METAR WAGB 220030Z 00000KT 6000 BKN009 24/23 Q1014 NOSIG=  
22-May-2023 SAID35 WAGB 220100 METAR WAGB 220100Z 00000KT 7000 BKN009 25/24 Q1014=  
22-May-2023 SAID35 WAGB 220130 METAR WAGB 220130Z 00000KT 9000 BKN009 25/24 Q1014=  
22-May-2023 SAID35 WAGB 220200 METAR WAGB 220200Z 00000KT 9000 BKN010 27/25 Q1014=  
22-May-2023 SAID35 WAGB 220230 METAR WAGB 220230Z 00000KT 7000 BKN010 27/25 Q1014 RERA=  
22-May-2023 SAID35 WAGB 220300 METAR WAGB 220300Z 00000KT 6000 BKN009 27/25 Q1013=  
22-May-2023 SAID35 WAGB 220330 METAR WAGB 220330Z 34004KT 7000 BKN010 27/25 Q1013 NOSIG=  
22-May-2023 SAID35 WAGB 220400 METAR WAGB 220400Z 34010KT 7000 BKN010 26/23 Q1013 NOSIG=  
22-May-2023 SAID35 WAGB 220430 METAR WAGB 220400Z 36007KT 8000 BKN010 26/23 Q1012 NOSIG=  
22-May-2023 SAID35 WAGB 220430 METAR WAGB 220430Z 36007KT 8000 BKN010 26/23 Q1012 NOSIG=  
22-May-2023 SAID35 WAGB 220500 METAR WAGB 220500Z 35004KT 8000 BKN010 26/23 Q1012 NOSIG=  
22-May-2023 SAID35 WAGB 220530 METAR WAGB 220530Z 3404KT 8000 FEW011TCU BKN012 26/23 Q1011 NOSIG=  
22-May-2023 SAID35 WAGB 220600 METAR WAGB 220600Z 23004KT 8000 FEW011TCU SCT012 26/24 Q1011 NOSIG=  
22-May-2023 SAID35 WAGB 220630 METAR WAGB 220630Z 30003KT 8000 FEW011TCU SCT012 27/24 Q1011 NOSIG=  
22-May-2023 SAID35 WAGB 220700 METAR WAGB 220700Z 00000KT 9000 SCT011 29/25 Q1010 NOSIG=  
22-May-2023 SAID35 WAGB 220730 METAR WAGB 220730Z 00000KT 9000 SCT011 29/25 Q1010 NOSIG=  
22-May-2023 SAID35 WAGB 220800 METAR WAGB 220800Z 00000KT 9000 FEW011 30/26 Q1010 NOSIG=  
22-May-2023 SAID35 WAGB 220830 METAR WAGB 220830Z 00000KT 9000 FEW011 30/26 Q1010 NOSIG=  
22-May-2023 SAID35 WAGB 220900 METAR WAGB 220900Z 00000KT 9999 FEW012 30/26 Q1010 NOSIG=  
22-May-2023 SAID35 WAGB 220930 METAR WAGB 220930Z 00000KT 9999 FEW012 30/26 Q1010=  
22-May-2023 SAID35 WAGB 221000 METAR WAGB 221000Z 00000KT 9999 SCT012 29/26 Q1010 NOSIG=  
22-May-2023 SAID35 WAGB 221030 METAR WAGB 221030Z 00000KT 9000 SCT012 29/26 Q1010 NOSIG=  
22-May-2023 SAID35 WAGB 221100 METAR WAGB 221100Z 00000KT 8000 VCTS FEW011CB SCT012 27/26 Q1010 NOSIG=  
22-May-2023 SAID35 WAGB 221100 CCA METAR WAGB 221100Z 00000KT 8000 SCT012 27/26 Q1010=  
22-May-2023 SAID35 WAGB 221130 METAR WAGB 221130Z 00000KT 8000 SCT012 27/26 Q1010 NOSIG=  
22-May-2023 SAID35 WAGB 221200 METAR WAGB 221200Z 00000KT 8000 SCT012 27/26 Q1011 NOSIG=  
22-May-2023 SAID35 WAGB 221230 METAR WAGB 221230Z 00000KT 8000 SCT012 27/26 Q1011 NOSIG=  
22-May-2023 SAID35 WAGB 221300 METAR WAGB 221300Z 00000KT 6000 SCT011 26/26 Q1011 NOSIG=  
22-May-2023 SAID35 WAGB 221330 METAR WAGB 221330Z 00000KT 6000 SCT011 26/26 Q1012 NOSIG=  
22-May-2023 SAID35 WAGB 221400 METAR WAGB 221400Z 00000KT 5000 BR SCT011 26/25 Q1012 NOSIG=  
22-May-2023 SAID35 WAGB 221430 METAR WAGB 221430Z 00000KT 5000 BR SCT011 26/25 Q1013 NOSIG=  
22-May-2023 SAID35 WAGB 221500 METAR WAGB 221500Z 00000KT 5000 VCSH SCT011 26/25 Q1013 NOSIG=  
22-May-2023 SAID35 WAGB 221530 METAR WAGB 221530Z 00000KT 5000 VCSH SCT011 26/25 Q1013 NOSIG=  
22-May-2023 SAID35 WAGB 221600 METAR WAGB 221600Z 00000KT 5000 BR SCT010 26/25 Q1013=  
22-May-2023 SAID35 WAGB 221630 METAR WAGB 221630Z 00000KT 5000 BR SCT010 26/25 Q1012=  
22-May-2023 SAID35 WAGB 221700 METAR WAGB 221700Z 00000KT 2000 BR OVC009 25/25 Q1012 NOSIG=  
22-May-2023 SAID35 WAGB 221730 METAR WAGB 221730Z 00000KT 1000 BR OVC009 25/25 Q1012 NOSIG=  
22-May-2023 SAID35 WAGB 221800 METAR WAGB 221800Z 00000KT 2000 BR SCT009 25/24 Q1012 NOSIG=  
22-May-2023 SAID35 WAGB 221830 METAR WAGB 221830Z 00000KT 2000 BR SCT009 25/24 Q1012 NOSIG=  
22-May-2023 SAID35 WAGB 221900 METAR WAGB 221900Z 00000KT 2000 BR BKN009 25/24 Q1011 NOSIG=  
22-May-2023 SAID35 WAGB 221930 METAR WAGB 221930Z 00000KT 1000 BR BKN009 25/24 Q1011 NOSIG=  
22-May-2023 SAID35 WAGB 222000 METAR WAGB 222000Z 00000KT 0800 FG FEW009 25/24 Q1011 NOSIG=  
22-May-2023 SAID35 WAGB 222030 METAR WAGB 222030Z 00000KT 0800 FG FEW009 25/24 Q1011 NOSIG=  
22-May-2023 SAID35 WAGB 222100 METAR WAGB 222100Z 00000KT 0800 FG FEW009 25/24 Q1011 NOSIG=  
22-May-2023 SAID35 WAGB 222130 METAR WAGB 222130Z 00000KT 1000 FG FEW009 25/24 Q1012 NOSIG=  
22-May-2023 SAID35 WAGB 222200 METAR WAGB 222200Z 00000KT 1000 VCFG BKN009 24/24 Q1012=  
22-May-2023 SAID35 WAGB 222200 CCA METAR WAGB 222200Z 00000KT 1000 FG BKN009 24/24 Q1012 NOSIG=  
22-May-2023 SAID35 WAGB 222230 METAR WAGB 222230Z 00000KT 2000 BR BKN009 24/24 Q1012 NOSIG=  
22-May-2023 SAID35 WAGB 222300 METAR WAGB 222300Z 00000KT 1000 FG BKN009 24/24 Q1012 NOSIG=  
22-May-2023 SAID35 WAGB 222330 METAR WAGB 222330Z 00000KT 1000 FG BKN009 24/24 Q1012 NOSIG=  
23-May-2023 SAID35 WAGB 230000 METAR WAGB 230000Z 00000KT 0700 FG VV004 25/25 Q1012 NOSIG=  
23-May-2023 SAID35 WAGB 230030 METAR WAGB 230030Z 00000KT 2500 BR BKN005 26/25 Q1012 NOSIG=  
23-May-2023 SAID35 WAGB 230100 METAR WAGB 230100Z 00000KT 4000 HZ BKN006 28/25 Q1012 NOSIG=  
23-May-2023 SAID35 WAGB 230130 METAR WAGB 230130Z VRB02KT 7000 BKN008 28/25 Q1012 NOSIG=  
23-May-2023 SAID35 WAGB 230200 METAR WAGB 230200Z 04003KT 8000 BKN009 29/25 Q1012 NOSIG=  
23-May-2023 SAID35 WAGB 230230 METAR WAGB 230230Z 05003KT 9999 SCT010 30/25 Q1012 NOSIG=  
23-May-2023 SAID35 WAGB 230300 METAR WAGB 230300Z 36005KT 9999 SCT011 31/25 Q1012 NOSIG=  
23-May-2023 SAID35 WAGB 230330 METAR WAGB 230330Z 35004KT 9999 SCT011 30/25 Q1012 NOSIG=  
23-May-2023 SAID35 WAGB 230400 METAR WAGB 230400Z 35005KT 9999 SCT012 32/25 Q1012 NOSIG=  
23-May-2023 SAID35 WAGB 230430 METAR WAGB 230430Z 29006KT 9999 SCT013 33/24 Q1011 NOSIG=  
23-May-2023 SAID35 WAGB 230500 METAR WAGB 230500Z 28003KT 9999 FEW012TCU SCT013 33/24 Q1011 NOSIG=  
23-May-2023 SAID35 WAGB 230530 METAR WAGB 230530Z 29003KT 9999 FEW012TCU SCT013 33/24 Q1010 NOSIG=  
23-May-2023 SAID35 WAGB 230600 METAR WAGB 230600Z 30003KT 9999 FEW012CB SCT013 33/24 Q1009 NOSIG=  
23-May-2023 SAID35 WAGB 230630 METAR WAGB 230630Z 23003KT 9999 FEW012CB SCT013 33/24 Q1009 NOSIG=  
23-May-2023 SAID35 WAGB 230700 METAR WAGB 230700Z 26004KT 9999 FEW012CB SCT013 33/24 Q1009 NOSIG=  
23-May-2023 SAID35 WAGB 230730 METAR WAGB 230730Z 23003KT 9999 SCT013 32/25 Q1008 NOSIG=  
23-May-2023 SAID35 WAGB 230730 CCA METAR COR WAGB 230730Z 23003KT 9999 FEW012CB SCT013 32/25 Q1008 NOSIG=  
23-May-2023 SAID35 WAGB 230800 METAR WAGB 230800Z 21003KT 9999 FEW012CB SCT013 32/25 Q1008 NOSIG=  
23-May-2023 SAID35 WAGB 230830 METAR WAGB 230830Z 18003KT 9999 FEW012CB SCT013 32/25 Q1008 NOSIG=  
23-May-2023 SAID35 WAGB 230900 METAR WAGB 230900Z 19003KT 9999 FEW013 32/25 Q1008 NOSIG=  
23-May-2023 SAID35 WAGB 230930 METAR WAGB 230930Z 17002KT 9999 FEW014 33/26 Q1009=  
23-May-2023 SAID35 WAGB 231000 METAR WAGB 231000Z 00000KT 8000 FEW014 31/26 Q1009 NOSIG=  
23-May-2023 SAID35 WAGB 231030 METAR WAGB 231030Z 00000KT 8000 FEW014 31/26 Q1009 NOSIG=  
23-May-2023 SAID35 WAGB 231100 METAR WAGB 231100Z 00000KT 7000 FEW013CB 30/26 Q1010 NOSIG=  
23-May-2023 SAID35 WAGB 231130 METAR WAGB 231130Z 00000KT 7000 FEW013CB 30/26 Q1010 NOSIG=  
23-May-2023 SAID35 WAGB 231200 METAR WAGB 231200Z 00000KT 7000 VCTS FEW013CB SCT014 29/25 Q1011=  
23-May-2023 SAID35 WAGB 231230 METAR WAGB 231230Z 00000KT 7000 VCTS FEW013CB SCT014 29/25 Q1011=  
23-May-2023 SAID35 WAGB 231300 METAR WAGB 231300Z 00000KT 7000 VCTS FEW013CB SCT014 28/25 Q1011=  
23-May-2023 SAID35 WAGB 231330 METAR WAGB 231330Z 00000KT 7000 VCTS FEW013CB SCT014 28/25 Q1011=  
23-May-2023 SAID35 WAGB 231400 METAR WAGB 231400Z 00000KT 7000 VCTS FEW013CB SCT014 27/25 Q1012=  
23-May-2023 SAID35 WAGB 231430 METAR WAGB 231430Z 00000KT 7000 VCTS FEW013CB SCT014 27/25 Q1012=  
23-May-2023 SAID35 WAGB 231500 METAR WAGB 231500Z 00000KT 7000 FEW013CB SCT014 27/25 Q1012=  
23-May-2023 SAID35 WAGB 231600 METAR WAGB 231600Z 00000KT 6000 FEW011CB SCT012 27/25 Q1013=  
23-May-2023 SAID35 WAGB 231630 METAR WAGB 231630Z 00000KT 5000 -RA FEW011CB SCT012 27/25 Q1013=  
23-May-2023 SAID35 WAGB 231700 METAR WAGB 231700Z 00000KT 5000 -RA FEW011CB SCT012 26/25 Q1013=  
23-May-2023 SAID35 WAGB 231800 METAR WAGB 231800Z 00000KT 3000 RA FEW011CB BKN012 24/24 Q1013=  
23-May-2023 SAID35 WAGB 231830 METAR WAGB 231830Z 00000KT 3000 RA FEW011CB BKN012 24/24 Q1013=  
23-May-2023 SAID35 WAGB 231900 METAR WAGB 231900Z 00000KT 3000 RA FEW010CB 24/24 Q1012=  
23-May-2023 SAID35 WAGB 231930 METAR WAGB 231930Z 00000KT 3000 RA FEW010CB 24/24 Q1012=  
23-May-2023 SAID35 WAGB 232000 METAR WAGB 232000Z 00000KT 3000 RA FEW010CB BKN011 24/24 Q1012=  
23-May-2023 SAID35 WAGB 232030 METAR WAGB 232030Z 00000KT 4000 RA FEW010CB BKN011 24/24 Q1013=  
23-May-2023 SAID35 WAGB 232100 METAR WAGB 232100Z 00000KT 4000 -RA FEW010CB 24/23 Q1013=  
23-May-2023 SAID35 WAGB 232130 METAR WAGB 232130Z 00000KT 4000 -RA FEW010CB 24/23 Q1013=  
23-May-2023 SAID35 WAGB 232130 CCA METAR WAGB 232130Z 00000KT 4000 -RA FEW010CB 24/23 Q1013=  
23-May-2023 SAID35 WAGB 232200 METAR WAGB 232200Z 00000KT 4000 VCSH BKN009 23/23 Q1013=  
23-May-2023 SAID35 WAGB 232230 METAR WAGB 232230Z 00000KT 4000 VCSH BKN009 23/23 Q1013=  
23-May-2023 SAID35 WAGB 232300 METAR WAGB 232300Z 00000KT 5000 VCSH BKN011 24/23 Q1014=  
23-May-2023 SAID35 WAGB 232330 METAR WAGB 232330Z 00000KT 5000 VCSH BKN011 24/23 Q1014=  
24-May-2023 SAID35 WAGB 240000 METAR WAGB 240000Z 00000KT 7000 FEW010 24/24 Q1014 NOSIG=  
24-May-2023 SAID35 WAGB 240030 METAR WAGB 240030Z 00000KT 7000 FEW010 24/23 Q1015 NOSIG=  
24-May-2023 SAID35 WAGB 240100 METAR WAGB 240100Z 23003KT 7000 BKN010 25/24 Q1015 NOSIG=  
24-May-2023 SAID35 WAGB 240130 METAR WAGB 240130Z 26004KT 8000 BKN011 25/24 Q1015 NOSIG=  
24-May-2023 SAID35 WAGB 240200 METAR WAGB 240200Z 27006KT 9000 SCT011 26/24 Q1015 NOSIG=  
24-May-2023 SAID35 WAGB 240230 METAR WAGB 240230Z 26005KT 9000 SCT011 27/24 Q1015 NOSIG=  
24-May-2023 SAID35 WAGB 240300 METAR WAGB 240300Z 32008KT 8000 BKN009 28/24 Q1015 NOSIG=  
24-May-2023 SAID35 WAGB 240330 METAR WAGB 240300Z 26009KT 8000 BKN010 28/24 Q1015 NOSIG=  
24-May-2023 SAID35 WAGB 240400 METAR WAGB 240400Z 24007KT 8000 SCT011 28/24 Q1014 NOSIG=  
24-May-2023 SAID35 WAGB 240430 METAR WAGB 240430Z 23007KT 9999 SCT011 28/24 Q1013 NOSIG=  
24-May-2023 SAID35 WAGB 240500 METAR WAGB 240500Z 21005KT 9999 FEW013 28/24 Q1012 NOSIG=  
24-May-2023 SAID35 WAGB 240530 METAR WAGB 240530Z 21004KT 9999 FEW013 29/24 Q1011 NOSIG=  
24-May-2023 SAID35 WAGB 240600 METAR WAGB 240600Z 22005KT 9999 FEW012TCU FEW013 30/23 Q1011 NOSIG=  
24-May-2023 SAID35 WAGB 240600 CCA METAR WAGB 240600Z 20006KT 9999 FEW014 30/23 Q1011 NOSIG=  
24-May-2023 SAID35 WAGB 240630 METAR WAGB 240630Z 19004KT 9999 FEW014 30/23 Q1011 NOSIG=  
24-May-2023 SAID35 WAGB 240700 METAR WAGB 240700Z 00000KT 9999 FEW015 31/23 Q1010 NOSIG=  
24-May-2023 SAID35 WAGB 240730 METAR WAGB 240730Z 26005KT 9999 FEW013 31/22 Q1010=  
24-May-2023 SAID35 WAGB 240730 CCA METAR WAGB 240730Z 26005KT 9999 FEW013 31/22 Q1010 NOSIG=  
24-May-2023 SAID35 WAGB 240800 METAR WAGB 240800Z 00000KT 9999 FEW013 31/22 Q1010 NOSIG=  
24-May-2023 SAID35 WAGB 240830 METAR WAGB 240830Z 00000KT 9999 FEW013 31/22 Q1010 NOSIG=  
24-May-2023 SAID35 WAGB 240900 METAR WAGB 240900Z 00000KT 9999 FEW013 31/23 Q1010 NOSIG=  
24-May-2023 SAID35 WAGB 240930 METAR WAGB 240930Z 00000KT 9999 FEW013 31/23 Q1011 NOSIG=  
24-May-2023 SAID35 WAGB 241000 METAR WAGB 241000Z 28002KT 9999 FEW013 30/23 Q1011 NOSIG=  
24-May-2023 SAID35 WAGB 241030 METAR WAGB 241030Z 00000KT 9999 FEW013 30/23 Q1011 NOSIG=  
24-May-2023 SAID35 WAGB 241100 METAR WAGB 241100Z 00000KT 9999 SCT012 29/24 Q1011 NOSIG=  
24-May-2023 SAID35 WAGB 241130 METAR WAGB 241130Z 00000KT 9999 SCT012 29/24 Q1011 NOSIG=  
24-May-2023 SAID35 WAGB 241200 METAR WAGB 241200Z 00000KT 8000 SCT012 27/24 Q1012=  
24-May-2023 SAID35 WAGB 241230 METAR WAGB 241230Z 00000KT 8000 SCT012 27/24 Q1012=  
24-May-2023 SAID35 WAGB 241300 METAR WAGB 241300Z 00000KT 8000 SCT012 26/24 Q1013=  
24-May-2023 SAID35 WAGB 241330 METAR WAGB 241330Z 00000KT 8000 SCT012 26/24 Q1013=  
24-May-2023 SAID35 WAGB 241400 METAR WAGB 241400Z 00000KT 8000 SCT012 26/24 Q1013=  
24-May-2023 SAID35 WAGB 241430 METAR WAGB 241430Z 00000KT 8000 SCT012 26/24 Q1013=  
24-May-2023 SAID35 WAGB 241500 METAR WAGB 241500Z 00000KT 8000 SCT012 26/24 Q1014=  
24-May-2023 SAID35 WAGB 241530 METAR WAGB 241530Z 00000KT 8000 SCT012 26/24 Q1014=  
24-May-2023 SAID35 WAGB 241600 METAR WAGB 241600Z 00000KT 7000 SCT012 25/24 Q1014=  
24-May-2023 SAID35 WAGB 241630 METAR WAGB 241630Z 00000KT 7000 SCT012 25/24 Q1014=  
24-May-2023 SAID35 WAGB 241700 METAR WAGB 241700Z 00000KT 7000 SCT012 25/24 Q1013=  
24-May-2023 SAID35 WAGB 241730 METAR WAGB 241730Z 00000KT 7000 SCT012 25/24 Q1013=  
24-May-2023 SAID35 WAGB 241800 METAR WAGB 241800Z 00000KT 7000 SCT011 25/23 Q1013=  
24-May-2023 SAID35 WAGB 241830 METAR WAGB 241830Z 00000KT 7000 SCT011 25/23 Q1013=  
24-May-2023 SAID35 WAGB 241900 METAR WAGB 241900Z 00000KT 5000 SCT011 24/23 Q1012=  
24-May-2023 SAID35 WAGB 241930 METAR WAGB 241930Z 00000KT 5000 SCT011 24/23 Q1012=  
24-May-2023 SAID35 WAGB 242000 METAR WAGB 242000Z 00000KT 5000 SCT011 24/23 Q1012=  
24-May-2023 SAID35 WAGB 242030 METAR WAGB 242030Z 00000KT 5000 SCT011 24/23 Q1012=  
24-May-2023 SAID35 WAGB 242100 METAR WAGB 242100Z 00000KT 5000 BKN011 25/24 Q1012=  
24-May-2023 SAID35 WAGB 242130 METAR WAGB 242130Z 00000KT 5000 BKN011 25/24 Q1012=  
24-May-2023 SAID35 WAGB 242200 METAR WAGB 242200Z 00000KT 5000 BKN011 25/24 Q1013=  
24-May-2023 SAID35 WAGB 242230 METAR WAGB 242230Z 00000KT 5000 BKN011 25/24 Q1013=  
24-May-2023 SAID35 WAGB 242300 METAR WAGB 242300Z 00000KT 5000 BKN011 25/24 Q1013=  
24-May-2023 SAID35 WAGB 242330 METAR WAGB 242330Z 00000KT 5000 BKN011 25/24 Q1013=  
25-May-2023 SAID35 WAGB 250000 METAR WAGB 250000Z 00000KT 5000 HZ FEW012 26/23 Q1013=  
25-May-2023 SAID35 WAGB 250500 METAR WAGB 250000Z 31003KT 9999 SCT012 33/23 Q1011 NOSIG=  
25-May-2023 SAID35 WAGB 250030 METAR WAGB 250030Z 34002KT 6000 FEW011 27/24 Q1013 NOSIG=  
25-May-2023 SAID35 WAGB 250100 METAR WAGB 250100Z 33002KT 7000 FEW011 29/24 Q1013 NOSIG=  
25-May-2023 SAID35 WAGB 250130 METAR WAGB 250130Z 33003KT 7000 FEW011 29/24 Q1013 NOSIG=  
25-May-2023 SAID35 WAGB 250200 METAR WAGB 250200Z 01004KT 8000 FEW012 30/24 Q1013 NOSIG=  
25-May-2023 SAID35 WAGB 250230 METAR WAGB 250230Z 02004KT 8000 SCT012 31/25 Q1012 NOSIG=  
25-May-2023 SAID35 WAGB 250300 METAR WAGB 250300Z 00000KT 9000 SCT012 31/24 Q1012 NOSIG=  
25-May-2023 SAID35 WAGB 250330 METAR WAGB 250330Z 07002KT 9000 BKN012 32/24 Q1012 NOSIG=  
25-May-2023 SAID35 WAGB 250400 METAR WAGB 250400Z 32003KT 9000 SCT012 31/23 Q1011 NOSIG=  
25-May-2023 SAID35 WAGB 250430 METAR WAGB 250430Z 00000KT 9999 SCT012 31/23 Q1011 NOSIG=  
25-May-2023 SAID35 WAGB 250500 METAR WAGB 250500Z 31003KT 9999 SCT012 33/23 Q1011 NOSIG=  
25-May-2023 SAID35 WAGB 250530 METAR WAGB 250530Z 20003KT 9999 SCT012 31/23 Q1010 NOSIG=  
25-May-2023 SAID35 WAGB 250600 METAR WAGB 250600Z 18003KT 9999 FEW013CB SCT014 33/25 Q1010 NOSIG=  
25-May-2023 SAID35 WAGB 250600 CCA METAR COR WAGB 250600Z 18003KT 9999 FEW013TCU SCT014 33/25 Q1010 NOSIG=  
25-May-2023 SAID35 WAGB 250630 METAR WAGB 250630Z 00000KT 9999 FEW013TCU SCT014 33/25 Q1010 NOSIG=  
25-May-2023 SAID35 WAGB 250700 METAR WAGB 250700Z 00000KT 9999 FEW013TCU SCT014 34/25 Q1009 NOSIG=  
25-May-2023 SAID35 WAGB 250730 METAR WAGB 250730Z 00000KT 9999 FEW013TCU SCT014 34/25 Q1009 NOSIG=  
25-May-2023 SAID35 WAGB 250800 METAR WAGB 250800Z 23004KT 9999 FEW013TCU SCT014 34/24 Q1009 NOSIG=  
25-May-2023 SAID35 WAGB 250830 METAR WAGB 250830Z 21003KT 9999 FEW013TCU SCT014 34/24 Q1009 NOSIG=  
25-May-2023 SAID35 WAGB 250900 METAR WAGB 250900Z 18003KT 9999 FEW013CB SCT014 33/24 Q1009 NOSIG=  
25-May-2023 SAID35 WAGB 251000 METAR WAGB 251000Z 08002KT 9999 FEW013CB SCT014 30/25 Q1010 NOSIG=  
25-May-2023 SAID35 WAGB 251030 METAR WAGB 251030Z 00000KT 9000 FEW013CB SCT014 29/25 Q1010 NOSIG=  
25-May-2023 SAID35 WAGB 251100 METAR WAGB 251100Z 00000KT 9000 VCTS FEW013CB SCT014 27/26 Q1011 NOSIG=  
25-May-2023 SAID35 WAGB 251100 CCA METAR WAGB 251100Z 00000KT 9000 VCTS FEW013CB SCT014 28/25 Q1011=  
25-May-2023 SAID35 WAGB 251130 METAR WAGB 251130Z 00000KT 9000 VCTS FEW013CB SCT014 28/25 Q1011=  
25-May-2023 SAID35 WAGB 251200 METAR WAGB 251200Z 00000KT 7000 SCT013 28/25 Q1011=  
25-May-2023 SAID35 WAGB 251230 METAR WAGB 251230Z 00000KT 7000 SCT013 28/25 Q1011=  
25-May-2023 SAID35 WAGB 251300 METAR WAGB 251300Z 00000KT 7000 FEW013 27/25 Q1012=  
25-May-2023 SAID35 WAGB 251330 METAR WAGB 251330Z 00000KT 7000 FEW013 27/25 Q1012=  
25-May-2023 SAID35 WAGB 251400 METAR WAGB 251400Z 00000KT 7000 FEW013 27/25 Q1009=  
25-May-2023 SAID35 WAGB 251400 CCA METAR COR WAGB 251400Z 00000KT 7000 FEW013 27/25 Q1013=  
25-May-2023 SAID35 WAGB 251430 METAR WAGB 251430Z 00000KT 7000 FEW013 27/25 Q1013=  
25-May-2023 SAID35 WAGB 251500 METAR WAGB 251500Z 00000KT 7000 FEW012 26/25 Q1013=  
25-May-2023 SAID35 WAGB 251530 METAR WAGB 251530Z 00000KT 7000 FEW012 26/25 Q1013=  
25-May-2023 SAID35 WAGB 251600 METAR WAGB 251600Z 00000KT 6000 FEW012 26/25 Q1012=  
25-May-2023 SAID35 WAGB 251630 METAR WAGB 251630Z 00000KT 6000 FEW012 26/25 Q1012=  
25-May-2023 SAID35 WAGB 251700 METAR WAGB 251700Z 00000KT 5000 SCT011 26/25 Q1011=  
25-May-2023 SAID35 WAGB 251730 METAR WAGB 251730Z 00000KT 5000 SCT011 26/25 Q1012=  
25-May-2023 SAID35 WAGB 251800 METAR WAGB 251800Z 00000KT 5000 SCT011 26/25 Q1012=  
25-May-2023 SAID35 WAGB 251830 METAR WAGB 251830Z 00000KT 5000 SCT011 26/25 Q1012=  
25-May-2023 SAID35 WAGB 251900 METAR WAGB 251900Z 00000KT 5000 SCT011 26/24 Q1011=  
25-May-2023 SAID35 WAGB 251930 METAR WAGB 251930Z 00000KT 5000 SCT011 26/24 Q1011=  
25-May-2023 SAID35 WAGB 252000 METAR WAGB 252000Z 00000KT 5000 SCT011 25/24 Q1011=  
25-May-2023 SAID35 WAGB 252030 METAR WAGB 252030Z 00000KT 5000 SCT011 25/24 Q1011=  
25-May-2023 SAID35 WAGB 252100 METAR WAGB 252100Z 00000KT 5000 SCT011 25/24 Q1012=  
25-May-2023 SAID35 WAGB 252130 METAR WAGB 252130Z 00000KT 5000 SCT011 25/24 Q1012=  
25-May-2023 SAID35 WAGB 252200 METAR WAGB 252200Z 00000KT 5000 SCT011 25/24 Q1012=  
25-May-2023 SAID35 WAGB 252230 METAR WAGB 252230Z 00000KT 5000 SCT011 25/24 Q1012=  
25-May-2023 SAID35 WAGB 252300 METAR WAGB 252300Z 00000KT 5000 HZ SCT011 25/24 Q1013=  
25-May-2023 SAID35 WAGB 252330 METAR WAGB 252330Z 00000KT 5000 HZ SCT011 25/24 Q1013=  
26-May-2023 SAID35 WAGB 260000 METAR WAGB 260000Z 00000KT 5000 HZ BKN011 26/25 Q1013 NOSIG=  
26-May-2023 SAID35 WAGB 260030 METAR WAGB 260030Z 00000KT 6000 BKN011 27/25 Q1014 NOSIG=  
26-May-2023 SAID35 WAGB 260100 METAR WAGB 260100Z 04005KT 7000 FEW010 28/25 Q1013 NOSIG=  
26-May-2023 SAID35 WAGB 260130 METAR WAGB 260130Z 04005KT 7000 FEW010 28/25 Q1013 NOSIG=  
26-May-2023 SAID35 WAGB 260200 METAR WAGB 260200Z 04004KT 8000 BKN011 29/25 Q1013 NOSIG=  
26-May-2023 SAID35 WAGB 260230 METAR WAGB 260230Z 31003KT 9999 SCT012 30/25 Q1012 NOSIG=  
26-May-2023 SAID35 WAGB 260300 METAR WAGB 260300Z 35003KT 9999 BKN012 30/25 Q1012 NOSIG=  
26-May-2023 SAID35 WAGB 260330 METAR WAGB 260330Z 03003KT 9999 BKN012 31/25 Q1012 NOSIG=  
26-May-2023 SAID35 WAGB 260400 METAR WAGB 260400Z 01005KT 9999 BKN013 32/25 Q1011 NOSIG=  
26-May-2023 SAID35 WAGB 260430 METAR WAGB 260430Z 29004KT 9999 BKN013 32/25 Q1011 NOSIG=  
26-May-2023 SAID35 WAGB 260500 METAR WAGB 260500Z 33003KT 9999 BKN013 32/25 Q1010 NOSIG=  
26-May-2023 SAID35 WAGB 260530 METAR WAGB 260530Z 34004KT 9999 BKN014 33/25 Q1010 NOSIG=  
26-May-2023 SAID35 WAGB 260600 METAR WAGB 260600Z 00000KT 9999 FEW013TCU BKN014 34/25 Q1010 NOSIG=  
26-May-2023 SAID35 WAGB 260630 METAR WAGB 260630Z 00000KT 9999 FEW013TCU BKN014 34/25 Q1010 NOSIG=  
26-May-2023 SAID35 WAGB 260700 METAR WAGB 260700Z 00000KT 9999 FEW013TCU BKN014 34/25 Q1008 NOSIG=  
26-May-2023 SAID35 WAGB 260730 METAR WAGB 260730Z 00000KT 9999 FEW013TCU BKN014 34/25 Q1008 NOSIG=  
26-May-2023 SAID35 WAGB 260800 METAR WAGB 260800Z 00000KT 9999 FEW013TCU BKN014 34/25 Q1008 NOSIG=  
26-May-2023 SAID35 WAGB 260830 METAR WAGB 260830Z 00000KT 9999 FEW013TCU BKN014 34/25 Q1008 NOSIG=  
26-May-2023 SAID35 WAGB 260900 METAR WAGB 260900Z 03005KT 9999 FEW014TCU BKN015 33/24 Q1008 NOSIG=  
26-May-2023 SAID35 WAGB 260930 METAR WAGB 260930Z 05003KT 9999 FEW014TCU BKN015 33/24 Q1008 NOSIG=  
26-May-2023 SAID35 WAGB 261000 METAR WAGB 261000Z 00000KT 9999 FEW014TCU SCT015 32/26 Q1009 NOSIG=  
26-May-2023 SAID35 WAGB 261030 METAR WAGB 261030Z 00000KT 9999 VCSH FEW013CB SCT014 32/26 Q1009=  
26-May-2023 SAID35 WAGB 261100 METAR WAGB 261100Z 00000KT 8000 TS FEW013CB SCT014 30/26 Q1009 NOSIG=  
26-May-2023 SAID35 WAGB 261130 METAR WAGB 261130Z 00000KT 8000 TS FEW013CB SCT014 30/26 Q1009 NOSIG=  
26-May-2023 SAID35 WAGB 261200 METAR WAGB 261200Z 00000KT 7000 TS FEW012CB SCT013 29/26 Q1010=  
26-May-2023 SAID35 WAGB 261230 METAR WAGB 261230Z 00000KT 7000 TS FEW012CB SCT013 29/26 Q1011=  
26-May-2023 SAID35 WAGB 261300 METAR WAGB 261300Z 00000KT 7000 VCTS FEW012CB SCT013 28/25 Q1011=  
26-May-2023 SAID35 WAGB 261300 CCA METAR WAGB 261300Z 00000KT 7000 VCTS FEW012CB SCT013 28/25 Q1011 RETS=  
26-May-2023 SAID35 WAGB 261330 METAR WAGB 261330Z 00000KT 7000 VCTS FEW012CB SCT013 28/25 Q1011=  
26-May-2023 SAID35 WAGB 261400 METAR WAGB 261400Z 00000KT 7000 BKN012 28/25 Q1011=  
26-May-2023 SAID35 WAGB 261400 CCA METAR WAGB 261400Z 00000KT 7000 BKN012 27/25 Q1011=  
26-May-2023 SAID35 WAGB 261430 METAR WAGB 261430Z 00000KT 7000 BKN012 26/24 Q1011=  
26-May-2023 SAID35 WAGB 261500 METAR WAGB 261500Z 00000KT 6000 BKN012 26/24 Q1011=  
26-May-2023 SAID35 WAGB 261530 METAR WAGB 261530Z 00000KT 6000 BKN012 26/24 Q1011=  
26-May-2023 SAID35 WAGB 261600 METAR WAGB 261600Z 00000KT 6000 VCTS FEW012CB SCT013 26/24 Q1011=  
26-May-2023 SAID35 WAGB 261600 CCA METAR WAGB 261600Z 00000KT 6000 VCTS FEW011CB SCT012 26/24 Q1011=  
26-May-2023 SAID35 WAGB 261630 METAR WAGB 261630Z VRB02KT 6000 VCTS FEW011CB SCT012 26/24 Q1011=  
26-May-2023 SAID35 WAGB 261700 METAR WAGB 261700Z 00000KT 5000 VCTS FEW011CB SCT012 26/24 Q1011=  
26-May-2023 SAID35 WAGB 261730 METAR WAGB 261730Z 00000KT 5000 VCTS FEW011CB SCT012 26/24 Q1011=  
26-May-2023 SAID35 WAGB 261730 CCA METAR WAGB 261730Z 00000KT 5000 TS FEW011CB SCT012 26/24 Q1011=  
26-May-2023 SAID35 WAGB 261800 METAR WAGB 261800Z 00000KT 5000 TS FEW011CB BKN012 25/24 Q1011=  
26-May-2023 SAID35 WAGB 261830 METAR WAGB 261830Z 00000KT 5000 TS FEW011CB BKN012 25/24 Q1010=  
26-May-2023 SAID35 WAGB 261900 METAR WAGB 261900Z VRB02KT 5000 TS FEW011CB BKN012 25/24 Q1010=  
26-May-2023 SAID35 WAGB 261930 METAR WAGB 261930Z 00000KT 5000 TS FEW011CB BKN012 25/24 Q1009=  
26-May-2023 SAID35 WAGB 262000 METAR WAGB 262000Z 00000KT 5000 VCSH FEW010CB BKN011 25/23 Q1010=  
26-May-2023 SAID35 WAGB 262000 CCA METAR WAGB 262000Z 00000KT 5000 VCSH FEW010CB BKN011 25/23 Q1010 RETS=  
26-May-2023 SAID35 WAGB 262030 METAR WAGB 262030Z 00000KT 5000 VCSH FEW010CB BKN011 25/23 Q1010=  
26-May-2023 SAID35 WAGB 262100 METAR WAGB 262100Z 00000KT 5000 VCSH BKN010 25/24 Q1009=  
26-May-2023 SAID35 WAGB 262130 METAR WAGB 262130Z 00000KT 5000 VCSH BKN010 25/24 Q1009=  
26-May-2023 SAID35 WAGB 262200 METAR WAGB 262200Z 00000KT 5000 VCSH BKN010 24/23 Q1010=  
26-May-2023 SAID35 WAGB 262230 METAR WAGB 262230Z 00000KT 5000 VCSH BKN010 24/23 Q1010=  
26-May-2023 SAID35 WAGB 262300 METAR WAGB 262300Z 00000KT 5000 HZ BKN010 24/23 Q1010=  
26-May-2023 SAID35 WAGB 262330 METAR WAGB 262330Z 00000KT 5000 HZ BKN010 24/23 Q1010=  
27-May-2023 SAID35 WAGB 270000 METAR WAGB 270000Z 00000KT 5000 SCT010 25/23 Q1011=  
27-May-2023 SAID35 WAGB 270030 METAR WAGB 270030Z 00000KT 5000 SCT010 25/23 Q1012 NOSIG=  
27-May-2023 SAID35 WAGB 270100 METAR WAGB 270100Z 00000KT 7000 SCT011 26/24 Q1012 NOSIG=  
27-May-2023 SAID35 WAGB 270130 METAR WAGB 270130Z 00000KT 7000 SCT011 26/24 Q1011 NOSIG=  
27-May-2023 SAID35 WAGB 270200 METAR WAGB 270200Z 00000KT 7000 BKN011 28/25 Q1011 NOSIG=  
27-May-2023 SAID35 WAGB 270230 METAR WAGB 270230Z 00000KT 7000 BKN011 28/25 Q1011 NOSIG=  
27-May-2023 SAID35 WAGB 270300 METAR WAGB 270300Z 35003KT 9000 SCT012 32/26 Q1010 NOSIG=  
27-May-2023 SAID35 WAGB 270330 METAR WAGB 270330Z 32003KT 9000 SCT012 31/25 Q1010 NOSIG=  
27-May-2023 SAID35 WAGB 270400 METAR WAGB 270400Z 21004KT 9999 BKN012 32/25 Q1009 NOSIG=  
27-May-2023 SAID35 WAGB 270430 METAR WAGB 270430Z 00000KT 9999 BKN012 31/25 Q1009 NOSIG=  
27-May-2023 SAID35 WAGB 270500 METAR WAGB 270500Z 00000KT 9999 BKN013 32/25 Q1008 NOSIG=  
27-May-2023 SAID35 WAGB 270530 METAR WAGB 270530Z 00000KT 9999 BKN013 32/25 Q1008 NOSIG=  
27-May-2023 SAID35 WAGB 270600 METAR WAGB 270600Z 00000KT 9999 SCT013 33/24 Q1007 NOSIG=  
27-May-2023 SAID35 WAGB 270630 METAR WAGB 270630Z 00000KT 9999 SCT014 33/25 Q1007 NOSIG=  
27-May-2023 SAID35 WAGB 270700 METAR WAGB 270700Z 33005KT 9999 FEW013TCU SCT014 33/25 Q1006 NOSIG=  
27-May-2023 SAID35 WAGB 270730 METAR WAGB 270730Z 32003KT 9999 FEW013TCU SCT014 33/25 Q1006 NOSIG=  
27-May-2023 SAID35 WAGB 270800 METAR WAGB 270800Z 33005KT 9999 FEW013CB SCT014 31/24 Q1006 NOSIG=  
27-May-2023 SAID35 WAGB 270830 METAR WAGB 270830Z 31005KT 9999 TS FEW013CB SCT014 30/24 Q1006 NOSIG=  
27-May-2023 SAID35 WAGB 271000 METAR WAGB 271000Z 00000KT 9999 FEW014CB 30/26 Q1007 NOSIG=  
27-May-2023 SAID35 WAGB 271100 METAR WAGB 271100Z 00000KT 9999 FEW014CB 29/26 Q1007 NOSIG=  
27-May-2023 SAID35 WAGB 271200 METAR WAGB 271200Z 00000KT 8000 FEW012 28/25 Q1009=  
27-May-2023 SAID35 WAGB 271230 METAR WAGB 271230Z 00000KT 8000 FEW012 28/25 Q1009=  
27-May-2023 SAID35 WAGB 271300 METAR WAGB 271300Z 00000KT 8000 FEW012 27/25 Q1009=  
27-May-2023 SAID35 WAGB 271330 METAR WAGB 271330Z 00000KT 8000 FEW012 27/25 Q1010=  
27-May-2023 SAID35 WAGB 271400 METAR WAGB 271400Z 00000KT 6000 SCT012 27/25 Q1010=  
27-May-2023 SAID35 WAGB 271430 METAR WAGB 271430Z 00000KT 6000 SCT012 27/25 Q1010=  
27-May-2023 SAID35 WAGB 271500 METAR WAGB 271500Z 00000KT 6000 SCT012 27/25 Q1010=  
27-May-2023 SAID35 WAGB 271530 METAR WAGB 271530Z 00000KT 6000 SCT012 26/25 Q1010=  
27-May-2023 SAID35 WAGB 271600 METAR WAGB 271600Z 00000KT 6000 BKN011 26/25 Q1010=  
27-May-2023 SAID35 WAGB 271630 METAR WAGB 271630Z 00000KT 6000 BKN011 26/25 Q1009=  
27-May-2023 SAID35 WAGB 271700 METAR WAGB 271700Z 00000KT 6000 BKN011 26/25 Q1009=  
27-May-2023 SAID35 WAGB 271730 METAR WAGB 271730Z 00000KT 6000 BKN011 26/25 Q1009=  
27-May-2023 SAID35 WAGB 271800 METAR WAGB 271800Z 00000KT 6000 BKN011 26/25 Q1009=  
27-May-2023 SAID35 WAGB 271830 METAR WAGB 271830Z 00000KT 6000 BKN011 26/25 Q1009=  
27-May-2023 SAID35 WAGB 271900 METAR WAGB 271900Z 00000KT 6000 BKN011 26/25 Q1009=  
27-May-2023 SAID35 WAGB 271930 METAR WAGB 271930Z 00000KT 6000 BKN011 26/25 Q1009=  
27-May-2023 SAID35 WAGB 272000 METAR WAGB 272000Z 00000KT 6000 BKN011 26/25 Q1008=  
27-May-2023 SAID35 WAGB 272030 METAR WAGB 272030Z 00000KT 6000 BKN011 26/25 Q1008=  
27-May-2023 SAID35 WAGB 272100 METAR WAGB 272100Z 00000KT 6000 BKN011 25/24 Q1009=  
27-May-2023 SAID35 WAGB 272130 METAR WAGB 272130Z 00000KT 6000 BKN011 25/24 Q1009=  
27-May-2023 SAID35 WAGB 272200 METAR WAGB 272200Z 00000KT 6000 BKN011 25/24 Q1009=  
27-May-2023 SAID35 WAGB 272230 METAR WAGB 272230Z 00000KT 6000 BKN011 25/24 Q1009=  
27-May-2023 SAID35 WAGB 272300 METAR WAGB 272300Z 00000KT 4000 BR BKN010 25/24 Q1010=  
27-May-2023 SAID35 WAGB 272330 METAR WAGB 272330Z 00000KT 4000 BR BKN010 25/24 Q1011=  
28-May-2023 SAID35 WAGB 280000 METAR WAGB 280000Z 00000KT 4000 HZ SCT010 26/25 Q1011=  
28-May-2023 SAID35 WAGB 280030 METAR WAGB 280030Z 00000KT 5000 HZ SCT010 27/25 Q1011=  
28-May-2023 SAID35 WAGB 280100 METAR WAGB 280100Z 00000KT 6000 BKN010 28/25 Q1011 NOSIG=  
28-May-2023 SAID35 WAGB 280200 METAR WAGB 280200Z 33003KT 7000 BKN012 28/25 Q1011 NOSIG=  
28-May-2023 SAID35 WAGB 280230 METAR WAGB 280230Z 07003KT 7000 BKN10 28/25 Q1010 NOSIG=  
28-May-2023 SAID35 WAGB 280300 METAR WAGB 280300Z 02002KT 7000 BKN10 28/25 Q1010 NOSIG=  
28-May-2023 SAID35 WAGB 280330 METAR WAGB 280330Z 05002KT 8000 BKN10 29/25 Q1009 NOSIG=  
28-May-2023 SAID35 WAGB 280400 METAR WAGB 280400Z 02003KT 8000 BKN010 29/25 Q1009 NOSIG=  
28-May-2023 SAID35 WAGB 280430 METAR WAGB 280430Z 34002KT 9000 BKN011 31/25 Q1008 NOSIG=  
28-May-2023 SAID35 WAGB 280500 METAR WAGB 280500Z 35002KT 9000 BKN011 31/25 Q1008 NOSIG=  
28-May-2023 SAID35 WAGB 280530 METAR WAGB 280530Z 25004KT 9000 BKN011 31/25 Q1007 NOSIG=  
28-May-2023 SAID35 WAGB 280600 METAR WAGB 280600Z 00000KT 9999 SCT014 32/25 Q1007 NOSIG=  
28-May-2023 SAID35 WAGB 280630 METAR WAGB 280630Z 00000KT 9999 SCT014 32/25 Q1007 NOSIG=  
28-May-2023 SAID35 WAGB 280700 METAR WAGB 280700Z 00000KT 9999 FEW015TCU 32/26 Q1006 NOSIG=  
28-May-2023 SAID35 WAGB 280730 METAR WAGB 280730Z 00000KT 9999 FEW015TCU 32/26 Q1006 NOSIG=  
28-May-2023 SAID35 WAGB 280800 METAR WAGB 280800Z 02003KT 9999 FEW015 31/26 Q1006 NOSIG=  
28-May-2023 SAID35 WAGB 280830 METAR WAGB 280830Z 00000KT 9999 FEW015 31/26 Q1006 NOSIG=  
28-May-2023 SAID35 WAGB 280900 METAR WAGB 280900Z 00000KT 9999 FEW015TCU 31/26 Q1006 NOSIG=  
28-May-2023 SAID35 WAGB 280930 METAR WAGB 280930Z 00000KT 9999 FEW014TCU 31/26 Q1007 NOSIG=  
28-May-2023 SAID35 WAGB 281000 METAR WAGB 281000Z 00000KT 9000 FEW013TCU SCT014 30/27 Q1007 NOSIG=  
28-May-2023 SAID35 WAGB 281030 METAR WAGB 281030Z 00000KT 9000 FEW013TCU SCT014 30/27 Q1007 NOSIG=  
28-May-2023 SAID35 WAGB 281100 METAR WAGB 281100Z 00000KT 9000 FEW012CB SCT013 29/27 Q1008 NOSIG=  
28-May-2023 SAID35 WAGB 281130 METAR WAGB 281130Z 00000KT 9000 FEW012CB SCT013 29/27 Q1008 NOSIG=  
28-May-2023 SAID35 WAGB 281200 METAR WAGB 281200Z 00000KT 7000 FEW012 28/27 Q1008=  
28-May-2023 SAID35 WAGB 281230 METAR WAGB 281230Z 00000KT 7000 FEW012 28/27 Q1009=  
28-May-2023 SAID35 WAGB 281300 METAR WAGB 281300Z 00000KT 7000 FEW012 28/26 Q1009=  
28-May-2023 SAID35 WAGB 281330 METAR WAGB 281330Z 00000KT 7000 FEW012 28/26 Q1009=  
28-May-2023 SAID35 WAGB 281400 METAR WAGB 281400Z 00000KT 7000 FEW012 27/26 Q1009=  
28-May-2023 SAID35 WAGB 281430 METAR WAGB 281430Z 00000KT 7000 FEW012 27/26 Q1010=  
28-May-2023 SAID35 WAGB 281500 METAR WAGB 281500Z 00000KT 7000 FEW012 27/25 Q1009=  
28-May-2023 SAID35 WAGB 281530 METAR WAGB 281530Z 00000KT 7000 FEW012 27/25 Q1009=  
28-May-2023 SAID35 WAGB 281600 METAR WAGB 281600Z 00000KT 8000 FEW012 26/24 Q1009=  
28-May-2023 SAID35 WAGB 281630 METAR WAGB 281630Z 00000KT 8000 FEW012 26/24 Q1009=  
28-May-2023 SAID35 WAGB 281700 METAR WAGB 281700Z 00000KT 8000 FEW011CB 26/24 Q1009=  
28-May-2023 SAID35 WAGB 281730 METAR WAGB 281730Z 00000KT 8000 FEW011CB 26/24 Q1009=  
28-May-2023 SAID35 WAGB 281800 METAR WAGB 281800Z 00000KT 7000 FEW011CB FEW012 26/24 Q1009=  
28-May-2023 SAID35 WAGB 281830 METAR WAGB 281830Z 00000KT 7000 FEW011CB SCT012 26/24 Q1009=  
28-May-2023 SAID35 WAGB 281900 METAR WAGB 281900Z 00000KT 7000 VCTS FEW011CB 25/24 Q1008=  
28-May-2023 SAID35 WAGB 281930 METAR WAGB 281930Z 00000KT 7000 VCTS FEW011CB 25/24 Q1008=  
28-May-2023 SAID35 WAGB 282000 METAR WAGB 282000Z 00000KT 6000 VCTS FEW011CB 25/24 Q1009=  
28-May-2023 SAID35 WAGB 282030 METAR WAGB 282030Z 00000KT 6000 VCTS FEW011CB 25/24 Q1009=  
28-May-2023 SAID35 WAGB 282100 METAR WAGB 282100Z 00000KT 5000 FEW010CB 25/25 Q1009=  
28-May-2023 SAID35 WAGB 282130 METAR WAGB 282130Z 00000KT 5000 FEW010CB SCT011 25/25 Q1010=  
28-May-2023 SAID35 WAGB 282200 METAR WAGB 282200Z 00000KT 7000 FEW010CB SCT011 25/25 Q1010=  
28-May-2023 SAID35 WAGB 282230 METAR WAGB 282230Z 00000KT 7000 FEW009CB BKN010 25/25 Q1010=  
28-May-2023 SAID35 WAGB 282300 METAR WAGB 282300Z 00000KT 7000 FEW009CB OVC010 26/25 Q1011=  
28-May-2023 SAID35 WAGB 282330 METAR WAGB 282330Z 00000KT 6000 -RA FEW009CB OVC010 25/25 Q1011=  
29-May-2023 SAID35 WAGB 290000 METAR WAGB 290000Z 00000KT 6000 FEW009CB BKN010 26/25 Q1011 NOSIG=  
29-May-2023 SAID35 WAGB 290000 CCA METAR WAGB 290000Z 00000KT 6000 FEW009CB BKN010 26/25 Q1011 RERA NOSIG=  
29-May-2023 SAID35 WAGB 290030 METAR WAGB 290030Z 00000KT 6000 FEW009CB BKN010 26/25 Q1012 NOSIG=  
29-May-2023 SPID33 WAGB 290041 SPECI WAGB 290041Z 00000KT 6000 TS FEW009CB BKN010 26/25 Q1011 NOSIG=  
29-May-2023 SAID35 WAGB 290100 METAR WAGB 290100Z 00000KT 7000 TS FEW009CB BKN010 26/25 Q1012 NOSIG=  
29-May-2023 SAID35 WAGB 290130 METAR WAGB 290130Z 24003KT 7000 FEW009CB BKN010 26/25 Q1012 RETS NOSIG=  
29-May-2023 SAID35 WAGB 290200 METAR WAGB 290200Z VRB02KT 7000 FEW009CB BKN010 27/25 Q1012 NOSIG=  
29-May-2023 SAID35 WAGB 290200 CCB METAR WAGB 290200Z VRB02KT 6000 -RA FEW009CB BKN010 27/25 Q1012 NOSIG=  
29-May-2023 SAID35 WAGB 290200 CCA METAR WAGB 290200Z VRB02KT 7000 -RA FEW009CB BKN010 27/25 Q1012 NOSIG=  
29-May-2023 SAID35 WAGB 290230 METAR WAGB 290230Z 00000KT 5000 -RA BKN010 26/25 Q1012 NOSIG=  
29-May-2023 SAID35 WAGB 290300 METAR WAGB 290300Z 00000KT 6000 -RA BKN010 26/25 Q1012 BECMG TL0320 NSW=  
29-May-2023 SAID35 WAGB 290330 METAR WAGB 290330Z 00000KT 6000 VCSH BKN010 26/25 Q1012 NOSIG=  
29-May-2023 SAID35 WAGB 290400 METAR WAGB 290400Z 00000KT 4000 -RA BKN010 26/25 Q1011 NOSIG=  
29-May-2023 SAID35 WAGB 290430 METAR WAGB 290430Z 00000KT 5000 VCSH BKN010 27/25 Q1010 NOSIG=  
29-May-2023 SAID35 WAGB 290500 METAR WAGB 290500Z 00000KT 5000 VCSH BKN010 27/25 Q1010 NOSIG=  
29-May-2023 SAID35 WAGB 290530 METAR WAGB 290530Z 00000KT 7000 BKN010 27/25 Q1009 NOSIG=  
29-May-2023 SAID35 WAGB 290600 METAR WAGB 290600Z 35004KT 8000 BKN011 28/25 Q1008 NOSIG=  
29-May-2023 SAID35 WAGB 290630 METAR WAGB 290630Z 01003KT 8000 FEW011CB BKN012 29/26 Q1008 NOSIG=  
29-May-2023 SAID35 WAGB 290700 METAR WAGB 290700Z 29006KT 9000 FEW012CB SCT013 29/26 Q1008 NOSIG=  
29-May-2023 SAID35 WAGB 290730 METAR WAGB 290730Z 00000KT 9000 FEW012CB SCT013 29/26 Q1007 NOSIG=  
29-May-2023 SAID35 WAGB 290800 METAR WAGB 290800Z 00000KT 9000 FEW012CB SCT013 29/24 Q1008 NOSIG=  
29-May-2023 SAID35 WAGB 290830 METAR WAGB 290830Z 00000KT 9000 FEW012CB SCT013 29/24 Q1007 NOSIG=  
29-May-2023 SAID35 WAGB 290900 METAR WAGB 290900Z 00000KT 9000 FEW012CB SCT013 30/25 Q1008=  
29-May-2023 SAID35 WAGB 290930 METAR WAGB 290930Z 00000KT 9000 FEW012CB SCT013 30/25 Q1008 NOSIG=  
29-May-2023 SAID35 WAGB 291000 METAR WAGB 291000Z 00000KT 9000 FEW012CB SCT013 29/25 Q1008 NOSIG=  
29-May-2023 SAID35 WAGB 291030 METAR WAGB 291030Z 00000KT 9000 FEW012CB SCT013 29/25 Q1008 NOSIG=  
29-May-2023 SAID35 WAGB 291100 METAR WAGB 291100Z 00000KT 8000 VCTS FEW012CB SCT013 28/26 Q1009 NOSIG=  
29-May-2023 SAID35 WAGB 291130 METAR WAGB 291130Z 00000KT 8000 VCTS FEW012CB SCT013 28/26 Q1009 NOSIG=  
29-May-2023 SAID35 WAGB 291200 METAR WAGB 291200Z 00000KT 7000 VCTS FEW012CB SCT013 27/25 Q1009=  
29-May-2023 SAID35 WAGB 291230 METAR WAGB 291230Z 00000KT 7000 VCTS FEW012CB SCT013 27/25 Q1010=  
29-May-2023 SAID35 WAGB 291300 METAR WAGB 291300Z 00000KT 7000 SCT012 26/25 Q1010=  
29-May-2023 SAID35 WAGB 291330 METAR WAGB 291330Z 00000KT 7000 SCT012 26/25 Q1011=  
29-May-2023 SAID35 WAGB 291400 METAR WAGB 291400Z 00000KT 7000 SCT012 26/25 Q1011=  
29-May-2023 SAID35 WAGB 291430 METAR WAGB 291430Z 00000KT 7000 SCT012 26/25 Q1011=  
29-May-2023 SAID35 WAGB 291500 METAR WAGB 291500Z 00000KT 7000 SCT012 26/25 Q1011=  
29-May-2023 SAID35 WAGB 291530 METAR WAGB 291530Z 00000KT 7000 SCT012 26/25 Q1011=  
29-May-2023 SAID35 WAGB 291600 METAR WAGB 291600Z 00000KT 7000 SCT012 26/25 Q1011=  
29-May-2023 SAID35 WAGB 291630 METAR WAGB 291630Z 00000KT 7000 BKN012 25/24 Q1011=  
29-May-2023 SAID35 WAGB 291700 METAR WAGB 291700Z 00000KT 7000 BKN011 25/25 Q1010=  
29-May-2023 SAID35 WAGB 291730 METAR WAGB 291730Z 00000KT 7000 BKN011 25/25 Q1010=  
29-May-2023 SAID35 WAGB 291800 METAR WAGB 291800Z 00000KT 5000 BR BKN009 25/25 Q1010=  
29-May-2023 SAID35 WAGB 291830 METAR WAGB 291830Z 00000KT 5000 BR BKN009 25/25 Q1010=  
29-May-2023 SAID35 WAGB 291900 METAR WAGB 291900Z 00000KT 5000 BR BKN009 25/24 Q1009=  
29-May-2023 SAID35 WAGB 291930 METAR WAGB 291930Z 00000KT 5000 BR BKN009 25/24 Q1009=  
29-May-2023 SAID35 WAGB 292000 METAR WAGB 292000Z 00000KT 5000 BR SCT009 25/24 Q1009=  
29-May-2023 SAID35 WAGB 292030 METAR WAGB 292030Z 00000KT 5000 BR SCT009 25/24 Q1009=  
29-May-2023 SAID35 WAGB 292100 METAR WAGB 292100Z 00000KT 5000 BR SCT009 25/24 Q1009=  
29-May-2023 SAID35 WAGB 292130 METAR WAGB 292130Z 00000KT 5000 BR SCT009 25/24 Q1010=  
29-May-2023 SAID35 WAGB 292200 METAR WAGB 292200Z 00000KT 5000 BR SCT009 25/24 Q1010=  
29-May-2023 SAID35 WAGB 292230 METAR WAGB 292230Z 00000KT 5000 BR SCT009 25/24 Q1010=  
29-May-2023 SAID35 WAGB 292300 METAR WAGB 292300Z 00000KT 5000 BR BKN008 25/24 Q1011=  
29-May-2023 SAID35 WAGB 292330 METAR WAGB 292330Z 00000KT 5000 BR BKN008 25/24 Q1012=  
30-May-2023 SAID35 WAGB 300000 METAR WAGB 300000Z 02003KT 5000 VCSH BKN008 26/25 Q1011 NOSIG=  
30-May-2023 SAID35 WAGB 300030 METAR WAGB 300030Z 06003KT 6000 BKN009 27/26 Q1012 NOSIG=  
30-May-2023 SAID35 WAGB 300100 METAR WAGB 300100Z 36004KT 6000 BKN009 27/25 Q1012 NOSIG=  
30-May-2023 SAID35 WAGB 300130 METAR WAGB 300130Z 01003KT 7000 BKN010 27/25 Q1012 NOSIG=  
30-May-2023 SAID35 WAGB 300200 METAR WAGB 300200Z 03003KT 8000 BKN011 29/25 Q1012 NOSIG=  
30-May-2023 SAID35 WAGB 300230 METAR WAGB 300230Z 23003KT 8000 BKN011 30/25 Q1011 NOSIG=  
30-May-2023 SAID35 WAGB 300300 METAR WAGB 300300Z 31005KT 9000 BKN012 30/25 Q1011 NOSIG=  
30-May-2023 SAID35 WAGB 300330 METAR WAGB 300330Z 36004KT 9000 BKN012 30/25 Q1011 NOSIG=  
30-May-2023 SAID35 WAGB 300400 METAR WAGB 300400Z 01005KT 9999 BKN012 32/25 Q1010 NOSIG=  
30-May-2023 SAID35 WAGB 300430 METAR WAGB 300430Z 34003KT 9999 BKN012 32/25 Q1009 NOSIG=  
30-May-2023 SAID35 WAGB 300500 METAR WAGB 300500Z 00000KT 9999 FEW012TCU SCT013 32/25 Q1009 NOSIG=  
30-May-2023 SAID35 WAGB 300530 METAR WAGB 300530Z 27004KT 9999 FEW012TCU SCT013 33/25 Q1008 NOSIG=  
30-May-2023 SAID35 WAGB 300600 METAR WAGB 300600Z 24003KT 9999 FEW013TCU SCT014 33/24 Q1008 NOSIG=  
30-May-2023 SAID35 WAGB 300630 METAR WAGB 300630Z 30004KT 9999 FEW013TCU SCT014 33/24 Q1007 NOSIG=  
30-May-2023 SAID35 WAGB 300700 METAR WAGB 300700Z 00000KT 9999 FEW013TCU SCT014 34/24 Q1007 NOSIG=  
30-May-2023 SAID35 WAGB 300730 METAR WAGB 300730Z 22004KT 9999 FEW013TCU BKN014 33/24 Q1007 NOSIG=  
30-May-2023 SAID35 WAGB 300800 METAR WAGB 300800Z 33002KT 9999 FEW013TCU BKN014 33/24 Q1006 NOSIG=  
30-May-2023 SAID35 WAGB 300830 METAR WAGB 300830Z 00000KT 9999 FEW013TCU BKN014 33/25 Q1007 NOSIG=  
30-May-2023 SAID35 WAGB 300900 METAR WAGB 300900Z 00000KT 9999 FEW013CB BKN014 33/25 Q1007 NOSIG=  
30-May-2023 SAID35 WAGB 300930 CCA METAR WAGB 300930Z 08003KT 9999 FEW013TCU SCT014 33/26 Q1008 NOSIG=  
30-May-2023 SAID35 WAGB 301000 METAR WAGB 301000Z 00000KT 9999 FEW013TCU SCT014 31/26 Q1008 NOSIG=  
30-May-2023 SAID35 WAGB 301030 METAR WAGB 301030Z 00000KT 9999 FEW013TCU SCT014 31/26 Q1008 NOSIG=  
30-May-2023 SAID35 WAGB 301100 METAR WAGB 301100Z 00000KT 8000 FEW012TCU SCT013 30/26 Q1009 NOSIG=  
30-May-2023 SAID35 WAGB 301130 METAR WAGB 301130Z 00000KT 8000 FEW012TCU SCT013 30/26 Q1009 NOSIG=  
30-May-2023 SAID35 WAGB 301200 METAR WAGB 301200Z 00000KT 8000 VCTS FEW012CB SCT013 29/27 Q1010=  
30-May-2023 SAID35 WAGB 301230 METAR WAGB 301230Z 00000KT 8000 VCTS FEW012CB SCT013 29/27 Q1010=  
30-May-2023 SAID35 WAGB 301300 METAR WAGB 301300Z 00000KT 7000 VCTS FEW012CB SCT013 28/27 Q1010=  
30-May-2023 SAID35 WAGB 301330 METAR WAGB 301330Z 00000KT 7000 VCTS FEW012CB SCT013 28/27 Q1010=  
30-May-2023 SAID35 WAGB 301400 METAR WAGB 301400Z 00000KT 7000 VCTS FEW012CB SCT013 28/26 Q1010=  
30-May-2023 SAID35 WAGB 301430 METAR WAGB 301430Z 00000KT 7000 VCTS FEW012CB SCT013 28/26 Q1010=  
30-May-2023 SAID35 WAGB 301500 METAR WAGB 301500Z 00000KT 6000 VCTS FEW012CB SCT013 27/26 Q1010=  
30-May-2023 SAID35 WAGB 301530 METAR WAGB 301530Z 00000KT 6000 VCTS FEW012CB SCT013 27/26 Q1010=  
30-May-2023 SAID35 WAGB 301600 METAR WAGB 301600Z 00000KT 6000 VCTS FEW012CB SCT013 27/26 Q1010=  
30-May-2023 SAID35 WAGB 301630 METAR WAGB 301630Z 00000KT 6000 VCTS FEW012CB SCT013 27/26 Q1010=  
30-May-2023 SAID35 WAGB 301700 METAR WAGB 301700Z 00000KT 5000 BR SCT012CB 27/26 Q1010=  
30-May-2023 SAID35 WAGB 301700 CCA METAR WAGB 301700Z 00000KT 5000 BR SCT012 27/26 Q1010=  
30-May-2023 SAID35 WAGB 301730 METAR WAGB 301730Z 00000KT 5000 BR SCT012CB 27/26 Q1009=  
30-May-2023 SAID35 WAGB 301730 CCA METAR WAGB 301730Z 00000KT 5000 BR SCT012 27/26 Q1010=  
30-May-2023 SAID35 WAGB 301800 METAR WAGB 301800Z 00000KT 5000 BR FEW012 26/25 Q1009=  
30-May-2023 SAID35 WAGB 301830 METAR WAGB 301830Z 00000KT 5000 BR FEW012 26/25 Q1009=  
30-May-2023 SAID35 WAGB 301900 METAR WAGB 301900Z 00000KT 5000 BR FEW012 26/25 Q1009=  
30-May-2023 SAID35 WAGB 301930 METAR WAGB 301930Z 00000KT 5000 BR FEW012 26/25 Q1009=  
30-May-2023 SAID35 WAGB 302000 METAR WAGB 302000Z 00000KT 5000 BR FEW012 26/25 Q1009=  
30-May-2023 SAID35 WAGB 302030 METAR WAGB 302030Z 00000KT 5000 BR FEW012 26/25 Q1009=  
30-May-2023 SAID35 WAGB 302100 METAR WAGB 302100Z 00000KT 5000 BR BKN010 26/25 Q1010=  
30-May-2023 SAID35 WAGB 302130 METAR WAGB 302130Z 00000KT 5000 BR BKN010 26/25 Q1010=  
30-May-2023 SAID35 WAGB 302200 METAR WAGB 302200Z 00000KT 5000 BR FEW011CB SCT012 26/25 Q1010=  
30-May-2023 SAID35 WAGB 302230 METAR WAGB 302230Z 00000KT 5000 BR FEW011CB SCT012 26/25 Q1011=  
30-May-2023 SAID35 WAGB 302300 METAR WAGB 302300Z 00000KT 5000 BR FEW011CB SCT012 26/25 Q1011=  
30-May-2023 SAID35 WAGB 302330 METAR WAGB 302330Z 00000KT 5000 BR FEW011CB SCT012 26/25 Q1011=  
31-May-2023 SAID35 WAGB 310000 METAR WAGB 310000Z 00000KT 6000 BKN010 26/25 Q1012 NOSIG=  
31-May-2023 SAID35 WAGB 310030 METAR WAGB 310030Z 00000KT 6000 BKN010 26/25 Q1012 NOSIG=  
31-May-2023 SAID35 WAGB 310100 METAR WAGB 310100Z 00000KT 6000 BKN010 29/26 Q1012 NOSIG=  
31-May-2023 SAID35 WAGB 310130 METAR WAGB 310130Z 00000KT 6000 BKN010 29/26 Q1012 NOSIG=  
31-May-2023 SAID35 WAGB 310200 METAR WAGB 310200Z 00000KT 7000 BKN011 30/26 Q1011 NOSIG=  
31-May-2023 SAID35 WAGB 310230 METAR WAGB 310230Z 26003KT 7000 BKN011 30/26 Q1011 NOSIG=  
31-May-2023 SAID35 WAGB 310300 METAR WAGB 310300Z 24003KT 9000 FEW012TCU BKN013 30/26 Q1011 NOSIG=  
31-May-2023 SAID35 WAGB 310330 METAR WAGB 310330Z 17002KT 9000 BKN013 31/24 Q1010 NOSIG=  
31-May-2023 SAID35 WAGB 310600 METAR WAGB 310600Z 20004KT 9999 FEW014TCU SCT015 32/25 Q1008 NOSIG=  
31-May-2023 SAID35 WAGB 310630 METAR WAGB 310630Z 20005KT 9999 FEW014TCU SCT015 32/25 Q1008 NOSIG=  
31-May-2023 SAID35 WAGB 310700 METAR WAGB 310700Z 21005KT 9999 FEW014TCU SCT015 34/25 Q1007 NOSIG=  
31-May-2023 SAID35 WAGB 310730 METAR WAGB 310730Z 21005KT 9999 FEW014TCU SCT015 34/25 Q1007 NOSIG=  
31-May-2023 SAID35 WAGB 310800 METAR WAGB 310800Z 00000KT 9999 VCSH FEW014CB BKN015 33/26 Q1007 NOSIG=  
31-May-2023 SAID35 WAGB 310830 METAR WAGB 310830Z 00000KT 9999 TS FEW014CB BKN015 33/26 Q1007 NOSIG=  
31-May-2023 SAID35 WAGB 310900 METAR WAGB 310900Z 29003KT 4000 TS FEW013CB BKN014 30/26 Q1007 NOSIG=  
31-May-2023 SPID33 WAGB 310906 SPECI WAGB 310906Z 00000KT 4500 RA FEW013CB BKN014 29/25 Q1007 NOSIG=  
31-May-2023 SAID35 WAGB 310930 METAR WAGB 310930Z 00000KT 4000 TSRA FEW013CB SCT014 28/25 Q1007 NOSIG=  
31-May-2023 SAID35 WAGB 311000 METAR WAGB 311000Z 00000KT 4500 FEW013CB SCT014 27/25 Q1007 NOSIG=  
31-May-2023 SAID35 WAGB 311030 METAR WAGB 311030Z 00000KT 4500 FEW013CB SCT014 27/25 Q1008 NOSIG=  
31-May-2023 SAID35 WAGB 311100 METAR WAGB 311100Z 00000KT 5000 VCSH FEW013CB SCT014 27/26 Q1008 NOSIG=  
31-May-2023 SAID35 WAGB 311130 METAR WAGB 311130Z 00000KT 5000 VCSH FEW013CB SCT014 26/25 Q1008 NOSIG=  
31-May-2023 SAID35 WAGB 311200 METAR WAGB 311200Z 00000KT 5000 SCT013 27/25 Q1009 NOSIG=  
31-May-2023 SAID35 WAGB 311230 METAR WAGB 311230Z 00000KT 6000 SCT013 27/25 Q1009 NOSIG=  
31-May-2023 SAID35 WAGB 311300 METAR WAGB 311300Z 00000KT 7000 SCT012 26/25 Q1010 NOSIG=  
31-May-2023 SAID35 WAGB 311330 METAR WAGB 311330Z 00000KT 7000 SCT012 26/25 Q1010 NOSIG=  
31-May-2023 SAID35 WAGB 311400 METAR WAGB 311400Z 00000KT 7000 SCT012 26/25 Q1010 NOSIG=  
31-May-2023 SAID35 WAGB 311430 METAR WAGB 311430Z 00000KT 7000 SCT012 26/25 Q1010 NOSIG=  
31-May-2023 SAID35 WAGB 311500 METAR WAGB 311500Z 00000KT 7000 SCT012 26/25 Q1010 NOSIG=  
31-May-2023 SAID35 WAGB 311530 METAR WAGB 311530Z 00000KT 7000 SCT012 26/25 Q1010 NOSIG=  
31-May-2023 SAID35 WAGB 311600 METAR WAGB 311600Z 00000KT 6000 FEW011 25/24 Q1010 NOSIG=  
31-May-2023 SAID35 WAGB 311630 METAR WAGB 311630Z 00000KT 6000 FEW011 25/24 Q1010 NOSIG=  
31-May-2023 SAID35 WAGB 311700 METAR WAGB 311700Z 00000KT 5000 FEW010 25/24 Q1010 NOSIG=  
31-May-2023 SAID35 WAGB 311730 METAR WAGB 311730Z 00000KT 5000 FEW010 25/24 Q1010 NOSIG=  
31-May-2023 SAID35 WAGB 311800 METAR WAGB 311800Z 00000KT 5000 SCT010 25/24 Q1009 NOSIG=  
31-May-2023 SAID35 WAGB 311830 METAR WAGB 311830Z 00000KT 5000 SCT010 25/24 Q1009 NOSIG=  
31-May-2023 SAID35 WAGB 311900 METAR WAGB 311900Z 00000KT 4000 BR BKN010 25/24 Q1009 NOSIG=  
31-May-2023 SAID35 WAGB 311930 METAR WAGB 311930Z 00000KT 4000 BR BKN010 25/24 Q1009 NOSIG=  
31-May-2023 SAID35 WAGB 312000 METAR WAGB 312000Z 00000KT 4000 BR BKN010 25/24 Q1009 NOSIG=  
31-May-2023 SAID35 WAGB 312030 METAR WAGB 312030Z 00000KT 4000 BR BKN010 25/24 Q1009 NOSIG=  
31-May-2023 SAID35 WAGB 312100 METAR WAGB 312100Z 00000KT 4000 BR BKN010 25/24 Q1009 NOSIG=  
31-May-2023 SAID35 WAGB 312130 METAR WAGB 312130Z 00000KT 4000 BR BKN010 25/24 Q1009 NOSIG=  
31-May-2023 SAID35 WAGB 312200 METAR WAGB 312200Z 00000KT 4000 BR BKN010 25/24 Q1010 NOSIG=  
31-May-2023 SAID35 WAGB 312230 METAR WAGB 312230Z 00000KT 4000 BR BKN010 25/24 Q1010 NOSIG=  
31-May-2023 SAID35 WAGB 312300 METAR WAGB 312300Z 00000KT 5000 HZ SCT010 25/24 Q1011 NOSIG=  
31-May-2023 SAID35 WAGB 312330 METAR WAGB 312330Z 00000KT 5000 HZ SCT010 25/24 Q1011 NOSIG=  
01-Jun-2023 SAID35 WAGB 010000 METAR WAGB 010000Z 34003KT 6000 SCT011 26/25 Q1011 NOSIG=  
01-Jun-2023 SAID35 WAGB 010030 METAR WAGB 010030Z 34005KT 6000 SCT011 27/25 Q1011 NOSIG=  
01-Jun-2023 SAID35 WAGB 010100 METAR WAGB 010100Z 35006KT 7000 BKN011 28/25 Q1011 NOSIG=  
01-Jun-2023 SAID35 WAGB 010130 METAR WAGB 010130Z 05003KT 8000 BKN011 29/25 Q1011 NOSIG=  
01-Jun-2023 SAID35 WAGB 010200 METAR WAGB 010200Z 35003KT 8000 SCT012 29/25 Q1011 NOSIG=  
01-Jun-2023 SAID35 WAGB 010230 METAR WAGB 010230Z 00000KT 8000 SCT012 30/25 Q1010 NOSIG=  
01-Jun-2023 SAID35 WAGB 010300 METAR WAGB 010300Z 34003KT 8000 BKN012 30/25 Q1010=  
01-Jun-2023 SAID35 WAGB 010330 METAR WAGB 010330Z 00000KT 8000 BKN012 30/25 Q1010 NOSIG=  
01-Jun-2023 SAID35 WAGB 010400 METAR WAGB 010400Z 04003KT 8000 BKN012 31/25 Q1010 NOSIG=  
01-Jun-2023 SAID35 WAGB 010430 METAR WAGB 010430Z 25005KT 8000 BKN012 32/25 Q1009 NOSIG=  
01-Jun-2023 SAID35 WAGB 010500 METAR WAGB 010500Z 31004KT 8000 BKN012 30/25 Q1009 NOSIG=  
01-Jun-2023 SAID35 WAGB 010530 METAR WAGB 010530Z 34004KT 9000 BKN012 30/25 Q1008 NOSIG=  
01-Jun-2023 SAID35 WAGB 010600 METAR WAGB 010600Z 35003KT 9999 SCT013TCU 32/26 Q1008 NOSIG=  
01-Jun-2023 SAID35 WAGB 010600 CCA METAR WAGB 010600Z 35003KT 9999 SCT013TCU 32/26 Q1008 NOSIG=  
01-Jun-2023 SAID35 WAGB 010630 METAR WAGB 010630Z 36005KT 9999 SCT014TCU 33/25 Q1007 NOSIG=  
01-Jun-2023 SAID35 WAGB 010700 METAR WAGB 010700Z 33004KT 4000 VCSH FEW013CB SCT014TCU 34/24 Q1006 NOSIG=  
01-Jun-2023 SPID33 WAGB 010709 SPECI WAGB 010709Z 11009KT 1500 RA FEW012CB BKN013 28/25 Q1007 NOSIG=  
01-Jun-2023 SPID33 WAGB 010710 CCA SPECI WAGB 010710Z 11009KT 1500 TSRA FEW012CB BKN013 28/25 Q1007 NOSIG=  
01-Jun-2023 SAID35 WAGB 010730 METAR WAGB 010730Z 21014KT 0900 TSRA FEW012CB BKN013 25/23 Q1007 NOSIG=  
01-Jun-2023 SAID35 WAGB 010800 METAR WAGB 010800Z 21008KT 3500 RA FEW012CB BKN013 26/24 Q1007 NOSIG=  
01-Jun-2023 SAID35 WAGB 010830 METAR WAGB 010830Z 00000KT 5000 VCSH FEW012CB SCT013 26/24 Q1007 RERA NOSIG=  
01-Jun-2023 SAID35 WAGB 010900 METAR WAGB 010900Z VRB02KT 5000 VCSH FEW012CB SCT013 27/24 Q1007 NOSIG=  
01-Jun-2023 SAID35 WAGB 010930 METAR WAGB 010930Z 00000KT 6000 VCSH FEW012CB BKN013 26/25 Q1008 NOSIG=  
01-Jun-2023 SAID35 WAGB 011000 METAR WAGB 011000Z 00000KT 6000 FEW011CB BKN012 27/25 Q1008 NOSIG=  
01-Jun-2023 SAID35 WAGB 011030 METAR WAGB 011030Z 00000KT 6000 FEW011CB BKN012 26/25 Q1008 NOSIG=  
01-Jun-2023 SAID35 WAGB 011100 METAR WAGB 011100Z 00000KT 6000 FEW011CB BKN012 26/25 Q1009 NOSIG=  
01-Jun-2023 SAID35 WAGB 011130 METAR WAGB 011130Z 00000KT 6000 FEW011CB BKN012 26/25 Q1009=  
01-Jun-2023 SAID35 WAGB 011200 METAR WAGB 011200Z 00000KT 6000 VCTS FEW011CB SCT012 26/25 Q1010=  
01-Jun-2023 SAID35 WAGB 011230 METAR WAGB 011230Z 00000KT 6000 FEW011CB SCT012 26/25 Q1010=  
01-Jun-2023 SAID35 WAGB 011300 METAR WAGB 011300Z 00000KT 5000 FEW011CB SCT012 26/25 Q1010=  
01-Jun-2023 SAID35 WAGB 011330 METAR WAGB 011330Z 00000KT 5000 SCT011 26/25 Q1010=  
01-Jun-2023 SAID35 WAGB 011400 METAR WAGB 011400Z 00000KT 5000 SCT011 26/25 Q1011=  
01-Jun-2023 SAID35 WAGB 011430 METAR WAGB 011430Z 00000KT 5000 SCT011 26/25 Q1011=  
01-Jun-2023 SAID35 WAGB 011500 METAR WAGB 011500Z 00000KT 5000 SCT011 25/24 Q1011=  
01-Jun-2023 SAID35 WAGB 011530 METAR WAGB 011530Z 00000KT 5000 SCT011 26/24 Q1011=  
01-Jun-2023 SAID35 WAGB 011600 METAR WAGB 011600Z 00000KT 4500 HZ SCT010 25/24 Q1011=  
01-Jun-2023 SAID35 WAGB 011630 METAR WAGB 011630Z 00000KT 4500 HZ SCT010 25/24 Q1011=  
01-Jun-2023 SAID35 WAGB 011700 METAR WAGB 011700Z 00000KT 4500 BR SCT010 25/24 Q1006=  
01-Jun-2023 SAID35 WAGB 011730 METAR WAGB 011730Z 00000KT 4500 BR SCT010 25/24 Q1006=  
01-Jun-2023 SAID35 WAGB 011800 METAR WAGB 011800Z 00000KT 4500 BR SCT009 24/24 Q1010=  
01-Jun-2023 SAID35 WAGB 011830 METAR WAGB 011830Z 00000KT 4500 BR SCT009 24/24 Q1010=  
01-Jun-2023 SAID35 WAGB 011900 METAR WAGB 011900Z 00000KT 4500 BR SCT009 24/24 Q1009=  
01-Jun-2023 SAID35 WAGB 011930 METAR WAGB 011930Z 00000KT 4500 BR SCT009 24/24 Q1009=  
01-Jun-2023 SAID35 WAGB 012030 METAR WAGB 012030Z 00000KT 4500 BR SCT009 24/23 Q1010=  
01-Jun-2023 SAID35 WAGB 012100 METAR WAGB 012100Z 00000KT 4500 BR SCT010 24/24 Q1010=  
01-Jun-2023 SAID35 WAGB 012130 METAR WAGB 012130Z 00000KT 4500 BR SCT010 24/24 Q1010=  
01-Jun-2023 SAID35 WAGB 012200 METAR WAGB 012200Z 00000KT 5000 BR SCT010 24/24 Q1010=  
01-Jun-2023 SAID35 WAGB 012230 METAR WAGB 012230Z 00000KT 5000 BR SCT010 24/24 Q1010=  
01-Jun-2023 SAID35 WAGB 012300 METAR WAGB 012300Z 00000KT 6000 SCT010 24/24 Q1010=  
01-Jun-2023 SAID35 WAGB 012330 METAR WAGB 012330Z 00000KT 6000 SCT010 24/24 Q1010=  
02-Jun-2023 SAID35 WAGB 020000 METAR WAGB 020000Z 00000KT 6000 FEW011 26/25 Q1011 NOSIG=  
02-Jun-2023 SAID35 WAGB 020030 METAR WAGB 020030Z 00000KT 7000 SCT011 27/25 Q1011 NOSIG=  
02-Jun-2023 SAID35 WAGB 020100 METAR WAGB 020100Z 32002KT 7000 SCT011 28/25 Q1011 NOSIG=  
02-Jun-2023 SAID35 WAGB 020130 METAR WAGB 020130Z 27002KT 8000 SCT011 29/25 Q1011 NOSIG=  
02-Jun-2023 SAID35 WAGB 020200 METAR WAGB 020200Z 00000KT 8000 SCT012 30/25 Q1011 NOSIG=  
02-Jun-2023 SAID35 WAGB 020230 METAR WAGB 020230Z 00000KT 8000 SCT012 30/26 Q1011 NOSIG=  
02-Jun-2023 SAID35 WAGB 020300 METAR WAGB 020300Z 29002KT 9000 BKN012 30/25 Q1010 NOSIG=  
02-Jun-2023 SAID35 WAGB 020330 METAR WAGB 020330Z 00000KT 9000 BKN012 31/25 Q1010 NOSIG=  
02-Jun-2023 SAID35 WAGB 020400 METAR WAGB 020400Z 36004KT 9999 BKN012 31/25 Q1010 NOSIG=  
02-Jun-2023 SAID35 WAGB 020430 METAR WAGB 020430Z 35003KT 9999 FEW013TCU BKN014 33/25 Q1009 NOSIG=  
02-Jun-2023 SAID35 WAGB 020500 METAR WAGB 020500Z 18003KT 9999 FEW013TCU BKN014 32/24 Q1008 NOSIG=  
02-Jun-2023 SAID35 WAGB 020530 METAR WAGB 020530Z 22004KT 9999 FEW013TCU BKN014 32/25 Q1008 NOSIG=  
02-Jun-2023 SAID35 WAGB 020600 METAR WAGB 020600Z 27002KT 9999 FEW013TCU BKN014 33/26 Q1008 NOSIG=  
02-Jun-2023 SAID35 WAGB 020630 METAR WAGB 020630Z 34003KT 9999 FEW014TCU BKN015 33/25 Q1007 NOSIG=  
02-Jun-2023 SAID35 WAGB 020700 METAR WAGB 020700Z 31003KT 9999 FEW014TCU BKN015 33/25 Q1007 NOSIG=  
02-Jun-2023 SAID35 WAGB 020730 METAR WAGB 020730Z 24003KT 9999 FEW014TCU SCT015 33/24 Q1006 NOSIG=  
02-Jun-2023 SAID35 WAGB 020800 METAR WAGB 020800Z 36004KT 9999 SCT015 33/25 Q1006 NOSIG=  
02-Jun-2023 SAID35 WAGB 020830 METAR WAGB 020830Z 33003KT 9999 SCT015 33/25 Q1006 NOSIG=  
02-Jun-2023 SAID35 WAGB 020900 METAR WAGB 020900Z 30003KT 9999 FEW014CB SCT015 33/26 Q1007 NOSIG=  
02-Jun-2023 SAID35 WAGB 020930 METAR WAGB 020930Z 00000KT 9999 FEW013CB SCT014 32/26 Q1008 NOSIG=  
02-Jun-2023 SAID35 WAGB 021000 METAR WAGB 021000Z 00000KT 9999 FEW013CB FEW014 32/27 Q1008 NOSIG=  
02-Jun-2023 SAID35 WAGB 021030 METAR WAGB 021030Z 00000KT 8000 FEW012CB SCT013 32/26 Q1008 NOSIG=  
02-Jun-2023 SAID35 WAGB 021100 METAR WAGB 021100Z 00000KT 8000 FEW012CB BKN013 30/25 Q1009 NOSIG=  
02-Jun-2023 SAID35 WAGB 021200 METAR WAGB 021200Z 00000KT 8000 FEW012CB BKN013 28/25 Q1010=  
02-Jun-2023 SAID35 WAGB 021230 METAR WAGB 021230Z 00000KT 8000 FEW012CB BKN013 28/25 Q1010=  
02-Jun-2023 SAID35 WAGB 021300 METAR WAGB 021300Z 00000KT 8000 BKN012 27/25 Q1010=  
02-Jun-2023 SAID35 WAGB 021330 METAR WAGB 021330Z 00000KT 8000 BKN012 27/25 Q1010=  
02-Jun-2023 SAID35 WAGB 021400 METAR WAGB 021400Z 00000KT 8000 BKN012 27/25 Q1010=  
02-Jun-2023 SAID35 WAGB 021430 METAR WAGB 021430Z 00000KT 8000 BKN012 27/25 Q1011=  
02-Jun-2023 SAID35 WAGB 021500 METAR WAGB 021500Z 00000KT 8000 BKN011 26/25 Q1011=  
02-Jun-2023 SAID35 WAGB 021530 METAR WAGB 021530Z 00000KT 8000 BKN011 26/25 Q1011=  
02-Jun-2023 SAID35 WAGB 021600 METAR WAGB 021600Z 00000KT 6000 BKN011 26/25 Q1011=  
02-Jun-2023 SAID35 WAGB 021630 METAR WAGB 021630Z 00000KT 6000 BKN011 26/25 Q1011=  
02-Jun-2023 SAID35 WAGB 021700 METAR WAGB 021700Z 00000KT 5000 HZ BKN011 26/25 Q1010=  
02-Jun-2023 SAID35 WAGB 021730 METAR WAGB 021730Z 00000KT 5000 HZ BKN011 26/25 Q1010=  
02-Jun-2023 SAID35 WAGB 021800 METAR WAGB 021800Z 00000KT 4000 BR BKN011 26/25 Q1010=  
02-Jun-2023 SAID35 WAGB 021830 METAR WAGB 021830Z 00000KT 4000 BR BKN011 26/25 Q1010=  
02-Jun-2023 SAID35 WAGB 021900 METAR WAGB 021900Z 00000KT 5000 BR BKN010 26/25 Q1010=  
02-Jun-2023 SAID35 WAGB 021930 METAR WAGB 021930Z 00000KT 5000 BR BKN010 26/25 Q1010=  
02-Jun-2023 SAID35 WAGB 022000 METAR WAGB 022000Z 00000KT 5000 BR BKN010 25/24 Q1010=  
02-Jun-2023 SAID35 WAGB 022030 METAR WAGB 022030Z 00000KT 5000 BR BKN010 25/24 Q1010=  
02-Jun-2023 SAID35 WAGB 022100 METAR WAGB 022100Z 00000KT 4000 BR BKN010 25/24 Q1010=  
02-Jun-2023 SAID35 WAGB 022130 METAR WAGB 022130Z 00000KT 4000 BR BKN010 25/24 Q1010=  
02-Jun-2023 SAID35 WAGB 022200 METAR WAGB 022200Z 00000KT 4000 BR BKN010 25/24 Q1011=  
02-Jun-2023 SAID35 WAGB 022230 METAR WAGB 022230Z 00000KT 4000 BR BKN010 25/24 Q1011=  
02-Jun-2023 SAID35 WAGB 022300 METAR WAGB 022300Z 00000KT 5000 BR BKN009 25/25 Q1011=  
02-Jun-2023 SAID35 WAGB 022330 METAR WAGB 022330Z 00000KT 5000 BKN009 25/25 Q1012=  
03-Jun-2023 SAID35 WAGB 030000 METAR WAGB 030000Z 01003KT 7000 SCT010 27/25 Q1011 NOSIG=  
03-Jun-2023 SAID35 WAGB 030030 METAR WAGB 030030Z 00000KT 7000 SCT010 28/25 Q1011 NOSIG=  
03-Jun-2023 SAID35 WAGB 030100 METAR WAGB 030100Z 00000KT 8000 SCT010 29/25 Q1011 NOSIG=  
03-Jun-2023 SAID35 WAGB 030130 METAR WAGB 030130Z 00000KT 9000 BKN011 29/25 Q1011 NOSIG=  
03-Jun-2023 SAID35 WAGB 030200 METAR WAGB 030200Z 02004KT 9000 BKN011 30/26 Q1012 NOSIG=  
03-Jun-2023 SAID35 WAGB 030230 METAR WAGB 030230Z 28004KT 9999 BKN012 30/25 Q1011 NOSIG=  
03-Jun-2023 SAID35 WAGB 030300 METAR WAGB 030300Z 34002KT 9999 BKN012 30/25 Q1011 NOSIG=  
03-Jun-2023 SAID35 WAGB 030330 METAR WAGB 030330Z 27003KT 9999 BKN012 32/25 Q1011 NOSIG=  
03-Jun-2023 SAID35 WAGB 030400 METAR WAGB 030400Z 35002KT 9999 BKN012 32/25 Q1010 NOSIG=  
03-Jun-2023 SAID35 WAGB 030430 METAR WAGB 030430Z 03003KT 9999 BKN013 33/25 Q1010 NOSIG=  
03-Jun-2023 SAID35 WAGB 030500 METAR WAGB 030500Z 24004KT 9999 BKN013 33/25 Q1009 NOSIG=  
03-Jun-2023 SAID35 WAGB 030530 METAR WAGB 030530Z 10003KT 9999 BKN013 33/25 Q1009 NOSIG=  
03-Jun-2023 SAID35 WAGB 030600 METAR WAGB 030600Z 00000KT 9999 BKN013 33/25 Q1008 NOSIG=  
03-Jun-2023 SAID35 WAGB 030630 METAR WAGB 030630Z 00000KT 9999 BKN013 33/25 Q1007 NOSIG=  
03-Jun-2023 SAID35 WAGB 030700 METAR WAGB 030700Z 00000KT 9999 FEW013TCU BKN014 32/25 Q1007 NOSIG=  
03-Jun-2023 SAID35 WAGB 030730 METAR WAGB 030730Z 00000KT 9999 FEW013TCU SCT014 31/25 Q1007 NOSIG=  
03-Jun-2023 SAID35 WAGB 030800 METAR WAGB 030800Z 00000KT 9999 FEW013CB SCT014 31/26 Q1007 NOSIG=  
03-Jun-2023 SAID35 WAGB 030830 METAR WAGB 030830Z 00000KT 8000 FEW012CB BKN013 30/26 Q1007 NOSIG=  
03-Jun-2023 SAID35 WAGB 030900 METAR WAGB 030900Z 34005KT 8000 TS FEW012CB BKN013 29/26 Q1007 NOSIG=  
03-Jun-2023 SAID35 WAGB 030930 METAR WAGB 030930Z 00000KT 5000 TS FEW010CB BKN011 27/25 Q1009=  
03-Jun-2023 SAID35 WAGB 031000 METAR WAGB 031000Z 18004KT 5000 VCSH FEW012CB SCT013 27/25 Q1009=  
03-Jun-2023 SAID35 WAGB 031030 METAR WAGB 031030Z 00000KT 5000 VCSH FEW012CB SCT013 27/25 Q1009=  
03-Jun-2023 SAID35 WAGB 031100 METAR WAGB 031100Z 00000KT 5000 SCT011 26/25 Q1009 NOSIG=  
03-Jun-2023 SAID35 WAGB 031130 METAR WAGB 031130Z 00000KT 5000 VCSH SCT011 25/24 Q1009=  
03-Jun-2023 SAID35 WAGB 031200 METAR WAGB 031200Z 00000KT 5000 VCSH SCT011 26/25 Q1010=  
03-Jun-2023 SAID35 WAGB 031230 METAR WAGB 031230Z 00000KT 5000 VCSH SCT011 26/25 Q1010=  
03-Jun-2023 SAID35 WAGB 031300 METAR WAGB 031300Z 00000KT 5000 BKN010 26/25 Q1010 NOSIG=  
03-Jun-2023 SAID35 WAGB 031330 METAR WAGB 031330Z 00000KT 5000 BKN010 26/25 Q1010 NOSIG=  
03-Jun-2023 SAID35 WAGB 031400 METAR WAGB 031400Z 00000KT 5000 SCT010 26/25 Q1010 NOSIG=  
03-Jun-2023 SAID35 WAGB 031430 METAR WAGB 031430Z 00000KT 5000 SCT010 26/25 Q1011 NOSIG=  
03-Jun-2023 SAID35 WAGB 031500 METAR WAGB 031500Z 00000KT 5000 BKN010 26/25 Q1011 NOSIG=  
03-Jun-2023 SAID35 WAGB 031500 CCA METAR COR WAGB 031500Z 00000KT 8000 BKN010 26/25 Q1011=  
03-Jun-2023 SAID35 WAGB 031530 METAR WAGB 031530Z 00000KT 5000 BKN010 26/25 Q1011 NOSIG=  
03-Jun-2023 SAID35 WAGB 031600 METAR WAGB 031600Z 00000KT 5000 VCTS FEW011CB SCT012 25/25 Q1010=  
03-Jun-2023 SAID35 WAGB 031630 METAR WAGB 031630Z 00000KT 5000 VCTS FEW011CB SCT012 25/25 Q1010=  
03-Jun-2023 SAID35 WAGB 031700 METAR WAGB 031700Z 00000KT 5000 VCTS FEW011CB SCT012 25/25 Q1009=  
03-Jun-2023 SAID35 WAGB 031730 METAR WAGB 031730Z 00000KT 5000 VCTS FEW011CB BKN012 25/25 Q1010=  
03-Jun-2023 SAID35 WAGB 031800 METAR WAGB 031800Z 00000KT 5000 VCTS FEW011CB BKN012 25/25 Q1010=  
03-Jun-2023 SAID35 WAGB 031830 METAR WAGB 031830Z 00000KT 5000 VCTS FEW011CB BKN012 25/25 Q1010=  
03-Jun-2023 SAID35 WAGB 031900 METAR WAGB 031900Z 00000KT 4000 VCTS FEW011CB BKN012 25/25 Q1010=  
03-Jun-2023 SAID35 WAGB 031930 METAR WAGB 031930Z 00000KT 4000 VCTS FEW011CB BKN012 25/25 Q1010=  
03-Jun-2023 SAID35 WAGB 032000 METAR WAGB 032000Z 00000KT 4000 VCTS FEW011CB BKN012 25/25 Q1010=  
03-Jun-2023 SAID35 WAGB 032030 METAR WAGB 032030Z 00000KT 4000 VCTS FEW011CB BKN012 25/25 Q1010=  
03-Jun-2023 SAID35 WAGB 032100 METAR WAGB 032100Z 00000KT 4000 VCTS FEW011CB BKN012 25/25 Q1010=  
03-Jun-2023 SAID35 WAGB 032130 METAR WAGB 032130Z 00000KT 4000 VCTS FEW011CB BKN012 25/25 Q1010=  
03-Jun-2023 SAID35 WAGB 032200 METAR WAGB 032200Z 00000KT 4000 VCTS FEW011CB BKN012 25/24 Q1011=  
03-Jun-2023 SAID35 WAGB 032230 METAR WAGB 032230Z 00000KT 4000 BR FEW011CB BKN012 25/24 Q1011=  
03-Jun-2023 SAID35 WAGB 032300 METAR WAGB 032300Z 00000KT 5000 TS FEW011CB BKN012 25/24 Q1011=  
03-Jun-2023 SAID35 WAGB 032330 METAR WAGB 032330Z 00000KT 5000 FEW011CB BKN012 25/24 Q1011 RETS=  
04-Jun-2023 SAID35 WAGB 040000 METAR WAGB 040000Z 11004KT 5000 VCSH BKN009 25/24 Q1012=  
04-Jun-2023 SAID35 WAGB 040000 CCA METAR WAGB 040000Z 02006KT 5000 VCSH BKN008 25/24 Q1011 NOSIG=  
04-Jun-2023 SAID35 WAGB 040000 CCB METAR WAGB 040000Z 02006KT 5000 VCSH BKN008 25/24 Q1011 NOSIG=  
04-Jun-2023 SAID35 WAGB 040030 METAR WAGB 040030Z 03005KT 5000 VCSH BKN009 25/24 Q1011 NOSIG=  
04-Jun-2023 SAID35 WAGB 040100 METAR WAGB 040100Z 03005KT 6000 BKN009 26/24 Q1011 NOSIG=  
04-Jun-2023 SAID35 WAGB 040130 METAR WAGB 040130Z 35003KT 7000 BKN010 26/24 Q1011 NOSIG=  
04-Jun-2023 SPID33 WAGB 040140 SPECI WAGB 040130Z 35004KT 6000 -RA BKN010 26/24 Q1011 NOSIG=  
04-Jun-2023 SPID33 WAGB 040140 CCA SPECI WAGB 040140Z 35004KT 6000 -RA BKN010 26/24 Q1011 NOSIG=  
04-Jun-2023 SAID35 WAGB 040200 METAR WAGB 040200Z 00000KT 8000 BKN011 26/23 Q1011 RERA NOSIG=  
04-Jun-2023 SAID35 WAGB 040230 METAR WAGB 040230Z 18004KT 8000 BKN011 27/24 Q1011 NOSIG=  
04-Jun-2023 SAID35 WAGB 040300 METAR WAGB 040300Z 00000KT 9000 BKN012 29/24 Q1010 NOSIG=  
04-Jun-2023 SAID35 WAGB 040300 CCA METAR WAGB 040300Z 00000KT 9000 SCT012 29/24 Q1010 NOSIG=  
04-Jun-2023 SAID35 WAGB 040330 METAR WAGB 040330Z 00000KT 9000 SCT012 30/24 Q1010 NOSIG=  
04-Jun-2023 SAID35 WAGB 040400 METAR WAGB 040400Z 01003KT 9999 SCT012 31/24 Q1009 NOSIG=  
04-Jun-2023 SAID35 WAGB 040430 METAR WAGB 040430Z 30003KT 9999 SCT012 31/24 Q1009 NOSIG=  
04-Jun-2023 SAID35 WAGB 040500 METAR WAGB 040500Z 34004KT 9999 SCT012 31/23 Q1008 NOSIG=  
04-Jun-2023 SAID35 WAGB 040530 METAR WAGB 040530Z 35006KT 9999 SCT013 31/23 Q1008 NOSIG=  
04-Jun-2023 SAID35 WAGB 040600 METAR WAGB 040600Z 28005KT 9999 FEW012TCU SCT013 32/24 Q1007 NOSIG=  
04-Jun-2023 SAID35 WAGB 040700 METAR WAGB 040700Z 00000KT 9999 FEW014CB FEW015 32/25 Q1007 NOSIG=  
04-Jun-2023 SAID35 WAGB 040730 METAR WAGB 040730Z 00000KT 9999 FEW014CB FEW015 32/25 Q1007 NOSIG=  
04-Jun-2023 SAID35 WAGB 040800 METAR WAGB 040800Z 22005KT 9999 FEW014CB FEW015 32/24 Q1006 NOSIG=  
04-Jun-2023 SAID35 WAGB 040830 METAR WAGB 040830Z 18003KT 9999 FEW014CB FEW015 32/24 Q1006 NOSIG=  
04-Jun-2023 SAID35 WAGB 040900 METAR WAGB 040900Z 00000KT 9999 FEW014CB SCT015 31/26 Q1007 NOSIG=  
04-Jun-2023 SAID35 WAGB 040930 METAR WAGB 040930Z 00000KT 9999 FEW014CB SCT015 31/26 Q1007 NOSIG=  
04-Jun-2023 SAID35 WAGB 041000 METAR WAGB 041000Z 00000KT 9999 FEW014CB SCT015 31/25 Q1007 NOSIG=  
04-Jun-2023 SAID35 WAGB 041030 METAR WAGB 041030Z 00000KT 9999 FEW014CB SCT015 31/25 Q1007 NOSIG=  
04-Jun-2023 SAID35 WAGB 041100 METAR WAGB 041100Z 00000KT 9000 FEW014CB SCT015 29/26 Q1007 NOSIG=  
04-Jun-2023 SAID35 WAGB 041130 METAR WAGB 041130Z 00000KT 9000 FEW014CB SCT015 29/26 Q1007 NOSIG=  
04-Jun-2023 SAID35 WAGB 041200 METAR WAGB 041200Z 00000KT 7000 SCT014 29/26 Q1008=  
04-Jun-2023 SAID35 WAGB 041230 METAR WAGB 041230Z 00000KT 7000 SCT014 29/26 Q1008=  
04-Jun-2023 SAID35 WAGB 041300 METAR WAGB 041300Z 00000KT 7000 SCT014 28/26 Q1009=  
04-Jun-2023 SAID35 WAGB 041330 METAR WAGB 041330Z 00000KT 7000 SCT014 28/26 Q1009=  
04-Jun-2023 SAID35 WAGB 041400 METAR WAGB 041400Z 00000KT 6000 SCT013 27/26 Q1011=  
04-Jun-2023 SAID35 WAGB 041430 METAR WAGB 041430Z 00000KT 6000 SCT013 27/26 Q1011=  
04-Jun-2023 SAID35 WAGB 041500 METAR WAGB 041500Z 00000KT 6000 FEW013 27/26 Q1009=  
04-Jun-2023 SAID35 WAGB 041530 METAR WAGB 041530Z 00000KT 6000 FEW013 27/26 Q1009=  
04-Jun-2023 SAID35 WAGB 041600 METAR WAGB 041600Z 00000KT 6000 FEW013 26/25 Q1010=  
04-Jun-2023 SAID35 WAGB 041630 METAR WAGB 041630Z 00000KT 6000 FEW013 26/25 Q1010=  
04-Jun-2023 SAID35 WAGB 041700 METAR WAGB 041700Z 00000KT 6000 SCT013 26/26 Q1009=  
04-Jun-2023 SAID35 WAGB 041730 METAR WAGB 041730Z 00000KT 6000 SCT013 26/26 Q1009=  
04-Jun-2023 SAID35 WAGB 041800 METAR WAGB 041800Z 00000KT 6000 SCT012 24/24 Q1009=  
04-Jun-2023 SAID35 WAGB 041830 METAR WAGB 041830Z 00000KT 6000 SCT012 26/25 Q1009=  
04-Jun-2023 SAID35 WAGB 041900 METAR WAGB 041900Z 00000KT 6000 SCT012 26/25 Q1008=  
04-Jun-2023 SAID35 WAGB 041930 METAR WAGB 041930Z 00000KT 6000 SCT012 26/25 Q1008=  
04-Jun-2023 SAID35 WAGB 042000 METAR WAGB 042000Z 00000KT 4000 BR SCT011 25/25 Q1009=  
04-Jun-2023 SAID35 WAGB 042030 METAR WAGB 042030Z 00000KT 4000 BR SCT011 25/25 Q1009=  
04-Jun-2023 SAID35 WAGB 042100 METAR WAGB 042100Z 00000KT 4000 BR SCT010 25/25 Q1009=  
04-Jun-2023 SAID35 WAGB 042130 METAR WAGB 042130Z 00000KT 4000 BR SCT010 25/25 Q1009=  
04-Jun-2023 SAID35 WAGB 042200 METAR WAGB 042200Z 00000KT 4000 BR SCT010 25/25 Q1010=  
04-Jun-2023 SAID35 WAGB 042230 METAR WAGB 042230Z 00000KT 4000 BR BKN010 25/25 Q1010=  
04-Jun-2023 SAID35 WAGB 042300 METAR WAGB 042300Z 00000KT 3000 -RA BKN010 25/25 Q1010=  
04-Jun-2023 SAID35 WAGB 042330 METAR WAGB 042330Z 00000KT 3000 -RA BKN010 25/25 Q1010=  
05-Jun-2023 SAID35 WAGB 050000 METAR WAGB 050000Z 00000KT 2000 -RA BKN007 25/24 Q1012=  
05-Jun-2023 SAID35 WAGB 050030 METAR WAGB 050030Z 00000KT 1000 RA BKN007 25/24 Q1012=  
05-Jun-2023 SAID35 WAGB 050100 METAR WAGB 050100Z 29005KT 0800 RA BKN007 23/23 Q1013=  
05-Jun-2023 SAID35 WAGB 050130 METAR WAGB 050130Z 26005KT 1000 RA BKN007 23/23 Q1012=  
05-Jun-2023 SAID35 WAGB 050200 METAR WAGB 050200Z 28003KT 1000 -RA BKN007 23/23 Q1012=  
05-Jun-2023 SAID35 WAGB 050230 METAR WAGB 050230Z 27003KT 1000 -RA BKN007 23/23 Q1012=  
05-Jun-2023 SAID35 WAGB 050330 METAR WAGB 050330Z 00000KT 2000 RA BKN008 24/23 Q1011 NOSIG=  
05-Jun-2023 SAID35 WAGB 050400 METAR WAGB 050400Z 09002KT 5000 VCSH BKN009 25/23 Q1010 NOSIG=  
05-Jun-2023 SAID35 WAGB 050430 METAR WAGB 050430Z 00000KT 5000 VCSH BKN009 25/23 Q1009 NOSIG=  
05-Jun-2023 SAID35 WAGB 050500 METAR WAGB 050500Z 16002KT 8000 SCT009 26/24 Q1009 NOSIG=  
05-Jun-2023 SAID35 WAGB 050530 METAR WAGB 050530Z 00000KT 9000 SCT009 27/24 Q1009 NOSIG=  
05-Jun-2023 SAID35 WAGB 050900 METAR WAGB 050900Z 35004KT 9999 SCT012 28/24 Q1009 NOSIG=  
05-Jun-2023 SAID35 WAGB 050930 METAR WAGB 050930Z 00000KT 9000 FEW012CB SCT013 27/24 Q1009 NOSIG=  
05-Jun-2023 SAID35 WAGB 051000 METAR WAGB 051000Z 00000KT 8000 FEW013CB SCT014 27/25 Q1009 NOSIG=  
05-Jun-2023 SAID35 WAGB 051030 METAR WAGB 051030Z 00000KT 8000 FEW013CB SCT014 27/25 Q1009 NOSIG=  
05-Jun-2023 SAID35 WAGB 051100 METAR WAGB 051100Z 00000KT 7000 FEW013CB SCT014 26/25 Q1009 NOSIG=  
05-Jun-2023 SAID35 WAGB 051130 METAR WAGB 051130Z 00000KT 7000 FEW013CB SCT014 26/25 Q1009 NOSIG=  
05-Jun-2023 SAID35 WAGB 051200 METAR WAGB 051200Z 00000KT 7000 FEW012CB SCT013 26/25 Q1010=  
05-Jun-2023 SAID35 WAGB 051230 METAR WAGB 051230Z 00000KT 7000 FEW012CB SCT013 26/25 Q1010=  
05-Jun-2023 SAID35 WAGB 051300 METAR WAGB 051300Z 00000KT 7000 BKN012 25/24 Q1010=  
05-Jun-2023 SAID35 WAGB 051330 METAR WAGB 051330Z 00000KT 7000 BKN012 25/24 Q1011=  
05-Jun-2023 SAID35 WAGB 051400 METAR WAGB 051400Z 00000KT 7000 BKN012 25/24 Q1011=  
05-Jun-2023 SAID35 WAGB 051430 METAR WAGB 051430Z 00000KT 7000 BKN012 25/24 Q1011=  
05-Jun-2023 SAID35 WAGB 051500 METAR WAGB 051500Z 00000KT 6000 SCT012 25/24 Q1011=  
05-Jun-2023 SAID35 WAGB 051530 METAR WAGB 051530Z 00000KT 6000 SCT012 25/24 Q1011=  
05-Jun-2023 SAID35 WAGB 051600 METAR WAGB 051600Z 00000KT 6000 SCT012 25/24 Q1011=  
05-Jun-2023 SAID35 WAGB 051630 METAR WAGB 051630Z 00000KT 6000 SCT012 25/24 Q1011=  
05-Jun-2023 SAID35 WAGB 051700 METAR WAGB 051700Z 00000KT 6000 SCT012 25/24 Q1011=  
05-Jun-2023 SAID35 WAGB 051730 METAR WAGB 051730Z 00000KT 6000 SCT012 25/24 Q1011=  
05-Jun-2023 SAID35 WAGB 051800 METAR WAGB 051800Z 00000KT 5000 VCSH BKN012 25/24 Q1010=  
05-Jun-2023 SAID35 WAGB 051830 METAR WAGB 051830Z 00000KT 5000 VCSH BKN012 25/24 Q1009=  
05-Jun-2023 SAID35 WAGB 051900 METAR WAGB 051900Z 00000KT 5000 HZ BKN011 25/24 Q1009=  
05-Jun-2023 SAID35 WAGB 051930 METAR WAGB 051930Z 00000KT 5000 HZ BKN011 25/24 Q1009=  
05-Jun-2023 SAID35 WAGB 052000 METAR WAGB 052000Z 00000KT 5000 HZ BKN011 25/24 Q1009=  
05-Jun-2023 SAID35 WAGB 052030 METAR WAGB 052030Z 00000KT 5000 HZ BKN011 25/24 Q1010=  
05-Jun-2023 SAID35 WAGB 052100 METAR WAGB 052100Z 00000KT 5000 HZ BKN010 24/24 Q1010=  
05-Jun-2023 SAID35 WAGB 052130 METAR WAGB 052130Z 00000KT 5000 HZ BKN010 24/24 Q1010=  
05-Jun-2023 SAID35 WAGB 052200 METAR WAGB 052200Z 00000KT 4000 BR BKN010 24/23 Q1010=  
05-Jun-2023 SAID35 WAGB 052230 METAR WAGB 052230Z 00000KT 4000 BR BKN010 24/23 Q1010=  
05-Jun-2023 SAID35 WAGB 052300 METAR WAGB 052300Z 00000KT 4000 BR BKN009 24/23 Q1010=  
05-Jun-2023 SAID35 WAGB 052330 METAR WAGB 052330Z 00000KT 4000 BR BKN009 24/23 Q1010=  
06-Jun-2023 SAID35 WAGB 060030 METAR WAGB 060030Z 00000KT 1500 BR OVC004 24/24 Q1010=  
06-Jun-2023 SAID35 WAGB 060100 METAR WAGB 060100Z 00000KT 2500 BR OVC005 25/24 Q1011 NOSIG=  
06-Jun-2023 SAID35 WAGB 060130 METAR WAGB 060130Z 35003KT 5000 HZ BKN006 26/24 Q1011 NOSIG=  
06-Jun-2023 SAID35 WAGB 060200 METAR WAGB 060200Z 04004KT 9000 FEW007 28/24 Q1011 NOSIG=  
06-Jun-2023 SAID35 WAGB 060230 METAR WAGB 060230Z 03003KT 9000 SCT008 28/24 Q1011 NOSIG=  
06-Jun-2023 SAID35 WAGB 060300 METAR WAGB 060300Z 33005KT 9000 SCT009 29/24 Q1011 NOSIG=  
06-Jun-2023 SAID35 WAGB 060330 METAR WAGB 060330Z 04005KT 9999 FEW010 30/24 Q1010 NOSIG=  
06-Jun-2023 SAID35 WAGB 060400 METAR WAGB 060400Z 03004KT 9999 SCT010 30/24 Q1010 NOSIG=  
06-Jun-2023 SAID35 WAGB 060430 METAR WAGB 060430Z 33003KT 9999 FEW011 31/24 Q1009 NOSIG=  
06-Jun-2023 SAID35 WAGB 060500 METAR WAGB 060500Z 04004KT 9999 SCT011 32/24 Q1009 NOSIG=  
06-Jun-2023 SAID35 WAGB 060530 METAR WAGB 060530Z 02004KT 9999 SCT011 31/24 Q1008 NOSIG=  
06-Jun-2023 SAID35 WAGB 060600 METAR WAGB 060600Z 04004KT 9999 SCT011 33/24 Q1008 NOSIG=  
06-Jun-2023 SAID35 WAGB 060630 METAR WAGB 060630Z 09003KT 9999 SCT012 33/24 Q1007 NOSIG=  
06-Jun-2023 SAID35 WAGB 060700 METAR WAGB 060700Z 01004KT 9999 SCT012 32/24 Q1007 NOSIG=  
06-Jun-2023 SAID35 WAGB 060730 METAR WAGB 060730Z 00000KT 9999 SCT012 33/24 Q1006 NOSIG=  
06-Jun-2023 SAID35 WAGB 060800 METAR WAGB 060800Z 00000KT 9999 FEW012TCU SCT013 32/24 Q1006 NOSIG=  
06-Jun-2023 SAID35 WAGB 060830 METAR WAGB 060830Z 00000KT 9999 FEW012TCU SCT013 32/24 Q1006 NOSIG=  
06-Jun-2023 SAID35 WAGB 060900 METAR WAGB 060900Z 00000KT 9999 FEW012TCU SCT013 31/24 Q1007 NOSIG=  
06-Jun-2023 SAID35 WAGB 061000 METAR WAGB 061000Z 00000KT 9999 FEW013CB FEW014 30/25 Q1008 NOSIG=  
06-Jun-2023 SAID35 WAGB 061100 METAR WAGB 061100Z 00000KT 9999 FEW013CB FEW014 29/25 Q1008 NOSIG=  
06-Jun-2023 SAID35 WAGB 061130 METAR WAGB 061130Z 00000KT 9999 FEW013CB FEW014 28/25 Q1009 NOSIG=  
06-Jun-2023 SAID35 WAGB 061200 METAR WAGB 061200Z 00000KT 9999 FEW013 28/28 Q1009=  
06-Jun-2023 SAID35 WAGB 061230 METAR WAGB 061230Z 00000KT 9999 FEW013 28/28 Q1009=  
06-Jun-2023 SAID35 WAGB 061300 METAR WAGB 061300Z 00000KT 8000 FEW013 28/26 Q1010=  
06-Jun-2023 SAID35 WAGB 061330 METAR WAGB 061330Z 00000KT 8000 FEW013 27/26 Q1010=  
06-Jun-2023 SAID35 WAGB 061400 METAR WAGB 061400Z 00000KT 7000 FEW012 27/26 Q1010=  
06-Jun-2023 SAID35 WAGB 061430 METAR WAGB 061430Z 00000KT 7000 FEW012 27/26 Q1011=  
06-Jun-2023 SAID35 WAGB 061700 METAR WAGB 061700Z 00000KT 8000 FEW012 26/25 Q1011=  
06-Jun-2023 SAID35 WAGB 061730 METAR WAGB 061730Z 00000KT 8000 FEW012 26/25 Q1011=  
06-Jun-2023 SAID35 WAGB 061800 METAR WAGB 061800Z 00000KT 7000 SCT011 26/25 Q1011=  
06-Jun-2023 SAID35 WAGB 061830 METAR WAGB 061830Z 00000KT 7000 SCT011 26/25 Q1011=  
06-Jun-2023 SAID35 WAGB 061900 METAR WAGB 061900Z 00000KT 5000 -RA BKN010 25/25 Q1010=  
06-Jun-2023 SAID35 WAGB 061930 METAR WAGB 061930Z 00000KT 5000 BKN010 25/25 Q1010 RERA=  
06-Jun-2023 SAID35 WAGB 062000 METAR WAGB 062000Z 00000KT 6000 BKN010 25/24 Q1010=  
06-Jun-2023 SAID35 WAGB 062030 METAR WAGB 062030Z 00000KT 6000 BKN010 25/24 Q1010=  
06-Jun-2023 SAID35 WAGB 062100 METAR WAGB 062100Z 00000KT 6000 BKN010 25/24 Q1011=  
06-Jun-2023 SAID35 WAGB 062130 METAR WAGB 062130Z 00000KT 6000 BKN010 25/24 Q1011=  
06-Jun-2023 SAID35 WAGB 062200 METAR WAGB 062200Z 00000KT 7000 BKN010 25/24 Q1011=  
06-Jun-2023 SAID35 WAGB 062230 METAR WAGB 062230Z 00000KT 7000 BKN010 25/24 Q1011=  
06-Jun-2023 SAID35 WAGB 062300 METAR WAGB 062300Z 00000KT 7000 BKN010 25/24 Q1012=  
06-Jun-2023 SAID35 WAGB 062330 METAR WAGB 062330Z 00000KT 4000 RA BKN010 25/24 Q1012=  
07-Jun-2023 SAID35 WAGB 070000 METAR WAGB 070000Z 00000KT 8000 SCT009 25/24 Q1012 NOSIG=  
07-Jun-2023 SAID35 WAGB 070030 METAR WAGB 070030Z 36004KT 9000 SCT009 26/24 Q1012 NOSIG=  
07-Jun-2023 SAID35 WAGB 070100 METAR WAGB 070100Z 00000KT 9000 SCT009 26/24 Q1013 NOSIG=  
07-Jun-2023 SAID35 WAGB 070130 METAR WAGB 070130Z 00000KT 9999 SCT009 26/24 Q1013 NOSIG=  
07-Jun-2023 SAID35 WAGB 070200 METAR WAGB 070200Z 36003KT 9999 SCT009 26/24 Q1013 NOSIG=  
07-Jun-2023 SAID35 WAGB 070300 METAR WAGB 070200Z 36003KT 9999 SCT009 27/24 Q1013 NOSIG=  
07-Jun-2023 SAID35 WAGB 070230 METAR WAGB 070230Z 34006KT 9999 SCT009 27/24 Q1012 NOSIG=  
07-Jun-2023 SAID35 WAGB 070330 METAR WAGB 070330Z 34004KT 9999 SCT010 27/24 Q1013 NOSIG=  
07-Jun-2023 SAID35 WAGB 070400 METAR WAGB 070400Z 36004KT 9999 BKN011 28/24 Q1012 NOSIG=  
07-Jun-2023 SAID35 WAGB 070430 METAR WAGB 070430Z 35003KT 9999 BKN012 29/24 Q1011 NOSIG=  
07-Jun-2023 SAID35 WAGB 070500 METAR WAGB 070500Z 35004KT 9999 BKN013 30/24 Q1010 NOSIG=  
07-Jun-2023 SAID35 WAGB 070530 METAR WAGB 070530Z 04004KT 9999 BKN013 31/25 Q1009 NOSIG=  
07-Jun-2023 SAID35 WAGB 070600 METAR WAGB 070600Z 00000KT 9999 FEW011CB SCT012 31/25 Q1010 NOSIG=  
07-Jun-2023 SAID35 WAGB 070630 METAR WAGB 070630Z 34004KT 9999 FEW012CB SCT013 31/25 Q1009 NOSIG=  
07-Jun-2023 SAID35 WAGB 070700 METAR WAGB 070700Z 00000KT 9999 SCT013 31/26 Q1009 NOSIG=  
07-Jun-2023 SPID33 WAGB 070706 SPECI WAGB 070706Z 00000KT 9999 -RA SCT013 31/26 Q1009 NOSIG=  
07-Jun-2023 SAID35 WAGB 070730 METAR WAGB 070730Z 27003KT 9999 SCT013 31/26 Q1009 RERA NOSIG=  
07-Jun-2023 SAID35 WAGB 070800 METAR WAGB 070800Z 30003KT 9999 BKN013 31/26 Q1008 NOSIG=  
07-Jun-2023 SAID35 WAGB 070830 METAR WAGB 070830Z 00000KT 9999 BKN013 31/26 Q1008 NOSIG=  
07-Jun-2023 SAID35 WAGB 070900 METAR WAGB 070900Z 04005KT 9999 BKN013 31/26 Q1009 NOSIG=  
07-Jun-2023 SAID35 WAGB 070930 METAR WAGB 070930Z VRB02KT 9999 BKN013 31/26 Q1008 NOSIG=  
07-Jun-2023 SAID35 WAGB 071000 METAR WAGB 071000Z 00000KT 9999 SCT013 30/24 Q1009 NOSIG=  
07-Jun-2023 SAID35 WAGB 071030 METAR WAGB 071030Z 00000KT 9999 SCT013 30/24 Q1009 NOSIG=  
07-Jun-2023 SAID35 WAGB 071100 METAR WAGB 071100Z 00000KT 9000 SCT013 28/26 Q1009=  
07-Jun-2023 SAID35 WAGB 071100 CCA METAR WAGB 071100Z 00000KT 9000 SCT013 28/26 Q1009 NOSIG=  
07-Jun-2023 SAID35 WAGB 071130 METAR WAGB 071130Z 00000KT 9000 SCT013 28/26 Q1010 NOSIG=  
07-Jun-2023 SAID35 WAGB 071200 METAR WAGB 071200Z 00000KT 6000 SCT012 27/26 Q1010=  
07-Jun-2023 SAID35 WAGB 071230 METAR WAGB 071230Z 00000KT 6000 SCT012 27/26 Q1011=  
07-Jun-2023 SAID35 WAGB 071300 METAR WAGB 071300Z 00000KT 6000 FEW012 27/25 Q1011=  
07-Jun-2023 SAID35 WAGB 071330 METAR WAGB 071330Z 00000KT 6000 FEW012 27/25 Q1011=  
07-Jun-2023 SAID35 WAGB 071400 METAR WAGB 071400Z 00000KT 6000 FEW012 26/25 Q1011=  
07-Jun-2023 SAID35 WAGB 071430 METAR WAGB 071430Z 00000KT 6000 FEW012 26/25 Q1012=  
07-Jun-2023 SAID35 WAGB 071500 METAR WAGB 071500Z 00000KT 6000 FEW012 26/25 Q1012=  
07-Jun-2023 SAID35 WAGB 071530 METAR WAGB 071530Z 00000KT 6000 FEW012 26/25 Q1012=  
07-Jun-2023 SAID35 WAGB 071600 METAR WAGB 071600Z 00000KT 6000 FEW012 25/25 Q1012=  
07-Jun-2023 SAID35 WAGB 071630 METAR WAGB 071630Z 00000KT 6000 FEW012 25/25 Q1012=  
07-Jun-2023 SAID35 WAGB 071700 METAR WAGB 071700Z 00000KT 6000 FEW012 25/25 Q1012=  
07-Jun-2023 SAID35 WAGB 071730 METAR WAGB 071730Z 00000KT 6000 FEW012 25/25 Q1012=  
07-Jun-2023 SAID35 WAGB 071800 METAR WAGB 071800Z 00000KT 5000 SCT011 25/25 Q1011=  
07-Jun-2023 SAID35 WAGB 071830 METAR WAGB 071830Z 00000KT 5000 SCT011 25/25 Q1011=  
07-Jun-2023 SAID35 WAGB 071900 METAR WAGB 071900Z 00000KT 4000 BR SCT011 25/25 Q1011=  
07-Jun-2023 SAID35 WAGB 071930 METAR WAGB 071930Z 00000KT 4000 BR SCT011 25/25 Q1011=  
07-Jun-2023 SAID35 WAGB 072000 METAR WAGB 072000Z 00000KT 4000 BR SCT011 25/25 Q1011=  
07-Jun-2023 SAID35 WAGB 072030 METAR WAGB 072030Z 00000KT 4000 BR SCT011 25/25 Q1011=  
07-Jun-2023 SAID35 WAGB 072100 METAR WAGB 072100Z 00000KT 4000 BR FEW011 25/24 Q1011=  
07-Jun-2023 SAID35 WAGB 072130 METAR WAGB 072130Z 00000KT 4000 BR FEW011 25/24 Q1011=  
07-Jun-2023 SAID35 WAGB 072200 METAR WAGB 072200Z 00000KT 3000 BR FEW011 24/24 Q1011=  
07-Jun-2023 SAID35 WAGB 072230 METAR WAGB 072230Z 00000KT 3000 BR FEW011 24/24 Q1011=  
07-Jun-2023 SAID35 WAGB 072300 METAR WAGB 072300Z 00000KT 4000 BR FEW011 25/24 Q1012=  
07-Jun-2023 SAID35 WAGB 072330 METAR WAGB 072330Z 00000KT 6000 FEW011 25/24 Q1012=  
08-Jun-2023 SAID35 WAGB 080000 METAR WAGB 080000Z 00000KT 0800 FG VV003 25/25 Q1012=  
08-Jun-2023 SAID35 WAGB 080030 METAR WAGB 080030Z 04003KT 1500 BR OVC004 26/25 Q1012 NOSIG=  
08-Jun-2023 SAID35 WAGB 080100 METAR WAGB 080100Z 00000KT 3000 HZ BKN006 27/25 Q1012 NOSIG=  
08-Jun-2023 SAID35 WAGB 080130 METAR WAGB 080130Z 00000KT 5500 SCT007 29/25 Q1012 NOSIG=  
08-Jun-2023 SAID35 WAGB 080200 METAR WAGB 080200Z 33002KT 7000 SCT007 29/24 Q1012 NOSIG=  
08-Jun-2023 SAID35 WAGB 080230 METAR WAGB 080230Z 00000KT 9000 SCT009 30/24 Q1012 NOSIG=  
08-Jun-2023 SAID35 WAGB 080300 METAR WAGB 080300Z 03003KT 9999 SCT010 31/24 Q1012 NOSIG=  
08-Jun-2023 SAID35 WAGB 080330 METAR WAGB 080330Z 18004KT 9999 SCT011 31/24 Q1011 NOSIG=  
08-Jun-2023 SAID35 WAGB 080400 METAR WAGB 080400Z 07003KT 9999 SCT011 32/24 Q1011 NOSIG=  
08-Jun-2023 SAID35 WAGB 080430 METAR WAGB 080430Z 00000KT 9999 BKN012 31/24 Q1010 NOSIG=  
08-Jun-2023 SAID35 WAGB 080500 METAR WAGB 080500Z 23006KT 9999 BKN012 32/24 Q1010 NOSIG=  
08-Jun-2023 SAID35 WAGB 080530 METAR WAGB 080530Z 29003KT 9999 BKN012 33/23 Q1009=  
08-Jun-2023 SAID35 WAGB 080600 METAR WAGB 080600Z 11003KT 9999 BKN013 32/23 Q1008 NOSIG=  
08-Jun-2023 SAID35 WAGB 080630 METAR WAGB 080630Z 00000KT 9999 BKN013 33/23 Q1007 NOSIG=  
08-Jun-2023 SAID35 WAGB 080700 METAR WAGB 080700Z 00000KT 9999 SCT013 33/23 Q1007 NOSIG=  
08-Jun-2023 SAID35 WAGB 080730 METAR WAGB 080730Z 00000KT 9999 SCT013 33/23 Q1007 NOSIG=  
08-Jun-2023 SAID35 WAGB 080800 METAR WAGB 080800Z 00000KT 9999 FEW013CB 34/25 Q1007 NOSIG=  
08-Jun-2023 SAID35 WAGB 080830 METAR WAGB 080830Z 00000KT 9999 FEW013CB 34/25 Q1007 NOSIG=  
08-Jun-2023 SAID35 WAGB 080900 METAR WAGB 080900Z 00000KT 9999 FEW013CB 34/25 Q1007=  
08-Jun-2023 SAID35 WAGB 080930 METAR WAGB 080930Z 00000KT 9999 FEW013CB 34/25 Q1008 NOSIG=  
08-Jun-2023 SAID35 WAGB 081000 METAR WAGB 081000Z 00000KT 9999 FEW013CB 32/26 Q1008 NOSIG=  
08-Jun-2023 SAID35 WAGB 081030 METAR WAGB 081030Z 00000KT 9999 FEW013CB 32/26 Q1008 NOSIG=  
08-Jun-2023 SAID35 WAGB 081100 METAR WAGB 081100Z 00000KT 9000 VCTS FEW013CB 31/25 Q1008=  
08-Jun-2023 SAID35 WAGB 081130 METAR WAGB 081130Z 00000KT 9000 VCTS FEW013CB 31/25 Q1009=  
08-Jun-2023 SAID35 WAGB 081200 METAR WAGB 081200Z 00000KT 9000 FEW014 29/25 Q1009=  
08-Jun-2023 SAID35 WAGB 081230 METAR WAGB 081230Z 00000KT 9000 FEW014 29/25 Q1009=  
08-Jun-2023 SAID35 WAGB 081300 METAR WAGB 081300Z 00000KT 8000 FEW013 28/26 Q1010=  
08-Jun-2023 SAID35 WAGB 081330 METAR WAGB 081330Z 00000KT 8000 FEW013 28/26 Q1011=  
08-Jun-2023 SAID35 WAGB 081400 METAR WAGB 081400Z 00000KT 8000 SCT013 28/25 Q1011=  
08-Jun-2023 SAID35 WAGB 081430 METAR WAGB 081430Z 00000KT 8000 SCT013 28/25 Q1011=  
08-Jun-2023 SAID35 WAGB 081500 METAR WAGB 081500Z 00000KT 8000 SCT013 27/25 Q1010=  
08-Jun-2023 SAID35 WAGB 081530 METAR WAGB 081530Z 00000KT 8000 SCT013 27/25 Q1010=  
08-Jun-2023 SAID35 WAGB 081600 METAR WAGB 081600Z 00000KT 7000 VCTS FEW011CB BKN012 27/25 Q1011=  
08-Jun-2023 SAID35 WAGB 081700 METAR WAGB 081700Z 34002KT 7000 VCTS FEW011CB SCT012 26/25 Q1010=  
08-Jun-2023 SAID35 WAGB 081730 METAR WAGB 081730Z 33003KT 7000 VCTS FEW011CB SCT012 26/25 Q1010=  
08-Jun-2023 SAID35 WAGB 081800 METAR WAGB 081800Z 00000KT 7000 VCTS FEW011CB SCT012 26/24 Q1010=  
08-Jun-2023 SAID35 WAGB 081830 METAR WAGB 081830Z 00000KT 7000 VCTS FEW011CB FEW012 25/24 Q1009=  
08-Jun-2023 SAID35 WAGB 081900 METAR WAGB 081900Z 00000KT 7000 VCTS FEW011CB FEW012 26/24 Q1009=  
08-Jun-2023 SAID35 WAGB 081930 METAR WAGB 081930Z 00000KT 7000 VCTS FEW011CB SCT012 26/24 Q1010=  
08-Jun-2023 SAID35 WAGB 082000 METAR WAGB 082000Z 00000KT 7000 VCTS FEW011CB SCT012 25/24 Q1010=  
08-Jun-2023 SAID35 WAGB 082030 METAR WAGB 082030Z 00000KT 7000 VCTS FEW011CB SCT012 25/24 Q1010=  
08-Jun-2023 SAID35 WAGB 082100 METAR WAGB 082100Z 00000KT 7000 VCTS FEW011CB SCT012 25/24 Q1010=  
08-Jun-2023 SAID35 WAGB 082130 METAR WAGB 082130Z 00000KT 7000 VCTS FEW011CB SCT012 25/24 Q1010=  
08-Jun-2023 SAID35 WAGB 082200 METAR WAGB 082200Z 00000KT 7000 SCT012 25/24 Q1010=  
08-Jun-2023 SAID35 WAGB 082230 METAR WAGB 082230Z 00000KT 7000 BKN011 25/24 Q1011=  
08-Jun-2023 SAID35 WAGB 082300 METAR WAGB 082300Z 00000KT 7000 BKN011 25/24 Q1011=  
08-Jun-2023 SAID35 WAGB 082330 METAR WAGB 082330Z 00000KT 7000 BKN011 25/24 Q1012=  
09-Jun-2023 SAID35 WAGB 090000 METAR WAGB 090000Z 00000KT 5000 VCSH BKN009 25/24 Q1012 NOSIG=  
09-Jun-2023 SAID35 WAGB 090030 METAR WAGB 090030Z 31003KT 5000 VCSH BKN009 25/24 Q1012 NOSIG=  
09-Jun-2023 SAID35 WAGB 090100 METAR WAGB 090100Z 32003KT 7000 BKN010 26/24 Q1012 NOSIG=  
09-Jun-2023 SAID35 WAGB 090130 METAR WAGB 090130Z 29003KT 7000 BKN010 27/24 Q1012 NOSIG=  
09-Jun-2023 SAID35 WAGB 090200 METAR WAGB 090200Z 26004KT 7000 BKN010 27/24 Q1012 NOSIG=  
09-Jun-2023 SAID35 WAGB 090230 METAR WAGB 090230Z 27004KT 7000 BKN010 27/24 Q1012 NOSIG=  
09-Jun-2023 SAID35 WAGB 090300 METAR WAGB 090300Z 28006KT 7000 BKN010 28/25 Q1012 NOSIG=  
09-Jun-2023 SAID35 WAGB 090330 METAR WAGB 090330Z 26005KT 7000 BKN010 28/25 Q1011 NOSIG=  
09-Jun-2023 SAID35 WAGB 090400 METAR WAGB 090400Z 28003KT 8000 BKN010 29/25 Q1010 NOSIG=  
09-Jun-2023 SAID35 WAGB 090430 METAR WAGB 090430Z 29004KT 8000 FEW010TCU BKN011 30/25 Q1010 NOSIG=  
09-Jun-2023 SAID35 WAGB 090500 METAR WAGB 090500Z 29004KT 7000 VCSH FEW010TCU BKN011 29/25 Q1010 NOSIG=  
09-Jun-2023 SAID35 WAGB 090530 METAR WAGB 090530Z 18004KT 7000 VCSH FEW010TCU BKN011 27/23 Q1009 NOSIG=  
09-Jun-2023 SAID35 WAGB 090600 METAR WAGB 090600Z 21005KT 7000 -RA FEW010TCU BKN011 26/23 Q1009 NOSIG=  
09-Jun-2023 SAID35 WAGB 090630 METAR WAGB 090630Z 18007KT 6000 -RA FEW010CB BKN011 24/23 Q1009 NOSIG=  
09-Jun-2023 SAID35 WAGB 090700 METAR WAGB 090700Z 35002KT 6000 -RA BKN011 25/23 Q1008 NOSIG=  
09-Jun-2023 SAID35 WAGB 090730 METAR WAGB 090730Z 00000KT 7000 BKN012 27/23 Q1008 RERA NOSIG=  
09-Jun-2023 SAID35 WAGB 090800 METAR WAGB 090800Z 17002KT 8000 SCT013 27/23 Q1007 NOSIG=  
09-Jun-2023 SAID35 WAGB 090830 METAR WAGB 090830Z 00000KT 9000 SCT013 29/25 Q1007 NOSIG=  
09-Jun-2023 SAID35 WAGB 090900 METAR WAGB 090900Z 23003KT 9999 FEW013CB SCT014 29/26 Q1008 RERA=  
09-Jun-2023 SAID35 WAGB 090930 METAR WAGB 090900Z 00000KT 9999 FEW013CB SCT014 29/26 Q1008 NOSIG=  
09-Jun-2023 SAID35 WAGB 091000 METAR WAGB 091000Z 00000KT 9999 FEW013CB SCT014 29/25 Q1008 NOSIG=  
09-Jun-2023 SAID35 WAGB 091030 METAR WAGB 091030Z 00000KT 9999 FEW013CB SCT014 29/25 Q1008 NOSIG=  
09-Jun-2023 SAID35 WAGB 091100 METAR WAGB 091100Z 00000KT 9000 FEW013CB SCT014 29/25 Q1008 NOSIG=  
09-Jun-2023 SAID35 WAGB 091130 METAR WAGB 091130Z 00000KT 9000 FEW013CB SCT014 29/25 Q1008 NOSIG=  
09-Jun-2023 SAID35 WAGB 091200 METAR WAGB 091200Z 00000KT 8000 VCTS FEW013CB SCT014 27/25 Q1009=  
09-Jun-2023 SAID35 WAGB 091230 METAR WAGB 091230Z 00000KT 8000 VCTS FEW013CB SCT014 27/25 Q1009=  
09-Jun-2023 SAID35 WAGB 091300 METAR WAGB 091300Z 00000KT 8000 VCTS FEW012CB SCT013 27/25 Q1010=  
09-Jun-2023 SAID35 WAGB 091330 METAR WAGB 091330Z 00000KT 8000 VCTS FEW012CB SCT013 27/25 Q1010=  
09-Jun-2023 SAID35 WAGB 091400 METAR WAGB 091400Z 00000KT 8000 VCTS FEW012CB SCT013 26/25 Q1011=  
09-Jun-2023 SAID35 WAGB 091430 METAR WAGB 091430Z 00000KT 8000 VCTS FEW012CB SCT013 26/25 Q1011=  
09-Jun-2023 SAID35 WAGB 091500 METAR WAGB 091500Z 00000KT 8000 VCTS FEW012CB SCT013 26/25 Q1010=  
09-Jun-2023 SAID35 WAGB 091530 METAR WAGB 091530Z 00000KT 8000 VCTS FEW012CB SCT013 26/25 Q1010=  
09-Jun-2023 SAID35 WAGB 091600 METAR WAGB 091600Z 00000KT 7000 BKN012 26/25 Q1010=  
09-Jun-2023 SAID35 WAGB 091630 METAR WAGB 091630Z 00000KT 7000 BKN012 26/25 Q1010=  
09-Jun-2023 SAID35 WAGB 091700 METAR WAGB 091700Z 00000KT 7000 BKN012 26/25 Q1009=  
09-Jun-2023 SAID35 WAGB 091730 METAR WAGB 091730Z 00000KT 7000 BKN012 26/25 Q1009=  
09-Jun-2023 SAID35 WAGB 091800 METAR WAGB 091800Z 00000KT 7000 BKN011 25/24 Q1009=  
09-Jun-2023 SAID35 WAGB 091830 METAR WAGB 091830Z 00000KT 7000 BKN011 25/24 Q1009=  
09-Jun-2023 SAID35 WAGB 091900 METAR WAGB 091900Z 00000KT 6000 BKN011 25/24 Q1009=  
09-Jun-2023 SAID35 WAGB 091930 METAR WAGB 091930Z 00000KT 6000 BKN011 25/24 Q1009=  
09-Jun-2023 SAID35 WAGB 092000 METAR WAGB 092000Z 00000KT 5000 HZ BKN010 25/24 Q1009=  
09-Jun-2023 SAID35 WAGB 092030 METAR WAGB 092030Z 00000KT 5000 HZ BKN010 25/24 Q1009=  
09-Jun-2023 SAID35 WAGB 092100 METAR WAGB 092100Z 00000KT 5000 HZ BKN010 24/24 Q1009=  
09-Jun-2023 SAID35 WAGB 092130 METAR WAGB 092130Z 00000KT 5000 HZ BKN010 24/24 Q1009=  
09-Jun-2023 SAID35 WAGB 092200 METAR WAGB 092200Z 00000KT 5000 HZ BKN010 25/24 Q1009=  
09-Jun-2023 SAID35 WAGB 092230 METAR WAGB 092230Z 00000KT 5000 HZ BKN010 25/24 Q1009=  
09-Jun-2023 SAID35 WAGB 092300 METAR WAGB 092300Z 00000KT 6000 SCT010 25/24 Q1010=  
09-Jun-2023 SAID35 WAGB 092330 METAR WAGB 092330Z 00000KT 6000 SCT010 25/24 Q1010=  
10-Jun-2023 SAID35 WAGB 100000 METAR WAGB 100000Z 04003KT 6000 SCT010 26/24 Q1010 NOSIG=  
10-Jun-2023 SAID35 WAGB 100030 METAR WAGB 100030Z 02004KT 7000 SCT010 27/25 Q1011 NOSIG=  
10-Jun-2023 SAID35 WAGB 100100 METAR WAGB 100100Z 01003KT 7000 SCT011 28/25 Q1011 NOSIG=  
10-Jun-2023 SAID35 WAGB 100130 CCA METAR WAGB 100130Z 05003KT 8000 SCT011 30/25 Q1011 NOSIG=  
10-Jun-2023 SAID35 WAGB 100130 METAR WAGB 100130Z 04003KT 8000 SCT011 30/25 Q1011 NOSIG=  
10-Jun-2023 SAID35 WAGB 100200 METAR WAGB 100200Z 32003KT 9000 SCT012 30/24 Q1011 NOSIG=  
10-Jun-2023 SAID35 WAGB 100230 METAR WAGB 100230Z 11003KT 9000 BKN012 31/24 Q1010 NOSIG=  
10-Jun-2023 SAID35 WAGB 100300 METAR WAGB 100300Z 19003KT 9999 BKN012 30/24 Q1010 NOSIG=  
10-Jun-2023 SAID35 WAGB 100330 METAR WAGB 100330Z 00000KT 9999 BKN012 31/24 Q1010 NOSIG=  
10-Jun-2023 SAID35 WAGB 100400 METAR WAGB 100400Z 28003KT 9999 SCT012 30/23 Q1009 NOSIG=  
10-Jun-2023 SAID35 WAGB 100430 METAR WAGB 100430Z 35003KT 9999 SCT012 32/24 Q1009 NOSIG=  
10-Jun-2023 SAID35 WAGB 100500 METAR WAGB 100500Z 00000KT 9999 BKN013 33/23 Q1008 NOSIG=  
10-Jun-2023 SAID35 WAGB 100530 METAR WAGB 100530Z 25004KT 9999 BKN013 32/23 Q1008 NOSIG=  
10-Jun-2023 SAID35 WAGB 100600 METAR WAGB 100600Z 00000KT 9999 BKN013 32/23 Q1007 NOSIG=  
10-Jun-2023 SAID35 WAGB 100630 METAR WAGB 100630Z 00000KT 9999 FEW013TCU BKN014 33/23 Q1007 NOSIG=  
10-Jun-2023 SAID35 WAGB 100700 METAR WAGB 100700Z 27003KT 9999 FEW013TCU BKN014 32/22 Q1007 NOSIG=  
10-Jun-2023 SAID35 WAGB 100730 METAR WAGB 100730Z 26002KT 9999 FEW013TCU BKN014 33/23 Q1006 NOSIG=  
10-Jun-2023 SAID35 WAGB 100800 METAR WAGB 100800Z 26002KT 9999 FEW013TCU BKN014 32/23 Q1006 NOSIG=  
10-Jun-2023 SAID35 WAGB 100830 METAR WAGB 100830Z 22003KT 9999 FEW013TCU BKN014 31/23 Q1006 NOSIG=  
10-Jun-2023 SAID35 WAGB 100900 METAR WAGB 100900Z 17002KT 9999 FEW013CB BKN014 31/24 Q1006 NOSIG=  
10-Jun-2023 SAID35 WAGB 100930 METAR WAGB 100930Z 00000KT 9999 FEW015TCU 33/24 Q1007=  
10-Jun-2023 SAID35 WAGB 101000 METAR WAGB 101000Z 22003KT 9999 FEW016TCU 31/25 Q1007 NOSIG=  
10-Jun-2023 SAID35 WAGB 101030 METAR WAGB 101030Z 00000KT 9999 FEW016TCU 30/25 Q1008 NOSIG=  
10-Jun-2023 SAID35 WAGB 101100 METAR WAGB 101100Z 0000KT 9000 FEW015CB 30/25 Q1008 NOSIG=  
10-Jun-2023 SAID35 WAGB 101130 METAR WAGB 101130Z 0000KT 9000 FEW015CB 29/25 Q1008 NOSIG=  
10-Jun-2023 SAID35 WAGB 101200 METAR WAGB 101200Z 00000KT 7000 FEW015 28/26 Q1009=  
10-Jun-2023 SAID35 WAGB 101230 METAR WAGB 101230Z 00000KT 7000 FEW015 28/26 Q1009=  
10-Jun-2023 SAID35 WAGB 101300 METAR WAGB 101300Z 00000KT 6000 SCT014 28/26 Q1010=  
10-Jun-2023 SAID35 WAGB 101330 METAR WAGB 101330Z 00000KT 6000 SCT014 28/26 Q1010=  
10-Jun-2023 SAID35 WAGB 101400 METAR WAGB 101400Z 00000KT 5000 SCT014 28/26 Q1010=  
10-Jun-2023 SAID35 WAGB 101430 METAR WAGB 101430Z 00000KT 5000 SCT014 28/26 Q1010=  
10-Jun-2023 SAID35 WAGB 101500 METAR WAGB 101500Z 00000KT 5000 HZ SCT013 27/25 Q1010=  
10-Jun-2023 SAID35 WAGB 101530 METAR WAGB 101530Z 00000KT 5000 HZ SCT013 27/25 Q1010=  
10-Jun-2023 SAID35 WAGB 101600 METAR WAGB 101600Z 00000KT 5000 HZ SCT013 26/25 Q1010=  
10-Jun-2023 SAID35 WAGB 101630 METAR WAGB 101630Z 00000KT 5000 HZ SCT012 26/25 Q1010=  
10-Jun-2023 SAID35 WAGB 101700 METAR WAGB 101700Z 00000KT 4500 BR SCT012 26/25 Q1009=  
10-Jun-2023 SAID35 WAGB 101730 METAR WAGB 101730Z 00000KT 4500 BR SCT012 26/25 Q1009=  
10-Jun-2023 SAID35 WAGB 101800 METAR WAGB 101800Z 00000KT 4000 BR SCT012 26/25 Q1009=  
10-Jun-2023 SAID35 WAGB 101830 METAR WAGB 101830Z 00000KT 4000 BR SCT012 26/25 Q1009=  
10-Jun-2023 SAID35 WAGB 101900 METAR WAGB 101900Z 00000KT 4000 BR SCT011 25/25 Q1008=  
10-Jun-2023 SAID35 WAGB 101930 METAR WAGB 101930Z 00000KT 4000 BR SCT011 25/25 Q1008=  
10-Jun-2023 SAID35 WAGB 102000 METAR WAGB 102000Z 00000KT 4000 BR SCT011 25/25 Q1008=  
10-Jun-2023 SAID35 WAGB 102030 METAR WAGB 102030Z 00000KT 4000 BR SCT011 25/25 Q1008=  
10-Jun-2023 SAID35 WAGB 102100 METAR WAGB 102100Z 00000KT 4000 BR SCT011 25/25 Q1008=  
10-Jun-2023 SAID35 WAGB 102130 METAR WAGB 102130Z 00000KT 4000 BR SCT011 25/25 Q1008=  
10-Jun-2023 SAID35 WAGB 102200 METAR WAGB 102200Z 00000KT 5000 SCT011 25/24 Q1009=  
10-Jun-2023 SAID35 WAGB 102230 METAR WAGB 102230Z 00000KT 5000 SCT011 25/24 Q1009=  
10-Jun-2023 SAID35 WAGB 102300 METAR WAGB 102300Z 00000KT 6000 SCT011 25/24 Q1009=  
10-Jun-2023 SAID35 WAGB 102330 METAR WAGB 102330Z 00000KT 6000 SCT011 25/24 Q1009=  
11-Jun-2023 SAID35 WAGB 110000 METAR WAGB 110000Z 00000KT 7000 FEW010 27/25 Q1010 NOSIG=  
11-Jun-2023 SAID35 WAGB 110030 METAR WAGB 110030Z 00000KT 7000 FEW010 27/25 Q1010 NOSIG=  
11-Jun-2023 SAID35 WAGB 110100 METAR WAGB 110100Z 00000KT 7000 BKN010 28/26 Q1010 NOSIG=  
11-Jun-2023 SAID35 WAGB 110130 METAR WAGB 110130Z 00000KT 7000 BKN010 28/26 Q1010 NOSIG=  
11-Jun-2023 SAID35 WAGB 110200 METAR WAGB 110200Z 00000KT 7000 BKN010 29/25 Q1010 NOSIG=  
11-Jun-2023 SAID35 WAGB 110230 METAR WAGB 110230Z 00000KT 7000 BKN010 29/25 Q1010 NOSIG=  
11-Jun-2023 SAID35 WAGB 110300 METAR WAGB 110300Z 35003KT 8000 BKN010 31/25 Q1009 NOSIG=  
11-Jun-2023 SAID35 WAGB 110330 METAR WAGB 110330Z 24003KT 9999 BKN010 30/25 Q1009 NOSIG=  
11-Jun-2023 SAID35 WAGB 110400 METAR WAGB 110400Z 24003KT 9000 VCSH FEW010TCU BKN011 30/25 Q1008=  
11-Jun-2023 SAID35 WAGB 110430 METAR WAGB 110430Z 26004KT 9999 FEW010TCU SCT011 31/25 Q1008 NOSIG=  
11-Jun-2023 SAID35 WAGB 110500 METAR WAGB 110500Z 26004KT 9999 FEW010TCU SCT011 31/25 Q1007 NOSIG=  
11-Jun-2023 SAID35 WAGB 110530 METAR WAGB 110530Z 00000KT 9999 FEW010TCU SCT011 33/23 Q1007 NOSIG=  
11-Jun-2023 SAID35 WAGB 110600 METAR WAGB 110600Z 00000KT 9999 FEW010TCU SCT011 34/23 Q1006 NOSIG=  
11-Jun-2023 SAID35 WAGB 110630 METAR WAGB 110630Z 00000KT 9999 SCT012 33/24 Q1007 NOSIG=  
11-Jun-2023 SAID35 WAGB 110700 METAR WAGB 110700Z 00000KT 9999 SCT014 34/25 Q1006 NOSIG=  
11-Jun-2023 SAID35 WAGB 110730 METAR WAGB 110730Z 00000KT 9999 SCT014 34/25 Q1006 NOSIG=  
11-Jun-2023 SAID35 WAGB 110800 METAR WAGB 110800Z 01003KT 9999 FEW015TCU 34/24 Q1006 NOSIG=  
11-Jun-2023 SAID35 WAGB 110830 METAR WAGB 110830Z VRB02KT 9999 FEW015TCU 34/24 Q1006 NOSIG=  
11-Jun-2023 SAID35 WAGB 110900 METAR WAGB 110900Z 25002KT 9999 FEW014TCU FEW015 34/25 Q1006 NOSIG=  
11-Jun-2023 SAID35 WAGB 110930 METAR WAGB 110930Z 00000KT 9999 FEW014TCU FEW015 34/25 Q1006 NOSIG=  
11-Jun-2023 SAID35 WAGB 111030 METAR WAGB 111030Z 00000KT 9999 FEW013CB SCT014 31/25 Q1007 NOSIG=  
11-Jun-2023 SAID35 WAGB 111100 METAR WAGB 111100Z 00000KT 9999 VCTS FEW013CB FEW014 31/26 Q1008=  
11-Jun-2023 SAID35 WAGB 111130 METAR WAGB 111130Z 06006KT 7000 TSRA FEW012CB BKN013 29/25 Q1009=  
11-Jun-2023 SAID35 WAGB 111200 METAR WAGB 111200Z 28004KT 8000 -TSRA FEW012CB 27/26 Q1009=  
11-Jun-2023 SAID35 WAGB 111230 METAR WAGB 111230Z 27004KT 7000 TS FEW012CB SCT013 27/26 Q1009 RERA=  
11-Jun-2023 SAID35 WAGB 111300 METAR WAGB 111300Z 00000KT 7000 FEW011CB SCT012 26/23 Q1009=  
11-Jun-2023 SAID35 WAGB 111330 METAR WAGB 111330Z 00000KT 7000 VCTS FEW011CB SCT012 26/23 Q1009=  
11-Jun-2023 SAID35 WAGB 111400 METAR WAGB 111400Z 00000KT 7000 VCTS FEW011CB SCT012 26/24 Q1010=  
11-Jun-2023 SAID35 WAGB 111430 METAR WAGB 111430Z 00000KT 7000 VCTS FEW011CB SCT012 26/24 Q1010=  
11-Jun-2023 SAID35 WAGB 111500 METAR WAGB 111500Z 00000KT 6000 TS FEW010CB BKN011 25/24 Q1010=  
11-Jun-2023 SAID35 WAGB 111530 METAR WAGB 111530Z 00000KT 6000 TS FEW010CB BKN011 25/24 Q1010=  
11-Jun-2023 SAID35 WAGB 111600 METAR WAGB 111600Z 00000KT 6000 VCTS FEW010CB SCT011 26/24 Q1010=  
11-Jun-2023 SAID35 WAGB 111630 METAR WAGB 111630Z 00000KT 6000 VCTS FEW010CB SCT011 26/24 Q1010=  
11-Jun-2023 SAID35 WAGB 111700 METAR WAGB 111700Z 00000KT 6000 SCT010 25/24 Q1010=  
11-Jun-2023 SAID35 WAGB 111730 METAR WAGB 111730Z 00000KT 6000 SCT010 25/24 Q1010=  
11-Jun-2023 SAID35 WAGB 111800 METAR WAGB 111800Z 00000KT 5000 -RA BKN010 25/24 Q1010=  
11-Jun-2023 SAID35 WAGB 111830 METAR WAGB 111830Z 00000KT 5000 -RA BKN010 25/24 Q1010=  
11-Jun-2023 SAID35 WAGB 111900 METAR WAGB 111900Z 30003KT 5000 VCSH BKN010 25/24 Q1010=  
11-Jun-2023 SAID35 WAGB 111930 METAR WAGB 111930Z 33004KT 5000 VCSH BKN010 25/24 Q1009=  
11-Jun-2023 SAID35 WAGB 112000 METAR WAGB 112000Z 00000KT 4000 BR SCT010 25/24 Q1010=  
11-Jun-2023 SAID35 WAGB 112030 METAR WAGB 112030Z 00000KT 4000 BR SCT010 25/24 Q1010=  
11-Jun-2023 SAID35 WAGB 112100 METAR WAGB 112100Z 00000KT 4000 BR SCT010 24/23 Q1010=  
11-Jun-2023 SAID35 WAGB 112130 METAR WAGB 112130Z 00000KT 4000 BR SCT010 24/23 Q1010=  
11-Jun-2023 SAID35 WAGB 112200 METAR WAGB 112200Z 00000KT 5000 BR BKN010 24/24 Q1011=  
11-Jun-2023 SAID35 WAGB 112230 METAR WAGB 112230Z 00000KT 5000 BR BKN010 24/24 Q1011=  
11-Jun-2023 SAID35 WAGB 112300 METAR WAGB 112300Z 00000KT 5000 HZ FEW010 24/23 Q1011=  
11-Jun-2023 SAID35 WAGB 112330 METAR WAGB 112330Z 00000KT 5000 HZ FEW010 24/23 Q1012=  
12-Jun-2023 SAID35 WAGB 120000 METAR WAGB 120000Z 00000KT 6000 SCT010 25/23 Q1012 NOSIG=  
12-Jun-2023 SAID35 WAGB 120030 METAR WAGB 120030Z 32004KT 9000 FEW010 26/23 Q1012 NOSIG=  
12-Jun-2023 SAID35 WAGB 120100 METAR WAGB 120100Z 03003KT 9000 FEW011 27/24 Q1012 NOSIG=  
12-Jun-2023 SAID35 WAGB 120130 METAR WAGB 120130Z 32004KT 9999 FEW011 28/24 Q1012 NOSIG=  
12-Jun-2023 SAID35 WAGB 120200 METAR WAGB 120200Z 27004KT 9999 FEW011 29/24 Q1012 NOSIG=  
12-Jun-2023 SAID35 WAGB 120230 METAR WAGB 120230Z 28004KT 9999 SCT011 29/24 Q1012 NOSIG=  
12-Jun-2023 SAID35 WAGB 120300 METAR WAGB 120300Z 33004KT 9999 SCT012 31/24 Q1011 NOSIG=  
12-Jun-2023 SAID35 WAGB 120330 METAR WAGB 120330Z 35002KT 9999 SCT012 31/24 Q1011 NOSIG=  
12-Jun-2023 SAID35 WAGB 120400 METAR WAGB 120400Z 24003KT 9999 SCT012 31/24 Q1010 NOSIG=  
12-Jun-2023 SAID35 WAGB 120430 METAR WAGB 120430Z 26006KT 9999 BKN013 32/25 Q1009 NOSIG=  
12-Jun-2023 SAID35 WAGB 120500 METAR WAGB 120500Z 24005KT 9999 BKN013 32/24 Q1009 NOSIG=  
12-Jun-2023 SAID35 WAGB 120530 METAR WAGB 120530Z 14003KT 9999 BKN013 32/24 Q1008 NOSIG=  
12-Jun-2023 SAID35 WAGB 120600 METAR WAGB 120600Z 19004KT 9999 BKN014 31/24 Q1008 NOSIG=  
12-Jun-2023 SAID35 WAGB 120630 METAR WAGB 120630Z 00000KT 9999 BKN014 32/24 Q1007 NOSIG=  
12-Jun-2023 SAID35 WAGB 120700 METAR WAGB 120700Z 00000KT 9999 BKN014 33/24 Q1007 NOSIG=  
12-Jun-2023 SAID35 WAGB 120730 METAR WAGB 120730Z 00000KT 9999 BKN014 33/24 Q1007 NOSIG=  
12-Jun-2023 SAID35 WAGB 120800 METAR WAGB 120800Z 00000KT 9999 BKN014 33/25 Q1007 NOSIG=  
12-Jun-2023 SAID35 WAGB 120830 METAR WAGB 120830Z 00000KT 9999 BKN014 33/25 Q1007 NOSIG=  
12-Jun-2023 SAID35 WAGB 120900 METAR WAGB 120900Z 00000KT 9999 FEW014 32/26 Q1007 NOSIG=  
12-Jun-2023 SAID35 WAGB 120930 METAR WAGB 120930Z 00000KT 9999 FEW014 31/26 Q1007 NOSIG=  
12-Jun-2023 SAID35 WAGB 121000 METAR WAGB 121000Z 00000KT 9000 FEW014TCU 31/26 Q1008 NOSIG=  
12-Jun-2023 SAID35 WAGB 121030 METAR WAGB 121030Z 00000KT 9000 FEW014TCU 30/26 Q1008 NOSIG=  
12-Jun-2023 SAID35 WAGB 121100 METAR WAGB 121100Z 00000KT 9000 FEW014TCU 30/26 Q1009 NOSIG=  
12-Jun-2023 SAID35 WAGB 121130 METAR WAGB 121130Z 00000KT 9000 FEW014TCU 29/26 Q1009 NOSIG=  
12-Jun-2023 SAID35 WAGB 121200 METAR WAGB 121200Z 00000KT 7000 VCTS FEW012CB 29/26 Q1009=  
12-Jun-2023 SAID35 WAGB 121230 METAR WAGB 121230Z 00000KT 7000 VCTS FEW012CB 29/26 Q1009=  
12-Jun-2023 SAID35 WAGB 121300 METAR WAGB 121300Z 00000KT 7000 VCTS FEW013CB 28/26 Q1010=  
12-Jun-2023 SAID35 WAGB 121330 METAR WAGB 121330Z 00000KT 7000 VCTS FEW013CB 28/26 Q1010=  
12-Jun-2023 SAID35 WAGB 121400 METAR WAGB 121400Z 00000KT 7000 VCTS FEW013CB 28/26 Q1010=  
12-Jun-2023 SAID35 WAGB 121430 METAR WAGB 121430Z 00000KT 7000 VCTS FEW013CB 28/26 Q1010=  
12-Jun-2023 SAID35 WAGB 121500 METAR WAGB 121500Z 00000KT 7000 VCTS FEW012CB SCT014 27/26 Q1010=  
12-Jun-2023 SAID35 WAGB 121530 METAR WAGB 121530Z 00000KT 7000 VCTS FEW012CB SCT014 27/26 Q1010=  
12-Jun-2023 SAID35 WAGB 121600 METAR WAGB 121600Z 00000KT 6000 VCTS FEW012CB SCT014 27/25 Q1010=  
12-Jun-2023 SAID35 WAGB 121630 METAR WAGB 121630Z 00000KT 6000 VCTS FEW012CB SCT014 27/25 Q1010=  
12-Jun-2023 SAID35 WAGB 121700 METAR WAGB 121700Z 00000KT 6000 VCTS FEW012CB 26/25 Q1010=  
12-Jun-2023 SAID35 WAGB 121730 METAR WAGB 121730Z 00000KT 6000 VCTS FEW012CB 26/25 Q1010=  
12-Jun-2023 SAID35 WAGB 121800 METAR WAGB 121800Z 00000KT 6000 VCTS FEW012CB 26/25 Q1010=  
12-Jun-2023 SAID35 WAGB 121830 METAR WAGB 121830Z 00000KT 6000 VCTS FEW012CB 26/25 Q1010=  
12-Jun-2023 SAID35 WAGB 121900 METAR WAGB 121900Z 00000KT 5000 VCTS FEW012CB 26/25 Q1009=  
12-Jun-2023 SAID35 WAGB 121930 METAR WAGB 121930Z 00000KT 5000 VCTS FEW012CB 26/25 Q1009=  
12-Jun-2023 SAID35 WAGB 122000 METAR WAGB 122000Z 00000KT 5000 VCTS FEW012CB 26/25 Q1009=  
12-Jun-2023 SAID35 WAGB 122030 METAR WAGB 122030Z 00000KT 5000 VCTS FEW012CB 26/25 Q1009=  
12-Jun-2023 SAID35 WAGB 122100 METAR WAGB 122100Z 00000KT 5000 BR BKN010 26/25 Q1010=  
12-Jun-2023 SAID35 WAGB 122130 METAR WAGB 122130Z 00000KT 5000 BR BKN010 26/25 Q1010=  
12-Jun-2023 SAID35 WAGB 122200 METAR WAGB 122200Z 00000KT 5000 BR BKN010 26/25 Q1011=  
12-Jun-2023 SAID35 WAGB 122230 METAR WAGB 122230Z 00000KT 5000 BR BKN010 26/25 Q1011=  
12-Jun-2023 SAID35 WAGB 122300 METAR WAGB 122300Z 00000KT 5000 BR SCT010 26/25 Q1011=  
12-Jun-2023 SAID35 WAGB 122330 METAR WAGB 122330Z 00000KT 5000 BR SCT010 26/25 Q1011=  
13-Jun-2023 SAID35 WAGB 130000 METAR WAGB 130000Z 00000KT 8000 SCT010 27/24 Q1011 NOSIG=  
13-Jun-2023 SAID35 WAGB 140000 METAR WAGB 130000Z 20003KT 5000 HZ FEW006 SCT009 26/25 Q1012 NOSIG=  
13-Jun-2023 SAID35 WAGB 130030 METAR WAGB 130030Z 02002KT 9999 FEW011 28/25 Q1011 NOSIG=  
13-Jun-2023 SAID35 WAGB 140030 METAR WAGB 130030Z 00000KT 5000 HZ FEW006 SCT010 26/25 Q1012 NOSIG=  
13-Jun-2023 SAID35 WAGB 130100 METAR WAGB 130100Z 03003KT 9999 FEW011 29/24 Q1011 NOSIG=  
13-Jun-2023 SAID35 WAGB 130130 METAR WAGB 130130Z 06004KT 9999 FEW011 29/24 Q1011 NOSIG=  
13-Jun-2023 SAID35 WAGB 130200 METAR WAGB 130200Z 00000KT 9999 FEW012 30/24 Q1010 NOSIG=  
13-Jun-2023 SAID35 WAGB 130230 METAR WAGB 130230Z 00000KT 9999 SCT013 31/24 Q1010 NOSIG=  
13-Jun-2023 SAID35 WAGB 130300 METAR WAGB 130300Z 12002KT 9999 SCT013 31/24 Q1010 NOSIG=  
13-Jun-2023 SAID35 WAGB 130330 METAR WAGB 130330Z 02003KT 9999 SCT013 31/24 Q1010 NOSIG=  
13-Jun-2023 SAID35 WAGB 130400 METAR WAGB 130400Z 09004KT 9999 BKN013 32/24 Q1009 NOSIG=  
13-Jun-2023 SAID35 WAGB 130430 METAR WAGB 130430Z 13004KT 9999 BKN013 32/24 Q1009 NOSIG=  
13-Jun-2023 SAID35 WAGB 130500 METAR WAGB 130500Z 34003KT 9999 BKN013 32/25 Q1008 NOSIG=  
13-Jun-2023 SAID35 WAGB 130530 METAR WAGB 130530Z 07004KT 9999 BKN013 32/25 Q1008 NOSIG=  
13-Jun-2023 SAID35 WAGB 130600 METAR WAGB 130600Z 06003KT 9999 BKN014 34/24 Q1008 NOSIG=  
13-Jun-2023 SAID35 WAGB 130630 METAR WAGB 130630Z 00000KT 9999 BKN014 34/26 Q1007 NOSIG=  
13-Jun-2023 SAID35 WAGB 130700 METAR WAGB 130700Z 02004KT 9999 BKN014 34/24 Q1007 NOSIG=  
13-Jun-2023 SAID35 WAGB 130730 METAR WAGB 130730Z 00000KT 9999 BKN014 34/26 Q1006 NOSIG=  
13-Jun-2023 SAID35 WAGB 130800 METAR WAGB 130800Z 00000KT 9999 BKN014 34/26 Q1006 NOSIG=  
13-Jun-2023 SAID35 WAGB 130900 METAR WAGB 130900Z 08003KT 9999 FEW014CB SCT015 34/25 Q1007 NOSIG=  
13-Jun-2023 SAID35 WAGB 130930 METAR WAGB 130930Z 00000KT 9999 FEW014CB SCT015 33/24 Q1007 NOSIG=  
13-Jun-2023 SAID35 WAGB 131000 METAR WAGB 131000Z 00000KT 9999 FEW013CB FEW014 32/26 Q1007=  
13-Jun-2023 SAID35 WAGB 131030 METAR WAGB 131030Z 00000KT 9999 FEW013CB FEW014 32/26 Q1008 NOSIG=  
13-Jun-2023 SAID35 WAGB 131100 METAR WAGB 131100Z 00000KT 9999 FEW013CB FEW014 30/26 Q1009 NOSIG=  
13-Jun-2023 SAID35 WAGB 131130 METAR WAGB 131130Z 07004KT 8000 -RA FEW013CB SCT014 30/25 Q1009 NOSIG=  
13-Jun-2023 SAID35 WAGB 131200 METAR WAGB 131200Z 00000KT 7000 FEW012CB BKN013 28/28 Q1009 RERA=  
13-Jun-2023 SAID35 WAGB 131230 METAR WAGB 131230Z 03003KT 7000 BKN013 28/28 Q1010 NOSIG=  
13-Jun-2023 SAID35 WAGB 131300 METAR WAGB 131300Z 00000KT 8000 SCT013 28/26 Q1010 NOSIG=  
13-Jun-2023 SAID35 WAGB 131400 METAR WAGB 131400Z 00000KT 8000 FEW012 27/25 Q1011 NOSIG=  
13-Jun-2023 SAID35 WAGB 131430 METAR WAGB 131430Z 00000KT 8000 FEW012 27/25 Q1011 NOSIG=  
13-Jun-2023 SAID35 WAGB 131500 METAR WAGB 131500Z 00000KT 8000 FEW012 27/25 Q1011 NOSIG=  
13-Jun-2023 SAID35 WAGB 131530 METAR WAGB 131530Z 00000KT 8000 FEW012 27/25 Q1011 NOSIG=  
13-Jun-2023 SAID35 WAGB 131600 METAR WAGB 131600Z 00000KT 8000 FEW012 26/25 Q1010=  
13-Jun-2023 SAID35 WAGB 131630 METAR WAGB 131630Z 00000KT 8000 FEW012 26/25 Q1010=  
13-Jun-2023 SAID35 WAGB 131700 METAR WAGB 131700Z 00000KT 7000 FEW012 26/25 Q1010=  
13-Jun-2023 SAID35 WAGB 131730 METAR WAGB 131730Z 00000KT 7000 FEW012 26/25 Q1010=  
13-Jun-2023 SAID35 WAGB 131800 METAR WAGB 131800Z 00000KT 7000 FEW012 25/25 Q1010=  
13-Jun-2023 SAID35 WAGB 131830 METAR WAGB 131830Z 00000KT 7000 FEW012 25/25 Q1010=  
13-Jun-2023 SAID35 WAGB 131900 METAR WAGB 131900Z 00000KT 7000 FEW012 25/25 Q1009=  
13-Jun-2023 SAID35 WAGB 131930 METAR WAGB 131930Z 00000KT 7000 FEW012 25/25 Q1009=  
13-Jun-2023 SAID35 WAGB 132000 METAR WAGB 132000Z 00000KT 7000 FEW011 25/24 Q1010=  
13-Jun-2023 SAID35 WAGB 132030 METAR WAGB 132030Z 00000KT 7000 FEW011 25/24 Q1010=  
13-Jun-2023 SAID35 WAGB 132100 METAR WAGB 132100Z 00000KT 7000 FEW011 25/24 Q1010=  
13-Jun-2023 SAID35 WAGB 132130 METAR WAGB 132130Z 00000KT 7000 FEW011 25/24 Q1010=  
13-Jun-2023 SAID35 WAGB 132200 METAR WAGB 132200Z 00000KT 8000 FEW011 25/24 Q1011=  
13-Jun-2023 SAID35 WAGB 132230 METAR WAGB 132230Z 00000KT 8000 FEW011 25/24 Q1011=  
13-Jun-2023 SAID35 WAGB 132300 METAR WAGB 132300Z 00000KT 8000 FEW010 25/24 Q1011=  
13-Jun-2023 SAID35 WAGB 132330 METAR WAGB 132330Z 00000KT 8000 FEW010 25/24 Q1012=  
14-Jun-2023 SAID35 WAGB 140000 METAR WAGB 140000Z 20003KT 5000 HZ FEW006 SCT009 26/25 Q1012 NOSIG=  
14-Jun-2023 SAID35 WAGB 140030 METAR WAGB 140030Z 00000KT 5000 HZ FEW006 SCT010 26/25 Q1012 NOSIG=  
14-Jun-2023 SAID35 WAGB 140100 METAR WAGB 140100Z 04004KT 6000 BKN009 27/25 Q1012 NOSIG=  
14-Jun-2023 SAID35 WAGB 140130 METAR WAGB 140130Z VRB02KT 7000 SCT010 28/25 Q1012 NOSIG=  
14-Jun-2023 SAID35 WAGB 140200 METAR WAGB 140200Z VRB02KT 8000 SCT010 29/25 Q1012 NOSIG=  
14-Jun-2023 SAID35 WAGB 140230 METAR WAGB 140230Z 00000KT 9000 FEW010 30/25 Q1011 NOSIG=  
14-Jun-2023 SAID35 WAGB 140300 METAR WAGB 140300Z 00000KT 9000 FEW011 30/25 Q1011 NOSIG=  
14-Jun-2023 SAID35 WAGB 140330 METAR WAGB 140330Z 00000KT 9000 BKN011 30/25 Q1011 NOSIG=  
14-Jun-2023 SAID35 WAGB 140400 METAR WAGB 140400Z 00000KT 9000 VCSH BKN011 31/25 Q1010=  
14-Jun-2023 SAID35 WAGB 140430 METAR WAGB 140430Z 00000KT 9000 VCSH BKN011 31/24 Q1010=  
14-Jun-2023 SAID35 WAGB 140500 METAR WAGB 140500Z 00000KT 9000 VCSH BKN011 31/24 Q1010=  
14-Jun-2023 SAID35 WAGB 140530 METAR WAGB 140530Z 00000KT 9999 BKN011 31/24 Q1009 NOSIG=  
14-Jun-2023 SAID35 WAGB 140600 METAR WAGB 140600Z 00000KT 9000 VCSH BKN011 32/25 Q1008=  
14-Jun-2023 SAID35 WAGB 140630 METAR WAGB 140630Z 00000KT 9000 VCSH FEW011TCU BKN013 32/24 Q1008=  
14-Jun-2023 SAID35 WAGB 140700 METAR WAGB 140700Z 00000KT 9999 FEW013TCU SCT014 33/25 Q1007 NOSIG=  
14-Jun-2023 SAID35 WAGB 140730 METAR WAGB 140730Z 00000KT 9999 FEW013TCU SCT014 33/25 Q1007 NOSIG=  
14-Jun-2023 SAID35 WAGB 140800 METAR WAGB 140800Z 04003KT 9999 FEW013TCU SCT014 33/24 Q1007 NOSIG=  
14-Jun-2023 SAID35 WAGB 140830 METAR WAGB 140830Z 00000KT 9999 FEW013TCU SCT014 33/24 Q1007 NOSIG=  
14-Jun-2023 SAID35 WAGB 140830 CCA METAR WAGB 140830Z 05003KT 9999 FEW013TCU SCT014 33/24 Q1007 NOSIG=  
14-Jun-2023 SAID35 WAGB 140900 METAR WAGB 140900Z 00000KT 9999 FEW013CB BKN014 33/25 Q1008 NOSIG=  
14-Jun-2023 SAID35 WAGB 140930 METAR WAGB 140930Z 00000KT 9999 FEW013CB BKN014 32/25 Q1008 NOSIG=  
14-Jun-2023 SAID35 WAGB 141000 METAR WAGB 141000Z 00000KT 9999 TS FEW013CB BKN014 32/26 Q1008=  
14-Jun-2023 SAID35 WAGB 141030 METAR WAGB 141030Z 00000KT 9999 FEW013CB BKN014 31/25 Q1009 NOSIG=  
14-Jun-2023 SAID35 WAGB 141100 METAR WAGB 141100Z 00000KT 9999 FEW013CB SCT014 30/26 Q1009 NOSIG=  
14-Jun-2023 SAID35 WAGB 141130 METAR WAGB 141130Z 00000KT 9000 FEW013CB SCT014 30/25 Q1009 NOSIG=  
14-Jun-2023 SAID35 WAGB 141200 METAR WAGB 141200Z 00000KT 8000 FEW012CB SCT013 29/25 Q1010=  
14-Jun-2023 SAID35 WAGB 141230 METAR WAGB 141230Z 00000KT 8000 FEW012CB SCT013 29/25 Q1010=  
14-Jun-2023 SAID35 WAGB 141300 METAR WAGB 141300Z 00000KT 8000 FEW012CB SCT013 28/25 Q1010=  
14-Jun-2023 SAID35 WAGB 141330 METAR WAGB 141330Z 00000KT 8000 FEW012CB SCT013 28/25 Q1011=  
14-Jun-2023 SAID35 WAGB 141400 METAR WAGB 141400Z 00000KT 6000 TS FEW012CB SCT013 28/25 Q1012=  
14-Jun-2023 SAID35 WAGB 141430 METAR WAGB 141430Z 00000KT 6000 -TSRA FEW012CB SCT013 28/25 Q1012=  
14-Jun-2023 SAID35 WAGB 141500 METAR WAGB 141500Z 19003KT 3000 -TSRA FEW011CB BKN012 26/25 Q1012=  
14-Jun-2023 SAID35 WAGB 141530 METAR WAGB 141530Z 20003KT 3000 -TSRA FEW011CB BKN012 26/25 Q1012=  
14-Jun-2023 SAID35 WAGB 141600 METAR WAGB 141600Z 00000KT 3000 -TSRA FEW011CB BKN012 26/25 Q1012=  
14-Jun-2023 SAID35 WAGB 141630 METAR WAGB 141630Z 00000KT 3000 -TSRA FEW011CB BKN012 26/25 Q1012=  
14-Jun-2023 SAID35 WAGB 141700 METAR WAGB 141700Z 00000KT 3000 -RA FEW011CB BKN012 26/25 Q1012 RETS=  
14-Jun-2023 SAID35 WAGB 141730 METAR WAGB 141730Z 00000KT 3000 -RA FEW011CB BKN012 26/25 Q1012=  
14-Jun-2023 SAID35 WAGB 141800 METAR WAGB 141800Z 00000KT 3000 -RA FEW010CB BKN011 25/24 Q1012=  
14-Jun-2023 SAID35 WAGB 141830 METAR WAGB 141830Z 00000KT 3000 -RA FEW010CB BKN011 25/24 Q1011=  
14-Jun-2023 SAID35 WAGB 141900 METAR WAGB 141900Z 00000KT 3000 -RA FEW010CB BKN011 24/24 Q1011=  
14-Jun-2023 SAID35 WAGB 141930 METAR WAGB 141930Z 00000KT 3000 -RA FEW010CB BKN011 24/24 Q1011=  
14-Jun-2023 SAID35 WAGB 142000 METAR WAGB 142000Z 00000KT 3000 BR BKN011 24/24 Q1011 RERA=  
14-Jun-2023 SAID35 WAGB 142030 METAR WAGB 142030Z 00000KT 3000 BR BKN011 24/24 Q1011=  
14-Jun-2023 SAID35 WAGB 142100 METAR WAGB 142100Z 00000KT 3000 BR BKN010 24/24 Q1011=  
14-Jun-2023 SAID35 WAGB 142130 METAR WAGB 142130Z 00000KT 3000 BR BKN010 24/24 Q1011=  
14-Jun-2023 SAID35 WAGB 142200 METAR WAGB 142200Z 00000KT 4000 BR BKN010 24/24 Q1011=  
14-Jun-2023 SAID35 WAGB 142230 METAR WAGB 142230Z 00000KT 4000 BR BKN010 24/24 Q1011=  
14-Jun-2023 SAID35 WAGB 142300 METAR WAGB 142300Z 00000KT 6000 FEW010 24/23 Q1012=  
14-Jun-2023 SAID35 WAGB 142330 METAR WAGB 142330Z 00000KT 6000 FEW010 24/23 Q1012=  
15-Jun-2023 SAID35 WAGB 150000 METAR WAGB 150000Z 00000KT 6000 BKN010 24/23 Q1012 NOSIG=  
15-Jun-2023 SAID35 WAGB 150030 METAR WAGB 150030Z 00000KT 6000 BKN010 25/24 Q1012 NOSIG=  
15-Jun-2023 SAID35 WAGB 150100 CCA METAR WAGB 150100Z 00000KT 7000 BKN011 26/24 Q1012 NOSIG=  
15-Jun-2023 SAID35 WAGB 150100 METAR WAGB 150100Z 00000KT 7000 BKN011 26/23 Q1012 NOSIG=  
15-Jun-2023 SAID35 WAGB 150130 METAR WAGB 150120Z VRB02KT 7000 SCT011 27/24 Q1012 NOSIG=  
15-Jun-2023 SAID35 WAGB 150130 CCA METAR WAGB 150130Z VRB02KT 7000 SCT011 27/24 Q1012 NOSIG=  
15-Jun-2023 SAID35 WAGB 150200 METAR WAGB 150200Z 21003KT 8000 SCT011 27/23 Q1012 NOSIG=  
15-Jun-2023 SAID35 WAGB 150230 METAR WAGB 150230Z 22004KT 8000 SCT011 28/23 Q1011 NOSIG=  
15-Jun-2023 SAID35 WAGB 150300 METAR WAGB 150300Z 21003KT 9000 SCT011 28/23 Q1011 NOSIG=  
15-Jun-2023 SAID35 WAGB 150330 METAR WAGB 150330Z VRB02KT 9000 BKN011 28/23 Q1011 NOSIG=  
15-Jun-2023 SAID35 WAGB 150400 METAR WAGB 150400Z 00000KT 9000 SCT011 29/24 Q1011 NOSIG=  
15-Jun-2023 SAID35 WAGB 150430 METAR WAGB 150430Z 25003KT 9000 SCT011 29/22 Q1010 NOSIG=  
15-Jun-2023 SAID35 WAGB 150500 METAR WAGB 150500Z 00000KT 9999 SCT012 30/23 Q1010 NOSIG=  
15-Jun-2023 SAID35 WAGB 150530 METAR WAGB 150530Z 00000KT 9999 SCT012 30/23 Q1010 NOSIG=  
15-Jun-2023 SAID35 WAGB 150600 METAR WAGB 150600Z 16003KT 9999 SCT012 30/23 Q1010 NOSIG=  
15-Jun-2023 SAID35 WAGB 150630 METAR WAGB 150630Z 25005KT 9999 SCT013 31/23 Q1009 NOSIG=  
15-Jun-2023 SAID35 WAGB 150700 METAR WAGB 150700Z 26005KT 9999 SCT013 31/23 Q1008 NOSIG=  
15-Jun-2023 SAID35 WAGB 150730 METAR WAGB 150730Z 19003KT 9999 SCT014 31/23 Q1008 NOSIG=  
15-Jun-2023 SAID35 WAGB 150800 METAR WAGB 150800Z 24004KT 9999 SCT014 31/23 Q1008 NOSIG=  
15-Jun-2023 SAID35 WAGB 150830 METAR WAGB 150830Z 33002KT 9999 SCT014 31/23 Q1008 NOSIG=  
15-Jun-2023 SAID35 WAGB 150900 METAR WAGB 150900Z 26002KT 9999 SCT014 30/23 Q1008 NOSIG=  
15-Jun-2023 SAID35 WAGB 150930 METAR WAGB 150930Z 00000KT 9999 FEW014TCU SCT015 31/25 Q1008=  
15-Jun-2023 SAID35 WAGB 151000 METAR WAGB 151000Z 00000KT 9999 FEW014TCU SCT015 31/25 Q1009 NOSIG=  
15-Jun-2023 SAID35 WAGB 151030 METAR WAGB 151030Z 00000KT 9999 FEW014TCU SCT015 31/25 Q1009 NOSIG=  
15-Jun-2023 SAID35 WAGB 151100 METAR WAGB 151100Z 00000KT 9999 FEW012CB BKN013 29/25 Q1010 NOSIG=  
15-Jun-2023 SAID35 WAGB 151200 METAR WAGB 151200Z 00000KT 8000 BKN012 27/24 Q1011=  
15-Jun-2023 SAID35 WAGB 151300 METAR WAGB 151300Z 00000KT 8000 BKN012 27/24 Q1011=  
15-Jun-2023 SAID35 WAGB 151330 METAR WAGB 151330Z 00000KT 8000 BKN012 27/24 Q1011=  
15-Jun-2023 SAID35 WAGB 151400 METAR WAGB 151400Z 00000KT 8000 BKN012 27/24 Q1011=  
15-Jun-2023 SAID35 WAGB 151430 METAR WAGB 151430Z 00000KT 8000 BKN012 27/24 Q1012=  
15-Jun-2023 SAID35 WAGB 151500 METAR WAGB 151500Z 00000KT 8000 BKN012 26/25 Q1012=  
15-Jun-2023 SAID35 WAGB 151530 METAR WAGB 151530Z 00000KT 8000 BKN012 26/25 Q1012=  
15-Jun-2023 SAID35 WAGB 151600 METAR WAGB 151600Z 00000KT 7000 BKN011 26/24 Q1012=  
15-Jun-2023 SAID35 WAGB 151630 METAR WAGB 151630Z 00000KT 7000 BKN011 26/24 Q1012=  
15-Jun-2023 SAID35 WAGB 151700 METAR WAGB 151700Z 00000KT 7000 BKN011 26/24 Q1011=  
15-Jun-2023 SAID35 WAGB 151730 METAR WAGB 151730Z 00000KT 7000 BKN011 26/24 Q1011=  
15-Jun-2023 SAID35 WAGB 151800 METAR WAGB 151800Z 00000KT 6000 BKN011 25/24 Q1011=  
15-Jun-2023 SAID35 WAGB 151830 METAR WAGB 151830Z 00000KT 6000 BKN011 25/24 Q1011=  
15-Jun-2023 SAID35 WAGB 151900 METAR WAGB 151900Z 00000KT 4000 BR BKN009 25/24 Q1011=  
15-Jun-2023 SAID35 WAGB 151930 METAR WAGB 151930Z 00000KT 4000 BR BKN009 25/24 Q1011=  
15-Jun-2023 SAID35 WAGB 152000 METAR WAGB 152000Z 00000KT 3000 BR BKN009 25/25 Q1011=  
15-Jun-2023 SAID35 WAGB 152030 METAR WAGB 152030Z 00000KT 3000 BR BKN009 25/25 Q1011=  
15-Jun-2023 SAID35 WAGB 152100 METAR WAGB 152100Z 00000KT 3000 BR BKN009 25/24 Q1011=  
15-Jun-2023 SAID35 WAGB 152130 METAR WAGB 152130Z 00000KT 3000 BR BKN009 25/24 Q1011=  
15-Jun-2023 SAID35 WAGB 152200 METAR WAGB 152200Z 00000KT 5000 BR BKN009 25/24 Q1011=  
15-Jun-2023 SAID35 WAGB 152230 METAR WAGB 152230Z 00000KT 5000 BR BKN009 25/24 Q1011=  
15-Jun-2023 SAID35 WAGB 152300 METAR WAGB 152300Z 00000KT 5000 BR SCT009 25/24 Q1012=  
15-Jun-2023 SAID35 WAGB 152330 METAR WAGB 152330Z 00000KT 5000 SCT009 25/24 Q1012=  
16-Jun-2023 SAID35 WAGB 160000 METAR WAGB 160000Z 00000KT 6000 FEW010 26/24 Q1012 NOSIG=  
16-Jun-2023 SAID35 WAGB 160030 METAR WAGB 160030Z 00000KT 7000 FEW010 27/24 Q1012 NOSIG=  
16-Jun-2023 SAID35 WAGB 160100 METAR WAGB 160100Z 08002KT 7000 SCT011 28/25 Q1012 NOSIG=  
16-Jun-2023 SAID35 WAGB 160130 METAR WAGB 160130Z 00000KT 8000 SCT011 29/24 Q1012 NOSIG=  
16-Jun-2023 SAID35 WAGB 160200 METAR WAGB 160200Z 06002KT 8000 SCT011 30/25 Q1011 NOSIG=  
16-Jun-2023 SAID35 WAGB 160230 METAR WAGB 160230Z 00000KT 8000 BKN011 29/24 Q1011 NOSIG=  
16-Jun-2023 SAID35 WAGB 160300 METAR WAGB 160300Z 00000KT 9999 BKN012 30/24 Q1011 NOSIG=  
16-Jun-2023 SAID35 WAGB 160330 METAR WAGB 160330Z 00000KT 9999 BKN012 30/24 Q1011 NOSIG=  
16-Jun-2023 SAID35 WAGB 160400 METAR WAGB 160400Z 02002KT 9999 BKN012 30/24 Q1010 NOSIG=  
16-Jun-2023 SAID35 WAGB 160430 METAR WAGB 160430Z 00000KT 9999 FEW011TCU BKN012 31/24 Q1010 NOSIG=  
16-Jun-2023 SAID35 WAGB 160500 METAR WAGB 160500Z 21002KT 9999 FEW012TCU BKN013 31/24 Q1009 NOSIG=  
16-Jun-2023 SAID35 WAGB 160530 METAR WAGB 160530Z 22005KT 9999 FEW012TCU BKN013 31/24 Q1009 NOSIG=  
16-Jun-2023 SAID35 WAGB 160600 METAR WAGB 160600Z 22004KT 9999 FEW012TCU SCT013 32/24 Q1008 NOSIG=  
16-Jun-2023 SAID35 WAGB 160630 METAR WAGB 160630Z 00000KT 6000 SCT014TCU SCT015 28/24 Q1009 RERA=  
16-Jun-2023 SAID35 WAGB 160700 METAR WAGB 160700Z 25005KT 9000 FEW014TCU 31/27 Q1007 NOSIG=  
16-Jun-2023 SAID35 WAGB 160800 METAR WAGB 160800Z 26003KT 9999 FEW014CB 32/25 Q1007 NOSIG=  
16-Jun-2023 SAID35 WAGB 160830 METAR WAGB 160830Z 00000KT 9999 FEW014CB 32/25 Q1007 NOSIG=  
16-Jun-2023 SAID35 WAGB 160900 METAR WAGB 160900Z 00000KT 9999 FEW014CB SCT015 32/26 Q1007 NOSIG=  
16-Jun-2023 SAID35 WAGB 160930 METAR WAGB 160930Z 00000KT 9999 FEW014CB FEW015 31/25 Q1007 NOSIG=  
16-Jun-2023 SAID35 WAGB 161000 METAR WAGB 161000Z 00000KT 9999 FEW014CB SCT015 31/26 Q1008 NOSIG=  
16-Jun-2023 SAID35 WAGB 161100 METAR WAGB 161100Z 00000KT 9999 FEW014CB FEW015 29/25 Q1009 NOSIG=  
16-Jun-2023 SAID35 WAGB 161130 METAR WAGB 161130Z 00000KT 9999 FEW013CB FEW014 29/25 Q1009 NOSIG=  
16-Jun-2023 SAID35 WAGB 161200 METAR WAGB 161200Z 00000KT 8000 FEW013CB SCT014 29/26 Q1010=  
16-Jun-2023 SAID35 WAGB 161230 METAR WAGB 161230Z 00000KT 8000 FEW013CB SCT014 29/26 Q1010=  
16-Jun-2023 SAID35 WAGB 161300 METAR WAGB 161300Z 06003KT 7000 FEW013CB SCT014 28/26 Q1011=  
16-Jun-2023 SPID33 WAGB 161307 CCA SPECI WAGB 161307Z 06003KT 6000 FEW012CB BKN013 28/26 Q1011=  
16-Jun-2023 SPID33 WAGB 161310 SPECI WAGB 161310Z 06003KT 6000 FEW012CB BKN013 28/26 Q1011=  
16-Jun-2023 SAID35 WAGB 161330 METAR WAGB 161330Z 06004KT 6000 -RA FEW012CB BKN013 28/26 Q1011=  
16-Jun-2023 SAID35 WAGB 161400 METAR WAGB 161400Z 00000KT 5000 -RA FEW012CB BKN013 26/25 Q1011=  
16-Jun-2023 SAID35 WAGB 161430 METAR WAGB 161430Z 00000KT 5000 -RA FEW012CB BKN013 26/25 Q1011=  
16-Jun-2023 SAID35 WAGB 161500 METAR WAGB 161500Z 00000KT 5000 -RA FEW012CB BKN013 26/25 Q1011=  
16-Jun-2023 SAID35 WAGB 161530 METAR WAGB 161530Z 00000KT 5000 VCSH FEW012CB BKN013 26/25 Q1011 RERA=  
16-Jun-2023 SAID35 WAGB 161600 METAR WAGB 161600Z 04003KT 5000 VCSH BKN011 26/25 Q1011=  
16-Jun-2023 SAID35 WAGB 161630 METAR WAGB 161630Z 03003KT 5000 VCSH BKN011 26/25 Q1011=  
16-Jun-2023 SAID35 WAGB 161700 METAR WAGB 161700Z 00000KT 5000 VCSH BKN011 26/25 Q1011=  
16-Jun-2023 SAID35 WAGB 161730 METAR WAGB 161730Z 00000KT 5000 VCSH BKN011 26/25 Q1011=  
16-Jun-2023 SAID35 WAGB 161800 METAR WAGB 161800Z 00000KT 5000 VCSH BKN010 25/25 Q1011=  
16-Jun-2023 SAID35 WAGB 161830 METAR WAGB 161830Z 00000KT 5000 VCSH BKN010 25/25 Q1011=  
16-Jun-2023 SPID33 WAGB 161848 CCA SPECI WAGB 161848Z 27003KT 4000 -RA BKN010 25/25 Q1011=  
16-Jun-2023 SPID33 WAGB 161848 SPECI WAGB 161848Z 27003KT 4000 -RA BKN010 25/25 Q1011=  
16-Jun-2023 SAID35 WAGB 161900 METAR WAGB 161900Z 24006KT 4000 -RA BKN010 25/23 Q1011=  
16-Jun-2023 SAID35 WAGB 161900 CCA METAR WAGB 161900Z 24006KT 4000 -RA FEW009CB BKN010 25/23 Q1011=  
16-Jun-2023 SAID35 WAGB 161930 METAR WAGB 161930Z 00000KT 4000 -RA FEW009CB BKN010 25/23 Q1011=  
16-Jun-2023 SAID35 WAGB 162000 METAR WAGB 162000Z 28004KT 4000 -RA FEW009CB BKN010 24/23 Q1011=  
16-Jun-2023 SAID35 WAGB 162000 CCA METAR WAGB 162000Z 28004KT 4000 RA FEW009CB BKN010 24/23 Q1011=  
16-Jun-2023 SAID35 WAGB 162030 METAR WAGB 162030Z 00000KT 4000 RA FEW009CB BKN010 24/23 Q1011=  
16-Jun-2023 SAID35 WAGB 162030 CCA METAR WAGB 162030Z 23005KT 4000 -TSRA FEW009CB BKN010 24/23 Q1011=  
16-Jun-2023 SAID35 WAGB 162100 METAR WAGB 162100Z 24005KT 3000 -TSRA FEW009CB BKN010 23/23 Q1011=  
16-Jun-2023 SAID35 WAGB 162130 METAR WAGB 162130Z 00000KT 3000 -TSRA FEW009CB BKN010 23/23 Q1011=  
16-Jun-2023 SAID35 WAGB 162200 METAR WAGB 162200Z 19003KT 3000 -TSRA FEW009CB BKN010 23/23 Q1012=  
16-Jun-2023 SAID35 WAGB 162230 METAR WAGB 162230Z 00000KT 3000 -TSRA FEW009CB BKN010 23/23 Q1012=  
16-Jun-2023 SAID35 WAGB 162300 CCA METAR WAGB 162300Z 00000KT 3000 -RA FEW009CB BKN010 24/23 Q1013 RETS=  
16-Jun-2023 SAID35 WAGB 162300 METAR WAGB 162300Z 00000KT 3000 -RA FEW009CB BKN010 24/23 Q1013=  
16-Jun-2023 SAID35 WAGB 162330 METAR WAGB 162330Z 00000KT 3000 -RA FEW009CB BKN010 24/23 Q1013=  
17-Jun-2023 SAID35 WAGB 170000 METAR WAGB 170000Z 00000KT 3000 -RA BKN008 24/23 Q1013 NOSIG=  
17-Jun-2023 SAID35 WAGB 170030 METAR WAGB 170030Z 00000KT 3000 -RA BKN008 24/23 Q1013 NOSIG=  
17-Jun-2023 SAID35 WAGB 170100 METAR WAGB 170100Z 31003KT 4000 VCSH BKN008 24/24 Q1013 NOSIG=  
17-Jun-2023 SAID35 WAGB 170130 METAR WAGB 170130Z 32002KT 4000 VCSH BKN008 24/24 Q1013 NOSIG=  
17-Jun-2023 SAID35 WAGB 170200 METAR WAGB 170200Z 33005KT 5000 BKN009 25/24 Q1013 NOSIG=  
17-Jun-2023 SAID35 WAGB 170230 METAR WAGB 170230Z 36004KT 5000 BKN009 25/24 Q1013 NOSIG=  
17-Jun-2023 SAID35 WAGB 170300 METAR WAGB 170300Z 34003KT 5000 BKN009 27/25 Q1013 NOSIG=  
17-Jun-2023 SAID35 WAGB 170330 METAR WAGB 170330Z 33004KT 7000 SCT010 28/24 Q1012 NOSIG=  
17-Jun-2023 SAID35 WAGB 170400 METAR WAGB 170400Z 31002KT 9000 BKN012 29/24 Q1012 NOSIG=  
17-Jun-2023 SAID35 WAGB 170430 METAR WAGB 170430Z 00000KT 9000 BKN012 29/24 Q1011 NOSIG=  
17-Jun-2023 SAID35 WAGB 170500 METAR WAGB 170500Z 00000KT 9000 BKN012 29/24 Q1011 NOSIG=  
17-Jun-2023 SAID35 WAGB 170530 METAR WAGB 170530Z 00000KT 9999 BKN012 30/24 Q1011 NOSIG=  
17-Jun-2023 SAID35 WAGB 170600 METAR WAGB 170600Z 31002KT 9999 SCT012 31/25 Q1010 NOSIG=  
17-Jun-2023 SAID35 WAGB 170630 METAR WAGB 170630Z 26002KT 9999 SCT012 31/25 Q1010 NOSIG=  
17-Jun-2023 SAID35 WAGB 170700 METAR WAGB 170700Z 16002KT 9999 SCT013 31/25 Q1009 NOSIG=  
17-Jun-2023 SAID35 WAGB 170730 METAR WAGB 170730Z 18003KT 9999 SCT013 31/25 Q1009 NOSIG=  
17-Jun-2023 SAID35 WAGB 170800 METAR WAGB 170800Z 25003KT 9999 FEW014 30/25 Q1009 NOSIG=  
17-Jun-2023 SAID35 WAGB 170830 METAR WAGB 170830Z 00000KT 9999 FEW014 30/25 Q1009 NOSIG=  
17-Jun-2023 SAID35 WAGB 170900 METAR WAGB 170900Z 00000KT 9999 FEW014 30/25 Q1009 NOSIG=  
17-Jun-2023 SAID35 WAGB 170930 METAR WAGB 170930Z 00000KT 9999 FEW014 30/25 Q1009 NOSIG=  
17-Jun-2023 SAID35 WAGB 171000 METAR WAGB 171000Z 00000KT 9999 FEW014 29/26 Q1009 NOSIG=  
17-Jun-2023 SAID35 WAGB 171030 METAR WAGB 171030Z 00000KT 9999 FEW014 28/25 Q1009 NOSIG=  
17-Jun-2023 SAID35 WAGB 171100 METAR WAGB 171100Z 00000KT 9999 FEW013CB FEW014 28/25 Q1009 NOSIG=  
17-Jun-2023 SAID35 WAGB 171200 METAR WAGB 171200Z 00000KT 8000 FEW013 27/25 Q1010=  
17-Jun-2023 SAID35 WAGB 171230 METAR WAGB 171230Z 00000KT 8000 FEW013 27/25 Q1010=  
17-Jun-2023 SAID35 WAGB 171300 METAR WAGB 171300Z 00000KT 7000 FEW013 26/25 Q1011=  
17-Jun-2023 SAID35 WAGB 171330 METAR WAGB 171330Z 00000KT 7000 FEW013 26/25 Q1011=  
17-Jun-2023 SAID35 WAGB 171400 METAR WAGB 171400Z 00000KT 7000 FEW013 26/25 Q1011=  
17-Jun-2023 SAID35 WAGB 171430 METAR WAGB 171430Z 00000KT 7000 FEW013 26/25 Q1011=  
17-Jun-2023 SAID35 WAGB 171500 METAR WAGB 171500Z 00000KT 7000 FEW012 26/25 Q1011=  
17-Jun-2023 SAID35 WAGB 171530 METAR WAGB 171530Z 00000KT 7000 FEW012 26/25 Q1011=  
17-Jun-2023 SAID35 WAGB 171600 METAR WAGB 171600Z 00000KT 7000 FEW012 25/25 Q1012=  
17-Jun-2023 SAID35 WAGB 171630 METAR WAGB 171630Z 00000KT 7000 FEW012 25/25 Q1012=  
17-Jun-2023 SAID35 WAGB 171700 METAR WAGB 171700Z 00000KT 5000 SCT011 25/24 Q1011=  
17-Jun-2023 SAID35 WAGB 171730 METAR WAGB 171730Z 00000KT 5000 SCT011 25/24 Q1011=  
17-Jun-2023 SAID35 WAGB 171800 METAR WAGB 171800Z 00000KT 5000 SCT011 25/25 Q1011=  
17-Jun-2023 SAID35 WAGB 171830 METAR WAGB 171830Z 00000KT 5000 SCT011 25/25 Q1011=  
17-Jun-2023 SAID35 WAGB 171900 METAR WAGB 171900Z 00000KT 5000 SCT011 25/24 Q1011=  
17-Jun-2023 SAID35 WAGB 171930 METAR WAGB 171930Z 00000KT 5000 SCT011 25/24 Q1011=  
17-Jun-2023 SAID35 WAGB 172000 METAR WAGB 172000Z 00000KT 5000 SCT011 25/24 Q1011=  
17-Jun-2023 SAID35 WAGB 172030 METAR WAGB 172030Z 00000KT 5000 SCT011 25/24 Q1011=  
17-Jun-2023 SAID35 WAGB 172100 METAR WAGB 172100Z 00000KT 4000 BR SCT011 25/24 Q1011=  
17-Jun-2023 SAID35 WAGB 172130 METAR WAGB 172130Z 00000KT 4000 BR SCT011 25/24 Q1011=  
17-Jun-2023 SAID35 WAGB 172200 METAR WAGB 172200Z 00000KT 3000 BR BKN011 25/24 Q1011=  
17-Jun-2023 SAID35 WAGB 172230 METAR WAGB 172230Z 00000KT 3000 BR BKN011 25/24 Q1011=  
17-Jun-2023 SAID35 WAGB 172300 METAR WAGB 172300Z 00000KT 3000 BR BKN010 25/24 Q1012=  
17-Jun-2023 SAID35 WAGB 172330 METAR WAGB 172330Z 00000KT 3000 BR BKN010 25/24 Q1012=  
18-Jun-2023 SAID35 WAGB 180000 METAR WAGB 180000Z 00000KT 4000 HZ BKN010 25/25 Q1012 NOSIG=  
18-Jun-2023 SAID35 WAGB 180030 METAR WAGB 180030Z 00000KT 4000 HZ BKN010 256/25 Q1012 NOSIG=  
18-Jun-2023 SAID35 WAGB 180030 CCA METAR WAGB 180030Z 00000KT 4000 HZ BKN010 26/25 Q1012 NOSIG=  
18-Jun-2023 SAID35 WAGB 180100 METAR WAGB 180100Z 00000KT 6000 BKN010 27/25 Q1012 NOSIG=  
18-Jun-2023 SAID35 WAGB 180130 METAR WAGB 180130Z 31002KT 6000 BKN010 27/25 Q1012 NOSIG=  
18-Jun-2023 SAID35 WAGB 180200 METAR WAGB 180200Z 02003KT 7000 BKN010 28/25 Q1012 NOSIG=  
18-Jun-2023 SAID35 WAGB 180230 METAR WAGB 180230Z 05003KT 8000 BKN011 29/25 Q1012 NOSIG=  
18-Jun-2023 SAID35 WAGB 180300 METAR WAGB 180300Z 33003KT 8000 SCT011 29/25 Q1012 NOSIG=  
18-Jun-2023 SAID35 WAGB 180330 METAR WAGB 180330Z 34003KT 8000 SCT011 29/24 Q1012 NOSIG=  
18-Jun-2023 SAID35 WAGB 180400 METAR WAGB 180400Z 03004KT 9000 SCT012 30/24 Q1011 NOSIG=  
18-Jun-2023 SAID35 WAGB 180430 METAR WAGB 180430Z 28003KT 9999 SCT012 30/24 Q1010 NOSIG=  
18-Jun-2023 SAID35 WAGB 180500 METAR WAGB 180500Z 33003KT 9999 FEW012 31/25 Q1010 NOSIG=  
18-Jun-2023 SAID35 WAGB 180530 METAR WAGB 180530Z 19003KT 9999 FEW012 30/24 Q1009 NOSIG=  
18-Jun-2023 SAID35 WAGB 180600 METAR WAGB 180600Z VRB02KT 9999 FEW012 31/24 Q1009 NOSIG=  
18-Jun-2023 SAID35 WAGB 180700 METAR WAGB 180700Z 00000KT 9999 SCT012 32/24 Q1008 NOSIG=  
18-Jun-2023 SAID35 WAGB 180730 METAR WAGB 180730Z 26003KT 9999 FEW012TCU SCT013 32/24 Q1007 NOSIG=  
18-Jun-2023 SAID35 WAGB 180800 METAR WAGB 180800Z 20006KT 5000 VCSH FEW012TCB SCT013 32/24 Q1007 NOSIG=  
18-Jun-2023 SAID35 WAGB 180830 METAR WAGB 180830Z 14005KT 6000 VCSH FEW012TCB SCT013 30/25 Q1008 NOSIG=  
18-Jun-2023 SAID35 WAGB 180900 METAR WAGB 180900Z 10004KT 3000 -RA FEW012TCB BKN013 28/25 Q1008 NOSIG=  
18-Jun-2023 SAID35 WAGB 180930 METAR WAGB 180930Z 00000KT 9999 VCSH FEW012CB BKN015 32/24 Q1009=  
18-Jun-2023 SAID35 WAGB 180930 CCA METAR WAGB 180930Z 00000KT 9999 DZ FEW012CB BKN015 32/24 Q1009 NOSIG=  
18-Jun-2023 SAID35 WAGB 181000 METAR WAGB 181000Z 00000KT 9999 BKN014 28/25 Q1008 NOSIG=  
18-Jun-2023 SAID35 WAGB 181030 METAR WAGB 181030Z 00000KT 9999 BKN014 28/25 Q1008 NOSIG=  
18-Jun-2023 SAID35 WAGB 181100 METAR WAGB 181100Z 00000KT 8000 BKN014 27/24 Q1009 NOSIG=  
18-Jun-2023 SAID35 WAGB 181200 METAR WAGB 181200Z 00000KT 8000 SCT013 26/24 Q1010=  
18-Jun-2023 SAID35 WAGB 181230 METAR WAGB 181230Z 00000KT 8000 SCT013 26/24 Q1010=  
18-Jun-2023 SAID35 WAGB 181300 METAR WAGB 181300Z 00000KT 8000 SCT013 26/24 Q1011=  
18-Jun-2023 SAID35 WAGB 181330 METAR WAGB 181330Z 00000KT 8000 FEW013 25/24 Q1011=  
18-Jun-2023 SAID35 WAGB 181400 METAR WAGB 181400Z 00000KT 8000 FEW013 25/24 Q1011=  
18-Jun-2023 SAID35 WAGB 181430 METAR WAGB 181430Z 00000KT 8000 FEW013 25/24 Q1011=  
18-Jun-2023 SAID35 WAGB 181500 METAR WAGB 181500Z 00000KT 7000 FEW012 25/24 Q1011=  
18-Jun-2023 SAID35 WAGB 181530 METAR WAGB 181530Z 00000KT 7000 FEW012 25/24 Q1011=  
18-Jun-2023 SAID35 WAGB 181600 METAR WAGB 181600Z 00000KT 7000 FEW012 25/24 Q1011=  
18-Jun-2023 SAID35 WAGB 181630 METAR WAGB 181630Z 00000KT 7000 FEW012 25/24 Q1011=  
18-Jun-2023 SAID35 WAGB 181700 METAR WAGB 181700Z 00000KT 7000 FEW012 25/24 Q1011=  
18-Jun-2023 SAID35 WAGB 181730 METAR WAGB 181730Z 00000KT 7000 FEW012 25/24 Q1010=  
18-Jun-2023 SAID35 WAGB 181800 METAR WAGB 181800Z 00000KT 7000 FEW012 24/23 Q1010=  
18-Jun-2023 SAID35 WAGB 181830 METAR WAGB 181830Z 00000KT 7000 FEW012 24/23 Q1010=  
18-Jun-2023 SAID35 WAGB 181900 METAR WAGB 181900Z 00000KT 7000 FEW011 24/24 Q1010=  
18-Jun-2023 SAID35 WAGB 181930 METAR WAGB 181930Z 00000KT 7000 FEW011 24/24 Q1010=  
18-Jun-2023 SAID35 WAGB 182000 METAR WAGB 182000Z 00000KT 7000 FEW011 24/23 Q1010=  
18-Jun-2023 SAID35 WAGB 182030 METAR WAGB 182030Z 00000KT 7000 FEW011 24/23 Q1010=  
18-Jun-2023 SAID35 WAGB 182100 METAR WAGB 182100Z 00000KT 7000 FEW011 24/23 Q1011=  
18-Jun-2023 SAID35 WAGB 182130 METAR WAGB 182130Z 00000KT 7000 FEW011 24/23 Q1011=  
18-Jun-2023 SAID35 WAGB 182200 METAR WAGB 182200Z 00000KT 7000 FEW011 24/23 Q1011=  
18-Jun-2023 SAID35 WAGB 182230 METAR WAGB 182230Z 00000KT 8000 FEW012 24/23 Q1011=  
18-Jun-2023 SAID35 WAGB 182300 METAR WAGB 182300Z 00000KT 9000 FEW012 24/23 Q1011=  
18-Jun-2023 SAID35 WAGB 182330 METAR WAGB 182330Z 00000KT 9000 FEW012 24/23 Q1011=  
19-Jun-2023 SAID35 WAGB 190000 METAR WAGB 190000Z 00000KT 8000 FEW011 25/24 Q1011 NOSIG=  
19-Jun-2023 SAID35 WAGB 190030 METAR WAGB 190030Z 00000KT 8000 FEW011 25/24 Q1011 NOSIG=  
19-Jun-2023 SAID35 WAGB 190100 METAR WAGB 190100Z 05004KT 8000 SCT011 26/24 Q1011 NOSIG=  
19-Jun-2023 SAID35 WAGB 190130 METAR WAGB 190130Z 04004KT 8000 SCT011 27/24 Q1011 NOSIG=  
19-Jun-2023 SAID35 WAGB 190200 METAR WAGB 190200Z 04004KT 8000 SCT011 27/25 Q1011 NOSIG=  
19-Jun-2023 SAID35 WAGB 190230 METAR WAGB 190230Z 03003KT 9000 SCT011 28/25 Q1011 NOSIG=  
19-Jun-2023 SAID35 WAGB 190300 METAR WAGB 190300Z 05004KT 9999 SCT011 30/25 Q1011 NOSIG=  
19-Jun-2023 SAID35 WAGB 190330 METAR WAGB 190330Z 32003KT 9999 BKN011 31/25 Q1010 NOSIG=  
19-Jun-2023 SAID35 WAGB 190400 METAR WAGB 190400Z 03004KT 9999 BKN012 31/25 Q1010 NOSIG=  
19-Jun-2023 SAID35 WAGB 190430 METAR WAGB 190430Z 00000KT 9999 BKN012 31/25 Q1009 NOSIG=  
19-Jun-2023 SAID35 WAGB 190500 METAR WAGB 190500Z 00000KT 9999 BKN012 31/25 Q1009 NOSIG=  
19-Jun-2023 SAID35 WAGB 190530 METAR WAGB 190530Z 00000KT 9999 BKN012 32/24 Q1008 NOSIG=  
19-Jun-2023 SAID35 WAGB 190600 METAR WAGB 190600Z 00000KT 9999 BKN013 32/24 Q1008 NOSIG=  
19-Jun-2023 SAID35 WAGB 190630 METAR WAGB 190630Z 28005KT 9999 BKN013 32/24 Q1007 NOSIG=  
19-Jun-2023 SAID35 WAGB 190700 METAR WAGB 190700Z 23005KT 9999 BKN013 31/25 Q1008 NOSIG=  
19-Jun-2023 SAID35 WAGB 190730 METAR WAGB 190730Z 22005KT 9999 BKN013 31/25 Q1008 NOSIG=  
19-Jun-2023 SAID35 WAGB 190800 METAR WAGB 190800Z 31005KT 9999 FEW012TCU SCT013 31/23 Q1008 NOSIG=  
19-Jun-2023 SAID35 WAGB 190830 METAR WAGB 190830Z 30003KT 9999 FEW012TCU SCT013 31/23 Q1008 NOSIG=  
19-Jun-2023 SAID35 WAGB 190900 METAR WAGB 190900Z 00000KT 9999 FEW012CB SCT013 31/24 Q1008 NOSIG=  
19-Jun-2023 SAID35 WAGB 190900 CCA METAR WAGB 190900Z 00000KT 9999 FEW012TCU SCT013 31/24 Q1008 NOSIG=  
19-Jun-2023 SAID35 WAGB 190930 METAR WAGB 190930Z 00000KT 9999 FEW012TCU SCT013 31/24 Q1008 NOSIG=  
19-Jun-2023 SAID35 WAGB 190930 CCA METAR WAGB 190930Z 08003KT 9999 FEW012TCU SCT013 31/24 Q1008 NOSIG=  
19-Jun-2023 SAID35 WAGB 191000 METAR WAGB 191000Z 17003KT 9999 FEW012CB SCT013 29/24 Q1008 NOSIG=  
19-Jun-2023 SAID35 WAGB 191030 METAR WAGB 191030Z 00000KT 9000 FEW012CB SCT013 29/24 Q1009 NOSIG=  
19-Jun-2023 SAID35 WAGB 191100 METAR WAGB 191100Z 00000KT 9000 VCTS FEW012CB SCT013 28/24 Q1009 NOSIG=  
19-Jun-2023 SAID35 WAGB 191130 METAR WAGB 191130Z 00000KT 9000 VCTS FEW012CB SCT013 28/24 Q1010 NOSIG=  
19-Jun-2023 SAID35 WAGB 191200 METAR WAGB 191200Z 00000KT 9000 VCTS FEW012CB SCT013 27/26 Q1011=  
19-Jun-2023 SAID35 WAGB 191230 METAR WAGB 191230Z 00000KT 9000 FEW012CB SCT013 27/26 Q1011=  
19-Jun-2023 SAID35 WAGB 191300 METAR WAGB 191300Z 00000KT 8000 FEW012CB SCT013 27/24 Q1012=  
19-Jun-2023 SAID35 WAGB 191330 METAR WAGB 191330Z 00000KT 8000 FEW012CB SCT013 27/24 Q1012=  
19-Jun-2023 SAID35 WAGB 191400 METAR WAGB 191400Z 00000KT 7000 FEW012CB 26/24 Q1012=  
19-Jun-2023 SAID35 WAGB 191430 METAR WAGB 191430Z 00000KT 7000 BKN012 26/24 Q1012=  
19-Jun-2023 SAID35 WAGB 191500 METAR WAGB 191500Z 26005KT 7000 BKN012 26/26 Q1013=  
19-Jun-2023 SAID35 WAGB 191530 METAR WAGB 191530Z 24002KT 7000 BKN012 26/26 Q1013=  
19-Jun-2023 SAID35 WAGB 191600 METAR WAGB 191600Z 00000KT 6000 SCT011 25/24 Q1012=  
19-Jun-2023 SAID35 WAGB 191630 METAR WAGB 191630Z 00000KT 6000 SCT011 25/24 Q1012=  
19-Jun-2023 SAID35 WAGB 191700 METAR WAGB 191700Z 00000KT 6000 SCT011 25/23 Q1011=  
19-Jun-2023 SAID35 WAGB 191730 METAR WAGB 191730Z 00000KT 6000 SCT011 25/23 Q1011=  
19-Jun-2023 SAID35 WAGB 191800 METAR WAGB 191800Z 00000KT 6000 SCT010 24/23 Q1011=  
19-Jun-2023 SAID35 WAGB 191830 METAR WAGB 191830Z 00000KT 6000 SCT010 24/23 Q1011=  
19-Jun-2023 SAID35 WAGB 191900 METAR WAGB 191900Z 00000KT 5000 HZ BKN010 24/23 Q1011=  
19-Jun-2023 SAID35 WAGB 191930 METAR WAGB 191930Z 00000KT 5000 HZ BKN010 24/23 Q1011=  
19-Jun-2023 SAID35 WAGB 192000 METAR WAGB 192000Z 00000KT 5000 HZ BKN010 24/23 Q1012=  
19-Jun-2023 SAID35 WAGB 192030 METAR WAGB 192030Z 00000KT 5000 HZ BKN010 24/23 Q1012=  
19-Jun-2023 SAID35 WAGB 192100 METAR WAGB 192100Z 00000KT 5000 HZ BKN009 24/23 Q1012=  
19-Jun-2023 SAID35 WAGB 192130 METAR WAGB 192130Z 00000KT 3500 -RA BKN009 24/23 Q1012=  
19-Jun-2023 SAID35 WAGB 192200 METAR WAGB 192200Z 24004KT 4000 -RA BKN009 23/23 Q1013=  
19-Jun-2023 SAID35 WAGB 192230 METAR WAGB 192230Z 24004KT 3000 -RA BR BKN009 23/23 Q1013=  
19-Jun-2023 SAID35 WAGB 192300 METAR WAGB 192300Z 20005KT 3000 -RA BR OVC009 23/23 Q1013=  
19-Jun-2023 SAID35 WAGB 192330 METAR WAGB 192330Z 20003KT 3500 -RA BR OVC008 23/23 Q1013=  
20-Jun-2023 SAID35 WAGB 200000 METAR WAGB 200000Z 00000KT 4000 -RA OVC009 24/23 Q1014 NOSIG=  
20-Jun-2023 SAID35 WAGB 200030 METAR WAGB 200030Z 00000KT 4000 -RA OVC009 24/23 Q1014 NOSIG=  
20-Jun-2023 SAID35 WAGB 200100 METAR WAGB 200100Z 00000KT 5000 -RA OVC009 24/23 Q1014 NOSIG=  
20-Jun-2023 SAID35 WAGB 200130 METAR WAGB 200130Z 00000KT 6000 VCSH BKN010 25/24 Q1014 NOSIG RERA=  
20-Jun-2023 SAID35 WAGB 200200 METAR WAGB 200200Z 00000KT 6000 VCSH BKN010 25/24 Q1013 NOSIG=  
20-Jun-2023 SAID35 WAGB 200230 METAR WAGB 200230Z 00000KT 6000 VCSH BKN010 25/24 Q1013 NOSIG=  
20-Jun-2023 SAID35 WAGB 200300 METAR WAGB 200300Z 00000KT 6000 VCSH BKN010 25/24 Q1013 NOSIG=  
20-Jun-2023 SAID35 WAGB 200400 METAR WAGB 200400Z 00000KT 6000 VCSH BKN011 25/24 Q1013 NOSIG=  
20-Jun-2023 SAID35 WAGB 200430 METAR WAGB 200430Z 00000KT 6000 VCSH BKN010 25/24 Q1012 NOSIG=  
20-Jun-2023 SAID35 WAGB 200500 METAR WAGB 200500Z 00000KT 6000 VCSH BKN010 25/24 Q1012=  
20-Jun-2023 SAID35 WAGB 200530 METAR WAGB 200530Z 19003KT 6000 VCSH BKN010 25/24 Q1012=  
20-Jun-2023 SAID35 WAGB 200600 METAR WAGB 200600Z 00000KT 6000 VCSH BKN010 25/24 Q1012=  
20-Jun-2023 SAID35 WAGB 200630 METAR WAGB 200630Z 16003KT 6000 VCSH BKN010 25/24 Q1011=  
20-Jun-2023 SAID35 WAGB 200700 METAR WAGB 200700Z 00000KT 7000 BKN010 27/24 Q1011 NOSIG=  
20-Jun-2023 SAID35 WAGB 200730 METAR WAGB 200730Z 00000KT 7000 BKN010 27/24 Q1011 NOSIG=  
20-Jun-2023 SAID35 WAGB 200800 METAR WAGB 200800Z 00000KT 7000 BKN010 28/24 Q1011 NOSIG=  
20-Jun-2023 SAID35 WAGB 200830 METAR WAGB 200830Z 00000KT 7000 BKN010 28/24 Q1011 NOSIG=  
20-Jun-2023 SAID35 WAGB 200900 METAR WAGB 200900Z 00000KT 7000 BKN010 27/24 Q1011 NOSIG=  
20-Jun-2023 SAID35 WAGB 200930 METAR WAGB 200930Z 00000KT 7000 BKN010 27/24 Q1011 NOSIG=  
20-Jun-2023 SAID35 WAGB 201000 METAR WAGB 201000Z 00000KT 7000 BKN010 26/24 Q1011 NOSIG=  
20-Jun-2023 SAID35 WAGB 201030 METAR WAGB 201030Z 00000KT 7000 BKN010 26/24 Q1011 NOSIG=  
20-Jun-2023 SAID35 WAGB 201100 METAR WAGB 201100Z 00000KT 6000 BKN010 26/24 Q1012 NOSIG=  
20-Jun-2023 SAID35 WAGB 201130 METAR WAGB 201130Z 00000KT 6000 BKN010 26/24 Q1012 NOSIG=  
20-Jun-2023 SAID35 WAGB 201200 METAR WAGB 201200Z 00000KT 6000 BKN010 25/24 Q1012 NOSIG=  
20-Jun-2023 SAID35 WAGB 201230 METAR WAGB 201230Z 00000KT 6000 BKN010 25/24 Q1012 NOSIG=  
20-Jun-2023 SAID35 WAGB 201300 METAR WAGB 201300Z 00000KT 6000 BKN010 25/24 Q1013 NOSIG=  
20-Jun-2023 SAID35 WAGB 201330 METAR WAGB 201330Z 00000KT 6000 BKN010 25/24 Q1013 NOSIG=  
20-Jun-2023 SAID35 WAGB 201400 METAR WAGB 201400Z 00000KT 6000 BKN010 25/24 Q1013 NOSIG=  
20-Jun-2023 SAID35 WAGB 201430 METAR WAGB 201430Z 00000KT 6000 BKN010 25/24 Q1013 NOSIG=  
20-Jun-2023 SAID35 WAGB 201500 METAR WAGB 201500Z 00000KT 6000 BKN010 24/23 Q1013 NOSIG=  
20-Jun-2023 SAID35 WAGB 201530 METAR WAGB 201530Z 00000KT 6000 BKN010 24/23 Q1013 NOSIG=  
20-Jun-2023 SAID35 WAGB 201600 METAR WAGB 201600Z 00000KT 5000 VCSH BKN010 24/23 Q1012 NOSIG=  
20-Jun-2023 SAID35 WAGB 201630 METAR WAGB 201630Z 00000KT 5000 VCSH BKN010 24/23 Q1012 NOSIG=  
20-Jun-2023 SAID35 WAGB 201700 METAR WAGB 201700Z 00000KT 5000 HZ BKN010 24/23 Q1012 NOSIG=  
20-Jun-2023 SAID35 WAGB 201730 METAR WAGB 201730Z 00000KT 5000 HZ BKN010 24/23 Q1011 NOSIG=  
20-Jun-2023 SAID35 WAGB 201800 METAR WAGB 201800Z 00000KT 4000 BR BKN010 24/23 Q1011 NOSIG=  
20-Jun-2023 SAID35 WAGB 201830 METAR WAGB 201830Z 00000KT 4000 BR BKN010 24/23 Q1011 NOSIG=  
20-Jun-2023 SAID35 WAGB 201900 METAR WAGB 201900Z 00000KT 4000 BR SCT010 24/23 Q1011 NOSIG=  
20-Jun-2023 SAID35 WAGB 201930 METAR WAGB 201930Z 00000KT 4000 BR SCT010 24/23 Q1011 NOSIG=  
20-Jun-2023 SAID35 WAGB 202000 METAR WAGB 202000Z 00000KT 4000 VCSH SCT010 23/23 Q1011 NOSIG=  
20-Jun-2023 SAID35 WAGB 202030 CCA METAR WAGB 202030Z 00000KT 4000 VCSH SCT010 23/23 Q1011 NOSIG=  
20-Jun-2023 SAID35 WAGB 202100 METAR WAGB 202100Z 00000KT 4000 BR SCT010 23/23 Q1011 NOSIG=  
20-Jun-2023 SAID35 WAGB 202130 METAR WAGB 202130Z 00000KT 4000 BR SCT010 23/23 Q1011 NOSIG=  
20-Jun-2023 SAID35 WAGB 202200 METAR WAGB 202200Z 00000KT 3000 BR BKN009 23/23 Q1011 NOSIG=  
20-Jun-2023 SAID35 WAGB 202230 METAR WAGB 202230Z 00000KT 3000 -RA BKN009 23/23 Q1011 NOSIG=  
20-Jun-2023 SAID35 WAGB 202300 METAR WAGB 202300Z 00000KT 4000 BR BKN010 23/23 Q1011 NOSIG=  
20-Jun-2023 SAID35 WAGB 202330 METAR WAGB 202330Z 00000KT 5000 HZ BKN010 23/23 Q1012 NOSIG=  
21-Jun-2023 SAID35 WAGB 210000 METAR WAGB 210000Z 00000KT 6000 SCT011 24/23 Q1012 NOSIG=  
21-Jun-2023 SAID35 WAGB 210030 METAR WAGB 210030Z 00000KT 6000 SCT011 24/23 Q1012 NOSIG=  
21-Jun-2023 SAID35 WAGB 210100 METAR WAGB 210100Z 00000KT 7000 SCT011 26/24 Q1012 NOSIG=  
21-Jun-2023 SAID35 WAGB 210130 METAR WAGB 210130Z VRB02KT 7000 SCT011 26/24 Q1012 NOSIG=  
21-Jun-2023 SAID35 WAGB 210200 METAR WAGB 210200Z 21003KT 8000 FEW011 27/24 Q1012 NOSIG=  
21-Jun-2023 SAID35 WAGB 210230 METAR WAGB 210230Z 36004KT 8000 FEW011 28/24 Q1012 NOSIG=  
21-Jun-2023 SAID35 WAGB 210300 METAR WAGB 210300Z 33005KT 9000 SCT012 29/24 Q1011 NOSIG=  
21-Jun-2023 SAID35 WAGB 210330 METAR WAGB 210330Z 23003KT 9000 SCT012 29/24 Q1011 NOSIG=  
21-Jun-2023 SAID35 WAGB 210400 METAR WAGB 210400Z 21003KT 9999 FEW012 /24 Q1010 NOSIG=  
21-Jun-2023 SAID35 WAGB 210500 METAR WAGB 210500Z 28005KT 9999 FEW012 31/22 Q1010 NOSIG=  
21-Jun-2023 SAID35 WAGB 210530 METAR WAGB 210530Z VRB02KT 9999 SCT012 31/21 Q1009 NOSIG=  
21-Jun-2023 SAID35 WAGB 210600 METAR WAGB 210600Z VRB02KT 9999 SCT012 32/22 Q1009 NOSIG=  
21-Jun-2023 SAID35 WAGB 210630 METAR WAGB 210630Z 00000KT 9999 SCT012 31/22 Q1009 NOSIG=  
21-Jun-2023 SAID35 WAGB 210700 METAR WAGB 210700Z VRB02KT 9999 SCT012 32/22 Q1009 NOSIG=  
21-Jun-2023 SAID35 WAGB 210730 METAR WAGB 210730Z 34003KT 9999 SCT012 31/22 Q1008 NOSIG=  
21-Jun-2023 SAID35 WAGB 210800 METAR WAGB 210800Z 32004KT 9999 SCT012 33/22 Q1008 NOSIG=  
21-Jun-2023 SAID35 WAGB 210830 METAR WAGB 210830Z 36004KT 9999 SCT012 33/22 Q1008 NOSIG=  
21-Jun-2023 SAID35 WAGB 210900 METAR WAGB 210900Z 33003KT 9999 SCT012 33/22 Q1008 NOSIG=  
21-Jun-2023 SAID35 WAGB 210930 METAR WAGB 210930Z 00000KT 9999 FEW014 32/22 Q1009 NOSIG=  
21-Jun-2023 SAID35 WAGB 211000 METAR WAGB 211000Z 00000KT 9999 FEW014 32/23 Q1009 NOSIG=  
21-Jun-2023 SAID35 WAGB 211030 METAR WAGB 211030Z 00000KT 9999 FEW013 31/23 Q1009 NOSIG=  
21-Jun-2023 SAID35 WAGB 211100 METAR WAGB 211100Z 00000KT 8000 FEW013 30/24 Q1010 NOSIG=  
21-Jun-2023 SAID35 WAGB 211130 METAR WAGB 211130Z 00000KT 8000 FEW013 30/24 Q1010 NOSIG=  
21-Jun-2023 SAID35 WAGB 211200 METAR WAGB 211200Z 00000KT 8000 SCT012 28/25 Q1011=  
21-Jun-2023 SAID35 WAGB 211230 METAR WAGB 211230Z 00000KT 8000 SCT012 28/25 Q1011=  
21-Jun-2023 SAID35 WAGB 211300 METAR WAGB 211300Z 00000KT 8000 SCT012 27/24 Q1011=  
21-Jun-2023 SAID35 WAGB 211330 METAR WAGB 211330Z 00000KT 8000 SCT012 27/24 Q1011=  
21-Jun-2023 SAID35 WAGB 211400 METAR WAGB 211400Z 00000KT 8000 SCT012 26/24 Q1012=  
21-Jun-2023 SAID35 WAGB 211430 METAR WAGB 211430Z 00000KT 8000 SCT012 26/24 Q1012=  
21-Jun-2023 SAID35 WAGB 211500 METAR WAGB 211500Z 00000KT 8000 SCT012 25/23 Q1012=  
21-Jun-2023 SAID35 WAGB 211530 METAR WAGB 211530Z 00000KT 8000 SCT012 25/23 Q1012=  
21-Jun-2023 SAID35 WAGB 211600 METAR WAGB 211600Z 00000KT 7000 SCT011 25/24 Q1012=  
21-Jun-2023 SAID35 WAGB 211630 METAR WAGB 211630Z 00000KT 7000 SCT011 25/24 Q1012=  
21-Jun-2023 SAID35 WAGB 211700 METAR WAGB 211700Z 00000KT 6000 SCT011 25/24 Q1011=  
21-Jun-2023 SAID35 WAGB 211730 METAR WAGB 211730Z 00000KT 6000 SCT011 25/24 Q1011=  
21-Jun-2023 SAID35 WAGB 211800 METAR WAGB 211800Z 00000KT 5000 SCT011 25/23 Q1011=  
21-Jun-2023 SAID35 WAGB 211830 METAR WAGB 211830Z 00000KT 5000 SCT011 25/23 Q1011=  
21-Jun-2023 SAID35 WAGB 211900 METAR WAGB 211900Z 00000KT 5000 BR SCT011 25/24 Q1011=  
21-Jun-2023 SAID35 WAGB 211930 METAR WAGB 211930Z 00000KT 5000 BR SCT011 25/24 Q1011=  
21-Jun-2023 SAID35 WAGB 212000 METAR WAGB 212000Z 00000KT 5000 BR BKN009 24/23 Q1011=  
21-Jun-2023 SAID35 WAGB 212030 METAR WAGB 212030Z 00000KT 5000 BR BKN009 24/23 Q1011=  
21-Jun-2023 SAID35 WAGB 212100 METAR WAGB 212100Z 00000KT 5000 BR BKN009 24/23 Q1011=  
21-Jun-2023 SAID35 WAGB 212130 METAR WAGB 212130Z 00000KT 5000 BR BKN009 24/23 Q1011=  
21-Jun-2023 SAID35 WAGB 212200 METAR WAGB 212200Z 00000KT 5000 BR BKN009 25/24 Q1011=  
21-Jun-2023 SAID35 WAGB 212200 CCA METAR WAGB 212200Z 00000KT 5000 BR SCT009 23/22 Q1011=  
21-Jun-2023 SAID35 WAGB 212230 METAR WAGB 212230Z 00000KT 5000 BR SCT009 23/22 Q1011=  
21-Jun-2023 SAID35 WAGB 212300 METAR WAGB 212300Z 00000KT 5000 BR FEW010 23/22 Q1011=  
21-Jun-2023 SAID35 WAGB 212330 METAR WAGB 212330Z 00000KT 5000 BR FEW010 23/22 Q1011=  
22-Jun-2023 SAID35 WAGB 220000 METAR WAGB 220000Z 00000KT 9000 NSC 25/24 Q1011 NOSIG=  
22-Jun-2023 SAID35 WAGB 220030 METAR WAGB 220030Z VRB02KT CAVOK 25/24 Q1011 NOSIG=  
22-Jun-2023 SAID35 WAGB 220100 METAR WAGB 220100Z 34004KT 9999 FEW008 28/23 Q1011 NOSIG=  
22-Jun-2023 SAID35 WAGB 220130 METAR WAGB 220130Z 31004KT 9999 FEW009 29/24 Q1011 NOSIG=  
22-Jun-2023 SAID35 WAGB 220200 METAR WAGB 220200Z 24005KT 9999 SCT010 29/24 Q1011 NOSIG=  
22-Jun-2023 SAID35 WAGB 220230 METAR WAGB 220230Z 01003KT 9999 SCT010 29/24 Q1010 NOSIG=  
22-Jun-2023 SAID35 WAGB 220300 METAR WAGB 220300Z 25004KT 9999 BKN012 29/24 Q1010 NOSIG=  
22-Jun-2023 SAID35 WAGB 220330 METAR WAGB 220330Z 24003KT 9999 BKN012 29/24 Q1010 NOSIG=  
22-Jun-2023 SAID35 WAGB 220400 METAR WAGB 220400Z 25003KT 9999 BKN012 30/24 Q1010 NOSIG=  
22-Jun-2023 SAID35 WAGB 220430 METAR WAGB 220430Z 32003KT 9999 SCT012 31/24 Q1009 NOSIG=  
22-Jun-2023 SAID35 WAGB 220500 METAR WAGB 220500Z 01002KT 9999 SCT012 32/23 Q1009 NOSIG=  
22-Jun-2023 SAID35 WAGB 220530 METAR WAGB 220530Z 33004KT 9999 SCT012 33/23 Q1008 NOSIG=  
22-Jun-2023 SAID35 WAGB 220630 METAR WAGB 220630Z 25003KT 9999 BKN015 33/24 Q1008 NOSIG=  
22-Jun-2023 SAID35 WAGB 220700 METAR WAGB 220700Z 27004KT 9999 SCT015 33/24 Q1008 NOSIG=  
22-Jun-2023 SAID35 WAGB 220730 METAR WAGB 220730Z 29003KT 9999 SCT015 33/24 Q1007 NOSIG=  
22-Jun-2023 SAID35 WAGB 220800 METAR WAGB 220800Z 35003KT 9999 SCT015 33/23 Q1008 NOSIG=  
22-Jun-2023 SAID35 WAGB 220830 METAR WAGB 220830Z 33003KT 9999 SCT015 33/23 Q1008 NOSIG=  
22-Jun-2023 SAID35 WAGB 220900 METAR WAGB 220900Z 00000KT 9999 FEW015 33/23 Q1008=  
22-Jun-2023 SAID35 WAGB 220930 METAR WAGB 220930Z 00000KT 9999 FEW015 33/23 Q1008 NOSIG=  
22-Jun-2023 SAID35 WAGB 221000 METAR WAGB 221000Z 00000KT 9999 FEW015 34/24 Q1008 NOSIG=  
22-Jun-2023 SAID35 WAGB 221030 METAR WAGB 221030Z 00000KT 9999 FEW015 34/24 Q1008 NOSIG=  
22-Jun-2023 SAID35 WAGB 221100 METAR WAGB 221100Z 00000KT 8000 FEW014 30/25 Q1008 NOSIG=  
22-Jun-2023 SAID35 WAGB 221130 METAR WAGB 221130Z 00000KT 8000 FEW014 30/25 Q1008 NOSIG=  
22-Jun-2023 SAID35 WAGB 221200 METAR WAGB 221200Z 00000KT 8000 FEW014 28/25 Q1009=  
22-Jun-2023 SAID35 WAGB 221230 METAR WAGB 221230Z 00000KT 8000 FEW014 28/25 Q1009=  
22-Jun-2023 SAID35 WAGB 221300 METAR WAGB 221300Z 00000KT 8000 FEW014 27/25 Q1009=  
22-Jun-2023 SAID35 WAGB 221330 METAR WAGB 221330Z 00000KT 8000 FEW014 27/25 Q1009=  
22-Jun-2023 SAID35 WAGB 221400 METAR WAGB 221400Z 00000KT 7000 NSC 27/25 Q1009=  
22-Jun-2023 SAID35 WAGB 221430 METAR WAGB 221430Z 00000KT 7000 NSC 27/25 Q1009=  
22-Jun-2023 SAID35 WAGB 221500 METAR WAGB 221500Z 00000KT 7000 NSC 26/24 Q1009=  
22-Jun-2023 SAID35 WAGB 221530 METAR WAGB 221530Z 00000KT 7000 NSC 26/24 Q1009=  
22-Jun-2023 SAID35 WAGB 221600 METAR WAGB 221600Z 00000KT 7000 NSC 25/24 Q1009=  
22-Jun-2023 SAID35 WAGB 221630 METAR WAGB 221630Z 00000KT 7000 NSC 25/24 Q1009=  
22-Jun-2023 SAID35 WAGB 221700 METAR WAGB 221700Z 00000KT 7000 NSC 25/24 Q1009=  
22-Jun-2023 SAID35 WAGB 221730 METAR WAGB 221730Z 00000KT 7000 NSC 25/24 Q1009=  
22-Jun-2023 SAID35 WAGB 221800 METAR WAGB 221800Z 00000KT 7000 FEW013 25/24 Q1009=  
22-Jun-2023 SAID35 WAGB 221830 METAR WAGB 221830Z 00000KT 7000 FEW013 25/24 Q1009=  
22-Jun-2023 SAID35 WAGB 221900 METAR WAGB 221900Z 00000KT 7000 FEW013 25/24 Q1009=  
22-Jun-2023 SAID35 WAGB 222000 METAR WAGB 222000Z 00000KT 7000 FEW012 24/24 Q1009=  
22-Jun-2023 SAID35 WAGB 222030 METAR WAGB 222030Z 00000KT 7000 FEW012 24/24 Q1009=  
22-Jun-2023 SAID35 WAGB 222100 METAR WAGB 222100Z 00000KT 7000 FEW012 24/24 Q1009=  
22-Jun-2023 SAID35 WAGB 222130 METAR WAGB 222130Z 00000KT 7000 FEW012 24/24 Q1009=  
22-Jun-2023 SAID35 WAGB 222200 METAR WAGB 222200Z 00000KT 7000 FEW012 24/24 Q1010=  
22-Jun-2023 SAID35 WAGB 222230 METAR WAGB 222230Z 00000KT 7000 FEW012 24/24 Q1010=  
22-Jun-2023 SAID35 WAGB 222300 METAR WAGB 222300Z 00000KT 7000 FEW012 24/23 Q1010=  
22-Jun-2023 SAID35 WAGB 222330 METAR WAGB 222330Z 00000KT 7000 FEW012 24/23 Q1010=  
23-Jun-2023 SAID35 WAGB 230000 METAR WAGB 230000Z 00000KT 7000 SCT012 25/24 Q1011 NOSIG=  
23-Jun-2023 SAID35 WAGB 230030 METAR WAGB 230030Z 00000KT 7000 SCT012 25/24 Q1011 NOSIG=  
23-Jun-2023 SAID35 WAGB 230100 METAR WAGB 230100Z 00000KT 5000 SCT010 26/24 Q1011 NOSIG=  
23-Jun-2023 SAID35 WAGB 230130 METAR WAGB 230130Z 00000KT 5000 SCT010 26/24 Q1011 NOSIG=  
23-Jun-2023 SAID35 WAGB 230200 METAR WAGB 230200Z 00000KT 7000 SCT010 28/25 Q1011 NOSIG=  
23-Jun-2023 SAID35 WAGB 230230 METAR WAGB 230230Z 00000KT 7000 SCT010 28/25 Q1010 NOSIG=  
23-Jun-2023 SAID35 WAGB 230300 METAR WAGB 230300Z VRB02KT 8000 SCT011 30/24 Q1010 NOSIG=  
23-Jun-2023 SAID35 WAGB 230330 METAR WAGB 230330Z 20002KT 8000 SCT011 31/24 Q1009 NOSIG=  
23-Jun-2023 SAID35 WAGB 230400 METAR WAGB 230400Z 20002KT 9999 SCT012 31/24 Q1009 NOSIG=  
23-Jun-2023 SAID35 WAGB 230430 METAR WAGB 230430Z 22003KT 9999 SCT012 31/24 Q1009 NOSIG=  
23-Jun-2023 SAID35 WAGB 230500 METAR WAGB 230500Z 11003KT 9999 BKN012 32/24 Q1008 NOSIG=  
23-Jun-2023 SAID35 WAGB 230530 METAR WAGB 230530Z 23004KT 9999 SCT013 32/24 Q1008 NOSIG=  
23-Jun-2023 SAID35 WAGB 230600 METAR WAGB 230600Z 00000KT 9999 FEW013CB BKN014 32/24 Q1008 NOSIG=  
23-Jun-2023 SAID35 WAGB 230630 METAR WAGB 230630Z 00000KT 9999 FEW013CB BKN014 32/25 Q1007 NOSIG=  
23-Jun-2023 SAID35 WAGB 230700 METAR WAGB 230700Z 00000KT 9999 FEW013CB BKN014 32/25 Q1007 NOSIG=  
23-Jun-2023 SAID35 WAGB 230800 METAR WAGB 230800Z 00000KT 9999 FEW013CB BKN014 31/26 Q1007 NOSIG=  
23-Jun-2023 SAID35 WAGB 230830 METAR WAGB 230830Z 00000KT 9999 FEW013CB SCT014 30/25 Q1007 NOSIG=  
23-Jun-2023 SAID35 WAGB 230900 METAR WAGB 230900Z 00000KT 9999 FEW013 31/26 Q1007 NOSIG=  
23-Jun-2023 SAID35 WAGB 230930 METAR WAGB 230930Z 00000KT FEW013 31/25 Q1007 NOSIG=  
23-Jun-2023 SAID35 WAGB 231000 METAR WAGB 231000Z 00000KT 9999 FEW013 30/26 Q1007 NOSIG=  
23-Jun-2023 SAID35 WAGB 231030 METAR WAGB 231030Z 00000KT FEW013 30/25 Q1007 NOSIG=  
23-Jun-2023 SAID35 WAGB 231100 METAR WAGB 231100Z 00000KT 9999 FEW013 29/25 Q1008 NOSIG=  
23-Jun-2023 SAID35 WAGB 231130 METAR WAGB 231130Z 00000KT 9999 FEW013 29/25 Q1008 NOSIG=  
23-Jun-2023 SAID35 WAGB 231200 METAR WAGB 231200Z 00000KT 8000 FEW013 29/25 Q1008 NOSIG=  
23-Jun-2023 SAID35 WAGB 231230 METAR WAGB 231230Z 00000KT 8000 FEW013 29/25 Q1008 NOSIG=  
23-Jun-2023 SAID35 WAGB 231300 METAR WAGB 231300Z 00000KT 8000 SCT013 28/25 Q1009 NOSIG=  
23-Jun-2023 SAID35 WAGB 231330 METAR WAGB 231330Z 00000KT 8000 SCT013 28/25 Q1009 NOSIG=  
23-Jun-2023 SAID35 WAGB 231400 METAR WAGB 231400Z 00000KT 7000 SCT013 28/25 Q1009 NOSIG=  
23-Jun-2023 SAID35 WAGB 231430 METAR WAGB 231430Z 00000KT 7000 SCT013 28/25 Q1009 NOSIG=  
23-Jun-2023 SAID35 WAGB 231500 METAR WAGB 231500Z 00000KT 7000 SCT013 28/25 Q1009 NOSIG=  
23-Jun-2023 SAID35 WAGB 231530 METAR WAGB 231530Z 00000KT 7000 SCT013 28/25 Q1009 NOSIG=  
23-Jun-2023 SAID35 WAGB 231600 METAR WAGB 231600Z 00000KT 7000 SCT013 27/25 Q1009 NOSIG=  
23-Jun-2023 SAID35 WAGB 231630 METAR WAGB 231630Z 00000KT 7000 SCT013 27/25 Q1009 NOSIG=  
23-Jun-2023 SAID35 WAGB 231700 METAR WAGB 231700Z 00000KT 6000 SCT013 26/25 Q1009 NOSIG=  
23-Jun-2023 SAID35 WAGB 231730 METAR WAGB 231730Z 00000KT 6000 SCT013 26/25 Q1009 NOSIG=  
23-Jun-2023 SAID35 WAGB 231800 METAR WAGB 231800Z 00000KT 6000 SCT012 26/25 Q1009 NOSIG=  
23-Jun-2023 SAID35 WAGB 231830 METAR WAGB 231830Z 00000KT 6000 SCT012 26/25 Q1009 NOSIG=  
23-Jun-2023 SAID35 WAGB 231900 METAR WAGB 231900Z 00000KT 6000 SCT012 26/25 Q1009 NOSIG=  
23-Jun-2023 SAID35 WAGB 231930 METAR WAGB 231930Z 00000KT 6000 SCT012 26/25 Q1009 NOSIG=  
23-Jun-2023 SAID35 WAGB 232000 METAR WAGB 232000Z 00000KT 6000 SCT012 26/25 Q1009 NOSIG=  
23-Jun-2023 SAID35 WAGB 232030 METAR WAGB 232030Z 00000KT 6000 SCT012 26/25 Q1009 NOSIG=  
23-Jun-2023 SAID35 WAGB 232100 METAR WAGB 232100Z 00000KT 5000 BR SCT012 26/25 Q1009=  
23-Jun-2023 SAID35 WAGB 232130 METAR WAGB 232130Z 00000KT 5000 BR SCT012 26/25 Q1009=  
23-Jun-2023 SAID35 WAGB 232200 METAR WAGB 232200Z 00000KT 5000 BR SCT012 25/24 Q1008=  
23-Jun-2023 SAID35 WAGB 232200 CCA METAR WAGB 232200Z 00000KT 5000 BR SCT012 25/24 Q1009=  
23-Jun-2023 SAID35 WAGB 232230 METAR WAGB 232230Z 00000KT 5000 BR SCT012 25/24 Q1009=  
23-Jun-2023 SAID35 WAGB 232300 METAR WAGB 232300Z 00000KT 5000 BR SCT012 25/24 Q1009=  
23-Jun-2023 SAID35 WAGB 232330 METAR WAGB 232330Z 00000KT 5000 BR SCT012 25/24 Q1009=  
24-Jun-2023 SAID35 WAGB 240000 METAR WAGB 240000Z 00000KT 6000 SCT012 26/25 Q1011 NOSIG=  
24-Jun-2023 SAID35 WAGB 240030 METAR WAGB 240030Z 00000KT 7000 BKN012 27/25 Q1011 NOSIG=  
24-Jun-2023 SAID35 WAGB 240100 METAR WAGB 240100Z 00000KT 8000 SCT011 27/25 Q1011 NOSIG=  
24-Jun-2023 SAID35 WAGB 240130 METAR WAGB 240130Z 00000KT 8000 SCT012 27/25 Q1011 NOSIG=  
24-Jun-2023 SAID35 WAGB 240200 METAR WAGB 240200Z 01003KT 9000 SCT012 28/25 Q1010 NOSIG=  
24-Jun-2023 SAID35 WAGB 240230 METAR WAGB 240230Z 01005KT 9000 BKN012 28/25 Q1010 NOSIG=  
24-Jun-2023 SAID35 WAGB 240300 METAR WAGB 240300Z 02004KT 9000 BKN012 29/25 Q1010 NOSIG=  
24-Jun-2023 SAID35 WAGB 240330 METAR WAGB 240330Z 01003KT 9000 SCT012 29/25 Q1009 NOSIG=  
24-Jun-2023 SAID35 WAGB 240400 METAR WAGB 240400Z 32003KT 9999 SCT013 31/25 Q1009 NOSIG=  
24-Jun-2023 SAID35 WAGB 240430 METAR WAGB 240430Z 30005KT 9999 SCT013 31/25 Q1008 NOSIG=  
24-Jun-2023 SAID35 WAGB 240500 METAR WAGB 240500Z 10003KT 9999 BKN013 31/26 Q1008 NOSIG=  
24-Jun-2023 SAID35 WAGB 240530 METAR WAGB 240530Z 34005KT 9999 SCT013 31/26 Q1008 NOSIG=  
24-Jun-2023 SAID35 WAGB 240600 METAR WAGB 240600Z 30006KT 9999 SCT014 31/26 Q1007 NOSIG=  
24-Jun-2023 SAID35 WAGB 240630 METAR WAGB 240630Z 00000KT 9999 SCT014 32/25 Q1007 NOSIG=  
24-Jun-2023 SAID35 WAGB 240700 METAR WAGB 240700Z 23003KT 9999 SCT014 31/24 Q1006 NOSIG=  
24-Jun-2023 SAID35 WAGB 240730 METAR WAGB 240730Z 25003KT 9999 SCT014 31/24 Q1006 NOSIG=  
24-Jun-2023 SAID35 WAGB 240800 METAR WAGB 240800Z 21004KT 9999 BKN013 33/26 Q1006 NOSIG=  
24-Jun-2023 SAID35 WAGB 240830 METAR WAGB 240830Z 00000KT 9999 BKN013 33/26 Q1006 NOSIG=  
24-Jun-2023 SAID35 WAGB 240900 METAR WAGB 240900Z 00000KT 9999 SCT014 32/26 Q1006 NOSIG=  
24-Jun-2023 SAID35 WAGB 240930 METAR WAGB 240930Z 00000KT 9999 SCT014 32/26 Q1006 NOSIG=  
24-Jun-2023 SAID35 WAGB 241000 METAR WAGB 241000Z 00000KT 9999 FEW014 32/27 Q1007 NOSIG=  
24-Jun-2023 SAID35 WAGB 241030 METAR WAGB 241030Z 00000KT 9999 FEW014 32/27 Q1007 NOSIG=  
24-Jun-2023 SAID35 WAGB 241100 METAR WAGB 241100Z 00000KT 8000 FEW014 30/27 Q1007 NOSIG=  
24-Jun-2023 SAID35 WAGB 241130 METAR WAGB 241130Z 00000KT 8000 FEW014 30/27 Q1007 NOSIG=  
24-Jun-2023 SAID35 WAGB 241200 METAR WAGB 241200Z 00000KT 8000 FEW014 29/27 Q1008=  
24-Jun-2023 SAID35 WAGB 241230 METAR WAGB 241230Z 00000KT 8000 NSC 28/26 Q1008=  
24-Jun-2023 SAID35 WAGB 241300 METAR WAGB 241300Z 00000KT 8000 FEW014 28/26 Q1008=  
24-Jun-2023 SAID35 WAGB 241330 METAR WAGB 241330Z 00000KT 8000 FEW014 28/26 Q1008=  
24-Jun-2023 SAID35 WAGB 241400 METAR WAGB 241400Z 00000KT 8000 FEW013 27/26 Q1009=  
24-Jun-2023 SAID35 WAGB 241430 METAR WAGB 241430Z 00000KT 8000 FEW013 27/26 Q1009=  
24-Jun-2023 SAID35 WAGB 241500 METAR WAGB 241500Z 00000KT 8000 FEW013 26/26 Q1009=  
24-Jun-2023 SAID35 WAGB 241530 METAR WAGB 241530Z 00000KT 8000 FEW013 26/26 Q1009=  
24-Jun-2023 SAID35 WAGB 241600 METAR WAGB 241600Z 00000KT 8000 FEW013 26/25 Q1009=  
24-Jun-2023 SAID35 WAGB 241630 METAR WAGB 241630Z 00000KT 8000 FEW013 26/25 Q1009=  
24-Jun-2023 SAID35 WAGB 241700 METAR WAGB 241700Z 00000KT 7000 FEW013 26/25 Q1008=  
24-Jun-2023 SAID35 WAGB 241730 METAR WAGB 241730Z 00000KT 7000 FEW013 26/25 Q1008=  
24-Jun-2023 SAID35 WAGB 241800 METAR WAGB 241800Z 00000KT 6000 SCT013 26/25 Q1008=  
24-Jun-2023 SAID35 WAGB 241830 METAR WAGB 241830Z 00000KT 6000 SCT013 26/25 Q1008=  
24-Jun-2023 SAID35 WAGB 241900 METAR WAGB 241900Z 00000KT 6000 SCT013 26/25 Q1008=  
24-Jun-2023 SAID35 WAGB 241930 METAR WAGB 241930Z 00000KT 6000 SCT013 26/25 Q1008=  
24-Jun-2023 SAID35 WAGB 242000 METAR WAGB 242000Z 00000KT 4000 SHRA BKN011 26/25 Q1008=  
24-Jun-2023 SAID35 WAGB 242030 METAR WAGB 242030Z 00000KT 4000 RA BKN011 26/25 Q1008=  
24-Jun-2023 SAID35 WAGB 242100 METAR WAGB 242100Z 00000KT 4000 -RA BKN011 24/26 Q1008=  
24-Jun-2023 SAID35 WAGB 242100 CCA METAR COR WAGB 242100Z 00000KT 4000 -RA BKN011 25/25 Q1008=  
24-Jun-2023 SAID35 WAGB 242130 METAR WAGB 242130Z 00000KT 4000 -RA BKN011 25/25 Q1008=  
24-Jun-2023 SAID35 WAGB 242200 METAR WAGB 242200Z 00000KT 5000 SCT011 25/25 Q1009 RERA=  
24-Jun-2023 SAID35 WAGB 242230 METAR WAGB 242230Z 00000KT 5000 SCT011 25/25 Q1009=  
24-Jun-2023 SAID35 WAGB 242300 METAR WAGB 242300Z 00000KT 5000 BKN011 25/25 Q1010=  
24-Jun-2023 SAID35 WAGB 242330 METAR WAGB 242330Z 00000KT 6000 SCT011 25/25 Q1010=  
25-Jun-2023 SAID35 WAGB 250000 METAR WAGB 250000Z 00000KT 7000 SCT011 26/25 Q1010 NOSIG=  
25-Jun-2023 SAID35 WAGB 250030 METAR WAGB 250030Z 00000KT 7000 SCT011 26/25 Q1010 NOSIG=  
25-Jun-2023 SAID35 WAGB 250100 METAR WAGB 250100Z 00000KT 8000 SCT011 28/25 Q1010 NOSIG=  
25-Jun-2023 SAID35 WAGB 250130 METAR WAGB 250130Z 00000KT 8000 SCT011 28/25 Q1010 NOSIG=  
25-Jun-2023 SAID35 WAGB 250130 CCA METAR WAGB 250130Z 00000KT 8000 SCT012 28/25 Q1010 NOSIG=  
25-Jun-2023 SAID35 WAGB 250200 METAR WAGB 250200Z 00000KT 9000 SCT011 29/26 Q1010 NOSIG=  
25-Jun-2023 SAID35 WAGB 250200 CCA METAR WAGB 250200Z 00000KT 9000 SCT012 29/26 Q1010 NOSIG=  
25-Jun-2023 SAID35 WAGB 250230 METAR WAGB 250230Z 00000KT 9000 SCT012 29/26 Q1010 NOSIG=  
25-Jun-2023 SAID35 WAGB 250300 METAR WAGB 250300Z 00000KT 9999 SCT012 31/25 Q1010 NOSIG=  
25-Jun-2023 SAID35 WAGB 250330 METAR WAGB 250330Z 32002KT 9999 BKN013 31/24 Q1009 NOSIG=  
25-Jun-2023 SAID35 WAGB 250400 METAR WAGB 250400Z 24004KT 9999 BKN013 31/25 Q1008 NOSIG=  
25-Jun-2023 SAID35 WAGB 250430 METAR WAGB 250430Z 25004KT 9999 SCT014 32/24 Q1008 NOSIG=  
25-Jun-2023 SAID35 WAGB 250500 METAR WAGB 250500Z 24004KT 9999 SCT014 33/25 Q1007 NOSIG=  
25-Jun-2023 SAID35 WAGB 250530 METAR WAGB 250530Z 30003KT 9999 SCT014 33/24 Q1007 NOSIG=  
25-Jun-2023 SAID35 WAGB 250600 METAR WAGB 250600Z 22004KT 9999 SCT013 33/26 Q1007 NOSIG=  
25-Jun-2023 SAID35 WAGB 250630 METAR WAGB 250630Z 19005KT 9999 SCT014 33/26 Q1007 NOSIG=  
25-Jun-2023 SAID35 WAGB 250700 METAR WAGB 250700Z 25003KT 9999 SCT014 33/26 Q1006 NOSIG=  
25-Jun-2023 SAID35 WAGB 250730 METAR WAGB 250730Z 25003KT 9999 SCT014 33/26 Q1006 NOSIG=  
25-Jun-2023 SAID35 WAGB 250800 METAR WAGB 250800Z 23003KT 9999 FEW014 33/27 Q1006 NOSIG=  
25-Jun-2023 SAID35 WAGB 250830 METAR WAGB 250830Z 00000KT 9999 FEW014 33/27 Q1006 NOSIG=  
25-Jun-2023 SAID35 WAGB 250900 METAR WAGB 250900Z 23003KT 9999 FEW014 32/28 Q1006 NOSIG=  
25-Jun-2023 SAID35 WAGB 250930 METAR WAGB 250930Z 21003KT 9999 FEW014 32/28 Q1006 NOSIG=  
25-Jun-2023 SAID35 WAGB 251000 METAR WAGB 251000Z 00000KT 9999 FEW015CB 32/27 Q1007 NOSIG=  
25-Jun-2023 SAID35 WAGB 251030 METAR WAGB 251030Z 00000KT 9000 FEW015CB 31/27 Q1007 NOSIG=  
25-Jun-2023 SAID35 WAGB 251100 METAR WAGB 251100Z 00000KT 9999 FEW015CB 30/26 Q1007 NOSIG=  
25-Jun-2023 SAID35 WAGB 251130 METAR WAGB 251130Z 00000KT 9999 FEW015CB 30/26 Q1007 NOSIG=  
25-Jun-2023 SAID35 WAGB 251200 METAR WAGB 251200Z 00000KT 8000 FEW013 29/26 Q1008=  
25-Jun-2023 SAID35 WAGB 251230 METAR WAGB 251230Z 00000KT 8000 FEW013 28/26 Q1008=  
25-Jun-2023 SAID35 WAGB 251300 METAR WAGB 251300Z 00000KT 7000 FEW013 28/26 Q1009=  
25-Jun-2023 SAID35 WAGB 251330 METAR WAGB 251330Z 00000KT 7000 FEW013 28/26 Q1009=  
25-Jun-2023 SAID35 WAGB 251400 METAR WAGB 251400Z 00000KT 7000 FEW013 27/26 Q1009=  
25-Jun-2023 SAID35 WAGB 251430 METAR WAGB 251430Z 00000KT 7000 FEW013 27/26 Q1009=  
25-Jun-2023 SAID35 WAGB 251500 METAR WAGB 251500Z 00000KT 7000 FEW013 27/26 Q1009=  
25-Jun-2023 SAID35 WAGB 251530 METAR WAGB 251530Z 00000KT 7000 FEW013 27/26 Q1009=  
25-Jun-2023 SAID35 WAGB 251600 METAR WAGB 251600Z 00000KT 6000 SCT012 27/26 Q1009=  
25-Jun-2023 SAID35 WAGB 251630 METAR WAGB 251630Z 00000KT 6000 SCT012 27/26 Q1009=  
25-Jun-2023 SAID35 WAGB 251700 METAR WAGB 251700Z 00000KT 6000 SCT011 26/25 Q1009=  
25-Jun-2023 SAID35 WAGB 251730 METAR WAGB 251730Z 00000KT 6000 SCT011 26/25 Q1009=  
25-Jun-2023 SAID35 WAGB 251800 METAR WAGB 251800Z 00000KT 6000 SCT011 26/25 Q1008=  
25-Jun-2023 SAID35 WAGB 251830 METAR WAGB 251830Z 00000KT 6000 SCT011 26/25 Q1008=  
25-Jun-2023 SAID35 WAGB 251900 METAR WAGB 251900Z 00000KT 6000 SCT011 26/25 Q1008=  
25-Jun-2023 SAID35 WAGB 251930 METAR WAGB 251930Z 00000KT 6000 SCT011 26/25 Q1008=  
25-Jun-2023 SAID35 WAGB 252000 METAR WAGB 252000Z 00000KT 6000 SCT011 25/24 Q1008=  
25-Jun-2023 SAID35 WAGB 252030 METAR WAGB 252030Z 00000KT 6000 SCT011 25/24 Q1008=  
25-Jun-2023 SAID35 WAGB 252100 METAR WAGB 252100Z 00000KT 6000 FEW011 25/24 Q1009=  
25-Jun-2023 SAID35 WAGB 252300 METAR WAGB 252300Z 00000KT 4000 BR SCT011 26/25 Q1010=  
25-Jun-2023 SAID35 WAGB 252330 METAR WAGB 252330Z 00000KT 4000 BR SCT011 26/25 Q1010=  
26-Jun-2023 SAID35 WAGB 260000 METAR WAGB 260000Z 00000KT 6000 BKN011 27/25 Q1010=  
26-Jun-2023 SAID35 WAGB 260030 METAR WAGB 260030Z 00000KT 6000 BKN011 27/25 Q1010 NOSIG=  
26-Jun-2023 SAID35 WAGB 260100 METAR WAGB 260100Z 25003KT 7000 SCT011 29/25 Q1010 NOSIG=  
26-Jun-2023 SAID35 WAGB 260130 METAR WAGB 260130Z 24003KT 7000 SCT011 29/25 Q1010 NOSIG=  
26-Jun-2023 SAID35 WAGB 260200 METAR WAGB 260200Z 26003KT 8000 SCT011 29/25 Q1010 NOSIG=  
26-Jun-2023 SAID35 WAGB 260230 METAR WAGB 260230Z 00000KT 8000 BKN011 29/24 Q1010 NOSIG=  
26-Jun-2023 SAID35 WAGB 260300 METAR WAGB 260300Z 18003KT 9000 SCT012 31/24 Q1009 NOSIG=  
26-Jun-2023 SAID35 WAGB 260330 METAR WAGB 260330Z 19004KT 9000 SCT012 32/24 Q1009 NOSIG=  
26-Jun-2023 SAID35 WAGB 260400 METAR WAGB 260400Z VRB02KT 9999 SCT012 31/24 Q1009 NOSIG=  
26-Jun-2023 SAID35 WAGB 260430 METAR WAGB 260430Z 30006KT 9999 SCT012 32/24 Q1008 NOSIG=  
26-Jun-2023 SAID35 WAGB 260500 METAR WAGB 260500Z 25003KT 9999 SCT012 33/24 Q1008 NOSIG=  
26-Jun-2023 SAID35 WAGB 260530 METAR WAGB 260530Z 20003KT 9999 SCT013 32/24 Q1008 NOSIG=  
26-Jun-2023 SAID35 WAGB 260600 METAR WAGB 260600Z 28005KT 9999 SCT013 32/24 Q1007 NOSIG=  
26-Jun-2023 SAID35 WAGB 260630 METAR WAGB 260630Z 24004KT 9999 SCT013 32/24 Q1007 NOSIG=  
26-Jun-2023 SAID35 WAGB 260700 METAR WAGB 260700Z 23004KT 9999 SCT013 32/24 Q1006 NOSIG=  
26-Jun-2023 SAID35 WAGB 260730 METAR WAGB 260730Z 26004KT 9999 SCT013 32/23 Q1006 NOSIG=  
26-Jun-2023 SAID35 WAGB 260800 METAR WAGB 260800Z 23006KT 9999 SCT013 32/23 Q1006 NOSIG=  
26-Jun-2023 SAID35 WAGB 260830 METAR WAGB 260830Z 22003KT 9999 SCT013 32/23 Q1006 NOSIG=  
26-Jun-2023 SAID35 WAGB 260900 METAR WAGB 260900Z 30005KT 9999 SCT012 32/24 Q1006 NOSIG=  
26-Jun-2023 SAID35 WAGB 260930 METAR WAGB 260930Z 22002KT 9999 FEW015 32/25 Q1007 NOSIG=  
26-Jun-2023 SAID35 WAGB 261000 METAR WAGB 261000Z 00000KT 9999 FEW015 31/25 Q1007 NOSIG=  
26-Jun-2023 SAID35 WAGB 261030 METAR WAGB 261030Z 00000KT 9999 FEW015 30/25 Q1007 NOSIG=  
26-Jun-2023 SAID35 WAGB 261100 METAR WAGB 261100Z 00000KT 9999 FEW015 30/26 Q1008=  
26-Jun-2023 SAID35 WAGB 261130 METAR WAGB 261130Z 00000KT 9999 FEW015 30/26 Q1008=  
26-Jun-2023 SAID35 WAGB 261200 METAR WAGB 261200Z 00000KT 8000 FEW014TCU 29/28 Q1009=  
26-Jun-2023 SAID35 WAGB 261230 METAR WAGB 261230Z 00000KT 8000 FEW014TCU 29/28 Q1009=  
26-Jun-2023 SAID35 WAGB 261300 METAR WAGB 261300Z 00000KT 8000 FEW013 29/28 Q1009=  
26-Jun-2023 SAID35 WAGB 261330 METAR WAGB 261330Z 00000KT 8000 FEW013 29/28 Q1009=  
26-Jun-2023 SAID35 WAGB 261400 METAR WAGB 261400Z 00000KT 8000 FEW012 28/27 Q1010=  
26-Jun-2023 SAID35 WAGB 261430 METAR WAGB 261430Z 00000KT 8000 FEW012 28/27 Q1010=  
26-Jun-2023 SAID35 WAGB 261500 METAR WAGB 261500Z 00000KT 8000 FEW012 28/27 Q1010=  
26-Jun-2023 SAID35 WAGB 261530 METAR WAGB 261530Z 00000KT 8000 FEW012 28/27 Q1010=  
26-Jun-2023 SAID35 WAGB 261600 METAR WAGB 261600Z 00000KT 8000 SCT012 28/27 Q1010=  
26-Jun-2023 SAID35 WAGB 261630 METAR WAGB 261630Z 00000KT 8000 SCT012 28/27 Q1010=  
26-Jun-2023 SAID35 WAGB 261700 METAR WAGB 261700Z 00000KT 6000 SCT011 27/26 Q1010=  
26-Jun-2023 SAID35 WAGB 261730 METAR WAGB 261730Z 00000KT 6000 SCT011 27/26 Q1010=  
26-Jun-2023 SAID35 WAGB 261800 METAR WAGB 261800Z 00000KT 6000 SCT011 27/26 Q1010=  
26-Jun-2023 SAID35 WAGB 261830 METAR WAGB 261830Z 00000KT 6000 SCT011 27/26 Q1010=  
26-Jun-2023 SAID35 WAGB 261900 METAR WAGB 261900Z 00000KT 5000 SCT011 26/25 Q1009=  
26-Jun-2023 SAID35 WAGB 261930 METAR WAGB 261930Z 00000KT 5000 SCT011 26/25 Q1009=  
26-Jun-2023 SAID35 WAGB 262000 METAR WAGB 262000Z 00000KT 5000 SCT011 26/25 Q1009=  
26-Jun-2023 SAID35 WAGB 262030 METAR WAGB 262030Z 00000KT 5000 SCT011 26/25 Q1009=  
26-Jun-2023 SAID35 WAGB 262100 METAR WAGB 262100Z 00000KT 5000 SCT011 26/25 Q1010=  
26-Jun-2023 SAID35 WAGB 262130 METAR WAGB 262130Z 00000KT 5000 SCT011 26/25 Q1010=  
26-Jun-2023 SAID35 WAGB 262200 METAR WAGB 262200Z 00000KT 5000 SCT011 26/25 Q1010=  
26-Jun-2023 SAID35 WAGB 262230 METAR WAGB 262230Z 00000KT 5000 SCT011 26/25 Q1010=  
26-Jun-2023 SAID35 WAGB 262300 METAR WAGB 262300Z 00000KT 5000 SCT011 26/25 Q1010=  
26-Jun-2023 SAID35 WAGB 262330 METAR WAGB 262330Z 00000KT 5000 SCT011 26/25 Q1011=  
27-Jun-2023 SAID35 WAGB 270100 METAR WAGB 270100Z VRB02KT 7000 BKN010 26/24 Q1012 NOSIG=  
27-Jun-2023 SAID35 WAGB 270130 METAR WAGB 270130Z 00000KT 7000 BKN010 27/24 Q1012 NOSIG=  
27-Jun-2023 SAID35 WAGB 270200 METAR WAGB 270200Z 00000KT 7000 BKN010 27/24 Q1012 NOSIG=  
27-Jun-2023 SAID35 WAGB 270230 METAR WAGB 270230Z 01004KT 8000 BKN011 28/24 Q1012 NOSIG=  
27-Jun-2023 SAID35 WAGB 270300 METAR WAGB 270300Z VRB02KT 9000 BKN011 28/25 Q1012 NOSIG=  
27-Jun-2023 SAID35 WAGB 270330 METAR WAGB 270330Z 05003KT 9000 BKN012 29/25 Q1012 NOSIG=  
27-Jun-2023 SAID35 WAGB 270400 METAR WAGB 270400Z 36003KT 9000 SCT012 30/25 Q1011 NOSIG=  
27-Jun-2023 SAID35 WAGB 270430 METAR WAGB 270430Z 15003KT 9000 SCT012 29/23 Q1011 NOSIG=  
27-Jun-2023 SAID35 WAGB 270500 METAR WAGB 270500Z VRB02KT 9999 SCT012 30/23 Q1011 NOSIG=  
27-Jun-2023 SAID35 WAGB 270530 METAR WAGB 270530Z 00000KT 9999 SCT012 30/23 Q1010 NOSIG=  
27-Jun-2023 SAID35 WAGB 270600 METAR WAGB 270600Z 07004KT 9999 BKN012 29/25 Q1010 NOSIG=  
27-Jun-2023 SAID35 WAGB 270630 METAR WAGB 270630Z 00000KT 9999 SCT012 29/25 Q1009 NOSIG=  
27-Jun-2023 SAID35 WAGB 270700 METAR WAGB 270700Z 00000KT 9999 SCT012 30/25 Q1009 NOSIG=  
27-Jun-2023 SAID35 WAGB 270730 METAR WAGB 270730Z 00000KT 9999 SCT012 30/25 Q1008 NOSIG=  
27-Jun-2023 SAID35 WAGB 270800 METAR WAGB 270800Z 07002KT 9999 FEW012CB SCT013 30/25 Q1009 NOSIG=  
27-Jun-2023 SAID35 WAGB 270830 METAR WAGB 270830Z 00000KT 9999 FEW012CB SCT013 30/25 Q1009 NOSIG=  
27-Jun-2023 SAID35 WAGB 270900 METAR WAGB 270900Z 02003KT 9999 FEW012CB SCT015 29/25 Q1009 NOSIG=  
27-Jun-2023 SAID35 WAGB 270930 METAR WAGB 270930Z 03003KT 9999 FEW012CB SCT015 29/25 Q1009 NOSIG=  
27-Jun-2023 SAID35 WAGB 271000 METAR WAGB 271000Z 00000KT 9999 FEW012CB SCT015 28/25 Q1010 NOSIG=  
27-Jun-2023 SAID35 WAGB 271030 METAR WAGB 271030Z 00000KT 9999 FEW012CB SCT015 28/25 Q1010 NOSIG=  
27-Jun-2023 SAID35 WAGB 271100 METAR WAGB 271100Z 00000KT 9000 FEW012CB SCT015 27/25 Q1010 NOSIG=  
27-Jun-2023 SAID35 WAGB 271130 METAR WAGB 271130Z 00000KT 9000 FEW012CB SCT015 27/25 Q1010 NOSIG=  
27-Jun-2023 SAID35 WAGB 271200 METAR WAGB 271200Z 00000KT 8000 FEW014 26/24 Q1011=  
27-Jun-2023 SAID35 WAGB 271230 METAR WAGB 271230Z 00000KT 8000 FEW014 26/24 Q1012=  
27-Jun-2023 SAID35 WAGB 271300 METAR WAGB 271300Z 00000KT 8000 FEW014 26/24 Q1012=  
27-Jun-2023 SAID35 WAGB 271330 METAR WAGB 271330Z 00000KT 8000 FEW014 25/24 Q1012=  
27-Jun-2023 SAID35 WAGB 271400 METAR WAGB 271400Z 00000KT 8000 FEW013 25/24 Q1012=  
27-Jun-2023 SAID35 WAGB 271500 METAR WAGB 271500Z 00000KT 7000 FEW013 25/24 Q1013=  
27-Jun-2023 SAID35 WAGB 271530 METAR WAGB 271530Z 00000KT 7000 FEW013 25/24 Q1013=  
27-Jun-2023 SAID35 WAGB 271600 METAR WAGB 271600Z 00000KT 7000 FEW013 25/24 Q1013=  
27-Jun-2023 SAID35 WAGB 271630 METAR WAGB 271630Z 00000KT 7000 FEW013 25/24 Q1012=  
27-Jun-2023 SAID35 WAGB 271700 METAR WAGB 271700Z 00000KT 7000 FEW013 25/24 Q1012=  
27-Jun-2023 SAID35 WAGB 271730 METAR WAGB 271730Z 00000KT 7000 FEW013 25/24 Q1012=  
27-Jun-2023 SAID35 WAGB 271800 METAR WAGB 271800Z 00000KT 6000 FEW012 24/24 Q1012=  
27-Jun-2023 SAID35 WAGB 271830 METAR WAGB 271830Z 00000KT 6000 FEW012 24/24 Q1011=  
27-Jun-2023 SAID35 WAGB 271900 METAR WAGB 271900Z 00000KT 6000 FEW012 24/24 Q1011=  
27-Jun-2023 SAID35 WAGB 271930 METAR WAGB 271930Z 00000KT 6000 FEW012 24/24 Q1011=  
27-Jun-2023 SAID35 WAGB 272000 METAR WAGB 272000Z 00000KT 6000 FEW012 24/23 Q1011=  
27-Jun-2023 SAID35 WAGB 272030 METAR WAGB 272030Z 00000KT 6000 FEW012 24/23 Q1012=  
27-Jun-2023 SAID35 WAGB 272100 METAR WAGB 272100Z 00000KT 6000 FEW012 24/23 Q1012=  
27-Jun-2023 SAID35 WAGB 272130 METAR WAGB 272130Z 00000KT 6000 FEW012 24/23 Q1012=  
27-Jun-2023 SAID35 WAGB 272200 METAR WAGB 272200Z 00000KT 6000 FEW012 24/23 Q1012=  
27-Jun-2023 SAID35 WAGB 272230 METAR WAGB 272230Z 00000KT 6000 FEW012 24/23 Q1013=  
27-Jun-2023 SAID35 WAGB 272300 METAR WAGB 272300Z 00000KT 7000 FEW012 24/24 Q1013=  
27-Jun-2023 SAID35 WAGB 272330 METAR WAGB 272330Z 00000KT 7000 FEW012 24/23 Q1013=  
28-Jun-2023 SAID35 WAGB 280000 METAR WAGB 280000Z 00000KT 7000 FEW012 25/24 Q1012=  
28-Jun-2023 SAID35 WAGB 280030 METAR WAGB 280000Z 00000KT 7000 FEW012 25/24 Q1013=  
28-Jun-2023 SAID35 WAGB 280100 METAR WAGB 280100Z 00000KT 7000 FEW012 26/25 Q1013=  
28-Jun-2023 SAID35 WAGB 280130 METAR WAGB 280130Z 00000KT 7000 FEW012 27/25 Q1013=  
28-Jun-2023 SAID35 WAGB 280200 METAR WAGB 280200Z 00000KT 9000 SCT013 28/25 Q1012=  
28-Jun-2023 SAID35 WAGB 280230 METAR WAGB 280230Z 00000KT 9000 SCT013 28/25 Q1012=  
28-Jun-2023 SAID35 WAGB 280300 METAR WAGB 280300Z 03003KT 9999 SCT013 28/25 Q1012=  
28-Jun-2023 SAID35 WAGB 280330 METAR WAGB 280330Z 06003KT 9999 SCT013 29/25 Q1011=  
28-Jun-2023 SAID35 WAGB 280400 METAR WAGB 280400Z 33005KT 9999 SCT013 30/25 Q1011=  
28-Jun-2023 SAID35 WAGB 280430 METAR WAGB 280430Z 22004KT 9999 SCT013 31/25 Q1010=  
28-Jun-2023 SAID35 WAGB 280500 METAR WAGB 280500Z 33005KT 9999 BKN013 31/25 Q1010=  
28-Jun-2023 SAID35 WAGB 280530 METAR WAGB 280530Z 16006KT 9999 FEW013TCU BKN014 31/25 Q1010 NOSIG=  
28-Jun-2023 SAID35 WAGB 280600 METAR WAGB 280600Z 13003KT 9999 FEW013TCU BKN014 32/24 Q1009 NOSIG=  
28-Jun-2023 SAID35 WAGB 280630 METAR WAGB 280630Z 26005KT 9999 FEW013TCU BKN014 33/25 Q1009 NOSIG=  
28-Jun-2023 SAID35 WAGB 280700 METAR WAGB 280700Z 00000KT 9999 FEW013TCU BKN014 33/25 Q1008 NOSIG=  
28-Jun-2023 SAID35 WAGB 280730 METAR WAGB 280730Z 00000KT 9999 FEW013TCU BKN014 33/25 Q1008 NOSIG=  
28-Jun-2023 SAID35 WAGB 280800 METAR WAGB 280800Z 240002T 9999 FEW013TCU BKN014 33/25 Q1008 NOSIG=  
28-Jun-2023 SAID35 WAGB 280900 METAR WAGB 280900Z 00000KT 9999 FEW013CB SCT015 32/25 Q1008 NOSIG=  
28-Jun-2023 SAID35 WAGB 280930 METAR WAGB 280930Z 00000KT 9999 FEW013CB SCT015 32/25 Q1008 NOSIG=  
28-Jun-2023 SAID35 WAGB 281000 METAR WAGB 281000Z 11004KT 5000 VCSH FEW013CB BKN015 31/25 Q1009=  
28-Jun-2023 SAID35 WAGB 281030 METAR WAGB 281030Z 13004KT 5000 VCSH FEW013CB BKN015 31/25 Q1009=  
28-Jun-2023 SAID35 WAGB 281100 METAR WAGB 281100Z 00000KT 4000 -RA FEW014CB BKN015 28/25 Q1010=  
28-Jun-2023 SAID35 WAGB 281130 METAR WAGB 281130Z 00000KT 4000 -RA FEW014CB BKN015 28/25 Q1010=  
28-Jun-2023 SAID35 WAGB 281200 METAR WAGB 281200Z 00000KT 7000 FEW012CB BKN013 27/25 Q1011=  
28-Jun-2023 SAID35 WAGB 281230 METAR WAGB 281230Z 00000KT 7000 FEW012CB BKN013 27/25 Q1011=  
28-Jun-2023 SAID35 WAGB 281300 METAR WAGB 281300Z 00000KT 7000 FEW012CB BKN013 27/25 Q1011=  
28-Jun-2023 SAID35 WAGB 281330 METAR WAGB 281330Z 00000KT 7000 FEW012CB BKN013 27/25 Q1011=  
28-Jun-2023 SAID35 WAGB 281330 CCA METAR WAGB 281330Z 00000KT 7000 FEW012CB BKN013 27/25 Q1012=  
28-Jun-2023 SAID35 WAGB 281400 METAR WAGB 281400Z 00000KT 7000 FEW012CB BKN013 27/25 Q1012=  
28-Jun-2023 SAID35 WAGB 281430 METAR WAGB 281430Z 00000KT 7000 FEW012CB BKN013 27/25 Q1012=  
28-Jun-2023 SAID35 WAGB 281500 METAR WAGB 281500Z 00000KT 6000 BKN012 26/25 Q1012=  
28-Jun-2023 SAID35 WAGB 281530 METAR WAGB 281530Z 00000KT 6000 BKN012 26/25 Q1012=  
28-Jun-2023 SAID35 WAGB 281600 METAR WAGB 281600Z 00000KT 6000 SCT012 26/25 Q1012=  
28-Jun-2023 SAID35 WAGB 281630 METAR WAGB 281630Z 00000KT 6000 SCT012 26/25 Q1012=  
28-Jun-2023 SAID35 WAGB 281700 METAR WAGB 281700Z 00000KT 6000 SCT012 26/24 Q1012=  
28-Jun-2023 SAID35 WAGB 281730 METAR WAGB 281730Z 00000KT 6000 SCT012 26/24 Q1011=  
28-Jun-2023 SAID35 WAGB 281800 METAR WAGB 281800Z 00000KT 5000 HZ BKN011 25/24 Q1011=  
28-Jun-2023 SAID35 WAGB 281830 METAR WAGB 281830Z 00000KT 5000 HZ BKN011 25/24 Q1011=  
28-Jun-2023 SAID35 WAGB 281900 METAR WAGB 281900Z 00000KT 5000 HZ BKN011 25/24 Q1010=  
28-Jun-2023 SAID35 WAGB 281930 METAR WAGB 281930Z 00000KT 5000 HZ BKN011 25/24 Q1010=  
28-Jun-2023 SAID35 WAGB 282000 METAR WAGB 282000Z 00000KT 5000 HZ BKN011 25/24 Q1009=  
28-Jun-2023 SAID35 WAGB 282000 CCA METAR WAGB 282000Z 00000KT 5000 HZ BKN011 25/24 Q1010=  
28-Jun-2023 SAID35 WAGB 282030 METAR WAGB 282030Z 00000KT 5000 HZ BKN011 25/24 Q1010=  
28-Jun-2023 SAID35 WAGB 282100 METAR WAGB 282100Z 00000KT 5000 HZ BKN010 24/24 Q1010=  
28-Jun-2023 SAID35 WAGB 282200 METAR WAGB 282200Z 00000KT 5000 HZ BKN010 24/24 Q1011=  
28-Jun-2023 SAID35 WAGB 282230 METAR WAGB 282230Z 00000KT 5000 HZ BKN010 24/24 Q1011=  
28-Jun-2023 SAID35 WAGB 282300 METAR WAGB 282300Z 00000KT 4000 BR SCT010 24/24 Q1011=  
28-Jun-2023 SAID35 WAGB 282330 METAR WAGB 282330Z 00000KT 4000 BR SCT010 24/24 Q1011=  
29-Jun-2023 SAID35 WAGB 290000 METAR WAGB 290000Z 00000KT 4000 HZ BKN010 25/24 Q1012 NOSIG=  
29-Jun-2023 SAID35 WAGB 290030 METAR WAGB 290030Z 00000KT 7000 FEW009 27/25 Q1012 NOSIG=  
29-Jun-2023 SAID35 WAGB 290100 METAR WAGB 290100Z 00000KT 8000 FEW009 29/25 Q1012 NOSIG=  
29-Jun-2023 SAID35 WAGB 290130 METAR WAGB 290130Z 36002KT 8000 SCT010 28/24 Q1012 NOSIG=  
29-Jun-2023 SAID35 WAGB 290200 METAR WAGB 290200Z 34002KT 9999 BKN010 30/25 Q1012 NOSIG=  
29-Jun-2023 SAID35 WAGB 290230 METAR WAGB 290230Z 00000KT 9999 BKN011 30/25 Q1012 NOSIG=  
29-Jun-2023 SAID35 WAGB 290300 METAR WAGB 290300Z 00000KT 9999 BKN011 30/24 Q1011 NOSIG=  
29-Jun-2023 SAID35 WAGB 290330 METAR WAGB 290330Z 00000KT 9999 BKN012 30/24 Q1011 NOSIG=  
29-Jun-2023 SAID35 WAGB 290400 METAR WAGB 290400Z 05002KT 9999 BKN012 31/24 Q1011 NOSIG=  
29-Jun-2023 SAID35 WAGB 290430 METAR WAGB 290430Z 00000KT 9999 BKN013 32/24 Q1010 NOSIG=  
29-Jun-2023 SAID35 WAGB 290500 METAR WAGB 290500Z 00000KT 9999 BKN013 33/24 Q1009 NOSIG=  
29-Jun-2023 SAID35 WAGB 290530 METAR WAGB 290530Z 00000KT 9999 BKN013 33/24 Q1009 NOSIG=  
29-Jun-2023 SAID35 WAGB 290600 METAR WAGB 290600Z 20003KT 9999 BKN013 33/24 Q1008 NOSIG=  
29-Jun-2023 SAID35 WAGB 290630 METAR WAGB 290630Z 28003KT 9999 BKN013 33/24 Q1007 NOSIG=  
29-Jun-2023 SAID35 WAGB 290700 METAR WAGB 290700Z 15003KT 9999 BKN013 33/24 Q1007 NOSIG=  
29-Jun-2023 SAID35 WAGB 290730 METAR WAGB 290730Z 13003KT 9999 BKN013 33/24 Q1007 NOSIG=  
29-Jun-2023 SAID35 WAGB 290800 METAR WAGB 290800Z 00000KT 9999 BKN013 32/24 Q1006 NOSIG=  
29-Jun-2023 SAID35 WAGB 290830 METAR WAGB 290830Z 00000KT 9999 BKN013 32/24 Q1006 NOSIG=  
29-Jun-2023 SAID35 WAGB 290900 METAR WAGB 290900Z 03003KT 9999 SCT014 34/24 Q1006 NOSIG=  
29-Jun-2023 SAID35 WAGB 290930 METAR WAGB 290930Z 00000KT 9999 SCT014 33/24 Q1006 NOSIG=  
29-Jun-2023 SAID35 WAGB 291000 METAR WAGB 291000Z 00000KT 9999 FEW013CB SCT014 33/25 Q1007 NOSIG=  
29-Jun-2023 SAID35 WAGB 291030 METAR WAGB 291030Z 00000KT 9999 FEW013CB SCT014 32/25 Q1007 NOSIG=  
29-Jun-2023 SAID35 WAGB 291100 METAR WAGB 291100Z 00000KT 9000 FEW013CB SCT014 31/26 Q1008 NOSIG=  
29-Jun-2023 SAID35 WAGB 291130 METAR WAGB 291130Z 00000KT 9000 FEW013CB SCT014 30/26 Q1008 NOSIG=  
29-Jun-2023 SAID35 WAGB 291200 METAR WAGB 291200Z 00000KT 8000 FEW013CB SCT014 30/26 Q1009 NOSIG=  
29-Jun-2023 SAID35 WAGB 291230 METAR WAGB 291230Z 00000KT 8000 FEW013CB SCT014 30/26 Q1009 NOSIG=  
29-Jun-2023 SAID35 WAGB 291300 METAR WAGB 291300Z 00000KT 8000 FEW012CB SCT013 29/26 Q1009 NOSIG=  
29-Jun-2023 SAID35 WAGB 291330 CCA METAR WAGB 291330Z 00000KT 8000 FEW012CB SCT013 29/26 Q1010 NOSIG=  
29-Jun-2023 SAID35 WAGB 291330 METAR WAGB 291330Z 00000KT 8000 FEW012CB SCT013 29/26 Q1009 NOSIG=  
29-Jun-2023 SAID35 WAGB 291400 METAR WAGB 291400Z 00000KT 8000 FEW012CB SCT013 28/26 Q1010 NOSIG=  
29-Jun-2023 SAID35 WAGB 291430 METAR WAGB 291430Z 00000KT 8000 FEW012CB SCT013 28/26 Q1010 NOSIG=  
29-Jun-2023 SAID35 WAGB 291500 METAR WAGB 291500Z 00000KT 8000 VCTS FEW011CB SCT012 28/26 Q1010 NOSIG=  
29-Jun-2023 SAID35 WAGB 291530 METAR WAGB 291530Z 25002KT 8000 VCTS FEW011CB SCT012 28/26 Q1010 NOSIG=  
29-Jun-2023 SAID35 WAGB 291600 METAR WAGB 291600Z 00000KT 7000 VCTS FEW011CB SCT012 27/26 Q1010 NOSIG=  
29-Jun-2023 SAID35 WAGB 291630 METAR WAGB 291630Z 00000KT 7000 VCTS FEW011CB SCT012 27/26 Q1010 NOSIG=  
29-Jun-2023 SAID35 WAGB 291700 METAR WAGB 291700Z 17005KT 6000 TS FEW010CB BKN011 27/25 Q1010 NOSIG=  
29-Jun-2023 SAID35 WAGB 291730 METAR WAGB 291730Z 22004KT 6000 TS FEW010CB BKN011 27/25 Q1010 NOSIG=  
29-Jun-2023 SAID35 WAGB 291800 METAR WAGB 291800Z 23008KT 5000 VCTS FEW010CB BKN011 26/25 Q1010 NOSIG=  
29-Jun-2023 SAID35 WAGB 291830 METAR WAGB 291830Z 00000KT 5000 VCSH FEW010CB BKN011 26/25 Q1010 NOSIG=  
29-Jun-2023 SPID35 WAGB 291845 SPECI WAGB 291845Z 20002KT 4000 RA FEW010CB BKN011 25/24 Q1010=  
29-Jun-2023 SAID35 WAGB 291900 METAR WAGB 291900Z 20002KT 4000 RA FEW009CB BKN010 25/24 Q1010 NOSIG=  
29-Jun-2023 SAID35 WAGB 291930 METAR WAGB 291930Z 30005KT 4000 -RA FEW009CB BKN010 25/24 Q1009 NOSIG=  
29-Jun-2023 SPID35 WAGB 291945 SPECI WAGB 291945Z 30005KT 4000 FEW010CB BKN011 25/24 Q1010 RERA=  
29-Jun-2023 SAID35 WAGB 292000 METAR WAGB 292000Z 27005KT 4000 BKN010 25/24 Q1010 RERA NOSIG=  
29-Jun-2023 SAID35 WAGB 292030 METAR WAGB 292030Z 00000KT 4000 BKN010 25/24 Q1010 NOSIG=  
29-Jun-2023 SAID35 WAGB 292100 METAR WAGB 292100Z 00000KT 4000 BR BKN010 25/24 Q1010 NOSIG=  
29-Jun-2023 SAID35 WAGB 292130 METAR WAGB 292130Z 00000KT 4000 BR BKN010 25/24 Q1010 NOSIG=  
29-Jun-2023 SAID35 WAGB 292200 METAR WAGB 292200Z 00000KT 4000 BR BKN010 25/24 Q1010 NOSIG=  
29-Jun-2023 SAID35 WAGB 292230 METAR WAGB 292230Z 00000KT 4000 BR SCT010 25/24 Q1011 NOSIG=  
29-Jun-2023 SAID35 WAGB 292300 METAR WAGB 292300Z 00000KT 5000 BR SCT010 25/24 Q1011 NOSIG=  
29-Jun-2023 SAID35 WAGB 292330 METAR WAGB 292330Z 00000KT 5000 BR SCT010 25/24 Q1012 NOSIG=  
30-Jun-2023 SAID35 WAGB 300000 METAR WAGB 300000Z 00000KT 3500 BR BKN009 25/24 Q1012 NOSIG=  
30-Jun-2023 SAID35 WAGB 300100 METAR WAGB 300100Z 00000KT 5000 HZ BKN010 25/24 Q1012 NOSIG=  
30-Jun-2023 SAID35 WAGB 300130 METAR WAGB 300130Z 00000KT 6000 BKN010 25/24 Q1012 NOSIG=  
30-Jun-2023 SAID35 WAGB 300200 METAR WAGB 300200Z 00000KT 7000 BKN010 27/25 Q1012 NOSIG=  
30-Jun-2023 SAID35 WAGB 300230 METAR WAGB 300230Z 00000KT 9000 BKN010 27/25 Q1011 NOSIG=  
30-Jun-2023 SAID35 WAGB 300300 METAR WAGB 300300Z 00000KT 9999 SCT011 29/25 Q1011 NOSIG=  
30-Jun-2023 SAID35 WAGB 300330 METAR WAGB 300330Z 00000KT 9999 SCT011 29/25 Q1011 NOSIG=  
30-Jun-2023 SAID35 WAGB 300400 METAR WAGB 300400Z 23003KT 9999 BKN011 30/25 Q1010 NOSIG=  
30-Jun-2023 SAID35 WAGB 300430 METAR WAGB 300430Z 33004KT 9999 BKN012 31/25 Q1010 NOSIG=  
30-Jun-2023 SAID35 WAGB 300500 METAR WAGB 300500Z 00000KT 9999 BKN012 30/24 Q1009 NOSIG=  
30-Jun-2023 SAID35 WAGB 300530 METAR WAGB 300530Z 10003KT 9999 BKN012 30/24 Q1009 NOSIG=  
30-Jun-2023 SAID35 WAGB 300600 METAR WAGB 300600Z 31003KT 9999 SCT012 32/24 Q1008 NOSIG=  
30-Jun-2023 SAID35 WAGB 300630 METAR WAGB 300630Z 00000KT 9999 SCT012 32/24 Q1008 NOSIG=  
30-Jun-2023 SAID35 WAGB 300700 METAR WAGB 300700Z VRB02KT 9999 SCT012 33/25 Q1007 NOSIG=  
30-Jun-2023 SAID35 WAGB 300730 METAR WAGB 300730Z 05003KT 9999 SCT012 33/25 Q1007 NOSIG=  
30-Jun-2023 SAID35 WAGB 300800 METAR WAGB 300800Z 11003KT 9999 FEW012TCU SCT013 33/24 Q1007 NOSIG=  
30-Jun-2023 SAID35 WAGB 300830 METAR WAGB 300830Z VRB02KT 9999 FEW012TCU SCT013 33/24 Q1007 NOSIG=  
30-Jun-2023 SAID35 WAGB 300900 METAR WAGB 300900Z 00000KT 9999 FEW012TCU SCT013 33/24 Q1007 NOSIG=  
30-Jun-2023 SAID35 WAGB 300930 METAR WAGB 300930Z 00000KT 9999 FEW014TCU SCT015 33/26 Q1006 NOSIG=  
30-Jun-2023 SAID35 WAGB 301000 METAR WAGB 301000Z 05004KT 9999 FEW014TCU SCT015 31/26 Q1007 NOSIG=  
30-Jun-2023 SAID35 WAGB 301030 METAR WAGB 301030Z 00000KT 9999 FEW014TCU SCT015 31/26 Q1007 NOSIG=  
30-Jun-2023 SAID35 WAGB 301100 METAR WAGB 301100Z 00000KT 8000 FEW014TCU SCT015 30/26 Q1009 NOSIG=  
30-Jun-2023 SAID35 WAGB 301130 METAR WAGB 301130Z 00000KT 8000 FEW014TCU SCT015 30/26 Q1009 NOSIG=  
30-Jun-2023 SAID35 WAGB 301200 METAR WAGB 301200Z 00000KT 8000 SCT013 29/26 Q1009=  
30-Jun-2023 SAID35 WAGB 301230 METAR WAGB 301230Z 00000KT 8000 SCT013 29/26 Q1009=  
30-Jun-2023 SAID35 WAGB 301300 METAR WAGB 301300Z 00000KT 8000 SCT013 29/26 Q1010=  
30-Jun-2023 SAID35 WAGB 301330 METAR WAGB 301330Z 00000KT 8000 SCT013 29/26 Q1010=  
30-Jun-2023 SAID35 WAGB 301400 METAR WAGB 301400Z 00000KT 8000 SCT012 26/24 Q1011=  
30-Jun-2023 SAID35 WAGB 301430 METAR WAGB 301430Z 00000KT 8000 SCT012 26/24 Q1011=  
30-Jun-2023 SAID35 WAGB 301500 METAR WAGB 301500Z 00000KT 8000 SCT012 26/25 Q1011=  
30-Jun-2023 SAID35 WAGB 301530 METAR WAGB 301530Z 00000KT 8000 SCT012 26/25 Q1011=  
30-Jun-2023 SAID35 WAGB 301600 METAR WAGB 301600Z 00000KT 7000 SCT012 26/25 Q1011=  
30-Jun-2023 SAID35 WAGB 301630 METAR WAGB 301630Z 00000KT 7000 SCT012 26/25 Q1011=  
30-Jun-2023 SAID35 WAGB 301700 METAR WAGB 301700Z 00000KT 6000 SCT011 25/24 Q1011=  
30-Jun-2023 SAID35 WAGB 301730 METAR WAGB 301730Z 00000KT 6000 SCT011 25/24 Q1011=  
30-Jun-2023 SAID35 WAGB 301800 METAR WAGB 301800Z 00000KT 6000 SCT011 25/24 Q1010=  
30-Jun-2023 SAID35 WAGB 301830 METAR WAGB 301830Z 00000KT 6000 SCT011 25/24 Q1010=  
30-Jun-2023 SAID35 WAGB 301900 METAR WAGB 301900Z 00000KT 5000 SCT011 25/24 Q1010=  
30-Jun-2023 SAID35 WAGB 301930 METAR WAGB 301930Z 00000KT 5000 SCT011 25/24 Q1010=  
30-Jun-2023 SAID35 WAGB 302000 METAR WAGB 302000Z 00000KT 5000 SCT011 25/24 Q1009=  
30-Jun-2023 SAID35 WAGB 302030 METAR WAGB 302030Z 00000KT 5000 SCT011 25/24 Q1009=  
30-Jun-2023 SAID35 WAGB 302100 METAR WAGB 302100Z 00000KT 5000 SCT010 24/24 Q1009=  
30-Jun-2023 SAID35 WAGB 302130 METAR WAGB 302130Z 00000KT 5000 SCT010 24/24 Q1009=  
30-Jun-2023 SAID35 WAGB 302200 METAR WAGB 302200Z 00000KT 5000 SCT010 25/24 Q1010=  
30-Jun-2023 SAID35 WAGB 302230 METAR WAGB 302230Z 00000KT 5000 SCT010 25/24 Q1011=  
30-Jun-2023 SAID35 WAGB 302330 METAR WAGB 302330Z 00000KT 5000 SCT010 25/24 Q1011=  
01-Jul-2023 SAID35 WAGB 010000 METAR WAGB 310000Z 23003KT 7000 SCT011 27/24 Q1012 NOSIG=  
01-Jul-2023 SAID35 WAGB 010030 METAR WAGB 310030Z 27003KT 7000 SCT011 27/24 Q1012 NOSIG=  
01-Jul-2023 SAID35 WAGB 010100 METAR WAGB 010100Z 03005KT 7000 SCT010 27/24 Q1012 NOSIG=  
01-Jul-2023 SAID35 WAGB 010130 METAR WAGB 010130Z 00000KT 7000 SCT010 28/24 Q1012 NOSIG=  
01-Jul-2023 SAID35 WAGB 010200 METAR WAGB 010200Z 00000KT 8000 SCT011 29/25 Q1012 NOSIG=  
01-Jul-2023 SAID35 WAGB 010230 METAR WAGB 010230Z 00000KT 8000 SCT011 29/25 Q1012 NOSIG=  
01-Jul-2023 SAID35 WAGB 010300 METAR WAGB 010300Z 00000KT 8000 SCT011 30/25 Q1012 NOSIG=  
01-Jul-2023 SAID35 WAGB 010330 METAR WAGB 010330Z 00000KT 8000 SCT011 30/25 Q1011 NOSIG=  
01-Jul-2023 SAID35 WAGB 010400 METAR WAGB 010400Z 00000KT 9999 SCT011 31/25 Q1010 NOSIG=  
01-Jul-2023 SAID35 WAGB 010430 METAR WAGB 010430Z 29002KT 9999 SCT011 31/25 Q1010 NOSIG=  
01-Jul-2023 SAID35 WAGB 010500 METAR WAGB 010500Z 01005KT 9999 SCT012 31/25 Q1009 NOSIG=  
01-Jul-2023 SAID35 WAGB 010530 METAR WAGB 010530Z 31003KT 9999 SCT012 31/25 Q1009 NOSIG=  
01-Jul-2023 SAID35 WAGB 010600 METAR WAGB 010600Z 10006KT 9999 -RA SCT012 31/25 Q1009 NOSIG=  
01-Jul-2023 SAID35 WAGB 010630 METAR WAGB 010630Z 00000KT 9999 SCT012 31/25 Q1008 RERA NOSIG=  
01-Jul-2023 SAID35 WAGB 010930 METAR WAGB 010930Z 00000KT 9999 FEW014CB FEW015 30/26 Q1008 NOSIG=  
01-Jul-2023 SAID35 WAGB 011030 METAR WAGB 011030Z 00000KT 9999 FEW014CB 29/25 Q1008 BOSIG=  
01-Jul-2023 SAID35 WAGB 011130 METAR WAGB 011130Z 00000KT 9000 FEW014 28/25 Q1009 NOSIG=  
02-Jul-2023 SAID35 WAGB 020000 METAR WAGB 020000Z 00000KT 4000 BR BKN010 26/25 Q1012 NOSIG=  
02-Jul-2023 SAID35 WAGB 020030 METAR WAGB 020030Z 00000KT 4000 BR BKN010 26/25 Q1013 NOSIG=  
02-Jul-2023 SAID35 WAGB 020100 METAR WAGB 020100Z 00000KT 6000 BKN010 27/25 Q1013 NOSIG=  
02-Jul-2023 SAID35 WAGB 020130 METAR WAGB 020130Z 35003KT 7000 BKN010 27/24 Q1013 NOSIG=  
02-Jul-2023 SAID35 WAGB 020200 METAR WAGB 020200Z 08003KT 8000 BKN010 27/24 Q1013 NOSIG=  
02-Jul-2023 SAID35 WAGB 020230 METAR WAGB 020230Z 07003KT 7000 BKN011 28/24 Q1013 NOSIG=  
02-Jul-2023 SAID35 WAGB 020300 METAR WAGB 020300Z VRB02KT 9000 SCT011 30/24 Q1012 NOSIG=  
02-Jul-2023 SAID35 WAGB 020330 METAR WAGB 020330Z 00000KT 9000 BKN012 29/24 Q1012 NOSIG=  
02-Jul-2023 SAID35 WAGB 020400 METAR WAGB 020400Z 27004KT 9999 BKN012 30/24 Q1011 NOSIG=  
02-Jul-2023 SAID35 WAGB 020430 METAR WAGB 020430Z 20003KT 9999 BKN012 31/24 Q1011 NOSIG=  
02-Jul-2023 SAID35 WAGB 020500 METAR WAGB 020500Z 23003KT 9999 BKN012 31/24 Q1010 NOSIG=  
02-Jul-2023 SAID35 WAGB 020530 METAR WAGB 020530Z 00000KT 9999 BKN012 31/24 Q1010 NOSIG=  
02-Jul-2023 SAID35 WAGB 020600 METAR WAGB 020600Z 24003KT 9999 BKN012 31/25 Q1009 NOSIG=  
02-Jul-2023 SAID35 WAGB 020630 METAR WAGB 020630Z 00000KT 9999 FEW011TCU BKN012 30/24 Q1009 NOSIG=  
02-Jul-2023 SAID35 WAGB 020700 METAR WAGB 020700Z 00000KT 9999 FEW011TCU BKN012 29/25 Q1008 NOSIG=  
02-Jul-2023 SAID35 WAGB 020730 METAR WAGB 020730Z 24004KT 9999 FEW011TCU BKN012 29/25 Q1008 NOSIG=  
02-Jul-2023 SAID35 WAGB 020830 METAR WAGB 020830Z 26003KT 9999 FEW012CB SCT013 31/25 Q1008 NOSIG=  
02-Jul-2023 SAID35 WAGB 020900 METAR WAGB 020900Z 27003KT 9999 FEW012CB SCT013 31/25 Q1008 NOSIG=  
02-Jul-2023 SAID35 WAGB 020930 METAR WAGB 020930Z 00000KT 9999 FEW013CB BKN014 32/26 Q1009=  
02-Jul-2023 SAID35 WAGB 021000 METAR WAGB 021000Z 22008KT 7000 -RA FEW012CB BKN013 30/26 Q1008=  
02-Jul-2023 SAID35 WAGB 021030 METAR WAGB 021030Z 19004KT 5000 -RA FEW012CB BKNN013 28/25 Q1010=  
02-Jul-2023 SAID35 WAGB 021100 METAR WAGB 021100Z 13004KT 3000 -TSRA FEW011CB BKN012 26/25 Q1011=  
02-Jul-2023 SAID35 WAGB 021130 METAR WAGB 021130Z 00000KT 3000 -TSRA FEW011CB BKN012 25/24 Q1012=  
02-Jul-2023 SAID35 WAGB 021200 METAR WAGB 021200Z 00000KT 4000 -TSRA FEW011CB BKN012 25/24 Q1012=  
02-Jul-2023 SAID35 WAGB 021230 METAR WAGB 021230Z 00000KT 5000 TS FEW011CB BKN012 25/24 Q1012 RERA=  
02-Jul-2023 SAID35 WAGB 021300 METAR WAGB 021300Z 00000KT 5000 FEW011CB BKN012 25/24 Q1013 RETS=  
02-Jul-2023 SAID35 WAGB 021330 METAR WAGB 021330Z 00000KT 5000 VCTS FEW011CB BKN012 25/24 Q1013=  
02-Jul-2023 SAID35 WAGB 021400 METAR WAGB 021400Z 00000KT 6000 VCTS FEW011CB BKN012 25/24 Q1013=  
02-Jul-2023 SAID35 WAGB 021430 METAR WAGB 021430Z 00000KT 6000 VCTS FEW011CB BKN012 25/24 Q1013=  
02-Jul-2023 SAID35 WAGB 021500 METAR WAGB 021500Z 00000KT 6000 VCTS FEW011CB BKN012 25/24 Q1013=  
02-Jul-2023 SAID35 WAGB 021530 METAR WAGB 021530Z 00000KT 6000 VCTS FEW011CB BKN012 25/24 Q1013=  
02-Jul-2023 SAID35 WAGB 021600 METAR WAGB 021600Z 00000KT 6000 VCTS FEW011CB BKN012 25/25 Q1013=  
02-Jul-2023 SAID35 WAGB 021630 METAR WAGB 021630Z 00000KT 6000 VCTS FEW011CB BKN012 25/25 Q1013=  
02-Jul-2023 SAID35 WAGB 021700 METAR WAGB 021700Z 00000KT 6000 VCTS FEW011CB BKN012 25/25 Q1012=  
02-Jul-2023 SAID35 WAGB 021730 METAR WAGB 021730Z 00000KT 6000 VCTS FEW011CB BKN012 25/25 Q1012=  
02-Jul-2023 SAID35 WAGB 021800 METAR WAGB 021800Z 00000KT 5000 VCTS FEW012CB SCT014 25/25 Q1012=  
02-Jul-2023 SAID35 WAGB 021830 METAR WAGB 021830Z 00000KT 5000 VCTS FEW012CB SCT014 25/25 Q1012=  
02-Jul-2023 SAID35 WAGB 021900 METAR WAGB 021900Z 00000KT 5000 VCTS FEW012CB SCT014 25/25 Q1012=  
02-Jul-2023 SAID35 WAGB 021930 METAR WAGB 021930Z 00000KT 5000 VCTS FEW012CB SCT014 25/25 Q1012=  
02-Jul-2023 SAID35 WAGB 022000 METAR WAGB 022000Z 00000KT 5000 VCTS FEW012CB SCT014 25/25 Q1012=  
02-Jul-2023 SAID35 WAGB 022030 METAR WAGB 022030Z 00000KT 5000 VCTS FEW012CB SCT014 25/25 Q1012=  
02-Jul-2023 SAID35 WAGB 022030 CCA METAR WAGB 022030Z 00000KT 4000 -RA FEW012CB SCT014 25/25 Q1012=  
02-Jul-2023 SAID35 WAGB 022100 METAR WAGB 022100Z 00000KT 3000 -RA FEW012CB BKN014 25/24 Q1012=  
02-Jul-2023 SAID35 WAGB 022130 METAR WAGB 022130Z 00000KT 4000 -RA FEW012CB BKN014 25/24 Q1012=  
02-Jul-2023 SAID35 WAGB 022200 METAR WAGB 022200Z 00000KT 4000 -RA FEW012CB BKN014 24/23 Q1012=  
02-Jul-2023 SAID35 WAGB 022230 METAR WAGB 022230Z 00000KT 5000 FEW012CB BKN014 24/23 Q1012 RERA=  
02-Jul-2023 SAID35 WAGB 022300 METAR WAGB 022300Z 00000KT 5000 VCSH BKN012 24/23 Q1013=  
02-Jul-2023 SAID35 WAGB 022330 METAR WAGB 022330Z 00000KT 5000 VCSH BKN012 24/23 Q1013=  
03-Jul-2023 SAID35 WAGB 030000 METAR WAGB 030000Z 19004KT 6000 BKN009 24/23 Q1013 NOSIG=  
03-Jul-2023 SAID35 WAGB 030300 METAR WAGB 030300Z 04002KT 7000 SCT010 26/24 Q1013 NOSIG=  
03-Jul-2023 SAID35 WAGB 030330 METAR WAGB 030330Z 36002KT 8000 SCT010 27/23 Q1013 NOSIG=  
03-Jul-2023 SAID35 WAGB 030400 METAR WAGB 030400Z 00000KT 8000 SCT010 27/24 Q1012 NOSIG=  
03-Jul-2023 SAID35 WAGB 030430 METAR WAGB 030430Z 23002KT 8000 SCT011 27/23 Q1012 NOSIG=  
03-Jul-2023 SAID35 WAGB 030500 METAR WAGB 030500Z 24003KT 9000 SCT012 27/24 Q1012 NOSIG=  
03-Jul-2023 SAID35 WAGB 030530 METAR WAGB 030530Z 23002KT 9000 VCSH SCT012 27/23 Q1011 NOSIG=  
03-Jul-2023 SAID35 WAGB 030600 METAR WAGB 030600Z 00000KT 9000 BKN012 28/26 Q1011 NOSIG=  
03-Jul-2023 SAID35 WAGB 030630 METAR WAGB 030630Z 00000KT 8000 BKN012 28/26 Q1011 NOSIG=  
03-Jul-2023 SAID35 WAGB 030700 METAR WAGB 030700Z 00000KT 8000 BKN011 28/26 Q1010 NOSIG=  
03-Jul-2023 SAID35 WAGB 030730 METAR WAGB 030730Z 00000KT 8000 BKN011 28/26 Q1010 NOSIG=  
03-Jul-2023 SAID35 WAGB 030800 METAR WAGB 030800Z 00000KT 8000 BKN011 28/26 Q1010 NOSIG=  
03-Jul-2023 SAID35 WAGB 030830 METAR WAGB 030830Z 00000KT 8000 BKN011 28/26 Q1010 NOSIG=  
03-Jul-2023 SAID35 WAGB 030900 METAR WAGB 030900Z 07003KT 8000 SCT011 28/26 Q1010 NOSIG=  
03-Jul-2023 SAID35 WAGB 030930 METAR WAGB 030930Z 04003KT 8000 SCT011 27/26 Q1010 NOSIG=  
03-Jul-2023 SAID35 WAGB 031000 METAR WAGB 031000Z 00000KT 7000 SCT011 27/25 Q1010 NOSIG=  
03-Jul-2023 SAID35 WAGB 031030 METAR WAGB 031030Z 00000KT 7000 SCT011 27/25 Q1010 NOSIG=  
03-Jul-2023 SAID35 WAGB 031100 METAR WAGB 031100Z 00000KT 7000 SCT011 26/25 Q1011 NOSIG=  
03-Jul-2023 SAID35 WAGB 031130 METAR WAGB 031130Z 00000KT 7000 SCT011 26/25 Q1011 NOSIG=  
03-Jul-2023 SAID35 WAGB 031200 METAR WAGB 031200Z 00000KT 7000 BKN010CB 26/25 Q1011=  
03-Jul-2023 SAID35 WAGB 031200 CCA METAR WAGB 031200Z 00000KT 7000 BKN010 26/25 Q1011=  
03-Jul-2023 SAID35 WAGB 031230 METAR WAGB 031230Z 00000KT 7000 BKN010 26/25 Q1012=  
03-Jul-2023 SAID35 WAGB 031300 METAR WAGB 031300Z 00000KT 7000 BKN010 26/25 Q1012=  
03-Jul-2023 SAID35 WAGB 031400 METAR WAGB 031400Z 00000KT 6000 BKN010 26/25 Q1012=  
03-Jul-2023 SAID35 WAGB 031400 CCA METAR WAGB 031400Z 00000KT 6000 -RA BKN010 26/25 Q1012=  
03-Jul-2023 SAID35 WAGB 031430 METAR WAGB 031430Z 00000KT 6000 -RA BKN010 26/25 Q1012=  
03-Jul-2023 SAID35 WAGB 031500 METAR WAGB 031500Z 00000KT 6000 BKN010 25/25 Q1013=  
03-Jul-2023 SAID35 WAGB 031500 CCA METAR WAGB 031500Z 00000KT 6000 -RA BKN010 25/25 Q1013=  
03-Jul-2023 SAID35 WAGB 031530 METAR WAGB 031530Z 00000KT 6000 -RA BKN010 25/25 Q1013=  
03-Jul-2023 SAID35 WAGB 031600 METAR WAGB 031600Z 00000KT 5000 -RA BKN010 25/25 Q1012=  
03-Jul-2023 SAID35 WAGB 031630 METAR WAGB 031630Z 00000KT 5000 BKN010 25/25 Q1012 RERA=  
03-Jul-2023 SAID35 WAGB 031700 METAR WAGB 031700Z 00000KT 5000 VCSH BKN010 25/25 Q1012=  
03-Jul-2023 SAID35 WAGB 031730 METAR WAGB 031730Z 00000KT 5000 VCSH BKN010 25/25 Q1012=  
03-Jul-2023 SAID35 WAGB 031800 METAR WAGB 031800Z 00000KT 5000 VCSH BKN010 25/25 Q1011=  
03-Jul-2023 SAID35 WAGB 031830 METAR WAGB 031830Z 00000KT 5000 VCSH BKN010 25/25 Q1011=  
03-Jul-2023 SAID35 WAGB 031900 METAR WAGB 031900Z 00000KT 5000 VCSH BKN010 25/24 Q1011=  
03-Jul-2023 SAID35 WAGB 031930 METAR WAGB 031930Z 00000KT 5000 VCSH BKN010 25/24 Q1011=  
03-Jul-2023 SAID35 WAGB 032000 METAR WAGB 032000Z 00000KT 5000 VCSH BKN008 25/24 Q1011=  
03-Jul-2023 SAID35 WAGB 032030 METAR WAGB 032030Z 00000KT 5000 VCSH BKN008 25/24 Q1011=  
03-Jul-2023 SAID35 WAGB 032100 METAR WAGB 032100Z 00000KT 5000 VCSH BKN008 25/24 Q1011=  
03-Jul-2023 SAID35 WAGB 032130 METAR WAGB 032130Z 00000KT 5000 VCSH BKN008 25/24 Q1011=  
03-Jul-2023 SAID35 WAGB 032200 METAR WAGB 032200Z 00000KT 5000 BR BKN008 24/24 Q1010=  
03-Jul-2023 SAID35 WAGB 032230 METAR WAGB 032230Z 00000KT 5000 BR BKN008 24/24 Q1010=  
03-Jul-2023 SAID35 WAGB 032300 METAR WAGB 032300Z 00000KT 3000 BR BKN008 24/24 Q1011=  
03-Jul-2023 SAID35 WAGB 032330 METAR WAGB 032330Z 00000KT 4000 BR BKN008 24/24 Q1011=  
04-Jul-2023 SAID35 WAGB 040000 METAR WAGB 040000Z 00000KT 5000 BKN007 25/24 Q1011 NOSIG=  
04-Jul-2023 SAID35 WAGB 040030 METAR WAGB 040030Z 00000KT 5000 BKN007 25/24 Q1011 NOSIG=  
04-Jul-2023 SAID35 WAGB 040100 METAR WAGB 040100Z 00000KT 7000 BKN007 25/24 Q1012 NOSIG=  
04-Jul-2023 SAID35 WAGB 040130 METAR WAGB 040130Z 00000KT 8000 BKN007 26/24 Q1011 NOSIG=  
04-Jul-2023 SAID35 WAGB 040200 METAR WAGB 040200Z 00000KT 9000 BKN009 26/24 Q1012 NOSIG=  
04-Jul-2023 SAID35 WAGB 040230 METAR WAGB 040230Z 32003KT 9000 BKN009 27/25 Q1011 NOSIG=  
04-Jul-2023 SAID35 WAGB 040300 METAR WAGB 040300Z 29003KT 9000 BKN009 27/25 Q1011 NOSIG=  
04-Jul-2023 SAID35 WAGB 040330 METAR WAGB 040330Z 28006KT 9999 BKN009 28/25 Q1011 NOSIG=  
04-Jul-2023 SAID35 WAGB 040400 METAR WAGB 040400Z 30003KT 9000 VCSH BKN009 29/25 Q1011=  
04-Jul-2023 SAID35 WAGB 040430 METAR WAGB 040430Z 31004KT 9000 VCSH BKN009 29/25 Q1011=  
04-Jul-2023 SAID35 WAGB 040500 METAR WAGB 040500Z 00000 9000 VCSH BKN009 28/25 Q1010=  
04-Jul-2023 SAID35 WAGB 040530 METAR WAGB 040530Z 04003KT 8000 VCSH BKN009 28/25 Q1010 NOSIG=  
04-Jul-2023 SAID35 WAGB 040600 METAR WAGB 040600Z 00000KT 8000 VCSH SCT009 28/25 Q1010 NOSIG=  
04-Jul-2023 SAID35 WAGB 040630 METAR WAGB 040630Z 00000KT 9999 SCT010 28/25 Q1009 NOSIG=  
04-Jul-2023 SAID35 WAGB 040700 METAR WAGB 040700Z 00000KT 9999 SCT010 28/25 Q1009 NOSIG=  
04-Jul-2023 SAID35 WAGB 040730 METAR WAGB 040730Z 00000KT 9999 SCT010 29/25 Q1009 NOSIG=  
04-Jul-2023 SAID35 WAGB 040800 METAR WAGB 040800Z 00000KT 9999 SCT010 29/25 Q1009 NOSIG=  
04-Jul-2023 SAID35 WAGB 040830 METAR WAGB 040800Z 00000KT 9999 SCT010 30/24 Q1009 NOSIG=  
04-Jul-2023 SAID35 WAGB 040900 METAR WAGB 040900Z 02003KT 9999 FEW011CB SCT012 30/26 Q1009 NOSIG=  
04-Jul-2023 SAID35 WAGB 040930 METAR WAGB 040930Z VRB02KT 9999 FEW011CB SCT012 30/26 Q1009 NOSIG=  
04-Jul-2023 SAID35 WAGB 041000 METAR WAGB 041000Z 05003KT 9999 FEW013CB SCT014 30/26 Q1009 NOSIG=  
04-Jul-2023 SAID35 WAGB 041030 METAR WAGB 041030Z 00000KT 9000 FEW013CB SCT014 29/26 Q1009 NOSIG=  
04-Jul-2023 SAID35 WAGB 041100 METAR WAGB 041100Z 00000KT 8000 FEW013CB 28/26 Q1009 NOSIG=  
04-Jul-2023 SAID35 WAGB 041130 METAR WAGB 041130Z 00000KT 8000 FEW013CB 28/26 Q1009 NOSIG=  
04-Jul-2023 SAID35 WAGB 041200 METAR WAGB 041200Z 00000KT 8000 FEW013 27/26 Q1010=  
04-Jul-2023 SAID35 WAGB 041230 METAR WAGB 041230Z 00000KT 8000 FEW013 27/26 Q1010=  
04-Jul-2023 SAID35 WAGB 041300 METAR WAGB 041300Z 00000KT 6000 FEW013 26/25 Q1011=  
04-Jul-2023 SAID35 WAGB 041330 METAR WAGB 041330Z 00000KT 6000 FEW013 26/25 Q1011=  
04-Jul-2023 SAID35 WAGB 041400 METAR WAGB 041400Z 00000KT 6000 FEW012 26/25 Q1011=  
04-Jul-2023 SAID35 WAGB 041430 METAR WAGB 041430Z 00000KT 6000 FEW012 26/25 Q1011=  
04-Jul-2023 SAID35 WAGB 041500 METAR WAGB 041500Z 00000KT 6000 FEW012 25/25 Q1011=  
04-Jul-2023 SAID35 WAGB 041530 METAR WAGB 041530Z 00000KT 6000 FEW012 25/25 Q1011=  
04-Jul-2023 SAID35 WAGB 041600 METAR WAGB 041600Z 00000KT 6000 FEW012 25/25 Q1010=  
04-Jul-2023 SAID35 WAGB 041630 METAR WAGB 041630Z 00000KT 6000 FEW012 25/25 Q1010=  
04-Jul-2023 SAID35 WAGB 041700 METAR WAGB 041700Z 00000KT 6000 FEW012 25/24 Q1010=  
04-Jul-2023 SAID35 WAGB 041730 METAR WAGB 041730Z 00000KT 6000 FEW012 25/24 Q1010=  
04-Jul-2023 SAID35 WAGB 041800 METAR WAGB 041800Z 00000KT 6000 FEW012 24/24 Q1010=  
04-Jul-2023 SAID35 WAGB 041830 METAR WAGB 041830Z 00000KT 6000 FEW012 24/24 Q1010=  
04-Jul-2023 SAID35 WAGB 041900 METAR WAGB 041900Z 00000KT 6000 FEW012 24/24 Q1009=  
04-Jul-2023 SAID35 WAGB 041930 METAR WAGB 041930Z 00000KT 6000 FEW012 24/24 Q1009=  
04-Jul-2023 SAID35 WAGB 042000 METAR WAGB 042000Z 00000KT 6000 FEW012 24/24 Q1009=  
04-Jul-2023 SAID35 WAGB 042030 METAR WAGB 042030Z 00000KT 6000 FEW012 24/24 Q1009=  
04-Jul-2023 SAID35 WAGB 042100 METAR WAGB 042100Z 00000KT 3000 BR FEW011 24/23 Q1009=  
04-Jul-2023 SAID35 WAGB 042130 METAR WAGB 042130Z 00000KT 3000 BR FEW011 24/23 Q1009=  
04-Jul-2023 SAID35 WAGB 042200 METAR WAGB 042200Z 00000KT 2000 BR FEW011 24/23 Q1009=  
04-Jul-2023 SAID35 WAGB 042230 METAR WAGB 042230Z 00000KT 2000 BR FEW011 24/23 Q1009=  
04-Jul-2023 SAID35 WAGB 042300 METAR WAGB 042300Z 00000KT 0500 FG VV003 24/23 Q1010=  
04-Jul-2023 SAID35 WAGB 042330 METAR WAGB 042330Z 00000KT 0500 FG VV008 24/23 Q1010=  
05-Jul-2023 SAID35 WAGB 050000 METAR WAGB 050000Z 00000KT 4000 BR BKN010 24/24 Q1010 NOSIG=  
05-Jul-2023 SAID35 WAGB 050030 METAR WAGB 050030Z 00000KT 4000 BR BKN010 24/24 Q1010 NOSIG=  
05-Jul-2023 SAID35 WAGB 050030 CCA METAR WAGB 050030Z 00000KT 5000 HZ BKN010 24/24 Q1010 NOSIG=  
05-Jul-2023 SAID35 WAGB 050100 METAR WAGB 050100Z 00000KT 7000 BKN011 27/25 Q1010 NOSIG=  
05-Jul-2023 SAID35 WAGB 050130 METAR WAGB 050130Z 35004KT 7000 SCT011 27/25 Q1010 NOSIG=  
05-Jul-2023 SAID35 WAGB 050200 METAR WAGB 050200Z 00000KT 8000 SCT012 29/25 Q1010 NOSIG=  
05-Jul-2023 SAID35 WAGB 050230 METAR WAGB 050230Z 00000KT 8000 SCT012 29/25 Q1010 NOSIG=  
05-Jul-2023 SAID35 WAGB 050300 METAR WAGB 050300Z 05003KT 9000 BKN012 30/25 Q1010 NOSIG=  
05-Jul-2023 SAID35 WAGB 050300 CCA METAR WAGB 050300Z 05003KT 9000 SCT012 30/25 Q1010 NOSIG=  
05-Jul-2023 SAID35 WAGB 050330 METAR WAGB 050330Z 23004KT 9000 SCT012 30/25 Q1009 NOSIG=  
05-Jul-2023 SAID35 WAGB 050330 CCA METAR WAGB 050330Z 23004KT 9999 SCT012 30/25 Q1009 NOSIG=  
05-Jul-2023 SAID35 WAGB 050400 METAR WAGB 050400Z VRB02KT 9999 SCT012 31/25 Q1009 NOSIG=  
05-Jul-2023 SAID35 WAGB 050400 CCA METAR WAGB 050400Z VRB02KT 9999 BKN012 31/25 Q1009 NOSIG=  
05-Jul-2023 SAID35 WAGB 050430 METAR WAGB 050430Z 00000KT 9999 BKN012 31/25 Q1009 NOSIG=  
05-Jul-2023 SAID35 WAGB 050500 METAR WAGB 050500Z VRB02KT 9999 BKN012 31/25 Q1009 NOSIG=  
05-Jul-2023 SAID35 WAGB 050530 METAR WAGB 050530Z 10004KT 9999 BKN012 31/25 Q1008 NOSIG=  
05-Jul-2023 SAID35 WAGB 050600 METAR WAGB 050600Z 00000KT 9999 SCT012 32/25 Q1007 NOSIG=  
05-Jul-2023 SAID35 WAGB 050630 METAR WAGB 050630Z 00000KT 9999 SCT012 32/25 Q1007 NOSIG=  
05-Jul-2023 SAID35 WAGB 050700 METAR WAGB 050700Z 00000KT 9999 SCT012 33/24 Q1006 NOSIG=  
05-Jul-2023 SAID35 WAGB 050730 METAR WAGB 050730Z 00000KT 9999 SCT012 33/24 Q1006 NOSIG=  
05-Jul-2023 SAID35 WAGB 050800 METAR WAGB 050800Z 00000KT 9999 FEW012TCU SCT013 33/24 Q1006 NOSIG=  
05-Jul-2023 SAID35 WAGB 050830 METAR WAGB 050830Z 10002KT 9999 FEW012TCU SCT013 33/24 Q1006 NOSIG=  
05-Jul-2023 SAID35 WAGB 050900 METAR WAGB 050900Z 08002KT 9999 FEW012TCU SCT013 33/24 Q1006 NOSIG=  
05-Jul-2023 SAID35 WAGB 050930 METAR WAGB 050930Z 00000KT 9999 FEW014CB FEW015 33/28 Q1007 NOSIG=  
05-Jul-2023 SAID35 WAGB 051000 METAR WAGB 051000Z 00000KT 9000 FEW014CB FEW015 32/28 Q1007 NOSIG=  
05-Jul-2023 SAID35 WAGB 051030 METAR WAGB 051030Z 00000KT 9000 FEW014CB FEW015 32/28 Q1008 NOSIG=  
05-Jul-2023 SAID35 WAGB 051100 METAR WAGB 051100Z 00000KT 8000 FEW014CB FEW015 30/28 Q1008 NOSIG=  
05-Jul-2023 SAID35 WAGB 051130 METAR WAGB 051130Z 00000KT 8000 FEW014CB FEW015 30/28 Q1008 NOSIG=  
05-Jul-2023 SAID35 WAGB 051200 METAR WAGB 051200Z 20002KT 8000 FEW013CB 29/27 Q1008 NOSIG=  
05-Jul-2023 SAID35 WAGB 051230 METAR WAGB 051230Z 00000KT 8000 FEW013CB 29/27 Q1009 NOSIG=  
05-Jul-2023 SAID35 WAGB 051300 METAR WAGB 051300Z 00000KT 7000 BKN012 29/27 Q1010 NOSIG=  
05-Jul-2023 SAID35 WAGB 051330 METAR WAGB 051330Z 00000KT 7000 -RA BKN012 29/27 Q1010 NOSIG=  
05-Jul-2023 SPID35 WAGB 051330 SPECI WAGB 051330Z 00000KT 6000 RA BKN012 29/27 Q1010=  
05-Jul-2023 SAID35 WAGB 051400 METAR WAGB 051400Z 00000KT 5000 RA BKN011 27/27 Q1010=  
05-Jul-2023 SAID35 WAGB 051430 METAR WAGB 051430Z 00000KT 4000 TSRA BKN011 27/27 Q1010=  
05-Jul-2023 SAID35 WAGB 051500 METAR WAGB 051500Z 05007KT 2000 TSRA BKN011 26/25 Q1010=  
05-Jul-2023 SAID35 WAGB 051530 METAR WAGB 051530Z 20003KT 2000 TSRA BKN011 26/25 Q1010=  
05-Jul-2023 SAID35 WAGB 051600 METAR WAGB 051600Z 29004KT 1500 TSRA BKN011 25/25 Q1011=  
05-Jul-2023 SAID35 WAGB 051630 METAR WAGB 051630Z 29004KT 2000 VCSH BKN011 25/25 Q1011 RETS=  
05-Jul-2023 SAID35 WAGB 051700 METAR WAGB 051700Z 00000KT 3000 VCTS SCT011 25/24 Q1010 RERA=  
05-Jul-2023 SPID35 WAGB 051700 SPECI WAGB 051700Z 00000KT 3000 SCT011 25/24 Q1010 RERA=  
05-Jul-2023 SAID35 WAGB 051730 METAR WAGB 051730Z 04002KT 3000 VCTS SCT011 25/24 Q1010=  
05-Jul-2023 SAID35 WAGB 051800 METAR WAGB 051800Z 00000KT 3000 VCTS BKN011 25/24 Q1010 NOSIG=  
05-Jul-2023 SAID35 WAGB 051830 METAR WAGB 051830Z 00000KT 3000 VCTS BKN010 25/24 Q1010 NOSIG=  
05-Jul-2023 SAID35 WAGB 051900 METAR WAGB 051900Z 00000KT 3000 BR SCT010 24/24 Q1010 NOSIG=  
05-Jul-2023 SAID35 WAGB 051930 METAR WAGB 051930Z 00000KT 3000 BR SCT010 24/24 Q1010 NOSIG=  
05-Jul-2023 SAID35 WAGB 052000 METAR WAGB 052000Z 00000KT 4000 BR BKN010 24/24 Q1010 NOSIG=  
05-Jul-2023 SAID35 WAGB 052030 METAR WAGB 052030Z 00000KT 4000 BR BKN010 24/24 Q1010 NOSIG=  
05-Jul-2023 SAID35 WAGB 052100 METAR WAGB 052100Z 28003KT 4000 VCSH SCT010 24/24 Q1009 NOSIG=  
05-Jul-2023 SAID35 WAGB 052130 METAR WAGB 052130Z 00000KT 4000 VCSH SCT010 24/24 Q1010 NOSIG=  
05-Jul-2023 SAID35 WAGB 052200 METAR WAGB 052200Z 00000KT 4000 BR SCT010 24/24 Q1010 NOSIG=  
05-Jul-2023 SAID35 WAGB 052230 METAR WAGB 052230Z 00000KT 4000 BR SCT010 24/24 Q1010 NOSIG=  
05-Jul-2023 SAID35 WAGB 052300 METAR WAGB 052300Z 00000KT 5000 BR BKN010 24/24 Q1011 NOSIG=  
05-Jul-2023 SAID35 WAGB 052330 METAR WAGB 052330Z 27002KT 5000 BR BKN010 24/24 Q1011 NOSIG=  
06-Jul-2023 SAID35 WAGB 060000 METAR WAGB 060000Z 00000KT 4000 BR BKN012 25/24 Q1011=  
06-Jul-2023 SAID35 WAGB 060000 CCA METAR COR WAGB 060000Z 00000KT 7000 BKN010 26/25 Q1011 NOSIG=  
06-Jul-2023 SAID35 WAGB 060030 METAR WAGB 060030Z 00000KT 7000 BKN010 26/25 Q1011 NOSIG=  
06-Jul-2023 SAID35 WAGB 060100 METAR WAGB 060100Z 00000KT 9000 BKN011 27/25 Q1011 NOSIG=  
06-Jul-2023 SAID35 WAGB 060130 METAR WAGB 060130Z 00000KT 9000 BKN011 27/25 Q1011 NOSIG=  
06-Jul-2023 SAID35 WAGB 060200 METAR WAGB 060200Z VRB02KT 9000 BKN011 28/25 Q1011 NOSIG=  
06-Jul-2023 SAID35 WAGB 060230 METAR WAGB 060230Z VRB02KT 9000 BKN011 28/25 Q1011 NOSIG=  
06-Jul-2023 SAID35 WAGB 060300 METAR WAGB 060300Z 00000KT 9000 BKN011 29/26 Q1010 NOSIG=  
06-Jul-2023 SAID35 WAGB 060330 METAR WAGB 060330Z 09003KT 9999 BKN012 30/26 Q1010 NOSIG=  
06-Jul-2023 SAID35 WAGB 060400 METAR WAGB 060400Z 10003KT 9999 BKN012 30/26 Q1010 NOSIG=  
06-Jul-2023 SAID35 WAGB 060430 METAR WAGB 060430Z 00000KT 9999 BKN012 31/26 Q1009 NOSIG=  
06-Jul-2023 SAID35 WAGB 060500 METAR WAGB 060500Z 01004KT 9999 BKN012 31/25 Q1009 NOSIG=  
06-Jul-2023 SAID35 WAGB 060530 METAR WAGB 060530Z 03005KT 9999 BKN012 31/25 Q1009 NOSIG=  
06-Jul-2023 SAID35 WAGB 060600 METAR WAGB 060600Z VRB02KT 9999 SCT013 31/24 Q1009 NOSIG=  
06-Jul-2023 SAID35 WAGB 060630 METAR WAGB 060630Z VRB02KT 9999 SCT013 32/25 Q1008 NOSIG=  
06-Jul-2023 SAID35 WAGB 060700 METAR WAGB 060700Z VRB02KT 9999 SCT013 31/24 Q1008 NOSIG=  
06-Jul-2023 SAID35 WAGB 060730 METAR WAGB 060730Z 08003KT 9999 SCT013 31/24 Q1007 NOSIG=  
06-Jul-2023 SAID35 WAGB 060800 METAR WAGB 060800Z 06003KT 9999 FEW012CB 32/23 Q1007 NOSIG=  
06-Jul-2023 SAID35 WAGB 060830 METAR WAGB 060830Z VRB02KT 9999 FEW012CB 32/23 Q1007 NOSIG=  
06-Jul-2023 SAID35 WAGB 060900 METAR WAGB 060900Z 00000KT 9999 FEW012CB 31/24 Q1007 NOSIG=  
06-Jul-2023 SAID35 WAGB 060930 METAR WAGB 060930Z 00000KT 9999 FEW014CB 32/27 Q1008 NOSIG=  
06-Jul-2023 SAID35 WAGB 061000 METAR WAGB 061000Z 00000KT 9999 FEW014CB 30/29 Q1008 NOSIG=  
06-Jul-2023 SAID35 WAGB 061030 METAR WAGB 061030Z 00000KT 9999 FEW014CB 30/29 Q1008 NOSIG=  
06-Jul-2023 SAID35 WAGB 061100 METAR WAGB 061100Z 00000KT 8000 VCTS FEW014CB 29/28 Q1008=  
06-Jul-2023 SAID35 WAGB 061130 METAR WAGB 061130Z 00000KT 8000 VCTS FEW014CB 29/28 Q1008=  
06-Jul-2023 SAID35 WAGB 061200 METAR WAGB 061200Z 00000KT 8000 VCTS FEW014CB SCT015 28/27 Q1009=  
06-Jul-2023 SAID35 WAGB 061230 METAR WAGB 061230Z 00000KT 8000 VCTS FEW014CB SCT015 28/27 Q1010=  
06-Jul-2023 SAID35 WAGB 061300 METAR WAGB 061300Z 00000KT 7000 VCTS FEW013CB SCT014 28/27 Q1010=  
06-Jul-2023 SAID35 WAGB 061330 METAR WAGB 061330Z 00000KT 7000 VCTS FEW013CB SCT014 28/27 Q1010=  
06-Jul-2023 SAID35 WAGB 061400 METAR WAGB 061400Z 00000KT 7000 -RA FEW012CB FEW013 28/27 Q1011=  
06-Jul-2023 SAID35 WAGB 061430 METAR WAGB 061430Z 00000KT 6000 -RA FEW012CB FEW013 27/26 Q1011=  
06-Jul-2023 SAID35 WAGB 061500 CCA METAR WAGB 061500Z 00000KT 6000 FEW012CB FEW013 26/25 Q1011 RERA=  
06-Jul-2023 SAID35 WAGB 061530 METAR WAGB 061530Z 00000KT 6000 FEW012CB SCT013 26/25 Q1011=  
06-Jul-2023 SAID35 WAGB 061600 METAR WAGB 061600Z 00000KT 6000 VCTS FEW012CB SCT013 26/25 Q1011=  
06-Jul-2023 SAID35 WAGB 061630 METAR WAGB 061630Z 00000KT 6000 VCTS FEW012CB SCT013 26/25 Q1011=  
06-Jul-2023 SAID35 WAGB 061700 METAR WAGB 061700Z 00000KT 6000 VCTS FEW011CB SCT012 25/25 Q1011=  
06-Jul-2023 SAID35 WAGB 061730 METAR WAGB 061730Z 00000KT 6000 VCTS FEW011CB SCT012 25/25 Q1011=  
06-Jul-2023 SAID35 WAGB 061800 METAR WAGB 061800Z 00000KT 5000 FEW011CB SCT012 25/24 Q1011=  
06-Jul-2023 SAID35 WAGB 061830 METAR WAGB 061830Z 00000KT 5000 BR FEW011CB SCT012 25/24 Q1011=  
06-Jul-2023 SAID35 WAGB 061900 METAR WAGB 061900Z 00000KT 5000 BR FEW011 25/24 Q1010=  
06-Jul-2023 SAID35 WAGB 061930 METAR WAGB 061930Z 00000KT 5000 BR FEW011 25/24 Q1010=  
06-Jul-2023 SAID35 WAGB 062000 METAR WAGB 062000Z 00000KT 5000 BR FEW011 25/24 Q1011=  
06-Jul-2023 SAID35 WAGB 062030 METAR WAGB 062030Z 00000KT 5000 BR FEW011 25/24 Q1011=  
06-Jul-2023 SAID35 WAGB 062100 METAR WAGB 062100Z 00000KT 5000 BR FEW011 25/24 Q1011=  
06-Jul-2023 SAID35 WAGB 062130 METAR WAGB 062130Z 00000KT 5000 BR FEW011 25/24 Q1011=  
06-Jul-2023 SAID35 WAGB 062200 METAR WAGB 062200Z 00000KT 5000 BR FEW011 25/24 Q1011=  
06-Jul-2023 SAID35 WAGB 062230 METAR WAGB 062230Z 00000KT 6000 FEW011 25/24 Q1011=  
06-Jul-2023 SAID35 WAGB 062300 METAR WAGB 062300Z 00000KT 7000 FEW011 25/24 Q1011=  
06-Jul-2023 SAID35 WAGB 062330 METAR WAGB 062330Z 00000KT 8000 FEW011 25/24 Q1012=  
07-Jul-2023 SAID35 WAGB 070000 METAR WAGB 070000Z 28003KT 7000 SCT010 26/24 Q1011 NOSIG=  
07-Jul-2023 SAID35 WAGB 070030 METAR WAGB 070030Z 31003KT 7000 SCT010 26/24 Q1011 NOSIG=  
07-Jul-2023 SAID35 WAGB 070100 METAR WAGB 070100Z 29004KT 8000 SCT011 27/25 Q1012 NOSIG=  
07-Jul-2023 SAID35 WAGB 070130 METAR WAGB 070130Z 24004KT 8000 SCT011 28/25 Q1012 NOSIG=  
07-Jul-2023 SAID35 WAGB 070200 METAR WAGB 070200Z 26004KT 8000 SCT011 29/25 Q1012 NOSIG=  
07-Jul-2023 SAID35 WAGB 070230 METAR WAGB 070230Z 27005KT 8000 BKN011 29/25 Q1012 NOSIG=  
07-Jul-2023 SAID35 WAGB 070300 METAR WAGB 070300Z 26005KT 9000 BKN012 29/25 Q1012 NOSIG=  
07-Jul-2023 SAID35 WAGB 070330 METAR WAGB 070330Z 29004KT 9000 BKN012 29/24 Q1011 NOSIG=  
07-Jul-2023 SAID35 WAGB 070400 METAR WAGB 070400Z 26003KT 8000 VCSH BKN012 29/24 Q1011 NOSIG=  
07-Jul-2023 SAID35 WAGB 070430 METAR WAGB 070430Z 00000KT 9000 VCSH BKN012 30/25 Q1010 NOSIG=  
07-Jul-2023 SAID35 WAGB 070500 METAR WAGB 070500Z 32003KT 9000 FEW011TCU BKN012 29/25 Q1010 NOSIG=  
07-Jul-2023 SAID35 WAGB 070500 CCA METAR WAGB 070500Z 35005KT 5000 -RA FEW011TCU BKN012 29/25 Q1010 TEMPO FM1155 -RA=  
07-Jul-2023 SAID35 WAGB 070530 METAR WAGB 070530Z 01002KT 5000 -RA FEW011CB BKN012 27/24 Q1010 TEMPO TL0600 -RA=  
07-Jul-2023 SPID33 WAGB 070535 SPECI WAGB 070535Z 00000KT 5000 -TSRA FEW011CB BKN012 27/24 Q1010=  
07-Jul-2023 SAID35 WAGB 070600 METAR WAGB 070600Z 22003KT 4000 -TSRA FEW011CB BKN012 25/24 Q1010 TEMPO TL0730 RA=  
07-Jul-2023 SAID35 WAGB 070630 METAR WAGB 070630Z 18006KT 5000 -RA FEW011CB BKN012 25/24 Q1010 RETS TEMPO TL0730 -RA=  
07-Jul-2023 SAID35 WAGB 070700 METAR WAGB 070700Z 00000KT 7000 FEW012CB BKN013 26/24 Q1009 RERA NOSIG=  
07-Jul-2023 SAID35 WAGB 070730 METAR WAGB 070730Z 24002KT 9000 FEW012CB BKN013 26/24 Q1009 NOSIG=  
07-Jul-2023 SAID35 WAGB 070800 METAR WAGB 070800Z 00000KT 7000 -RA FEW012CB BKN013 26/24 Q1009 TEMPO TL0900 -RA=  
07-Jul-2023 SAID35 WAGB 070830 METAR WAGB 070830Z 00000KT 6000 -RA FEW012CB BKN013 26/24 Q1009 TEMPO TL0900 -RA=  
07-Jul-2023 SAID35 WAGB 070900 METAR WAGB 070900Z 29002KT 7000 FEW012CB BKN013 26/24 Q1009 RERA NOSIG=  
07-Jul-2023 SAID35 WAGB 070930 METAR WAGB 070930Z 00000KT 7000 FEW012CB BKN013 26/24 Q1009 RERA=  
07-Jul-2023 SAID35 WAGB 071000 METAR WAGB 071000Z 00000KT 7000 FEW012CB BKN013 27/25 Q1010 NOSIG=  
07-Jul-2023 SAID35 WAGB 071030 METAR WAGB 071030Z 00000KT 6000 FEW012CB BKN013 27/25 Q1010 NOSIG=  
07-Jul-2023 SAID35 WAGB 071100 METAR WAGB 071100Z 00000KT 6000 FEW012CB BKN013 27/25 Q1011 NOSIG=  
07-Jul-2023 SAID35 WAGB 071130 METAR WAGB 071130Z 00000KT 6000 FEW012CB BKN013 26/25 Q1011 NOSIG=  
07-Jul-2023 SAID35 WAGB 071200 METAR WAGB 071200Z 00000KT 6000 VCTS FEW012CB BKN013 26/25 Q1012=  
07-Jul-2023 SAID35 WAGB 071230 METAR WAGB 071230Z 00000KT 6000 VCTS FEW012CB BKN013 26/25 Q1012=  
07-Jul-2023 SAID35 WAGB 071300 METAR WAGB 071300Z 00000KT 6000 VCTS FEW012CB BKN013 26/25 Q1012=  
07-Jul-2023 SAID35 WAGB 071330 METAR WAGB 071330Z 00000KT 6000 VCTS FEW012CB BKN013 26/25 Q1013=  
07-Jul-2023 SPID33 WAGB 071338 SPECI WAGB 071338Z 00000KT 6000 -RA FEW012CB BKN013 26/25 Q1013=  
07-Jul-2023 SAID35 WAGB 071400 METAR WAGB 071400Z 00000KT 5000 -RA FEW011CB BKN012 26/25 Q1013=  
07-Jul-2023 SAID35 WAGB 071430 METAR WAGB 071430Z 00000KT 5000 -RA FEW011CB BKN012 26/25 Q1013=  
07-Jul-2023 SAID35 WAGB 071500 METAR WAGB 071500Z 00000KT 5000 VCSH FEW011CB BKN012 25/25 Q1013 RERA=  
07-Jul-2023 SAID35 WAGB 071530 METAR WAGB 071530Z 00000KT 5000 VCSH FEW011CB BKN012 25/25 Q1013=  
07-Jul-2023 SAID35 WAGB 071600 METAR WAGB 071600Z 00000KT 5000 VCSH FEW011CB BKN012 25/25 Q1013=  
07-Jul-2023 SAID35 WAGB 071630 METAR WAGB 071630Z 00000KT 5000 VCSH FEW011CB BKN012 25/25 Q1013=  
07-Jul-2023 SPID33 WAGB 071634 SPECI WAGB 071634Z 00000KT 4000 -RA FEW011CB BKN012 25/25 Q1013=  
07-Jul-2023 SAID35 WAGB 071700 METAR WAGB 071700Z 00000KT 5000 VCSH FEW011CB BKN012 25/25 Q1012=  
07-Jul-2023 SAID35 WAGB 071700 CCA METAR WAGB 071700Z 00000KT 5000 VCSH FEW011CB BKN012 25/25 Q1012 RERA=  
07-Jul-2023 SAID35 WAGB 071730 METAR WAGB 071730Z 00000KT 5000 VCSH FEW011CB BKN012 25/25 Q1012=  
07-Jul-2023 SAID35 WAGB 071800 METAR WAGB 071800Z 00000KT 5000 VCSH BKN010 25/24 Q1012=  
07-Jul-2023 SAID35 WAGB 071830 METAR WAGB 071830Z 00000KT 4000 -RA BKN010 25/24 Q1012=  
07-Jul-2023 SAID35 WAGB 071900 METAR WAGB 071900Z 00000KT 5000 -RA BKN010 25/24 Q1012=  
07-Jul-2023 SAID35 WAGB 071930 METAR WAGB 071930Z 00000KT 4000 RA BKN010 25/24 Q1012=  
07-Jul-2023 SAID35 WAGB 072000 METAR WAGB 072000Z 00000KT 4000 RA BKN010 25/24 Q1012=  
07-Jul-2023 SAID35 WAGB 072030 METAR WAGB 072030Z 00000KT 4000 RA BKN010 25/24 Q1012=  
07-Jul-2023 SAID35 WAGB 072100 METAR WAGB 072100Z 25003KT 3000 RA BKN009 24/24 Q1012=  
07-Jul-2023 SAID35 WAGB 072130 METAR WAGB 072130Z 00000KT 3000 RA BKN009 24/24 Q1013=  
07-Jul-2023 SAID35 WAGB 072200 METAR WAGB 072200Z 00000KT 3000 RA BKN009 24/24 Q1013=  
07-Jul-2023 SAID35 WAGB 072230 METAR WAGB 072230Z 00000KT 3000 -RA BKN009 23/23 Q1013=  
07-Jul-2023 SAID35 WAGB 072300 METAR WAGB 072300Z 00000KT 4000 VCSH BKN009 23/23 Q1013 RERA=  
07-Jul-2023 SAID35 WAGB 072330 METAR WAGB 072330Z 00000KT 4000 VCSH BKN009 23/23 Q1013=  
08-Jul-2023 SAID35 WAGB 080000 METAR WAGB 080000Z 00000KT 4000 BR BKN009 24/23 Q1014 NOSIG=  
08-Jul-2023 SAID35 WAGB 080030 METAR WAGB 080030Z 31002KT 7000 BKN009 25/24 Q1014 NOSIG=  
08-Jul-2023 SAID35 WAGB 080100 METAR WAGB 080100Z 32003KT 8000 BKN009 26/24 Q1014 NOSIG=  
08-Jul-2023 SAID35 WAGB 080130 METAR WAGB 080130Z 32002KT 8000 BKN009 26/24 Q1014 NOSIG=  
08-Jul-2023 SAID35 WAGB 080200 METAR WAGB 080200Z 26002KT 8000 BKN010 26/24 Q1014 NOSIG=  
08-Jul-2023 SAID35 WAGB 080230 METAR WAGB 080230Z 28002KT 8000 BKN010 27/24 Q1014 NOSIG=  
08-Jul-2023 SAID35 WAGB 080300 METAR WAGB 080300Z 19003KT 8000 BKN011 28/24 Q1014 NOSIG=  
08-Jul-2023 SAID35 WAGB 080330 METAR WAGB 080330Z 27002KT 8000 BKN011 28/24 Q1013 NOSIG=  
08-Jul-2023 SAID35 WAGB 080400 METAR WAGB 080400Z 27004KT 9000 BKN012 29/24 Q1013 NOSIG=  
08-Jul-2023 SAID35 WAGB 080430 METAR WAGB 080430Z 26003KT 9000 VCSH BKN012 28/24 Q1012=  
08-Jul-2023 SAID35 WAGB 080500 METAR WAGB 080500Z 27005 9999 VCSH SCT012 29/24 Q1012=  
08-Jul-2023 SAID35 WAGB 080530 METAR WAGB 080530Z 30005KT 9999 SCT012 30/24 Q1011 NOSIG=  
08-Jul-2023 SAID35 WAGB 080600 METAR WAGB 080600Z 31003KT 9999 SCT012 31/24 Q1011 NOSIG=  
08-Jul-2023 SAID35 WAGB 080630 METAR WAGB 080630Z 26005KT 9999 BKN012 31/23 Q1010 NOSIG=  
08-Jul-2023 SAID35 WAGB 080700 METAR WAGB 080700Z 17004KT 9999 BKN012 29/25 Q1010 NOSIG=  
08-Jul-2023 SAID35 WAGB 080730 METAR WAGB 080730Z 14005KT 1000 RA BKN011 26/25 Q1010=  
08-Jul-2023 SAID35 WAGB 080800 METAR WAGB 080800Z 00000KT 4000 RA FEW011TCU BKN012 27/25 Q1009=  
08-Jul-2023 SAID35 WAGB 080830 METAR WAGB 080830Z 00000KT 7000 VCSH FEW011TCU BKN012 30/26 Q1009=  
08-Jul-2023 SAID35 WAGB 080900 METAR WAGB 080900Z 00000KT 8000 VCSH FEW011TCU BKN012 30/25 Q1009=  
08-Jul-2023 SAID35 WAGB 080930 METAR WAGB 080930Z 00000KT 9999 FEW013TCU SCT014 30/25 Q1009=  
08-Jul-2023 SAID35 WAGB 081000 METAR WAGB 081000Z 00000KT 9999 FEW013TCU SCT014 29/26 Q1010 NOSIG=  
08-Jul-2023 SAID35 WAGB 081030 METAR WAGB 081030Z 00000KT 9999 FEW013TCU SCT014 29/26 Q1010 NOSIG=  
08-Jul-2023 SAID35 WAGB 081100 METAR WAGB 081100Z 00000KT 9000 SCT014 28/26 Q1010 NOSIG=  
08-Jul-2023 SAID35 WAGB 081130 METAR WAGB 081130Z 00000KT 8000 SCT014 28/26 Q1010 NOSIG=  
08-Jul-2023 SAID35 WAGB 081200 METAR WAGB 081200Z 00000KT 9000 SCT014 27/26 Q1011=  
08-Jul-2023 SAID35 WAGB 081230 METAR WAGB 081230Z 00000KT 9000 SCT014 27/26 Q1011=  
08-Jul-2023 SAID35 WAGB 081300 METAR WAGB 081300Z 00000KT 8000 SCT013 27/26 Q1012=  
08-Jul-2023 SAID35 WAGB 081330 METAR WAGB 081330Z 00000KT 8000 SCT013 27/26 Q1012=  
08-Jul-2023 SAID35 WAGB 081400 METAR WAGB 081400Z 00000KT 8000 SCT012 27/26 Q1012=  
08-Jul-2023 SAID35 WAGB 081430 METAR WAGB 081430Z 00000KT 8000 SCT012 27/26 Q1012=  
08-Jul-2023 SAID35 WAGB 081500 METAR WAGB 081500Z 00000KT 7000 SCT012 26/25 Q1012=  
08-Jul-2023 SAID35 WAGB 081530 METAR WAGB 081530Z 00000KT 7000 SCT012 26/25 Q1012=  
08-Jul-2023 SAID35 WAGB 081600 METAR WAGB 081600Z 00000KT 7000 SCT012 26/25 Q1012=  
08-Jul-2023 SAID35 WAGB 081630 METAR WAGB 081630Z 00000KT 7000 SCT012 26/25 Q1012=  
08-Jul-2023 SAID35 WAGB 081700 METAR WAGB 081700Z 00000KT 7000 SCT012 26/25 Q1011=  
08-Jul-2023 SAID35 WAGB 081730 METAR WAGB 081730Z 00000KT 7000 SCT012 26/25 Q1011=  
08-Jul-2023 SAID35 WAGB 081800 METAR WAGB 081800Z 00000KT 6000 SCT011 26/25 Q1011=  
08-Jul-2023 SAID35 WAGB 081830 METAR WAGB 081830Z 00000KT 6000 SCT011 26/25 Q1011=  
08-Jul-2023 SAID35 WAGB 081900 METAR WAGB 081900Z 00000KT 6000 SCT011 25/24 Q1011=  
08-Jul-2023 SAID35 WAGB 081930 METAR WAGB 081930Z 00000KT 6000 SCT011 25/24 Q1011=  
08-Jul-2023 SAID35 WAGB 082000 METAR WAGB 082000Z 00000KT 6000 SCT011 25/24 Q1011=  
08-Jul-2023 SAID35 WAGB 082030 METAR WAGB 082030Z 00000KT 6000 SCT011 25/24 Q1011=  
08-Jul-2023 SAID35 WAGB 082100 METAR WAGB 082100Z 00000KT 6000 SCT011 25/24 Q1011=  
08-Jul-2023 SAID35 WAGB 082130 METAR WAGB 082130Z 00000KT 6000 SCT011 25/24 Q1011=  
08-Jul-2023 SAID35 WAGB 082200 METAR WAGB 082200Z 00000KT 6000 SCT011 25/24 Q1012=  
08-Jul-2023 SAID35 WAGB 082230 METAR WAGB 082230Z 00000KT 6000 SCT011 25/24 Q1012=  
08-Jul-2023 SAID35 WAGB 082300 METAR WAGB 082300Z 00000KT 5000 HZ BKN011 25/24 Q1011=  
08-Jul-2023 SAID35 WAGB 082330 METAR WAGB 082330Z 00000KT 5000 HZ BKN011 25/24 Q1011=  
09-Jul-2023 SAID35 WAGB 090000 METAR WAGB 090000Z 00000KT 7000 BKN010 26/25 Q1012 NOSIG=  
09-Jul-2023 SAID35 WAGB 090030 METAR WAGB 090030Z 00000KT 7000 BKN010 26/25 Q1012 NOSIG=  
09-Jul-2023 SAID35 WAGB 090100 METAR WAGB 090100Z 00000KT 8000 SCT012 28/25 Q1012 NOSIG=  
09-Jul-2023 SAID35 WAGB 090130 METAR WAGB 090130Z 02004KT 8000 FEW010 29/25 Q1012 NOSIG=  
09-Jul-2023 SAID35 WAGB 090200 METAR WAGB 090200Z 00000KT 8000 SCT010 30/25 Q1011 NOSIG=  
09-Jul-2023 SAID35 WAGB 090230 METAR WAGB 090230Z 05004KT 8000 SCT010 30/25 Q1011 NOSIG=  
09-Jul-2023 SAID35 WAGB 090300 METAR WAGB 090300Z 00000KT 9999 BKN013 30/26 Q1011 NOSIG=  
09-Jul-2023 SAID35 WAGB 090400 CCA METAR WAGB 090400Z 34005KT 9999 BKN011 32/24 Q1010 NOSIG=  
09-Jul-2023 SAID35 WAGB 090400 METAR WAGB 090400Z 034005KT 9999 BKN011 32/24 Q1010 NOSIG=  
09-Jul-2023 SAID35 WAGB 090430 METAR WAGB 090430Z 05004KT 9999 BKN011 32/24 Q1010 NOSIG=  
09-Jul-2023 SAID35 WAGB 090500 METAR WAGB 090500Z 05004KT 9999 BKN012 32/24 Q1009 NOSIG=  
09-Jul-2023 SAID35 WAGB 090530 METAR WAGB 090530Z 11005KT 9999 BKN012 33/24 Q1009 NOSIG=  
09-Jul-2023 SAID35 WAGB 090600 METAR WAGB 090600Z 04004KT 9999 BKN012 33/23 Q1008 NOSIG=  
09-Jul-2023 SAID35 WAGB 090630 METAR WAGB 090630Z 00000KT 9999 BKN012 33/23 Q1008 NOSIG=  
09-Jul-2023 SAID35 WAGB 090700 METAR WAGB 090700Z 00000KT 9999 BKN012 33/24 Q1007 NOSIG=  
09-Jul-2023 SAID35 WAGB 090730 METAR WAGB 090730Z 03004KT 9999 FEW015TCU SCT016 34/24 Q1007=  
09-Jul-2023 SAID35 WAGB 090800 METAR WAGB 090800Z 03003KT 9999 FEW015TCU SCT016 34/24 Q1007=  
09-Jul-2023 SAID35 WAGB 090830 METAR WAGB 090830Z 02003KT 9999 FEW015TCU SCT016 34/24 Q1007 NOSIG=  
09-Jul-2023 SAID35 WAGB 090900 METAR WAGB 090900Z 08003KT 9999 FEW014TCU SCT015 34/26 Q1007 NOSIG=  
09-Jul-2023 SAID35 WAGB 090930 METAR WAGB 090930Z VRB02KT 9999 FEW014TCU SCT015 34/26 Q1007 NOSIG=  
09-Jul-2023 SAID35 WAGB 091000 METAR WAGB 091000Z 00000KT 9999 FEW014TCU SCT015 33/26 Q1007 NOSIG=  
09-Jul-2023 SAID35 WAGB 091030 METAR WAGB 091030Z 00000KT 9999 FEW014TCU SCT015 33/26 Q1008 NOSIG=  
09-Jul-2023 SAID35 WAGB 091100 METAR WAGB 091100Z 00000KT 9000 FEW014TCU SCT015 30/26 Q1008 NOSIG=  
09-Jul-2023 SAID35 WAGB 091130 METAR WAGB 091130Z 00000KT 9000 FEW014TCU SCT015 30/26 Q1009 NOSIG=  
09-Jul-2023 SAID35 WAGB 091200 METAR WAGB 091200Z 00000KT 8000 VCTS FEW014CB SCT015 29/25 Q1010=  
09-Jul-2023 SAID35 WAGB 091230 METAR WAGB 091230Z 00000KT 8000 VCTS FEW014CB SCT015 29/25 Q1010=  
09-Jul-2023 SAID35 WAGB 091300 METAR WAGB 091300Z 00000KT 7000 VCTS FEW014CB SCT015 27/25 Q1010=  
09-Jul-2023 SAID35 WAGB 091330 METAR WAGB 091330Z 00000KT 7000 VCTS FEW014CB SCT015 27/25 Q1010=  
09-Jul-2023 SAID35 WAGB 091400 METAR WAGB 091400Z 00000KT 7000 VCTS FEW014CB SCT015 27/24 Q1010=  
09-Jul-2023 SAID35 WAGB 091430 METAR WAGB 091430Z 00000KT 7000 VCTS FEW014CB SCT015 27/24 Q1010=  
09-Jul-2023 SAID35 WAGB 091500 METAR WAGB 091500Z 00000KT 7000 VCTS FEW014CB SCT015 26/24 Q1011=  
09-Jul-2023 SAID35 WAGB 091530 METAR WAGB 091530Z 00000KT 7000 VCTS FEW014CB SCT015 26/24 Q1011=  
09-Jul-2023 SAID35 WAGB 091600 METAR WAGB 091600Z 00000KT 6000 VCTS FEW014CB SCT015 26/24 Q1011=  
09-Jul-2023 SAID35 WAGB 091630 METAR WAGB 091630Z 00000KT 6000 VCTS FEW014CB SCT015 26/24 Q1010=  
09-Jul-2023 SAID35 WAGB 091700 METAR WAGB 091700Z 00000KT 6000 VCTS FEW014CB SCT015 26/24 Q1010=  
09-Jul-2023 SAID35 WAGB 091730 METAR WAGB 091730Z 00000KT 6000 VCTS FEW014CB SCT015 26/24 Q1010=  
09-Jul-2023 SAID35 WAGB 091800 METAR WAGB 091800Z 00000KT 6000 VCTS FEW014CB SCT015 25/24 Q1010=  
09-Jul-2023 SAID35 WAGB 091830 METAR WAGB 091830Z 00000KT 6000 VCTS FEW014CB SCT015 25/24 Q1010=  
09-Jul-2023 SAID35 WAGB 091900 METAR WAGB 091900Z 00000KT 5000 VCTS FEW014CB SCT065 24/23 Q1010=  
09-Jul-2023 SAID35 WAGB 091900 CCA METAR WAGB 091900Z 00000KT 5000 VCTS FEW014CB SCT015 24/23 Q1010=  
09-Jul-2023 SAID35 WAGB 091930 METAR WAGB 091930Z 00000KT 5000 VCTS FEW014CB SCT065 24/23 Q1010=  
09-Jul-2023 SAID35 WAGB 091930 CCA METAR WAGB 091930Z 00000KT 5000 VCTS FEW014CB SCT015 24/23 Q1010=  
09-Jul-2023 SAID35 WAGB 092000 METAR WAGB 092000Z 00000KT 5000 VCTS FEW014CB SCT015 24/23 Q1010=  
09-Jul-2023 SAID35 WAGB 092030 METAR WAGB 092030Z 00000KT 5000 VCTS FEW014CB SCT015 24/23 Q1010=  
09-Jul-2023 SAID35 WAGB 092100 METAR WAGB 092100Z 00000KT 5000 VCTS FEW014CB BKN015 24/24 Q1010=  
09-Jul-2023 SAID35 WAGB 092130 METAR WAGB 092130Z 00000KT 5000 VCTS FEW014CB BKN015 24/24 Q1010=  
09-Jul-2023 SAID35 WAGB 092200 METAR WAGB 092200Z 00000KT 5000 VCTS FEW012CB BKN013 24/24 Q1010=  
09-Jul-2023 SAID35 WAGB 092230 METAR WAGB 092230Z 00000KT 5000 FEW012CB BKN013 24/24 Q1010 NOSIG=  
09-Jul-2023 SAID35 WAGB 092300 METAR WAGB 092300Z 00000KT 6000 FEW012CB BKN013 24/24 Q1010=  
09-Jul-2023 SAID35 WAGB 092330 METAR WAGB 092330Z 00000KT 6000 FEW012CB BKN013 24/24 Q1010=  
10-Jul-2023 SAID35 WAGB 100000 METAR WAGB 100000Z 20004KT 7000 FEW011 26/25 Q1011 NOSIG=  
10-Jul-2023 SAID35 WAGB 100030 METAR WAGB 100030Z 08004KT 7000 FEW011 26/25 Q1011 NOSIG=  
10-Jul-2023 SAID35 WAGB 100100 METAR WAGB 100100Z 00000KT 8000 SCT012 28/24 Q1011 NOSIG=  
10-Jul-2023 SAID35 WAGB 100130 METAR WAGB 100130Z 00000KT 8000 SCT012 28/24 Q1011 NOSIG=  
10-Jul-2023 SAID35 WAGB 100200 METAR WAGB 100200Z 27004KT 9000 SCT012 29/25 Q1010 NOSIG=  
10-Jul-2023 SAID35 WAGB 100230 METAR WAGB 100230Z 23004KT 9000 SCT012 29/25 Q1010 NOSIG=  
10-Jul-2023 SAID35 WAGB 100300 METAR WAGB 100300Z 24003KT 9999 SCT012 30/24 Q1010 NOSIG=  
10-Jul-2023 SAID35 WAGB 100330 METAR WAGB 100330Z 22003KT 9999 BKN012 31/23 Q1010 NOSIG=  
10-Jul-2023 SAID35 WAGB 100400 METAR WAGB 100400Z 05003KT 9999 BKN012 32/24 Q1009 NOSIG=  
10-Jul-2023 SAID35 WAGB 100430 METAR WAGB 100430Z 01003KT 9999 BKN012 32/24 Q1009 NOSIG=  
10-Jul-2023 SAID35 WAGB 100430 CCA METAR WAGB 100430Z 17003KT 9999 BKN012 30/24 Q1009 NOSIG=  
10-Jul-2023 SAID35 WAGB 100500 METAR WAGB 100500Z 09003KT 9999 BKN013 31/23 Q1008 NOSIG=  
10-Jul-2023 SAID35 WAGB 100530 METAR WAGB 100530Z 10003KT 9999 BKN013 32/24 Q1008 NOSIG=  
10-Jul-2023 SAID35 WAGB 100600 METAR WAGB 100600Z 03003KT 9999 BKN013 33/24 Q1008 NOSIG=  
10-Jul-2023 SAID35 WAGB 100630 METAR WAGB 100630Z 02003KT 9999 BKN013 33/24 Q1007 NOSIG=  
10-Jul-2023 SAID35 WAGB 100700 METAR WAGB 100700Z 34003KT 9999 FEW013TCU BKN014 33/24 Q1007 NOSIG=  
10-Jul-2023 SAID35 WAGB 100730 METAR WAGB 100730Z 34003KT 9999 FEW013TCU BKN014 33/23 Q1006 NOSIG=  
10-Jul-2023 SAID35 WAGB 100800 METAR WAGB 100800Z 35005KT 9999 FEW013TCU BKN014 33/23 Q1006 NOSIG=  
10-Jul-2023 SAID35 WAGB 100830 METAR WAGB 100830Z 33003KT 9999 FEW013TCU BKN014 33/23 Q1006 NOSIG=  
10-Jul-2023 SAID35 WAGB 100900 METAR WAGB 100900Z 02003KT 9999 FEW013TCU BKN014 33/23 Q1006 NOSIG=  
10-Jul-2023 SAID35 WAGB 100930 METAR WAGB 100930Z 00000KT 9999 FEW014CB SCT015 32/25 Q1007 NOSIG=  
10-Jul-2023 SAID35 WAGB 101000 METAR WAGB 101000Z 00000KT 9999 FEW014CB SCT015 32/25 Q1008 NOSIG=  
10-Jul-2023 SAID35 WAGB 101100 METAR WAGB 101100Z 00000KT 9999 FEW014CB FEW015 30/26 Q1008 NOSIG=  
10-Jul-2023 SAID35 WAGB 101130 METAR WAGB 101130Z 00000KT 9999 FEW014CB FEW015 30/25 Q1008 NOSIG=  
10-Jul-2023 SAID35 WAGB 101200 METAR WAGB 101200Z 00000KT 8000 FEW014 29/26 Q1009=  
10-Jul-2023 SAID35 WAGB 101230 METAR WAGB 101230Z 00000KT 8000 FEW014 29/26 Q1009=  
10-Jul-2023 SAID35 WAGB 101300 METAR WAGB 101300Z 00000KT 7000 FEW013 28/26 Q1010=  
10-Jul-2023 SAID35 WAGB 101330 METAR WAGB 101330Z 00000KT 7000 FEW013 28/26 Q1010=  
10-Jul-2023 SAID35 WAGB 101400 METAR WAGB 101400Z 00000KT 7000 FEW013 27/25 Q1010=  
10-Jul-2023 SAID35 WAGB 101430 METAR WAGB 101430Z 00000KT 7000 FEW013 27/25 Q1010=  
10-Jul-2023 SAID35 WAGB 101500 METAR WAGB 101500Z 00000KT 7000 FEW012 27/25 Q1010=  
10-Jul-2023 SAID35 WAGB 101530 METAR WAGB 101530Z 00000KT 6000 FEW012 27/25 Q1010=  
10-Jul-2023 SAID35 WAGB 101600 METAR WAGB 101600Z 00000KT 5000 HZ SCT012 26/25 Q1010=  
10-Jul-2023 SAID35 WAGB 101630 METAR WAGB 101630Z 00000KT 5000 HZ SCT011 26/25 Q1010=  
10-Jul-2023 SAID35 WAGB 101700 METAR WAGB 101700Z 00000KT 4000 BR SCT011 26/25 Q1010=  
10-Jul-2023 SAID35 WAGB 101730 METAR WAGB 101730Z 00000KT 4000 BR SCT011 26/25 Q1010=  
10-Jul-2023 SAID35 WAGB 101800 METAR WAGB 101800Z 00000KT 4000 BR SCT011 26/25 Q1010=  
10-Jul-2023 SAID35 WAGB 101830 METAR WAGB 101830Z 00000KT 4000 BR SCT011 26/25 Q1010=  
10-Jul-2023 SAID35 WAGB 101900 METAR WAGB 101900Z 00000KT 4000 BR SCT011 26/25 Q1010=  
10-Jul-2023 SAID35 WAGB 101930 METAR WAGB 101930Z 00000KT 4000 BR SCT011 26/25 Q1010=  
10-Jul-2023 SAID35 WAGB 102000 METAR WAGB 102000Z 00000KT 4000 BR BKN011 26/25 Q1009=  
10-Jul-2023 SAID35 WAGB 102030 METAR WAGB 102030Z 00000KT 4000 BR BKN011 26/25 Q1009=  
10-Jul-2023 SAID35 WAGB 102100 METAR WAGB 102100Z 00000KT 4000 BR BKN010 26/25 Q1009=  
10-Jul-2023 SAID35 WAGB 102130 METAR WAGB 102130Z 00000KT 4000 BR BKN010 26/25 Q1009=  
10-Jul-2023 SAID35 WAGB 102200 METAR WAGB 102200Z 00000KT 5000 BR BKN010 25/24 Q1010=  
10-Jul-2023 SAID35 WAGB 102230 METAR WAGB 102230Z 00000KT 5000 BKN010 25/24 Q1010=  
10-Jul-2023 SAID35 WAGB 102300 METAR WAGB 102300Z 00000KT 5000 SCT010 24/24 Q1011=  
10-Jul-2023 SAID35 WAGB 102330 METAR WAGB 102330Z 00000KT 5000 SCT010 24/24 Q1011=  
11-Jul-2023 SAID35 WAGB 110030 METAR WAGB 110030Z VRB02KT 7000 FW006 26/24 Q1012 NOSIG=  
11-Jul-2023 SAID35 WAGB 110100 METAR WAGB 110100Z 00000KT 8000 SCT008 27/25 Q1012 NOSIG=  
11-Jul-2023 SAID35 WAGB 110130 METAR WAGB 110130Z 00000KT 8000 SCT009 27/24 Q1012 NOSIG=  
11-Jul-2023 SAID35 WAGB 110200 METAR WAGB 110200Z 34005KT 8000 BKN010 27/24 Q1012 NOSIG=  
11-Jul-2023 SAID35 WAGB 110230 METAR WAGB 110230Z 35003KT 9000 SCT010 28/24 Q1011 NOSIG=  
11-Jul-2023 SAID35 WAGB 110300 METAR WAGB 110300Z 35003KT 9999 FEW011 29/24 Q1011 NOSIG=  
11-Jul-2023 SAID35 WAGB 110330 METAR WAGB 110330Z 00000KT 9999 BKN012 30/24 Q1011 NOSIG=  
11-Jul-2023 SAID35 WAGB 110400 METAR WAGB 110400Z 35005KT 9999 SCT012 30/25 Q1010 NOSIG=  
11-Jul-2023 SAID35 WAGB 110430 METAR WAGB 110430Z 11003KT 9999 BKN012 30/24 Q1010 NOSIG=  
11-Jul-2023 SAID35 WAGB 110500 METAR WAGB 110500Z 00000KT 9999 BKN012 31/24 Q1010 NOSIG=  
11-Jul-2023 SAID35 WAGB 110530 METAR WAGB 110530Z 07002KT 9999 VCSH BKN013 31/23 Q1009 NOSIG=  
11-Jul-2023 SAID35 WAGB 110600 METAR WAGB 110600Z 09003KT 9999 FEW014CB BKN015 31/26 Q1009 NOSIG=  
11-Jul-2023 SAID35 WAGB 110630 METAR WAGB 110630Z 04004KT 9999 FEW014CB BKN015 31/26 Q1008 NOSIG=  
11-Jul-2023 SAID35 WAGB 110700 METAR WAGB 110700Z 00000KT 9000 FEW014CB BKN015 31/26 Q1008 NOSIG=  
11-Jul-2023 SAID35 WAGB 110730 METAR WAGB 110730Z 00000KT 9000 FEW014CB BKN015 31/26 Q1008 NOSIG=  
11-Jul-2023 SAID35 WAGB 110800 METAR WAGB 110800Z 00000KT 9999 FEW014CB BKN015 32/26 Q1008=  
11-Jul-2023 SAID35 WAGB 110830 METAR WAGB 110830Z 00000KT 9999 FEW014CB SCT015 32/26 Q1008 NOSIG=  
11-Jul-2023 SAID35 WAGB 110900 METAR WAGB 110900Z 00000KT 9999 FEW013CB BKN014 31/26 Q1008 NOSIG=  
11-Jul-2023 SAID35 WAGB 110930 METAR WAGB 110930Z 00000KT 9999 FEW013CB BKN014 31/26 Q1008 NOSIG=  
11-Jul-2023 SAID35 WAGB 111000 METAR WAGB 111000Z 00000KT 9999 FEW014CB BKN015 29/26 Q1009 NOSIG=  
11-Jul-2023 SAID35 WAGB 111030 METAR WAGB 111030Z 00000KT 9999 FEW014CB BKN015 29/26 Q1009 NOSIG=  
11-Jul-2023 SAID35 WAGB 111100 METAR WAGB 111100Z 00000KT 9999 FEW013CB BKN014 29/26 Q1010 NOSIG=  
11-Jul-2023 SAID35 WAGB 111130 METAR WAGB 111130Z 00000KT 9999 FEW013CB BKN014 29/26 Q1010 NOSIG=  
11-Jul-2023 SAID35 WAGB 111200 METAR WAGB 111200Z 00000KT 9999 FEW013CB SCT014 27/25 Q1010=  
11-Jul-2023 SAID35 WAGB 111230 METAR WAGB 111230Z 00000KT 9999 FEW013CB SCT014 27/25 Q1010=  
11-Jul-2023 SAID35 WAGB 111300 METAR WAGB 111300Z 00000KT 8000 SCT014 27/24 Q1010=  
11-Jul-2023 SAID35 WAGB 111400 METAR WAGB 111400Z 00000KT 8000 SCT014 25/24 Q1011=  
11-Jul-2023 SAID35 WAGB 111500 METAR WAGB 111500Z 00000KT 8000 BKN012 25/24 Q1011=  
11-Jul-2023 SAID35 WAGB 111530 METAR WAGB 111530Z 00000KT 8000 BKN012 25/24 Q1011=  
11-Jul-2023 SAID35 WAGB 111600 METAR WAGB 111600Z 00000KT 6000 BKN012 25/24 Q1011=  
11-Jul-2023 SAID35 WAGB 111630 METAR WAGB 111630Z 00000KT 6000 BKN012 25/24 Q1010=  
11-Jul-2023 SAID35 WAGB 111700 METAR WAGB 111700Z 00000KT 8000 BKN012 25/24 Q1010=  
11-Jul-2023 SAID35 WAGB 111700 CCA METAR WAGB 111700Z 00000KT 6000 BKN012 25/24 Q1010=  
11-Jul-2023 SAID35 WAGB 111730 METAR WAGB 111730Z 00000KT 6000 BKN012 25/24 Q1010=  
11-Jul-2023 SAID35 WAGB 111800 METAR WAGB 111800Z 00000KT 5000 BR BKN010 25/24 Q1010=  
11-Jul-2023 SAID35 WAGB 111830 METAR WAGB 111830Z 00000KT 5000 BR BKN010 25/24 Q1010=  
11-Jul-2023 SAID35 WAGB 111900 METAR WAGB 111900Z 00000KT 5000 BR BKN010 25/24 Q1010=  
11-Jul-2023 SAID35 WAGB 111930 METAR WAGB 111930Z 00000KT 5000 BR BKN010 25/24 Q1010=  
11-Jul-2023 SAID35 WAGB 112000 METAR WAGB 112000Z 00000KT 5000 BR BKN010 25/24 Q1010=  
11-Jul-2023 SAID35 WAGB 112030 METAR WAGB 112030Z 00000KT 5000 BR BKN010 25/24 Q1010=  
11-Jul-2023 SAID35 WAGB 112100 METAR WAGB 112100Z 00000KT 5000 BR BKN010 25/24 Q1010=  
11-Jul-2023 SAID35 WAGB 112130 METAR WAGB 112130Z 00000KT 5000 BR BKN010 25/24 Q1010=  
11-Jul-2023 SAID35 WAGB 112200 METAR WAGB 112200Z 00000KT 3000 BR BKN009 24/24 Q1010=  
11-Jul-2023 SAID35 WAGB 112230 METAR WAGB 112230Z 00000KT 4000 BR BKN009 24/24 Q1011=  
11-Jul-2023 SAID35 WAGB 112300 METAR WAGB 112300Z 00000KT 6000 SCT010 24/24 Q1011=  
11-Jul-2023 SAID35 WAGB 112330 METAR WAGB 112330Z 00000KT 6000 SCT010 24/24 Q1012=  
12-Jul-2023 SAID35 WAGB 120000 METAR WAGB 120000Z 00000KT 5000 HZ SCT011 25/24 Q1012 NOSIG=  
12-Jul-2023 SAID35 WAGB 120030 METAR WAGB 120030Z 00000KT 6000 SCT011 25/24 Q1012 NOSIG=  
12-Jul-2023 SAID35 WAGB 120100 METAR WAGB 120100Z 21004KT 8000 BKN011 26/24 Q1012 NOSIG=  
12-Jul-2023 SAID35 WAGB 120130 METAR WAGB 120130Z 19003KT 9000 BKN011 28/24 Q1012 NOSIG=  
12-Jul-2023 SAID35 WAGB 120200 METAR WAGB 120200Z 20003KT 9000 SCT011 28/23 Q1012 NOSIG=  
12-Jul-2023 SAID35 WAGB 120230 METAR WAGB 120230Z 18003KT 9999 SCT011 28/23 Q1012 NOSIG=  
12-Jul-2023 SAID35 WAGB 120300 METAR WAGB 120300Z 19005KT 9999 SCT011 29/24 Q1011 NOSIG=  
12-Jul-2023 SAID35 WAGB 120330 METAR WAGB 120330Z 18004KT 9999 SCT011 29/23 Q1011 NOSIG=  
12-Jul-2023 SAID35 WAGB 120400 METAR WAGB 120400Z 27004KT 9999 SCT011 30/24 Q1010 NOSIG=  
12-Jul-2023 SAID35 WAGB 120430 METAR WAGB 120430Z 24003KT 9999 SCT011 31/23 Q1010 NOSIG=  
12-Jul-2023 SAID35 WAGB 120500 METAR WAGB 120500Z 18003KT 9999 SCT012 31/23 Q1009 NOSIG=  
12-Jul-2023 SAID35 WAGB 120530 METAR WAGB 120530Z 23004KT 9999 BKN014 31/23 Q1009 NOSIG=  
12-Jul-2023 SAID35 WAGB 120600 METAR WAGB 120600Z 22002KT 9999 FEW013TCU BKN014 31/23 Q1008 NOSIG=  
12-Jul-2023 SAID35 WAGB 120630 METAR WAGB 120630Z 26002KT 9999 FEW014TCU SCT015 32/23 Q1008 NOSIG=  
12-Jul-2023 SAID35 WAGB 120700 METAR WAGB 120700Z 26004KT 9999 FEW014TCU SCT015 32/23 Q1007 NOSIG=  
12-Jul-2023 SAID35 WAGB 120730 METAR WAGB 120730Z 29004KT 9999 FEW014TCU SCT015 32/24 Q1007 NOSIG=  
12-Jul-2023 SAID35 WAGB 120800 METAR WAGB 120800Z 23004KT 9999 FEW014TCU SCT015 32/24 Q1007 NOSIG=  
12-Jul-2023 SAID35 WAGB 120830 METAR WAGB 120830Z 27003KT 9999 FEW014TCU FEW015 32/24 Q1007 NOSIG=  
12-Jul-2023 SAID35 WAGB 120900 METAR WAGB 120900Z 28004KT 9999 FEW014TCU FEW015 32/24 Q1007 NOSIG=  
12-Jul-2023 SAID35 WAGB 120930 METAR WAGB 120930Z 00000KT 9999 FEW015 32/25 Q1008=  
12-Jul-2023 SAID35 WAGB 121000 METAR WAGB 121000Z 23003KT 9999 FEW015 31/25 Q1008 NOSIG=  
12-Jul-2023 SAID35 WAGB 121030 METAR WAGB 121030Z 00000KT 9999 FEW015 30/25 Q1008 NOSIG=  
12-Jul-2023 SAID35 WAGB 121100 METAR WAGB 121100Z 00000KT 8000 FEW015 29/25 Q1009 NOSIG=  
12-Jul-2023 SAID35 WAGB 121130 METAR WAGB 121130Z 00000KT 8000 FEW015 29/25 Q1009 NOSIG=  
12-Jul-2023 SAID35 WAGB 121200 METAR WAGB 121200Z 00000KT 7000 SCT013 28/26 Q1010=  
12-Jul-2023 SAID35 WAGB 121230 METAR WAGB 121230Z 00000KT 7000 SCT013 28/26 Q1010=  
12-Jul-2023 SAID35 WAGB 121300 METAR WAGB 121300Z 00000KT 7000 SCT013 28/25 Q1010=  
12-Jul-2023 SAID35 WAGB 121330 METAR WAGB 121330Z 00000KT 7000 SCT013 27/25 Q1011=  
12-Jul-2023 SAID35 WAGB 121400 METAR WAGB 121400Z 00000KT 7000 SCT012 27/25 Q1011=  
12-Jul-2023 SAID35 WAGB 121430 METAR WAGB 121430Z 19003KT 7000 SCT012 27/25 Q1012=  
12-Jul-2023 SAID35 WAGB 121500 METAR WAGB 121500Z 17003KT 6000 BKN011 26/24 Q1012=  
12-Jul-2023 SAID35 WAGB 121530 METAR WAGB 121530Z 20003KT 6000 BKN011 26/24 Q1012=  
12-Jul-2023 SAID35 WAGB 121600 METAR WAGB 121600Z 19003KT 6000 BKN011 25/24 Q1012=  
12-Jul-2023 SAID35 WAGB 121630 METAR WAGB 121630Z 20003KT 6000 BKN011 25/24 Q1012=  
12-Jul-2023 SAID35 WAGB 121700 METAR WAGB 121700Z 00000KT 6000 BKN011 25/24 Q1012=  
12-Jul-2023 SAID35 WAGB 121730 METAR WAGB 121730Z 00000KT 6000 BKN011 25/24 Q1011=  
12-Jul-2023 SAID35 WAGB 121800 METAR WAGB 121800Z 00000KT 6000 BKN011 25/24 Q1011=  
12-Jul-2023 SAID35 WAGB 121830 METAR WAGB 121830Z 00000KT 6000 BKN011 25/24 Q1011=  
12-Jul-2023 SAID35 WAGB 121900 METAR WAGB 121900Z 00000KT 6000 BKN011 25/24 Q1011=  
12-Jul-2023 SAID35 WAGB 121930 METAR WAGB 121930Z 00000KT 6000 BKN011 25/24 Q1011=  
12-Jul-2023 SAID35 WAGB 122000 METAR WAGB 122000Z 00000KT 6000 BKN011 25/24 Q1011=  
12-Jul-2023 SAID35 WAGB 122030 METAR WAGB 122030Z 00000KT 6000 BKN011 25/24 Q1011=  
12-Jul-2023 SAID35 WAGB 122100 METAR WAGB 122100Z 00000KT 6000 SCT011 24/23 Q1011=  
12-Jul-2023 SAID35 WAGB 122130 METAR WAGB 122130Z 00000KT 6000 SCT011 24/23 Q1011=  
12-Jul-2023 SAID35 WAGB 122200 METAR WAGB 122200Z 00000KT 6000 SCT011 24/23 Q1011=  
12-Jul-2023 SAID35 WAGB 122230 METAR WAGB 122230Z 00000KT 6000 SCT011 24/23 Q1012=  
12-Jul-2023 SAID35 WAGB 122230 CCA METAR COR WAGB 122230Z 00000KT 6000 SCT011 24/23 Q1011=  
12-Jul-2023 SAID35 WAGB 122300 METAR WAGB 122300Z 00000KT 6000 SCT011 24/23 Q1011=  
13-Jul-2023 SAID35 WAGB 130000 METAR WAGB 130000Z 00000KT 6000 FEW010 25/24 Q1012 NOSIG=  
13-Jul-2023 SAID35 WAGB 130030 METAR WAGB 130030Z 00000KT 6000 FEW010 25/24 Q1012 NOSIG=  
13-Jul-2023 SAID35 WAGB 130100 METAR WAGB 130100Z 24002KT 6000 FEW010 26/24 Q1012 NOSIG=  
13-Jul-2023 SAID35 WAGB 130130 METAR WAGB 130130Z 26003KT 6000 SCT010 27/24 Q1012 NOSIG=  
13-Jul-2023 SAID35 WAGB 130200 METAR WAGB 130200Z 22007KT 7000 SCT010 27/24 Q1012 NOSIG=  
13-Jul-2023 SAID35 WAGB 130230 METAR WAGB 130230Z 23008KT 7000 SCT010 28/24 Q1012 NOSIG=  
13-Jul-2023 SAID35 WAGB 130300 METAR WAGB 130300Z 16007KT 7000 BKN010 29/24 Q1012 NOSIG=  
13-Jul-2023 SAID35 WAGB 130330 METAR WAGB 130330Z 21004KT 9000 BKN012 30/24 Q1011 NOSIG=  
13-Jul-2023 SAID35 WAGB 130400 METAR WAGB 130400Z 21011KT 9000 BKN012 30/24 Q1011 NOSIG=  
13-Jul-2023 SAID35 WAGB 130430 METAR WAGB 130430Z 25005KT 9999 BKN012 31/24 Q1010 NOSIG=  
13-Jul-2023 SAID35 WAGB 130500 METAR WAGB 130500Z 24005KT 9999 BKN012 31/24 Q1010 NOSIG=  
13-Jul-2023 SAID35 WAGB 130530 METAR WAGB 130530Z 23008KT 9999 BKN013 31/23 Q1009 NOSIG=  
13-Jul-2023 SAID35 WAGB 130600 METAR WAGB 130600Z 18007KT 9999 BKN013 31/24 Q1009 NOSIG=  
13-Jul-2023 SAID35 WAGB 130630 METAR WAGB 130630Z 19003KT 9999 SCT013 31/24 Q1008 NOSIG=  
13-Jul-2023 SAID35 WAGB 130700 METAR WAGB 130700Z 22007KT 9999 SCT013 31/23 Q1008 NOSIG=  
13-Jul-2023 SAID35 WAGB 130700 CCA METAR WAGB 130700Z 22007KT 150V220 9999 SCT013 31/23 Q1008 NOSIG=  
13-Jul-2023 SAID35 WAGB 130730 METAR WAGB 130730Z 19005KT 9999 SCT014 30/23 Q1008 NOSIG=  
13-Jul-2023 SAID35 WAGB 130800 METAR WAGB 130800Z 20003KT 9999 FEW012TCU SCT014 31/26 Q1008 NOSIG=  
13-Jul-2023 SAID35 WAGB 130830 METAR WAGB 130830Z 19003KT 9999 FEW012TCU SCT014 31/26 Q1008 NOSIG=  
13-Jul-2023 SAID35 WAGB 130900 METAR WAGB 130900Z 17003KT 9999 FEW012CB SCT014 30/25 Q1008 NOSIG=  
13-Jul-2023 SAID35 WAGB 130930 METAR WAGB 130930Z 18003KT 9999 FEW012CB SCT014 30/25 Q1008 NOSIG=  
13-Jul-2023 SAID35 WAGB 131000 METAR WAGB 131000Z 00000KT 9999 FEW012CB SCT014 29/25 Q1009 NOSIG=  
13-Jul-2023 SAID35 WAGB 131030 METAR WAGB 131030Z 00000KT 9999 FEW012CB SCT014 29/25 Q1009 NOSIG=  
13-Jul-2023 SAID35 WAGB 131100 METAR WAGB 131100Z 00000KT 8000 VCTS FEW012CB SCT014 27/25 Q1009=  
13-Jul-2023 SAID35 WAGB 131130 METAR WAGB 131130Z 00000KT 8000 VCTS FEW012CB SCT014 27/25 Q1009=  
13-Jul-2023 SAID35 WAGB 131200 METAR WAGB 131200Z 00000KT 8000 VCTS FEW012CB FEW013 27/25 Q1010=  
13-Jul-2023 SAID35 WAGB 131230 METAR WAGB 131230Z 00000KT 8000 VCTS FEW012CB FEW013 27/25 Q1010=  
13-Jul-2023 SAID35 WAGB 131300 METAR WAGB 131300Z 00000KT 8000 VCTS FEW012CB FEW013 26/25 Q1011=  
13-Jul-2023 SAID35 WAGB 131330 METAR WAGB 131330Z 00000KT 8000 VCTS FEW012CB FEW013 26/25 Q1012=  
13-Jul-2023 SAID35 WAGB 131400 METAR WAGB 131400Z 00000KT 7000 FEW012 26/25 Q1012=  
13-Jul-2023 SAID35 WAGB 131430 METAR WAGB 131430Z 00000KT 7000 FEW012 26/25 Q1012=  
13-Jul-2023 SAID35 WAGB 131500 METAR WAGB 131500Z 00000KT 7000 FEW012 25/25 Q1012=  
13-Jul-2023 SAID35 WAGB 131530 METAR WAGB 131530Z 00000KT 7000 FEW012 25/25 Q1012=  
13-Jul-2023 SAID35 WAGB 131630 METAR WAGB 131630Z 00000KT 7000 FEW012 25/25 Q1011=  
13-Jul-2023 SAID35 WAGB 131700 METAR WAGB 131700Z 00000KT 7000 FEW012 25/25 Q1011=  
13-Jul-2023 SAID35 WAGB 131730 METAR WAGB 131730Z 00000KT 7000 FEW012 25/25 Q1011=  
13-Jul-2023 SAID35 WAGB 131800 METAR WAGB 131800Z 00000KT 6000 SCT011 25/24 Q1011=  
13-Jul-2023 SAID35 WAGB 131830 METAR WAGB 131830Z 00000KT 6000 SCT011 25/24 Q1010=  
13-Jul-2023 SAID35 WAGB 131900 METAR WAGB 131900Z 00000KT 6000 SCT011 25/24 Q1010=  
13-Jul-2023 SAID35 WAGB 131930 METAR WAGB 131930Z 00000KT 6000 FEW010 25/24 Q1010=  
13-Jul-2023 SAID35 WAGB 132000 METAR WAGB 132000Z 00000KT 5000 BR FEW010 25/24 Q1010=  
13-Jul-2023 SAID35 WAGB 132030 METAR WAGB 132030Z 00000KT 5000 BR FEW010 25/24 Q1010=  
13-Jul-2023 SAID35 WAGB 132100 METAR WAGB 132100Z 00000KT 5000 BR FEW010 25/24 Q1010=  
13-Jul-2023 SAID35 WAGB 132130 METAR WAGB 132130Z 00000KT 5000 BR SCT010 25/24 Q1011=  
13-Jul-2023 SAID35 WAGB 132200 METAR WAGB 132200Z 00000KT 5000 BR BKN010 25/24 Q1011=  
13-Jul-2023 SAID35 WAGB 132230 METAR WAGB 132230Z 00000KT 5000 BR BKN010 25/24 Q1011=  
13-Jul-2023 SAID35 WAGB 132300 METAR WAGB 132300Z 00000KT 6000 BKN010 25/24 Q1011=  
13-Jul-2023 SAID35 WAGB 132330 METAR WAGB 132330Z 00000KT 6000 SCT010 25/24 Q1012=  
14-Jul-2023 SAID35 WAGB 140000 METAR WAGB 140000Z 00000KT 6000 BKN011 25/24 Q1012 NOSIG=  
14-Jul-2023 SAID35 WAGB 140030 METAR WAGB 140030Z 25003KT 6000 BKN011 26/24 Q1012 NOSIG=  
14-Jul-2023 SAID35 WAGB 140100 METAR WAGB 140100Z 26004KT 7000 BKN011 27/24 Q1012 NOSIG=  
14-Jul-2023 SAID35 WAGB 140130 METAR WAGB 140130Z 23004KT 7000 BKN011 28/24 Q1012 NOSIG=  
14-Jul-2023 SAID35 WAGB 140200 METAR WAGB 140200Z 20005KT 8000 BKN011 28/24 Q1012 NOSIG=  
14-Jul-2023 SAID35 WAGB 140230 METAR WAGB 140230Z 21004KT 8000 BKN011 28/25 Q1012 NOSIG=  
14-Jul-2023 SAID35 WAGB 140300 METAR WAGB 140300Z 20005KT 8000 BKN012 29/24 Q1011 NOSIG=  
14-Jul-2023 SAID35 WAGB 140330 METAR WAGB 140330Z 16005KT 9000 BKN012 30/24 Q1011 NOSIG=  
14-Jul-2023 SAID35 WAGB 140400 METAR WAGB 140400Z 21006KT 9000 BKN012 30/24 Q1011 NOSIG=  
14-Jul-2023 SAID35 WAGB 140430 METAR WAGB 140430Z 22004KT 9000 BKN012 30/24 Q1010 NOSIG=  
14-Jul-2023 SAID35 WAGB 140500 METAR WAGB 140500Z 18004KT 9000 BKN012 30/24 Q1010 NOSIG=  
14-Jul-2023 SAID35 WAGB 140500 CCA METAR WAGB 140500Z 18004KT 9999 BKN012 30/24 Q1010 NOSIG=  
14-Jul-2023 SAID35 WAGB 140530 METAR WAGB 140530Z 00000KT 9999 BKN012 30/25 Q1010 NOSIG=  
14-Jul-2023 SAID35 WAGB 140530 CCA METAR WAGB 140530Z 22004KT 9999 BKN012 30/24 Q1009 NOSIG=  
14-Jul-2023 SAID35 WAGB 140600 METAR WAGB 140600Z 24003KT 9999 BKN014 31/24 Q1009 NOSIG=  
14-Jul-2023 SAID35 WAGB 140630 METAR WAGB 140630Z 00000KT 9999 BKN012 31/24 Q1008 NOSIG=  
14-Jul-2023 SAID35 WAGB 140700 METAR WAGB 140700Z 00000KT 9999 BKN012 30/24 Q1007 NOSIG=  
14-Jul-2023 SAID35 WAGB 140730 METAR WAGB 140730Z 00000KT 9999 BKN012 30/24 Q1007 NOSIG=  
14-Jul-2023 SAID35 WAGB 140800 METAR WAGB 140800Z 00000KT 9999 BKN012 32/23 Q1007 NOSIG=  
14-Jul-2023 SAID35 WAGB 140830 METAR WAGB 140830Z 00000KT 9999 BKN012 32/23 Q1007 NOSIG=  
14-Jul-2023 SAID35 WAGB 140900 METAR WAGB 140900Z 00000KT 9999 SCT012 32/24 Q1007 NOSIG=  
14-Jul-2023 SAID35 WAGB 140930 METAR WAGB 140930Z 26003KT 9999 FEW013TCU SCT014 32/25 Q1008 NOSIG=  
14-Jul-2023 SAID35 WAGB 141000 METAR WAGB 141000Z 00000KT 9000 FEW013CB SCT014 31/26 Q1008 NOSIG=  
14-Jul-2023 SAID35 WAGB 141030 METAR WAGB 141030Z 00000KT 9999 FEW013TCU SCT014 30/25 Q1008 NOSIG=  
14-Jul-2023 SAID35 WAGB 141100 METAR WAGB 141100Z 00000KT 9000 FEW013CB SCT014 29/25 Q1009 NOSIG=  
14-Jul-2023 SAID35 WAGB 141130 METAR WAGB 141130Z 00000KT 9000 FEW013CB SCT014 28/25 Q1010 NOSIG=  
14-Jul-2023 SAID35 WAGB 141200 METAR WAGB 141200Z 00000KT 9000 FEW013CB BKN014 28/25 Q1010 NOSIG=  
14-Jul-2023 SAID35 WAGB 141230 METAR WAGB 141230Z 00000KT 9000 FEW013CB BKN014 28/25 Q1011 NOSIG=  
14-Jul-2023 SAID35 WAGB 141300 METAR WAGB 141300Z 00000KT 8000 BKN012 27/26 Q1011 NOSIG=  
14-Jul-2023 SAID35 WAGB 141330 METAR WAGB 141330Z 00000KT 8000 BKN012 27/26 Q1011 NOSIG=  
14-Jul-2023 SAID35 WAGB 141400 METAR WAGB 141400Z 00000KT 8000 BKN012 27/25 Q1011 NOSIG=  
14-Jul-2023 SAID35 WAGB 141430 METAR WAGB 141430Z 23003KT 8000 VCTS BKN012 27/25 Q1012 NOSIG=  
14-Jul-2023 SAID35 WAGB 141500 METAR WAGB 141500Z 00000KT 7000 VCTS FEW011CB BKN012 26/25 Q1012 NOSIG=  
14-Jul-2023 SAID35 WAGB 141530 METAR WAGB 141530Z 10002KT 7000 TS FEW011CB BKN012 26/25 Q1012 NOSIG=  
14-Jul-2023 SPID33 WAGB 141531 SPECI WAGB 141531Z 20004KT 5000 RA FEW011CB BKN012 26/25 Q1012=  
14-Jul-2023 SAID35 WAGB 141600 METAR WAGB 141600Z 00000KT 5000 -TSRA BKN011 26/25 Q1013=  
14-Jul-2023 SAID35 WAGB 141630 METAR WAGB 141630Z 00000KT 5000 TSRA BKN011 26/25 Q1012=  
14-Jul-2023 SAID35 WAGB 141700 METAR WAGB 141700Z 05002KT 3000 RA BKN011 24/24 Q1012=  
14-Jul-2023 SAID35 WAGB 141730 METAR WAGB 141730Z 00000KT 3000 RA BKN011 24/24 Q1012=  
14-Jul-2023 SAID35 WAGB 141800 METAR WAGB 141800Z 00000KT 3000 RA BKN011 24/24 Q1011=  
14-Jul-2023 SAID35 WAGB 141830 METAR WAGB 141830Z 00000KT 3000 RA BKN011 24/24 Q1010=  
14-Jul-2023 SAID35 WAGB 141900 METAR WAGB 141900Z 00000KT 3000 VCSH BKN010 24/24 Q1010=  
14-Jul-2023 SPID33 WAGB 141930 SPECI WAGB 141930Z 00000KT 3000 BKN010 24/24 Q1010 RERA=  
14-Jul-2023 SAID35 WAGB 141930 METAR WAGB 141930Z 00000KT 3000 BKN010 24/24 Q1010 RERA=  
14-Jul-2023 SAID35 WAGB 142000 METAR WAGB 142000Z 00000KT 3000 BR BKN009 24/24 Q1009 NOSIG=  
14-Jul-2023 SAID35 WAGB 142030 METAR WAGB 142030Z 00000KT 3000 BR BKN009 24/24 Q1010 NOSIG=  
14-Jul-2023 SAID35 WAGB 142100 METAR WAGB 142100Z 00000KT 3000 BR BKN009 24/24 Q1010 NOSIG=  
14-Jul-2023 SAID35 WAGB 142130 METAR WAGB 142130Z 00000KT 2000 BR BKN009 24/24 Q1010 NOSIG=  
14-Jul-2023 SAID35 WAGB 142200 METAR WAGB 142200Z 00000KT 1000 FG BKN009 24/24 Q1010 NOSIG=  
14-Jul-2023 SAID35 WAGB 142230 METAR WAGB 142230Z 00000KT 1000 FG BKN009 24/24 Q1010 NOSIG=  
14-Jul-2023 SAID35 WAGB 142300 METAR WAGB 142300Z 00000KT 3000 BR BKN010 24/24 Q1011 NOSIG=  
14-Jul-2023 SAID35 WAGB 142330 METAR WAGB 142330Z 00000KT 4000 BR BKN010 24/24 Q1011 NOSIG=  
15-Jul-2023 SAID35 WAGB 150000 METAR WAGB 150000Z 00000KT 6000 BKN011 25/24 Q1011 NOSIG=  
15-Jul-2023 SAID35 WAGB 150030 METAR WAGB 150030Z 00000KT 6000 BKN011 25/24 Q1011 NOSIG=  
15-Jul-2023 SAID35 WAGB 150100 METAR WAGB 150100Z 00000KT 7000 BKN011 27/25 Q1012 NOSIG=  
15-Jul-2023 SAID35 WAGB 150130 METAR WAGB 150130Z 22004KT 6000 BKN009 26/24 Q1012 NOSIG=  
15-Jul-2023 SAID35 WAGB 150200 METAR WAGB 150200Z 17004KT 6000 BKN009 26/24 Q1012 NOSIG=  
15-Jul-2023 SAID35 WAGB 150230 METAR WAGB 150230Z VRB02KT 7000 BKN009 28/25 Q1012 NOSIG=  
15-Jul-2023 SAID35 WAGB 150300 METAR WAGB 150300Z 23003KT 7000 BKN009 29/24 Q1012 NOSIG=  
15-Jul-2023 SAID35 WAGB 150400 METAR WAGB 150400Z 21003KT 8000 BKN010 30/24 Q1010 NOSIG=  
15-Jul-2023 SAID35 WAGB 150430 METAR WAGB 150430Z 21004KT 9999 SCT011 30/25 Q1010 NOSIG=  
15-Jul-2023 SAID35 WAGB 150500 METAR WAGB 150500Z 16003KT 9999 BKN012 30/25 Q1010 NOSIG=  
15-Jul-2023 SAID35 WAGB 150530 METAR WAGB 150530Z 16004KT 9999 BKN012 30/25 Q1009 NOSIG=  
15-Jul-2023 SAID35 WAGB 150600 METAR WAGB 150600Z 18003KT 9999 BKN012 31/24 Q1008 NOSIG=  
15-Jul-2023 SAID35 WAGB 150630 METAR WAGB 150630Z 19003KT 9999 BKN012 31/24 Q1008 NOSIG=  
15-Jul-2023 SAID35 WAGB 150700 METAR WAGB 150700Z 15003KT 9999 BKN012 31/24 Q1007 NOSIG=  
15-Jul-2023 SAID35 WAGB 150730 METAR WAGB 150730Z 16003KT 9999 BKN012 31/24 Q1007 NOSIG=  
15-Jul-2023 SAID35 WAGB 150800 METAR WAGB 150800Z 19003KT 9999 FEW012TCU BKN013 30/24 Q1007 NOSIG=  
15-Jul-2023 SAID35 WAGB 150830 METAR WAGB 150830Z 18004KT 9999 FEW012TCU BKN013 30/24 Q1007 NOSIG=  
15-Jul-2023 SAID35 WAGB 150900 METAR WAGB 150900Z 20003KT 9999 FEW012TCU BKN013 30/24 Q1007 NOSIG=  
15-Jul-2023 SAID35 WAGB 150930 METAR WAGB 150930Z 00000KT 9999 FEW013CB SCT014 31/26 Q1007 NOSIG=  
15-Jul-2023 SAID35 WAGB 151000 METAR WAGB 151000Z 20004KT 9999 FEW013CB SCT014 29/26 Q1008 NOSIG=  
15-Jul-2023 SAID35 WAGB 151030 METAR WAGB 151030Z 00000KT 9999 FEW013CB SCT014 29/26 Q1008 NOSIG=  
15-Jul-2023 SAID35 WAGB 151100 METAR WAGB 151100Z 00000KT 8000 FEW013CB SCT014 28/26 Q1009 NOSIG=  
15-Jul-2023 SAID35 WAGB 151130 METAR WAGB 151130Z 00000KT 8000 FEW013CB SCT014 28/26 Q1009 NOSIG=  
15-Jul-2023 SAID35 WAGB 151200 METAR WAGB 151200Z 29005KT 7000 FEW012CB BKN013 27/24 Q1010=  
15-Jul-2023 SAID35 WAGB 151230 METAR WAGB 151230Z 00000KT 7000 FEW012CB BKN013 27/24 Q1010=  
15-Jul-2023 SPID33 WAGB 151238 SPECI WAGB 151238Z 00000KT 6000 -RA FEW012CB BKN013 27/24 Q1011=  
15-Jul-2023 SAID35 WAGB 151300 METAR WAGB 151300Z VRB02KT 5000 -RA FEW012CB BKN013 27/24 Q1011=  
15-Jul-2023 SAID35 WAGB 151330 METAR WAGB 151330Z 11004KT 5000 -RA FEW012CB BKN013 26/25 Q1012=  
15-Jul-2023 SAID35 WAGB 151400 METAR WAGB 151400Z 00000KT 5000 -RA FEW012CB BKN013 25/24 Q1012=  
15-Jul-2023 SAID35 WAGB 151430 METAR WAGB 151430Z 00000KT 5000 -RA FEW012CB BKN013 25/24 Q1012=  
15-Jul-2023 SAID35 WAGB 151430 CCB METAR WAGB 151430Z 00000KT 5000 VCSH FEW012CB BKN013 25/24 Q1013 RERA=  
15-Jul-2023 SAID35 WAGB 151430 CCA METAR WAGB 151430Z 00000KT 5000 -RA FEW012CB BKN013 25/24 Q1013=  
15-Jul-2023 SAID35 WAGB 151500 METAR WAGB 151500Z VRB02KT 5000 VCSH FEW011CB BKN012 25/24 Q1013=  
15-Jul-2023 SPID33 WAGB 151514 SPECI WAGB 151514Z 00000KT 5000 -RA FEW011CB BKN012 25/24 Q1013=  
15-Jul-2023 SAID35 WAGB 151530 METAR WAGB 151530Z 00000KT 5000 -RA FEW011CB BKN012 25/24 Q1013=  
15-Jul-2023 SAID35 WAGB 151600 METAR WAGB 151600Z 00000KT 5000 VCSH BKN011 25/24 Q1012 RERA=  
15-Jul-2023 SAID35 WAGB 151630 METAR WAGB 151630Z 00000KT 5000 VCSH BKN011 25/24 Q1012=  
15-Jul-2023 SAID35 WAGB 151700 METAR WAGB 151700Z 28003KT 5000 VCSH BKN011 24/23 Q1011=  
15-Jul-2023 SAID35 WAGB 151730 METAR WAGB 151730Z 00000KT 5000 VCSH BKN011 24/23 Q1011=  
15-Jul-2023 SAID35 WAGB 151800 METAR WAGB 151800Z 00000KT 5000 VCSH BKN010 24/24 Q1011=  
15-Jul-2023 SAID35 WAGB 151830 METAR WAGB 151830Z 00000KT 5000 VCSH BKN010 24/24 Q1011=  
15-Jul-2023 SAID35 WAGB 151900 METAR WAGB 151900Z 00000KT 5000 VCSH BKN010 24/23 Q1010=  
15-Jul-2023 SAID35 WAGB 151930 METAR WAGB 151930Z 00000KT 5000 VCSH BKN010 24/23 Q1010=  
15-Jul-2023 SAID35 WAGB 152000 METAR WAGB 152000Z 00000KT 5000 VCSH BKN010 24/23 Q1010=  
15-Jul-2023 SAID35 WAGB 152030 METAR WAGB 152030Z 00000KT 5000 VCSH BKN010 24/23 Q1010=  
15-Jul-2023 SAID35 WAGB 152100 METAR WAGB 152100Z 25003KT 5000 VCSH BKN009 24/23 Q1010=  
15-Jul-2023 SAID35 WAGB 152130 METAR WAGB 152130Z 00000KT 5000 VCSH BKN009 24/23 Q1010=  
15-Jul-2023 SAID35 WAGB 152200 METAR WAGB 152200Z 00000KT 5000 VCSH BKN009 24/23 Q1010=  
15-Jul-2023 SAID35 WAGB 152230 METAR WAGB 152230Z 00000KT 5000 VCSH BKN009 24/23 Q1010=  
15-Jul-2023 SAID35 WAGB 152300 METAR WAGB 152300Z 00000KT 5000 VCSH BKN009 24/23 Q1011=  
15-Jul-2023 SAID35 WAGB 152330 METAR WAGB 152330Z 00000KT 5000 VCSH BKN009 24/23 Q1011=  
16-Jul-2023 SAID35 WAGB 160000 METAR WAGB 160000Z 17003KT 6000 FEW006 SCT010 24/23 Q1011 NOSIG=  
16-Jul-2023 SAID35 WAGB 160030 METAR WAGB 160030Z VRB02KT 6000 VCSH FEW006 BKN010 25/24 Q1012 NOSIG=  
16-Jul-2023 SAID35 WAGB 160100 METAR WAGB 160100Z VRB02KT 6000 VCSH BKN008 25/24 Q1012 NOSIG=  
16-Jul-2023 SAID35 WAGB 160130 METAR WAGB 160130Z 19005KT 7000 VCSH BKN009 26/23 Q1012 NOSIG=  
16-Jul-2023 SAID35 WAGB 160200 METAR WAGB 160200Z 18005KT 7000 VCSH BKN009 26/23 Q1012 NOSIG=  
16-Jul-2023 SAID35 WAGB 160230 METAR WAGB 160230Z 21004KT 8000 VCSH OVC009 26/23 Q1012 NOSIG=  
16-Jul-2023 SAID35 WAGB 160300 METAR WAGB 160300Z 00000KT 8000 VCSH BKN010 27/24 Q1012 NOSIG=  
16-Jul-2023 SAID35 WAGB 160330 METAR WAGB 160330Z 21003KT 8000 BKN010 27/24 Q1011 NOSIG=  
16-Jul-2023 SAID35 WAGB 160400 METAR WAGB 160400Z 17004KT 8000 OVC010 27/24 Q1011 NOSIG=  
16-Jul-2023 SAID35 WAGB 160430 METAR WAGB 160430Z 17005KT 9000 BKN011 28/24 Q1011 NOSIG=  
16-Jul-2023 SAID35 WAGB 160500 METAR WAGB 160500Z 24005KT 9000 BKN011 28/24 Q1010 NOSIG=  
16-Jul-2023 SAID35 WAGB 160530 METAR WAGB 160530Z 21005KT 9000 SCT011 29/24 Q1009 NOSIG=  
16-Jul-2023 SAID35 WAGB 160600 METAR WAGB 160600Z 19002KT 99999 SCT012 29/23 Q1009 NOSIG=  
16-Jul-2023 SAID35 WAGB 160600 CCA METAR WAGB 160600Z 19002KT 9999 SCT012 29/23 Q1009 NOSIG=  
16-Jul-2023 SAID35 WAGB 160630 METAR WAGB 160630Z 22002KT 9999 VCSH SCT012 30/23 Q1008 NOSIG=  
16-Jul-2023 SAID35 WAGB 160700 METAR WAGB 160700Z 13004KT 9999 VCSH BKN012 31/24 Q1008 NOSIG=  
16-Jul-2023 SAID35 WAGB 160730 METAR WAGB 160730Z 16002KT 9999 SCT013 30/24 Q1007 NOSIG=  
16-Jul-2023 SAID35 WAGB 160800 METAR WAGB 160800Z 29002KT 9999 SCT013 31/23 Q1007 NOSIG=  
16-Jul-2023 SAID35 WAGB 160830 METAR WAGB 160830Z 34002KT 9000 FEW013TCU BKN014 29/26 Q1007=  
16-Jul-2023 SAID35 WAGB 160900 METAR WAGB 160900Z 00000KT 9999 FEW013CB BKN014 29/25 Q1008 NOSIG=  
16-Jul-2023 SAID35 WAGB 160930 METAR WAGB 160930Z 00000KT 9999 FEW013CB BKN014 29/25 Q1007 NOSIG=  
16-Jul-2023 SAID35 WAGB 161000 METAR WAGB 161000Z 00000KT 9999 FEW013CB SCT014 29/26 Q1008 NOSIG=  
16-Jul-2023 SAID35 WAGB 161030 METAR WAGB 161030Z 00000KT 9999 FEW013CB SCT014 29/25 Q1008 NOSIG=  
16-Jul-2023 SAID35 WAGB 161100 METAR WAGB 161100Z 00000KT 8000 FEW012CB BKN013 28/26 Q1008 NOSIG=  
16-Jul-2023 SAID35 WAGB 161130 METAR WAGB 161130Z 00000KT 8000 FEW012CB BKN013 28/25 Q1009 NOSIG=  
16-Jul-2023 SAID35 WAGB 161200 METAR WAGB 161200Z 00000KT 8000 FEW012CB BKN013 27/25 Q1009=  
16-Jul-2023 SAID35 WAGB 161230 METAR WAGB 161230Z 00000KT 8000 FEW012CB BKN013 27/25 Q1009=  
16-Jul-2023 SAID35 WAGB 161300 METAR WAGB 161300Z 00000KT 7000 FEW012CB BKN013 27/24 Q1010=  
16-Jul-2023 SAID35 WAGB 161330 METAR WAGB 161330Z 00000KT 7000 FEW012CB BKN013 27/25 Q1010=  
16-Jul-2023 SAID35 WAGB 161400 METAR WAGB 161400Z 00000KT 7000 FEW012CB BKN013 26/25 Q1011=  
16-Jul-2023 SAID35 WAGB 161430 METAR WAGB 161430Z 00000KT 7000 FEW012CB BKN013 26/25 Q1011=  
16-Jul-2023 SAID35 WAGB 161500 METAR WAGB 161500Z 00000KT 7000 FEW012CB BKN013 26/25 Q1011=  
16-Jul-2023 SAID35 WAGB 161530 METAR WAGB 161530Z 00000KT 7000 FEW012CB BKN013 26/25 Q1011=  
16-Jul-2023 SAID35 WAGB 161600 METAR WAGB 161600Z 00000KT 7000 BKN011 25/24 Q1011=  
16-Jul-2023 SAID35 WAGB 161630 METAR WAGB 161630Z 00000KT 7000 BKN011 25/24 Q1011=  
16-Jul-2023 SAID35 WAGB 161700 METAR WAGB 161700Z 00000KT 7000 BKN011 25/24 Q1010=  
16-Jul-2023 SAID35 WAGB 161730 METAR WAGB 161730Z 00000KT 7000 BKN011 25/24 Q1010=  
16-Jul-2023 SAID35 WAGB 161800 METAR WAGB 161800Z 00000KT 7000 BKN011 25/24 Q1010=  
16-Jul-2023 SAID35 WAGB 161830 METAR WAGB 161830Z 00000KT 7000 BKN011 25/24 Q1010=  
16-Jul-2023 SAID35 WAGB 161900 METAR WAGB 161900Z 00000KT 6000 BKN011 25/24 Q1010=  
16-Jul-2023 SAID35 WAGB 161930 METAR WAGB 161930Z 00000KT 6000 BKN011 25/24 Q1010=  
16-Jul-2023 SAID35 WAGB 162000 METAR WAGB 162000Z 00000KT 6000 BKN011 24/24 Q1010=  
16-Jul-2023 SAID35 WAGB 162030 METAR WAGB 162030Z 00000KT 6000 BKN011 24/24 Q1010=  
16-Jul-2023 SAID35 WAGB 162100 METAR WAGB 162100Z 00000KT 6000 BKN011 24/24 Q1010=  
16-Jul-2023 SAID35 WAGB 162130 METAR WAGB 162130Z 00000KT 6000 BKN011 24/24 Q1010=  
16-Jul-2023 SAID35 WAGB 162200 METAR WAGB 162200Z 00000KT 6000 BKN011 25/24 Q1011=  
16-Jul-2023 SAID35 WAGB 162230 METAR WAGB 162230Z 00000KT 6000 BKN011 25/24 Q1011=  
16-Jul-2023 SAID35 WAGB 162300 METAR WAGB 162300Z 00000KT 6000 BKN011 25/24 Q1011=  
16-Jul-2023 SAID35 WAGB 162330 METAR WAGB 162330Z 00000KT 6000 BKN011 25/24 Q1011=  
17-Jul-2023 SAID35 WAGB 170000 METAR WAGB 170000Z 27005KT 5000 HZ BKN010 25/23 Q1012 NOSIG=  
17-Jul-2023 SAID35 WAGB 170030 METAR WAGB 170030Z 3404KT 6000 BKN 25/24 Q10012 NOSIG=  
17-Jul-2023 SAID35 WAGB 170030 CCA METAR WAGB 170030Z 3404KT 6000 BKN010 25/24 Q10012 NOSIG=  
17-Jul-2023 SAID35 WAGB 170100 METAR WAGB 170100Z 32003KT 6000 BKN010 25/24 Q10012 NOSIG=  
17-Jul-2023 SAID35 WAGB 170100 CCA METAR WAGB 170100Z 32003KT 6000 BKN010 25/24 Q1012 NOSIG=  
17-Jul-2023 SAID35 WAGB 170130 METAR WAGB 170130Z 35004KT 7000 SCT010 26/24 Q10012 NOSIG=  
17-Jul-2023 SAID35 WAGB 170130 CCA METAR WAGB 170130Z 35004KT 7000 SCT010 26/24 Q1012 NOSIG=  
17-Jul-2023 SAID35 WAGB 170200 METAR WAGB 170200Z 36004KT 8000 BKN010 26/24 Q10012 NOSIG=  
17-Jul-2023 SAID35 WAGB 170200 CCA METAR WAGB 170200Z 36004KT 8000 BKN010 26/24 Q1012 NOSIG=  
17-Jul-2023 SAID35 WAGB 170230 METAR WAGB 170230Z 01005KT 8000 BKN011 27/24 Q10012 NOSIG=  
17-Jul-2023 SAID35 WAGB 170230 CCA METAR WAGB 170230Z 01005KT 8000 BKN011 27/24 Q1012 NOSIG=  
17-Jul-2023 SAID35 WAGB 170300 METAR WAGB 170300Z 02004KT 8000 BKN011 27/24 Q10011 NOSIG=  
17-Jul-2023 SAID35 WAGB 170300 CCA METAR WAGB 170300Z 02004KT 8000 BKN011 27/24 Q1011 NOSIG=  
17-Jul-2023 SAID35 WAGB 170330 METAR WAGB 170330Z 02003KT 8000 BKN012 27/24 Q10011 NOSIG=  
17-Jul-2023 SAID35 WAGB 170400 CCA METAR WAGB 170400Z 34003KT 9000 BKN012 28/24 Q1010 NOSIG=  
17-Jul-2023 SAID35 WAGB 170400 METAR WAGB 170400Z 34003KT 9000 BKN012 28/24 Q1011 NOSIG=  
17-Jul-2023 SAID35 WAGB 170430 METAR WAGB 170430Z 33002KT 9000 BKN012 29/24 Q1010 NOSIG=  
17-Jul-2023 SAID35 WAGB 170500 METAR WAGB 170500Z 06003KT 9000 BKN012 29/24 Q1009 NOSIG=  
17-Jul-2023 SAID35 WAGB 170530 METAR WAGB 170530Z 00000KT 9999 BKN012 30/24 Q1009 NOSIG=  
17-Jul-2023 SAID35 WAGB 170600 METAR WAGB 170600Z 19003KT 9999 BKN012 30/24 Q1008 NOSIG=  
17-Jul-2023 SAID35 WAGB 170630 METAR WAGB 170630Z 00000KT 9999 BKN012 31/24 Q1008 NOSIG=  
17-Jul-2023 SAID35 WAGB 170700 METAR WAGB 170700Z 35004KT 9999 BKN012 30/24 Q1007 NOSIG=  
17-Jul-2023 SAID35 WAGB 170730 METAR WAGB 170730Z 02003KT 9999 BKN012 31/24 Q1007 NOSIG=  
17-Jul-2023 SAID35 WAGB 170800 METAR WAGB 170800Z 00000KT 9999 FEW012TCU SCT013 32/23 Q1007 NOSIG=  
17-Jul-2023 SAID35 WAGB 170830 METAR WAGB 170830Z 00000KT 9999 FEW012TCU SCT013 32/23 Q1007 NOSIG=  
17-Jul-2023 SAID35 WAGB 170900 METAR WAGB 170900Z 05003KT 9999 FEW012CB SCT013 32/24 Q1007 NOSIG=  
17-Jul-2023 SAID35 WAGB 170930 METAR WAGB 170930Z 00000KT 9999 SCT013 31/25 Q1007 NOSIG=  
17-Jul-2023 SAID35 WAGB 171000 METAR WAGB 171000Z 00000KT 9999 FEW013 31/25 Q1008 NOSIG=  
17-Jul-2023 SAID35 WAGB 171030 METAR WAGB 171030Z 00000KT 9999 FEW013 30/25 Q1008 NOSIG=  
17-Jul-2023 SAID35 WAGB 171100 METAR WAGB 171100Z 00000KT 9000 FEW013 30/26 Q1008 NOSIG=  
17-Jul-2023 SAID35 WAGB 171130 METAR WAGB 171130Z 00000KT 9000 FEW013 29/26 Q1009 NOSIG=  
17-Jul-2023 SAID35 WAGB 171200 METAR WAGB 171200Z 00000KT 8000 SCT012 28/26 Q1009=  
17-Jul-2023 SAID35 WAGB 171230 METAR WAGB 171230Z 00000KT 8000 SCT012 28/26 Q10100000=  
17-Jul-2023 SAID35 WAGB 171230 CCA METAR WAGB 171230Z 00000KT 8000 SCT012 28/26 Q1010=  
17-Jul-2023 SAID35 WAGB 171300 METAR WAGB 171300Z 00000KT 8000 SCT012 28/25 Q1010=  
17-Jul-2023 SAID35 WAGB 171330 METAR WAGB 171330Z 00000KT 8000 SCT012 27/25 Q1010=  
17-Jul-2023 SAID35 WAGB 171400 METAR WAGB 171400Z 00000KT 8000 SCT012 27/25 Q1011=  
17-Jul-2023 SAID35 WAGB 171430 METAR WAGB 171430Z 00000KT 8000 SCT012 27/25 Q1011=  
17-Jul-2023 SAID35 WAGB 171500 METAR WAGB 171500Z 00000KT 7000 SCT012 26/25 Q1011=  
17-Jul-2023 SAID35 WAGB 171530 METAR WAGB 171530Z 00000KT 7000 SCT012 26/25 Q1011=  
17-Jul-2023 SAID35 WAGB 171600 METAR WAGB 171600Z 00000KT 7000 SCT012 25/24 Q1011=  
17-Jul-2023 SAID35 WAGB 171630 METAR WAGB 171630Z 00000KT 7000 SCT012 25/24 Q1011=  
17-Jul-2023 SAID35 WAGB 171700 METAR WAGB 171700Z 00000KT 7000 SCT012 25/24 Q1011=  
17-Jul-2023 SAID35 WAGB 171730 METAR WAGB 171730Z 00000KT 7000 SCT012 25/24 Q1011=  
17-Jul-2023 SAID35 WAGB 171800 METAR WAGB 171800Z 00000KT 6000 SCT012 24/24 Q1010=  
17-Jul-2023 SAID35 WAGB 171830 METAR WAGB 171830Z 00000KT 6000 SCT012 24/24 Q1010=  
17-Jul-2023 SAID35 WAGB 171900 METAR WAGB 171900Z 00000KT 6000 BKN012 24/23 Q1010=  
17-Jul-2023 SAID35 WAGB 171930 METAR WAGB 171930Z 00000KT 6000 BKN012 24/23 Q1010=  
17-Jul-2023 SAID35 WAGB 172000 METAR WAGB 172000Z 00000KT 6000 BKN011 24/23 Q1010=  
17-Jul-2023 SAID35 WAGB 172030 METAR WAGB 172030Z 00000KT 6000 BKN011 24/23 Q1010=  
17-Jul-2023 SAID35 WAGB 172100 METAR WAGB 172100Z 00000KT 3000 BR BKN009 23/23 Q1010=  
17-Jul-2023 SAID35 WAGB 172130 METAR WAGB 172130Z 00000KT 3000 BR BKN009 23/23 Q1010=  
17-Jul-2023 SAID35 WAGB 172130 CCA METAR WAGB 172130Z 00000KT 1500 BR BKN009 23/23 Q1010=  
17-Jul-2023 SPID33 WAGB 172140 SPECI WAGB 172140Z 00000KT 0800 FG VV009 23/23 Q1010=  
17-Jul-2023 SAID35 WAGB 172200 METAR WAGB 172200Z 00000KT 0800 FG VV008 23/23 Q1011=  
17-Jul-2023 SAID35 WAGB 172230 METAR WAGB 172230Z 00000KT 0500 FG VV008 23/23 Q1011=  
17-Jul-2023 SAID35 WAGB 172300 METAR WAGB 172300Z 00000KT 2000 BR BKN010 23/22 Q1011=  
17-Jul-2023 SAID35 WAGB 172330 METAR WAGB 172330Z 00000KT 5000 HZ BKN010 23/22 Q1011=  
18-Jul-2023 SAID35 WAGB 180000 METAR WAGB 180000Z 00000KT 5000 HZ FEW010 24/23 Q1011=  
18-Jul-2023 SAID35 WAGB 180000 CCA METAR WAGB 180000Z 00000KT 3000 SCT009 24/23 Q1011 NOSIG=  
18-Jul-2023 SAID35 WAGB 180030 METAR WAGB 180030Z 00000KT 4000 SCT009 25/23 Q1011 NOSIG=  
18-Jul-2023 SAID35 WAGB 180100 METAR WAGB 180100Z 00000KT 7000 SCT010 27/23 Q1011 NOSIG=  
18-Jul-2023 SAID35 WAGB 180130 METAR WAGB 180130Z 00000KT 9000 SCT010 27/22 Q1011 NOSIG=  
18-Jul-2023 SAID35 WAGB 180200 METAR WAGB 180200Z 00000KT 9999 SCT010 28/22 Q1011 NOSIG=  
18-Jul-2023 SAID35 WAGB 180230 METAR WAGB 180230Z 35003KT 9999 SCT011 29/23 Q1011 NOSIG=  
18-Jul-2023 SAID35 WAGB 180300 METAR WAGB 180300Z 23003KT 9999 SCT011 29/23 Q1011 NOSIG=  
18-Jul-2023 SAID35 WAGB 180330 METAR WAGB 180330Z 29003KT 9999 SCT011 29/22 Q1011 NOSIG=  
18-Jul-2023 SAID35 WAGB 180400 METAR WAGB 180400Z 00000KT 9999 SCT012 30/23 Q1011 NOSIG=  
18-Jul-2023 SAID35 WAGB 180430 METAR WAGB 180430Z 21003KT 9999 SCT012 30/22 Q1010 NOSIG=  
18-Jul-2023 SAID35 WAGB 180500 METAR WAGB 180500Z 22003KT 9999 SCT012 30/22 Q1009 NOSIG=  
18-Jul-2023 SAID35 WAGB 180530 METAR WAGB 180530Z 00000KT 9999 BKN012 30/22 Q1009 NOSIG=  
18-Jul-2023 SAID35 WAGB 180600 METAR WAGB 180600Z 00000KT 9999 BKN012 31/21 Q1008 NOSIG=  
18-Jul-2023 SAID35 WAGB 180630 METAR WAGB 180630Z 00000KT 9999 BKN012 31/21 Q1008 NOSIG=  
18-Jul-2023 SAID35 WAGB 180700 METAR WAGB 180700Z 06003KT 9999 BKN012 31/22 Q1007 NOSIG=  
18-Jul-2023 SAID35 WAGB 180730 METAR WAGB 180730Z 08003KT 9999 BKN012 31/22 Q1007 NOSIG=  
18-Jul-2023 SAID35 WAGB 180800 METAR WAGB 180800Z 11002KT 9999 FEW012TCU BKN013 31/22 Q1007 NOSIG=  
18-Jul-2023 SAID35 WAGB 180830 METAR WAGB 180830Z 07003KT 9999 FEW012TCU BKN013 31/22 Q1007 NOSIG=  
18-Jul-2023 SAID35 WAGB 180900 METAR WAGB 180900Z 07003KT 9999 FEW012TCU BKN013 31/22 Q1007 NOSIG=  
18-Jul-2023 SAID35 WAGB 180930 METAR WAGB 180930Z 0000KT 9999 FEW012 31/24 Q1008 NOSIG=  
18-Jul-2023 SAID35 WAGB 181000 METAR WAGB 181000Z 00000KT 9999 FEW012 30/24 Q1008 NOSIG=  
18-Jul-2023 SAID35 WAGB 181030 METAR WAGB 181030Z 00000KT 9999 FEW012 30/24 Q1008 NOSIG=  
18-Jul-2023 SAID35 WAGB 181100 METAR WAGB 181100Z 00000KT 8000 FEW012 28/25 Q1009 NOSIG=  
18-Jul-2023 SAID35 WAGB 181130 METAR WAGB 181130Z 00000KT 8000 FEW012 28/25 Q1009 NOSIG=  
18-Jul-2023 SAID35 WAGB 181200 METAR WAGB 181200Z 00000KT 8000 FEW012 BKN062 28/26 Q1009=  
18-Jul-2023 SAID35 WAGB 181230 METAR WAGB 181230Z 00000KT 8000 FEW012 27/26 Q1010=  
18-Jul-2023 SAID35 WAGB 181230 CCA METAR COR WAGB 181230Z 00000KT 8000 FEW012 27/25 Q1010=  
18-Jul-2023 SAID35 WAGB 181300 METAR WAGB 181300Z 00000KT 6000 FEW012 27/26 Q1010=  
18-Jul-2023 SAID35 WAGB 181330 METAR WAGB 181330Z 00000KT 6000 FEW012 27/26 Q1010=  
18-Jul-2023 SAID35 WAGB 181400 METAR WAGB 181400Z 00000KT 6000 FEW012 27/25 Q1010=  
18-Jul-2023 SAID35 WAGB 181430 METAR WAGB 181430Z 00000KT 6000 FEW012 27/25 Q1010=  
18-Jul-2023 SAID35 WAGB 181500 METAR WAGB 181500Z 00000KT 6000 FEW012 26/25 Q1010=  
18-Jul-2023 SAID35 WAGB 181530 METAR WAGB 181530Z 00000KT 6000 FEW012 26/25 Q1011=  
18-Jul-2023 SAID35 WAGB 181600 METAR WAGB 181600Z 00000KT 6000 FEW011 26/25 Q1011=  
18-Jul-2023 SAID35 WAGB 181600 CCA METAR COR WAGB 181600Z 00000KT 6000 SCT011 26/25 Q1011=  
18-Jul-2023 SAID35 WAGB 181630 METAR WAGB 181630Z 00000KT 6000 SCT011 26/25 Q1011=  
18-Jul-2023 SAID35 WAGB 181700 METAR WAGB 181700Z 00000KT 6000 SCT011 25/25 Q1010=  
18-Jul-2023 SAID35 WAGB 181730 METAR WAGB 181730Z 00000KT 6000 SCT011 25/25 Q1010=  
18-Jul-2023 SAID35 WAGB 181800 METAR WAGB 181800Z 00000KT 6000 SCT011 25/25 Q1010=  
18-Jul-2023 SAID35 WAGB 181830 METAR WAGB 181830Z 00000KT 6000 SCT011 25/25 Q1010=  
18-Jul-2023 SAID35 WAGB 181900 METAR WAGB 181900Z 00000KT 4000 BR SCT011 25/25 Q1010=  
18-Jul-2023 SAID35 WAGB 181930 METAR WAGB 181930Z 00000KT 4000 BR SCT011 25/25 Q1010=  
18-Jul-2023 SAID35 WAGB 182000 METAR WAGB 182000Z 00000KT 4000 BR SCT011 25/25 Q1010=  
18-Jul-2023 SAID35 WAGB 182030 METAR WAGB 182030Z 00000KT 4000 BR SCT011 25/25 Q1010=  
18-Jul-2023 SAID35 WAGB 182100 METAR WAGB 182100Z 00000KT 4000 BR SCT011 25/24 Q1009=  
18-Jul-2023 SAID35 WAGB 182130 METAR WAGB 182130Z 00000KT 4000 BR SCT011 25/24 Q1009=  
18-Jul-2023 SAID35 WAGB 182200 METAR WAGB 182200Z 00000KT 4000 BR SCT011 25/24 Q1009=  
18-Jul-2023 SAID35 WAGB 182230 METAR WAGB 182230Z 00000KT 4000 BR SCT011 25/24 Q1010=  
18-Jul-2023 SAID35 WAGB 182300 METAR WAGB 182300Z 00000KT 6000 FEW011 25/24 Q1010=  
18-Jul-2023 SAID35 WAGB 182330 METAR WAGB 182330Z 00000KT 6000 FEW011 25/24 Q1010=  
19-Jul-2023 SAID35 WAGB 190000 METAR WAGB 190000Z 00000KT 5000 HZ BKN014 25/24 Q1010 NOSIG=  
19-Jul-2023 SAID35 WAGB 190030 METAR WAGB 190030Z 00000KT 6000 SCT010 26/24 Q1010 NOSIG=  
19-Jul-2023 SAID35 WAGB 190100 METAR WAGB 190100Z 00000KT 8000 SCT010 27/25 Q1010 NOSIG=  
19-Jul-2023 SAID35 WAGB 190130 METAR WAGB 190130Z 00000KT 8000 SCT010 28/25 Q1010 NOSIG=  
19-Jul-2023 SAID35 WAGB 190200 METAR WAGB 190200Z 00000KT 8000 BKN010 28/25 Q1010 NOSIG=  
19-Jul-2023 SAID35 WAGB 190230 METAR WAGB 190230Z VRB02KT 8000 BKN010 30/25 Q1010 NOSIG=  
19-Jul-2023 SAID35 WAGB 190300 METAR WAGB 190300Z 00000KT 8000 BKN010 30/25 Q1010 NOSIG=  
19-Jul-2023 SAID35 WAGB 190330 METAR WAGB 190330Z 21004KT 9999 BKN011 30/25 Q1009 NOSIG=  
19-Jul-2023 SAID35 WAGB 190400 METAR WAGB 190400Z 00000KT 9999 BKN011 31/24 Q1009 NOSIG=  
19-Jul-2023 SAID35 WAGB 190430 METAR WAGB 190430Z VRB02KT 9999 BKN011 32/24 Q1009 NOSIG=  
19-Jul-2023 SAID35 WAGB 190500 METAR WAGB 190500Z 25004KT 9999 BKN011 30/24 Q1008 NOSIG=  
19-Jul-2023 SAID35 WAGB 190530 METAR WAGB 190530Z VRB02KT 9999 BKN012 32/24 Q1008 NOSIG=  
19-Jul-2023 SAID35 WAGB 190600 METAR WAGB 190600Z 14003KT 9999 BKN012 31/24 Q1007 NOSIG=  
19-Jul-2023 SAID35 WAGB 190630 METAR WAGB 190630Z VRB02KT 9999 BKN012 31/24 Q1007 NOSIG=  
19-Jul-2023 SAID35 WAGB 190700 METAR WAGB 190700Z 00000KT 9999 BKN012 32/24 Q1007 NOSIG=  
19-Jul-2023 SAID35 WAGB 190730 METAR WAGB 190730Z 00000KT 9999 FEW012TCU BKN013 32/24 Q1007 NOSIG=  
19-Jul-2023 SAID35 WAGB 190800 METAR WAGB 190800Z 15005KT 6000 -RA FEW012TCU BKN013 28/24 Q1007 NOSIG=  
19-Jul-2023 SAID35 WAGB 190830 METAR WAGB 190830Z 11003KT 8000 VCSH FEW012TCU BKN013 28/25 Q1006 RERA NOSIG=  
19-Jul-2023 SAID35 WAGB 190830 CCA METAR WAGB 190830Z 11003KT 8000 FEW012TCU BKN013 28/25 Q1006 RERA NOSIG=  
19-Jul-2023 SAID35 WAGB 190900 METAR WAGB 190900Z 00000KT 8000 FEW012TCU BKN013 28/26 Q1006 NOSIG=  
19-Jul-2023 SAID35 WAGB 191000 METAR WAGB 191000Z 00000KT 9999 FEW013CB FEW014 31/26 Q1007 NOSIG=  
19-Jul-2023 SAID35 WAGB 191030 METAR WAGB 191030Z 00000KT 9999 FEW013CB FEW014 30/25 Q1007 NOSIG=  
19-Jul-2023 SAID35 WAGB 191100 METAR WAGB 191100Z 00000KT 9000 FEW013CB FEW014 29/25 Q1008 NOSIG=  
19-Jul-2023 SAID35 WAGB 191130 METAR WAGB 191130Z 00000KT 9000 FEW013CB FEW014 29/25 Q1008 NOSIG=  
19-Jul-2023 SAID35 WAGB 191200 METAR WAGB 191200Z 00000KT 9000 FEW014CB 28/26 Q1008 NOSIG=  
19-Jul-2023 SAID35 WAGB 191230 METAR WAGB 191230Z 00000KT 9000 FEW014CB 28/26 Q1008 NOSIG=  
19-Jul-2023 SAID35 WAGB 191300 METAR WAGB 191300Z 00000KT 8000 VCTS FEW014CB 27/26 Q1008=  
19-Jul-2023 SAID35 WAGB 191330 METAR WAGB 191330Z 00000KT 8000 VCTS FEW014CB 27/26 Q1008=  
19-Jul-2023 SAID35 WAGB 191400 METAR WAGB 191400Z 00000KT 7000 VCTS FEW014CB FEW015 27/26 Q1009=  
19-Jul-2023 SAID35 WAGB 191400 CCA METAR WAGB 191400Z 00000KT 7000 VCTS FEW014CB 27/26 Q1009=  
19-Jul-2023 SAID35 WAGB 191430 METAR WAGB 191430Z 00000KT 7000 VCTS FEW014CB 27/26 Q1009=  
19-Jul-2023 SAID35 WAGB 191500 METAR WAGB 191500Z 00000KT 7000 VCTS FEW014CB 27/26 Q1009=  
19-Jul-2023 SAID35 WAGB 191530 METAR WAGB 191530Z 00000KT 7000 VCTS FEW014CB 27/26 Q1009=  
19-Jul-2023 SAID35 WAGB 191600 METAR WAGB 191600Z 00000KT 6000 VCTS FEW013CB SCT014 26/25 Q1009=  
19-Jul-2023 SAID35 WAGB 191630 METAR WAGB 191630Z 00000KT 6000 VCTS FEW013CB SCT014 26/25 Q1009=  
19-Jul-2023 SAID35 WAGB 191700 METAR WAGB 191700Z 00000KT 6000 VCTS FEW013CB SCT014 26/25 Q1009=  
19-Jul-2023 SAID35 WAGB 191730 METAR WAGB 191730Z 00000KT 6000 VCTS FEW013CB SCT014 26/25 Q1009=  
19-Jul-2023 SAID35 WAGB 191800 METAR WAGB 191800Z 00000KT 5000 VCTS FEW013CB SCT014 26/25 Q1009=  
19-Jul-2023 SAID35 WAGB 191830 METAR WAGB 191830Z 00000KT 5000 VCTS FEW013CB SCT014 26/25 Q1009=  
19-Jul-2023 SAID35 WAGB 191900 METAR WAGB 191900Z 00000KT 5000 VCTS FEW013CB SCT014 26/25 Q1008=  
19-Jul-2023 SAID35 WAGB 191930 METAR WAGB 191930Z 00000KT 5000 VCTS FEW013CB SCT014 26/25 Q1008=  
19-Jul-2023 SAID35 WAGB 192000 METAR WAGB 192000Z 00000KT 5000 VCTS FEW013 SCT014 26/25 Q1008=  
19-Jul-2023 SAID35 WAGB 192000 CCA METAR WAGB 192000Z 00000KT 5000 VCTS FEW013CB SCT014 26/25 Q1008=  
19-Jul-2023 SAID35 WAGB 192030 METAR WAGB 192030Z 00000KT 5000 VCTS FEW013 SCT014 26/25 Q1008=  
19-Jul-2023 SAID35 WAGB 192030 CCA METAR WAGB 192030Z 00000KT 5000 VCTS FEW013CB SCT014 26/25 Q1008=  
19-Jul-2023 SAID35 WAGB 192100 METAR WAGB 192100Z 00000KT 5000 VCTS FEW013 BKN014 26/25 Q1008=  
19-Jul-2023 SAID35 WAGB 192100 CCA METAR WAGB 192100Z 00000KT 5000 VCTS FEW013CB BKN014 26/25 Q1008=  
19-Jul-2023 SAID35 WAGB 192130 METAR WAGB 192130Z 00000KT 5000 VCTS FEW013 BKN014 26/25 Q1008=  
19-Jul-2023 SAID35 WAGB 192130 CCA METAR WAGB 192130Z 00000KT 5000 VCTS FEW013CB BKN014 26/25 Q1008=  
19-Jul-2023 SAID35 WAGB 192200 METAR WAGB 192200Z 04006KT 4000 -RA FEW013 BKN014 25/24 Q1009=  
19-Jul-2023 SAID35 WAGB 192200 CCA METAR WAGB 192200Z 04006KT 4000 -RA FEW013CB BKN014 25/24 Q1009=  
19-Jul-2023 SAID35 WAGB 192230 METAR WAGB 192230Z 06005KT 4000 -RA FEW013CB BKN014 25/24 Q1009=  
19-Jul-2023 SAID35 WAGB 192300 METAR WAGB 192300Z 00000KT 4000 -RA BKN010 25/24 Q1010=  
19-Jul-2023 SAID35 WAGB 192330 METAR WAGB 192330Z 00000KT 4000 -RA BKN010 25/24 Q1010=  
20-Jul-2023 SAID35 WAGB 200000 METAR WAGB 200000Z 33003KT 5000 -RA BKN010 24/24 Q1010 NOSIG=  
20-Jul-2023 SAID35 WAGB 200030 METAR WAGB 200030Z 35005KT 6000 -RA BKN010 25/24 Q1010 BECMG AT 0100 NSW=  
20-Jul-2023 SAID35 WAGB 200100 METAR WAGB 200100Z 31003KT 8000 BKN010 25/24 Q1010 NOSIG=  
20-Jul-2023 SAID35 WAGB 200130 METAR WAGB 200130Z 01003KT 8000 BKN010 26/24 Q1011 NOSIG=  
20-Jul-2023 SAID35 WAGB 200200 METAR WAGB 200200Z 31005KT 8000 BKN010 27/24 Q1011 NOSIG=  
20-Jul-2023 SAID35 WAGB 200230 METAR WAGB 200230Z 34003KT 8000 BKN010 27/24 Q1011 NOSIG=  
20-Jul-2023 SAID35 WAGB 200300 METAR WAGB 200300Z 34003KT 8000 BKN010 28/24 Q1011 NOSIG=  
20-Jul-2023 SAID35 WAGB 200330 METAR WAGB 200330Z 30008KT 7000 VCSH BKN010 27/24 Q1011 NOSIG=  
20-Jul-2023 SAID35 WAGB 200400 METAR WAGB 200400Z 27007KT 7000 VCSH BKN010 27/24 Q1010 NOSIG=  
20-Jul-2023 SAID35 WAGB 200430 METAR WAGB 200430Z 26008KT 7000 VCSH BKN010 27/24 Q1010 NOSIG=  
20-Jul-2023 SAID35 WAGB 200500 METAR WAGB 200500Z 28007KT 8000 VCSH BKN011 28/24 Q1010 NOSIG=  
20-Jul-2023 SAID35 WAGB 200530 METAR WAGB 200530Z 32007KT 9000 SCT011 29/23 Q1009 NOSIG=  
20-Jul-2023 SAID35 WAGB 200600 METAR WAGB 200600Z 31007KT 9999 SCT012 29/23 Q1008 NOSIG=  
20-Jul-2023 SAID35 WAGB 200630 METAR WAGB 200630Z 31006KT 9999 SCT012 29/23 Q1008 NOSIG=  
20-Jul-2023 SAID35 WAGB 200700 METAR WAGB 200700Z 24006KT 9999 FEW013 30/24 Q1008 NOSIG=  
20-Jul-2023 SAID35 WAGB 200730 METAR WAGB 200730Z 00000KT 9999 FEW013 30/24 Q1007 NOSIG=  
20-Jul-2023 SAID35 WAGB 200800 METAR WAGB 200800Z 24005KT 9999 FEW014 BKN062 31/24 Q1007 NOSIG=  
20-Jul-2023 SAID35 WAGB 200830 METAR WAGB 200830Z 00000KT 9999 FEW013 BKN062 31/24 Q1007 NOSIG=  
20-Jul-2023 SAID35 WAGB 200900 METAR WAGB 200900Z 22005KT 9999 FEW013 BKN062 31/24 Q1007 NOSIG=  
20-Jul-2023 SAID35 WAGB 200930 METAR WAGB 200930Z 00000KT 9999 FEW013 BKN062 30/25 Q1008 NOSIG=  
20-Jul-2023 SAID35 WAGB 201000 METAR WAGB 201000Z 20003KT 9999 FEW012TCU FEW013 29/25 Q1008 NOSIG=  
20-Jul-2023 SAID35 WAGB 201030 METAR WAGB 201030Z 00000KT 9999 FEW012TCU FEW013 29/25 Q1009 NOSIG=  
20-Jul-2023 SAID35 WAGB 201100 METAR WAGB 201100Z 00000KT 9000 FEW012CB FEW013 27/25 Q1008 NOSIG=  
20-Jul-2023 SAID35 WAGB 201200 METAR WAGB 201200Z 00000KT 7000 FEW012CB SCT013 26/25 Q1009=  
20-Jul-2023 SAID35 WAGB 201230 METAR WAGB 201230Z 00000KT 7000 FEW012CB SCT013 26/25 Q1010=  
20-Jul-2023 SAID35 WAGB 201300 METAR WAGB 201300Z 00000KT 7000 FEW012CB SCT013 26/25 Q1010=  
20-Jul-2023 SAID35 WAGB 201330 METAR WAGB 201330Z 00000KT 7000 FEW012CB SCT013 26/25 Q1011=  
20-Jul-2023 SAID35 WAGB 201400 METAR WAGB 201400Z 00000KT 7000 SCT012 26/25 Q1011=  
20-Jul-2023 SAID35 WAGB 201430 METAR WAGB 201430Z 00000KT 7000 SCT012 26/25 Q1011=  
20-Jul-2023 SAID35 WAGB 201500 METAR WAGB 201500Z 00000KT 7000 BKN012 26/25 Q1011=  
20-Jul-2023 SAID35 WAGB 201530 METAR WAGB 201530Z 00000KT 7000 BKN012 26/25 Q1011=  
20-Jul-2023 SAID35 WAGB 201600 METAR WAGB 201600Z 00000KT 5000 BR BKN011 26/25 Q1012=  
20-Jul-2023 SAID35 WAGB 201630 METAR WAGB 201630Z 00000KT 5000 BR BKN011 26/25 Q1012=  
20-Jul-2023 SAID35 WAGB 201700 METAR WAGB 201700Z 00000KT 4000 BR BKN011 25/24 Q1006=  
20-Jul-2023 SAID35 WAGB 201730 METAR WAGB 201730Z 00000KT 4000 BR BKN011 25/24 Q1006=  
20-Jul-2023 SAID35 WAGB 201800 METAR WAGB 201800Z 00000KT 4000 BR BKN011 25/25 Q1011=  
20-Jul-2023 SAID35 WAGB 201830 METAR WAGB 201830Z 00000KT 4000 BR BKN011 25/25 Q1011=  
20-Jul-2023 SAID35 WAGB 201900 METAR WAGB 201900Z 00000KT 4000 BR BKN010 25/24 Q1011=  
20-Jul-2023 SAID35 WAGB 201930 METAR WAGB 201930Z 00000KT 4000 BR BKN010 25/24 Q1011=  
20-Jul-2023 SAID35 WAGB 202000 METAR WAGB 202000Z 00000KT 4000 BR BKN010 25/24 Q1011=  
20-Jul-2023 SAID35 WAGB 202030 METAR WAGB 202030Z 00000KT 4000 BR BKN010 25/24 Q1011=  
20-Jul-2023 SAID35 WAGB 202100 METAR WAGB 202100Z 00000KT 4000 BR SCT010 25/24 Q1011=  
20-Jul-2023 SAID35 WAGB 202130 METAR WAGB 202130Z 00000KT 4000 BR SCT010 25/24 Q1011=  
20-Jul-2023 SAID35 WAGB 202200 METAR WAGB 202200Z 00000KT 4000 BR SCT010 25/24 Q1011=  
20-Jul-2023 SAID35 WAGB 202230 METAR WAGB 202230Z 00000KT 5000 SCT010 25/24 Q1011=  
20-Jul-2023 SAID35 WAGB 202300 METAR WAGB 202300Z 00000KT 5000 VCSH SCT010 24/24 Q1012=  
20-Jul-2023 SAID35 WAGB 202330 METAR WAGB 202330Z 00000KT 5000 VCSH SCT010 24/24 Q1012=  
21-Jul-2023 SAID35 WAGB 210000 METAR WAGB 210000Z 00000KT 6000 FEW005 SCT010 25/23 Q1012 NOSIG=  
21-Jul-2023 SAID35 WAGB 210030 METAR WAGB 210030Z VRB02KT 6000 FEW005 SCT010 25/23 Q1012 NOSIG=  
21-Jul-2023 SAID35 WAGB 210100 METAR WAGB 210100Z VRB02KT 7000 SCT010 26/24 Q1012 NOSIG=  
21-Jul-2023 SAID35 WAGB 210130 METAR WAGB 210130Z 00000KT 8000 SCT010 27/23 Q1013 NOSIG=  
21-Jul-2023 SAID35 WAGB 210200 METAR WAGB 210200Z 00000KT 8000 FEW010 28/23 Q1013 NOSIG=  
21-Jul-2023 SAID35 WAGB 210230 METAR WAGB 210230Z 28007KT 9000 FEW010 29/24 Q1013 NOSIG=  
21-Jul-2023 SAID35 WAGB 210300 METAR WAGB 210300Z 24005KT 9000 SCT010 29/24 Q1012 NOSIG=  
21-Jul-2023 SAID35 WAGB 210330 METAR WAGB 210330Z VRB02KT 9000 SCT010 29/24 Q1012 NOSIG=  
21-Jul-2023 SAID35 WAGB 210400 METAR WAGB 210400Z 30005KT 9999 BKN011 30/24 Q1012 NOSIG=  
21-Jul-2023 SAID35 WAGB 210430 METAR WAGB 210430Z 20003KT 9999 SCT012 31/24 Q1011 NOSIG=  
21-Jul-2023 SAID35 WAGB 210500 METAR WAGB 210500Z 25005KT 9999 BKN012 30/23 Q1011 NOSIG=  
21-Jul-2023 SAID35 WAGB 210530 METAR WAGB 210530Z 24005KT 9999 SCT012 31/23 Q1010 NOSIG=  
21-Jul-2023 SAID35 WAGB 210600 METAR WAGB 210600Z 28003KT 9999 VCSH BKN013 30/23 Q1010 NOSIG=  
21-Jul-2023 SAID35 WAGB 210630 METAR WAGB 210630Z 33015KT 8000 VCSH BKN013 36/23 Q1010 NOSIG=  
21-Jul-2023 SAID35 WAGB 210630 CCA METAR WAGB 210630Z 33015KT 8000 VCSH BKN013 26/23 Q1010 NOSIG=  
21-Jul-2023 SAID35 WAGB 210700 METAR WAGB 210700Z 32006KT 8000 RA BKN012 24/23 Q1010 NOSIG=  
21-Jul-2023 SAID35 WAGB 210730 METAR WAGB 210730Z 31006KT 8000 VCSH BKN012 25/23 Q1010 NOSIG=  
21-Jul-2023 SAID35 WAGB 210800 METAR WAGB 210800Z 29005KT 9000 SCT013 27/24 Q1010 RERA NOSIG=  
21-Jul-2023 SAID35 WAGB 210830 METAR WAGB 210830Z 32006KT 9999 SCT013 27/24 Q1009 NOSIG=  
21-Jul-2023 SAID35 WAGB 210900 METAR WAGB 210900Z 33005KT 9999 SCT013 27/23 Q1009 NOSIG=  
21-Jul-2023 SAID35 WAGB 210930 METAR WAGB 210930Z 30003KT 9999 SCT013 27/24 Q1010 NOSIG=  
21-Jul-2023 SAID35 WAGB 210930 CCA METAR WAGB 210930Z 00000KT 9999 SCT013 27/24 Q1010 NOSIG=  
21-Jul-2023 SAID35 WAGB 211000 METAR WAGB 211000Z 00000KT 9999 SCT013 26/24 Q1010 NOSIG=  
21-Jul-2023 SAID35 WAGB 211030 METAR WAGB 211030Z 00000KT 9999 SCT013 26/24 Q1010 NOSIG=  
21-Jul-2023 SAID35 WAGB 211100 METAR WAGB 211100Z 00000KT 9000 SCT013 25/24 Q1011 NOSIG=  
21-Jul-2023 SAID35 WAGB 211130 METAR WAGB 211130Z 00000KT 9000 SCT013 25/24 Q1012 NOSIG=  
21-Jul-2023 SAID35 WAGB 211200 METAR WAGB 211200Z 00000KT 9000 BKN013 25/24 Q1012 NOSIG=  
21-Jul-2023 SAID35 WAGB 211230 METAR WAGB 211230Z 00000KT 9000 BKN013 25/24 Q1012 NOSIG=  
21-Jul-2023 SAID35 WAGB 211300 METAR WAGB 211300Z 00000KT 8000 BKN013 25/24 Q1013 NOSIG=  
21-Jul-2023 SAID35 WAGB 211330 METAR WAGB 211330Z 00000KT 8000 BKN013 25/24 Q1013 NOSIG=  
21-Jul-2023 SAID35 WAGB 211400 METAR WAGB 211400Z 00000KT 8000 BKN012 25/24 Q1013 NOSIG=  
21-Jul-2023 SAID35 WAGB 211430 METAR WAGB 211430Z 00000KT 8000 BKN012 25/24 Q1014 NOSIG=  
21-Jul-2023 SPID33 WAGB 211440 SPECI WAGB 211440Z 18002KT 5000 -RA BKN012 25/24 Q1014=  
21-Jul-2023 SAID35 WAGB 211500 METAR WAGB 211500Z 20003KT 5000 -RA BKN012 25/24 Q1014=  
21-Jul-2023 SAID35 WAGB 211530 METAR WAGB 211530Z 20002KT 5000 RA BKN012 25/24 Q1014=  
21-Jul-2023 SAID35 WAGB 211600 METAR WAGB 211600Z 00000KT 4000 RA BKN012 24/23 Q1014=  
21-Jul-2023 SAID35 WAGB 211630 METAR WAGB 211630Z 00000KT 4000 -RA BKN012 24/23 Q1014=  
21-Jul-2023 SAID35 WAGB 211700 METAR WAGB 211700Z 00000KT 4000 VCSH BKN011 24/23 Q1013=  
21-Jul-2023 SPID33 WAGB 211720 SPECI WAGB 211720Z 00000KT 4000 BKN011 24/23 Q1013 RERA=  
21-Jul-2023 SAID35 WAGB 211730 METAR WAGB 211730Z 00000KT 4000 BKN011 24/23 Q1013 RERA NOSIG=  
21-Jul-2023 SAID35 WAGB 211800 METAR WAGB 211800Z 00000KT 4000 BKN010 24/23 Q1013 NOSIG=  
21-Jul-2023 SAID35 WAGB 211800 CCA METAR WAGB 211800Z 00000KT 4000 BR BKN010 24/23 Q1013 NOSIG=  
21-Jul-2023 SAID35 WAGB 211830 METAR WAGB 211830Z 00000KT 4000 BR BKN010 24/23 Q1013 NOSIG=  
21-Jul-2023 SAID35 WAGB 211900 METAR WAGB 211900Z 06003KT 4000 BR BKN010 24/23 Q1012 NOSIG=  
21-Jul-2023 SAID35 WAGB 211930 METAR WAGB 211930Z 00000KT 4000 BR BKN010 24/23 Q1012 NOSIG=  
21-Jul-2023 SAID35 WAGB 212000 METAR WAGB 212000Z 00000KT 4000 VCSH BKN010 24/23 Q1012 NOSIG=  
21-Jul-2023 SAID35 WAGB 212030 METAR WAGB 212030Z 00000KT 4000 VCSH BKN010 24/23 Q1012 NOSIG=  
21-Jul-2023 SAID35 WAGB 212100 METAR WAGB 212100Z 00000KT 4000 VCSH BKN010 24/24 Q1012 NOSIG=  
21-Jul-2023 SAID35 WAGB 212130 METAR WAGB 212130Z 00000KT 4000 VCSH BKN010 24/24 Q1012 NOSIG=  
21-Jul-2023 SAID35 WAGB 212200 METAR WAGB 212200Z 00000KT 4000 VCSH BKN010 24/23 Q1012 NOSIG=  
21-Jul-2023 SAID35 WAGB 212230 METAR WAGB 212230Z 00000KT 4000 VCSH BKN010 24/23 Q1012 NOSIG=  
21-Jul-2023 SAID35 WAGB 212300 METAR WAGB 212300Z 00000KT 5000 HZ SCT010 24/23 Q1012 NOSIG=  
21-Jul-2023 SAID35 WAGB 212330 METAR WAGB 212330Z 00000KT 5000 HZ SCT010 24/23 Q1012 NOSIG=  
22-Jul-2023 SAID35 WAGB 220000 METAR WAGB 220000Z 00000KT 7000 BKN007 25/23 Q1013 NOSIG=  
22-Jul-2023 SAID35 WAGB 220030 METAR WAGB 220030Z 00000KT 8000 BKN007 26/24 Q1013 NOSIG=  
22-Jul-2023 SAID35 WAGB 220100 METAR WAGB 220100Z 00000KT 8000 BKN007 26/24 Q1013 NOSIG=  
22-Jul-2023 SAID35 WAGB 220130 METAR WAGB 220130Z 02003KT 9000 BKN008 27/24 Q1013 NOSIG=  
22-Jul-2023 SAID35 WAGB 220200 METAR WAGB 220200Z 00000KT 9000 BKN008 27/24 Q1013 NOSIG=  
22-Jul-2023 SAID35 WAGB 220230 METAR WAGB 220230Z 00000KT 9000 BKN008 29/24 Q1013 NOSIG=  
22-Jul-2023 SAID35 WAGB 220300 METAR WAGB 220300Z 00000KT 9000 BKN008 29/23 Q1012 NOSIG=  
22-Jul-2023 SAID35 WAGB 220330 METAR WAGB 220330Z 00000KT 9999 BKN008 29/24 Q1012 NOSIG=  
22-Jul-2023 SAID35 WAGB 220400 METAR WAGB 220400Z 00000KT 9999 BKN008 29/23 Q1012 NOSIG=  
22-Jul-2023 SAID35 WAGB 220430 METAR WAGB 220430Z 08003KT 9999 BKN009 31/24 Q1011 NOSIG=  
22-Jul-2023 SAID35 WAGB 220500 METAR WAGB 220500Z 24004KT 9999 BKN010 30/23 Q1011 NOSIG=  
22-Jul-2023 SAID35 WAGB 220530 METAR WAGB 220530Z 31003KT 9999 BKN010 31/24 Q1011 NOSIG=  
22-Jul-2023 SAID35 WAGB 220600 METAR WAGB 220600Z 00000KT 9999 BKN011 31/23 Q1010 NOSIG=  
22-Jul-2023 SAID35 WAGB 220630 METAR WAGB 220630Z 00000KT 9999 BKN011 31/23 Q1010 NOSIG=  
22-Jul-2023 SAID35 WAGB 220700 METAR WAGB 220700Z 03003KT 9999 BKN012 30/24 Q1010 NOSIG=  
22-Jul-2023 SAID35 WAGB 220730 METAR WAGB 220730Z 01003KT 9999 BKN012 31/24 Q1009 NOSIG=  
22-Jul-2023 SAID35 WAGB 220800 METAR WAGB 220800Z 00000KT 9999 SCT013 31/24 Q1009 NOSIG=  
22-Jul-2023 SAID35 WAGB 220830 METAR WAGB 220830Z 00000KT 9999 SCT013 31/24 Q1009 NOSIG=  
22-Jul-2023 SAID35 WAGB 220900 METAR WAGB 220900Z 00000KT 9999 SCT013 30/24 Q1010 NOSIG=  
22-Jul-2023 SAID35 WAGB 220930 METAR WAGB 220930Z 00000KT 9999 FEW013CB FEW014 31/25 Q1010 NOSIG=  
22-Jul-2023 SAID35 WAGB 221000 METAR WAGB 221000Z 23002KT 9999 FEW013CB FEW014 30/26 Q1010 NOSIG=  
22-Jul-2023 SAID35 WAGB 221030 METAR WAGB 221030Z 00000KT 9999 FEW013CB FEW014 30/25 Q1011 NOSIG=  
22-Jul-2023 SAID35 WAGB 221100 METAR WAGB 221100Z 00000KT 9999 FEW013CB FEW014 29/26 Q1010 NOSIG=  
22-Jul-2023 SAID35 WAGB 221130 METAR WAGB 221130Z 00000KT 9999 FEW012CB FEW013 29/25 Q1011 NOSIG=  
22-Jul-2023 SAID35 WAGB 221200 METAR WAGB 221200Z 00000KT 9000 FEW012CB FEW013 28/26 Q1011=  
22-Jul-2023 SAID35 WAGB 221230 METAR WAGB 221230Z 00000KT 9000 FEW012CB FEW013 28/26 Q1012=  
22-Jul-2023 SAID35 WAGB 221300 METAR WAGB 221300Z 00000KT 8000 FEW012CB FEW013 27/25 Q1012=  
22-Jul-2023 SAID35 WAGB 221330 METAR WAGB 221330Z 00000KT 8000 FEW012CB FEW013 27/25 Q1012=  
22-Jul-2023 SAID35 WAGB 221400 METAR WAGB 221400Z 00000KT 8000 SCT012 27/25 Q1012=  
22-Jul-2023 SAID35 WAGB 221430 METAR WAGB 221430Z 00000KT 8000 SCT012 27/25 Q1012=  
22-Jul-2023 SAID35 WAGB 221500 METAR WAGB 221500Z 00000KT 7000 SCT012 26/25 Q1012=  
22-Jul-2023 SAID35 WAGB 221530 METAR WAGB 221530Z 00000KT 7000 SCT012 26/25 Q1012=  
22-Jul-2023 SAID35 WAGB 221600 METAR WAGB 221600Z 00000KT 7000 SCT012 26/25 Q1013=  
22-Jul-2023 SAID35 WAGB 221630 METAR WAGB 221630Z 00000KT 7000 SCT012 26/25 Q1013=  
22-Jul-2023 SAID35 WAGB 221700 METAR WAGB 221700Z 00000KT 6000 SCT012 25/24 Q1012=  
22-Jul-2023 SAID35 WAGB 221730 METAR WAGB 221730Z 00000KT 6000 SCT012 25/24 Q1012=  
22-Jul-2023 SAID35 WAGB 221800 METAR WAGB 221800Z 00000KT 5000 HZ SCT012 25/24 Q1012=  
22-Jul-2023 SAID35 WAGB 221830 METAR WAGB 221830Z 00000KT 5000 HZ SCT012 25/24 Q1012=  
22-Jul-2023 SAID35 WAGB 221900 METAR WAGB 221900Z 00000KT 5000 HZ SCT011 25/24 Q1012=  
22-Jul-2023 SAID35 WAGB 221930 METAR WAGB 221930Z 00000KT 5000 HZ SCT011 25/24 Q1012=  
22-Jul-2023 SAID35 WAGB 222000 METAR WAGB 222000Z 00000KT 5000 HZ BKN011 24/24 Q1012=  
22-Jul-2023 SAID35 WAGB 222030 METAR WAGB 222030Z 00000KT 5000 HZ BKN011 24/24 Q1012=  
22-Jul-2023 SAID35 WAGB 222100 METAR WAGB 222100Z 00000KT 5000 HZ BKN011 24/23 Q1012=  
22-Jul-2023 SAID35 WAGB 222130 METAR WAGB 222130Z 00000KT 5000 HZ BKN011 24/23 Q1012=  
22-Jul-2023 SAID35 WAGB 222200 METAR WAGB 222200Z 00000KT 4000 BR BKN010 24/24 Q1012=  
22-Jul-2023 SAID35 WAGB 222230 METAR WAGB 222230Z 00000KT 4000 BR BKN010 24/24 Q1013=  
22-Jul-2023 SAID35 WAGB 222300 METAR WAGB 222300Z 00000KT 4000 BR SCT010 24/24 Q1013=  
22-Jul-2023 SAID35 WAGB 222330 METAR WAGB 222330Z 00000KT 4000 BR SCT010 24/24 Q1013=  
23-Jul-2023 SAID35 WAGB 230000 METAR WAGB 230000Z 00000KT 7000 SCT010 25/24 Q1013 NOSIG=  
23-Jul-2023 SAID35 WAGB 230030 METAR WAGB 230030Z 00000KT 7000 SCT010 26/24 Q1013 NOSIG=  
23-Jul-2023 SAID35 WAGB 230100 METAR WAGB 230100Z 29003KT 9000 SCT011 27/25 Q1013 NOSIG=  
23-Jul-2023 SAID35 WAGB 230130 METAR WAGB 230130Z 24003KT 9000 SCT011 28/25 Q1013 NOSIG=  
23-Jul-2023 SAID35 WAGB 230200 METAR WAGB 230200Z 00000KT 9000 BKN012 29/25 Q1013 NOSIG=  
23-Jul-2023 SAID35 WAGB 230230 METAR WAGB 230230Z 00000KT 9000 BKN012 30/25 Q1013 NOSIG=  
23-Jul-2023 SAID35 WAGB 230230 CCA METAR COR WAGB 230230Z 00000KT 9000 BKN012 30/25 Q1013 NOSIG=  
23-Jul-2023 SAID35 WAGB 230300 METAR WAGB 230300Z 00000KT 9000 BKN012 30/25 Q1012 NOSIG=  
23-Jul-2023 SAID35 WAGB 230330 METAR WAGB 230330Z 00000KT 9000 BKN012 31/24 Q1012 NOSIG=  
23-Jul-2023 SAID35 WAGB 230400 METAR WAGB 230400Z 21003KT 9000 BKN012 31/24 Q1011 NOSIG=  
23-Jul-2023 SAID35 WAGB 230430 METAR WAGB 230430Z 24004KT 9000 BKN012 31/24 Q1011 NOSIG=  
23-Jul-2023 SAID35 WAGB 230500 METAR WAGB 230500Z 15002KT 9999 BKN012 32/23 Q1010 NOSIG=  
23-Jul-2023 SAID35 WAGB 230530 METAR WAGB 230530Z 19004KT 9999 BKN013 32/24 Q1010 NOSIG=  
23-Jul-2023 SAID35 WAGB 230600 METAR WAGB 230600Z 18002KT 9999 BKN013 33/24 Q1009 NOSIG=  
23-Jul-2023 SAID35 WAGB 230630 METAR WAGB 230630Z 22004KT 9999 SCT013 32/22 Q1009 NOSIG=  
23-Jul-2023 SAID35 WAGB 230700 METAR WAGB 230700Z 23004KT 9999 SCT014 32/22 Q1008 NOSIG=  
23-Jul-2023 SAID35 WAGB 230730 METAR WAGB 230730Z 26003KT 9999 SCT014 33/22 Q1008 NOSIG=  
23-Jul-2023 SAID35 WAGB 230800 METAR WAGB 230800Z 23003KT 9999 FEW014TCU SCT015 33/26 Q1008 NOSIG=  
23-Jul-2023 SAID35 WAGB 230830 METAR WAGB 230830Z 00000KT 9999 FEW014TCU SCT015 33/26 Q1008 NOSIG=  
23-Jul-2023 SAID35 WAGB 230900 METAR WAGB 230900Z 25003KT 9999 FEW013CB SCT014 31/25 Q1008 NOSIG=  
23-Jul-2023 SAID35 WAGB 230930 METAR WAGB 230930Z 24003KT 9999 FEW013CB SCT014 31/25 Q1008 NOSIG=  
23-Jul-2023 SAID35 WAGB 231000 METAR WAGB 231000Z 20003KT 8000 VCSH FEW013CB SCT014 29/25 Q1009=  
23-Jul-2023 SAID35 WAGB 231030 METAR WAGB 231030Z 21003KT 8000 VCSH FEW013CB SCT014 29/25 Q1009=  
23-Jul-2023 SAID35 WAGB 231100 METAR WAGB 231100Z 00000KT 8000 VCTS FEW013CB SCT014 28/25 Q1009=  
23-Jul-2023 SAID35 WAGB 231130 METAR WAGB 231130Z 00000KT 8000 VCTS FEW013CB SCT014 28/25 Q1009=  
23-Jul-2023 SAID35 WAGB 231200 METAR WAGB 231200Z 00000KT 8000 FEW013 28/25 Q1010 NOSIG=  
23-Jul-2023 SAID35 WAGB 231230 METAR WAGB 231230Z 00000KT 8000 FEW013 28/25 Q1010 NOSIG=  
23-Jul-2023 SAID35 WAGB 231300 METAR WAGB 231300Z 00000KT 8000 FEW013 27/25 Q1010=  
23-Jul-2023 SAID35 WAGB 231330 METAR WAGB 231330Z 00000KT 8000 FEW013 27/25 Q1010=  
23-Jul-2023 SAID35 WAGB 231400 METAR WAGB 231400Z 00000KT 7000 FEW013 26/25 Q1011=  
23-Jul-2023 SAID35 WAGB 231430 METAR WAGB 231430Z 00000KT 7000 FEW013 26/25 Q1011=  
23-Jul-2023 SAID35 WAGB 231500 METAR WAGB 231500Z 00000KT 7000 FEW012 26/25 Q1011=  
23-Jul-2023 SAID35 WAGB 231530 METAR WAGB 231530Z 00000KT 7000 FEW012 26/25 Q1011=  
23-Jul-2023 SAID35 WAGB 231600 METAR WAGB 231600Z 00000KT 7000 FEW012 25/24 Q1011=  
23-Jul-2023 SAID35 WAGB 231630 METAR WAGB 231630Z 00000KT 7000 FEW012 25/24 Q1011=  
23-Jul-2023 SAID35 WAGB 231700 METAR WAGB 231700Z 00000KT 7000 FEW012 25/24 Q1011=  
23-Jul-2023 SAID35 WAGB 231730 METAR WAGB 231730Z 00000KT 7000 FEW012 25/24 Q1011=  
23-Jul-2023 SAID35 WAGB 231800 METAR WAGB 231800Z 00000KT 7000 SCT012 25/24 Q1010=  
23-Jul-2023 SAID35 WAGB 231830 METAR WAGB 231830Z 00000KT 7000 SCT012 25/24 Q1010=  
23-Jul-2023 SAID35 WAGB 231900 METAR WAGB 231900Z 00000KT 7000 FEW012 25/24 Q1010=  
23-Jul-2023 SAID35 WAGB 231930 METAR WAGB 231930Z 00000KT 7000 FEW012 25/24 Q1010=  
23-Jul-2023 SAID35 WAGB 232000 METAR WAGB 232000Z 00000KT 6000 FEW012 24/24 Q1010=  
23-Jul-2023 SAID35 WAGB 232030 METAR WAGB 232030Z 00000KT 6000 FEW012 24/24 Q1010=  
23-Jul-2023 SAID35 WAGB 232100 METAR WAGB 232100Z 00000KT 6000 FEW012 24/24 Q1011=  
23-Jul-2023 SAID35 WAGB 232130 METAR WAGB 232130Z 00000KT 6000 FEW012 24/24 Q1011=  
23-Jul-2023 SAID35 WAGB 232200 METAR WAGB 232200Z 00000KT 4000 BR FEW011 24/23 Q1011=  
23-Jul-2023 SAID35 WAGB 232230 METAR WAGB 232230Z 00000KT 4000 BR FEW011 24/23 Q1011=  
23-Jul-2023 SAID35 WAGB 232300 METAR WAGB 232300Z 00000KT 6000 FEW011 24/23 Q1012=  
23-Jul-2023 SAID35 WAGB 232330 METAR WAGB 232330Z 00000KT 6000 FEW011 24/23 Q1012=  
24-Jul-2023 SAID35 WAGB 240000 METAR WAGB 240000Z 00000KT 5000 FEW011 26/24 Q1012 NOSIG=  
24-Jul-2023 SAID35 WAGB 240030 METAR WAGB 240030Z 00000KT 7000 FEW011 27/24 Q1012 NOSIG=  
24-Jul-2023 SAID35 WAGB 240100 METAR WAGB 240100Z 00000KT 7000 SCT010 27/25 Q1012 NOSIG=  
24-Jul-2023 SAID35 WAGB 240130 METAR WAGB 240130Z 00000KT 7000 SCT010 28/25 Q1012 NOSIG=  
24-Jul-2023 SAID35 WAGB 240200 METAR WAGB 240200Z 00000KT 8000 BKN010 30/25 Q1012 NOSIG=  
24-Jul-2023 SAID35 WAGB 240230 METAR WAGB 240230Z 00000KT 8000 BKN010 30/25 Q1012 NOSIG=  
24-Jul-2023 SAID35 WAGB 240300 METAR WAGB 240300Z 00000KT 8000 BKN010 30/25 Q1011 NOSIG=  
24-Jul-2023 SAID35 WAGB 240330 METAR WAGB 240330Z 28003KT 9999 BKN010 30/25 Q1011 NOSIG=  
24-Jul-2023 SAID35 WAGB 240400 METAR WAGB 240400Z VRB03KT 9999 BKN011 31/24 Q1010 NOSIG=  
24-Jul-2023 SAID35 WAGB 240430 METAR WAGB 240430Z VRB03KT 9999 BKN011 31/24 Q1010 NOSIG=  
24-Jul-2023 SAID35 WAGB 240500 METAR WAGB 240500Z 24005KT 9999 BKN011 31/24 Q1010 NOSIG=  
24-Jul-2023 SAID35 WAGB 240530 METAR WAGB 240530Z 27003KT 9999 BKN011 32/24 Q1009 NOSIG=  
24-Jul-2023 SAID35 WAGB 240600 METAR WAGB 240600Z 27006KT 9999 BKN012 32/23 Q1009 NOSIG=  
24-Jul-2023 SAID35 WAGB 240600 CCA METAR WAGB 240600Z 28005KT 9999 BKN012 32/24 Q1009 NOSIG=  
24-Jul-2023 SAID35 WAGB 240630 METAR WAGB 240630Z 26006KT 9999 BKN012 33/24 Q1008 NOSIG=  
24-Jul-2023 SAID35 WAGB 240630 CCA METAR WAGB 240630Z 23007KT 9999 BKN012 33/23 Q1008 NOSIG=  
24-Jul-2023 SAID35 WAGB 240700 METAR WAGB 240700Z 25005KT 9999 BKN012 33/24 Q1008 NOSIG=  
24-Jul-2023 SAID35 WAGB 240730 METAR WAGB 240730Z 27004KT 9999 BKN012 33/24 Q1007 NOSIG=  
24-Jul-2023 SAID35 WAGB 240730 CCA METAR WAGB 240730Z 33005KT 9999 BKN012 33/24 Q1007 NOSIG=  
24-Jul-2023 SAID35 WAGB 240800 METAR WAGB 240800Z 32004KT 9999 BKN012 33/24 Q1007 NOSIG=  
24-Jul-2023 SAID35 WAGB 240830 METAR WAGB 240830Z 17004KT 9999 BKN012 32/24 Q1007 NOSIG=  
24-Jul-2023 SAID35 WAGB 240900 METAR WAGB 240900Z 19003KT 9000 BKN011 30/24 Q1007 NOSIG=  
24-Jul-2023 SAID35 WAGB 240900 CCA METAR WAGB 240900Z 19003KT 6000 -RA BKN011 30/24 Q1007 NOSIG=  
24-Jul-2023 SAID35 WAGB 240930 METAR WAGB 240930Z 22003KT 9000 FEW015TCU FEW016 30/26 Q1008 RERA=  
24-Jul-2023 SAID35 WAGB 241000 METAR WAGB 241000Z 00000KT 9000 FEW014TCU SCT015 30/25 Q1008=  
24-Jul-2023 SAID35 WAGB 241030 METAR WAGB 241030Z 00000KT 9000 FEW014TCU SCT015 30/25 Q1008=  
24-Jul-2023 SAID35 WAGB 241100 METAR WAGB 241100Z 00000KT 8000 FEW014TCU FEW015 29/26 Q1009 NOSIG=  
24-Jul-2023 SAID35 WAGB 241130 METAR WAGB 241130Z 00000KT 8000 FEW014TCU FEW015 29/26 Q1009 NOSIG=  
24-Jul-2023 SAID35 WAGB 241200 METAR WAGB 241200Z 00000KT 7000 VCTS FEW014CB 28/26 Q1009=  
24-Jul-2023 SAID35 WAGB 241230 METAR WAGB 241230Z 00000KT 7000 VCTS FEW014CB 28/26 Q1009=  
24-Jul-2023 SAID35 WAGB 241300 METAR WAGB 241300Z 00000KT 7000 VCTS FEW014CB 27/26 Q1011=  
24-Jul-2023 SAID35 WAGB 241330 METAR WAGB 241330Z 00000KT 7000 VCTS FEW014CB 27/26 Q1011=  
24-Jul-2023 SAID35 WAGB 241400 METAR WAGB 241400Z 00000KT 6000 VCTS FEW014CB 27/26 Q1011=  
24-Jul-2023 SAID35 WAGB 241430 METAR WAGB 241430Z 00000KT 6000 VCTS FEW014CB 27/26 Q1011=  
24-Jul-2023 SAID35 WAGB 241500 METAR WAGB 241500Z 00000KT 6000 VCTS FEW014CB 27/26 Q1012=  
24-Jul-2023 SAID35 WAGB 241600 METAR WAGB 241600Z 00000KT 6000 VCTS FEW014CB 26/25 Q1012=  
24-Jul-2023 SAID35 WAGB 241630 METAR WAGB 241630Z 00000KT 6000 VCTS FEW014CB 26/25 Q1012=  
24-Jul-2023 SAID35 WAGB 241700 METAR WAGB 241700Z 00000KT 5000 VCTS FEW014CB SCT015 26/25 Q1011=  
24-Jul-2023 SAID35 WAGB 241730 METAR WAGB 241730Z 00000KT 5000 VCTS FEW014CB SCT015 26/25 Q1011=  
24-Jul-2023 SAID35 WAGB 241800 METAR WAGB 241800Z 00000KT 5000 VCTS FEW014CB SCT015 24/23 Q1011=  
24-Jul-2023 SAID35 WAGB 241830 METAR WAGB 241830Z 00000KT 5000 VCTS FEW014CB SCT015 24/23 Q1011=  
24-Jul-2023 SAID35 WAGB 241900 METAR WAGB 241900Z 00000KT 5000 VCTS FEW014CB SCT015 24/23 Q1011=  
24-Jul-2023 SAID35 WAGB 241930 METAR WAGB 241930Z 00000KT 5000 VCTS FEW014CB SCT015 24/23 Q1011=  
24-Jul-2023 SAID35 WAGB 242000 METAR WAGB 242000Z 00000KT 5000 VCTS FEW014CB SCT015 23/23 Q1011=  
24-Jul-2023 SAID35 WAGB 242030 METAR WAGB 242030Z 00000KT 5000 VCTS FEW014CB SCT015 23/23 Q1011=  
24-Jul-2023 SAID35 WAGB 242100 METAR WAGB 242100Z 00000KT 5000 VCTS FEW014CB SCT015 23/23 Q1011=  
24-Jul-2023 SAID35 WAGB 242130 METAR WAGB 242130Z 00000KT 5000 VCTS FEW014CB SCT015 23/23 Q1011=  
24-Jul-2023 SAID35 WAGB 242200 METAR WAGB 242200Z 00000KT 4000 VCTS FEW012CB BKN014 25/24 Q1012=  
24-Jul-2023 SAID35 WAGB 242230 METAR WAGB 242230Z 00000KT 4000 FEW012CB BKN014 25/24 Q1012 NOSIG=  
24-Jul-2023 SAID35 WAGB 242230 CCA METAR WAGB 242230Z 00000KT 4000 BR FEW012CB BKN014 25/24 Q1012=  
24-Jul-2023 SAID35 WAGB 242300 METAR WAGB 242300Z 00000KT 4000 BR FEW012CB SCT014 25/24 Q1012=  
24-Jul-2023 SAID35 WAGB 242330 METAR WAGB 242330Z 00000KT 4000 BR FEW012CB SCT014 25/24 Q1012=  
25-Jul-2023 SAID35 WAGB 250000 METAR WAGB 250000Z 01003KT 3500 BR BKN005 25/24 Q1013 NOSIG=  
25-Jul-2023 SAID35 WAGB 250030 METAR WAGB 250030Z 36004KT 5000 HZ SCT006 26/25 Q1013 NOSIG=  
25-Jul-2023 SAID35 WAGB 250100 METAR WAGB 250100Z 33003KT 6000 SCT006 26/24 Q1013 NOSIG=  
25-Jul-2023 SAID35 WAGB 250100 CCA METAR WAGB 250100Z 33003KT 6000 BKN007 26/24 Q1013 NOSIG=  
25-Jul-2023 SAID35 WAGB 250130 METAR WAGB 250130Z 03004KT 7000 FEW008 27/24 Q1013 NOSIG=  
25-Jul-2023 SAID35 WAGB 250200 METAR WAGB 250200Z 36003KT 8000 FEW008 29/24 Q1013 NOSIG=  
25-Jul-2023 SAID35 WAGB 250230 METAR WAGB 250230Z 07004KT 9999 SCT010 30/24 Q1012 NOSIG=  
25-Jul-2023 SAID35 WAGB 250300 METAR WAGB 250300Z 00000KT 9999 FEW010 30/23 Q1012 NOSIG=  
25-Jul-2023 SAID35 WAGB 250330 METAR WAGB 250330Z 00000KT 9999 FEW011 31/23 Q1012 NOSIG=  
25-Jul-2023 SAID35 WAGB 250400 METAR WAGB 250400Z 00000KT 9999 SCT011 31/24 Q1011 NOSIG=  
25-Jul-2023 SAID35 WAGB 250430 METAR WAGB 250430Z 23004KT 9999 SCT012 31/23 Q1011 NOSIG=  
25-Jul-2023 SAID35 WAGB 250500 METAR WAGB 250500Z 26003KT 9999 SCT012 32/23 Q1010 NOSIG=  
25-Jul-2023 SAID35 WAGB 250530 METAR WAGB 250530Z 00000KT 9999 SCT014 32/23 Q1010 NOSIG=  
25-Jul-2023 SAID35 WAGB 250600 METAR WAGB 250600Z 39004KT 9999 SCT015 33/23 Q1009 NOSIG=  
25-Jul-2023 SAID35 WAGB 250630 METAR WAGB 250630Z 31002KT 9999 SCT015 33/23 Q1009 NOSIG=  
25-Jul-2023 SAID35 WAGB 250700 METAR WAGB 250700Z 33003KT 9999 SCT015 33/23 Q1009 NOSIG=  
25-Jul-2023 SAID35 WAGB 250730 METAR WAGB 250730Z 20005KT 9999 SCT015 32/23 Q1008 NOSIG=  
25-Jul-2023 SAID35 WAGB 250800 METAR WAGB 250800Z 20004KT 9999 SCT015 32/23 Q1008 NOSIG=  
25-Jul-2023 SAID35 WAGB 250830 METAR WAGB 250830Z 24004KT 9999 FEW015 32/23 Q1008 NOSIG=  
25-Jul-2023 SAID35 WAGB 250900 METAR WAGB 250900Z 28002KT 9999 BKN015 32/25 Q1009=  
25-Jul-2023 SAID35 WAGB 250930 METAR WAGB 250930Z 00000KT 9999 BKN015 32/25 Q1009 NOSIG=  
25-Jul-2023 SAID35 WAGB 251000 METAR WAGB 251000Z 00000KT 9999 SCT015 32/26 Q1009 NOSIG=  
25-Jul-2023 SAID35 WAGB 251030 METAR WAGB 251030Z 00000KT 9999 SCT015 32/26 Q1009 NOSIG=  
25-Jul-2023 SAID35 WAGB 251100 METAR WAGB 251100Z 00000KT 8000 SCT014 30/26 Q1010 NOSIG=  
25-Jul-2023 SAID35 WAGB 251130 METAR WAGB 251130Z 00000KT 8000 SCT014 30/26 Q1010 NOSIG=  
25-Jul-2023 SAID35 WAGB 251200 METAR WAGB 251200Z 00000KT 8000 SCT013 29/26 Q1010=  
25-Jul-2023 SAID35 WAGB 251230 METAR WAGB 251230Z 00000KT 8000 SCT013 29/26 Q1010=  
25-Jul-2023 SAID35 WAGB 251300 METAR WAGB 251300Z 00000KT 8000 SCT012 28/26 Q1011=  
25-Jul-2023 SAID35 WAGB 251330 METAR WAGB 251330Z 00000KT 8000 SCT012 28/26 Q1011=  
25-Jul-2023 SAID35 WAGB 251400 METAR WAGB 251400Z 00000KT 8000 SCT012 27/25 Q1011=  
25-Jul-2023 SAID35 WAGB 251430 METAR WAGB 251430Z 00000KT 8000 SCT012 27/25 Q1011=  
25-Jul-2023 SAID35 WAGB 251500 METAR WAGB 251500Z 00000KT 6000 SCT012 27/25 Q1011=  
25-Jul-2023 SAID35 WAGB 251530 METAR WAGB 251530Z 00000KT 6000 SCT012 27/25 Q1011=  
25-Jul-2023 SAID35 WAGB 251600 METAR WAGB 251600Z 00000KT 6000 SCT012 26/25 Q1011=  
25-Jul-2023 SAID35 WAGB 251630 METAR WAGB 251630Z 00000KT 6000 SCT012 26/25 Q1011=  
25-Jul-2023 SAID35 WAGB 251700 METAR WAGB 251700Z 00000KT 6000 SCT010 26/25 Q1011=  
25-Jul-2023 SAID35 WAGB 251730 METAR WAGB 251730Z 00000KT 6000 SCT010 26/25 Q1011=  
25-Jul-2023 SAID35 WAGB 251800 METAR WAGB 251800Z 00000KT 6000 SCT010 26/25 Q1011=  
25-Jul-2023 SAID35 WAGB 251830 METAR WAGB 251830Z 00000KT 6000 SCT010 26/25 Q1011=  
25-Jul-2023 SAID35 WAGB 251900 METAR WAGB 251900Z 00000KT 4000 BR BKN010 25/25 Q1010=  
25-Jul-2023 SAID35 WAGB 251930 METAR WAGB 251930Z 00000KT 4000 BR BKN010 25/25 Q1010=  
25-Jul-2023 SAID35 WAGB 252000 METAR WAGB 252000Z 00000KT 4000 BR BKN010 25/24 Q1010=  
25-Jul-2023 SAID35 WAGB 252030 METAR WAGB 252030Z 00000KT 4000 BR BKN010 25/24 Q1011=  
25-Jul-2023 SAID35 WAGB 252100 METAR WAGB 252100Z 00000KT 4000 BR BKN010 25/24 Q1012=  
25-Jul-2023 SAID35 WAGB 252130 METAR WAGB 252130Z 00000KT 4000 BR BKN010 25/24 Q1012=  
25-Jul-2023 SAID35 WAGB 252200 METAR WAGB 252200Z 00000KT 4000 BR FEW009 24/24 Q1012=  
25-Jul-2023 SAID35 WAGB 252200 CCA METAR WAGB 252200Z 00000KT 4000 BR SCT009 24/24 Q1012=  
25-Jul-2023 SAID35 WAGB 252230 METAR WAGB 252230Z 00000KT 4000 BR SCT009 24/24 Q1012=  
25-Jul-2023 SAID35 WAGB 252300 METAR WAGB 252300Z 00000KT 4000 BR BKN009 25/24 Q1013=  
25-Jul-2023 SAID35 WAGB 252330 METAR WAGB 252330Z 00000KT 4000 BR BKN009 25/24 Q1013=  
26-Jul-2023 SAID35 WAGB 260000 METAR WAGB 260000Z 00000KT 7000 FEW010 26/24 Q1013 NOSIG=  
26-Jul-2023 SAID35 WAGB 260030 METAR WAGB 260030Z 00000KT 9999 FEW010 26/24 Q1013 NOSIG=  
26-Jul-2023 SAID35 WAGB 260100 METAR WAGB 260100Z 00000KT 9999 FEW010 27/24 Q1013 NOSIG=  
26-Jul-2023 SAID35 WAGB 260130 METAR WAGB 260130Z 00000KT 9999 SCT010 27/24 Q1013 NOSIG=  
26-Jul-2023 SAID35 WAGB 260200 METAR WAGB 260200Z 29003KT 9999 SCT010 29/25 Q1013 NOSIG=  
26-Jul-2023 SAID35 WAGB 260230 METAR WAGB 260230Z 00000KT 9999 SCT010 29/25 Q1013 NOSIG=  
26-Jul-2023 SAID35 WAGB 260300 METAR WAGB 260300Z 00000KT 9999 SCT011 30/24 Q1012 NOSIG=  
26-Jul-2023 SAID35 WAGB 260330 METAR WAGB 260330Z 00000KT 9999 SCT011 30/24 Q1012 NOSIG=  
26-Jul-2023 SAID35 WAGB 260400 METAR WAGB 260400Z 23003KT 9999 BKN012 31/24 Q1012 NOSIG=  
26-Jul-2023 SAID35 WAGB 260430 METAR WAGB 260430Z 26005KT 9999 BKN012 31/24 Q1011 NOSIG=  
26-Jul-2023 SAID35 WAGB 260500 METAR WAGB 260500Z 18003KT 9999 BKN012 31/24 Q1010 NOSIG=  
26-Jul-2023 SAID35 WAGB 260530 CCA METAR WAGB 260530Z 19003KT 9999 BKN012 31/24 Q1010 NOSIG=  
26-Jul-2023 SAID35 WAGB 260530 METAR WAGB 260530Z 18003KT 9999 BKN012 31/24 Q1010 NOSIG=  
26-Jul-2023 SAID35 WAGB 260600 METAR WAGB 260600Z 20003KT 9999 BKN012 31/24 Q1010 NOSIG=  
26-Jul-2023 SAID35 WAGB 260630 METAR WAGB 260630Z 22004KT 9999 BKN012 32/24 Q1009 NOSIG=  
26-Jul-2023 SAID35 WAGB 260700 METAR WAGB 260700Z 21004KT 9999 BKN012 33/23 Q1009 NOSIG=  
26-Jul-2023 SAID35 WAGB 260730 METAR WAGB 260730Z 20005KT 9999 BKN012 32/24 Q1009 NOSIG=  
26-Jul-2023 SAID35 WAGB 260800 METAR WAGB 260800Z 18003KT 9999 BKN012 31/24 Q1009 NOSIG=  
26-Jul-2023 SAID35 WAGB 260830 METAR WAGB 260830Z 20005KT 9999 BKN012 32/23 Q1009 NOSIG=  
26-Jul-2023 SAID35 WAGB 260900 METAR WAGB 260900Z 18004KT 9999 BKN012 32/24 Q1009 NOSIG=  
26-Jul-2023 SAID35 WAGB 260930 METAR WAGB 260930Z 23003KT 9999 FEW011CB FEW012 31/25 Q1010=  
26-Jul-2023 SAID35 WAGB 261000 METAR WAGB 261000Z 00000KT 9999 FEW011CB FEW012 30/25 Q1010 NOSIG=  
26-Jul-2023 SAID35 WAGB 261030 METAR WAGB 261030Z 00000KT 9999 FEW011CB FEW012 30/25 Q1010 NOSIG=  
26-Jul-2023 SAID35 WAGB 261100 METAR WAGB 261100Z 00000KT 9999 FEW012 29/26 Q1011 NOSIG=  
26-Jul-2023 SAID35 WAGB 261130 METAR WAGB 261130Z 00000KT 9999 FEW012 29/26 Q1011 NOSIG=  
26-Jul-2023 SAID35 WAGB 261200 METAR WAGB 261200Z 24002KT 8000 FEW012 28/25 Q1011=  
26-Jul-2023 SAID35 WAGB 261230 METAR WAGB 261230Z 0000KT 7000 FEW012 28/25 Q1011=  
26-Jul-2023 SAID35 WAGB 261300 METAR WAGB 261300Z 00000KT 6000 FEW011 27/25 Q1012=  
26-Jul-2023 SAID35 WAGB 261330 METAR WAGB 261330Z 00000KT 6000 FEW011 27/25 Q1012=  
26-Jul-2023 SAID35 WAGB 261400 METAR WAGB 261400Z 00000KT 6000 FEW011 26/25 Q1012=  
26-Jul-2023 SAID35 WAGB 261430 METAR WAGB 261430Z 00000KT 6000 FEW011 26/25 Q1012=  
26-Jul-2023 SAID35 WAGB 261500 METAR WAGB 261500Z 00000KT 7000 FEW011 26/25 Q1013=  
26-Jul-2023 SAID35 WAGB 261530 METAR WAGB 261530Z 00000KT 7000 FEW011 26/25 Q1013=  
26-Jul-2023 SAID35 WAGB 261600 METAR WAGB 261600Z 00000KT 7000 FEW011 25/24 Q1013=  
26-Jul-2023 SAID35 WAGB 261630 METAR WAGB 261630Z 00000KT 7000 FEW011 25/24 Q1013=  
26-Jul-2023 SAID35 WAGB 261700 METAR WAGB 261700Z 00000KT 7000 FEW010 25/24 Q1012=  
26-Jul-2023 SAID35 WAGB 261730 METAR WAGB 261730Z 00000KT 7000 FEW010 25/24 Q1012=  
26-Jul-2023 SAID35 WAGB 261800 METAR WAGB 261800Z 00000KT 7000 FEW010 25/24 Q1012=  
26-Jul-2023 SAID35 WAGB 261830 METAR WAGB 261830Z 00000KT 7000 FEW010 25/24 Q1012=  
26-Jul-2023 SAID35 WAGB 261900 METAR WAGB 261900Z 00000KT 7000 FEW010 24/23 Q1012=  
26-Jul-2023 SAID35 WAGB 261930 METAR WAGB 261930Z 00000KT 7000 FEW010 24/23 Q1012=  
26-Jul-2023 SAID35 WAGB 262000 METAR WAGB 262000Z 00000KT 5000 BR FEW010 24/23 Q1012=  
26-Jul-2023 SAID35 WAGB 262030 METAR WAGB 262030Z 00000KT 5000 BR FEW010 23/23 Q1012=  
26-Jul-2023 SAID35 WAGB 262100 METAR WAGB 262100Z 00000KT 5000 BR FEW009 23/23 Q1012=  
26-Jul-2023 SAID35 WAGB 262130 METAR WAGB 262130Z 00000KT 5000 BR FEW009 23/23 Q1013=  
26-Jul-2023 SAID35 WAGB 262200 METAR WAGB 262200Z 00000KT 6000 FEW009 23/22 Q1013=  
26-Jul-2023 SAID35 WAGB 262230 METAR WAGB 262230Z 00000KT 6000 FEW009 23/22 Q1013=  
26-Jul-2023 SAID35 WAGB 262300 METAR WAGB 262300Z 00000KT 8000 FEW009 23/22 Q1013=  
26-Jul-2023 SAID35 WAGB 262330 METAR WAGB 262330Z 00000KT 8000 FEW009 24/22 Q1013=  
27-Jul-2023 SAID35 WAGB 270000 METAR WAGB 270000Z 00000KT 8000 NSC 24/23 Q1014 NOSIG=  
27-Jul-2023 SAID35 WAGB 270030 METAR WAGB 270030Z 23004KT 8000 FEW011 26/23 Q1013 NOSIG=  
27-Jul-2023 SAID35 WAGB 270100 METAR WAGB 270100Z 28003KT 8000 FEW011 26/23 Q1013 NOSIG=  
27-Jul-2023 SAID35 WAGB 270130 METAR WAGB 270130Z 28003KT 8000 FEW011 27/23 Q1013 NOSIG=  
27-Jul-2023 SAID35 WAGB 270200 METAR WAGB 270200Z 30004KT 9000 FEW012 28/23 Q1013 NOSIG=  
27-Jul-2023 SAID35 WAGB 270230 METAR WAGB 270230Z 25005KT 9000 FEW012 28/23 Q1013 NOSIG=  
27-Jul-2023 SAID35 WAGB 270300 METAR WAGB 270300Z 23005KT 9999 FEW012 29/23 Q1012 NOSIG=  
27-Jul-2023 SAID35 WAGB 270330 METAR WAGB 270330Z 22004KT 9999 FEW012 30/22 Q1012 NOSIG=  
27-Jul-2023 SAID35 WAGB 270400 METAR WAGB 270400Z 20005KT 9999 SCT013 31/21 Q1011 NOSIG=  
27-Jul-2023 SAID35 WAGB 270430 METAR WAGB 270430Z 22004KT 9999 SCT013 31/21 Q1011 NOSIG=  
27-Jul-2023 SAID35 WAGB 270500 METAR WAGB 270500Z 21006KT 9999 SCT014 32/21 Q1010 NOSIG=  
27-Jul-2023 SAID35 WAGB 270530 METAR WAGB 270530Z 22006KT 9999 SCT014 32/21 Q1010 NOSIG=  
27-Jul-2023 SAID35 WAGB 270600 METAR WAGB 270600Z 24006KT 9999 SCT014 33/20 Q1010 NOSIG=  
27-Jul-2023 SAID35 WAGB 270630 METAR WAGB 270630Z 25005KT 9999 BKN014 33/21 Q1009 NOSIG=  
27-Jul-2023 SAID35 WAGB 270700 METAR WAGB 270700Z 18004KT 9999 SCT015 33/21 Q1009 NOSIG=  
27-Jul-2023 SAID35 WAGB 270730 METAR WAGB 270730Z 20004KT 9999 SCT015 33/21 Q1009 NOSIG=  
27-Jul-2023 SAID35 WAGB 270800 METAR WAGB 270800Z 17004KT 9999 BKN014 33/23 Q1009 NOSIG=  
27-Jul-2023 SAID35 WAGB 270830 METAR WAGB 270830Z 00000KT 9999 BKN014 33/24 Q1009 NOSIG=  
27-Jul-2023 SAID35 WAGB 270900 METAR WAGB 270900Z 23003KT 9999 SCT014 33/23 Q1009 NOSIG=  
27-Jul-2023 SAID35 WAGB 270930 METAR WAGB 270930Z 00000KT 9999 SCT014 33/23 Q1009 NOSIG=  
27-Jul-2023 SAID35 WAGB 271000 METAR WAGB 271000Z 00000KT 9999 SCT015 31/24 Q1010 NOSIG=  
27-Jul-2023 SAID35 WAGB 271030 METAR WAGB 271030Z 00000KT 9999 SCT015 31/24 Q1010 NOSIG=  
27-Jul-2023 SAID35 WAGB 271100 METAR WAGB 271100Z 00000KT 8000 SCT015 29/25 Q1010 NOSIG=  
27-Jul-2023 SAID35 WAGB 271130 METAR WAGB 271130Z 00000KT 8000 SCT015 29/25 Q1010 NOSIG=  
27-Jul-2023 SAID35 WAGB 271200 METAR WAGB 271200Z 00000KT 8000 SCT014 28/25 Q1010=  
27-Jul-2023 SAID35 WAGB 271230 METAR WAGB 271230Z 00000KT 8000 SCT014 28/25 Q1010=  
27-Jul-2023 SAID35 WAGB 271300 METAR WAGB 271300Z 00000KT 8000 SCT014 28/25 Q1011=  
27-Jul-2023 SAID35 WAGB 271330 METAR WAGB 271330Z 00000KT 8000 SCT014 28/25 Q1011=  
27-Jul-2023 SAID35 WAGB 271400 METAR WAGB 271400Z 00000KT 8000 SCT013 26/24 Q1012=  
27-Jul-2023 SAID35 WAGB 271430 METAR WAGB 271430Z 00000KT 8000 SCT013 26/24 Q1012=  
27-Jul-2023 SAID35 WAGB 271500 METAR WAGB 271500Z 00000KT 8000 SCT012 26/25 Q1012=  
27-Jul-2023 SAID35 WAGB 271530 METAR WAGB 271530Z 00000KT 8000 SCT012 26/25 Q1012=  
27-Jul-2023 SAID35 WAGB 271600 METAR WAGB 271600Z 00000KT 7000 SCT012 26/24 Q1012=  
27-Jul-2023 SAID35 WAGB 271630 METAR WAGB 271630Z 00000KT 7000 SCT012 26/24 Q1012=  
27-Jul-2023 SAID35 WAGB 271700 METAR WAGB 271700Z 00000KT 7000 SCT011 25/24 Q1011=  
27-Jul-2023 SAID35 WAGB 271730 METAR WAGB 271730Z 00000KT 7000 SCT011 25/24 Q1011=  
27-Jul-2023 SAID35 WAGB 271800 METAR WAGB 271800Z 00000KT 7000 SCT011 25/24 Q1011=  
27-Jul-2023 SAID35 WAGB 271830 METAR WAGB 271830Z 00000KT 7000 SCT011 25/24 Q1011=  
27-Jul-2023 SAID35 WAGB 271900 METAR WAGB 271900Z 00000KT 6000 SCT011 25/24 Q1011=  
27-Jul-2023 SAID35 WAGB 271930 METAR WAGB 271930Z 00000KT 6000 SCT011 25/24 Q1011=  
27-Jul-2023 SAID35 WAGB 272000 METAR WAGB 272000Z 00000KT 6000 SCT011 25/24 Q1011=  
27-Jul-2023 SAID35 WAGB 272030 METAR WAGB 272030Z 00000KT 6000 SCT011 25/24 Q1011=  
27-Jul-2023 SAID35 WAGB 272100 METAR WAGB 272100Z 00000KT 6000 SCT011 25/24 Q1011=  
27-Jul-2023 SAID35 WAGB 272130 METAR WAGB 272130Z 00000KT 6000 SCT011 25/24 Q1011=  
27-Jul-2023 SAID35 WAGB 272200 METAR WAGB 272200Z 00000KT 6000 SCT011 25/24 Q1011=  
27-Jul-2023 SAID35 WAGB 272230 METAR WAGB 272230Z 00000KT 6000 SCT011 25/24 Q1011=  
27-Jul-2023 SAID35 WAGB 272300 METAR WAGB 272300Z 00000KT 6000 SCT011 25/24 Q1012=  
27-Jul-2023 SAID35 WAGB 272330 METAR WAGB 272330Z 00000KT 6000 SCT011 25/24 Q1012=  
28-Jul-2023 SAID35 WAGB 280000 METAR WAGB 280000Z 00000KT 6000 FEW012 24/23 Q1013 NOSIG=  
28-Jul-2023 SAID35 WAGB 280030 METAR WAGB 280030Z 25003KT 9000 FEW010 25/23 Q1012 NOSIG=  
28-Jul-2023 SAID35 WAGB 280100 METAR WAGB 280100Z 29003KT 9000 BKN007 25/23 Q1012 NOSIG=  
28-Jul-2023 SAID35 WAGB 280130 METAR WAGB 280130Z 27003KT 9000 BKN007 26/23 Q1012 NOSIG=  
28-Jul-2023 SAID35 WAGB 280200 METAR WAGB 280200Z 33003KT 9999 SCT008 28/23 Q1012 NOSIG=  
28-Jul-2023 SAID35 WAGB 280230 METAR WAGB 280230Z 00000KT 9999 FEW009 28/23 Q1012 NOSIG=  
28-Jul-2023 SAID35 WAGB 280300 METAR WAGB 280300Z 00000KT 9999 FEW009 31/24 Q1012 NOSIG=  
28-Jul-2023 SAID35 WAGB 280330 METAR WAGB 280330Z 07004KT 9999 SCT010 31/24 Q1011 NOSIG=  
28-Jul-2023 SAID34 WAGB 280400 METAR WAGB 280400Z VRB02KT 9999 SCT010 31/22 Q1011 NOSIG=  
28-Jul-2023 SAID35 WAGB 280400 METAR WAGB 280400Z VRB02KT 9999 SCT010 31/22 Q1011 NOSIG=  
28-Jul-2023 SAID35 WAGB 280430 METAR WAGB 280430Z 28003KT 9999 SCT010 31/22 Q1010 NOSIG=  
28-Jul-2023 SAID35 WAGB 280500 METAR WAGB 280500Z 22003KT 9999 SCT011 30/21 Q1010 NOSIG=  
28-Jul-2023 SAID35 WAGB 280530 METAR WAGB 280530Z 17005KT 9999 SCT011 31/21 Q1009 NOSIG=  
28-Jul-2023 SAID35 WAGB 280600 METAR WAGB 280600Z 13004KT 9999 SCT012 33/20 Q1009 NOSIG=  
28-Jul-2023 SAID35 WAGB 280630 METAR WAGB 280630Z 00000KT 9999 SCT012 33/20 Q1008 NOSIG=  
28-Jul-2023 SAID35 WAGB 280700 METAR WAGB 280700Z 04003KT 9999 BKN013 33/22 Q1008 NOSIG=  
28-Jul-2023 SAID35 WAGB 280730 METAR WAGB 280730Z 07003KT 9999 BKN013 33/22 Q1008 NOSIG=  
28-Jul-2023 SAID35 WAGB 280800 METAR WAGB 280800Z 20003KT 9999 BKN014 33/22 Q1008=  
28-Jul-2023 SAID35 WAGB 280830 METAR WAGB 280830Z 20003KT 9999 BKN014 33/22 Q1008 NOSIG=  
28-Jul-2023 SAID35 WAGB 280900 METAR WAGB 280900Z 16003KT 9999 FEW014 33/22 Q1009 NOSIG=  
28-Jul-2023 SAID35 WAGB 281000 METAR WAGB 281000Z 00000KT 9999 FEW014 32/25 Q1009 NOSIG=  
28-Jul-2023 SAID35 WAGB 281100 METAR WAGB 281100Z 00000KT 9999 FEW014 30/24 Q1010 NOSIG=  
28-Jul-2023 SAID35 WAGB 281130 METAR WAGB 281130Z 00000KT 9999 FEW014 30/24 Q1010 NOSIG=  
28-Jul-2023 SAID35 WAGB 281200 METAR WAGB 281200Z 00000KT 9999 FEW013 28/25 Q1011 NOSIG=  
28-Jul-2023 SAID35 WAGB 281230 METAR WAGB 281230Z 00000KT 9999 FEW013 28/25 Q1011 NOSIG=  
28-Jul-2023 SAID35 WAGB 281300 METAR WAGB 281300Z 00000KT 8000 SCT013 27/25 Q1012 NOSIG=  
28-Jul-2023 SAID35 WAGB 281330 METAR WAGB 281330Z 00000KT 8000 SCT013 27/25 Q1012 NOSIG=  
28-Jul-2023 SAID35 WAGB 281400 METAR WAGB 281400Z 00000KT 8000 SCT013 26/24 Q1012 NOSIG=  
28-Jul-2023 SAID35 WAGB 281430 METAR WAGB 281430Z 00000KT 8000 SCT013 26/24 Q1012 NOSIG=  
28-Jul-2023 SAID35 WAGB 281500 METAR WAGB 281500Z 00000KT 7000 SCT012 25/24 Q1012 NOSIG=  
28-Jul-2023 SAID35 WAGB 281530 METAR WAGB 281530Z 00000KT 7000 SCT012 25/24 Q1012 NOSIG=  
28-Jul-2023 SAID35 WAGB 281600 METAR WAGB 281600Z 00000KT 6000 SCT011 25/24 Q1012 NOSIG=  
28-Jul-2023 SAID35 WAGB 281630 METAR WAGB 281630Z 00000KT 6000 SCT011 25/24 Q1012 NOSIG=  
28-Jul-2023 SAID35 WAGB 281700 METAR WAGB 281700Z 00000KT 6000 FEW011 24/24 Q1012 NOSIG=  
28-Jul-2023 SAID35 WAGB 281730 METAR WAGB 281730Z 00000KT 6000 FEW011 24/24 Q1012 NOSIG=  
28-Jul-2023 SAID35 WAGB 281800 METAR WAGB 281800Z 00000KT 5000 BR FEW010 24/23 Q1012 NOSIG=  
28-Jul-2023 SAID35 WAGB 281830 METAR WAGB 281830Z 00000KT 5000 BR FEW010 24/23 Q1011 NOSIG=  
28-Jul-2023 SAID35 WAGB 281900 METAR WAGB 281900Z 00000KT 4000 BR FEW010 24/23 Q1011 NOSIG=  
28-Jul-2023 SAID35 WAGB 281930 METAR WAGB 281930Z 00000KT 4000 BR FEW010 24/23 Q1011 NOSIG=  
28-Jul-2023 SAID35 WAGB 282000 METAR WAGB 282000Z 00000KT 4000 BR FEW010 23/23 Q1011 NOSIG=  
28-Jul-2023 SAID35 WAGB 282030 METAR WAGB 282030Z 00000KT 4000 BR FEW010 23/23 Q1011 NOSIG=  
28-Jul-2023 SAID35 WAGB 282100 METAR WAGB 282100Z 00000KT 4000 BR FEW010 23/22 Q1011 NOSIG=  
28-Jul-2023 SAID35 WAGB 282130 METAR WAGB 282130Z 00000KT 4000 BR FEW010 23/22 Q1012 NOSIG=  
28-Jul-2023 SAID35 WAGB 282200 METAR WAGB 282200Z 00000KT 4000 BR FEW009 23/22 Q1012 NOSIG=  
28-Jul-2023 SAID35 WAGB 282230 METAR WAGB 282230Z 00000KT 4000 BR FEW009 23/22 Q1012 NOSIG=  
28-Jul-2023 SAID35 WAGB 282300 METAR WAGB 282300Z 00000KT 6000 FEW010 23/22 Q1012 NOSIG=  
28-Jul-2023 SAID35 WAGB 282330 METAR WAGB 282330Z 00000KT 6000 FEW010 23/22 Q1012 NOSIG=  
29-Jul-2023 SAID35 WAGB 290000 METAR WAGB 290000Z VRB02KT 8000 NSC 24/23 Q1012 NOSIG=  
29-Jul-2023 SAID35 WAGB 290030 METAR WAGB 290030Z 36003KT 9000 FEW009 26/23 Q1013 NOSIG=  
29-Jul-2023 SAID35 WAGB 290100 METAR WAGB 290100Z VRB02KT 9000 SCT009 27/23 Q1013 NOSIG=  
29-Jul-2023 SAID35 WAGB 290130 METAR WAGB 290130Z 35003KT 9000 SCT009 27/23 Q1013 NOSIG=  
29-Jul-2023 SAID35 WAGB 290200 METAR WAGB 290200Z 00000KT 9000 BKN010 28/23 Q1013 NOSIG=  
29-Jul-2023 SAID35 WAGB 290230 METAR WAGB 290230Z 00000KT 9000 BKN010 28/23 Q1013 NOSIG=  
29-Jul-2023 SAID35 WAGB 290300 METAR WAGB 290300Z 00000KT 9000 BKN011 28/24 Q1012 NOSIG=  
29-Jul-2023 SAID35 WAGB 290330 METAR WAGB 290330Z 00000KT 9000 BKN011 28/23 Q1012 NOSIG=  
29-Jul-2023 SAID35 WAGB 290400 METAR WAGB 290400Z 34003KT 9000 SCT012 30/23 Q1011 NOSIG=  
29-Jul-2023 SAID35 WAGB 290430 METAR WAGB 290430Z 29003KT 9999 SCT012 30/23 Q1011 NOSIG=  
29-Jul-2023 SAID35 WAGB 290500 METAR WAGB 290500Z 02003KT 9999 BKN013 31/23 Q1010 NOSIG=  
29-Jul-2023 SAID35 WAGB 290530 METAR WAGB 290530Z 36004KT 9999 BKN013 32/23 Q1010 NOSIG=  
29-Jul-2023 SAID35 WAGB 290600 METAR WAGB 290600Z 33003KT 9999 BKN013 32/23 Q1009 NOSIG=  
29-Jul-2023 SAID35 WAGB 290630 METAR WAGB 290630Z 05003KT 9999 BKN013 32/22 Q1009 NOSIG=  
29-Jul-2023 SAID35 WAGB 290700 METAR WAGB 290700Z 00000KT 9999 BKN013 32/22 Q1009 NOSIG=  
29-Jul-2023 SAID35 WAGB 290730 METAR WAGB 290730Z 00000KT 9999 BKN013 33/21 Q1008 NOSIG=  
29-Jul-2023 SAID35 WAGB 290800 METAR WAGB 290800Z 00000KT 9999 BKN013 33/21 Q1008 NOSIG=  
29-Jul-2023 SAID35 WAGB 290830 METAR WAGB 290830Z 00000KT 9999 BKN013 33/21 Q1008 NOSIG=  
29-Jul-2023 SAID35 WAGB 290900 METAR WAGB 290900Z 00000KT 9999 SCT013 33/21 Q1008 NOSIG=  
29-Jul-2023 SAID35 WAGB 290930 METAR WAGB 290930Z 00000KT 9000 FEW014 32/24 Q1009 NOSIG=  
29-Jul-2023 SAID35 WAGB 291000 METAR WAGB 291000Z 28003KT 9000 FEW014 32/24 Q1009 NOSIG=  
29-Jul-2023 SAID35 WAGB 291030 METAR WAGB 291030Z 00000KT 9000 FEW014 31/24 Q1009 NOSIG=  
29-Jul-2023 SAID35 WAGB 291100 METAR WAGB 291100Z 00000KT 9000 FEW014 30/25 Q1010 NOSIG=  
29-Jul-2023 SAID35 WAGB 291130 METAR WAGB 291130Z 00000KT 9000 FEW014 29/25 Q1010 NOSIG=  
29-Jul-2023 SAID35 WAGB 291200 METAR WAGB 291200Z 00000KT 7000 FEW013 28/24 Q1011=  
29-Jul-2023 SAID35 WAGB 291230 METAR WAGB 291230Z 00000KT 7000 FEW013 28/24 Q1011=  
29-Jul-2023 SAID35 WAGB 291300 METAR WAGB 291300Z 00000KT 6000 FEW013 27/25 Q1011=  
29-Jul-2023 SAID35 WAGB 291330 METAR WAGB 291330Z 00000KT 6000 FEW013 27/25 Q1011=  
29-Jul-2023 SAID35 WAGB 291400 METAR WAGB 291400Z 00000KT 6000 FEW012 26/24 Q1012=  
29-Jul-2023 SAID35 WAGB 291430 METAR WAGB 291430Z 00000KT 6000 FEW012 26/24 Q1012=  
29-Jul-2023 SAID35 WAGB 291500 METAR WAGB 291500Z 00000KT 6000 SCT012 25/24 Q1012=  
29-Jul-2023 SAID35 WAGB 291530 METAR WAGB 291530Z 00000KT 6000 SCT012 25/24 Q1012=  
29-Jul-2023 SAID35 WAGB 291600 METAR WAGB 291600Z 00000KT 5000 SCT012 25/24 Q1012=  
29-Jul-2023 SAID35 WAGB 291630 METAR WAGB 291630Z 00000KT 5000 SCT012 25/24 Q1012=  
29-Jul-2023 SAID35 WAGB 291700 METAR WAGB 291700Z 00000KT 5000 SCT012 24/24 Q1011=  
29-Jul-2023 SAID35 WAGB 291730 METAR WAGB 291730Z 00000KT 5000 SCT012 24/24 Q1011=  
29-Jul-2023 SAID35 WAGB 291800 METAR WAGB 291800Z 00000KT 4000 BR SCT011 24/23 Q1011=  
29-Jul-2023 SAID35 WAGB 291830 METAR WAGB 291830Z 00000KT 4000 BR SCT011 24/23 Q1011=  
29-Jul-2023 SAID35 WAGB 291900 METAR WAGB 291900Z 00000KT 4000 BR SCT011 24/23 Q1010=  
29-Jul-2023 SAID35 WAGB 291930 METAR WAGB 291930Z 00000KT 4000 BR SCT011 24/23 Q1010=  
29-Jul-2023 SAID35 WAGB 292000 METAR WAGB 292000Z 00000KT 4000 BR SCT010 24/23 Q1010=  
29-Jul-2023 SAID35 WAGB 292030 METAR WAGB 292030Z 00000KT 4000 BR SCT010 24/23 Q1010=  
29-Jul-2023 SAID35 WAGB 292100 METAR WAGB 292100Z 00000KT 4000 BR FEW010 23/22 Q1011=  
29-Jul-2023 SAID35 WAGB 292130 METAR WAGB 292130Z 00000KT 1000 FG FEW010 23/22 Q1011=  
29-Jul-2023 SAID35 WAGB 292200 METAR WAGB 292200Z 00000KT 1000 FG SCT010 22/22 Q1011=  
29-Jul-2023 SAID35 WAGB 292230 METAR WAGB 292230Z 00000KT 1000 FG SCT010 22/22 Q1011=  
29-Jul-2023 SAID35 WAGB 292300 METAR WAGB 292300Z 00000KT 4000 SCT010 22/22 Q1012=  
29-Jul-2023 SAID35 WAGB 292330 METAR WAGB 292330Z 00000KT 4000 SCT010 22/22 Q1012=  
30-Jul-2023 SAID35 WAGB 300000 METAR WAGB 300000Z 35003KT 7000 SCT010 24/23 Q1012 NOSIG=  
30-Jul-2023 SAID35 WAGB 300030 METAR WAGB 300030Z 36005KT 7000 SCT010 25/23 Q1012 NOSIG=  
30-Jul-2023 SAID35 WAGB 300100 METAR WAGB 300100Z 32003KT 8000 SCT010 27/23 Q1013 NOSIG=  
30-Jul-2023 SAID35 WAGB 300130 METAR WAGB 300130Z 36003KT 8000 SCT011 28/23 Q1013 NOSIG=  
30-Jul-2023 SAID35 WAGB 300200 METAR WAGB 300200Z 01003KT 9000 SCT011 29/23 Q1013 NOSIG=  
30-Jul-2023 SAID35 WAGB 300230 METAR WAGB 300230Z VRB02KT 9000 SCT011 29/23 Q1013 NOSIG=  
30-Jul-2023 SAID35 WAGB 300300 METAR WAGB 300300Z 08003KT 9999 BKN011 30/23 Q1012 NOSIG=  
30-Jul-2023 SAID35 WAGB 300330 METAR WAGB 300330Z VRB02KT 9999 BKN011 30/23 Q1012 NOSIG=  
30-Jul-2023 SAID35 WAGB 300400 METAR WAGB 300400Z VRB02KT 9999 BKN012 31/22 Q1012 NOSIG=  
30-Jul-2023 SAID35 WAGB 300430 METAR WAGB 300430Z 18005KT 9999 BKN012 32/22 Q1011 NOSIG=  
30-Jul-2023 SAID35 WAGB 300500 METAR WAGB 300500Z 22003KT 9999 BKN012 32/21 Q1011 NOSIG=  
30-Jul-2023 SAID35 WAGB 300530 METAR WAGB 300530Z 15005KT 9999 BKN012 32/20 Q1010 NOSIG=  
30-Jul-2023 SAID35 WAGB 300600 METAR WAGB 300600Z 17002KT 9999 BKN012 32/20 Q1010 NOSIG=  
30-Jul-2023 SAID35 WAGB 300630 METAR WAGB 300630Z 15002KT 9999 BKN012 32/20 Q1009 NOSIG=  
30-Jul-2023 SAID35 WAGB 300700 METAR WAGB 300700Z 14004KT 9999 BKN012 34/20 Q1009 NOSIG=  
30-Jul-2023 SAID35 WAGB 300730 METAR WAGB 300730Z 18005KT 9999 BKN012 34/20 Q1008 NOSIG=  
30-Jul-2023 SAID35 WAGB 300800 METAR WAGB 300800Z 07003KT 9999 BKN012 31/21 Q1008 NOSIG=  
30-Jul-2023 SAID35 WAGB 300830 METAR WAGB 300830Z 00000KT 9999 SCT016 32/23 Q1009 NOSIG=  
30-Jul-2023 SAID35 WAGB 300900 METAR WAGB 300900Z 00000KT 9999 SCT015 33/23 Q1009 NOSIG=  
30-Jul-2023 SAID35 WAGB 300930 METAR WAGB 300930Z 00000KT 9999 SCT015 33/23 Q1009 NOSIG=  
30-Jul-2023 SAID35 WAGB 301000 METAR WAGB 301000Z 00000KT 9999 FEW015 32/25 Q1009 NOSIG=  
30-Jul-2023 SAID35 WAGB 301030 METAR WAGB 301030Z 00000KT 9999 FEW015 31/25 Q1009 NOSIG=  
30-Jul-2023 SAID35 WAGB 301100 METAR WAGB 301100Z 00000KT 9999 FEW014 29/24 Q1010 NOSIG=  
30-Jul-2023 SAID35 WAGB 301130 METAR WAGB 301130Z 00000KT 9999 FEW014 29/24 Q1010 NOSIG=  
30-Jul-2023 SAID35 WAGB 301200 METAR WAGB 301200Z 00000KT 8000 FEW014 28/25 Q1010=  
30-Jul-2023 SAID35 WAGB 301200 CCA METAR WAGB 301200Z 00000KT 8000 FEW014 28/25 Q1010 NOSIG=  
30-Jul-2023 SAID35 WAGB 301230 METAR WAGB 301230Z 00000KT 8000 FEW014 28/25 Q1010=  
30-Jul-2023 SAID35 WAGB 301230 CCA METAR WAGB 301230Z 00000KT 8000 FEW014 28/25 Q1010 NOSIG=  
30-Jul-2023 SAID35 WAGB 301300 METAR WAGB 301300Z 00000KT 6000 FEW014 26/24 Q1011=  
30-Jul-2023 SAID35 WAGB 301300 CCA METAR WAGB 301300Z 00000KT 6000 FEW014 26/24 Q1011 NOSIG=  
30-Jul-2023 SAID35 WAGB 301330 METAR WAGB 301330Z 00000KT 6000 FEW014 26/24 Q1011=  
30-Jul-2023 SAID35 WAGB 301330 CCA METAR WAGB 301330Z 00000KT 6000 FEW014 26/24 Q1011 NOSIG=  
30-Jul-2023 SAID35 WAGB 301400 METAR WAGB 301400Z 00000KT 6000 SCT012 26/24 Q1011=  
30-Jul-2023 SAID35 WAGB 301400 CCA METAR WAGB 301400Z 00000KT 6000 SCT012 26/24 Q1011 NOSIG=  
30-Jul-2023 SAID35 WAGB 301430 CCA METAR WAGB 301430Z 00000KT 6000 SCT012 26/24 Q1011 NOSIG=  
30-Jul-2023 SAID35 WAGB 301500 METAR WAGB 301500Z 00000KT 6000 SCT012 26/24 Q1012=  
30-Jul-2023 SAID35 WAGB 301500 CCA METAR WAGB 301500Z 00000KT 6000 SCT012 26/24 Q1012 NOSIG=  
30-Jul-2023 SAID35 WAGB 301530 METAR WAGB 301530Z 00000KT 6000 SCT012 26/24 Q1012=  
30-Jul-2023 SAID35 WAGB 301530 CCA METAR WAGB 301530Z 00000KT 6000 SCT012 26/24 Q1012 NOSIG=  
30-Jul-2023 SAID35 WAGB 301600 METAR WAGB 301600Z 00000KT 5000 SCT012 25/24 Q1012=  
30-Jul-2023 SAID35 WAGB 301600 CCA METAR WAGB 301600Z 00000KT 5000 SCT012 25/24 Q1012 NOSIG=  
30-Jul-2023 SAID35 WAGB 301630 METAR WAGB 301630Z 00000KT 5000 SCT012 25/24 Q1012=  
30-Jul-2023 SAID35 WAGB 301630 CCA METAR WAGB 301630Z 00000KT 5000 SCT012 25/24 Q1012 NOSIG=  
30-Jul-2023 SAID35 WAGB 301700 METAR WAGB 301700Z 00000KT 5000 SCT012 25/24 Q1011=  
30-Jul-2023 SAID35 WAGB 301700 CCA METAR WAGB 301700Z 00000KT 5000 SCT012 25/24 Q1011 NOSIG=  
30-Jul-2023 SAID35 WAGB 301730 METAR WAGB 301730Z 00000KT 5000 SCT012 25/24 Q1011=  
30-Jul-2023 SAID35 WAGB 301730 CCA METAR WAGB 301730Z 00000KT 5000 SCT012 25/24 Q1011 NOSIG=  
30-Jul-2023 SAID35 WAGB 301800 METAR WAGB 301800Z 00000KT 5000 SCT012 24/23 Q1011 NOSIG=  
30-Jul-2023 SAID35 WAGB 301830 METAR WAGB 301830Z 00000KT 5000 SCT012 24/23 Q1011 NOSIG=  
30-Jul-2023 SAID35 WAGB 301900 METAR WAGB 301900Z 00000KT 4000 BR SCT012 24/23 Q1011 NOSIG=  
30-Jul-2023 SAID35 WAGB 301900 CCA METAR WAGB 301900Z 00000KT 4000 BR SCT012 24/23 Q1011=  
30-Jul-2023 SAID35 WAGB 301930 METAR WAGB 301930Z 00000KT 4000 BR SCT012 24/23 Q1011 NOSIG=  
30-Jul-2023 SAID35 WAGB 301930 CCA METAR WAGB 301930Z 00000KT 4000 BR SCT012 24/23 Q1011=  
30-Jul-2023 SAID35 WAGB 302000 METAR WAGB 302000Z 00000KT 4000 BR SCT012 24/23 Q1011 NOSIG=  
30-Jul-2023 SAID35 WAGB 302000 CCA METAR WAGB 302000Z 00000KT 4000 BR SCT012 24/23 Q1011=  
30-Jul-2023 SAID35 WAGB 302030 METAR WAGB 302030Z 00000KT 4000 BR SCT012 24/23 Q1011 NOSIG=  
30-Jul-2023 SAID35 WAGB 302030 CCA METAR WAGB 302030Z 00000KT 4000 BR SCT012 24/23 Q1011=  
30-Jul-2023 SAID35 WAGB 302100 METAR WAGB 302100Z 00000KT 4000 BR SCT012 24/23 Q1011 NOSIG=  
30-Jul-2023 SAID35 WAGB 302100 CCA METAR WAGB 302100Z 00000KT 4000 BR SCT012 24/23 Q1011=  
30-Jul-2023 SAID35 WAGB 302130 METAR WAGB 302130Z 00000KT 4000 BR SCT012 24/23 Q1011 NOSIG=  
30-Jul-2023 SAID35 WAGB 302130 CCA METAR WAGB 302130Z 00000KT 4000 BR SCT012 24/23 Q1011=  
30-Jul-2023 SAID35 WAGB 302200 METAR WAGB 302200Z 00000KT 4000 BR SCT012 24/23 Q1011 NOSIG=  
30-Jul-2023 SAID35 WAGB 302200 CCA METAR WAGB 302200Z 00000KT 4000 BR SCT012 24/23 Q1011=  
30-Jul-2023 SAID35 WAGB 302230 METAR WAGB 302230Z 00000KT 4000 BR SCT012 24/23 Q1011 NOSIG=  
30-Jul-2023 SAID35 WAGB 302230 CCA METAR WAGB 302230Z 00000KT 4000 BR SCT012 24/23 Q1011=  
30-Jul-2023 SAID35 WAGB 302300 METAR WAGB 302300Z 00000KT 4000 BR SCT009 23/22 Q1012=  
30-Jul-2023 SAID35 WAGB 302300 CCA METAR WAGB 302300Z 00000KT 4000 BR SCT009 23/22 Q1012 NOSIG=  
31-Jul-2023 SAID35 WAGB 310000 METAR WAGB 310000Z 33003KT 9000 FEW009 25/23 Q1012 NOSIG=  
31-Jul-2023 SAID35 WAGB 310030 METAR WAGB 310000Z 33003KT 9999 FEW009 25/23 Q1012 NOSIG=  
31-Jul-2023 SAID35 WAGB 310100 METAR WAGB 310100Z 35005KT 9999 FEW009 27/23 Q1012 NOSIG=  
31-Jul-2023 SAID35 WAGB 310130 METAR WAGB 310130Z 33005KT 9999 FEW011 28/23 Q1012 NOSIG=  
31-Jul-2023 SAID35 WAGB 310200 METAR WAGB 310200Z 35004KT 9999 FEW011 28/23 Q1012 NOSIG=  
31-Jul-2023 SAID35 WAGB 310230 METAR WAGB 310230Z 32002KT 9999 FEW012 30/23 Q1012 NOSIG=  
31-Jul-2023 SAID35 WAGB 310300 METAR WAGB 310300Z 32003KT 9999 SCT012 29/23 Q1012 NOSIG=  
31-Jul-2023 SAID35 WAGB 310330 METAR WAGB 310330Z 05004KT 9999 BKN013 30/23 Q1011 NOSIG=  
31-Jul-2023 SAID35 WAGB 310400 METAR WAGB 310400Z 29004KT 9999 BKN013 31/23 Q1011 NOSIG=  
31-Jul-2023 SAID35 WAGB 310430 METAR WAGB 310430Z 35004KT 9999 BKN014 31/23 Q1010 NOSIG=  
31-Jul-2023 SAID35 WAGB 310500 METAR WAGB 310500Z 28007KT 9999 BKN014 32/22 Q1010 NOSIG=  
31-Jul-2023 SAID35 WAGB 310530 METAR WAGB 310530Z 00000KT 9999 BKN014 31/22 Q1010 NOSIG=  
31-Jul-2023 SAID35 WAGB 310600 METAR WAGB 310600Z 18003KT 9999 BKN014 32/22 Q1009 NOSIG=  
31-Jul-2023 SAID35 WAGB 310630 METAR WAGB 310630Z 00000KT 9999 SCT015 32/22 Q1009 NOSIG=  
31-Jul-2023 SAID35 WAGB 310700 METAR WAGB 310700Z 00000KT 9999 SCT015 32/22 Q1009 NOSIG=  
31-Jul-2023 SAID35 WAGB 310730 METAR WAGB 310730Z 18003KT 9999 SCT015 31/22 Q1008 NOSIG=  
31-Jul-2023 SAID35 WAGB 310800 METAR WAGB 310800Z 00000KT 9999 SCT016 31/22 Q1008 NOSIG=  
31-Jul-2023 SAID35 WAGB 310830 METAR WAGB 310830Z 00000KT 9999 SCT016 31/22 Q1008 NOSIG=  
31-Jul-2023 SAID35 WAGB 310900 METAR WAGB 310900Z 00000KT 9999 SCT016 31/23 Q1008 NOSIG=  
31-Jul-2023 SAID35 WAGB 311000 METAR WAGB 311000Z 00000KT 9999 FEW013 31/25 Q1009 NOSIG=  
31-Jul-2023 SAID35 WAGB 311030 METAR WAGB 311030Z 00000KT 9999 FEW014 30/25 Q1009 NOSIG=  
31-Jul-2023 SAID35 WAGB 311100 METAR WAGB 311100Z 00000KT 9999 FEW013 30/25 Q1009 NOSIG=  
31-Jul-2023 SAID35 WAGB 311130 METAR WAGB 311130Z 00000KT 9999 FEW013 29/25 Q1010 NOSIG=  
31-Jul-2023 SAID35 WAGB 311200 METAR WAGB 311200Z 00000KT 8000 SCT013 28/25 Q1010=  
31-Jul-2023 SAID35 WAGB 311230 METAR WAGB 311230Z 00000KT 8000 FEW013 28/25 Q1010=  
31-Jul-2023 SAID35 WAGB 311300 METAR WAGB 311300Z 00000KT 8000 FEW013 27/25 Q1011=  
31-Jul-2023 SAID35 WAGB 311330 METAR WAGB 311330Z 00000KT 8000 FEW013 27/25 Q1011=  
31-Jul-2023 SAID35 WAGB 311400 METAR WAGB 311400Z 00000KT 8000 FEW013 26/25 Q1011=  
31-Jul-2023 SAID35 WAGB 311430 METAR WAGB 311430Z 00000KT 8000 FEW013 26/25 Q1011=  
31-Jul-2023 SAID35 WAGB 311500 METAR WAGB 311500Z 00000KT 7000 FEW012 26/25 Q1011=  
31-Jul-2023 SAID35 WAGB 311530 METAR WAGB 311530Z 00000KT 7000 FEW012 26/25 Q1011=  
31-Jul-2023 SAID35 WAGB 311600 METAR WAGB 311600Z 00000KT 7000 FEW012 25/24 Q1011=  
31-Jul-2023 SAID35 WAGB 311630 METAR WAGB 311630Z 00000KT 7000 FEW012 25/24 Q1011=  
31-Jul-2023 SAID35 WAGB 311700 METAR WAGB 311700Z 00000KT 6000 FEW012 25/24 Q1011=  
31-Jul-2023 SAID35 WAGB 311730 METAR WAGB 311730Z 00000KT 6000 FEW012 25/24 Q1011=  
31-Jul-2023 SAID35 WAGB 311800 METAR WAGB 311800Z 00000KT 6000 FEW012 24/24 Q1010=  
31-Jul-2023 SAID35 WAGB 311830 METAR WAGB 311830Z 00000KT 6000 FEW012 24/24 Q1010=  
31-Jul-2023 SAID35 WAGB 311900 METAR WAGB 311900Z 00000KT 6000 FEW012 24/23 Q1010=  
31-Jul-2023 SAID35 WAGB 311930 METAR WAGB 311930Z 00000KT 6000 FEW012 24/23 Q1010=  
31-Jul-2023 SAID35 WAGB 312000 METAR WAGB 312000Z 00000KT 6000 FEW012 24/23 Q1010=  
31-Jul-2023 SAID35 WAGB 312030 METAR WAGB 312030Z 00000KT 6000 FEW012 24/23 Q1010=  
31-Jul-2023 SAID35 WAGB 312100 METAR WAGB 312100Z 00000KT 6000 FEW012 24/23 Q1010=  
31-Jul-2023 SAID35 WAGB 312130 METAR WAGB 312130Z 00000KT 6000 FEW012 24/23 Q1010=  
31-Jul-2023 SAID35 WAGB 312200 METAR WAGB 312200Z 00000KT 6000 BKN011 24/23 Q1011=  
31-Jul-2023 SAID35 WAGB 312230 METAR WAGB 312230Z 00000KT 6000 BKN011 24/23 Q1011=  
31-Jul-2023 SAID35 WAGB 312300 METAR WAGB 312300Z 00000KT 4000 BR BKN010 24/23 Q1011=  
31-Jul-2023 SAID35 WAGB 312330 METAR WAGB 312330Z 00000KT 4000 BR BKN010 24/23 Q1011=  
01-Aug-2023 SAID35 WAGB 010000 METAR WAGB 010000Z 00000KT 5000 HZ SCT015 25/23 Q1012 NOSIG=  
01-Aug-2023 SAID35 WAGB 010030 METAR WAGB 010030Z 00000KT 8000 FEW011 25/24 Q1012 NOSIG=  
01-Aug-2023 SAID35 WAGB 010100 METAR WAGB 010100Z 36003KT 9999 FEW011 27/24 Q1012 NOSIG=  
01-Aug-2023 SAID35 WAGB 010130 METAR WAGB 010130Z 36002KT 9999 FEW012 28/24 Q1012 NOSIG=  
01-Aug-2023 SAID35 WAGB 010200 METAR WAGB 010200Z 29003KT 9999 FEW011 30/25 Q1012 NOSIG=  
01-Aug-2023 SAID35 WAGB 010230 METAR WAGB 010230Z 00000KT 9999 FEW012 30/25 Q1012 NOSIG=  
01-Aug-2023 SAID35 WAGB 010300 METAR WAGB 010300Z 30002KT 9999 BKN012 30/24 Q1011 NOSIG=  
01-Aug-2023 SAID35 WAGB 010330 METAR WAGB 010330Z 05003KT 9999 BKN013 31/24 Q1011 NOSIG=  
01-Aug-2023 SAID35 WAGB 010400 METAR WAGB 010400Z 03003KT 9999 BKN013 31/23 Q1010 NOSIG=  
01-Aug-2023 SAID35 WAGB 010430 METAR WAGB 010430Z 00000KT 9999 BKN013 31/24 Q1010 NOSIG=  
01-Aug-2023 SAID35 WAGB 010500 METAR WAGB 010500Z VRB03KT 9999 BKN013 Q1010 NOSIG=  
01-Aug-2023 SAID35 WAGB 010500 CCA METAR WAGB 010500Z VRB03KT 9999 BKN013 32/23 Q1010 NOSIG=  
01-Aug-2023 SAID35 WAGB 010530 METAR WAGB 010530Z 11004KT 9999 BKN013 32/23 Q1009 NOSIG=  
01-Aug-2023 SAID35 WAGB 010600 METAR WAGB 010600Z 27003KT 9999 BKN013 33/23 Q1009 NOSIG=  
01-Aug-2023 SAID35 WAGB 010630 METAR WAGB 010630Z 19005KT 9999 SCT013 33/23 Q1008 NOSIG=  
01-Aug-2023 SAID35 WAGB 010700 METAR WAGB 010700Z 00000KT 9999 SCT013 33/23 Q1008 NOSIG=  
01-Aug-2023 SAID35 WAGB 010730 METAR WAGB 010730Z 00000KT 9999 SCT013 34/23 Q1008 NOSIG=  
01-Aug-2023 SAID35 WAGB 010800 METAR WAGB 010800Z 00000KT 9999 BKN013 34/24 Q1008 NOSIG=  
01-Aug-2023 SAID35 WAGB 010830 METAR WAGB 010830Z 00000KT 9999 BKN013 34/24 Q1008 NOSIG=  
01-Aug-2023 SAID35 WAGB 010900 METAR WAGB 010900Z 00000KT 9999 BKN013 34/25 Q1008 NOSIG=  
01-Aug-2023 SAID35 WAGB 010930 METAR WAGB 010930Z 00000KT 9999 BKN013 34/25 Q1008 NOSIG=  
01-Aug-2023 SAID35 WAGB 011000 METAR WAGB 011000Z 00000KT 9999 FEW013 32/26 Q1008 NOSIG=  
01-Aug-2023 SAID35 WAGB 011030 METAR WAGB 011030Z 00000KT 9999 FEW013 32/26 Q1008 NOSIG=  
01-Aug-2023 SAID35 WAGB 011100 METAR WAGB 011100Z 00000KT 9999 FEW013 31/27 Q1009 NOSIG=  
01-Aug-2023 SAID35 WAGB 011130 METAR WAGB 011130Z 00000KT 9999 FEW013 31/27 Q1009 NOSIG=  
01-Aug-2023 SAID35 WAGB 011200 METAR WAGB 011200Z 00000KT 8000 FEW013 29/26 Q1009=  
01-Aug-2023 SAID35 WAGB 011230 METAR WAGB 011230Z 00000KT 8000 FEW013 28/26 Q1010=  
01-Aug-2023 SAID35 WAGB 011300 METAR WAGB 011300Z 00000KT 8000 FEW013 28/25 Q1010=  
01-Aug-2023 SAID35 WAGB 011330 METAR WAGB 011330Z 00000KT 8000 FEW013 28/25 Q1011=  
01-Aug-2023 SAID35 WAGB 011400 METAR WAGB 011400Z 00000KT 8000 FEW013 27/25 Q10111=  
01-Aug-2023 SAID35 WAGB 011430 METAR WAGB 011430Z 00000KT 8000 FEW013 27/26 Q1011=  
01-Aug-2023 SAID35 WAGB 011500 METAR WAGB 011500Z 00000KT 6000 FEW013 27/26 Q1011=  
01-Aug-2023 SAID35 WAGB 011530 METAR WAGB 011530Z 00000KT 6000 FEW013 27/26 Q1011=  
01-Aug-2023 SAID35 WAGB 011600 METAR WAGB 011600Z 00000KT 6000 FEW012 27/26 Q1011=  
01-Aug-2023 SAID35 WAGB 011630 METAR WAGB 011630Z 00000KT 6000 FEW012 27/26 Q1011=  
01-Aug-2023 SAID35 WAGB 011700 METAR WAGB 011700Z 00000KT 6000 FEW012 27/25 Q1011=  
01-Aug-2023 SAID35 WAGB 011730 METAR WAGB 011730Z 00000KT 6000 FEW012 27/25 Q1012=  
01-Aug-2023 SAID35 WAGB 011800 METAR WAGB 011800Z 00000KT 6000 SCT012 26/25 Q1011=  
01-Aug-2023 SAID35 WAGB 011830 METAR WAGB 011830Z 00000KT 6000 SCT012 26/25 Q1011=  
01-Aug-2023 SAID35 WAGB 011900 METAR WAGB 011900Z 00000KT 6000 SCT012 26/25 Q1011=  
01-Aug-2023 SAID35 WAGB 011930 METAR WAGB 011930Z 00000KT 6000 SCT012 26/25 Q1011=  
01-Aug-2023 SAID35 WAGB 012000 METAR WAGB 012000Z 00000KT 6000 SCT012 26/25 Q1010=  
01-Aug-2023 SAID35 WAGB 012030 METAR WAGB 012030Z 00000KT 6000 SCT012 26/25 Q1010=  
01-Aug-2023 SAID35 WAGB 012100 METAR WAGB 012100Z 00000KT 4000 BR FEW011 25/25 Q1011=  
01-Aug-2023 SAID35 WAGB 012130 METAR WAGB 012130Z 00000KT 4000 BR FEW011 25/25 Q1011=  
01-Aug-2023 SAID35 WAGB 012200 METAR WAGB 012200Z 00000KT 4000 BR FEW011 25/25 Q1011=  
01-Aug-2023 SAID35 WAGB 012230 METAR WAGB 012230Z 00000KT 4000 BR FEW011 25/25 Q1011=  
01-Aug-2023 SAID35 WAGB 012300 METAR WAGB 012300Z 00000KT 4000 BR FEW011 25/24 Q1012=  
01-Aug-2023 SAID35 WAGB 012330 METAR WAGB 012330Z 00000KT 4000 BR SCT011 25/24 Q1013=  
02-Aug-2023 SAID35 WAGB 020000 METAR WAGB 020000Z 00000KT 5000 HZ BKN010 26/25 Q1013=  
02-Aug-2023 SAID35 WAGB 020030 METAR WAGB 020030Z 25003KT 5000 HZ BKN010 27/25 Q1013 BECMG TL0115 8000 NSW=  
02-Aug-2023 SAID35 WAGB 020100 METAR WAGB 020100Z 22002KT 6000 BKN010 27/25 Q1013 NOSIG=  
02-Aug-2023 SAID35 WAGB 020130 METAR WAGB 020130Z 10003KT 6000 BKN010 28/25 Q1013=  
02-Aug-2023 SAID35 WAGB 020200 METAR WAGB 020200Z 28003KT 7000 BKN010 29/25 Q1013=  
02-Aug-2023 SAID35 WAGB 020230 METAR WAGB 020230Z 00000KT 7000 BKN010 29/25 Q1013=  
02-Aug-2023 SAID35 WAGB 020300 METAR WAGB 020300Z 32003KT 8000 BKN011 29/25 Q1013 NOSIG=  
02-Aug-2023 SAID35 WAGB 030000 METAR WAGB 020300Z 00000KT 9000 NSC 25/24 Q1014 NOSIG=  
02-Aug-2023 SAID35 WAGB 020330 METAR WAGB 020330Z 31003KT 8000 BKN011 30/25 Q1013 NOSIG=  
02-Aug-2023 SAID35 WAGB 020400 METAR WAGB 020400Z 35002KT 9999 BKN012 31/24 Q1012 NOSIG=  
02-Aug-2023 SAID35 WAGB 020430 METAR WAGB 020430Z 27003KT 9999 BKN012 32/24 Q1012 NOSIG=  
02-Aug-2023 SAID35 WAGB 020500 METAR WAGB 020500Z 03002KT 9999 BKN012 33/24 Q1012 NOSIG=  
02-Aug-2023 SAID35 WAGB 020530 METAR WAGB 020530Z 20005KT 9999 FEW012TCU BKN013 33/24 Q1011 NOSIG=  
02-Aug-2023 SAID35 WAGB 020600 METAR WAGB 020600Z 34004KT 9999 FEW012TCU BKN013 31/24 Q1011 NOSIG=  
02-Aug-2023 SAID35 WAGB 020630 METAR WAGB 020630Z 35010KT 8000 FEW012TCU BKN013 29/23 Q1010 NOSIG=  
02-Aug-2023 SPID33 WAGB 020635 SPECI WAGB 020635Z 34009KT 6000 FEW011TCU BKN012 29/24 Q1010=  
02-Aug-2023 SAID35 WAGB 020700 METAR WAGB 020700Z 35007KT 9000 FEW011TCU BKN012 27/25 Q1010 RERA NOSIG=  
02-Aug-2023 SAID35 WAGB 020730 METAR WAGB 020730Z 30004KT 9999 FEW012TCU BKN013 30/26 Q1010 NOSIG=  
02-Aug-2023 SAID35 WAGB 020800 METAR WAGB 020800Z 24002KT 9999 FEW012TCU SCT013 32/23 Q1009 NOSIG=  
02-Aug-2023 SAID35 WAGB 020830 METAR WAGB 020830Z 29003KT 9999 FEW012TCU SCT013 33/23 Q1009 NOSIG=  
02-Aug-2023 SAID35 WAGB 020900 METAR WAGB 020900Z 28004KT 9999 FEW012TCU SCT013 33/23 Q1009 NOSIG=  
02-Aug-2023 SAID35 WAGB 020930 METAR WAGB 020930Z 24003KT 9999 FEW015 32/26 Q1009 NOSIG=  
02-Aug-2023 SAID35 WAGB 020930 CCA METAR WAGB 020930Z 24003KT 9999 FEW015 32/26 Q1010 NOSIG=  
02-Aug-2023 SAID35 WAGB 021000 METAR WAGB 021000Z 00000KT 9999 FEW014TCU FEW015 32/26 Q1010 NOSIG=  
02-Aug-2023 SAID35 WAGB 021030 METAR WAGB 021030Z 00000KT 9999 FEW014TCU FEW015 32/26 Q1010 NOSIG=  
02-Aug-2023 SAID35 WAGB 021100 METAR WAGB 021100Z 00000KT 9000 FEW014CB FEW015 30/26 Q1010 NOSIG=  
02-Aug-2023 SAID35 WAGB 021130 METAR WAGB 021130Z 00000KT 9000 FEW014CB FEW015 30/27 Q1010 NOSIG=  
02-Aug-2023 SAID35 WAGB 021130 CCA METAR WAGB 021130Z 00000KT 9000 FEW014CB FEW015 30/27 Q1011 NOSIG=  
02-Aug-2023 SAID35 WAGB 021200 METAR WAGB 021200Z 00000KT 8000 FEW014CB 29/26 Q1011=  
02-Aug-2023 SAID35 WAGB 021230 METAR WAGB 021230Z 00000KT 8000 FEW014CB 28/26 Q1012=  
02-Aug-2023 SAID35 WAGB 021300 METAR WAGB 021300Z 00000KT 7000 FEW013CB 28/26 Q1012=  
02-Aug-2023 SAID35 WAGB 021330 METAR WAGB 021330Z 00000KT 7000 FEW013CB 28/26 Q1013=  
02-Aug-2023 SAID35 WAGB 021400 METAR WAGB 021400Z 00000KT 7000 FEW013 27/25 Q1013=  
02-Aug-2023 SAID35 WAGB 021430 METAR WAGB 021430Z 00000KT 7000 FEW013 27/25 Q1013=  
02-Aug-2023 SAID35 WAGB 021500 METAR WAGB 021500Z 00000KT 6000 FEW012 27/25 Q1014=  
02-Aug-2023 SAID35 WAGB 021530 METAR WAGB 021530Z 00000KT 6000 FEW012 26/25 Q1013=  
02-Aug-2023 SAID35 WAGB 021600 METAR WAGB 021600Z 00000KT 6000 FEW012 26/25 Q1013=  
02-Aug-2023 SAID35 WAGB 021630 METAR WAGB 021630Z 00000KT 6000 FEW012 26/25 Q1013=  
02-Aug-2023 SAID35 WAGB 021700 METAR WAGB 021700Z 00000KT 6000 FEW012 26/25 Q1013=  
02-Aug-2023 SAID35 WAGB 021730 METAR WAGB 021730Z 00000KT 6000 FEW012 26/25 Q1013=  
02-Aug-2023 SAID35 WAGB 021800 METAR WAGB 021800Z 00000KT 6000 FEW012 25/24 Q1013=  
02-Aug-2023 SAID35 WAGB 021830 METAR WAGB 021830Z 00000KT 6000 FEW012 25/24 Q1013=  
02-Aug-2023 SAID35 WAGB 021900 METAR WAGB 021900Z 00000KT 6000 FEW011 25/24 Q1012=  
02-Aug-2023 SAID35 WAGB 021930 METAR WAGB 021930Z 00000KT 6000 FEW011 25/24 Q1012=  
02-Aug-2023 SAID35 WAGB 022000 METAR WAGB 022000Z 00000KT 6000 FEW011 25/24 Q1012=  
02-Aug-2023 SAID35 WAGB 022100 METAR WAGB 022100Z 00000KT 6000 FEW011 24/24 Q1013=  
02-Aug-2023 SAID35 WAGB 022130 METAR WAGB 022130Z 00000KT 6000 FEW011 24/24 Q1013=  
02-Aug-2023 SAID35 WAGB 022200 METAR WAGB 022200Z 00000KT 6000 FEW011 24/24 Q1013=  
02-Aug-2023 SAID35 WAGB 022230 METAR WAGB 022230Z 00000KT 6000 FEW011 24/24 Q1013=  
02-Aug-2023 SAID35 WAGB 022300 METAR WAGB 022300Z 00000KT 8000 FEW011 24/23 Q1013=  
02-Aug-2023 SAID35 WAGB 022330 METAR WAGB 022330Z 00000KT 8000 FEW011 24/23 Q1014=  
03-Aug-2023 SAID35 WAGB 030000 METAR WAGB 030000Z 00000KT 9000 NSC 25/23 Q1014 NOSIG=  
03-Aug-2023 SAID35 WAGB 030030 METAR WAGB 030030Z 24003KT 9000 NSC 26/23 Q1013 NOSIG=  
03-Aug-2023 SAID35 WAGB 030100 METAR WAGB 030100Z 26005KT 9999 FEW010 28/24 Q1014 NOSIG=  
03-Aug-2023 SAID35 WAGB 030700 METAR WAGB 030070Z 14004KT 9999 FEW014 35/21 Q1010 NOSIG=  
03-Aug-2023 SAID35 WAGB 030130 METAR WAGB 030130Z 22005KT 9999 FEW010 29/24 Q1014 NOSIG=  
03-Aug-2023 SAID35 WAGB 030200 METAR WAGB 030200Z VRB02KT 9999 FEW011 29/23 Q1014 NOSIG=  
03-Aug-2023 SAID35 WAGB 030230 METAR WAGB 030230Z 24003KT 9999 FEW011 30/24 Q1013 NOSIG=  
03-Aug-2023 SAID35 WAGB 030300 METAR WAGB 030300Z 00000KT 9999 FEW012 32/24 Q1013 NOSIG=  
03-Aug-2023 SAID35 WAGB 030330 METAR WAGB 030330Z 35003KT 9999 SCT012 32/24 Q1013 NOSIG=  
03-Aug-2023 SAID35 WAGB 030400 METAR WAGB 030400Z 24003KT 9999 SCT013 31/24 Q1012 NOSIG=  
03-Aug-2023 SAID35 WAGB 030430 METAR WAGB 030430Z VRB02KT 9999 SCT013 32/23 Q1012 NOSIG=  
03-Aug-2023 SAID35 WAGB 030500 METAR WAGB 030500Z 11003KT 9999 SCT013 34/22 Q1011 NOSIG=  
03-Aug-2023 SAID35 WAGB 030530 METAR WAGB 030530Z 13002KT 9999 SCT014 35/22 Q1011 NOSIG=  
03-Aug-2023 SAID35 WAGB 030600 METAR WAGB 030600Z 22005KT 9999 SCT014 34/22 Q1018 NOSIG=  
03-Aug-2023 SAID35 WAGB 030630 METAR WAGB 030630Z 14003KT 9999 FEW014 34/21 Q1010 NOSIG=  
03-Aug-2023 SAID35 WAGB 030700 METAR WAGB 030700Z 14004KT 9999 FEW014 35/21 Q1010 NOSIG=  
03-Aug-2023 SAID35 WAGB 030730 METAR WAGB 030730Z 00000KT 9999 FEW014 34/21 Q1019 NOSIG=  
03-Aug-2023 SAID35 WAGB 030800 METAR WAGB 030800Z 19004KT 9999 FEW015 35/21 Q1009 NOSIG=  
03-Aug-2023 SAID35 WAGB 030830 METAR WAGB 030830Z 22004KT 9999 FEW015 34/20 Q1009 NOSIG=  
03-Aug-2023 SAID35 WAGB 030900 METAR WAGB 030900Z 23004KT 9999 FEW015 34/20 Q1009 NOSIG=  
03-Aug-2023 SAID35 WAGB 030930 METAR WAGB 030930Z 00000KT 9999 SCT014 34/24 Q1010 NOSIG=  
03-Aug-2023 SAID35 WAGB 031000 METAR WAGB 031000Z 00000KT 9999 SCT014 34/25 Q1010 NOSIG=  
03-Aug-2023 SAID35 WAGB 031030 METAR WAGB 031030Z 00000KT 9999 SCT014 34/25 Q1010 NOSIG=  
03-Aug-2023 SAID35 WAGB 031100 METAR WAGB 031100Z 00000KT 9999 FEW014 31/25 Q1011 NOSIG=  
03-Aug-2023 SAID35 WAGB 031130 METAR WAGB 031130Z 00000KT 9999 FEW014 31/25 Q1011 NOSIG=  
03-Aug-2023 SAID35 WAGB 031200 METAR WAGB 031200Z 00000KT 8000 SCT014 29/26 Q1012=  
03-Aug-2023 SAID35 WAGB 031230 METAR WAGB 031230Z 00000KT 8000 SCT014 29/26 Q1012=  
03-Aug-2023 SAID35 WAGB 031300 METAR WAGB 031300Z 00000KT 8000 SCT014 28/25 Q1013=  
03-Aug-2023 SAID35 WAGB 031330 METAR WAGB 031330Z 00000KT 8000 SCT014 28/25 Q1013=  
03-Aug-2023 SAID35 WAGB 031400 METAR WAGB 031400Z 00000KT 8000 SCT014 27/25 Q1013=  
03-Aug-2023 SAID35 WAGB 031430 METAR WAGB 031430Z 00000KT 8000 SCT014 27/25 Q1014=  
03-Aug-2023 SAID35 WAGB 031500 METAR WAGB 031500Z 00000KT 7000 SCT014 27/24 Q1014=  
03-Aug-2023 SAID35 WAGB 031530 METAR WAGB 031530Z 00000KT 7000 SCT014 27/24 Q1014=  
03-Aug-2023 SAID35 WAGB 031600 METAR WAGB 031600Z 00000KT 7000 SCT013 26/24 Q1014=  
03-Aug-2023 SAID35 WAGB 031630 METAR WAGB 031630Z 00000KT 7000 SCT013 26/24 Q1014=  
03-Aug-2023 SAID35 WAGB 031700 METAR WAGB 031700Z 00000KT 7000 SCT013 26/24 Q1014=  
03-Aug-2023 SAID35 WAGB 031730 METAR WAGB 031730Z 00000KT 7000 SCT013 26/24 Q1014=  
03-Aug-2023 SAID35 WAGB 031800 METAR WAGB 031800Z 00000KT 6000 FEW012 25/24 Q1013=  
03-Aug-2023 SAID35 WAGB 031830 METAR WAGB 031830Z 00000KT 6000 FEW012 25/24 Q1013=  
03-Aug-2023 SAID35 WAGB 031900 METAR WAGB 031900Z VRB02KT 6000 FEW012 25/24 Q1013=  
03-Aug-2023 SAID35 WAGB 031930 METAR WAGB 031930Z 00000KT 6000 FEW012 25/24 Q1013=  
03-Aug-2023 SAID35 WAGB 032000 METAR WAGB 032000Z 00000KT 6000 FEW012 25/24 Q1013=  
03-Aug-2023 SAID35 WAGB 032030 METAR WAGB 032030Z 00000KT 6000 FEW012 25/24 Q1013=  
03-Aug-2023 SAID35 WAGB 032100 METAR WAGB 032100Z 00000KT 5000 HZ SCT011 24/23 Q1014=  
03-Aug-2023 SAID35 WAGB 032130 METAR WAGB 032130Z 00000KT 5000 HZ SCT011 24/23 Q1014=  
03-Aug-2023 SAID35 WAGB 032200 METAR WAGB 032200Z 00000KT 5000 HZ SCT011 24/23 Q1014=  
03-Aug-2023 SAID35 WAGB 032230 METAR WAGB 032230Z 00000KT 5000 HZ SCT011 24/23 Q1014=  
03-Aug-2023 SAID35 WAGB 032300 METAR WAGB 032300Z 00000KT 5000 HZ FEW011 24/23 Q1015=  
03-Aug-2023 SAID35 WAGB 032330 METAR WAGB 032330Z 00000KT 5000 HZ FEW011 24/23 Q1015=  
04-Aug-2023 SAID35 WAGB 040000 METAR WAGB 040000Z 00000KT 8000 FEW011 26/24 Q1015 NOSIG=  
04-Aug-2023 SAID35 WAGB 040030 METAR WAGB 040030Z 00000KT 8000 SCT011 26/24 Q1015 NOSIG=  
04-Aug-2023 SAID35 WAGB 040100 METAR WAGB 040100Z 00000KT 8000 BKN011 27/24 Q1015 NOSIG=  
04-Aug-2023 SAID35 WAGB 040130 METAR WAGB 040130Z 00000KT 8000 BKN011 27/24 Q1015 NOSIG=  
04-Aug-2023 SAID35 WAGB 040300 METAR WAGB 040300Z 00000KT 8000 BKN012 29/24 Q1015 NOSIG=  
04-Aug-2023 SAID35 WAGB 040330 METAR WAGB 040330Z 26004KT 9999 BKN012 30/24 Q1014 NOSIG=  
04-Aug-2023 SAID35 WAGB 040400 METAR WAGB 040400Z 27005KT 9999 BKN012 30/24 Q1014 NOSIG=  
04-Aug-2023 SAID35 WAGB 040430 METAR WAGB 040430Z 00000KT 9999 BKN012 31/24 Q1014 NOSIG=  
04-Aug-2023 SAID35 WAGB 040500 METAR WAGB 040500Z 00000KT 9999 BKN012 31/24 Q1013 NOSIG=  
04-Aug-2023 SAID35 WAGB 040530 METAR WAGB 040530Z 00000KT 9999 BKN013 32/24 Q1013 NOSIG=  
04-Aug-2023 SAID35 WAGB 040600 METAR WAGB 040600Z 00000KT 9999 BKN013 33/25 Q1012 NOSIG=  
04-Aug-2023 SAID35 WAGB 040630 METAR WAGB 040630Z 00000KT 9999 BKN013 33/25 Q1012 NOSIG=  
04-Aug-2023 SAID35 WAGB 040700 METAR WAGB 040700Z 22004KT 9999 FEW013TCU SCT014 33/23 Q1011 NOSIG=  
04-Aug-2023 SAID35 WAGB 040730 METAR WAGB 040730Z 21003KT 9999 FEW013TCU SCT014 33/23 Q1011 NOSIG=  
04-Aug-2023 SAID35 WAGB 040800 METAR WAGB 040800Z 00000KT 9999 FEW013TCU BKN014 33/25 Q1011=  
04-Aug-2023 SAID35 WAGB 040830 METAR WAGB 040830Z 00000KT 9999 FEW013TCU BKN014 33/25 Q1011=  
04-Aug-2023 SAID35 WAGB 040900 METAR WAGB 040900Z 00000KT 9999 FEW013TCU FEW014 34/25 Q1011 NOSIG=  
04-Aug-2023 SAID35 WAGB 040930 METAR WAGB 040930Z 00000KT 9999 FEW013TCU FEW014 33/25 Q1012 NOSIG=  
04-Aug-2023 SAID35 WAGB 041000 METAR WAGB 041000Z 00000KT 9999 FEW013CB SCT014 32/25 Q1012 NOSIG=  
04-Aug-2023 SAID35 WAGB 041030 METAR WAGB 041030Z 00000KT 9999 FEW013CB SCT014 31/25 Q1012 NOSIG=  
04-Aug-2023 SAID35 WAGB 041100 METAR WAGB 041100Z 00000KT 9999 FEW013CB FEW014 31/26 Q1012 NOSIG=  
04-Aug-2023 SAID35 WAGB 041130 METAR WAGB 041130Z 00000KT 9999 FEW013CB FEW014 30/25 Q1013 NOSIG=  
04-Aug-2023 SAID35 WAGB 041200 METAR WAGB 041200Z 00000KT 8000 FEW013 29/26 Q1013=  
04-Aug-2023 SAID35 WAGB 041230 METAR WAGB 041230Z 00000KT 8000 FEW013 29/26 Q1013=  
04-Aug-2023 SAID35 WAGB 041300 METAR WAGB 041300Z 00000KT 8000 SCT013 28/26 Q1013=  
04-Aug-2023 SAID35 WAGB 041330 METAR WAGB 041330Z 00000KT 8000 SCT013 28/26 Q1014=  
04-Aug-2023 SAID35 WAGB 041400 METAR WAGB 041400Z 00000KT 8000 SCT012 28/26 Q1014=  
04-Aug-2023 SAID35 WAGB 041430 METAR WAGB 041430Z 00000KT 8000 SCT012 28/26 Q1014=  
04-Aug-2023 SAID35 WAGB 041500 METAR WAGB 041500Z 00000KT 8000 SCT012 28/26 Q1014=  
04-Aug-2023 SAID35 WAGB 041530 METAR WAGB 041530Z 00000KT 8000 SCT012 28/26 Q1014=  
04-Aug-2023 SAID35 WAGB 041600 METAR WAGB 041600Z 00000KT 8000 BKN012 27/26 Q1014=  
04-Aug-2023 SAID35 WAGB 041630 METAR WAGB 041630Z 00000KT 8000 BKN012 27/26 Q1014=  
04-Aug-2023 SAID35 WAGB 041700 METAR WAGB 041700Z 00000KT 6000 BKN012 26/25 Q1014=  
04-Aug-2023 SAID35 WAGB 041730 METAR WAGB 041730Z 00000KT 6000 BKN012 26/25 Q1014=  
04-Aug-2023 SAID35 WAGB 041800 METAR WAGB 041800Z 00000KT 6000 BKN012 26/25 Q1013=  
04-Aug-2023 SAID35 WAGB 041830 METAR WAGB 041830Z 00000KT 6000 BKN012 26/25 Q1013=  
04-Aug-2023 SAID35 WAGB 041900 METAR WAGB 041900Z 00000KT 5000 HZ BKN010 26/25 Q1013=  
04-Aug-2023 SAID35 WAGB 041930 METAR WAGB 041930Z 00000KT 5000 HZ BKN010 26/25 Q1013=  
04-Aug-2023 SAID35 WAGB 042000 METAR WAGB 042000Z 00000KT 5000 HZ BKN012 25/24 Q1013=  
04-Aug-2023 SAID35 WAGB 042030 CCA METAR WAGB 042030Z 00000KT 3000 RA BKN012 24/24 Q1014=  
04-Aug-2023 SAID35 WAGB 042030 METAR WAGB 042030Z 00000KT 3000 RA BKN012 24/24 Q1014=  
04-Aug-2023 SAID35 WAGB 042100 METAR WAGB 042100Z 00000KT 5000 HZ BKN011 25/24 Q1013=  
04-Aug-2023 SAID35 WAGB 042100 CCA METAR WAGB 042100Z 00000KT 4000 -RA BKN011 25/24 Q1014=  
04-Aug-2023 SAID35 WAGB 042130 METAR WAGB 042130Z 00000KT 5000 HZ BKN011 25/24 Q1013=  
04-Aug-2023 SAID35 WAGB 042200 METAR WAGB 042200Z 00000KT 5000 VCSH BKN011 26/25 Q1014=  
04-Aug-2023 SAID35 WAGB 042230 METAR WAGB 042230Z 00000KT 5000 VCSH BKN011 26/25 Q1014=  
04-Aug-2023 SAID35 WAGB 042300 METAR WAGB 042300Z 00000KT 5000 BR BKN010 26/25 Q1014=  
04-Aug-2023 SAID35 WAGB 042330 METAR WAGB 042330Z 00000KT 5000 BR BKN010 26/25 Q1015=  
05-Aug-2023 SAID35 WAGB 050000 METAR WAGB 050000Z 00000KT 5000 BR SCT009 26/25 Q1015 NOSIG=  
05-Aug-2023 SAID35 WAGB 050030 METAR WAGB 050030Z 00000KT 5000 SCT009 26/25 Q1015 NOSIG=  
05-Aug-2023 SAID35 WAGB 050100 METAR WAGB 050100Z 00000KT 6000 SCT010 27/25 Q1015 NOSIG=  
05-Aug-2023 SAID35 WAGB 050130 METAR WAGB 050130Z 00000KT 7000 SCT010 27/25 Q1015 NOSIG=  
05-Aug-2023 SAID35 WAGB 050200 METAR WAGB 050200Z 00000KT 7000 BKN010 27/25 Q1015 NOSIG=  
05-Aug-2023 SAID35 WAGB 050230 METAR WAGB 050230Z 00000KT 8000 BKN011 28/25 Q1015 NOSIG=  
05-Aug-2023 SAID35 WAGB 050300 METAR WAGB 050300Z 00000KT 9000 BKN011 30/25 Q1015 NOSIG=  
05-Aug-2023 SAID35 WAGB 050330 METAR WAGB 050330Z 35003KT 9999 BKN011 29/24 Q1014 NOSIG=  
05-Aug-2023 SAID35 WAGB 050400 METAR WAGB 050400Z 01003KT 9999 BKN012 29/25 Q1014 NOSIG=  
05-Aug-2023 SAID35 WAGB 050430 METAR WAGB 050430Z 29005KT 9999 BKN012 31/25 Q1013 NOSIG=  
05-Aug-2023 SAID35 WAGB 050500 METAR WAGB 050500Z 33005KT 9999 BKN012 32/25 Q1012 NOSIG=  
05-Aug-2023 SAID35 WAGB 050530 METAR WAGB 050530Z 34002KT 9999 SCT012 33/24 Q1012 NOSIG=  
05-Aug-2023 SAID35 WAGB 050600 METAR WAGB 050600Z 00000KT 9999 SCT012 32/25 Q1011 NOSIG=  
05-Aug-2023 SAID35 WAGB 050630 METAR WAGB 050630Z 28005KT 9999 BKN013 31/24 Q1011 NOSIG=  
05-Aug-2023 SAID35 WAGB 050700 METAR WAGB 050700Z 30005KT 9999 SCT013 34/24 Q1010 NOSIG=  
05-Aug-2023 SAID35 WAGB 050730 METAR WAGB 050730Z 35003KT 9999 SCT013 33/23 Q1010 NOSIG=  
05-Aug-2023 SAID35 WAGB 050800 METAR WAGB 050800Z 28003KT 9999 FEW014TCU BKN015 33/25 Q1010 NOSIG=  
05-Aug-2023 SAID35 WAGB 050830 METAR WAGB 050830Z 00000KT 9999 FEW014TCU SCT015 33/25 Q1009 NOSIG=  
05-Aug-2023 SAID35 WAGB 050900 METAR WAGB 050900Z 00000KT 9999 FEW015TCU SCT016 33/26 Q1010 NOSIG=  
05-Aug-2023 SAID35 WAGB 050930 METAR WAGB 050930Z 00000KT 9999 FEW015TCU SCT016 33/26 Q1010 NOSIG=  
05-Aug-2023 SAID35 WAGB 051000 METAR WAGB 051000Z 00000KT 9999 FEW015TCU FEW016 33/26 Q1010 NOSIG=  
05-Aug-2023 SAID35 WAGB 051030 METAR WAGB 051030Z 00000KT 9999 FEW015TCU FEW016 32/26 Q1011 NOSIG=  
05-Aug-2023 SAID35 WAGB 051100 METAR WAGB 051100Z 00000KT 9999 FEW016 31/26 Q1011 NOSIG=  
05-Aug-2023 SAID35 WAGB 051200 METAR WAGB 051200Z 00000KT 9000 FEW014 29/27 Q1012=  
05-Aug-2023 SAID35 WAGB 051230 METAR WAGB 051230Z 00000KT 9000 FEW014 29/27 Q1012=  
05-Aug-2023 SAID35 WAGB 051300 METAR WAGB 051300Z 00000KT 9000 FEW014 29/27 Q1011=  
05-Aug-2023 SAID35 WAGB 051330 METAR WAGB 051330Z 00000KT 9000 FEW014 29/27 Q1012=  
05-Aug-2023 SAID35 WAGB 051400 METAR WAGB 051400Z 00000KT 7000 FEW014 28/26 Q1012=  
05-Aug-2023 SAID35 WAGB 051430 METAR WAGB 051430Z 00000KT 7000 FEW014 28/26 Q1012=  
05-Aug-2023 SAID35 WAGB 051500 METAR WAGB 051500Z 00000KT 7000 FEW014 28/26 Q1013=  
05-Aug-2023 SAID35 WAGB 051530 METAR WAGB 051530Z 00000KT 7000 FEW014 28/26 Q1013=  
05-Aug-2023 SAID35 WAGB 051600 METAR WAGB 051600Z 00000KT 7000 FEW012 27/26 Q1013=  
05-Aug-2023 SAID35 WAGB 051630 METAR WAGB 051630Z 00000KT 7000 FEW012 27/26 Q1013=  
05-Aug-2023 SAID35 WAGB 051700 METAR WAGB 051700Z 00000KT 7000 VCTS FEW011CB SCT012 27/26 Q1012=  
05-Aug-2023 SAID35 WAGB 051730 METAR WAGB 051730Z 00000KT 7000 VCTS FEW011CB SCT012 27/26 Q1012=  
05-Aug-2023 SAID35 WAGB 051800 METAR WAGB 051800Z 00000KT 6000 VCTS FEW011CB SCT012 26/25 Q1012=  
05-Aug-2023 SAID35 WAGB 051830 METAR WAGB 051830Z 00000KT 6000 VCTS FEW011CB SCT012 26/25 Q1012=  
05-Aug-2023 SAID35 WAGB 051900 METAR WAGB 051900Z 00000KT 5000 VCTS FEW011CB SCT012 26/25 Q1012=  
05-Aug-2023 SAID35 WAGB 051930 METAR WAGB 051930Z 00000KT 5000 VCTS FEW011CB SCT012 26/25 Q1012=  
05-Aug-2023 SAID35 WAGB 052000 METAR WAGB 052000Z 00000KT 5000 VCTS FEW011CB SCT012 25/24 Q1011=  
05-Aug-2023 SAID35 WAGB 052030 METAR WAGB 052030Z 00000KT 5000 -RA FEW011CB SCT012 25/24 Q1011=  
05-Aug-2023 SAID35 WAGB 052100 METAR WAGB 052100Z 00000KT 5000 HZ FEW011CB SCT012 25/24 Q1013=  
05-Aug-2023 SAID35 WAGB 052130 METAR WAGB 052130Z 00000KT 5000 HZ FEW011CB SCT012 25/24 Q1013=  
05-Aug-2023 SAID35 WAGB 052200 METAR WAGB 052200Z 00000KT 5000 HZ SCT011 26/25 Q1013=  
05-Aug-2023 SAID35 WAGB 052230 METAR WAGB 052230Z 00000KT 5000 HZ SCT011 26/25 Q1013=  
05-Aug-2023 SAID35 WAGB 052300 METAR WAGB 052300Z 00000KT 5000 HZ SCT011 26/25 Q1013=  
05-Aug-2023 SAID35 WAGB 052330 METAR WAGB 052330Z 00000KT 5000 HZ SCT011 26/25 Q1013=  
06-Aug-2023 SAID35 WAGB 060000 METAR WAGB 060000Z 00000KT 7000 BKN011 25/23 Q1014 NOSIG=  
06-Aug-2023 SAID35 WAGB 060100 METAR WAGB 060100Z 00000KT 7000 BKN012 27/24 Q1014 NOSIG=  
06-Aug-2023 SAID35 WAGB 060130 METAR WAGB 060130Z 00000KT 9999 SCT013 28/23 Q1013 NOSIG=  
06-Aug-2023 SAID35 WAGB 060200 METAR WAGB 060200Z 00000KT 9999 SCT010 30/24 Q1013 NOSIG=  
06-Aug-2023 SAID35 WAGB 060230 METAR WAGB 060230Z 00000KT 9999 SCT011 31/24 Q1013 NOSIG=  
06-Aug-2023 SAID35 WAGB 060300 METAR WAGB 060300Z 35004KT 9999 SCT012 31/24 Q1013 NOSIG=  
06-Aug-2023 SAID35 WAGB 060330 METAR WAGB 060330Z 07003KT 9999 SCT012 31/23 Q1012 NOSIG=  
06-Aug-2023 SAID35 WAGB 060400 METAR WAGB 060400Z 05004KT 9999 BKN012 33/23 Q1012 NOSIG=  
06-Aug-2023 SAID35 WAGB 060430 METAR WAGB 060430Z 00000KT 9999 BKN012 31/23 Q1011 NOSIG=  
06-Aug-2023 SAID35 WAGB 060500 METAR WAGB 060500Z 24004KT 9999 BKN012 32/23 Q1011 NOSIG=  
06-Aug-2023 SAID35 WAGB 060530 METAR WAGB 060530Z 23004KT 9999 BKN012 33/23 Q1010 NOSIG=  
06-Aug-2023 SAID35 WAGB 060600 METAR WAGB 060600Z 31006KT 9999 BKN012 34/23 Q1009 NOSIG=  
06-Aug-2023 SAID35 WAGB 060630 METAR WAGB 060630Z 3300KT 9999 BKN012 35/23 Q1008 NOSIG=  
06-Aug-2023 SAID35 WAGB 060700 METAR WAGB 060700Z 33004KT 9999 BKN012 34/23 Q1008 NOSIG=  
06-Aug-2023 SAID35 WAGB 060730 METAR WAGB 060730Z 05004KT 9999 BKN012 32/23 Q1008 NOSIG=  
06-Aug-2023 SAID35 WAGB 060800 METAR WAGB 060800Z 35003KT 9999 FEW012TCU BKN013 34 /23 Q1008 NOSIG=  
06-Aug-2023 SAID35 WAGB 060830 METAR WAGB 060830Z 32003KT 9999 FEW012TCU BKN013 34/23 Q1008 NOSIG=  
06-Aug-2023 SAID35 WAGB 060900 METAR WAGB 060900Z 33004KT 9999 FEW012TCU BKN013 34/23 Q1008 NOSIG=  
06-Aug-2023 SAID35 WAGB 060900 CCA METAR WAGB 060900Z 33004KT 9999 TS FEW012CB BKN013 34/23 Q1008 NOSIG=  
06-Aug-2023 SAID35 WAGB 060930 METAR WAGB 060930Z 00000KT 9999 FEW013CB SCT014 34/26 Q1008 RETS NOSIG=  
06-Aug-2023 SAID35 WAGB 061000 METAR WAGB 061000Z 01003KT 9999 FEW014CB 33/26 Q1009 NOSIG=  
06-Aug-2023 SAID35 WAGB 061030 METAR WAGB 061030Z 00000KT 9999 FEW014CB 32/26 Q1009 NOSIG=  
06-Aug-2023 SAID35 WAGB 061100 METAR WAGB 061100Z 00000KT 8000 FEW014CB SCT015 31/26 Q1009 NOSIG=  
06-Aug-2023 SAID35 WAGB 061130 METAR WAGB 061130Z 00000KT 8000 FEW014CB SCT015 30/26 Q1010 NOSIG=  
06-Aug-2023 SAID35 WAGB 061200 METAR WAGB 061200Z 00000KT 8000 VCTS FEW014CB SCT015 29/26 Q1010 NOSIG=  
06-Aug-2023 SAID35 WAGB 061230 METAR WAGB 061230Z 00000KT 8000 VCTS FEW014CB SCT015 29/26 Q1010 NOSIG=  
06-Aug-2023 SAID35 WAGB 061300 METAR WAGB 061300Z 00000KT 7000 SCT014 28/25 Q1011 NOSIG=  
06-Aug-2023 SAID35 WAGB 061330 METAR WAGB 061330Z 00000KT 7000 SCT014 28/25 Q1011 NOSIG=  
06-Aug-2023 SAID35 WAGB 061400 METAR WAGB 061400Z 00000KT 7000 FEW012CB SCT013 28/25 Q1011 NOSIG=  
06-Aug-2023 SAID35 WAGB 061430 METAR WAGB 061430Z 00000KT 7000 FEW012CB SCT013 28/25 Q1012 NOSIG=  
06-Aug-2023 SAID35 WAGB 061500 METAR WAGB 061500Z 00000KT 7000 VCSH SCT014 27/24 Q1014 NOSIG=  
06-Aug-2023 SAID35 WAGB 061500 CCA METAR WAGB 061500Z 00000KT 7000 VCSH SCT014 27/24 Q1012 NOSIG=  
06-Aug-2023 SAID35 WAGB 061530 METAR WAGB 061530Z 00000KT 7000 VCSH SCT014 27/24 Q1012 NOSIG=  
06-Aug-2023 SAID35 WAGB 061530 CCA METAR WAGB 061530Z 00000KT 7000 VCSH FEW011CB SCT012 27/24 Q1012 NOSIG=  
06-Aug-2023 SAID35 WAGB 061600 METAR WAGB 061600Z 00000KT 6000 VCTS FEW011CB SCT012 27/25 Q1011 NOSIG=  
06-Aug-2023 SAID35 WAGB 061630 METAR WAGB 061630Z 21005KT 6000 VCTS FEW011CB SCT012 27/25 Q1011 NOSIG=  
06-Aug-2023 SPID33 WAGB 061633 SPECI WAGB 061633Z 20005KT 5000 RA FEW011CB SCT012 27/25 Q1012=  
06-Aug-2023 SAID35 WAGB 061700 METAR WAGB 061700Z 20005KT 5000 -RA FEW011CB SCT012 26/25 Q1011=  
06-Aug-2023 SPID33 WAGB 061715 SPECI WAGB 061715Z 00000KT 5000 VCTS FEW011CB SCT012 27/25 Q1011 RERA=  
06-Aug-2023 SAID35 WAGB 061730 METAR WAGB 061730Z 15005KT 5000 VCTS FEW011CB SCT012 26/25 Q1011 RERA NOSIG=  
06-Aug-2023 SAID35 WAGB 061800 METAR WAGB 061800Z 20002KT 4000 VCTS BKN012 25/25 Q1011 NOSIG=  
06-Aug-2023 SAID35 WAGB 061830 METAR WAGB 061830Z 20002KT 4000 VCTS BKN012 25/25 Q1011 NOSIG=  
06-Aug-2023 SAID35 WAGB 061900 METAR WAGB 061900Z 00000KT 4000 VCTS FEW010CB BKN011 25/25 Q1011 NOSIG=  
06-Aug-2023 SAID35 WAGB 061930 METAR WAGB 061930Z 00000KT 4000 VCTS FEW010CB BKN011 25/25 Q1010 NOSIG=  
06-Aug-2023 SAID35 WAGB 062000 METAR WAGB 062000Z 23003KT 4000 VCTS FEW010CB BKN011 25/24 Q1011 NOSIG=  
06-Aug-2023 SAID35 WAGB 062030 METAR WAGB 062030Z 24004KT 4000 VCTS FEW010CB BKN011 25/24 Q1011 NOSIG=  
06-Aug-2023 SAID35 WAGB 062100 METAR WAGB 062100Z 25003KT 4000 TS FEW010CB BKN011 25/24 Q1011 NOSIG=  
06-Aug-2023 SAID35 WAGB 062130 METAR WAGB 062130Z 00000KT 4000 TS FEW010CB BKN011 25/24 Q1012 NOSIG=  
06-Aug-2023 SAID35 WAGB 062200 METAR WAGB 062200Z 03002KT 4000 DZ BKN010 25/24 Q1012 NOSIG=  
06-Aug-2023 SAID35 WAGB 062230 METAR WAGB 062230Z 00000KT 4000 BKN010 25/24 Q1012 NOSIG=  
06-Aug-2023 SAID35 WAGB 062300 METAR WAGB 062300Z 00000KT 6000 BKN010 25/24 Q1012 NOSIG=  
06-Aug-2023 SAID35 WAGB 062330 METAR WAGB 062330Z 00000KT 6000 BKN010 25/24 Q1013 NOSIG=  
07-Aug-2023 SAID35 WAGB 070000 METAR WAGB 070000Z 31003KT 7000 OVC010 25/24 Q1014 NOSIG=  
07-Aug-2023 SAID35 WAGB 070030 METAR WAGB 070030Z 35005KT 6000 BKN010 26/24 Q1013 NOSIG=  
07-Aug-2023 SAID35 WAGB 070100 METAR WAGB 070100Z 33004KT 6000 BKN010 26/24 Q1013 NOSIG=  
07-Aug-2023 SAID35 WAGB 070130 METAR WAGB 070130Z 02005KT 7000 BKN010 26/24 Q1013 NOSIG=  
07-Aug-2023 SAID35 WAGB 070200 METAR WAGB 070200Z 35004KT 7000 BKN010 27/24 Q1013 NOSIG=  
07-Aug-2023 SAID35 WAGB 070230 METAR WAGB 070230Z 35004KT 7000 BKN010 28/24 Q1013 NOSIG=  
07-Aug-2023 SAID35 WAGB 070300 METAR WAGB 070300Z 30002KT 8000 BKN011 29/24 Q1013 NOSIG=  
07-Aug-2023 SAID35 WAGB 070330 METAR WAGB 070330Z 00000KT 8000 BKN011 29/23 Q1012 NOSIG=  
07-Aug-2023 SAID35 WAGB 070400 METAR WAGB 070400Z 17002KT 8000 BKN011 29/24 Q1011 NOSIG=  
07-Aug-2023 SAID35 WAGB 070430 METAR WAGB 070430Z 24004KT 9000 BKN012 30/24 Q1011 NOSIG=  
07-Aug-2023 SAID35 WAGB 070500 METAR WAGB 070500Z 26005KT 9999 BKN012 30/24 Q1010 NOSIG=  
07-Aug-2023 SAID35 WAGB 070530 METAR WAGB 070530Z 27004KT 9999 SCT013 31/24 Q1010 NOSIG=  
07-Aug-2023 SAID35 WAGB 070600 METAR WAGB 070600Z 24004KT 9999 SCT014 32/24 Q1009 NOSIG=  
07-Aug-2023 SAID35 WAGB 070630 METAR WAGB 070630Z 21002KT 9999 SCT014 32/24 Q1008 NOSIG=  
07-Aug-2023 SAID35 WAGB 070700 METAR WAGB 070700Z 31002KT 9999 SCT014 33/23 Q1008 NOSIG=  
07-Aug-2023 SAID35 WAGB 070730 METAR WAGB 070730Z 08003KT 9999 SCT014 32/23 Q1008 NOSIG=  
07-Aug-2023 SAID35 WAGB 070800 METAR WAGB 070800Z 09004KT 9999 FEW013TCU SCT014 31/23 Q1007 NOSIG=  
07-Aug-2023 SAID35 WAGB 070830 METAR WAGB 070830Z 04004KT 8000 VCSH FEW013TCU BKN014 29/23 Q1007 NOSIG RMK VCSH TO NW=  
07-Aug-2023 SAID35 WAGB 070900 METAR WAGB 070900Z 02005KT 7000 TS FEW012CB BKN013 29/24 Q1008 NOSIG RMK VCSH TO W=  
07-Aug-2023 SAID35 WAGB 070930 METAR WAGB 070930Z 00000KT 6000 TS FEW011CB BKN012 26/24 Q1009 RERA NOSIG=  
07-Aug-2023 SAID35 WAGB 071000 METAR WAGB 071000Z 00000KT 7000 FEW012CB BKN013 26/25 Q1009 RETS NOSIG=  
07-Aug-2023 SAID35 WAGB 071030 METAR WAGB 071030Z 00000KT 7000 FEW012CB BKN013 26/25 Q10100000 NOSIG=  
07-Aug-2023 SAID35 WAGB 071030 CCA METAR WAGB 071030Z 00000KT 7000 FEW011CB BKN012 26/25 Q1010NOSIG=  
07-Aug-2023 SAID35 WAGB 071100 METAR WAGB 071100Z 00000KT 7000 VCTS FEW011CB BKN012 26/25 Q1010 NOSIG=  
07-Aug-2023 SAID35 WAGB 071130 METAR WAGB 071130Z 00000KT 5000 -RA FEW011CB BKN012 26/25 Q1011 NOSIG=  
07-Aug-2023 SAID35 WAGB 071200 METAR WAGB 071200Z 00000KT 5000 -RA FEW011CB BKN012 25/24 Q1011=  
07-Aug-2023 SAID35 WAGB 071230 METAR WAGB 071230Z 00000KT 4000 -RA FEW011CB BKN012 25/24 Q1011=  
07-Aug-2023 SAID35 WAGB 071300 METAR WAGB 071300Z 24005KT 3500 -RA FEW010CB BKN011 25/24 Q1011=  
07-Aug-2023 SAID35 WAGB 071330 METAR WAGB 071330Z 22004KT 3500 -DZ FEW010CB BKN011 25/24 Q1011=  
07-Aug-2023 SAID35 WAGB 071400 METAR WAGB 071400Z 00000KT 3500 VCTS FEW010CB BKN011 25/24 Q1011 RERA=  
07-Aug-2023 SAID35 WAGB 071430 METAR WAGB 071430Z 00000KT 3500 VCTS FEW010CB BKN011 25/24 Q1012=  
07-Aug-2023 SAID35 WAGB 071500 METAR WAGB 071500Z 00000KT 2500 RA FEW010CB BKN011 25/24 Q1013=  
07-Aug-2023 SAID35 WAGB 071530 METAR WAGB 071530Z 00000KT 2500 -RA FEW010CB BKN011 25/24 Q1013=  
07-Aug-2023 SAID35 WAGB 071600 METAR WAGB 071600Z 00000KT 2500 FEW010CB SCT011 25/24 Q1012 RERA=  
07-Aug-2023 SAID35 WAGB 071630 METAR WAGB 071630Z 00000KT 2000 VCTS FEW010CB SCT011 25/24 Q1012=  
07-Aug-2023 SAID35 WAGB 071700 METAR WAGB 071700Z 00000KT 2500 -RA FEW010CB SCT011 25/24 Q1012=  
07-Aug-2023 SAID35 WAGB 071730 METAR WAGB 071730Z 00000KT 2500 -RA FEW010CB SCT011 25/24 Q1012=  
07-Aug-2023 SAID35 WAGB 071800 METAR WAGB 071800Z 00000KT 3000 FEW009CB BKN010 25/24 Q1012 RERA=  
07-Aug-2023 SAID35 WAGB 071830 METAR WAGB 071830Z 00000KT 3000 VCTS FEW009CB BKN010 25/24 Q1012 RERA=  
07-Aug-2023 SAID35 WAGB 071900 METAR WAGB 071900Z 00000KT 4000 BKN009 25/24 Q1012=  
07-Aug-2023 SAID35 WAGB 071930 METAR WAGB 071930Z 00000KT 4000 BKN009 25/24 Q1012=  
07-Aug-2023 SAID35 WAGB 072000 METAR WAGB 072000Z 00000KT 4000 BKN009 25/24 Q1012=  
07-Aug-2023 SAID35 WAGB 072030 METAR WAGB 072030Z 00000KT 4000 BKN009 25/24 Q1012=  
07-Aug-2023 SAID35 WAGB 072100 METAR WAGB 072100Z 25003KT 3000 BKN009 24/24 Q1012=  
07-Aug-2023 SAID35 WAGB 072130 METAR WAGB 072130Z 00000KT 3000 BKN009 24/24 Q1012=  
07-Aug-2023 SAID35 WAGB 072200 METAR WAGB 072200Z 00000KT 4000 BKN009 24/24 Q1013=  
07-Aug-2023 SAID35 WAGB 072230 METAR WAGB 072230Z 00000KT 4000 BKN009 24/24 Q1013=  
07-Aug-2023 SAID35 WAGB 072300 METAR WAGB 072300Z 00000KT 5000 BKN009 24/24 Q1013=  
07-Aug-2023 SAID35 WAGB 072330 METAR WAGB 072330Z 00000KT 5000 BKN009 24/24 Q1013=  
08-Aug-2023 SAID35 WAGB 080000 METAR WAGB 080000Z 00000KT 6000 BKN009 25/24 Q1013 NOSIG=  
08-Aug-2023 SAID35 WAGB 080030 METAR WAGB 080030Z 35004KT 6000 BKN009 26/24 Q1013 NOSIG=  
08-Aug-2023 SAID35 WAGB 080100 METAR WAGB 080100Z 34004KT 8000 BKN010 26/24 Q1013 NOSIG=  
08-Aug-2023 SAID35 WAGB 080130 METAR WAGB 080130Z 02006KT 8000 BKN010 26/24 Q1014 NOSIG=  
08-Aug-2023 SAID35 WAGB 080200 METAR WAGB 080200Z 03004KT 9000 SCT011 29/24 Q1013 NOSIG=  
08-Aug-2023 SAID35 WAGB 080230 METAR WAGB 080230Z 35005KT 9000 SCT012 30/24 Q1013 NOSIG=  
08-Aug-2023 SAID35 WAGB 080300 METAR WAGB 080300Z 02004KT 9000 BKN012 31/24 Q1013 NOSIG=  
08-Aug-2023 SAID35 WAGB 080330 METAR WAGB 080330Z 02003KT 9000 BKN012 31/24 Q1012 NOSIG=  
08-Aug-2023 SAID35 WAGB 080400 METAR WAGB 080400Z 35003KT 9000 BKN012 31/24 Q1012 NOSIG=  
08-Aug-2023 SAID35 WAGB 080430 METAR WAGB 080430Z 34003KT 9999 BKN012 31/24 Q1011 NOSIG=  
08-Aug-2023 SAID35 WAGB 080500 METAR WAGB 080500Z 09003KT 9999 BKN012 33/24 Q1011 NOSIG=  
08-Aug-2023 SAID35 WAGB 080530 METAR WAGB 080530Z 00000KT 9999 BKN012 31/23 Q1010 NOSIG=  
08-Aug-2023 SAID35 WAGB 080600 METAR WAGB 080600Z 00000KT 9999 BKN012 32/23 Q1009 NOSIG=  
08-Aug-2023 SAID35 WAGB 080630 METAR WAGB 080630Z 00000KT 9999 SCT012 34/23 Q1009 NOSIG=  
08-Aug-2023 SAID35 WAGB 080700 METAR WAGB 080700Z 02005KT 9999 SCT012 32/23 Q1009 NOSIG=  
08-Aug-2023 SAID35 WAGB 080800 METAR WAGB 080800Z 22008KT 9999 FEW014TCU SCT015 32/26 Q1009 NOSIG=  
08-Aug-2023 SAID35 WAGB 080830 METAR WAGB 080830Z 23004KT 9999 FEW014CB SCT015 32/26 Q1009 NOSIG=  
08-Aug-2023 SAID35 WAGB 080900 METAR WAGB 080900Z 06003KT 9999 FEW013CB SCT014 32/25 Q1009 NOSIG=  
08-Aug-2023 SAID35 WAGB 080930 METAR WAGB 080930Z 00000KT 9999 FEW013CB SCT014 32/25 Q1009 NOSIG=  
08-Aug-2023 SAID35 WAGB 081000 METAR WAGB 081000Z 00000KT 9000 FEW012CB SCT013 30/25 Q1010 NOSIG=  
08-Aug-2023 SAID35 WAGB 081030 METAR WAGB 081030Z 00000KT 7000 FEW012CB BKN013 29/24 Q1010 NOSIG=  
08-Aug-2023 SAID35 WAGB 081100 METAR WAGB 081100Z 23007KT 2000 RA FEW010CB BKN012 25/24 Q1011=  
08-Aug-2023 SAID35 WAGB 081130 METAR WAGB 081130Z 00000KT 2000 RA BKN009 24/23 Q1012=  
08-Aug-2023 SAID35 WAGB 081200 METAR WAGB 081200Z 34003KT 3000 -RA BKN011 25/23 Q1012=  
08-Aug-2023 SAID35 WAGB 081230 METAR WAGB 081230Z 01003KT 4000 BKN011 25/23 Q1012 RERA=  
08-Aug-2023 SAID35 WAGB 081300 METAR WAGB 081300Z 00000KT 6000 BKN011 25/24 Q1012=  
08-Aug-2023 SAID35 WAGB 081330 METAR WAGB 081330Z 00000KT 6000 BKN011 25/24 Q1012=  
08-Aug-2023 SAID35 WAGB 081400 METAR WAGB 081400Z 06003KT 6000 BKN011 25/24 Q1013=  
08-Aug-2023 SAID35 WAGB 081430 METAR WAGB 081430Z 06003KT 6000 BKN011 25/24 Q1013=  
08-Aug-2023 SAID35 WAGB 081500 METAR WAGB 081500Z 00000KT 6000 SCT011 25/24 Q1013=  
08-Aug-2023 SAID35 WAGB 081530 METAR WAGB 081530Z 00000KT 6000 SCT011 25/24 Q1013=  
08-Aug-2023 SAID35 WAGB 081600 METAR WAGB 081600Z 00000KT 6000 SCT011 25/24 Q1012=  
08-Aug-2023 SAID35 WAGB 081630 METAR WAGB 081630Z 00000KT 6000 SCT011 25/24 Q1012=  
08-Aug-2023 SAID35 WAGB 081700 METAR WAGB 081700Z 00000KT 6000 SCT011 25/24 Q1012=  
08-Aug-2023 SAID35 WAGB 081730 METAR WAGB 081730Z 00000KT 6000 SCT011 25/24 Q1012=  
08-Aug-2023 SAID35 WAGB 081800 METAR WAGB 081800Z 00000KT 6000 SCT011 25/24 Q1011=  
08-Aug-2023 SAID35 WAGB 081830 METAR WAGB 081830Z 00000KT 6000 SCT011 25/24 Q1011=  
08-Aug-2023 SAID35 WAGB 081900 METAR WAGB 081900Z 00000KT 6000 SCT011 25/24 Q1011=  
08-Aug-2023 SAID35 WAGB 081930 METAR WAGB 081930Z 00000KT 6000 SCT011 24/24 Q1012=  
08-Aug-2023 SAID35 WAGB 082000 METAR WAGB 082000Z 00000KT 6000 SCT010 24/24 Q1012=  
08-Aug-2023 SAID35 WAGB 082030 METAR WAGB 082030Z 00000KT 6000 SCT010 24/24 Q1012=  
08-Aug-2023 SAID35 WAGB 082100 METAR WAGB 082100Z 00000KT 6000 SCT010 25/24 Q1012=  
08-Aug-2023 SAID35 WAGB 082130 METAR WAGB 082130Z 00000KT 6000 SCT010 25/24 Q1012=  
08-Aug-2023 SAID35 WAGB 082200 METAR WAGB 082200Z 00000KT 6000 BKN010 25/24 Q1013=  
08-Aug-2023 SAID35 WAGB 082230 METAR WAGB 082230Z 00000KT 6000 BKN010 25/24 Q1013=  
08-Aug-2023 SAID35 WAGB 082300 METAR WAGB 082300Z 00000KT 4000 BR BKN010 25/24 Q1013=  
08-Aug-2023 SAID35 WAGB 082330 METAR WAGB 082330Z 00000KT 4000 BR BKN010 25/24 Q1013=  
09-Aug-2023 SAID35 WAGB 090000 METAR WAGB 090000Z VRB02KT 4500 HZ OVC009 25/24 Q1014 NOSIG=  
09-Aug-2023 SAID35 WAGB 090030 METAR WAGB 090030Z 03004KT 5000 HZ OVC009 25/24 Q1014 NOSIG=  
09-Aug-2023 SAID35 WAGB 090100 METAR WAGB 090100Z 00000KT 6000 OVC009 26/24 Q1014 NOSIG=  
09-Aug-2023 SAID35 WAGB 090130 METAR WAGB 090130Z 00000KT 7000 OVC009 26/24 Q1014 NOSIG=  
09-Aug-2023 SAID35 WAGB 090200 METAR WAGB 090200Z 35003KT 8000 BKN010 27/24 Q1014 NOSIG=  
09-Aug-2023 SAID35 WAGB 090230 METAR WAGB 090230Z 35006KT 8000 BKN010 28/24 Q1014 NOSIG=  
09-Aug-2023 SAID35 WAGB 090300 METAR WAGB 090300Z 01004KT 9000 BKN011 28/24 Q1014 NOSIG=  
09-Aug-2023 SAID35 WAGB 090330 METAR WAGB 090330Z 35004KT 9000 BKN011 29/24 Q1014 NOSIG=  
09-Aug-2023 SAID35 WAGB 090400 METAR WAGB 090400Z VRB02KT 9000 BKN012 30/24 Q1013 NOSIG=  
09-Aug-2023 SAID35 WAGB 090430 METAR WAGB 090430Z 32004KT 9999 BKN012 30/23 Q1013 NOSIG=  
09-Aug-2023 SAID35 WAGB 090500 METAR WAGB 090500Z 00000KT 9999 BKN013 30/23 Q1012 NOSIG=  
09-Aug-2023 SAID35 WAGB 090530 METAR WAGB 090530Z 28004KT 9999 DZ BKN013 30/23 Q1012 NOSIG=  
09-Aug-2023 SAID35 WAGB 090600 METAR WAGB 090600Z 26004KT 9999 SCT014 31/23 Q1011 NOSIG=  
09-Aug-2023 SAID35 WAGB 090630 METAR WAGB 090630Z 27004KT 9999 SCT014 30/23 Q1011 NOSIG=  
09-Aug-2023 SAID35 WAGB 090700 METAR WAGB 090700Z 35004KT 9999 SCT014 30/24 Q1010 NOSIG=  
09-Aug-2023 SAID35 WAGB 090730 METAR WAGB 090730Z 30002KT 9999 SCT014 30/24 Q1010 NOSIG=  
09-Aug-2023 SAID35 WAGB 090800 METAR WAGB 090800Z 11004KT 9999 SCT014 29/24 Q1010 NOSIG=  
09-Aug-2023 SAID35 WAGB 090830 METAR WAGB 090830Z 12003KT 9999 FEW014 28/24 Q1010 NOSIG=  
09-Aug-2023 SAID35 WAGB 090900 METAR WAGB 090900Z 00000KT 9999 FEW014 28/24 Q1010 NOSIG=  
09-Aug-2023 SAID35 WAGB 091000 METAR WAGB 091000Z 13004KT 9000 SCT014 28/25 Q1011 NOSIG=  
09-Aug-2023 SAID35 WAGB 091030 METAR WAGB 091030Z 00000KT 8000 SCT014 28/25 Q1011 NOSIG=  
09-Aug-2023 SAID35 WAGB 091100 METAR WAGB 091100Z 00000KT 8000 SCT014 27/25 Q1012 NOSIG=  
09-Aug-2023 SAID35 WAGB 091130 METAR WAGB 091130Z 00000KT 7000 SCT013 27/25 Q1012 NOSIG=  
09-Aug-2023 SAID35 WAGB 091200 METAR WAGB 091200Z 00000KT 8000 SCT014 26/25 Q1012 NOSIG=  
09-Aug-2023 SAID35 WAGB 091230 METAR WAGB 091230Z 00000KT 8000 SCT014 26/25 Q1012 NOSIG=  
09-Aug-2023 SAID35 WAGB 091300 METAR WAGB 091300Z 00000KT 7000 SCT014 26/25 Q1013=  
09-Aug-2023 SAID35 WAGB 091300 CCA METAR WAGB 091300Z 00000KT 7000 SCT014 26/25 Q1013 NOSIG=  
09-Aug-2023 SAID35 WAGB 091330 METAR WAGB 091330Z 00000KT 7000 SCT014 26/25 Q1013 NOSIG=  
09-Aug-2023 SAID35 WAGB 091400 METAR WAGB 091400Z 00000KT 6000 SCT014 26/25 Q1013 NOSIG=  
09-Aug-2023 SAID35 WAGB 091430 METAR WAGB 091430Z 00000KT 6000 SCT014 26/25 Q1013 NOSIG=  
09-Aug-2023 SAID35 WAGB 091500 METAR WAGB 091500Z 00000KT 6000 SCT014 25/24 Q1013 NOSIG=  
09-Aug-2023 SAID35 WAGB 091530 METAR WAGB 091530Z 00000KT 6000 SCT014 25/24 Q1013 NOSIG=  
09-Aug-2023 SAID35 WAGB 091600 METAR WAGB 091600Z 00000KT 6000 SCT014 25/24 Q1013 NOSIG=  
09-Aug-2023 SAID35 WAGB 091630 METAR WAGB 091630Z 00000KT 6000 SCT014 25/24 Q1013 NOSIG=  
09-Aug-2023 SAID35 WAGB 091700 METAR WAGB 091700Z 00000KT 6000 BKN010 25/24 Q1013 NOSIG=  
09-Aug-2023 SAID35 WAGB 091730 METAR WAGB 091730Z 00000KT 6000 BKN010 25/24 Q1013 NOSIG=  
09-Aug-2023 SAID35 WAGB 091800 METAR WAGB 091800Z 00000KT 6000 VCSH BKN010 25/24 Q1012=  
09-Aug-2023 SAID35 WAGB 091830 METAR WAGB 091830Z 00000KT 6000 VCSH BKN010 25/24 Q1012=  
09-Aug-2023 SAID35 WAGB 091900 METAR WAGB 091900Z 00000KT 5000 VCSH BKN010 25/24 Q1012=  
09-Aug-2023 SAID35 WAGB 091930 METAR WAGB 091930Z 00000KT 5000 VCSH BKN010 25/24 Q1012=  
09-Aug-2023 SAID35 WAGB 092000 METAR WAGB 092000Z 00000KT 5000 VCSH BKN010 24/23 Q1012=  
09-Aug-2023 SAID35 WAGB 092030 METAR WAGB 092030Z 00000KT 5000 VCSH BKN010 24/23 Q1012=  
09-Aug-2023 SAID35 WAGB 092100 METAR WAGB 092100Z 00000KT 4000 BR BKN010 25/25 Q1012=  
09-Aug-2023 SAID35 WAGB 092130 METAR WAGB 092130Z 00000KT 4000 BR BKN010 25/25 Q1012=  
09-Aug-2023 SAID35 WAGB 092200 METAR WAGB 092200Z 00000KT 3000 BR BKN010 25/25 Q1012=  
09-Aug-2023 SAID35 WAGB 092230 METAR WAGB 092230Z 00000KT 2000 BR BKN010 25/25 Q1013=  
09-Aug-2023 SAID35 WAGB 092300 METAR WAGB 092300Z 00000KT 0700 FG BKN010 25/25 Q1013=  
09-Aug-2023 SAID35 WAGB 092330 METAR WAGB 092330Z 00000KT 0600 FG BKN010 25/25 Q1014=  
10-Aug-2023 SAID35 WAGB 100000 METAR WAGB 100000Z 00000KT 4000 BKN010 25/25 Q1014 REFOG=  
10-Aug-2023 SAID35 WAGB 100030 METAR WAGB 100030Z 00000KT 3000 BR BKN010 26/25 Q1014 NOSIG=  
10-Aug-2023 SAID35 WAGB 100100 METAR WAGB 100100Z 260003KT 7000 BKN010 27/24 Q1014 NOSIG=  
10-Aug-2023 SAID35 WAGB 100130 METAR WAGB 100130Z 33003KT 9000 BKN011 27/24 Q1014 NOSIG=  
10-Aug-2023 SAID35 WAGB 100200 METAR WAGB 100200Z 35003KT 9999 BKN011 28/24 Q1013 NOSIG=  
10-Aug-2023 SAID35 WAGB 100230 METAR WAGB 100230Z 03003KT 9999 BKN011 28/24 Q1013 NOSIG=  
10-Aug-2023 SAID35 WAGB 100300 METAR WAGB 100300Z 07004KT 9999 BKN012 29/24 Q1013 NOSIG=  
10-Aug-2023 SAID35 WAGB 100330 METAR WAGB 100330Z 35005KT 9999 BKN012 30/24 Q1013 NOSIG=  
10-Aug-2023 SAID35 WAGB 100400 METAR WAGB 100400Z 30003KT 9999 BKN013 31/24 Q1012 NOSIG=  
10-Aug-2023 SAID35 WAGB 100430 METAR WAGB 100430Z 17003KT 9999 BKN013 32/23 Q1011 NOSIG=  
10-Aug-2023 SAID35 WAGB 100500 METAR WAGB 100500Z 00000KT 9999 BKN013 31/23 Q1011 NOSIG=  
10-Aug-2023 SAID35 WAGB 100530 METAR WAGB 100530Z 26003KT 9999 BKN013 31/24 Q1010 NOSIG=  
10-Aug-2023 SAID35 WAGB 100600 METAR WAGB 100600Z 08002KT 9999 BKN013 32/22 Q1010 NOSIG=  
10-Aug-2023 SAID35 WAGB 100630 METAR WAGB 100630Z 00000KT 9999 BKN013 33/24 Q1009 NOSIG=  
10-Aug-2023 SAID35 WAGB 100700 METAR WAGB 100700Z 27003KT 9999 BKN013 32/23 Q1009 NOSIG=  
10-Aug-2023 SAID35 WAGB 100730 METAR WAGB 100730Z 33002KT 9999 BKN013 32/23 Q1009 NOSIG=  
10-Aug-2023 SAID35 WAGB 100800 METAR WAGB 100800Z 24002KT 9000 FEW014CB BKN015 31/25 Q1009 NOSIG=  
10-Aug-2023 SAID35 WAGB 100830 METAR WAGB 100830Z 27003KT 9000 FEW014CB BKN015 31/25 Q1009 NOSIG=  
10-Aug-2023 SAID35 WAGB 100900 METAR WAGB 100900Z 24005KT 9000 FEW014CB BKN015 31/26 Q1009 NOSIG=  
10-Aug-2023 SAID35 WAGB 100930 METAR WAGB 100930Z 00000KT 9000 FEW014CB BKN015 31/26 Q1009 NOSIG=  
10-Aug-2023 SAID35 WAGB 101000 METAR WAGB 101000Z VRB02KT 9000 FEW014CB SCT015 31/25 Q1009 NOSIG=  
10-Aug-2023 SAID35 WAGB 101030 METAR WAGB 101030Z 00000KT 9000 FEW014CB SCT015 31/25 Q1010 NOSIG=  
10-Aug-2023 SAID35 WAGB 101100 METAR WAGB 101100Z 00000KT 8000 FEW014CB SCT015 30/25 Q1010 NOSIG=  
10-Aug-2023 SAID35 WAGB 101130 METAR WAGB 101130Z 00000KT 8000 FEW014CB SCT015 30/25 Q1010 NOSIG=  
10-Aug-2023 SAID35 WAGB 101200 METAR WAGB 101200Z 00000KT 7000 FEW014CB SCT015 28/26 Q1011=  
10-Aug-2023 SAID35 WAGB 101230 METAR WAGB 101230Z 00000KT 7000 FEW014CB SCT015 27/26 Q1011=  
10-Aug-2023 SAID35 WAGB 101300 METAR WAGB 101300Z 00000KT 7000 FEW013CB SCT014 28/26 Q1012=  
10-Aug-2023 SAID35 WAGB 101330 METAR WAGB 101330Z 00000KT 7000 FEW013CB SCT014 27/25 Q1012=  
10-Aug-2023 SAID35 WAGB 101400 METAR WAGB 101400Z 00000KT 7000 SCT013 27/26 Q1012=  
10-Aug-2023 SAID35 WAGB 101430 METAR WAGB 101430Z 00000KT 7000 SCT013 27/26 Q1012=  
10-Aug-2023 SAID35 WAGB 101500 METAR WAGB 101500Z 00000KT 7000 FEW013 27/25 Q1012=  
10-Aug-2023 SAID35 WAGB 101530 METAR WAGB 101530Z 00000KT 7000 FEW013 27/25 Q1012=  
10-Aug-2023 SAID35 WAGB 101600 METAR WAGB 101600Z 21003KT 6000 FEW012 26/24 Q1013=  
10-Aug-2023 SAID35 WAGB 101630 METAR WAGB 101630Z 20002KT 6000 FEW012 26/24 Q1013=  
10-Aug-2023 SAID35 WAGB 101700 METAR WAGB 101700Z 20002KT 6000 SCT011 25/24 Q1012=  
10-Aug-2023 SAID35 WAGB 101730 METAR WAGB 101730Z 22002KT 6000 SCT011 25/24 Q1012=  
10-Aug-2023 SAID35 WAGB 101800 METAR WAGB 101800Z 21002KT 7000 SCT011 25/24 Q1012=  
10-Aug-2023 SAID35 WAGB 101830 METAR WAGB 101830Z 22002KT 7000 SCT011 25/24 Q1012=  
10-Aug-2023 SAID35 WAGB 101900 METAR WAGB 101900Z 18002KT 7000 SCT011 25/23 Q1012=  
10-Aug-2023 SAID35 WAGB 101930 METAR WAGB 101930Z 00000KT 7000 SCT011 25/23 Q1012=  
10-Aug-2023 SAID35 WAGB 102000 METAR WAGB 102000Z 00000KT 7000 BKN011 25/23 Q1013=  
10-Aug-2023 SAID35 WAGB 102030 METAR WAGB 102030Z 00000KT 7000 BKN011 25/23 Q1013=  
10-Aug-2023 SAID35 WAGB 102100 METAR WAGB 102100Z 00000KT 7000 BKN010 24/23 Q1013=  
10-Aug-2023 SAID35 WAGB 102130 METAR WAGB 102130Z 00000KT 7000 BKN010 24/23 Q1013=  
10-Aug-2023 SAID35 WAGB 102200 METAR WAGB 102200Z 00000KT 7000 SCT010 24/23 Q1013=  
10-Aug-2023 SAID35 WAGB 102230 METAR WAGB 102230Z 00000KT 7000 SCT010 24/23 Q1013=  
10-Aug-2023 SAID35 WAGB 102300 METAR WAGB 102300Z 00000KT 8000 SCT010 24/23 Q1013=  
10-Aug-2023 SAID35 WAGB 102330 METAR WAGB 102330Z 00000KT 8000 SCT010 24/23 Q1014=  
11-Aug-2023 SAID35 WAGB 110000 METAR WAGB 110000Z 00000KT 7000 FEW014 25/23 Q1014 NOSIG=  
11-Aug-2023 SAID35 WAGB 110030 METAR WAGB 110030Z 00000KT 8000 FEW010 26/23 Q1014 NOSIG=  
11-Aug-2023 SAID35 WAGB 110100 METAR WAGB 110100Z 25004KT 7000 SCT009 26/23 Q1012 NOSIG=  
11-Aug-2023 SAID35 WAGB 110100 CCA METAR WAGB 110100Z 25004KT 7000 SCT009 26/23 Q1012 NOSIG=  
11-Aug-2023 SAID35 WAGB 110130 METAR WAGB 110130Z 00000KT 7000 SCT009 27/23 Q1014 NOSIG=  
11-Aug-2023 SAID35 WAGB 110200 METAR WAGB 110200Z 00000KT 7000 SCT010 27/23 Q1014 NOSIG=  
11-Aug-2023 SAID35 WAGB 110230 METAR WAGB 110230Z 27003KT 7000 SCT010 28/23 Q1014 NOSIG=  
11-Aug-2023 SAID35 WAGB 110300 METAR WAGB 110300Z 31004KT 8000 SCT010 29/23 Q1013 NOSIG=  
11-Aug-2023 SAID35 WAGB 110330 METAR WAGB 110330Z 29004KT 8000 SCT010 29/23 Q1013 NOSIG=  
11-Aug-2023 SAID35 WAGB 110400 METAR WAGB 110400Z 26005KT 9000 SCT010 30/22 Q1012 NOSIG=  
11-Aug-2023 SAID35 WAGB 110430 METAR WAGB 110430Z 25004KT 9999 SCT010 30/22 Q1012 NOSIG=  
11-Aug-2023 SAID35 WAGB 110500 METAR WAGB 110500Z 30005KT 9999 SCT012 31/22 Q1011 NOSIG=  
11-Aug-2023 SAID35 WAGB 110530 METAR WAGB 110530Z 28005KT 9999 BKN012 30/22 Q1011 NOSIG=  
11-Aug-2023 SAID35 WAGB 110600 METAR WAGB 110600Z 24005KT 9999 BKN012 30/22 Q1010 NOSIG=  
11-Aug-2023 SAID35 WAGB 110630 METAR WAGB 110630Z 26007KT 9999 BKN012 31/23 Q1010 NOSIG=  
11-Aug-2023 SAID35 WAGB 110700 METAR WAGB 110700Z 30004KT 9999 BKN012 31/23 Q1010 NOSIG=  
11-Aug-2023 SAID35 WAGB 110730 METAR WAGB 110730Z 32006KT 9999 BKN012 31/22 Q1009 NOSIG=  
11-Aug-2023 SAID35 WAGB 110800 METAR WAGB 110800Z 32005KT 9999 SCT013 32/22 Q1009 NOSIG=  
11-Aug-2023 SAID35 WAGB 110830 METAR WAGB 110830Z 32006KT 9999 SCT013 31/22 Q1009 NOSIG=  
11-Aug-2023 SAID35 WAGB 110900 METAR WAGB 110900Z 31006KT 9999 SCT013 30/22 Q1010 NOSIG=  
11-Aug-2023 SAID35 WAGB 111030 METAR WAGB 111030Z 00000KT 9999 FEW013 28/24 Q1010 NOSIG=  
11-Aug-2023 SAID35 WAGB 111100 METAR WAGB 111100Z 00000KT 9000 FEW013 28/25 Q1011 NOSIG=  
11-Aug-2023 SAID35 WAGB 111130 METAR WAGB 111130Z 00000KT 9000 FEW013 28/24 Q1011 NOSIG=  
11-Aug-2023 SAID35 WAGB 111200 METAR WAGB 111200Z 00000KT 9999 FEW013 27/25 Q1011=  
11-Aug-2023 SAID35 WAGB 111230 METAR WAGB 111230Z 00000KT 9999 FEW013 26/25 Q1011=  
11-Aug-2023 SAID35 WAGB 111300 METAR WAGB 111300Z 00000KT 9000 FEW013 26/25 Q1012=  
11-Aug-2023 SAID35 WAGB 111330 METAR WAGB 111330Z 00000KT 8000 FEW013 26/25 Q1012=  
11-Aug-2023 SAID35 WAGB 111400 METAR WAGB 111400Z 00000KT 8000 FEW013 26/24 Q1012=  
11-Aug-2023 SAID35 WAGB 111430 METAR WAGB 111430Z 00000KT 8000 FEW013 26/24 Q1012=  
11-Aug-2023 SAID35 WAGB 111500 METAR WAGB 111500Z 00000KT 7000 FEW012 25/25 Q1012=  
11-Aug-2023 SAID35 WAGB 111530 METAR WAGB 111530Z 00000KT 7000 FEW012 25/25 Q1012=  
11-Aug-2023 SAID35 WAGB 111600 METAR WAGB 111600Z 00000KT 7000 FEW012 25/24 Q1012=  
11-Aug-2023 SAID35 WAGB 111630 METAR WAGB 111630Z 00000KT 7000 FEW012 25/24 Q1012=  
11-Aug-2023 SAID35 WAGB 111700 METAR WAGB 111700Z 00000KT 6000 FEW012 25/24 Q1012=  
11-Aug-2023 SAID35 WAGB 111730 METAR WAGB 111730Z 00000KT 6000 FEW012 25/24 Q1012=  
11-Aug-2023 SAID35 WAGB 111800 METAR WAGB 111800Z 00000KT 6000 FEW012 24/24 Q1011=  
11-Aug-2023 SAID35 WAGB 111830 METAR WAGB 111830Z 00000KT 6000 FEW012 24/24 Q1011=  
11-Aug-2023 SAID35 WAGB 111900 METAR WAGB 111900Z 00000KT 6000 BKN011 24/24 Q1011=  
11-Aug-2023 SAID35 WAGB 111930 METAR WAGB 111930Z 00000KT 6000 BKN011 24/24 Q1011=  
11-Aug-2023 SAID35 WAGB 112000 METAR WAGB 112000Z 00000KT 6000 BKN011 24/23 Q1011=  
11-Aug-2023 SAID35 WAGB 112030 METAR WAGB 112030Z 00000KT 6000 BKN011 24/23 Q1011=  
11-Aug-2023 SAID35 WAGB 112100 METAR WAGB 112100Z 00000KT 6000 BKN011 24/23 Q1012=  
11-Aug-2023 SAID35 WAGB 112130 METAR WAGB 112130Z 00000KT 6000 BKN011 24/23 Q1012=  
11-Aug-2023 SAID35 WAGB 112200 METAR WAGB 112200Z 00000KT 6000 BKN011 24/23 Q1012=  
11-Aug-2023 SAID35 WAGB 112230 METAR WAGB 112230Z 00000KT 6000 BKN011 24/23 Q1012=  
11-Aug-2023 SAID35 WAGB 112300 METAR WAGB 112300Z 00000KT 6000 FEW011 24/24 Q1012=  
11-Aug-2023 SAID35 WAGB 112330 METAR WAGB 112330Z 00000KT 6000 FEW011 24/23 Q1012=  
12-Aug-2023 SAID35 WAGB 120000 METAR WAGB 120000Z 00000KT 7000 FEW011 25/23 Q1013 NOSIG=  
12-Aug-2023 SAID35 WAGB 120030 METAR WAGB 120030Z 24004KT 7000 FEW011 25/23 Q1013 NOSIG=  
12-Aug-2023 SAID35 WAGB 120100 METAR WAGB 120100Z 26003KT 8000 FEW011 25/22 Q1013 NOSIG=  
12-Aug-2023 SAID35 WAGB 120130 METAR WAGB 120130Z 23003KT 9000 FEW011 27/22 Q1013 NOSIG=  
12-Aug-2023 SAID35 WAGB 120200 METAR WAGB 120200Z 27002KT 9000 FEW011 27/22 Q1013 NOSIG=  
12-Aug-2023 SAID35 WAGB 120230 METAR WAGB 120230Z 35002KT 9000 FEW012 29/22 Q1013 NOSIG=  
12-Aug-2023 SAID35 WAGB 120300 METAR WAGB 120300Z 21003KT 9000 FEW012 29/22 Q1012 NOSIG=  
12-Aug-2023 SAID35 WAGB 120330 METAR WAGB 120330Z 11002KT 9000 BKN012 30/22 Q1012 NOSIG=  
12-Aug-2023 SAID35 WAGB 120400 METAR WAGB 120400Z 28004KT 9000 BKN012 30/21 Q1012 NOSIG=  
12-Aug-2023 SAID35 WAGB 120430 METAR WAGB 120430Z 07002KT 9999 BKN012 31/21 Q1011 NOSIG=  
12-Aug-2023 SAID35 WAGB 120500 METAR WAGB 120500Z 00000KT 9999 BKN013 31/21 Q1011 NOSIG=  
12-Aug-2023 SAID35 WAGB 120530 METAR WAGB 120530Z 00000KT 9999 BKN013 31/21 Q1011 NOSIG=  
12-Aug-2023 SAID35 WAGB 120600 METAR WAGB 120600Z 00000KT 9999 BKN013 32/21 Q1010 NOSIG=  
12-Aug-2023 SAID35 WAGB 120630 METAR WAGB 120630Z 29005KT 9999 BKN013 32/20 Q1010 NOSIG=  
12-Aug-2023 SAID35 WAGB 120700 METAR WAGB 120700Z 32004KT 9999 SCT014 33/21 Q1009 NOSIG=  
12-Aug-2023 SAID35 WAGB 120730 METAR WAGB 120730Z 35006KT 9999 SCT014 32/21 Q1009 NOSIG=  
12-Aug-2023 SAID35 WAGB 120800 METAR WAGB 120800Z 01004KT 9999 SCT014 31/21 Q1009 NOSIG=  
12-Aug-2023 SAID35 WAGB 122300 METAR WAGB 122300Z 00000KT 4000 BR FEW009 23/22 Q1012 NOSIG=  
12-Aug-2023 SAID35 WAGB 122330 METAR WAGB 122330Z 00000KT 4000 BR FEW009 23/22 Q1012 NOSIG=  
13-Aug-2023 SAID35 WAGB 130000 METAR WAGB 130000Z 29003KT 7000 SCT010 24/22 Q1013 NOSIG=  
13-Aug-2023 SAID35 WAGB 130300 METAR WAGB 130300Z 23004KT 9999 SCT011 30/20 Q1012 NOSIG=  
13-Aug-2023 SAID35 WAGB 130330 METAR WAGB 130330Z 20003KT 9999 SCT012 31/22 Q1012 NOSIG=  
13-Aug-2023 SAID35 WAGB 130400 METAR WAGB 130400Z 14003KT 9999 FEW012 31/22 Q1011 NOSIG=  
13-Aug-2023 SAID35 WAGB 130430 METAR WAGB 130430Z 24005KT 9999 SCT012 31/21 Q1011 NOSIG=  
13-Aug-2023 SAID35 WAGB 130500 METAR WAGB 130500Z 21003KT 9999 SCT012 31/21 Q1010 NOSIG=  
13-Aug-2023 SAID35 WAGB 130530 METAR WAGB 130530Z 18004KT 9999 SCT012 32/21 Q1010 NOSIG=  
13-Aug-2023 SAID35 WAGB 130600 METAR WAGB 130600Z 00000KT 9999 BKN013 32/23 Q1010 NOSIG=  
13-Aug-2023 SAID35 WAGB 130630 METAR WAGB 130630Z 00000KT 9999 BKN013 32/24 Q1009 NOSIG=  
13-Aug-2023 SAID35 WAGB 130700 METAR WAGB 130700Z 00000KT 9999 BKN013 33/23 Q1009 NOSIG=  
13-Aug-2023 SAID35 WAGB 130730 METAR WAGB 130730Z 00000KT 9999 BKN013 33/23 Q1009 NOSIG=  
13-Aug-2023 SAID35 WAGB 130800 METAR WAGB 130800Z 19003KT 9999 FEW013TCU BKN014 33/23 Q1009 NOSIG=  
13-Aug-2023 SAID35 WAGB 130830 METAR WAGB 130830Z 00000KT 9999 FEW013TCU BKN014 33/23 Q1008 NOSIG=  
13-Aug-2023 SAID35 WAGB 130900 METAR WAGB 130900Z 17003KT 9999 FEW013TCU SCT014 33/24 Q1009 NOSIG=  
13-Aug-2023 SAID35 WAGB 130930 METAR WAGB 130930Z 00000KT 9999 FEW013TCU SCT014 33/24 Q1009 NOSIG=  
13-Aug-2023 SAID35 WAGB 131000 METAR WAGB 131000Z 00000KT 9999 SCT014 31/24 Q1009 NOSIG=  
13-Aug-2023 SAID35 WAGB 131030 METAR WAGB 131030Z 00000KT 9999 SCT014 31/24 Q1009 NOSIG=  
13-Aug-2023 SAID35 WAGB 131100 METAR WAGB 131100Z 00000KT 8000 FEW013 30/24 Q1009 NOSIG=  
13-Aug-2023 SAID35 WAGB 131130 METAR WAGB 131130Z 00000KT 8000 FEW013 30/24 Q1009 NOSIG=  
13-Aug-2023 SAID35 WAGB 131200 METAR WAGB 131200Z 00000KT 7000 SCT013 28/25 Q1010=  
13-Aug-2023 SAID35 WAGB 131230 METAR WAGB 131230Z 00000KT 7000 SCT013 28/25 Q1011=  
13-Aug-2023 SAID35 WAGB 131300 METAR WAGB 131300Z 00000KT 7000 SCT013 27/25 Q1011=  
13-Aug-2023 SAID35 WAGB 131330 METAR WAGB 131330Z 00000KT 7000 SCT013 27/25 Q1011=  
13-Aug-2023 SAID35 WAGB 131400 METAR WAGB 131400Z 00000KT 7000 SCT012 26/25 Q1011=  
13-Aug-2023 SAID35 WAGB 131430 METAR WAGB 131430Z 00000KT 7000 SCT012 26/25 Q1011=  
13-Aug-2023 SAID35 WAGB 131500 METAR WAGB 131500Z 00000KT 6000 SCT012 26/24 Q1012=  
13-Aug-2023 SAID35 WAGB 131530 METAR WAGB 131530Z 00000KT 6000 SCT012 26/24 Q1012=  
13-Aug-2023 SAID35 WAGB 131600 METAR WAGB 131600Z 00000KT 6000 SCT012 25/24 Q1012=  
13-Aug-2023 SAID35 WAGB 131630 METAR WAGB 131630Z 00000KT 6000 SCT012 25/24 Q1011=  
13-Aug-2023 SAID35 WAGB 131700 METAR WAGB 131700Z 00000KT 6000 SCT012 25/24 Q1011=  
13-Aug-2023 SAID35 WAGB 131730 METAR WAGB 131730Z 00000KT 6000 SCT012 25/24 Q1011=  
13-Aug-2023 SAID35 WAGB 131800 METAR WAGB 131800Z 00000KT 5000 HZ BKN011 25/24 Q1011=  
13-Aug-2023 SAID35 WAGB 131830 METAR WAGB 131830Z 00000KT 5000 HZ BKN011 25/24 Q1011=  
13-Aug-2023 SAID35 WAGB 131900 METAR WAGB 131900Z 00000KT 5000 HZ BKN011 25/24 Q1011=  
13-Aug-2023 SAID35 WAGB 131930 METAR WAGB 131930Z 00000KT 5000 HZ BKN011 25/24 Q1011=  
13-Aug-2023 SAID35 WAGB 132000 METAR WAGB 132000Z 00000KT 5000 HZ BKN011 24/24 Q1011=  
13-Aug-2023 SAID35 WAGB 132030 METAR WAGB 132030Z 00000KT 5000 HZ BKN011 24/24 Q1011=  
13-Aug-2023 SAID35 WAGB 132100 METAR WAGB 132100Z 00000KT 5000 HZ SCT011 24/23 Q1011=  
13-Aug-2023 SAID35 WAGB 132130 METAR WAGB 132130Z 00000KT 5000 HZ SCT011 24/23 Q1011=  
13-Aug-2023 SAID35 WAGB 132200 METAR WAGB 132200Z 00000KT 4000 BR SCT010 24/23 Q1012=  
13-Aug-2023 SAID35 WAGB 132230 METAR WAGB 132230Z 00000KT 4000 BR SCT010 24/23 Q1012=  
13-Aug-2023 SAID35 WAGB 132300 METAR WAGB 132300Z 00000KT 4000 BR SCT010 23/23 Q1012=  
13-Aug-2023 SAID35 WAGB 132330 METAR WAGB 132330Z 00000KT 5000 HZ SCT010 23/23 Q1012=  
14-Aug-2023 SAID35 WAGB 140000 METAR WAGB 140000Z 00000KT 6000 FEW010 25/23 Q1013 NOSIG=  
14-Aug-2023 SAID35 WAGB 140030 METAR WAGB 140030Z 23003KT 8000 FEW011 26/23 Q1013 NOSIG=  
14-Aug-2023 SAID35 WAGB 140100 METAR WAGB 140100Z 31003KT 8000 FEW011 27/23 Q1013 NOSIG=  
14-Aug-2023 SAID35 WAGB 140130 METAR WAGB 140130Z 00000KT 9000 FEW011 29/24 Q1013 NOSIG=  
14-Aug-2023 SAID35 WAGB 140200 METAR WAGB 140200Z 01004KT 9999 FEW012 29/23 Q1012 NOSIG=  
14-Aug-2023 SAID35 WAGB 140230 METAR WAGB 140230Z 19002KT 9999 SCT012 30/23 Q1012 NOSIG=  
14-Aug-2023 SAID35 WAGB 140300 METAR WAGB 140300Z 00000KT 9999 BKN012 30/22 Q1012 NOSIG=  
14-Aug-2023 SAID35 WAGB 140330 METAR WAGB 140330Z 00000KT 9999 BKN013 31/22 Q1012 NOSIG=  
14-Aug-2023 SAID35 WAGB 140400 METAR WAGB 140400Z 23005KT 9999 BKN013 30/22 Q1011 NOSIG=  
14-Aug-2023 SAID35 WAGB 140430 METAR WAGB 140430Z 36004KT 9999 BKN013 30/23 Q1011 NOSIG=  
14-Aug-2023 SAID35 WAGB 140500 METAR WAGB 140500Z 30005KT 9999 BKN013 30/22 Q1010 NOSIG=  
14-Aug-2023 SAID35 WAGB 140530 METAR WAGB 140530Z 32004KT 9999 BKN013 30/23 Q1010 NOSIG=  
14-Aug-2023 SAID35 WAGB 140600 METAR WAGB 140600Z 26004KT 9999 BKN013 31/23 Q1010 NOSIG=  
14-Aug-2023 SAID35 WAGB 140630 METAR WAGB 140630Z 23003KT 9999 BKN013 31/23 Q1009 NOSIG=  
14-Aug-2023 SAID35 WAGB 140700 METAR WAGB 140700Z 00000KT 9999 BKN013 31/24 Q1009 NOSIG=  
14-Aug-2023 SAID35 WAGB 140730 METAR WAGB 140730Z 00000KT 9999 BKN013 31/24 Q1009 NOSIG=  
14-Aug-2023 SAID35 WAGB 140800 METAR WAGB 140800Z 00000KT 9999 BKN013 31/23 Q1009 NOSIG=  
14-Aug-2023 SAID35 WAGB 140830 METAR WAGB 140830Z 00000KT 9999 BKN013 31/23 Q1009 NOSIG=  
14-Aug-2023 SAID35 WAGB 140900 METAR WAGB 140900Z 00000KT 9999 BKN013 31/23 Q1009 NOSIG=  
14-Aug-2023 SAID35 WAGB 140930 METAR WAGB 140930Z 00000KT 9999 BKN013 31/23 Q1009 NOSIG=  
14-Aug-2023 SAID35 WAGB 141000 METAR WAGB 141000Z 26002KT 9999 SCT013 30/24 Q1009 NOSIG=  
14-Aug-2023 SAID35 WAGB 141030 METAR WAGB 141030Z 00000KT 9999 SCT013 30/24 Q1009 NOSIG=  
14-Aug-2023 SAID35 WAGB 141100 METAR WAGB 141100Z 00000KT 9000 SCT013 29/24 Q1009 NOSIG=  
14-Aug-2023 SAID35 WAGB 141130 METAR WAGB 141130Z 00000KT 9000 SCT013 29/24 Q1010 NOSIG=  
14-Aug-2023 SAID35 WAGB 141200 METAR WAGB 141200Z 00000KT 8000 SCT013 28/25 Q1010=  
14-Aug-2023 SAID35 WAGB 141230 METAR WAGB 141230Z 00000KT 8000 SCT013 28/25 Q1010=  
14-Aug-2023 SAID35 WAGB 141300 METAR WAGB 141300Z 00000KT 8000 SCT012 27/25 Q1011=  
14-Aug-2023 SAID35 WAGB 141330 METAR WAGB 141330Z 00000KT 8000 SCT012 27/25 Q1011=  
14-Aug-2023 SAID35 WAGB 141400 METAR WAGB 141400Z 00000KT 8000 SCT012 26/25 Q1012=  
14-Aug-2023 SAID35 WAGB 141430 METAR WAGB 141430Z 00000KT 8000 SCT012 26/25 Q1012=  
14-Aug-2023 SAID35 WAGB 141500 METAR WAGB 141500Z 00000KT 8000 SCT011 26/25 Q1012=  
14-Aug-2023 SAID35 WAGB 141530 METAR WAGB 141530Z 00000KT 8000 SCT011 26/25 Q1012=  
14-Aug-2023 SAID35 WAGB 141600 METAR WAGB 141600Z 00000KT 6000 SCT011 26/24 Q1012=  
14-Aug-2023 SAID35 WAGB 141630 METAR WAGB 141630Z 00000KT 6000 SCT011 26/24 Q1012=  
14-Aug-2023 SAID35 WAGB 141700 METAR WAGB 141700Z 00000KT 6000 SCT011 25/24 Q1011=  
14-Aug-2023 SAID35 WAGB 141730 METAR WAGB 141730Z 00000KT 6000 SCT011 25/24 Q1011=  
14-Aug-2023 SAID35 WAGB 141800 METAR WAGB 141800Z 00000KT 6000 BKN011 25/24 Q1011=  
14-Aug-2023 SAID35 WAGB 141830 METAR WAGB 141830Z 00000KT 6000 BKN011 25/24 Q1011=  
14-Aug-2023 SAID35 WAGB 141900 METAR WAGB 141900Z 00000KT 5000 BR BKN010 25/24 Q1011=  
14-Aug-2023 SAID35 WAGB 141930 METAR WAGB 141930Z 00000KT 5000 BR BKN010 25/24 Q1011=  
14-Aug-2023 SAID35 WAGB 142000 METAR WAGB 142000Z 00000KT 5000 BR BKN009 24/24 Q1011=  
14-Aug-2023 SAID35 WAGB 142030 METAR WAGB 142030Z 00000KT 5000 BR BKN009 24/24 Q1011=  
14-Aug-2023 SAID35 WAGB 142100 METAR WAGB 142100Z 00000KT 5000 BR BKN009 24/24 Q1011=  
14-Aug-2023 SAID35 WAGB 142130 METAR WAGB 142130Z 00000KT 5000 BR BKN009 24/24 Q1011=  
14-Aug-2023 SAID35 WAGB 142200 METAR WAGB 142200Z 00000KT 5000 BR BKN009 24/23 Q1012=  
14-Aug-2023 SAID35 WAGB 142230 METAR WAGB 142230Z 00000KT 5000 BR BKN009 24/23 Q1012=  
14-Aug-2023 SAID35 WAGB 142300 METAR WAGB 142300Z 00000KT 5000 BR BKN009 24/23 Q1012=  
14-Aug-2023 SAID35 WAGB 142330 METAR WAGB 142330Z 00000KT 5000 BKN009 24/23 Q1013=  
15-Aug-2023 SAID35 WAGB 150000 METAR WAGB 150000Z 34003KT 5000 HZ BKN009 25/24 Q1013 NOSIG=  
15-Aug-2023 SAID35 WAGB 150030 METAR WAGB 150030Z 00000KT 6000 BKN009 26/24 Q1013 NOSIG=  
15-Aug-2023 SAID35 WAGB 150100 METAR WAGB 150100Z 28003KT 6000 BKN010 27/24 Q1013 NOSIG=  
15-Aug-2023 SAID35 WAGB 150100 CCA METAR WAGB 150100Z 28003KT 6000 SCT010 27/24 Q1013 NOSIG=  
15-Aug-2023 SAID35 WAGB 150130 METAR WAGB 150130Z 29003KT 7000 BKN010 28/24 Q1013 NOSIG=  
15-Aug-2023 SAID35 WAGB 150130 CCA METAR WAGB 150130Z 29003KT 7000 SCT010 28/24 Q1013 NOSIG=  
15-Aug-2023 SAID35 WAGB 150200 METAR WAGB 150200Z 00000KT 8000 SCT011 29/24 Q1013 NOSIG=  
15-Aug-2023 SAID35 WAGB 150230 METAR WAGB 150230Z 12002KT 8000 SCT011 30/24 Q1013 NOSIG=  
15-Aug-2023 SAID35 WAGB 150300 METAR WAGB 150300Z 09004KT 9000 SCT011 30/24 Q1013 NOSIG=  
15-Aug-2023 SAID35 WAGB 150330 METAR WAGB 150330Z 15002KT 9000 BKN012 31/23 Q1013 NOSIG=  
15-Aug-2023 SAID35 WAGB 150400 METAR WAGB 150400Z 26006KT 9999 BKN012 31/23 Q1012 NOSIG=  
15-Aug-2023 SAID35 WAGB 150430 METAR WAGB 150430Z 25004KT 9999 BKN012 31/23 Q1012 NOSIG=  
15-Aug-2023 SAID35 WAGB 150500 METAR WAGB 150500Z 16003KT 9999 BKN013 31/23 Q1011 NOSIG=  
15-Aug-2023 SAID35 WAGB 150530 METAR WAGB 150530Z 20005KT 9999 BKN013 32/23 Q1011 NOSIG=  
15-Aug-2023 SAID35 WAGB 150600 METAR WAGB 150600Z 18006KT 9999 BKN013 31/23 Q1010 NOSIG=  
15-Aug-2023 SAID35 WAGB 150630 METAR WAGB 150630Z 20006KT 9999 BKN013 32/23 Q1009 NOSIG=  
15-Aug-2023 SAID35 WAGB 150730 METAR WAGB 150730Z 24004KT 8000 FEW014TCU SCT015 31/24 Q1010 NOSIG=  
15-Aug-2023 SAID35 WAGB 150800 METAR WAGB 150800Z 25003KT 8000 FEW014CB SCT015 29/24 Q1009 NOSIG=  
15-Aug-2023 SAID35 WAGB 150830 METAR WAGB 150830Z 25003KT 8000 FEW014CB SCT015 29/24 Q1009 NOSIG=  
15-Aug-2023 SAID35 WAGB 150900 METAR WAGB 150900Z 00000KT 8000 FEW014CB SCT015 29/24 Q1010 NOSIG=  
15-Aug-2023 SAID35 WAGB 150930 METAR WAGB 150930Z 00000KT 8000 FEW014CB SCT015 29/24 Q1010 NOSIG=  
15-Aug-2023 SAID35 WAGB 151000 METAR WAGB 151000Z 00000KT 8000 FEW013CB SCT014 29/24 Q1009 NOSIG=  
15-Aug-2023 SAID35 WAGB 151030 METAR WAGB 151030Z 00000KT 8000 FEW013CB SCT014 29/24 Q1009 NOSIG=  
15-Aug-2023 SAID35 WAGB 151100 METAR WAGB 151100Z 00000KT 8000 FEW013CB SCT014 28/26 Q1010 NOSIG=  
15-Aug-2023 SAID35 WAGB 151130 METAR WAGB 151130Z 00000KT 8000 FEW013CB SCT014 28/26 Q1010 NOSIG=  
15-Aug-2023 SAID35 WAGB 151200 METAR WAGB 151200Z 00000KT 7000 SCT013 27/25 Q1011=  
15-Aug-2023 SAID35 WAGB 151230 METAR WAGB 151230Z 00000KT 7000 SCT013 27/25 Q1011=  
15-Aug-2023 SAID35 WAGB 151300 METAR WAGB 151300Z 00000KT 6000 SCT013 27/25 Q1012=  
15-Aug-2023 SAID35 WAGB 151330 METAR WAGB 151330Z 00000KT 6000 SCT013 27/25 Q1012=  
15-Aug-2023 SAID35 WAGB 151400 METAR WAGB 151400Z 00000KT 6000 SCT012 26/25 Q1012=  
15-Aug-2023 SAID35 WAGB 151430 METAR WAGB 151430Z 00000KT 6000 SCT012 26/25 Q1012=  
15-Aug-2023 SAID35 WAGB 151500 METAR WAGB 151500Z 00000KT 6000 SCT012 26/25 Q1013=  
15-Aug-2023 SAID35 WAGB 151530 METAR WAGB 151530Z 00000KT 6000 SCT012 26/25 Q1013=  
15-Aug-2023 SAID35 WAGB 151600 METAR WAGB 151600Z 00000KT 5000 FEW011 25/25 Q1013=  
15-Aug-2023 SAID35 WAGB 151630 METAR WAGB 151630Z 00000KT 5000 FEW011 25/25 Q1013=  
15-Aug-2023 SAID35 WAGB 151700 METAR WAGB 151700Z 00000KT 4500 BKN011 25/24 Q1012=  
15-Aug-2023 SAID35 WAGB 151700 CCA METAR WAGB 151700Z 00000KT 4500 SCT011 25/24 Q1012=  
15-Aug-2023 SAID35 WAGB 151730 METAR WAGB 151730Z 00000KT 4000 SCT011 25/24 Q1012=  
15-Aug-2023 SAID35 WAGB 151800 METAR WAGB 151800Z 00000KT 4000 SCT010 25/24 Q1012=  
15-Aug-2023 SAID35 WAGB 151830 METAR WAGB 151830Z 00000KT 4000 SCT010 25/24 Q1012=  
15-Aug-2023 SAID35 WAGB 151900 METAR WAGB 151900Z 00000KT 4000 SCT010 25/24 Q1012=  
15-Aug-2023 SAID35 WAGB 151930 METAR WAGB 151930Z 00000KT 4000 SCT010 25/24 Q1012=  
15-Aug-2023 SAID35 WAGB 152000 METAR WAGB 152000Z 00000KT 4000 SCT010 25/24 Q1012=  
15-Aug-2023 SAID35 WAGB 152030 METAR WAGB 152030Z 00000KT 4000 SCT010 25/24 Q1012=  
15-Aug-2023 SAID35 WAGB 152100 METAR WAGB 152100Z 00000KT 5000 SCT009 25/24 Q1012=  
15-Aug-2023 SAID35 WAGB 152130 METAR WAGB 152130Z 00000KT 5000 SCT009 25/24 Q1012=  
15-Aug-2023 SAID35 WAGB 152200 METAR WAGB 152200Z 00000KT 5000 SCT009 25/24 Q1012=  
15-Aug-2023 SAID35 WAGB 152230 METAR WAGB 152230Z 00000KT 5000 SCT009 25/24 Q1012=  
15-Aug-2023 SAID35 WAGB 152300 METAR WAGB 152300Z 00000KT 5000 SCT010 24/24 Q1013=  
15-Aug-2023 SAID35 WAGB 152330 METAR WAGB 152330Z 00000KT 5000 SCT010 24/24 Q1013=  
16-Aug-2023 SAID35 WAGB 160000 METAR WAGB 160000Z 00000KT 6000 SCT011 25/24 Q1014 NOSIG=  
16-Aug-2023 SAID35 WAGB 160030 METAR WAGB 160030Z 22003KT 7000 SCT011 25/24 Q1014 NOSIG=  
16-Aug-2023 SAID35 WAGB 160100 METAR WAGB 160100Z 00000KT 7000 FEW010 28/23 Q1014 NOSIG=  
16-Aug-2023 SAID35 WAGB 160100 CCA METAR WAGB 160100Z 00000KT 7000 FEW010 27/23 Q1014 NOSIG=  
16-Aug-2023 SAID35 WAGB 160130 METAR WAGB 160130Z 28003KT 7000 FEW010 28/23 Q1014 NOSIG=  
16-Aug-2023 SAID35 WAGB 160200 METAR WAGB 160200Z 00000KT 7000 FEW010 30/24 Q1014 NOSIG=  
16-Aug-2023 SAID35 WAGB 160230 METAR WAGB 160230Z 33004KT 7000 FEW010 30/23 Q1014 NOSIG=  
16-Aug-2023 SAID35 WAGB 160300 METAR WAGB 160300Z 28006KT 7000 FEW010 31/23 Q1014 NOSIG=  
16-Aug-2023 SAID35 WAGB 160300 CCA METAR WAGB 160300Z 28006KT 8000 FEW010 31/23 Q1013 NOSIG=  
16-Aug-2023 SAID35 WAGB 160330 METAR WAGB 160330Z 16004KT 8000 SCT010 31/23 Q1013 NOSIG=  
16-Aug-2023 SAID35 WAGB 160400 METAR WAGB 160400Z 20005KT 9999 SCT010 32/22 Q1012 NOSIG=  
16-Aug-2023 SAID35 WAGB 160430 METAR WAGB 160430Z 17005KT 9999 BKN011 33/22 Q1012 NOSIG=  
16-Aug-2023 SAID35 WAGB 160500 METAR WAGB 160500Z 21005KT 9999 BKN011 33/22 Q1012 NOSIG=  
16-Aug-2023 SAID35 WAGB 160530 METAR WAGB 160530Z 23003KT 9999 BKN011 34/22 Q1010 NOSIG=  
16-Aug-2023 SAID35 WAGB 160600 METAR WAGB 160600Z 16004KT 9999 BKN011 33/22 Q1010 NOSIG=  
16-Aug-2023 SAID35 WAGB 160630 METAR WAGB 160630Z 22006KT 9999 BKN011 33/22 Q1009 NOSIG=  
16-Aug-2023 SAID35 WAGB 160700 METAR WAGB 160700Z 22005KT 9999 BKN011 32/22 Q1009 NOSIG=  
16-Aug-2023 SAID35 WAGB 160730 METAR WAGB 160730Z 25004KT 9999 BKN012 32/22 Q1009 NOSIG=  
16-Aug-2023 SAID35 WAGB 160800 METAR WAGB 160800Z 23004KT 9999 BKN012 33/22 Q1008 NOSIG=  
16-Aug-2023 SAID35 WAGB 160830 METAR WAGB 160830Z 31005KT 9999 BKN012 31/23 Q1008 NOSIG=  
16-Aug-2023 SAID35 WAGB 160900 METAR WAGB 160900Z 00000KT 9000 SCT015 30/24 Q1009 NOSIG=  
16-Aug-2023 SAID35 WAGB 161000 METAR WAGB 161000Z 00000KT 8000 FEW014CB SCT015 30/24 Q1009 NOSIG=  
16-Aug-2023 SAID35 WAGB 161030 METAR WAGB 161030Z 00000KT 8000 FEW014CB SCT015 29/24 Q1010 NOSIG=  
16-Aug-2023 SAID35 WAGB 161100 METAR WAGB 161100Z 00000KT 8000 FEW013CB FEW014 29/25 Q1010 NOSIG=  
16-Aug-2023 SAID35 WAGB 161130 METAR WAGB 161130Z 00000KT 8000 FEW013CB FEW014 28/25 Q1010 NOSIG=  
16-Aug-2023 SAID35 WAGB 161200 METAR WAGB 161200Z 00000KT 8000 FEW013CB 28/25 Q1011=  
16-Aug-2023 SAID35 WAGB 161230 METAR WAGB 161230Z 00000KT 8000 FEW013CB 27/25 Q1011=  
16-Aug-2023 SAID35 WAGB 161300 METAR WAGB 161300Z 00000KT 8000 FEW012CB 27/25 Q1011=  
16-Aug-2023 SAID35 WAGB 161330 METAR WAGB 161330Z 00000KT 8000 FEW012CB 27/25 Q1012=  
16-Aug-2023 SAID35 WAGB 161400 METAR WAGB 161400Z 00000KT 7000 FEW012 27/25 Q1012=  
16-Aug-2023 SAID35 WAGB 161430 METAR WAGB 161430Z 00000KT 6000 FEW012 27/25 Q1012=  
16-Aug-2023 SAID35 WAGB 161500 METAR WAGB 161500Z 00000KT 6000 FEW012 26/25 Q1012=  
16-Aug-2023 SAID35 WAGB 161530 METAR WAGB 161530Z 00000KT 6000 FEW012 26/25 Q1012=  
16-Aug-2023 SAID35 WAGB 161600 METAR WAGB 161600Z 00000KT 6000 FEW011 25/24 Q1011=  
16-Aug-2023 SAID35 WAGB 161630 METAR WAGB 161630Z 00000KT 6000 FEW011 25/24 Q1011=  
16-Aug-2023 SAID35 WAGB 161700 METAR WAGB 161700Z 00000KT 5000 BR FEW011 25/24 Q1011=  
16-Aug-2023 SAID35 WAGB 161730 METAR WAGB 161730Z 00000KT 5000 BR FEW011 25/24 Q1011=  
16-Aug-2023 SAID35 WAGB 161800 METAR WAGB 161800Z 00000KT 5000 BR FEW011 25/24 Q1012=  
16-Aug-2023 SAID35 WAGB 161830 METAR WAGB 161830Z 00000KT 5000 BR FEW011 25/24 Q1012=  
16-Aug-2023 SAID35 WAGB 161900 METAR WAGB 161900Z 00000KT 5000 BR FEW011 25/24 Q1012=  
16-Aug-2023 SAID35 WAGB 161930 METAR WAGB 161930Z 00000KT 5000 BR FEW011 25/24 Q1011=  
16-Aug-2023 SAID35 WAGB 162000 METAR WAGB 162000Z 00000KT 6000 FEW010 25/24 Q1011=  
16-Aug-2023 SAID35 WAGB 162030 METAR WAGB 162030Z 00000KT 6000 FEW010 25/24 Q1011=  
16-Aug-2023 SAID35 WAGB 162100 METAR WAGB 162100Z 00000KT 6000 FEW010 25/24 Q1011=  
16-Aug-2023 SAID35 WAGB 162130 METAR WAGB 162130Z 00000KT 6000 FEW010 25/24 Q1011=  
16-Aug-2023 SAID35 WAGB 162200 METAR WAGB 162200Z 00000KT 6000 FEW010 24/23 Q1012=  
16-Aug-2023 SAID35 WAGB 162230 METAR WAGB 162230Z 00000KT 7000 FEW010 24/23 Q1012=  
16-Aug-2023 SAID35 WAGB 162300 METAR WAGB 162300Z 00000KT 8000 FEW010 24/23 Q1012=  
16-Aug-2023 SAID35 WAGB 162330 METAR WAGB 162330Z 00000KT 8000 FEW010 24/23 Q1012=  
17-Aug-2023 SAID35 WAGB 170000 METAR WAGB 170000Z 00000KT 8000 FEW010 25/23 Q1012 NOSIG=  
17-Aug-2023 SAID35 WAGB 170030 METAR WAGB 170030Z 26004KT 9000 FEW010 26/23 Q1013 NOSIG=  
17-Aug-2023 SAID35 WAGB 170100 METAR WAGB 170100Z 00000KT 9000 FEW010 28/23 Q1013 NOSIG=  
17-Aug-2023 SAID35 WAGB 170130 METAR WAGB 170130Z 29003KT 9000 SCT010 29/23 Q1013 NOSIG=  
17-Aug-2023 SAID35 WAGB 170200 METAR WAGB 170200Z 00000KT 9000 SCT010 30/23 Q1012 NOSIG=  
17-Aug-2023 SAID35 WAGB 170230 METAR WAGB 170230Z 00000KT 9999 SCT010 31/23 Q1012 NOSIG=  
17-Aug-2023 SAID35 WAGB 170300 METAR WAGB 170300Z 00000KT 9999 SCT010 32/24 Q1012 NOSIG=  
17-Aug-2023 SAID35 WAGB 170330 METAR WAGB 170330Z 00000KT 9999 SCT011 32/23 Q1011 NOSIG=  
17-Aug-2023 SAID35 WAGB 170400 METAR WAGB 170400Z 00000KT 9999 SCT011 32/23 Q1011 NOSIG=  
17-Aug-2023 SAID35 WAGB 170430 METAR WAGB 170430Z 00000KT 9999 SCT011 33/21 Q1010 NOSIG=  
17-Aug-2023 SAID35 WAGB 170500 METAR WAGB 170500Z 00000KT 9999 SCT012 33/21 Q1010 NOSIG=  
17-Aug-2023 SAID35 WAGB 170530 METAR WAGB 170530Z 01003KT 9999 SCT012 34/20 Q1009 NOSIG=  
17-Aug-2023 SAID35 WAGB 170600 METAR WAGB 170600Z 15004KT 9999 BKN013 33/23 Q1009 NOSIG=  
17-Aug-2023 SAID35 WAGB 170630 METAR WAGB 170630Z 00000KT 9999 BKN013 33/23 Q1009 NOSIG=  
17-Aug-2023 SAID35 WAGB 170700 METAR WAGB 170700Z 00000KT 9999 BKN013 33/23 Q1008 NOSIG=  
17-Aug-2023 SAID35 WAGB 170730 METAR WAGB 170730Z 00000KT 9999 BKN013 33/23 Q1008 NOSIG=  
17-Aug-2023 SAID35 WAGB 170800 METAR WAGB 170800Z 23005KT 9999 FEW013CB BKN014 33/23 Q1008 NOSIG=  
17-Aug-2023 SAID35 WAGB 170830 METAR WAGB 170830Z 00000KT 9999 FEW013CB BKN014 33/23 Q1008 NOSIG=  
17-Aug-2023 SAID35 WAGB 170900 METAR WAGB 170900Z 25003KT 9000 FEW013CB SCT014 32/23 Q1008 NOSIG=  
17-Aug-2023 SAID35 WAGB 170930 METAR WAGB 170930Z 24003KT 9000 FEW013CB SCT014 31/23 Q1009 NOSIG=  
17-Aug-2023 SAID35 WAGB 171000 METAR WAGB 171000Z 00000KT 8000 FEW013CB SCT014 31/24 Q1009 NOSIG=  
17-Aug-2023 SAID35 WAGB 171030 METAR WAGB 171030Z 00000KT 8000 FEW013CB SCT014 31/24 Q1009 NOSIG=  
17-Aug-2023 SAID35 WAGB 171100 METAR WAGB 171100Z 00000KT 8000 VCTS FEW013CB SCT014 30/24 Q1009 NOSIG=  
17-Aug-2023 SAID35 WAGB 171130 METAR WAGB 171130Z 00000KT 8000 VCTS FEW013CB SCT014 29/24 Q1009 NOSIG=  
17-Aug-2023 SAID35 WAGB 171200 METAR WAGB 171200Z 00000KT 8000 VCTS FEW013CB SCT014 29/24 Q1009 NOSIG=  
17-Aug-2023 SAID35 WAGB 171230 METAR WAGB 171230Z 00000KT 8000 VCTS FEW013CB SCT014 29/24 Q1010 NOSIG=  
17-Aug-2023 SAID35 WAGB 171300 METAR WAGB 171300Z 00000KT 7000 FEW012CB BKN013 28/25 Q1010 NOSIG=  
17-Aug-2023 SAID35 WAGB 171330 METAR WAGB 171330Z 00000KT 7000 FEW012CB BKN013 28/25 Q1011 NOSIG=  
17-Aug-2023 SAID35 WAGB 171400 METAR WAGB 171400Z 00000KT 7000 FEW012CB BKN013 28/25 Q1011 NOSIG=  
17-Aug-2023 SAID35 WAGB 171430 METAR WAGB 171430Z 00000KT 7000 FEW012CB BKN013 28/25 Q1011 NOSIG=  
17-Aug-2023 SAID35 WAGB 171500 METAR WAGB 171500Z 00000KT 7000 FEW012CB SCT013 27/25 Q1011 NOSIG=  
17-Aug-2023 SAID35 WAGB 171530 METAR WAGB 171530Z 00000KT 7000 FEW012CB SCT013 27/25 Q1012 NOSIG=  
17-Aug-2023 SAID35 WAGB 171600 METAR WAGB 171600Z 00000KT 6000 FEW012CB SCT013 26/25 Q1012 NOSIG=  
17-Aug-2023 SAID35 WAGB 171630 METAR WAGB 171630Z 00000KT 6000 FEW012CB SCT013 26/25 Q1012 NOSIG=  
17-Aug-2023 SAID35 WAGB 171700 METAR WAGB 171700Z 00000KT 6000 FEW012CB BKN013 26/24 Q1012 NOSIG=  
17-Aug-2023 SAID35 WAGB 171730 METAR WAGB 171730Z 00000KT 6000 FEW012CB BKN013 26/24 Q1012 NOSIG=  
17-Aug-2023 SAID35 WAGB 171730 CCA METAR WAGB 171730Z 00000KT 6000 FEW012CB BKN013 26/24 Q1011 NOSIG=  
17-Aug-2023 SAID35 WAGB 171800 METAR WAGB 171800Z 00000KT 5000 HZ BKN012 26/24 Q1011 NOSIG=  
17-Aug-2023 SAID35 WAGB 171830 METAR WAGB 171830Z 00000KT 5000 HZ BKN012 26/24 Q1011 NOSIG=  
17-Aug-2023 SAID35 WAGB 171900 METAR WAGB 171900Z 00000KT 5000 HZ BKN011 25/24 Q1011 NOSIG=  
17-Aug-2023 SAID35 WAGB 171930 METAR WAGB 171930Z 00000KT 5000 HZ BKN011 25/24 Q1011 NOSIG=  
17-Aug-2023 SAID35 WAGB 172000 METAR WAGB 172000Z 00000KT 5000 HZ BKN011 25/23 Q1011 NOSIG=  
17-Aug-2023 SAID35 WAGB 172030 METAR WAGB 172030Z 00000KT 5000 HZ BKN011 25/23 Q1011 NOSIG=  
17-Aug-2023 SAID35 WAGB 172100 METAR WAGB 172100Z 00000KT 4000 BR SCT010 24/23 Q1011 NOSIG=  
17-Aug-2023 SAID35 WAGB 172130 METAR WAGB 172130Z 00000KT 4000 BR SCT010 24/23 Q1011 NOSIG=  
17-Aug-2023 SAID35 WAGB 172200 METAR WAGB 172200Z 00000KT 4000 BR SCT010 24/23 Q1011 NOSIG=  
17-Aug-2023 SAID35 WAGB 172230 METAR WAGB 172230Z 00000KT 4000 BR SCT010 24/23 Q1012 NOSIG=  
17-Aug-2023 SAID35 WAGB 172300 METAR WAGB 172300Z 00000KT 4000 BR SCT009 24/23 Q1012 NOSIG=  
17-Aug-2023 SAID35 WAGB 172330 METAR WAGB 172330Z 00000KT 4000 BR SCT009 24/23 Q1012 NOSIG=  
18-Aug-2023 SAID35 WAGB 180000 METAR WAGB 180000Z 29003KT 9000 FEW009 25/23 Q1011 NOSIG=  
18-Aug-2023 SAID35 WAGB 180030 METAR WAGB 180030Z 27004KT 9000 SCT010 26/23 Q1012 NOSIG=  
18-Aug-2023 SAID35 WAGB 180100 METAR WAGB 180100Z 00000KT 9999 FEW010 27/23 Q1012 NOSIG=  
18-Aug-2023 SAID35 WAGB 180130 METAR WAGB 180130Z 00000KT 9999 FEW011 28/23 Q1012 NOSIG=  
18-Aug-2023 SAID35 WAGB 180200 METAR WAGB 180200Z 32003KT 9999 SCT011 29/23 Q1013 NOSIG=  
18-Aug-2023 SAID35 WAGB 180300 METAR WAGB 180300Z 34003KT 9999 BKN012 31/23 Q1011 NOSIG=  
18-Aug-2023 SAID35 WAGB 180400 METAR WAGB 180400Z 33004KT 9999 BKN013 31/23 Q1010 NOSIG=  
18-Aug-2023 SAID35 WAGB 180500 METAR WAGB 180500Z 29002KT 9999 BKN013 31/23 Q1010 NOSIG=  
18-Aug-2023 SAID35 WAGB 180530 METAR WAGB 180530Z 00000KT 9999 BKN013 32/23 Q1009 NOSIG=  
18-Aug-2023 SAID35 WAGB 180600 METAR WAGB 180600Z 33008KT 9999 BKN013 32/23 Q1008 NOSIG=  
18-Aug-2023 SAID35 WAGB 180630 METAR WAGB 180630Z 31005KT 9999 FEW012TCU BKN013 31/23 Q1008 NOSIG=  
18-Aug-2023 SAID35 WAGB 180700 METAR WAGB 180700Z 34004KT 9999 FEW012TCU BKN013 31/23 Q1008 NOSIG=  
18-Aug-2023 SAID35 WAGB 180730 METAR WAGB 180730Z 32006KT 9999 FEW012TCU BKN013 33/23 Q1007 NOSIG=  
18-Aug-2023 SAID35 WAGB 180800 METAR WAGB 180800Z 33006KT 9999 FEW012TCU BKN013 32/23 Q1007 NOSIG=  
18-Aug-2023 SAID35 WAGB 180830 METAR WAGB 180830Z 33004KT 9999 FEW012TCU BKN013 32/23 Q1007 NOSIG=  
18-Aug-2023 SAID35 WAGB 180900 METAR WAGB 180900Z 01004KT 9999 FEW012TCU BKN013 32/24 Q1007 NOSIG=  
18-Aug-2023 SAID35 WAGB 180930 METAR WAGB 180930Z 00000KT 9999 FEW012TCU SCT013 32/25 Q1008=  
18-Aug-2023 SAID35 WAGB 181000 METAR WAGB 181000Z 00000KT 9999 FEW012CB SCT014 31/25 Q1008 NOSIG=  
18-Aug-2023 SAID35 WAGB 181030 METAR WAGB 181030Z 00000KT 9999 FEW012CB SCT014 31/25 Q1008 NOSIG=  
18-Aug-2023 SAID35 WAGB 181100 METAR WAGB 181100Z 00000KT 9999 FEW012 SCT014 29/25 Q1009 NOSIG=  
18-Aug-2023 SAID35 WAGB 181130 METAR WAGB 181130Z 00000KT 9999 FEW012 SCT014 29/25 Q1009 NOSIG=  
18-Aug-2023 SAID35 WAGB 181200 METAR WAGB 181200Z 00000KT 8000 VCTS FEW012CB SCT014 28/25 Q1010=  
18-Aug-2023 SAID35 WAGB 181230 METAR WAGB 181230Z 00000KT 8000 VCTS FEW012CB SCT014 28/25 Q1010=  
18-Aug-2023 SAID35 WAGB 181300 METAR WAGB 181300Z 00000KT 6000 VCTS FEW012CB SCT014 28/25 Q1010=  
18-Aug-2023 SAID35 WAGB 181330 METAR WAGB 181330Z 00000KT 6000 VCTS FEW012CB SCT014 28/25 Q1010=  
18-Aug-2023 SAID35 WAGB 181400 METAR WAGB 181400Z 00000KT 6000 VCTS FEW012CB SCT014 27/25 Q1011=  
18-Aug-2023 SAID35 WAGB 181430 METAR WAGB 181430Z 00000KT 6000 VCTS FEW012CB SCT014 27/25 Q1011=  
18-Aug-2023 SAID35 WAGB 181500 METAR WAGB 181500Z 00000KT 6000 VCTS FEW012CB 26/25 Q1011=  
18-Aug-2023 SAID35 WAGB 181530 METAR WAGB 181530Z 00000KT 6000 VCTS FEW012CB 26/25 Q1011=  
18-Aug-2023 SAID35 WAGB 181600 METAR WAGB 181600Z 00000KT 6000 FEW012CB 26/25 Q1012=  
18-Aug-2023 SAID35 WAGB 181600 CCA METAR WAGB 181600Z 00000KT 6000 VCTS FEW012CB 26/25 Q1012=  
18-Aug-2023 SAID35 WAGB 181630 METAR WAGB 181630Z 00000KT 6000 FEW012CB 26/25 Q1012=  
18-Aug-2023 SAID35 WAGB 181630 CCA METAR WAGB 181630Z 00000KT 6000 VCTS FEW012CB 26/25 Q1012=  
18-Aug-2023 SAID35 WAGB 181700 METAR WAGB 181700Z 00000KT 4000 -RA FEW011CB BKN012 25/24 Q1012=  
18-Aug-2023 SAID35 WAGB 181730 METAR WAGB 181730Z 00000KT 5000 -RA FEW011CB BKN012 25/24 Q1012=  
18-Aug-2023 SAID35 WAGB 181800 METAR WAGB 181800Z 00000KT 4000 -RA BKN011 25/24 Q1011=  
18-Aug-2023 SAID35 WAGB 181830 METAR WAGB 181830Z 00000KT 5000 -RA BKN011 25/24 Q1012=  
18-Aug-2023 SAID35 WAGB 181900 METAR WAGB 181900Z 00000KT 4000 -RA BKN011 25/24 Q1010=  
18-Aug-2023 SAID35 WAGB 181930 METAR WAGB 181930Z 00000KT 4000 -RA BKN011 25/24 Q1010=  
18-Aug-2023 SAID35 WAGB 182000 METAR WAGB 182000Z 00000KT 4000 -RA BKN011 25/25 Q1010=  
18-Aug-2023 SAID35 WAGB 182030 METAR WAGB 182030Z 00000KT 4000 -RA BKN011 25/25 Q1010=  
18-Aug-2023 SAID35 WAGB 182100 METAR WAGB 182100Z 00000KT 5000 BKN010 25/24 Q1011 RERA=  
18-Aug-2023 SAID35 WAGB 182130 METAR WAGB 182130Z 00000KT 4000 BR BKN010 25/24 Q1012=  
18-Aug-2023 SAID35 WAGB 182200 METAR WAGB 182200Z 00000KT 4000 BR BKN010 25/24 Q1012=  
18-Aug-2023 SAID35 WAGB 182230 METAR WAGB 182230Z 00000KT 4000 BR BKN010 25/24 Q1012=  
18-Aug-2023 SAID35 WAGB 182300 METAR WAGB 182300Z 00000KT 3000 BR BKN010 25/24 Q1012=  
18-Aug-2023 SAID35 WAGB 182330 METAR WAGB 182330Z 00000KT 3000 BR BKN010 25/24 Q1012=  
19-Aug-2023 SAID35 WAGB 190000 METAR WAGB 190000Z 00000KT 3000 BR FEW008 25/24 Q1012 NOSIG=  
19-Aug-2023 SAID35 WAGB 190030 METAR WAGB 190030Z 00000KT 2500 BR SCT007 25/24 Q1012 NOSIG=  
19-Aug-2023 SAID35 WAGB 190100 METAR WAGB 190100Z VRB02KT 3000 HZ BKN007 26/24 Q1012 NOSIG=  
19-Aug-2023 SAID35 WAGB 190130 METAR WAGB 190130Z 00000KT 5000 HZ BKN008 27/25 Q1012 NOSIG=  
19-Aug-2023 SAID35 WAGB 190200 METAR WAGB 190200Z VRB02KT 7000 BKN009 27/24 Q1012 NOSIG=  
19-Aug-2023 SAID35 WAGB 190230 METAR WAGB 190230Z VRB02KT 7000 BKN009 27/24 Q1012 NOSIG=  
19-Aug-2023 SAID35 WAGB 190300 METAR WAGB 190300Z 33003KT 8000 BKN010 28/24 Q1012 NOSIG=  
19-Aug-2023 SAID35 WAGB 190330 METAR WAGB 190330Z VRB02KT 8000 BKN010 27/24 Q1012 NOSIG=  
19-Aug-2023 SAID35 WAGB 190400 METAR WAGB 190400Z VRB02KT 8000 BKN010 29/24 Q1011 NOSIG=  
19-Aug-2023 SAID35 WAGB 190430 METAR WAGB 190430Z 35004KT 9000 BKN011 30/23 Q1011 NOSIG=  
19-Aug-2023 SAID35 WAGB 190500 METAR WAGB 190500Z 00000KT 9000 BKN011 30/24 Q1010 NOSIG=  
19-Aug-2023 SAID35 WAGB 190530 METAR WAGB 190530Z 06002KT 9999 BKN012 32/24 Q1009 NOSIG=  
19-Aug-2023 SAID35 WAGB 190600 METAR WAGB 190600Z 11004KT 9999 SCT012 32/24 Q1009 NOSIG=  
19-Aug-2023 SAID35 WAGB 190630 METAR WAGB 190630Z 12002KT 9999 SCT013 31/24 Q1008 NOSIG=  
19-Aug-2023 SAID35 WAGB 190700 METAR WAGB 190700Z 13002KT 9999 SCT013 33/25 Q1008 NOSIG=  
19-Aug-2023 SAID35 WAGB 190730 METAR WAGB 190730Z 00000KT 9000 SCT015 32/25 Q1008 NOSIG=  
19-Aug-2023 SAID35 WAGB 190800 METAR WAGB 190800Z 00000KT 9000 FEW015 32/24 Q1007 NOSIG=  
19-Aug-2023 SAID35 WAGB 190830 METAR WAGB 190830Z 00000KT 9000 FEW015 32/24 Q1007 NOSIG=  
19-Aug-2023 SAID35 WAGB 190900 METAR WAGB 190900Z 00000KT 9000 FEW015 32/24 Q1007 NOSIG=  
19-Aug-2023 SAID35 WAGB 190930 METAR WAGB 190930Z 00000KT 9000 FEW015 30/25 Q1007 NOSIG=  
19-Aug-2023 SAID35 WAGB 191000 METAR WAGB 191000Z 00000KT 9000 FEW015 30/25 Q1007 NOSIG=  
19-Aug-2023 SAID35 WAGB 191030 METAR WAGB 191030Z 00000KT 9000 FEW0 30/25 Q1008 NOSIG=  
19-Aug-2023 SAID35 WAGB 191100 METAR WAGB 191100Z 00000KT 8000 FEW014CB 29/25 Q1008 NOSIG=  
19-Aug-2023 SAID35 WAGB 191100 CCA METAR WAGB 191100Z 00000KT 8000 FEW014 29/25 Q1008 NOSIG=  
19-Aug-2023 SAID35 WAGB 191130 METAR WAGB 191130Z 00000KT 8000 FEW014 29/25 Q1009 NOSIG=  
19-Aug-2023 SAID35 WAGB 191200 METAR WAGB 191200Z 00000KT 8000 FEW014 28/26 Q1009=  
19-Aug-2023 SAID35 WAGB 191230 METAR WAGB 191230Z 00000KT 8000 FEW014 28/26 Q1009=  
19-Aug-2023 SAID35 WAGB 191300 METAR WAGB 191300Z 00000KT 8000 FEW013 27/25 Q1009=  
19-Aug-2023 SAID35 WAGB 191330 METAR WAGB 191330Z 00000KT 8000 FEW013 27/25 Q1009=  
19-Aug-2023 SAID35 WAGB 191400 METAR WAGB 191400Z 00000KT 7000 FEW013 27/25 Q1010=  
19-Aug-2023 SAID35 WAGB 191430 METAR WAGB 191430Z 00000KT 7000 FEW013 27/25 Q1010=  
19-Aug-2023 SAID35 WAGB 191500 METAR WAGB 191500Z 00000KT 7000 FEW012 27/26 Q1011=  
19-Aug-2023 SAID35 WAGB 191530 METAR WAGB 191530Z 00000KT 7000 FEW012 27/26 Q1011=  
19-Aug-2023 SAID35 WAGB 191600 METAR WAGB 191600Z 00000KT 7000 FEW012 27/25 Q1011=  
19-Aug-2023 SAID35 WAGB 191630 METAR WAGB 191630Z 00000KT 7000 FEW012 27/25 Q1011=  
19-Aug-2023 SAID35 WAGB 191700 METAR WAGB 191700Z 00000KT 7000 FEW012 26/25 Q1011=  
19-Aug-2023 SAID35 WAGB 191730 METAR WAGB 191730Z 00000KT 7000 FEW012 26/25 Q1011=  
19-Aug-2023 SAID35 WAGB 191800 METAR WAGB 191800Z 00000KT 6000 FEW012 26/25 Q1011=  
19-Aug-2023 SAID35 WAGB 191830 METAR WAGB 191830Z 00000KT 6000 FEW012 26/25 Q1011=  
19-Aug-2023 SAID35 WAGB 191900 METAR WAGB 191900Z 00000KT 6000 FEW011 26/25 Q1010=  
19-Aug-2023 SAID35 WAGB 191930 METAR WAGB 191930Z 00000KT 6000 FEW011 26/25 Q1010=  
19-Aug-2023 SAID35 WAGB 192000 METAR WAGB 192000Z 00000KT 6000 SCT011 26/25 Q1010=  
19-Aug-2023 SAID35 WAGB 192030 METAR WAGB 192030Z 00000KT 6000 SCT011 26/25 Q1010=  
19-Aug-2023 SAID35 WAGB 192100 METAR WAGB 192100Z 00000KT 6000 SCT011 25/24 Q1010=  
19-Aug-2023 SAID35 WAGB 192130 METAR WAGB 192130Z 00000KT 6000 SCT011 25/24 Q1010=  
19-Aug-2023 SAID35 WAGB 192200 METAR WAGB 192200Z 00000KT 6000 SCT011 26/24 Q1011=  
19-Aug-2023 SAID35 WAGB 192230 METAR WAGB 192230Z 00000KT 6000 SCT011 26/24 Q1011=  
19-Aug-2023 SAID35 WAGB 192300 METAR WAGB 192300Z 00000KT 6000 SCT011 26/24 Q1011=  
19-Aug-2023 SAID35 WAGB 192330 METAR WAGB 192330Z 00000KT 6000 SCT011 26/24 Q1011=  
20-Aug-2023 SAID35 WAGB 200000 METAR WAGB 200000Z 00000KT 4000 HZ BKN008 25/24 Q1012 NOSIG=  
20-Aug-2023 SAID35 WAGB 200030 METAR WAGB 200030Z 00000KT 5000 HZ BKN008 25/24 Q1012 NOSIG=  
20-Aug-2023 SAID35 WAGB 200100 METAR WAGB 200100Z 00000KT 5000 HZ BKN009 27/24 Q1012 NOSIG=  
20-Aug-2023 SAID35 WAGB 200130 METAR WAGB 200130Z 00000KT 5000 HZ BKN009 27/24 Q1012 NOSIG=  
20-Aug-2023 SAID35 WAGB 200200 METAR WAGB 200200Z 00000KT 7000 SCT010 28/24 Q1012 NOSIG=  
20-Aug-2023 SAID35 WAGB 200230 METAR WAGB 200230Z 00000KT 7000 SCT010 29/24 Q1012 NOSIG=  
20-Aug-2023 SAID35 WAGB 200300 METAR WAGB 200300Z 00000KT 8000 SCT010 30/24 Q1011 NOSIG=  
20-Aug-2023 SAID35 WAGB 200330 METAR WAGB 200330Z 00000KT 8000 SCT010 30/24 Q1011 NOSIG=  
20-Aug-2023 SAID35 WAGB 200400 METAR WAGB 200400Z VRB03KT 8000 SCT010 31/24 Q1010 NOSIG=  
20-Aug-2023 SAID35 WAGB 200430 METAR WAGB 200430Z 25003KT 8000 FEW011TCU BKN012 32/24 Q1010 NOSIG=  
20-Aug-2023 SAID35 WAGB 200530 METAR WAGB 200530Z 21003KT 8000 FEW013TCU BKN014 32/23 Q1008 NOSIG=  
20-Aug-2023 SAID35 WAGB 200600 METAR WAGB 200600Z 24003KT 8000 FEW013TCU BKN014 33/23 Q1008 NOSIG=  
20-Aug-2023 SAID35 WAGB 200630 METAR WAGB 200630Z 23004KT 8000 FEW013TCU BKN014 33/23 Q1007 NOSIG=  
20-Aug-2023 SAID35 WAGB 200700 METAR WAGB 200700Z 31004KT 8000 FEW014TCU SCT014 34/23 Q1007 NOSIG=  
20-Aug-2023 SAID35 WAGB 200730 METAR WAGB 200730Z 00000KT 9999 BKN014 34/24 Q1007 NOSIG=  
20-Aug-2023 SAID35 WAGB 200800 METAR WAGB 200800Z 00000KT 9999 BKN014 34/24 Q1007 NOSIG=  
20-Aug-2023 SAID35 WAGB 200830 METAR WAGB 200830Z 00000KT 9999 BKNO14 34/24 Q1007 NOSIG=  
20-Aug-2023 SAID35 WAGB 200900 METAR WAGB 200900Z 23004KT 9999 FEW014 34/24 Q1007 NOSIG=  
20-Aug-2023 SAID35 WAGB 200930 METAR WAGB 200930Z 00000KT 9999 FEW014 33/24 Q1007 NOSIG=  
20-Aug-2023 SAID35 WAGB 201000 METAR WAGB 201000Z 00000KT 9999 FEW013CB FEW014 32/24 Q1007 NOSIG=  
20-Aug-2023 SAID35 WAGB 201030 METAR WAGB 201030Z 00000KT 9999 FEW013CB FEW014 32/24 Q1007 NOSIG=  
20-Aug-2023 SAID35 WAGB 201100 METAR WAGB 201100Z 00000KT 9999 FEW013CB FEW014 31/26 Q1008 NOSIG=  
20-Aug-2023 SAID35 WAGB 201130 METAR WAGB 201130Z 00000KT 9999 FEW013CB FEW014 31/23 Q1008 NOSIG=  
20-Aug-2023 SAID35 WAGB 201200 METAR WAGB 201200Z 00000KT 7000 FEW012CB SCT013 29/24 Q1009=  
20-Aug-2023 SAID35 WAGB 201230 METAR WAGB 201230Z 00000KT 7000 FEW012CB SCT013 29/24 Q1009=  
20-Aug-2023 SAID35 WAGB 201300 METAR WAGB 201300Z 00000KT 7000 SCT013 28/24 Q1010=  
20-Aug-2023 SAID35 WAGB 201330 METAR WAGB 201330Z 00000KT 7000 SCT013 28/24 Q1010=  
20-Aug-2023 SAID35 WAGB 201400 METAR WAGB 201400Z 00000KT 7000 SCT012 28/24 Q1010=  
20-Aug-2023 SAID35 WAGB 201430 METAR WAGB 201430Z 00000KT 5000 -RA SCT012 28/24 Q1010=  
20-Aug-2023 SAID35 WAGB 201500 METAR WAGB 201500Z 00000KT 5000 -RA SCT012 27/24 Q1010=  
20-Aug-2023 SAID35 WAGB 201530 METAR WAGB 201530Z 00000KT 5000 -RA SCT012 27/24 Q1010=  
20-Aug-2023 SAID35 WAGB 201600 METAR WAGB 201600Z 00000KT 5000 BR BKN011 26/24 Q1011 RERA=  
20-Aug-2023 SAID35 WAGB 201630 METAR WAGB 201630Z 06005KT 5000 BR BKN011 26/24 Q1011=  
20-Aug-2023 SAID35 WAGB 201700 METAR WAGB 201700Z 00000KT 5000 BR BKN011 26/24 Q1011=  
20-Aug-2023 SAID35 WAGB 201730 METAR WAGB 201730Z 00000KT 5000 BR BKN011 26/24 Q1011=  
20-Aug-2023 SAID35 WAGB 201800 METAR WAGB 201800Z 00000KT 5000 BR BKN011 26/24 Q1011=  
20-Aug-2023 SAID35 WAGB 201830 METAR WAGB 201830Z 00000KT 5000 BR BKN011 26/24 Q1011=  
20-Aug-2023 SAID35 WAGB 201900 METAR WAGB 201900Z 00000KT 4000 BR BKN011 26/24 Q1010=  
20-Aug-2023 SAID35 WAGB 201930 METAR WAGB 201930Z 00000KT 4000 BR BKN011 26/24 Q1010=  
20-Aug-2023 SAID35 WAGB 202000 METAR WAGB 202000Z 00000KT 4000 BR BKN011 25/24 Q1010=  
20-Aug-2023 SAID35 WAGB 202030 METAR WAGB 202030Z 00000KT 4000 BR BKN011 25/24 Q1010=  
20-Aug-2023 SAID35 WAGB 202100 METAR WAGB 202100Z 00000KT 4000 BR BKN010 25/24 Q1010=  
20-Aug-2023 SAID35 WAGB 202130 METAR WAGB 202130Z 00000KT 4000 BR BKN010 25/24 Q1010=  
20-Aug-2023 SAID35 WAGB 202200 METAR WAGB 202200Z 00000KT 4000 BR BKN010 25/24 Q1011=  
20-Aug-2023 SAID35 WAGB 202230 METAR WAGB 202230Z 00000KT 4000 BR BKN010 25/24 Q1011=  
20-Aug-2023 SAID35 WAGB 202300 METAR WAGB 202300Z 00000KT 5000 BR SCT010 25/23 Q1011=  
20-Aug-2023 SAID35 WAGB 202330 METAR WAGB 202330Z 00000KT 5000 BR SCT010 25/23 Q1011=  
21-Aug-2023 SAID35 WAGB 210000 METAR WAGB 210000Z 34004KT 5000 HZ FEW010 26/24 Q1011 NOSIG=  
21-Aug-2023 SAID35 WAGB 210030 METAR WAGB 210030Z 35003KT 7000 FEW010 27/24 Q1011 NOSIG=  
21-Aug-2023 SAID35 WAGB 210100 METAR WAGB 210100Z 00000KT 8000 NSC 27/24 Q1011 NOSIG=  
21-Aug-2023 SAID35 WAGB 210130 METAR WAGB 210130Z 36003KT 8000 FEW010 28/23 Q1011 NOSIG=  
21-Aug-2023 SAID35 WAGB 210200 METAR WAGB 210200Z 06004KT 9000 FEW010 29/22 Q1011 NOSIG=  
21-Aug-2023 SAID35 WAGB 210230 METAR WAGB 210230Z VRB02KT 9000 FEW010 30/22 Q1011 NOSIG=  
21-Aug-2023 SAID35 WAGB 210300 METAR WAGB 210300Z 11005KT 9999 FEW010 31/23 Q1011 NOSIG=  
21-Aug-2023 SAID35 WAGB 210330 METAR WAGB 210330Z 17003KT 9999 FEW010 31/22 Q1010 NOSIG=  
21-Aug-2023 SAID35 WAGB 210400 METAR WAGB 210400Z 18004KT 9999 FEW010 32/22 Q1010 NOSIG=  
21-Aug-2023 SAID35 WAGB 210430 METAR WAGB 210430Z 05003KT 9999 FEW010 32/22 Q1009 NOSIG=  
21-Aug-2023 SAID35 WAGB 210500 METAR WAGB 210500Z 13003KT 9999 BKN010 32/22 Q1009 NOSIG=  
21-Aug-2023 SAID35 WAGB 210530 METAR WAGB 210530Z 02005KT 9999 BKN011 32/23 Q1008 NOSIG=  
21-Aug-2023 SAID35 WAGB 210600 METAR WAGB 210600Z 32004KT 9999 BKN011 32/22 Q1008 NOSIG=  
21-Aug-2023 SAID35 WAGB 210630 METAR WAGB 210630Z 00000KT 9999 BKN012 33/23 Q1008 NOSIG=  
21-Aug-2023 SAID35 WAGB 210700 METAR WAGB 210700Z 00000KT 9999 FEW012TCU SCT013 31/23 Q1007 NOSIG=  
21-Aug-2023 SAID35 WAGB 210730 METAR WAGB 210730Z 00000KT 9999 FEW012TCU SCT013 32/23 Q1007 NOSIG=  
21-Aug-2023 SAID35 WAGB 210800 METAR WAGB 210800Z 00000KT 9999 BKN013 33/23 Q1007 NOSIG=  
21-Aug-2023 SAID35 WAGB 210830 METAR WAGB 210830Z 00000KT 9999 BKN013 33/23 Q1007 NOSIG=  
21-Aug-2023 SAID35 WAGB 210900 METAR WAGB 210900Z 05005KT 9999 FEW013 33/23 Q1007 NOSIG=  
21-Aug-2023 SAID35 WAGB 210930 METAR WAGB 210930Z 00000KT 9999 FEW013 33/23 Q1007 NOSIG=  
21-Aug-2023 SAID35 WAGB 211000 METAR WAGB 211000Z 00000KT 9999 FEW013 32/24 Q1008 NOSIG=  
21-Aug-2023 SAID35 WAGB 211030 METAR WAGB 211030Z 00000KT 9999 FEW013 31/23 Q1008 NOSIG=  
21-Aug-2023 SAID35 WAGB 211100 METAR WAGB 211100Z 00000KT 9000 FEW013 30/25 Q1008 NOSIG=  
21-Aug-2023 SAID35 WAGB 211130 METAR WAGB 211130Z 00000KT 9999 FEW013 30/25 Q1009 NOSIG=  
21-Aug-2023 SAID35 WAGB 211200 METAR WAGB 211200Z 00000KT 8000 NSC 29/25 Q1009=  
21-Aug-2023 SAID35 WAGB 211230 METAR WAGB 211230Z 00000KT 8000 NSC 29/25 Q1010=  
21-Aug-2023 SAID35 WAGB 211300 METAR WAGB 211300Z 00000KT 8000 FEW013 28/25 Q1010=  
21-Aug-2023 SAID35 WAGB 211330 METAR WAGB 211330Z 00000KT 8000 FEW013 28/25 Q1010=  
21-Aug-2023 SAID35 WAGB 211400 METAR WAGB 211400Z 00000KT 8000 FEW013 28/25 Q1010=  
21-Aug-2023 SAID35 WAGB 211430 METAR WAGB 211430Z 00000KT 8000 FEW013 27/25 Q1011=  
21-Aug-2023 SAID35 WAGB 211500 METAR WAGB 211500Z 00000KT 7000 FEW012 27/25 Q1011=  
21-Aug-2023 SAID35 WAGB 211530 METAR WAGB 211530Z 00000KT 7000 FEW012 27/25 Q1011=  
21-Aug-2023 SAID35 WAGB 211600 METAR WAGB 211600Z 00000KT 7000 FEW012 27/25 Q1011=  
21-Aug-2023 SAID35 WAGB 211630 METAR WAGB 211630Z 00000KT 7000 FEW012 27/25 Q1011=  
21-Aug-2023 SAID35 WAGB 211700 METAR WAGB 211700Z 00000KT 7000 SCT011 26/25 Q1011=  
21-Aug-2023 SAID35 WAGB 211730 METAR WAGB 211730Z 00000KT 7000 SCT011 26/25 Q1010=  
21-Aug-2023 SAID35 WAGB 211800 METAR WAGB 211800Z 00000KT 6000 BKN011 26/25 Q1010=  
21-Aug-2023 SAID35 WAGB 211830 METAR WAGB 211830Z 00000KT 6000 BKN011 26/25 Q1010=  
21-Aug-2023 SAID35 WAGB 211900 METAR WAGB 211900Z 00000KT 6000 BKN011 26/25 Q1010=  
21-Aug-2023 SAID35 WAGB 211930 METAR WAGB 211930Z 00000KT 6000 BKN011 26/25 Q1010=  
21-Aug-2023 SAID35 WAGB 212000 METAR WAGB 212000Z 00000KT 6000 BKN011 26/24 Q1010=  
21-Aug-2023 SAID35 WAGB 212030 METAR WAGB 212030Z 00000KT 6000 BKN011 26/24 Q1010=  
21-Aug-2023 SAID35 WAGB 212100 METAR WAGB 212100Z 00000KT 6000 BKN011 26/24 Q1010=  
21-Aug-2023 SAID35 WAGB 212130 METAR WAGB 212130Z 00000KT 6000 BKN011 26/24 Q1010=  
21-Aug-2023 SAID35 WAGB 212200 METAR WAGB 212200Z 00000KT 6000 SCT011 26/24 Q1010=  
21-Aug-2023 SAID35 WAGB 212230 METAR WAGB 212230Z 00000KT 6000 SCT011 26/24 Q1011=  
21-Aug-2023 SAID35 WAGB 212300 METAR WAGB 212300Z 29002KT 5000 VCSH BKN010 25/24 Q1011=  
21-Aug-2023 SAID35 WAGB 212330 METAR WAGB 212330Z 29002KT 5000 VCSH BKN010 25/24 Q1012=  
22-Aug-2023 SAID35 WAGB 220000 METAR WAGB 220000Z 00000KT 5000 VCSH BKN010 26/24 Q1012 NOSIG=  
22-Aug-2023 SAID35 WAGB 220030 METAR WAGB 220030Z 34004KT 5000 BR BKN010 26/24 Q1012 BECMG TL0100 6000 NSW=  
22-Aug-2023 SAID35 WAGB 220100 METAR WAGB 220100Z 34004KT 6000 BKN010 27/24 Q1012 NOSIG=  
22-Aug-2023 SAID35 WAGB 220130 METAR WAGB 220130Z 35005KT 7000 BKN010 27/24 Q1012 NOSIG=  
22-Aug-2023 SAID35 WAGB 220200 METAR WAGB 220200Z 35006KT 7000 BKN010 28/24 Q1012 NOSIG=  
22-Aug-2023 SAID35 WAGB 220230 METAR WAGB 220230Z 33005KT 7000 BKN010 28/24 Q1012 NOSIG=  
22-Aug-2023 SAID35 WAGB 220300 METAR WAGB 220300Z 33003KT 8000 BKN011 28/24 Q1011 NOSIG=  
22-Aug-2023 SAID35 WAGB 220330 METAR WAGB 220330Z 29005KT 8000 BKN011 29/24 Q1011 NOSIG=  
22-Aug-2023 SAID35 WAGB 220400 METAR WAGB 220400Z 29003KT 9999 BKN012 30/24 Q1011 NOSIG=  
22-Aug-2023 SAID35 WAGB 220430 METAR WAGB 220430Z 30004KT 9999 BKN012 30/24 Q1010 NOSIG=  
22-Aug-2023 SAID35 WAGB 220500 METAR WAGB 220500Z 31004KT 9999 BKN013 30/24 Q1009 NOSIG=  
22-Aug-2023 SAID35 WAGB 220530 METAR WAGB 220530Z 03002KT 9999 BKN013 31/24 Q1008 NOSIG=  
22-Aug-2023 SAID35 WAGB 220600 METAR WAGB 220600Z 17003KT 9999 SCT014 32/24 Q1008 NOSIG=  
22-Aug-2023 SAID35 WAGB 220630 METAR WAGB 220630Z 00000KT 9999 SCT014 33/24 Q1007 NOSIG=  
22-Aug-2023 SAID35 WAGB 220700 METAR WAGB 220700Z 36003KT 9999 SCT014 34/24 Q1007 NOSIG=  
22-Aug-2023 SAID35 WAGB 220730 METAR WAGB 220730Z 20002KT 9999 FEW015 34/23 Q1007 NOSIG=  
22-Aug-2023 SAID35 WAGB 220800 METAR WAGB 220800Z 07003KT 9999 FEW015 34/23 Q1007 NOSIG=  
22-Aug-2023 SAID35 WAGB 220830 METAR WAGB 220830Z 03002KT 9999 FEW015 33/23 Q1006 NOSIG=  
22-Aug-2023 SAID35 WAGB 220900 METAR WAGB 220900Z 00000KT 9999 FEW014TCU FEW015 32/22 Q1006 NOSIG=  
22-Aug-2023 SAID35 WAGB 220930 METAR WAGB 220930Z 00000KT 9999 FEW013CB FEW014 32/25 Q1007 NOSIG=  
22-Aug-2023 SAID35 WAGB 221000 METAR WAGB 221000Z 00000KT 9999 FEW013CB FEW014 32/25 Q1007 NOSIG=  
22-Aug-2023 SAID35 WAGB 221030 METAR WAGB 221030Z 00000KT 9999 FEW013CB FEW014 31/24 Q1008 NOSIG=  
22-Aug-2023 SAID35 WAGB 221100 METAR WAGB 221100Z 00000KT 9999 FEW013CB SCT014 30/25 Q1008 NOSIG=  
22-Aug-2023 SAID35 WAGB 221130 METAR WAGB 221130Z 00000KT 9000 FEW013CB FEW014 30/24 Q1008 NOSIG=  
22-Aug-2023 SAID35 WAGB 221200 METAR WAGB 221200Z 00000KT 9999 FEW012CB SCT013 30/26 Q1009 NOSIG=  
22-Aug-2023 SAID35 WAGB 221230 METAR WAGB 221230Z 00000KT 9999 FEW012CB SCT013 30/26 Q1009 NOSIG=  
22-Aug-2023 SAID35 WAGB 221300 METAR WAGB 221300Z 00000KT 8000 FEW012CB SCT013 28/26 Q1010 NOSIG=  
22-Aug-2023 SAID35 WAGB 221330 METAR WAGB 221330Z 00000KT 8000 FEW012CB SCT013 28/26 Q1010 NOSIG=  
22-Aug-2023 SAID35 WAGB 221400 METAR WAGB 221400Z 00000KT 8000 SCT012 28/25 Q1010 NOSIG=  
22-Aug-2023 SAID35 WAGB 221430 METAR WAGB 221430Z 00000KT 8000 SCT012 28/25 Q1010 NOSIG=  
22-Aug-2023 SAID35 WAGB 221500 METAR WAGB 221500Z 00000KT 8000 BKN012 28/25 Q1011=  
22-Aug-2023 SAID35 WAGB 221530 METAR WAGB 221530Z 00000KT 8000 BKN012 28/25 Q1011=  
22-Aug-2023 SAID35 WAGB 221600 METAR WAGB 221600Z 00000KT 6000 BKN012 27/25 Q1011=  
22-Aug-2023 SAID35 WAGB 221630 METAR WAGB 221630Z 00000KT 6000 BKN012 27/25 Q1010=  
22-Aug-2023 SAID35 WAGB 221700 METAR WAGB 221700Z 00000KT 6000 BKN012 26/25 Q1010=  
22-Aug-2023 SAID35 WAGB 221700 CCA METAR WAGB 221700Z 00000KT 6000 TS FEW011CB SCT012 26/25 Q1010=  
22-Aug-2023 SAID35 WAGB 221730 METAR WAGB 221730Z 00000KT 6000 TSRA FEW011CB SCT012 26/25 Q1010=  
22-Aug-2023 SAID35 WAGB 221800 METAR WAGB 221800Z 00000KT 5000 TS FEW011CB SCT012 26/25 Q1010=  
22-Aug-2023 SAID35 WAGB 221830 METAR WAGB 221830Z 00000KT 5000 TS FEW011CB SCT012 26/25 Q1010=  
22-Aug-2023 SAID35 WAGB 221900 METAR WAGB 221900Z 00000KT 5000 TS FEW010CB SCT011 25/24 Q1010=  
22-Aug-2023 SAID35 WAGB 221930 METAR WAGB 221930Z 00000KT 5000 TS FEW010CB SCT011 25/24 Q1010=  
22-Aug-2023 SAID35 WAGB 222000 METAR WAGB 222000Z 00000KT 5000 BR BKN010 25/24 Q1010=  
22-Aug-2023 SAID35 WAGB 222100 METAR WAGB 222100Z 00000KT 5000 BR BKN010 25/24 Q1010=  
22-Aug-2023 SAID35 WAGB 222130 METAR WAGB 222130Z 00000KT 5000 BR BKN010 25/24 Q1010=  
22-Aug-2023 SAID35 WAGB 222200 METAR WAGB 222200Z 00000KT 5000 BR BKN010 26/25 Q1011=  
22-Aug-2023 SAID35 WAGB 222230 METAR WAGB 222230Z 00000KT 5000 BR BKN010 26/25 Q1011=  
22-Aug-2023 SAID35 WAGB 222300 METAR WAGB 222300Z 00000KT 5000 HZ BKN010 26/25 Q1012=  
22-Aug-2023 SAID35 WAGB 222330 METAR WAGB 222330Z 00000KT 5000 HZ BKN010 26/25 Q1012=  
23-Aug-2023 SAID35 WAGB 230000 METAR WAGB 230000Z 00000KT 6000 BKN010 26/25 Q1013 NOSIG=  
23-Aug-2023 SAID35 WAGB 230030 METAR WAGB 230030Z 34005KT 6000 BKN010 26/25 Q1013 NOSIG=  
23-Aug-2023 SAID35 WAGB 230100 METAR WAGB 230100Z 36008KT 6000 BKN009 26/24 Q1013 NOSIG=  
23-Aug-2023 SAID35 WAGB 230130 METAR WAGB 230130Z 36006KT 6000 BKN009 26/24 Q1013 NOSIG=  
23-Aug-2023 SAID35 WAGB 230200 METAR WAGB 230200Z 36008KT 7000 BKN010 25/23 Q1013 NOSIG=  
23-Aug-2023 SPID33 WAGB 230209 SPECI WAGB 230209Z 36006KT 6000 -RA BKN010 25/23 Q1013=  
23-Aug-2023 SAID35 WAGB 230230 METAR WAGB 230230Z 01007KT 7000 BKN010 25/22 Q1013 RERA NOSIG=  
23-Aug-2023 SAID35 WAGB 230300 METAR WAGB 230300Z 33007KT 8000 BKN010 26/23 Q1013 RERA NOSIG=  
23-Aug-2023 SAID35 WAGB 230300 CCA METAR WAGB 230300Z 33007KT 8000 BKN010 26/23 Q1013 NOSIG=  
23-Aug-2023 SAID35 WAGB 230330 METAR WAGB 230330Z 04006KT 9000 BKN011 29/23 Q1012 NOSIG=  
23-Aug-2023 SAID35 WAGB 230400 METAR WAGB 230330Z 02006KT 9999 FEW012 29/23 Q1011 NOSIG=  
23-Aug-2023 SAID35 WAGB 230400 METAR WAGB 230400Z 02006KT 9999 FEW012 29/23 Q1011 NOSIG=  
23-Aug-2023 SAID35 WAGB 230430 METAR WAGB 230430Z 06002KT 9999 FEW012 29/23 Q1010 NOSIG=  
23-Aug-2023 SAID35 WAGB 230500 METAR WAGB 230500Z 08005KT 9999 FEW012 31/22 Q1010 NOSIG=  
23-Aug-2023 SAID35 WAGB 230530 METAR WAGB 230530Z 04003KT 9999 FEW013 31/23 Q1009 NOSIG=  
23-Aug-2023 SAID35 WAGB 230600 METAR WAGB 230600Z 05003KT 9999 FEW013 33/23 Q1009 NOSIG=  
23-Aug-2023 SAID35 WAGB 230630 METAR WAGB 230630Z 00000KT 9999 SCT014 34/23 Q1008 NOSIG=  
23-Aug-2023 SAID35 WAGB 230700 METAR WAGB 230700Z 11005KT 9999 SCT014 34/23 Q1007 NOSIG=  
23-Aug-2023 SAID35 WAGB 230730 METAR WAGB 230730Z 30003KT 9999 FEW015TCU BKN016 33/23 Q1007 NOSIG=  
23-Aug-2023 SAID35 WAGB 230800 METAR WAGB 230800Z 32003KT 9999 FEW015TCU SCT016 32/25 Q1008 NOSIG=  
23-Aug-2023 SAID35 WAGB 230830 METAR WAGB 230830Z 33003KT 9999 FEW015TCU SCT016 32/25 Q1007 NOSIG=  
23-Aug-2023 SAID35 WAGB 230900 METAR WAGB 230900Z 03009KT 8000 -RA FEW015CB 33/25 Q1008 NOSIG=  
23-Aug-2023 SAID35 WAGB 230930 METAR WAGB 230930Z 00000KT 7000 RA FEW015CB 30/25 Q1008 NOSIG=  
23-Aug-2023 SAID35 WAGB 231000 METAR WAGB 231000Z 00000KT 8000 FEW014CB 30/26 Q1008 RERA NOSIG=  
23-Aug-2023 SAID35 WAGB 231030 METAR WAGB 231030Z 00000KT 8000 FEW014CB 29/26 Q1008 NOSIG=  
23-Aug-2023 SAID35 WAGB 231100 METAR WAGB 231100Z 00000KT 7000 VCTS FEW013CB 28/26 Q1009 NOSIG=  
23-Aug-2023 SAID35 WAGB 231130 METAR WAGB 231130Z 00000KT 7000 VCTS FEW013CB 27/26 Q1009 NOSIG=  
23-Aug-2023 SAID35 WAGB 231200 METAR WAGB 231200Z 00000KT 8000 FEW012CB SCT013 28/26 Q1010=  
23-Aug-2023 SAID35 WAGB 231230 METAR WAGB 231230Z 00000KT 8000 FEW012CB SCT013 28/26 Q1010=  
23-Aug-2023 SAID35 WAGB 231300 METAR WAGB 231300Z 00000KT 8000 TS FEW012CB BKN013 27/26 Q1010 RERA=  
23-Aug-2023 SAID35 WAGB 231330 METAR WAGB 231330Z 00000KT 8000 TS FEW012CB BKN013 27/26 Q1011=  
23-Aug-2023 SAID35 WAGB 231400 METAR WAGB 231400Z 04006KT 5000 TSRA FEW012CB BKN013 26/25 Q1011=  
23-Aug-2023 SAID35 WAGB 231430 METAR WAGB 231430Z 04006KT 5000 TS FEW012CB BKN013 26/25 Q1011 RERA=  
23-Aug-2023 SAID35 WAGB 231500 METAR WAGB 231500Z 28004KT 7000 TS FEW012CB SCT013 25/24 Q1012=  
23-Aug-2023 SAID35 WAGB 231530 METAR WAGB 231530Z 26003KT 7000 FEW012CB SCT013 25/24 Q1012 RETS=  
23-Aug-2023 SAID35 WAGB 231600 METAR WAGB 231600Z 26003KT 8000 SCT012 25/24 Q1011=  
23-Aug-2023 SAID35 WAGB 231630 METAR WAGB 231630Z 00000KT 8000 SCT012 25/24 Q1011=  
23-Aug-2023 SAID35 WAGB 231700 METAR WAGB 231700Z 00000KT 8000 SCT012 24/23 Q1011=  
23-Aug-2023 SAID35 WAGB 231730 METAR WAGB 231730Z 00000KT 8000 SCT012 24/23 Q1011=  
23-Aug-2023 SAID35 WAGB 231800 METAR WAGB 231800Z 00000KT 8000 FEW012 24/23 Q1011=  
23-Aug-2023 SAID35 WAGB 231830 METAR WAGB 231830Z 00000KT 8000 FEW012 24/23 Q1011=  
23-Aug-2023 SAID35 WAGB 231900 METAR WAGB 231900Z 00000KT 7000 FEW011 24/23 Q1010=  
23-Aug-2023 SAID35 WAGB 231930 METAR WAGB 231930Z 00000KT 7000 FEW011 24/23 Q1010=  
23-Aug-2023 SAID35 WAGB 232000 METAR WAGB 232000Z 00000KT 6000 FEW011 24/23 Q1010=  
23-Aug-2023 SAID35 WAGB 232030 METAR WAGB 232030Z 00000KT 6000 FEW011 24/23 Q1010=  
23-Aug-2023 SAID35 WAGB 232100 METAR WAGB 232100Z 00000KT 7000 SCT010 24/23 Q1011=  
23-Aug-2023 SAID35 WAGB 232130 METAR WAGB 232130Z 00000KT 7000 SCT010 24/23 Q1011=  
23-Aug-2023 SAID35 WAGB 232200 METAR WAGB 232200Z 00000KT 1000 BR VV007 24/23 Q1012=  
23-Aug-2023 SAID35 WAGB 232230 METAR WAGB 232230Z 00000KT 0700 FG VV007 24/23 Q1012=  
23-Aug-2023 SAID35 WAGB 232300 METAR WAGB 232300Z 00000KT 0800 FG VV007 24/24 Q1012=  
23-Aug-2023 SAID35 WAGB 232330 METAR WAGB 232330Z 00000KT 0800 FG VV007 24/24 Q1012=  
24-Aug-2023 SAID35 WAGB 240000 METAR WAGB 240000Z 00000KT 9999 SCT010 25/24 Q1012 NOSIG=  
24-Aug-2023 SAID35 WAGB 240030 METAR WAGB 240030Z 00000KT 9999 SCT010 26/24 Q1012 NOSIG=  
24-Aug-2023 SAID35 WAGB 240100 METAR WAGB 240100Z 00000KT 9999 FEW010 26/24 Q1012 NOSIG=  
24-Aug-2023 SAID35 WAGB 240130 METAR WAGB 240130Z 00000KT 9999 FEW010 27/24 Q1012 NOSIG=  
24-Aug-2023 SAID35 WAGB 240200 METAR WAGB 240200Z 00000KT 9999 FEW011 28/24 Q1012 NOSIG=  
24-Aug-2023 SAID35 WAGB 240230 METAR WAGB 240230Z 30003KT 9999 SCT012 29/24 Q1011 NOSIG=  
24-Aug-2023 SAID35 WAGB 240300 METAR WAGB 240300Z 04003KT 9999 BKN012 30/24 Q1011 NOSIG=  
24-Aug-2023 SAID35 WAGB 240530 METAR WAGB 240300Z VRB04KT 9999 BKN013 32/23 Q1008 NOSIG=  
24-Aug-2023 SAID35 WAGB 240330 METAR WAGB 240330Z 22003KT 9999 BKN013 30/24 Q1010 NOSIG=  
24-Aug-2023 SAID35 WAGB 240400 METAR WAGB 240400Z 34003KT 9999 BKN013 31/24 Q1010 NOSIG=  
24-Aug-2023 SAID35 WAGB 240430 METAR WAGB 240430Z 26003KT 9999 BKN013 32/23 Q1009 NOSIG=  
24-Aug-2023 SAID35 WAGB 240500 METAR WAGB 240500Z 15002KT 9999 BKN013 32/23 Q1009 NOSIG=  
24-Aug-2023 SAID35 WAGB 240530 METAR WAGB 240530Z VRB04KT 9999 BKN013 32/23 Q1008 NOSIG=  
24-Aug-2023 SAID35 WAGB 240600 METAR WAGB 240600Z 00000KT 9999 BKN013 32/23 Q1008 NOSIG=  
24-Aug-2023 SAID35 WAGB 240630 METAR WAGB 240630Z 00000KT 9999 BKN013 34/24 Q1007 NOSIG=  
24-Aug-2023 SAID35 WAGB 240700 METAR WAGB 240700Z 00000KT 9999 FEW012TCU BKN013 32/23 Q1007 NOSIG=  
24-Aug-2023 SAID35 WAGB 240730 METAR WAGB 240730Z 22005KT 9999 FEW012TCU BKN013 34/23 Q1007 NOSIG=  
24-Aug-2023 SAID35 WAGB 240800 METAR WAGB 240800Z 25005KT 9999 FEW012CB SCT013 34/23 Q1006 NOSIG=  
24-Aug-2023 SAID35 WAGB 240830 METAR WAGB 240830Z 06005KT 4000 RA FEW012CB SCT013 30/24 Q1006 NOSIG=  
24-Aug-2023 SAID35 WAGB 240900 METAR WAGB 240900Z VRB02KT 7000 RA FEW012CB BKN013 30/25 Q1006 NOSIG=  
24-Aug-2023 SAID35 WAGB 240930 METAR WAGB 240930Z 00000KT 8000 VCSH FEW013CB SCT014 33/24 Q1007 NOSIG=  
24-Aug-2023 SAID35 WAGB 241000 METAR WAGB 241000Z 00000KT 8000 FEW013CB SCT014 31/25 Q1007 NOSIG=  
24-Aug-2023 SAID35 WAGB 241030 METAR WAGB 241030Z 00000KT 8000 FEW013CB SCT014 31/25 Q1007 NOSIG=  
24-Aug-2023 SAID35 WAGB 241100 METAR WAGB 241100Z 00000KT 8000 FEW013CB SCT014 29/25 Q1008 NOSIG=  
24-Aug-2023 SAID35 WAGB 241130 METAR WAGB 241130Z 00000KT 8000 FEW013CB SCT014 29/25 Q1008 NOSIG=  
24-Aug-2023 SAID35 WAGB 241200 METAR WAGB 241200Z 00000KT 8000 VCTS FEW013CB BKN014 28/25 Q1009 NOSIG=  
24-Aug-2023 SAID35 WAGB 241230 METAR WAGB 241230Z 06003KT 8000 VCTS FEW013CB BKN014 28/25 Q1010 NOSIG=  
24-Aug-2023 SAID35 WAGB 241300 METAR WAGB 241300Z 05003KT 7000 VCTS FEW012CB BKN013 27/25 Q1010 NOSIG=  
24-Aug-2023 SAID35 WAGB 241330 METAR WAGB 241330Z 00000KT 7000 VCSH FEW012CB BKN013 27/25 Q1010 NOSIG=  
24-Aug-2023 SAID35 WAGB 241400 METAR WAGB 241400Z 24003KT 7000 VCSH FEW012CB BKN013 27/25 Q1011 NOSIG=  
24-Aug-2023 SAID35 WAGB 241430 METAR WAGB 241430Z 24003KT 7000 BKN013 27/25 Q1011 NOSIG=  
24-Aug-2023 SAID35 WAGB 241500 METAR WAGB 241500Z 03002KT 7000 VCTS BKN012 27/25 Q1010 NOSIG=  
24-Aug-2023 SAID35 WAGB 241530 METAR WAGB 241530Z 00000KT 7000 VCTS BKN012 27/25 Q1010 NOSIG=  
24-Aug-2023 SAID35 WAGB 241600 METAR WAGB 241600Z 00000KT 7000 VCTS BKN012 26/25 Q1010 NOSIG=  
24-Aug-2023 SAID35 WAGB 241630 METAR WAGB 241630Z 00000KT 7000 VCTS BKN012 26/25 Q1010 NOSIG=  
24-Aug-2023 SAID35 WAGB 241700 METAR WAGB 241700Z 00000KT 6000 BKN012 26/25 Q1010 NOSIG=  
24-Aug-2023 SAID35 WAGB 241730 METAR WAGB 241730Z 00000KT 6000 BKN012 26/25 Q1010 NOSIG=  
24-Aug-2023 SAID35 WAGB 241800 METAR WAGB 241800Z 24003KT 6000 BKN012 26/25 Q1010 NOSIG=  
24-Aug-2023 SAID35 WAGB 241830 METAR WAGB 241830Z 00000KT 6000 BKN012 26/25 Q1009 NOSIG=  
24-Aug-2023 SAID35 WAGB 241900 METAR WAGB 241900Z 00000KT 6000 SCT011 26/25 Q1009 NOSIG=  
24-Aug-2023 SAID35 WAGB 241930 METAR WAGB 241930Z 00000KT 6000 SCT011 26/25 Q1010 NOSIG=  
24-Aug-2023 SAID35 WAGB 242000 METAR WAGB 242000Z 00000KT 4000 BR SCT010 25/25 Q1010 NOSIG=  
24-Aug-2023 SAID35 WAGB 242030 METAR WAGB 242030Z 00000KT 4000 BR SCT010 25/25 Q1010 NOSIG=  
24-Aug-2023 SAID35 WAGB 242100 METAR WAGB 242100Z 00000KT 4000 BR SCT010 25/24 Q1010 NOSIG=  
24-Aug-2023 SAID35 WAGB 242130 METAR WAGB 242130Z 00000KT 4000 BR SCT010 25/24 Q1010 NOSIG=  
24-Aug-2023 SAID35 WAGB 242200 METAR WAGB 242200Z 30003KT 4000 BR FEW010 25/24 Q1010 NOSIG=  
24-Aug-2023 SAID35 WAGB 242230 METAR WAGB 242230Z 00000KT 4000 BR FEW010 25/24 Q1011 NOSIG=  
24-Aug-2023 SAID35 WAGB 242300 METAR WAGB 242300Z 00000KT 6000 FEW010 25/24 Q1011 NOSIG=  
24-Aug-2023 SAID35 WAGB 242330 METAR WAGB 242330Z 30004KT 6000 FEW010 25/24 Q1012 NOSIG=  
25-Aug-2023 SAID35 WAGB 250000 METAR WAGB 250000Z 28003KT 6000 BKN009 26/24 Q1012 NOSIG=  
25-Aug-2023 SAID35 WAGB 250030 METAR WAGB 250030Z 32003KT 6000 BKN009 26/24 Q1012 NOSIG=  
25-Aug-2023 SAID35 WAGB 250100 METAR WAGB 250100Z 32002KT 6000 BKN010 27/25 Q1012 NOSIG=  
25-Aug-2023 SAID35 WAGB 250130 METAR WAGB 250130Z 07002KT 7000 BKN010 27/24 Q1012 NOSIG=  
25-Aug-2023 SAID35 WAGB 250200 METAR WAGB 250200Z 29003KT 7000 BKN010 28/24 Q1012 NOSIG=  
25-Aug-2023 SAID35 WAGB 250230 METAR WAGB 250230Z 25003KT 8000 BKN011 29/25 Q1011 NOSIG=  
25-Aug-2023 SAID35 WAGB 250300 METAR WAGB 250300Z 28003KT 8000 BKN011 29/25 Q1011 NOSIG=  
25-Aug-2023 SAID35 WAGB 250330 METAR WAGB 250330Z 34005KT 8000 BKN011 31/24 Q1010 NOSIG=  
25-Aug-2023 SAID35 WAGB 250400 METAR WAGB 250400Z 25005KT 9999 BKN011 31/24 Q1010 NOSIG=  
25-Aug-2023 SAID35 WAGB 250430 METAR WAGB 250430Z 00000KT 9999 BKN012 30/23 Q1010 NOSIG=  
25-Aug-2023 SAID35 WAGB 250500 METAR WAGB 250500Z 35004KT 9999 BKN012 30/24 Q1009 NOSIG=  
25-Aug-2023 SAID35 WAGB 250530 METAR WAGB 250530Z 04006KT 6000 FEW012TCU BKN013 27/25 Q1009 RERA=  
25-Aug-2023 SAID35 WAGB 250600 METAR WAGB 250600Z 35004KT 9000 FEW012TCU SCT013 29/26 Q1008 NOSIG=  
25-Aug-2023 SAID35 WAGB 250630 METAR WAGB 250630Z 36003KT 9999 FEW012TCU SCT013 30/26 Q1007 NOSIG=  
25-Aug-2023 SAID35 WAGB 250700 METAR WAGB 250700Z 01004KT 9999 FEW012CB SCT013 31/25 Q1007 NOSIG=  
25-Aug-2023 SAID35 WAGB 250730 METAR WAGB 250730Z 00000KT 9999 FEW012CB 32/25 Q1007 NOSIG=  
25-Aug-2023 SAID35 WAGB 250800 METAR WAGB 250800Z 29004KT 9999 FEW012CB 31/24 Q1007 NOSIG=  
25-Aug-2023 SAID35 WAGB 250830 METAR WAGB 250830Z 00000KT 9999 FEW012CB 31/24 Q1007 NOSIG=  
25-Aug-2023 SAID35 WAGB 250900 METAR WAGB 250900Z 00000KT 9999 FEW012CB 30/25 Q1007 NOSIG=  
25-Aug-2023 SAID35 WAGB 250930 METAR WAGB 250930Z 00000KT 9999 FEW012CB 31/25 Q1007 NOSIG=  
25-Aug-2023 SAID35 WAGB 251000 METAR WAGB 251000Z 00000KT 9999 FEW013CB BKN014 31/26 Q1008 NOSIG=  
25-Aug-2023 SAID35 WAGB 251030 METAR WAGB 251030Z 00000KT 6000 -RA FEW013CB BKN014 31/26 Q1008 TEMPO FM1030 RA=  
25-Aug-2023 SPID33 WAGB 251035 SPECI WAGB 251035Z 00000KT 6000 TS FEW012CB BKN013 31/26 Q1008=  
25-Aug-2023 SAID35 WAGB 251100 METAR WAGB 251100Z 13004KT 6000 -TSRA FEW012CB BKN013 29/25 Q1009 NOSIG=  
25-Aug-2023 SAID35 WAGB 251130 METAR WAGB 251130Z 00000KT 5000 TS FEW012CB BKN013 29/25 Q1009 RERA=  
25-Aug-2023 SAID35 WAGB 251200 METAR WAGB 251200Z 22002KT 7000 -RA FEW012CB BKN013 26/24 Q1010 RETS=  
25-Aug-2023 SAID35 WAGB 251230 METAR WAGB 251230Z 22002KT 7000 -RA FEW012CB BKN013 25/24 Q1011=  
25-Aug-2023 SAID35 WAGB 251300 METAR WAGB 251300Z 27002KT 7000 FEW012CB SCT013 25/24 Q1011 RERA=  
25-Aug-2023 SAID35 WAGB 251330 METAR WAGB 251330Z 00000KT 7000 FEW012CB SCT013 25/24 Q1011=  
25-Aug-2023 SAID35 WAGB 251400 METAR WAGB 251400Z 00000KT 8000 FEW012CB BKN013 24/24 Q1011=  
25-Aug-2023 SAID35 WAGB 251430 METAR WAGB 251430Z 00000KT 8000 FEW012CB BKN013 24/24 Q1012=  
25-Aug-2023 SAID35 WAGB 251500 METAR WAGB 251500Z 00000KT 8000 SCT012 25/24 Q1012=  
25-Aug-2023 SAID35 WAGB 251530 METAR WAGB 251530Z 00000KT 8000 SCT012 25/24 Q1011=  
25-Aug-2023 SAID35 WAGB 251600 METAR WAGB 251600Z 00000KT 8000 SCT012 25/24 Q1011=  
25-Aug-2023 SAID35 WAGB 251630 METAR WAGB 251630Z 00000KT 8000 SCT012 25/24 Q1011=  
25-Aug-2023 SAID35 WAGB 251700 METAR WAGB 251700Z 28003KT 7000 SCT011 25/24 Q1011=  
25-Aug-2023 SAID35 WAGB 251730 METAR WAGB 251730Z 00000KT 7000 SCT011 25/24 Q1011=  
25-Aug-2023 SAID35 WAGB 251800 METAR WAGB 251800Z 00000KT 7000 BKN010 25/24 Q1010=  
25-Aug-2023 SAID35 WAGB 251830 METAR WAGB 251830Z 00000KT 7000 BKN010 25/24 Q1010=  
25-Aug-2023 SAID35 WAGB 251830 CCA METAR WAGB 251830Z 00000KT 7000 RA BKN010 25/24 Q1010=  
25-Aug-2023 SAID35 WAGB 251900 METAR WAGB 251900Z 00000KT 7000 BKN010 25/24 Q1010 RERA=  
25-Aug-2023 SAID35 WAGB 251930 METAR WAGB 251930Z 00000KT 7000 BKN010 25/24 Q1010=  
25-Aug-2023 SAID35 WAGB 252000 METAR WAGB 252000Z 00000KT 7000 SCT010 25/24 Q1011=  
25-Aug-2023 SAID35 WAGB 252030 METAR WAGB 252030Z 00000KT 7000 SCT010 25/24 Q1011=  
25-Aug-2023 SAID35 WAGB 252100 METAR WAGB 252100Z 20002KT 7000 FEW010 25/24 Q1011=  
25-Aug-2023 SAID35 WAGB 252130 METAR WAGB 252130Z 00000KT 7000 FEW010 25/24 Q1011=  
25-Aug-2023 SAID35 WAGB 252200 METAR WAGB 252200Z 00000KT 8000 SCT010 24/24 Q1011=  
25-Aug-2023 SAID35 WAGB 252230 METAR WAGB 252230Z 00000KT 8000 SCT010 24/24 Q1011=  
25-Aug-2023 SAID35 WAGB 252300 METAR WAGB 252300Z 00000KT 7000 BKN010 24/23 Q1012=  
25-Aug-2023 SAID35 WAGB 252330 METAR WAGB 252330Z 00000KT 7000 BKN010 24/23 Q1012=  
26-Aug-2023 SAID35 WAGB 260000 METAR WAGB 260000Z 26003KT 8000 FEW009 26/23 Q1012 NOSIG=  
26-Aug-2023 SAID35 WAGB 260030 METAR WAGB 260030Z 31003KT 8000 FEW009 26/23 Q1012 NOSIG=  
26-Aug-2023 SAID35 WAGB 260100 METAR WAGB 260100Z VRB02KT 8000 SCT009 27/24 Q1012 NOSIG=  
26-Aug-2023 SAID35 WAGB 260130 METAR WAGB 260130Z 00000KT 8000 BKN010 27/24 Q1012 NOSIG=  
26-Aug-2023 SAID35 WAGB 260200 METAR WAGB 260200Z 00000KT 8000 BKN010 27/24 Q1012 NOSIG=  
26-Aug-2023 SAID35 WAGB 260230 METAR WAGB 260230Z 00000KT 8000 BKN010 27/24 Q1012 NOSIG=  
26-Aug-2023 SAID35 WAGB 260300 METAR WAGB 260300Z 00000KT 8000 BKN010 27/24 Q1011 NOSIG=  
26-Aug-2023 SAID35 WAGB 260330 METAR WAGB 260330Z 27003KT 8000 BKN011 28/24 Q1011 NOSIG=  
26-Aug-2023 SAID35 WAGB 260400 METAR WAGB 260400Z 20005KT 8000 BKN011 28/24 Q1011 NOSIG=  
26-Aug-2023 SAID35 WAGB 260430 METAR WAGB 260430Z 19006KT 8000 BKN011 29/24 Q1010 NOSIG=  
26-Aug-2023 SAID35 WAGB 260500 METAR WAGB 260500Z 17006KT 8000 FEW011TCU SCT012 29/24 Q1009 NOSIG=  
26-Aug-2023 SAID35 WAGB 260530 METAR WAGB 260530Z 00000KT 9000 FEW011TCU SCT012 29/24 Q1009 NOSIG=  
26-Aug-2023 SAID35 WAGB 260600 METAR WAGB 260600Z 00000KT 9999 BKN014 31/25 Q1008 NOSIG=  
26-Aug-2023 SAID35 WAGB 260630 METAR WAGB 260630Z 00000KT 9999 BKN014 31/25 Q1008 NOSIG=  
26-Aug-2023 SAID35 WAGB 260700 METAR WAGB 260700Z 00000KT 9999 BKN014 32/25 Q1008 NOSIG=  
26-Aug-2023 SAID35 WAGB 260730 METAR WAGB 260730Z 20004KT 9999 BKN014 32/25 Q1007 NOSIG=  
26-Aug-2023 SAID35 WAGB 260800 METAR WAGB 260800Z 12005KT 9999 FEW014CB 32/25 Q1009=  
26-Aug-2023 SAID35 WAGB 260800 CCB METAR WAGB 260800Z 12005KT 9999 FEW014CB 32/25 Q1007 NOSIG=  
26-Aug-2023 SAID35 WAGB 260800 CCA METAR WAGB 260800Z 12005KT 9999 FEW014CB 32/25 Q1009=  
26-Aug-2023 SAID35 WAGB 260830 METAR WAGB 260830Z 12005KT 9999 FEW014CB FEW015 32/25 Q1009 NOSIG=  
26-Aug-2023 SAID35 WAGB 260830 CCA METAR WAGB 260830Z 12005KT 9999 FEW014CB FEW015 32/25 Q1007 NOSIG=  
26-Aug-2023 SAID35 WAGB 260900 METAR WAGB 260900Z 20004KT 9000 FEW014CB FEW015 31/25 Q1007 NOSIG=  
26-Aug-2023 SAID35 WAGB 260930 METAR WAGB 260930Z 18003KT 9000 FEW014CB FEW015 31/25 Q1007=  
26-Aug-2023 SAID35 WAGB 261000 METAR WAGB 261000Z 20002KT 9000 FEW014CB 31/25 Q1007 NOSIG=  
26-Aug-2023 SAID35 WAGB 261030 METAR WAGB 261030Z 00000KT 9000 FEW014CB 30/25 Q1008 NOSIG=  
26-Aug-2023 SAID35 WAGB 261130 METAR WAGB 261130Z 00000KT 8000 FEW014CB 29/25 Q1009 NOSIG=  
26-Aug-2023 SAID35 WAGB 261200 METAR WAGB 261200Z 00000KT 8000 VCTS FEW012CB 28/25 Q1009=  
26-Aug-2023 SAID35 WAGB 261230 METAR WAGB 261230Z 00000KT 8000 VCTS FEW012CB 28/25 Q1009=  
26-Aug-2023 SAID35 WAGB 261300 METAR WAGB 261300Z 00000KT 7000 VCTS FEW012CB 27/25 Q1010=  
26-Aug-2023 SAID35 WAGB 261330 METAR WAGB 261330Z 00000KT 7000 VCTS FEW012CB 27/25 Q1010=  
26-Aug-2023 SAID35 WAGB 261400 METAR WAGB 261400Z 00000KT 6000 VCTS FEW012CB 27/25 Q1010=  
26-Aug-2023 SAID35 WAGB 261430 METAR WAGB 261430Z 00000KT 6000 VCTS FEW012CB 27/25 Q1010=  
26-Aug-2023 SAID35 WAGB 261500 METAR WAGB 261500Z 00000KT 6000 VCTS FEW012CB 26/25 Q1010=  
26-Aug-2023 SAID35 WAGB 261530 METAR WAGB 261530Z 00000KT 6000 VCTS FEW012CB 26/25 Q1010=  
26-Aug-2023 SAID35 WAGB 261600 METAR WAGB 261600Z 00000KT 6000 VCTS FEW012CB 25/24 Q1010=  
26-Aug-2023 SAID35 WAGB 261630 METAR WAGB 261630Z 00000KT 6000 VCTS FEW012CB 25/24 Q1010=  
26-Aug-2023 SAID35 WAGB 261700 METAR WAGB 261700Z 00000KT 5000 FEW012CB SCT015 25/24 Q1010=  
26-Aug-2023 SAID35 WAGB 261730 METAR WAGB 261730Z 00000KT 5000 FEW012CB SCT015 25/24 Q1010=  
26-Aug-2023 SAID35 WAGB 261800 METAR WAGB 261800Z 00000KT 5000 FEW012CB SCT015 25/24 Q1009=  
26-Aug-2023 SAID35 WAGB 261800 CCA METAR WAGB 261800Z 00000KT 5000 FEW012CB SCT015 25/24 Q1009 NOSIG=  
26-Aug-2023 SAID35 WAGB 261830 METAR WAGB 261830Z 00000KT 5000 FEW012CB SCT015 25/24 Q1009=  
26-Aug-2023 SAID35 WAGB 261830 CCA METAR WAGB 261830Z 00000KT 5000 FEW012CB SCT015 25/24 Q1009 NOSIG=  
26-Aug-2023 SAID35 WAGB 261900 METAR WAGB 261900Z 00000KT 4000 BR SCT010 25/24 Q1009=  
26-Aug-2023 SAID35 WAGB 261930 METAR WAGB 261930Z 00000KT 4000 BR SCT010 25/24 Q1009=  
26-Aug-2023 SAID35 WAGB 262000 METAR WAGB 262000Z 00000KT 4000 BR SCT010 25/24 Q1009=  
26-Aug-2023 SAID35 WAGB 262030 METAR WAGB 262030Z 00000KT 4000 BR SCT010 25/24 Q1009=  
26-Aug-2023 SAID35 WAGB 262100 METAR WAGB 262100Z 00000KT 4000 BR FEW009 23/23 Q1010=  
26-Aug-2023 SAID35 WAGB 262100 CCA METAR WAGB 262100Z 00000KT 4000 BR SCT010 23/23 Q1010=  
26-Aug-2023 SAID35 WAGB 262130 METAR WAGB 262130Z 00000KT 4000 BR FEW009 23/23 Q1010=  
26-Aug-2023 SAID35 WAGB 262130 CCA METAR WAGB 262130Z 00000KT 4000 BR SCT010 23/23 Q1010=  
26-Aug-2023 SAID35 WAGB 262200 METAR WAGB 262200Z 00000KT 4000 BR FEW009 23/22 Q1013=  
26-Aug-2023 SAID35 WAGB 262200 CCA METAR WAGB 262200Z 00000KT 4000 BR SCT009 23/22 Q1013=  
26-Aug-2023 SAID35 WAGB 262230 METAR WAGB 262230Z 00000KT 4000 BR FEW009 23/22 Q1013=  
26-Aug-2023 SAID35 WAGB 262230 CCA METAR WAGB 262230Z 00000KT 4000 BR SCT009 23/22 Q1013=  
26-Aug-2023 SAID35 WAGB 262300 METAR WAGB 262300Z 00000KT 4000 BR SCT009 24/23 Q1011=  
26-Aug-2023 SAID35 WAGB 262330 METAR WAGB 262330Z 00000KT 4000 BR SCT009 24/23 Q1011=  
27-Aug-2023 SAID35 WAGB 270000 METAR WAGB 270000Z 00000KT 7000 SCT010 26/24 Q1012 NOSIG=  
27-Aug-2023 SAID35 WAGB 270030 METAR WAGB 270030Z 00000KT 7000 SCT010 26/24 Q1012 NOSIG=  
27-Aug-2023 SAID35 WAGB 270100 METAR WAGB 270100Z 00000KT 6000 BKN010 26/24 Q1012 NOSIG=  
27-Aug-2023 SAID35 WAGB 270130 METAR WAGB 270130Z 29002KT 7000 BKN010 27/24 Q1012 NOSIG=  
27-Aug-2023 SAID35 WAGB 270200 METAR WAGB 270200Z 32002KT 7000 BKN010 27/24 Q1012 NOSIG=  
27-Aug-2023 SAID35 WAGB 270230 METAR WAGB 270230Z 29004KT 7000 BKN011 28/24 Q1012 NOSIG=  
27-Aug-2023 SAID35 WAGB 270300 METAR WAGB 270300Z 23004KT 7000 SCT012 30/24 Q1011 NOSIG=  
27-Aug-2023 SAID35 WAGB 270330 METAR WAGB 270330Z 20004KT 7000 SCT012 30/24 Q1011 NOSIG=  
27-Aug-2023 SAID35 WAGB 270400 METAR WAGB 270400Z 20002KT 8000 SCT013 31/24 Q1010 NOSIG=  
27-Aug-2023 SAID35 WAGB 270430 METAR WAGB 270430Z 20004KT 9999 SCT013 31/24 Q1009 NOSIG=  
27-Aug-2023 SAID35 WAGB 270500 METAR WAGB 270500Z 28006KT 9999 SCT013 31/23 Q1009 NOSIG=  
27-Aug-2023 SAID35 WAGB 270530 METAR WAGB 270530Z 26004KT 9999 SCT013 32/23 Q1008 NOSIG=  
27-Aug-2023 SAID35 WAGB 270600 METAR WAGB 270600Z 00000KT 9999 BKN013 32/25 Q1008=  
27-Aug-2023 SAID35 WAGB 270630 METAR WAGB 270630Z 00000KT 9999 BKN013 32/25 Q1007 NOSIG=  
27-Aug-2023 SAID35 WAGB 270700 METAR WAGB 270700Z 19003KT 9999 SCT014 33/24 Q1007 NOSIG=  
27-Aug-2023 SAID35 WAGB 270730 METAR WAGB 270730Z 19003KT 9999 SCT014 33/24 Q1007 NOSIG=  
27-Aug-2023 SAID35 WAGB 270800 METAR WAGB 270800Z 23005KT 9999 SCT014 33/24 Q1006 NOSIG=  
27-Aug-2023 SAID35 WAGB 270830 METAR WAGB 270830Z 21002KT 9999 SCT014 33/24 Q1006=  
27-Aug-2023 SAID35 WAGB 270900 METAR WAGB 270900Z 28002KT 9999 SCT014 33/24 Q1007 NOSIG=  
27-Aug-2023 SAID35 WAGB 270930 METAR WAGB 270930Z 27003KT 9999 SCT014 33/24 Q1006 NOSIG=  
27-Aug-2023 SAID35 WAGB 271000 METAR WAGB 271000Z 00000KT 9999 FEW014TCU 32/24 Q1007=  
27-Aug-2023 SAID35 WAGB 271100 METAR WAGB 271100Z 29002KT 9999 FEW014TCU FEW015 32/25 Q1008 NOSIG=  
27-Aug-2023 SAID35 WAGB 271130 METAR WAGB 271130Z 29002KT 9999 FEW014TCU FEW015 31/25 Q1008 NOSIG=  
27-Aug-2023 SAID35 WAGB 271200 METAR WAGB 271200Z 00000KT 8000 FEW014 29/25 Q1008=  
27-Aug-2023 SAID35 WAGB 271230 METAR WAGB 271230Z 00000KT 8000 FEW014 29/25 Q1008=  
27-Aug-2023 SAID35 WAGB 271300 METAR WAGB 271300Z 00000KT 8000 FEW014 28/25 Q1009=  
27-Aug-2023 SAID35 WAGB 271330 METAR WAGB 271330Z 00000KT 6000 -SHRA SCT013 28/25 Q1009=  
27-Aug-2023 SAID35 WAGB 271400 METAR WAGB 271400Z 00000KT 6000 SCT013 27/25 Q1010=  
27-Aug-2023 SAID35 WAGB 271430 METAR WAGB 271430Z 00000KT 6000 SCT013 27/25 Q1010=  
27-Aug-2023 SAID35 WAGB 271500 METAR WAGB 271500Z 00000KT 7000 FEW012 27/25 Q1010=  
27-Aug-2023 SAID35 WAGB 271530 METAR WAGB 271530Z 00000KT 7000 FEW012 27/25 Q1010=  
27-Aug-2023 SAID35 WAGB 271600 METAR WAGB 271600Z 00000KT 6000 BKN012 27/25 Q1010=  
27-Aug-2023 SAID35 WAGB 271630 METAR WAGB 271630Z 00000KT 6000 BKN012 27/25 Q1010=  
27-Aug-2023 SAID35 WAGB 271700 METAR WAGB 271700Z 00000KT 4000 -TSRA FEW011CB BKN012 26/25 Q1011=  
27-Aug-2023 SAID35 WAGB 271730 METAR WAGB 271730Z 00000KT 4000 -TSRA FEW011CB BKN012 26/25 Q1010=  
27-Aug-2023 SAID35 WAGB 271800 METAR WAGB 271800Z 00000KT 3000 -TSRA FEW010CB BKN011 25/24 Q1010=  
27-Aug-2023 SAID35 WAGB 271830 METAR WAGB 271830Z 00000KT 3000 -TSRA FEW010CB BKN011 25/24 Q1010=  
27-Aug-2023 SAID35 WAGB 271900 METAR WAGB 271900Z 00000KT 4000 -TSRA FEW010CB BKN011 25/24 Q1009=  
27-Aug-2023 SAID35 WAGB 271930 METAR WAGB 271930Z 00000KT 4000 -TSRA FEW010CB BKN011 25/24 Q1009=  
27-Aug-2023 SAID35 WAGB 272000 METAR WAGB 272000Z 00000KT 4000 -RA BKN011 24/24 Q1009 RETS=  
27-Aug-2023 SAID35 WAGB 272030 METAR WAGB 272030Z 00000KT 4000 -RA BKN011 24/24 Q1009=  
27-Aug-2023 SAID35 WAGB 272100 METAR WAGB 272100Z 00000KT 3000 -RA BKN011 24/23 Q1010=  
27-Aug-2023 SAID35 WAGB 272130 METAR WAGB 272130Z 00000KT 3000 -RA BKN011 24/23 Q1010=  
27-Aug-2023 SAID35 WAGB 272200 METAR WAGB 272200Z 00000KT 3000 BR BKN010 24/23 Q1010 RERA=  
27-Aug-2023 SAID35 WAGB 272230 METAR WAGB 272230Z 00000KT 33333000 BR BKN010 24/23 Q1010=  
27-Aug-2023 SAID35 WAGB 272230 CCA METAR WAGB 272230Z 00000KT 3000 BR BKN010 24/23 Q1010=  
27-Aug-2023 SAID35 WAGB 272300 METAR WAGB 272300Z 00000KT 4000 BR BKN010 24/23 Q1011=  
27-Aug-2023 SAID35 WAGB 272330 METAR WAGB 272330Z 00000KT 4000 BR BKN010 24/23 Q1011=  
28-Aug-2023 SAID35 WAGB 280000 METAR WAGB 280000Z 00000KT 3000 BR BKN008 24/23 Q1012 NOSIG=  
28-Aug-2023 SAID35 WAGB 280030 METAR WAGB 280030Z 00000KT 3500 BR BKN008 24/23 Q1012 NOSIG=  
28-Aug-2023 SAID35 WAGB 280100 METAR WAGB 280100Z 28002KT 4000 VCSH SCT009 26/24 Q1012 NOSIG=  
28-Aug-2023 SAID35 WAGB 280130 METAR WAGB 280130Z 00000KT 5000 VCSH BKN009 26/24 Q1012 NOSIG=  
28-Aug-2023 SAID35 WAGB 280200 CCA METAR WAGB 280200Z 33005KT 6000 VCSH BKN009 26/24 Q1012=  
28-Aug-2023 SAID35 WAGB 280200 METAR WAGB 280200Z 23004KT 8000 BKN009 28/23 Q1012 NOSIG=  
28-Aug-2023 SAID35 WAGB 280230 CCA METAR WAGB 280230Z 36004KT 6000 VCSH BKN009 27/24 Q1011=  
28-Aug-2023 SAID35 WAGB 280300 CCA METAR WAGB 280300Z 35003KT 8000 VCSH BKN009 28/24 Q1011=  
28-Aug-2023 SAID35 WAGB 280330 CCA METAR WAGB 280330Z 32004KT 9000 BKN009 28/24 Q1010 NOSIG=  
28-Aug-2023 SAID35 WAGB 280400 CCA METAR WAGB 280400Z 00000KT 9999 BKN009 29/24 Q1010 NOSIG=  
28-Aug-2023 SAID35 WAGB 280430 CCA METAR WAGB 280430Z 00000KT 9999 BKN010 29/24 Q1010 NOSIG=  
28-Aug-2023 SAID35 WAGB 280500 CCA METAR WAGB 280500Z 01004KT 9999 SCT010 30/24 Q1009 NOSIG=  
28-Aug-2023 SAID35 WAGB 280530 CCA METAR WAGB 280530Z 06004KT 9999 SCT010 30/24 Q1008 NOSIG=  
28-Aug-2023 SAID35 WAGB 280600 CCA METAR WAGB 280600Z 35004KT 9999 SCT010 31/23 Q1008 NOSIG=  
28-Aug-2023 SAID35 WAGB 280630 CCA METAR WAGB 280630Z 06003KT 9999 FEW012TCU SCT013 31/24 Q1007 NOSIG=  
28-Aug-2023 SAID35 WAGB 280700 CCA METAR WAGB 280700Z 34003KT 9999 FEW012TCU SCT013 31/24 Q1007 NOSIG=  
28-Aug-2023 SAID35 WAGB 280730 CCA METAR WAGB 280730Z 03003KT 9999 FEW012 32/24 Q1007 NOSIG=  
28-Aug-2023 SAID35 WAGB 280800 CCA METAR WAGB 280800Z 00000KT 9999 FEW012 32/24 Q1007 NOSIG=  
28-Aug-2023 SAID35 WAGB 280830 CCA METAR WAGB 280830Z 36004KT 9999 FEW012 32/24 Q1007 NOSIG=  
28-Aug-2023 SAID35 WAGB 280900 CCA METAR WAGB 280900Z 34003KT 9999 FEW012 31/24 Q1007 NOSIG=  
28-Aug-2023 SAID35 WAGB 280930 METAR WAGB 280930Z 00000KT 9999 FEW013 31/24 Q1007 NOSIG=  
28-Aug-2023 SAID35 WAGB 281000 METAR WAGB 281000Z 00000KT 9999 FEW014 31/25 Q1008 NOSIG=  
28-Aug-2023 SAID35 WAGB 281030 METAR WAGB 281030Z 00000KT 9999 FEW014 31/25 Q1008 NOSIG=  
28-Aug-2023 SAID35 WAGB 281100 METAR WAGB 281100Z 00000KT 9999 FEW014 30/26 Q1009 NOSIG=  
28-Aug-2023 SAID35 WAGB 281130 METAR WAGB 281130Z 00000KT 9999 FEW014 30/26 Q1009 NOSIG=  
28-Aug-2023 SAID35 WAGB 281200 METAR WAGB 281200Z 00000KT 7000 SCT013 28/26 Q1009=  
28-Aug-2023 SAID35 WAGB 281230 METAR WAGB 281230Z 00000KT 7000 SCT013 28/26 Q1009=  
28-Aug-2023 SAID35 WAGB 281300 METAR WAGB 281300Z 00000KT 7000 FEW013 27/25 Q1009=  
28-Aug-2023 SAID35 WAGB 281330 METAR WAGB 281330Z 00000KT 7000 FEW013 27/25 Q1010=  
28-Aug-2023 SAID35 WAGB 281400 METAR WAGB 281400Z 00000KT 7000 FEW012 26/25 Q1009=  
28-Aug-2023 SAID35 WAGB 281430 METAR WAGB 281430Z 00000KT 7000 FEW012 26/25 Q1010=  
28-Aug-2023 SAID35 WAGB 281500 METAR WAGB 281500Z 00000KT 7000 FEW012 26/25 Q1010=  
28-Aug-2023 SAID35 WAGB 281530 METAR WAGB 281530Z 00000KT 7000 FEW012 26/25 Q1011=  
28-Aug-2023 SAID35 WAGB 281600 METAR WAGB 281600Z 00000KT 7000 FEW012 26/25 Q1010=  
28-Aug-2023 SAID35 WAGB 281630 METAR WAGB 281630Z 00000KT 7000 FEW012 26/25 Q1010=  
28-Aug-2023 SAID35 WAGB 281730 METAR WAGB 281730Z 22003KT 6000 BKN011 25/24 Q1010=  
28-Aug-2023 SAID35 WAGB 281800 METAR WAGB 281800Z 00000KT 6000 BKN011 25/24 Q1010=  
28-Aug-2023 SAID35 WAGB 281830 METAR WAGB 281830Z 00000KT 6000 BKN011 25/24 Q1010=  
28-Aug-2023 SAID35 WAGB 281900 METAR WAGB 281900Z 00000KT 6000 SCT011 25/24 Q1009=  
28-Aug-2023 SAID35 WAGB 281930 METAR WAGB 281930Z 00000KT 6000 SCT011 25/24 Q1009=  
28-Aug-2023 SAID35 WAGB 282000 METAR WAGB 282000Z 00000KT 6000 SCT011 25/24 Q1009=  
28-Aug-2023 SAID35 WAGB 282030 METAR WAGB 282030Z 00000KT 6000 SCT011 25/24 Q1009=  
28-Aug-2023 SAID35 WAGB 282100 METAR WAGB 282100Z 00000KT 6000 SCT011 25/24 Q1010=  
28-Aug-2023 SAID35 WAGB 282130 METAR WAGB 282130Z 00000KT 6000 SCT011 25/24 Q1010=  
28-Aug-2023 SAID35 WAGB 282200 METAR WAGB 282200Z 00000KT 6000 SCT011 25/24 Q1010=  
28-Aug-2023 SAID35 WAGB 282230 METAR WAGB 282230Z 00000KT 6000 FEW011 25/24 Q1010=  
28-Aug-2023 SAID35 WAGB 282300 METAR WAGB 282300Z 00000KT 5000 HZ FEW011 25/24 Q1010=  
29-Aug-2023 SAID35 WAGB 290000 METAR WAGB 290000Z 00000KT 4000 HZ FEW008 26/24 Q1011 NOSIG=  
29-Aug-2023 SAID35 WAGB 290030 METAR WAGB 290030Z 00000KT 5000 HZ SCT011 26/23 Q1011 BECMG TL0045 7000 NSW=  
29-Aug-2023 SAID35 WAGB 290100 METAR WAGB 290100Z 26004KT 6000 SCT011 27/23 Q1012 NOSIG=  
29-Aug-2023 SAID35 WAGB 290130 METAR WAGB 290130Z 28003KT 6000 SCT011 27/23 Q1012 NOSIG=  
29-Aug-2023 SAID35 WAGB 290200 CCA METAR WAGB 290200Z 33005KT 6000 VCSH BKN009 26/24 Q1012=  
29-Aug-2023 SAID35 WAGB 290200 METAR WAGB 290200Z 00000KT 7000 BKN011 28/23 Q1012 NOSIG=  
29-Aug-2023 SAID35 WAGB 290230 CCA METAR WAGB 290230Z 36004KT 6000 VCSH BKN009 27/24 Q1011=  
29-Aug-2023 SAID35 WAGB 290230 METAR WAGB 290230Z 23003KT 7000 BKN011 28/23 Q1011 NOSIG=  
29-Aug-2023 SAID35 WAGB 290300 CCA METAR WAGB 290300Z 35003KT 8000 VCSH BKN009 28/24 Q1011=  
29-Aug-2023 SAID35 WAGB 290300 METAR WAGB 290300Z 31003KT 7000 BKN011 28/24 Q1011 NOSIG=  
29-Aug-2023 SAID35 WAGB 290330 CCA METAR WAGB 290330Z 32004KT 9000 BKN009 28/24 Q1010 NOSIG=  
29-Aug-2023 SAID35 WAGB 290330 METAR WAGB 290330Z 31005KT 8000 BKN012 29/24 Q1011 NOSIG=  
29-Aug-2023 SAID35 WAGB 290400 CCA METAR WAGB 290400Z 00000KT 9999 BKN009 29/24 Q1010 NOSIG=  
29-Aug-2023 SAID35 WAGB 290400 METAR WAGB 290400Z 33003KT 8000 BKN012 30/24 Q1010 NOSIG=  
29-Aug-2023 SAID35 WAGB 290430 METAR WAGB 290430Z 34003KT 8000 BKN012 30/24 Q1010 NOSIG=  
29-Aug-2023 SAID35 WAGB 290500 METAR WAGB 290500Z 31003KT 9999 BKN013 31/24 Q1009 NOSIG=  
29-Aug-2023 SAID35 WAGB 290530 METAR WAGB 290530Z 00000KT 9999 SCT013 31/23 Q1008 NOSIG=  
29-Aug-2023 SAID35 WAGB 290600 METAR WAGB 290600Z 23005KT 9999 SCT013 32/24 Q1008 NOSIG=  
29-Aug-2023 SAID35 WAGB 290630 METAR WAGB 290630Z 00000KT 9999 SCT013 32/23 Q1007 NOSIG=  
29-Aug-2023 SAID35 WAGB 290700 METAR WAGB 290700Z 00000KT 9999 FEW013 32/24 Q1007 NOSIG=  
29-Aug-2023 SAID35 WAGB 290730 METAR WAGB 290730Z 00000KT 9999 FEW013 33/24 Q1007 NOSIG=  
29-Aug-2023 SAID35 WAGB 290800 METAR WAGB 290800Z 00000KT 9999 FEW013 33/23 Q1006 NOSIG=  
29-Aug-2023 SAID35 WAGB 290830 METAR WAGB 290830Z 19004KT 9999 FEW013 32/23 Q1006 NOSIG=  
29-Aug-2023 SAID35 WAGB 290900 METAR WAGB 290900Z 00000KT 9999 FEW013 33/24 Q1006 NOSIG=  
29-Aug-2023 SAID35 WAGB 290930 METAR WAGB 290930Z 00000KT 9999 FEW012 33/24 Q1006 NOSIG=  
29-Aug-2023 SAID35 WAGB 291000 METAR WAGB 291000Z 00000KT 9999 FEW012 32/24 Q1007 NOSIG=  
29-Aug-2023 SAID35 WAGB 291030 METAR WAGB 291030Z 00000KT 9999 FEW012 32/24 Q1007 NOSIG=  
29-Aug-2023 SAID35 WAGB 291100 METAR WAGB 291100Z 00000KT 9999 FEW012 31/25 Q1007 NOSIG=  
29-Aug-2023 SAID35 WAGB 291130 METAR WAGB 291130Z 00000KT 9999 FEW012 31/25 Q1007 NOSIG=  
29-Aug-2023 SAID35 WAGB 291200 METAR WAGB 291200Z 00000KT 9999 FEW012 29/26 Q1008=  
29-Aug-2023 SAID35 WAGB 291230 METAR WAGB 291230Z 00000KT 9999 FEW012 29/26 Q1008=  
29-Aug-2023 SAID35 WAGB 291300 METAR WAGB 291300Z 00000KT 8000 FEW012 28/26 Q1009=  
29-Aug-2023 SAID35 WAGB 291330 METAR WAGB 291330Z 00000KT 8000 FEW012 28/26 Q1009=  
29-Aug-2023 SAID35 WAGB 291400 METAR WAGB 291400Z 00000KT 8000 FEW012 28/26 Q1009=  
29-Aug-2023 SAID35 WAGB 291430 METAR WAGB 291430Z 00000KT 8000 FEW012 28/26 Q1009=  
29-Aug-2023 SAID35 WAGB 291500 METAR WAGB 291500Z 00000KT 8000 SCT012 27/25 Q1009=  
29-Aug-2023 SAID35 WAGB 291530 METAR WAGB 291530Z 00000KT 8000 SCT012 27/25 Q1009=  
29-Aug-2023 SAID35 WAGB 291600 METAR WAGB 291600Z 00000KT 6000 SCT012 26/25 Q1009=  
29-Aug-2023 SAID35 WAGB 291630 METAR WAGB 291630Z 00000KT 6000 SCT012 26/25 Q1009=  
29-Aug-2023 SAID35 WAGB 291700 METAR WAGB 291700Z 00000KT 6000 SCT011 26/25 Q1009=  
29-Aug-2023 SAID35 WAGB 291730 METAR WAGB 291730Z 00000KT 6000 SCT011 26/25 Q1009=  
29-Aug-2023 SAID35 WAGB 291800 METAR WAGB 291800Z 00000KT 6000 SCT011 26/25 Q1009=  
29-Aug-2023 SAID35 WAGB 291830 METAR WAGB 291830Z 00000KT 6000 SCT011 26/25 Q1009=  
29-Aug-2023 SAID35 WAGB 291900 METAR WAGB 291900Z 00000KT 6000 SCT010 25/25 Q1009=  
29-Aug-2023 SAID35 WAGB 291930 METAR WAGB 291930Z 00000KT 6000 SCT010 25/25 Q1009=  
29-Aug-2023 SAID35 WAGB 292000 METAR WAGB 292000Z 00000KT 6000 SCT010 25/24 Q1009=  
29-Aug-2023 SAID35 WAGB 292030 METAR WAGB 292030Z 00000KT 6000 SCT010 25/24 Q1009=  
29-Aug-2023 SAID35 WAGB 292100 METAR WAGB 292100Z 00000KT 5000 BR SCT010 25/24 Q1010=  
29-Aug-2023 SAID35 WAGB 292130 METAR WAGB 292130Z 00000KT 5000 BR SCT010 25/24 Q1010=  
29-Aug-2023 SAID35 WAGB 292200 METAR WAGB 292200Z 00000KT 5000 BR BKN010 25/24 Q1010=  
29-Aug-2023 SAID35 WAGB 292230 METAR WAGB 292230Z 00000KT 5000 HZ BKN010 25/24 Q1011=  
29-Aug-2023 SAID35 WAGB 292300 METAR WAGB 292300Z 00000KT 4000 HZ BKN009 25/24 Q1011=  
29-Aug-2023 SAID35 WAGB 292330 METAR WAGB 292330Z 00000KT 4000 HZ BKN009 25/24 Q1011=  
30-Aug-2023 SAID35 WAGB 300000 METAR WAGB 300000Z 31003KT 3000 HZ SCT009 26/24 Q1011 NOSIG=  
30-Aug-2023 SAID35 WAGB 300030 METAR WAGB 300030Z VRB02KT 5000 HZ FEW009 27/24 Q1011 NOSIG=  
30-Aug-2023 SAID35 WAGB 300100 METAR WAGB 300100Z VRB02KT 6000 FEW009 27/24 Q1011 NOSIG=  
30-Aug-2023 SAID35 WAGB 300130 METAR WAGB 300130Z 04004KT 6000 FEW009 28/24 Q1011 NOSIG=  
30-Aug-2023 SAID35 WAGB 300200 METAR WAGB 300200Z 02004KT 7000 FEW010 29/24 Q1011 NOSIG=  
30-Aug-2023 SAID35 WAGB 300230 METAR WAGB 300230Z 36005KT 8000 FEW010 30/24 Q1011 NOSIG=  
30-Aug-2023 SAID35 WAGB 300300 METAR WAGB 300300Z 35003KT 8000 SCT011 31/24 Q1011 NOSIG=  
30-Aug-2023 SAID35 WAGB 300330 METAR WAGB 300330Z 34004KT 8000 BKN012 31/24 Q1011 NOSIG=  
30-Aug-2023 SAID35 WAGB 300400 METAR WAGB 300400Z 32007KT 8000 BKN012 31/24 Q1010 NOSIG=  
30-Aug-2023 SAID35 WAGB 300430 METAR WAGB 300430Z 28004KT 9000 BKN013 32/23 Q1010 NOSIG=  
30-Aug-2023 SAID35 WAGB 300500 METAR WAGB 300500Z 32003KT 9000 BKN013 32/23 Q1009 NOSIG=  
30-Aug-2023 SAID35 WAGB 300530 METAR WAGB 300530Z 30003KT 9000 BKN014 33/23 Q1009 NOSIG=  
30-Aug-2023 SAID35 WAGB 300600 METAR WAGB 300600Z 36002KT 9000 BKN014 33/23 Q1008 NOSIG=  
30-Aug-2023 SAID35 WAGB 300630 METAR WAGB 300630Z 00000KT 9000 BKN015 34/23 Q1007 NOSIG=  
30-Aug-2023 SAID35 WAGB 300700 METAR WAGB 300700Z 25003KT 9000 SCT015 33/22 Q1007 NOSIG=  
30-Aug-2023 SAID35 WAGB 300730 METAR WAGB 300730Z 25004KT 9000 SCT015 34/23 Q1007 NOSIG=  
30-Aug-2023 SAID35 WAGB 300800 METAR WAGB 300800Z 29002KT 9000 SCT015 33/22 Q1007 NOSIG=  
30-Aug-2023 SAID35 WAGB 300830 METAR WAGB 300830Z 00000KT 9000 FEW015 34/23 Q1007 NOSIG=  
30-Aug-2023 SAID35 WAGB 300900 METAR WAGB 300900Z 00000KT 9000 FEW015 33/23 Q1007 NOSIG=  
30-Aug-2023 SAID35 WAGB 300930 METAR WAGB 300930Z 00000KT 9999 SCT013 34/25 Q1007 NOSIG=  
30-Aug-2023 SAID35 WAGB 301000 METAR WAGB 301000Z 00000KT 9999 SCT013 33/25 Q1007 NOSIG=  
30-Aug-2023 SAID35 WAGB 301030 METAR WAGB 301030Z 00000KT 9999 SCT013 33/25 Q1007 NOSIG=  
30-Aug-2023 SAID35 WAGB 301100 METAR WAGB 301100Z 00000KT 8000 FEW013 32/26 Q1008 NOSIG=  
30-Aug-2023 SAID35 WAGB 301130 METAR WAGB 301130Z 00000KT 8000 FEW013 32/26 Q1008 NOSIG=  
30-Aug-2023 SAID35 WAGB 301200 METAR WAGB 301200Z 00000KT 8000 FEW012 30/26 Q1009=  
30-Aug-2023 SAID35 WAGB 301230 METAR WAGB 301230Z 00000KT 8000 FEW012 30/26 Q1009=  
30-Aug-2023 SAID35 WAGB 301300 METAR WAGB 301300Z 00000KT 8000 FEW012 29/27 Q1009=  
30-Aug-2023 SAID35 WAGB 301330 METAR WAGB 301330Z 00000KT 8000 FEW012 29/27 Q1010=  
30-Aug-2023 SAID35 WAGB 301400 METAR WAGB 301400Z 00000KT 8000 FEW012 28/26 Q1010=  
30-Aug-2023 SAID35 WAGB 301430 METAR WAGB 301430Z 00000KT 8000 FEW012 28/26 Q1010=  
30-Aug-2023 SAID35 WAGB 301500 METAR WAGB 301500Z 00000KT 7000 FEW012 28/26 Q1010=  
30-Aug-2023 SAID35 WAGB 301530 METAR WAGB 301530Z 00000KT 7000 FEW012 28/26 Q1011=  
30-Aug-2023 SAID35 WAGB 301600 METAR WAGB 301600Z 00000KT 7000 FEW012 27/26 Q1010=  
30-Aug-2023 SAID35 WAGB 301630 METAR WAGB 301630Z 00000KT 7000 FEW012 27/26 Q1010=  
30-Aug-2023 SAID35 WAGB 301700 METAR WAGB 301700Z 00000KT 7000 FEW011 27/26 Q1011=  
30-Aug-2023 SAID35 WAGB 301730 METAR WAGB 301730Z 00000KT 7000 FEW011 27/26 Q1011=  
30-Aug-2023 SAID35 WAGB 301800 METAR WAGB 301800Z 00000KT 7000 FEW011 26/25 Q1010=  
30-Aug-2023 SAID35 WAGB 301830 METAR WAGB 301830Z 00000KT 7000 FEW011 26/25 Q1010=  
30-Aug-2023 SAID35 WAGB 301900 METAR WAGB 301900Z 00000KT 6000 SCT011 26/25 Q1010=  
30-Aug-2023 SAID35 WAGB 301930 METAR WAGB 301930Z 00000KT 6000 SCT011 26/25 Q1010=  
30-Aug-2023 SAID35 WAGB 302000 METAR WAGB 302000Z 00000KT 6000 SCT011 26/25 Q1010=  
30-Aug-2023 SAID35 WAGB 302030 METAR WAGB 302030Z 00000KT 6000 SCT011 26/25 Q1010=  
30-Aug-2023 SAID35 WAGB 302100 METAR WAGB 302100Z 00000KT 6000 SCT011 26/25 Q1010=  
30-Aug-2023 SAID35 WAGB 302130 METAR WAGB 302130Z 00000KT 6000 SCT011 26/25 Q1010=  
30-Aug-2023 SAID35 WAGB 302200 METAR WAGB 302200Z 00000KT 6000 SCT011 26/25 Q1010=  
30-Aug-2023 SAID35 WAGB 302230 METAR WAGB 302230Z 00000KT 6000 SCT011 26/25 Q1011=  
30-Aug-2023 SAID35 WAGB 302300 METAR WAGB 302300Z 00000KT 6000 SCT011 26/24 Q1011=  
30-Aug-2023 SAID35 WAGB 302330 METAR WAGB 302330Z 00000KT 6000 SCT011 26/24 Q1011=  
31-Aug-2023 SAID35 WAGB 310000 METAR WAGB 310000Z 2702KT 6000 FEW010 36/24 Q1012 NOSIG=  
31-Aug-2023 SAID35 WAGB 310000 CCA METAR WAGB 310000Z 27002KT 6000 FEW010 36/24 Q1012 NOSIG=  
31-Aug-2023 SAID35 WAGB 310030 METAR WAGB 310030Z 25004KT 6000 FEW010 26/24 Q1012 NOSIG=  
31-Aug-2023 SAID35 WAGB 310100 METAR WAGB 310100Z 23003KT 7000 BKN010 27/24 Q1012 NOSIG=  
31-Aug-2023 SAID35 WAGB 310130 METAR WAGB 310130Z 26003KT 7000 BKN010 28/24 Q1012 NOSIG=  
31-Aug-2023 SAID35 WAGB 310200 METAR WAGB 310200Z 24003KT 8000 BKN011 28/24 Q1012 NOSIG=  
31-Aug-2023 SAID35 WAGB 310230 METAR WAGB 310230Z 26004KT 8000 SCT011 29/25 Q1012 NOSIG=  
31-Aug-2023 SAID35 WAGB 310300 METAR WAGB 310300Z 35003KT 9000 SCT011 30/25 Q1011 NOSIG=  
31-Aug-2023 SAID35 WAGB 310330 METAR WAGB 310330Z 14002KT 9000 BKN012 31/25 Q1011 NOSIG=  
31-Aug-2023 SAID35 WAGB 310400 METAR WAGB 310400Z 26004KT 9000 BKN012 32/25 Q1011 NOSIG=  
31-Aug-2023 SAID35 WAGB 310430 METAR WAGB 310430Z 24004KT 9000 BKN012 31/24 Q1010 NOSIG=  
31-Aug-2023 SAID35 WAGB 310500 METAR WAGB 310500Z 27005KT 9000 BKN013 32/23 Q1009 NOSIG=  
31-Aug-2023 SAID35 WAGB 310530 METAR WAGB 310530Z 11002KT 9000 BKN013 33/23 Q1009 NOSIG=  
31-Aug-2023 SAID35 WAGB 310600 METAR WAGB 310600Z 30004KT 9999 BKN013 34/23 Q1008 NOSIG=  
31-Aug-2023 SAID35 WAGB 310630 METAR WAGB 310630Z 28002KT 9999 BKN013 34/23 Q1008 NOSIG=  
31-Aug-2023 SAID35 WAGB 310700 METAR WAGB 310700Z 36003KT 9999 SCT014 34/23 Q1008 NOSIG=  
31-Aug-2023 SAID35 WAGB 310730 METAR WAGB 310730Z 33005KT 9999 SCT014 34/23 Q1007 NOSIG=  
31-Aug-2023 SAID35 WAGB 310800 METAR WAGB 310800Z 30005KT 9999 SCT014 34/23 Q1007 NOSIG=  
31-Aug-2023 SAID35 WAGB 310830 METAR WAGB 310830Z 29005KT 9999 FEW014 33/23 Q1007 NOSIG=  
31-Aug-2023 SAID35 WAGB 310900 METAR WAGB 310900Z 31004KT 9999 SCT014 33/23 Q1007 NOSIG=  
31-Aug-2023 SAID35 WAGB 310930 METAR WAGB 310930Z 00000KT 9999 FEW014 33/25 Q1008 NOSIG=  
31-Aug-2023 SAID35 WAGB 311000 METAR WAGB 311000Z 00000KT 9999 FEW013 32/25 Q1008 NOSIG=  
31-Aug-2023 SAID35 WAGB 311030 METAR WAGB 311030Z 00000KT 9999 FEW013 32/25 Q1008 NOSIG=  
31-Aug-2023 SAID35 WAGB 311100 METAR WAGB 311100Z 00000KT 9000 FEW013 30/26 Q1008 NOSIG=  
31-Aug-2023 SAID35 WAGB 311130 METAR WAGB 311130Z 00000KT 9000 FEW013 30/25 Q1009 NOSIG=  
31-Aug-2023 SAID35 WAGB 311200 METAR WAGB 311200Z 00000KT 8000 FEW013 30/26 Q1009=  
31-Aug-2023 SAID35 WAGB 311230 METAR WAGB 311230Z 00000KT 8000 FEW013 30/26 Q1009=  
31-Aug-2023 SAID35 WAGB 311300 METAR WAGB 311300Z 00000KT 8000 FEW013 28/26 Q1010=  
31-Aug-2023 SAID35 WAGB 311330 METAR WAGB 311330Z 00000KT 8000 FEW013 28/26 Q1010=  
31-Aug-2023 SAID35 WAGB 311400 METAR WAGB 311400Z 00000KT 8000 FEW013 28/26 Q1010=  
31-Aug-2023 SAID35 WAGB 311430 METAR WAGB 311430Z 00000KT 8000 FEW013 28/26 Q1010=  
31-Aug-2023 SAID35 WAGB 311500 METAR WAGB 311500Z 00000KT 8000 FEW012 28/26 Q1011=  
31-Aug-2023 SAID35 WAGB 311530 METAR WAGB 311530Z 00000KT 8000 FEW012 28/26 Q1011=  
31-Aug-2023 SAID35 WAGB 311600 METAR WAGB 311600Z 00000KT 7000 FEW012 27/26 Q1011=  
31-Aug-2023 SAID35 WAGB 311630 METAR WAGB 311630Z 00000KT 7000 FEW012 27/26 Q1011=  
31-Aug-2023 SAID35 WAGB 311700 METAR WAGB 311700Z 00000KT 7000 FEW012 27/26 Q1011=  
31-Aug-2023 SAID35 WAGB 311730 METAR WAGB 311730Z 00000KT 7000 FEW012 27/26 Q1011=  
31-Aug-2023 SAID35 WAGB 311800 METAR WAGB 311800Z 00000KT 7000 FEW012 27/25 Q1011=  
31-Aug-2023 SAID35 WAGB 311830 METAR WAGB 311830Z 00000KT 7000 FEW012 27/25 Q1011=  
31-Aug-2023 SAID35 WAGB 311900 METAR WAGB 311900Z 00000KT 7000 FEW011 27/25 Q1011=  
31-Aug-2023 SAID35 WAGB 311930 METAR WAGB 311930Z 00000KT 7000 FEW011 27/25 Q1011=  
31-Aug-2023 SAID35 WAGB 312000 METAR WAGB 312000Z 00000KT 7000 FEW011 26/25 Q1011=  
31-Aug-2023 SAID35 WAGB 312030 METAR WAGB 312030Z 00000KT 7000 FEW011 26/25 Q1011=  
31-Aug-2023 SAID35 WAGB 312100 METAR WAGB 312100Z 00000KT 7000 SCT011 26/25 Q1011=  
31-Aug-2023 SAID35 WAGB 312130 METAR WAGB 312130Z 00000KT 7000 SCT011 26/25 Q1011=  
31-Aug-2023 SAID35 WAGB 312200 METAR WAGB 312200Z 00000KT 7000 SCT011 27/25 Q1011=  
31-Aug-2023 SAID35 WAGB 312230 METAR WAGB 312230Z 00000KT 7000 SCT011 27/25 Q1011=  
31-Aug-2023 SAID35 WAGB 312300 METAR WAGB 312300Z 00000KT 7000 SCT011 27/26 Q1012=  
31-Aug-2023 SAID35 WAGB 312330 METAR WAGB 312330Z 00000KT 7000 SCT011 27/26 Q1012=  
01-Sep-2023 SAID35 WAGB 010000 METAR WAGB 010000Z 00000KT 6000 BKN009 25/23 Q1012 NOSIG=  
01-Sep-2023 SAID35 WAGB 010030 METAR WAGB 010030Z 29003KT 6000 BKN009 25/24 Q1012 NOSIG=  
01-Sep-2023 SAID35 WAGB 010100 METAR WAGB 010100Z 28006KT 7000 BKN009 27/23 Q1013 NOSIG=  
01-Sep-2023 SAID35 WAGB 010130 METAR WAGB 010130Z 00000KT 8000 BKN009 27/23 Q1013 NOSIG=  
01-Sep-2023 SAID35 WAGB 010230 METAR WAGB 010230Z 24004KT 9000 BKN009 28/23 Q1012 NOSIG=  
01-Sep-2023 SAID35 WAGB 010300 METAR WAGB 010300Z 35003KT 9999 BKN009 29/24 Q1012 NOSIG=  
01-Sep-2023 SAID35 WAGB 010330 METAR WAGB 010330Z 00000KT 9999 BKN009 30/24 Q1012 NOSIG=  
01-Sep-2023 SAID35 WAGB 010400 METAR WAGB 010400Z 34004KT 9999 BKN009 30/24 Q1011 NOSIG=  
01-Sep-2023 SAID35 WAGB 010430 METAR WAGB 010430Z 29005KT 9999 BKN009 30/24 Q1011 NOSIG=  
01-Sep-2023 SAID35 WAGB 010500 METAR WAGB 010500Z 22004KT 9999 BKN010 31/24 Q1010 NOSIG=  
01-Sep-2023 SAID35 WAGB 010530 METAR WAGB 010530Z 20005KT 9999 BKN010 30/24 Q1009 NOSIG=  
01-Sep-2023 SAID35 WAGB 010600 METAR WAGB 010600Z 19006KT 8000 BKN010 31/23 Q1009 NOSIG=  
01-Sep-2023 SAID35 WAGB 010630 METAR WAGB 010630Z 18005KT 8000 BKN012 31/24 Q1008 NOSIG=  
01-Sep-2023 SAID35 WAGB 010700 METAR WAGB 010700Z 22003KT 8000 BKN012 31/24 Q1008 NOSIG=  
01-Sep-2023 SAID35 WAGB 010730 METAR WAGB 010730Z 24004KT 8000 SCT013 31/24 Q1008 NOSIG=  
01-Sep-2023 SAID35 WAGB 010800 METAR WAGB 010800Z 19003KT 8000 SCT013 32/23 Q1007 NOSIG=  
01-Sep-2023 SAID35 WAGB 010830 METAR WAGB 010830Z 27003KT 8000 SCT013 32/23 Q1007 NOSIG=  
01-Sep-2023 SAID35 WAGB 010900 METAR WAGB 010900Z 22004KT 8000 FEW013 32/23 Q1007 NOSIG=  
01-Sep-2023 SAID35 WAGB 010930 METAR WAGB 010930Z 00000KT 6000 BKN015 32/25 Q1008 NOSIG=  
01-Sep-2023 SAID35 WAGB 011000 METAR WAGB 011000Z 00000KT 4500 FU FEW015 31/25 Q1008=  
01-Sep-2023 SAID35 WAGB 011030 METAR WAGB 011030Z 00000KT 4000 FU FEW014 30/25 Q1008=  
01-Sep-2023 SAID35 WAGB 011100 METAR WAGB 011100Z 00000KT 5000 HZ FEW014 30/25 Q1008=  
01-Sep-2023 SAID35 WAGB 011130 METAR WAGB 011130Z 00000KT 5000 HZ FEW014 29/25 Q1008=  
01-Sep-2023 SAID35 WAGB 011300 METAR WAGB 011300Z 00000KT 7000 SCT013 28/26 Q1009=  
01-Sep-2023 SAID35 WAGB 011330 METAR WAGB 011330Z 00000KT 7000 SCT013 28/26 Q1010=  
01-Sep-2023 SAID35 WAGB 011400 METAR WAGB 011400Z 00000KT 7000 SCT013 27/26 Q1010=  
01-Sep-2023 SAID35 WAGB 011430 METAR WAGB 011430Z 00000KT 7000 SCT013 27/26 Q1010=  
01-Sep-2023 SAID35 WAGB 011500 METAR WAGB 011500Z 00000KT 7000 FEW011 27/25 Q1010=  
01-Sep-2023 SAID35 WAGB 011530 METAR WAGB 011530Z 00000KT 7000 FEW011 27/25 Q1011=  
01-Sep-2023 SAID35 WAGB 011600 METAR WAGB 011600Z 00000KT 6000 SCT011 26/25 Q1010=  
01-Sep-2023 SAID35 WAGB 011630 METAR WAGB 011630Z 00000KT 6000 SCT011 26/25 Q1010=  
01-Sep-2023 SAID35 WAGB 011700 METAR WAGB 011700Z 00000KT 6000 SCT011 25/24 Q1010=  
01-Sep-2023 SAID35 WAGB 011730 METAR WAGB 011730Z 00000KT 6000 SCT011 25/24 Q1010=  
01-Sep-2023 SAID35 WAGB 011800 METAR WAGB 011800Z 00000KT 5000 HZ SCT012 25/24 Q1010=  
01-Sep-2023 SAID35 WAGB 011830 METAR WAGB 011830Z 00000KT 5000 HZ SCT012 25/24 Q1010=  
01-Sep-2023 SAID35 WAGB 011900 METAR WAGB 011900Z 00000KT 5000 HZ BKN009 25/24 Q1009=  
01-Sep-2023 SAID35 WAGB 011930 METAR WAGB 011930Z 00000KT 5000 HZ BKN009 25/24 Q1009=  
01-Sep-2023 SAID35 WAGB 012000 METAR WAGB 012000Z 00000KT 5000 HZ BKN009 25/24 Q1009=  
01-Sep-2023 SAID35 WAGB 012030 METAR WAGB 012030Z 00000KT 5000 HZ BKN009 25/24 Q1009=  
01-Sep-2023 SAID35 WAGB 012100 METAR WAGB 012100Z 00000KT 5000 HZ BKN009 25/24 Q1009=  
01-Sep-2023 SAID35 WAGB 012130 METAR WAGB 012130Z 00000KT 5000 HZ BKN009 25/24 Q1009=  
01-Sep-2023 SAID35 WAGB 012200 METAR WAGB 012200Z 00000KT 4000 HZ BKN009 23/22 Q1011=  
01-Sep-2023 SAID35 WAGB 012230 METAR WAGB 012230Z 00000KT 4000 HZ BKN009 23/22 Q1011=  
01-Sep-2023 SAID35 WAGB 012300 METAR WAGB 012300Z 00000KT 4000 HZ BKN009 23/22 Q1011=  
01-Sep-2023 SAID35 WAGB 012330 METAR WAGB 012330Z 00000KT 4000 HZ SCT009 23/22 Q1011=  
02-Sep-2023 SAID35 WAGB 020000 METAR WAGB 020000Z 00000KT 3000 FU BKN010 24/21 Q1011 NOSIG=  
02-Sep-2023 SAID35 WAGB 020030 METAR WAGB 020030Z 00000KT 3500 FU BKN010 24/22 Q1011 NOSIG=  
02-Sep-2023 SAID35 WAGB 020100 METAR WAGB 020100Z 25004KT 3500 FU BKN010 25/21 Q1011 NOSIG=  
02-Sep-2023 SAID35 WAGB 020130 METAR WAGB 020130Z VRB02KT 4000 FU SCT010 26/21 Q1011 NOSIG=  
02-Sep-2023 SAID35 WAGB 020200 METAR WAGB 020200Z 27004KT 240V340 6000 FEW011 28/22 Q1011 NOSIG=  
02-Sep-2023 SAID35 WAGB 020230 METAR WAGB 020230Z 25004KT 7000 FEW011 29/22 Q1011 NOSIG=  
02-Sep-2023 SAID35 WAGB 020300 METAR WAGB 020300Z 25006KT 7000 NSC 30/22 Q1011 NOSIG=  
02-Sep-2023 SAID35 WAGB 020330 METAR WAGB 020330Z 22004KT 8000 FEW010 30/22 Q1010 NOSIG=  
02-Sep-2023 SAID35 WAGB 020400 METAR WAGB 020400Z 27004KT 8000 FEW010 31/22 Q1010 NOSIG=  
02-Sep-2023 SAID35 WAGB 020430 METAR WAGB 020430Z 29006KT 8000 BKN010 31/22 Q1009 NOSIG=  
02-Sep-2023 SAID35 WAGB 020500 METAR WAGB 020500Z 33004KT 8000 BKN012 32/22 Q1009 NOSIG=  
02-Sep-2023 SAID35 WAGB 020530 METAR WAGB 020530Z 22002KT 9000 BKN012 32/22 Q1008 NOSIG=  
02-Sep-2023 SAID35 WAGB 020600 METAR WAGB 020600Z 00000KT 9000 BKN012 33/22 Q1007 NOSIG=  
02-Sep-2023 SAID35 WAGB 020630 METAR WAGB 020630Z 24005KT 9000 BKN012 33/21 Q1007 NOSIG=  
02-Sep-2023 SAID35 WAGB 020700 METAR WAGB 020700Z 21004KT 9000 BKN012 33/22 Q1007 NOSIG=  
02-Sep-2023 SAID35 WAGB 020730 METAR WAGB 020730Z 21002KT 9000 BKN012 32/22 Q1007 NOSIG=  
02-Sep-2023 SAID35 WAGB 020800 METAR WAGB 020800Z 00000KT 9000 BKN012 32/22 Q1007 NOSIG=  
02-Sep-2023 SAID35 WAGB 020830 METAR WAGB 020830Z 29005KT 9000 SCT012 32/22 Q1007 NOSIG=  
02-Sep-2023 SAID35 WAGB 020900 METAR WAGB 020900Z 24003KT 9000 SCT012 32/22 Q1007 NOSIG=  
02-Sep-2023 SAID35 WAGB 020930 METAR WAGB 020930Z 00000KT 6000 SCT015 32/24 Q1007 NOSIG=  
02-Sep-2023 SAID35 WAGB 021000 METAR WAGB 021000Z 26003KT 7000 FEW015 31/23 Q1007 NOSIG=  
02-Sep-2023 SAID35 WAGB 021030 METAR WAGB 021030Z 00000KT 7000 FEW015 30/24 Q1008 NOSIG=  
02-Sep-2023 SAID35 WAGB 021100 METAR WAGB 021100Z 00000KT 7000 FEW014 29/23 Q1008 NOSIG=  
02-Sep-2023 SAID35 WAGB 021130 METAR WAGB 021130Z 00000KT 7000 FEW014 29/24 Q1008 NOSIG=  
02-Sep-2023 SAID35 WAGB 021200 METAR WAGB 021200Z 00000KT 7000 FEW014 28/24 Q1008 NOSIG=  
02-Sep-2023 SAID35 WAGB 021230 METAR WAGB 021230Z 00000KT 7000 FEW014 28/24 Q1009 NOSIG=  
02-Sep-2023 SAID35 WAGB 021300 METAR WAGB 021300Z 00000KT 7000 FEW013 27/24 Q1009 NOSIG=  
02-Sep-2023 SAID35 WAGB 021330 METAR WAGB 021330Z 00000KT 7000 FEW013 27/24 Q1009 NOSIG=  
02-Sep-2023 SAID35 WAGB 021400 METAR WAGB 021400Z 00000KT 6000 FEW013 26/24 Q1009 NOSIG=  
02-Sep-2023 SAID35 WAGB 021430 METAR WAGB 021430Z 00000KT 6000 FEW013 26/24 Q1009 NOSIG=  
02-Sep-2023 SAID35 WAGB 021500 METAR WAGB 021500Z 00000KT 5000 FU FEW013 25/24 Q1010=  
02-Sep-2023 SAID35 WAGB 021530 METAR WAGB 021530Z 00000KT 5000 FU FEW013 25/24 Q1010=  
02-Sep-2023 SAID35 WAGB 021600 METAR WAGB 021600Z 00000KT 5000 FU FEW012 25/24 Q1010=  
02-Sep-2023 SAID35 WAGB 021630 METAR WAGB 021630Z 00000KT 5000 FU FEW012 25/24 Q1010=  
02-Sep-2023 SAID35 WAGB 021700 METAR WAGB 021700Z 00000KT 5000 HZ BKN012 25/23 Q1010 NOSIG=  
02-Sep-2023 SAID35 WAGB 021730 METAR WAGB 021730Z 00000KT 5000 HZ BKN012 25/23 Q1010 NOSIG=  
02-Sep-2023 SAID35 WAGB 021800 METAR WAGB 021800Z 00000KT 5000 HZ SCT012 25/23 Q1010 NOSIG=  
02-Sep-2023 SAID35 WAGB 021830 METAR WAGB 021830Z 00000KT 5000 HZ SCT012 25/23 Q1010 NOSIG=  
02-Sep-2023 SAID35 WAGB 021900 METAR WAGB 021900Z 00000KT 5000 HZ FEW012 24/23 Q1010 NOSIG=  
02-Sep-2023 SAID35 WAGB 021930 METAR WAGB 021930Z 00000KT 5000 HZ FEW012 24/23 Q1010 NOSIG=  
02-Sep-2023 SAID35 WAGB 021200 METAR WAGB 022000Z 00000KT 5000 HZ FEW011 24/23 Q1010 NOSIG=  
02-Sep-2023 SAID35 WAGB 022000 METAR WAGB 022000Z 00000KT 5000 HZ FEW011 24/23 Q1010 NOSIG=  
02-Sep-2023 SAID35 WAGB 022030 METAR WAGB 022030Z 00000KT 5000 HZ FEW011 24/23 Q1010 NOSIG=  
02-Sep-2023 SAID35 WAGB 022100 METAR WAGB 022100Z 00000KT 4000 BR FEW010 24/23 Q1010 NOSIG=  
02-Sep-2023 SAID35 WAGB 022130 METAR WAGB 022130Z 00000KT 4000 BR FEW010 24/23 Q1011 NOSIG=  
02-Sep-2023 SAID35 WAGB 022200 METAR WAGB 022200Z 00000KT 3000 BR SCT009 23/22 Q1011 NOSIG=  
02-Sep-2023 SAID35 WAGB 022230 METAR WAGB 022230Z 00000KT 3000 BR SCT009 23/22 Q1011 NOSIG=  
02-Sep-2023 SAID35 WAGB 022300 METAR WAGB 022300Z 00000KT 3000 BR FEW010 23/22 Q1012 NOSIG=  
02-Sep-2023 SAID35 WAGB 022330 METAR WAGB 022330Z 00000KT 4000 BR FEW010 23/22 Q1012 NOSIG=  
03-Sep-2023 SAID35 WAGB 030000 METAR WAGB 030000Z 26002KT 6000 NSC 25/21 Q1012 NOSIG=  
03-Sep-2023 SAID35 WAGB 030030 METAR WAGB 030030Z 26004KT 7000 FEW009 25/23 Q1012 NOSIG=  
03-Sep-2023 SAID35 WAGB 030100 METAR WAGB 030100Z 24004KT 6000 SCT008 26/21 Q1012 NOSIG=  
03-Sep-2023 SAID35 WAGB 030130 METAR WAGB 030130Z 23003KT 6000 BKN008 26/22 Q1012 NOSIG=  
03-Sep-2023 SAID35 WAGB 030200 METAR WAGB 030200Z 24003KT 6000 BKN009 27/22 Q1012 NOSIG=  
03-Sep-2023 SAID35 WAGB 030300 METAR WAGB 030200Z 34005KT 6000 BKN009 28/23 Q1012 NOSIG=  
03-Sep-2023 SAID35 WAGB 030230 METAR WAGB 030230Z 24003KT 6000 BKN009 27/22 Q1012 NOSIG=  
03-Sep-2023 SAID35 WAGB 030300 METAR WAGB 030300Z 34005KT 6000 BKN009 28/23 Q1012 NOSIG=  
03-Sep-2023 SAID35 WAGB 030330 METAR WAGB 030330Z 00000KT 6000 BKN009 29/23 Q1011 NOSIG=  
03-Sep-2023 SAID35 WAGB 030400 METAR WAGB 030400Z 22002KT 7000 BKN011 30/23 Q1010 NOSIG=  
03-Sep-2023 SAID35 WAGB 030430 METAR WAGB 030430Z 20002KT 7000 BKN014 30/24 Q1011 NOSIG=  
03-Sep-2023 SAID35 WAGB 030500 METAR WAGB 030500Z 21003KT 7000 BKN014 31/24 Q1010 NOSIG=  
03-Sep-2023 SAID35 WAGB 030530 METAR WAGB 030530Z 21003KT 7000 BKN014 31/24 Q1010 NOSIG=  
03-Sep-2023 SAID35 WAGB 030600 METAR WAGB 030600Z 00000KT 6000 BKN014 31/23 Q1009 NOSIG=  
03-Sep-2023 SAID35 WAGB 030630 METAR WAGB 030630Z 00000KT 5000 FU BKN014 31/23 Q1008 NOSIG=  
03-Sep-2023 SAID35 WAGB 030700 METAR WAGB 030700Z 32003KT 4000 FU BKN015 33/23 Q1008 NOSIG=  
03-Sep-2023 SAID35 WAGB 030730 METAR WAGB 030730Z 00000KT 4000 FU BKN015 33/23 Q1008 NOSIG=  
03-Sep-2023 SAID35 WAGB 030800 METAR WAGB 030800Z 18002KT 3000 FU SCT015 33/22 Q1007 NOSIG=  
03-Sep-2023 SAID35 WAGB 030830 METAR WAGB 030830Z 21002KT 3000 FU SCT015 33/22 Q1007 NOSIG=  
03-Sep-2023 SAID35 WAGB 030900 METAR WAGB 030900Z 28002KT 2500 FU FEW015 33/23 Q1007 NOSIG=  
03-Sep-2023 SAID35 WAGB 030900 CCA METAR WAGB 030900Z VRB02KT 2500 FU FEW015 33/23 Q1007 NOSIG=  
03-Sep-2023 SAID35 WAGB 031100 METAR WAGB 031100Z 00000KT 2500 FU FEW015 30/25 Q1007 NOSIG=  
03-Sep-2023 SAID35 WAGB 031130 METAR WAGB 031130Z 00000KT 2500 FU FEW015 29/25 Q1008 NOSIG=  
03-Sep-2023 SAID35 WAGB 031200 METAR WAGB 031200Z 00000KT 2500 FU FEW015 28/25 Q1008=  
03-Sep-2023 SAID35 WAGB 031230 METAR WAGB 031230Z 00000KT 2500 FU FEW015 28/25 Q1008=  
03-Sep-2023 SAID35 WAGB 031300 METAR WAGB 031300Z 00000KT 2500 FU FEW015 27/25 Q1009=  
03-Sep-2023 SAID35 WAGB 031330 METAR WAGB 031330Z 00000KT 2500 FU FEW015 27/25 Q1009=  
03-Sep-2023 SAID35 WAGB 031400 METAR WAGB 031400Z 00000KT 3000 FU FEW015 27/25 Q1009=  
03-Sep-2023 SAID35 WAGB 031430 METAR WAGB 031430Z 00000KT 3000 FU FEW015 27/25 Q1009=  
03-Sep-2023 SAID35 WAGB 031500 METAR WAGB 031500Z 00000KT 3000 FU FEW015 27/24 Q1010=  
03-Sep-2023 SAID35 WAGB 031530 METAR WAGB 031530Z 00000KT 3000 FU FEW015 27/24 Q1010=  
03-Sep-2023 SAID35 WAGB 031600 METAR WAGB 031600Z 00000KT 3000 FU FEW015 26/24 Q1010=  
03-Sep-2023 SAID35 WAGB 031630 METAR WAGB 031630Z 00000KT 3000 FU FEW015 26/24 Q1010=  
03-Sep-2023 SAID35 WAGB 031700 METAR WAGB 031700Z 00000KT 3000 FU FEW015 26/24 Q1010=  
03-Sep-2023 SAID35 WAGB 031730 METAR WAGB 031730Z 00000KT 3000 FU FEW015 26/24 Q1010=  
03-Sep-2023 SAID35 WAGB 031800 METAR WAGB 031800Z 00000KT 3000 FU FEW015 26/25 Q1009=  
03-Sep-2023 SAID35 WAGB 031830 METAR WAGB 031830Z 00000KT 3000 FU FEW015 26/25 Q1009=  
03-Sep-2023 SAID35 WAGB 031900 METAR WAGB 031900Z 00000KT 3000 FU FEW015 26/24 Q1009=  
03-Sep-2023 SAID35 WAGB 031930 METAR WAGB 031930Z 00000KT 3000 FU FEW015 26/24 Q1009=  
03-Sep-2023 SAID35 WAGB 032000 METAR WAGB 032000Z 00000KT 3000 FU FEW015 25/24 Q1009=  
03-Sep-2023 SAID35 WAGB 032030 METAR WAGB 032030Z 00000KT 3000 FU FEW015 25/24 Q1009=  
03-Sep-2023 SAID35 WAGB 032100 METAR WAGB 032100Z 00000KT 3000 FU FEW015 25/24 Q1009=  
03-Sep-2023 SAID35 WAGB 032130 CCA METAR WAGB 032130Z 00000KT 3000 FU FEW015 25/24 Q1009=  
03-Sep-2023 SAID35 WAGB 032200 METAR WAGB 032200Z 00000KT 3000 FU BKN010 25/23 Q1009=  
03-Sep-2023 SAID35 WAGB 032230 METAR WAGB 032230Z 00000KT 3000 FU BKN010 25/23 Q1009=  
03-Sep-2023 SAID35 WAGB 032300 METAR WAGB 032300Z 00000KT 3000 FU BKN010 25/23 Q1010=  
03-Sep-2023 SAID35 WAGB 032330 METAR WAGB 032330Z 00000KT 2500 FU BKN010 25/23 Q1010=  
04-Sep-2023 SAID35 WAGB 040000 METAR WAGB 040000Z 11002KT 2000 FU BKN009 24/23 Q1011=  
04-Sep-2023 SAID35 WAGB 040030 METAR WAGB 040030Z 00000KT 2000 FU BKN009 26/22 Q1011=  
04-Sep-2023 SAID35 WAGB 040100 METAR WAGB 040100Z 16002KT 2500 FU BKN010 27/22 Q1011=  
04-Sep-2023 SAID35 WAGB 040130 METAR WAGB 040130Z 31003KT 4000 FU SCT011 27/22 Q1010=  
04-Sep-2023 SAID35 WAGB 040200 METAR WAGB 040200Z 30004KT 4000 FU FEW011 28/22 Q1010=  
04-Sep-2023 SAID35 WAGB 040230 METAR WAGB 040230Z 35005KT 4000 FU FEW011 29/23 Q1010=  
04-Sep-2023 SAID35 WAGB 040300 METAR WAGB 040300Z 00000KT 4000 FU FEW011 30/23 Q1010=  
04-Sep-2023 SAID35 WAGB 040330 METAR WAGB 040330Z 24004KT 4000 FU SCT011 30/22 Q1009=  
04-Sep-2023 SAID35 WAGB 040400 METAR WAGB 040400Z 35005KT 5000 FU BKN011 30/23 Q1009=  
04-Sep-2023 SAID35 WAGB 040430 METAR WAGB 040430Z 32003KT 6000 BKN012 30/23 Q1008 NOSIG=  
04-Sep-2023 SAID35 WAGB 040500 METAR WAGB 040500Z 22002KT 6000 BKN012 30/23 Q1008 NOSIG=  
04-Sep-2023 SAID35 WAGB 040530 METAR WAGB 040530Z 21003KT 7000 BKN012 31/22 Q1007 NOSIG=  
04-Sep-2023 SAID35 WAGB 040600 METAR WAGB 040600Z 26005KT 7000 BKN012 32/23 Q1007 NOSIG=  
04-Sep-2023 SAID35 WAGB 040630 METAR WAGB 040630Z 24003KT 7000 BKN013 30/23 Q1007 NOSIG=  
04-Sep-2023 SAID35 WAGB 040700 METAR WAGB 040700Z 19002KT 5000 FU BKN013 32/25 Q1007=  
04-Sep-2023 SAID35 WAGB 040730 METAR WAGB 040730Z 00000KT 5000 FU BKN014 32/25 Q1007=  
04-Sep-2023 SAID35 WAGB 040800 METAR WAGB 040800Z 00000KT 5000 FU BKN014 32/25 Q1006=  
04-Sep-2023 SAID35 WAGB 040830 METAR WAGB 040830Z 00000KT 5000 FU BKN014 32/25 Q1006=  
04-Sep-2023 SAID35 WAGB 040900 METAR WAGB 040900Z 24002KT 6000 FU SCT013 31/25 Q1007=  
04-Sep-2023 SAID35 WAGB 040930 METAR WAGB 040930Z 00000KT 6000 FU SCT013 30/25 Q1007=  
04-Sep-2023 SAID35 WAGB 041000 METAR WAGB 041000Z 00000KT 6000 SCT013 30/25 Q1007=  
04-Sep-2023 SAID35 WAGB 041030 METAR WAGB 041030Z 00000KT 6000 FU SCT013 29/24 Q1007=  
04-Sep-2023 SAID35 WAGB 041100 METAR WAGB 041100Z 00000KT 5000 FU SCT013 29/24 Q1008=  
04-Sep-2023 SAID35 WAGB 041130 METAR WAGB 041130Z 00000KT 5000 FU SCT013 29/24 Q1008=  
04-Sep-2023 SAID35 WAGB 041200 METAR WAGB 041200Z 00000KT 5000 FU FEW013 29/25 Q1008=  
04-Sep-2023 SAID35 WAGB 041230 METAR WAGB 041230Z 00000KT 5000 FU FEW013 29/25 Q1008=  
04-Sep-2023 SAID35 WAGB 041300 METAR WAGB 041300Z 00000KT 4500 FU FEW013 28/25 Q1009=  
04-Sep-2023 SAID35 WAGB 041330 METAR WAGB 041330Z 00000KT 4500 FU FEW013 28/25 Q1009=  
04-Sep-2023 SAID35 WAGB 041400 METAR WAGB 041400Z 00000KT 3500 FU FEW012 27/25 Q1009=  
04-Sep-2023 SAID35 WAGB 041430 METAR WAGB 041430Z 00000KT 3500 FU FEW012 27/25 Q1009=  
04-Sep-2023 SAID35 WAGB 041500 METAR WAGB 041500Z 00000KT 2500 FU FEW012 27/25 Q1010=  
04-Sep-2023 SAID35 WAGB 041530 METAR WAGB 041530Z 00000KT 2500 FU FEW012 26/25 Q1010=  
04-Sep-2023 SAID35 WAGB 041600 METAR WAGB 041600Z 00000KT 2500 FU SCT010 27/25 Q1009=  
04-Sep-2023 SAID35 WAGB 041630 METAR WAGB 041630Z 00000KT 2500 FU SCT010 27/25 Q1009=  
04-Sep-2023 SAID35 WAGB 041700 METAR WAGB 041700Z 00000KT 2000 FU SCT010 27/25 Q1009=  
04-Sep-2023 SAID35 WAGB 041730 METAR WAGB 041730Z 00000KT 2000 FU SCT010 27/25 Q1009=  
04-Sep-2023 SAID35 WAGB 041800 METAR WAGB 041800Z 00000KT 2000 FU BKN010 26/25 Q1009=  
04-Sep-2023 SAID35 WAGB 041830 METAR WAGB 041830Z 21003KT 2000 FU BKN010 26/25 Q1009=  
04-Sep-2023 SAID35 WAGB 041900 METAR WAGB 041900Z 00000KT 2000 FU BKN010 26/25 Q1009=  
04-Sep-2023 SAID35 WAGB 041930 METAR WAGB 041930Z 00000KT 2000 FU BKN010 26/25 Q1009=  
04-Sep-2023 SAID35 WAGB 042000 METAR WAGB 042000Z 00000KT 1500 FU BKN010 26/24 Q1009=  
04-Sep-2023 SAID35 WAGB 042030 METAR WAGB 042030Z 00000KT 1500 -RA FU BKN010 26/24 Q1009=  
04-Sep-2023 SAID35 WAGB 042100 METAR WAGB 042100Z 25002KT 1300 BKN010 26/24 Q1010 RERA=  
04-Sep-2023 SAID35 WAGB 042130 METAR WAGB 042130Z 00000KT 1300 BKN010 26/24 Q1010=  
04-Sep-2023 SAID35 WAGB 042200 METAR WAGB 042200Z 00000KT 1500 FU BKN010 25/24 Q1010=  
04-Sep-2023 SAID35 WAGB 042230 METAR WAGB 042230Z 00000KT 1500 FU BKN010 25/24 Q1010=  
04-Sep-2023 SAID35 WAGB 042300 METAR WAGB 042300Z 00000KT 2000 FU SCT009 25/24 Q1011=  
04-Sep-2023 SAID35 WAGB 042330 METAR WAGB 042330Z 00000KT 3000 FU SCT009 25/24 Q1011=  
05-Sep-2023 SAID35 WAGB 050000 METAR WAGB 050000Z 00000KT 4000 FU BKN010 25/23 Q1011 NOSIG=  
05-Sep-2023 SAID35 WAGB 050030 METAR WAGB 050030Z 21003KT 4000 FU BKN010 26/23 Q1011 NOSIG=  
05-Sep-2023 SAID35 WAGB 050100 METAR WAGB 050100Z 00000KT 4000 FU BKN010 26/23 Q1011 NOSIG=  
05-Sep-2023 SAID35 WAGB 050130 METAR WAGB 050130Z 28004KT 4000 FU BKN010 26/23 Q1011 NOSIG=  
05-Sep-2023 SAID35 WAGB 050200 METAR WAGB 050200Z 00000KT 4000 FU BKN010 28/23 Q1011 NOSIG=  
05-Sep-2023 SAID35 WAGB 050230 METAR WAGB 050230Z 34004KT 4000 FU BKN010 28/24 Q1011 NOSIG=  
05-Sep-2023 SAID35 WAGB 050300 METAR WAGB 050300Z 02005KT 4000 FU BKN010 29/24 Q1011 NOSIG=  
05-Sep-2023 SAID35 WAGB 050330 METAR WAGB 050330Z 04002KT 4000 FU BKN010 30/24 Q1011 NOSIG=  
05-Sep-2023 SAID35 WAGB 050400 METAR WAGB 050400Z 36004KT 4000 FU BKN010 30/24 Q1010 NOSIG=  
05-Sep-2023 SAID35 WAGB 050430 METAR WAGB 050430Z 03006KT 4000 FU BKN010 30/24 Q1010 NOSIG=  
05-Sep-2023 SAID35 WAGB 050500 METAR WAGB 050500Z 36005KT 6000 FU BKN010 30/25 Q1010 NOSIG=  
05-Sep-2023 SAID35 WAGB 050530 METAR WAGB 050530Z 31004KT 6000 FU BKN012 31/25 Q1009 NOSIG=  
05-Sep-2023 SAID35 WAGB 050600 METAR WAGB 050600Z 33004KT 6000 FU BKN012 32/24 Q1009 NOSIG=  
05-Sep-2023 SAID35 WAGB 050630 METAR WAGB 050630Z 00000KT 6000 FU BKN012 33/25 Q1008 NOSIG=  
05-Sep-2023 SAID35 WAGB 050700 METAR WAGB 050700Z 14004KT 5000 FU SCT014 33/24 Q1008=  
05-Sep-2023 SAID35 WAGB 050730 METAR WAGB 050730Z 00000KT 6000 SCT014 33/24 Q1008=  
05-Sep-2023 SAID35 WAGB 050800 METAR WAGB 050800Z 00000KT 6000 FU FEW014 33/24 Q1007=  
05-Sep-2023 SAID35 WAGB 050900 METAR WAGB 050900Z 00000KT 6000 FEW014 33/24 Q1007=  
05-Sep-2023 SAID35 WAGB 050930 METAR WAGB 050930Z 00000KT 6000 FU FEW014 32/25 Q1008=  
05-Sep-2023 SAID35 WAGB 051000 METAR WAGB 051000Z 00000KT 6000 FEW014CB 32/25 Q1008=  
05-Sep-2023 SAID35 WAGB 051030 METAR WAGB 051030Z 00000KT 6000 FU FEW014 31/25 Q1008=  
05-Sep-2023 SAID35 WAGB 051100 METAR WAGB 051100Z 00000KT 6000 FEW014CB 30/26 Q1008=  
05-Sep-2023 SAID35 WAGB 051130 METAR WAGB 051130Z 00000KT 6000 FU FEW014 30/24 Q1009=  
05-Sep-2023 SAID35 WAGB 051200 METAR WAGB 051200Z 00000KT 4000 FU FEW013 29/26 Q1009=  
05-Sep-2023 SAID35 WAGB 051230 METAR WAGB 051230Z 00000KT 4000 FU FEW013 29/26 Q1009=  
05-Sep-2023 SAID35 WAGB 051300 METAR WAGB 051300Z 00000KT 4000 FU FEW013 28/26 Q1010=  
05-Sep-2023 SAID35 WAGB 051330 METAR WAGB 051330Z 00000KT 4000 FU FEW013 28/26 Q1010=  
05-Sep-2023 SAID35 WAGB 051400 METAR WAGB 051400Z 00000KT 4000 FU FEW013 28/26 Q1011=  
05-Sep-2023 SAID35 WAGB 051430 METAR WAGB 051430Z 00000KT 4000 FU FEW013 28/26 Q1011=  
05-Sep-2023 SAID35 WAGB 051500 METAR WAGB 051500Z 00000KT 4000 FU SCT012 28/26 Q1011=  
05-Sep-2023 SAID35 WAGB 051530 METAR WAGB 051530Z 00000KT 4000 FU SCT012 28/26 Q1011=  
05-Sep-2023 SAID35 WAGB 051600 METAR WAGB 051600Z 00000KT 4000 FU SCT012 27/25 Q1011=  
05-Sep-2023 SAID35 WAGB 051630 METAR WAGB 051630Z 00000KT 4000 FU SCT012 27/25 Q1011=  
05-Sep-2023 SAID35 WAGB 051700 METAR WAGB 051700Z 00000KT 4000 FU SCT012 27/25 Q1011=  
05-Sep-2023 SAID35 WAGB 051730 METAR WAGB 051730Z 00000KT 4000 FU SCT012 27/25 Q1011=  
05-Sep-2023 SAID35 WAGB 051800 METAR WAGB 051800Z 00000KT 4000 FU SCT011 26/25 Q1010=  
05-Sep-2023 SAID35 WAGB 051830 METAR WAGB 051830Z 00000KT 4000 FU SCT011 26/25 Q1010=  
05-Sep-2023 SAID35 WAGB 051900 METAR WAGB 051900Z 00000KT 3000 FU SCT011 26/25 Q1010=  
05-Sep-2023 SAID35 WAGB 051930 METAR WAGB 051930Z 00000KT 3000 FU SCT011 26/25 Q1010=  
05-Sep-2023 SAID35 WAGB 052000 METAR WAGB 052000Z 00000KT 3000 FU SCT011 26/25 Q1010=  
05-Sep-2023 SAID35 WAGB 052030 METAR WAGB 052030Z 00000KT 3000 FU SCT011 26/25 Q1010=  
05-Sep-2023 SAID35 WAGB 052100 METAR WAGB 052100Z 00000KT 3000 FU SCT011 26/25 Q1010=  
05-Sep-2023 SAID35 WAGB 052130 METAR WAGB 052130Z 00000KT 3000 FU SCT011 26/25 Q1010=  
05-Sep-2023 SAID35 WAGB 052200 METAR WAGB 052200Z 00000KT 2000 FU FEW011 25/24 Q1011=  
05-Sep-2023 SAID35 WAGB 052230 METAR WAGB 052230Z 00000KT 2000 FU FEW011 25/24 Q1011=  
05-Sep-2023 SAID35 WAGB 052300 METAR WAGB 052300Z 00000KT 3000 FU FEW011 25/24 Q1011=  
05-Sep-2023 SAID35 WAGB 052330 METAR WAGB 052330Z 00000KT 3000 FU FEW011 25/24 Q1011=  
06-Sep-2023 SAID35 WAGB 060000 METAR WAGB 060000Z 00000KT 5000 FU SCT010 26/24 Q1012=  
06-Sep-2023 SAID35 WAGB 060030 METAR WAGB 060030Z 00000KT 5000 FU SCT010 27/24 Q1012=  
06-Sep-2023 SAID35 WAGB 060100 METAR WAGB 060100Z 00000KT 6000 SCT010 28/24 Q1012 NOSIG=  
06-Sep-2023 SAID35 WAGB 060130 METAR WAGB 060130Z 00000KT 7000 SCT011 30/24 Q1012 NOSIG=  
06-Sep-2023 SAID35 WAGB 060200 METAR WAGB 060200Z 36004KT 7000 BKN011 30/24 Q1012 NOSIG=  
06-Sep-2023 SAID35 WAGB 060230 METAR WAGB 060230Z 06003KT 8000 SCT011 31/24 Q1012 NOSIG=  
06-Sep-2023 SAID35 WAGB 060300 METAR WAGB 060300Z 25005KT 8000 BKN012 30/24 Q1011 NOSIG=  
06-Sep-2023 SAID35 WAGB 060330 METAR WAGB 060330Z 00000KT 8000 SCT012 32/24 Q1011 NOSIG=  
06-Sep-2023 SAID35 WAGB 060400 METAR WAGB 060400Z 28007KT 8000 SCT012 31/23 Q1011 NOSIG=  
06-Sep-2023 SAID35 WAGB 060430 METAR WAGB 060430Z 03003KT 8000 SCT013 32/23 Q1010 NOSIG=  
06-Sep-2023 SAID35 WAGB 060500 METAR WAGB 060500Z 26009KT 8000 BKN013 32/23 Q1010 NOSIG=  
06-Sep-2023 SAID35 WAGB 060930 METAR WAGB 060930Z 00000KT 9999 FEW013TCU SCT014 34/24 Q1007 NOSIG=  
06-Sep-2023 SAID35 WAGB 061000 METAR WAGB 061000Z 00000KT 9999 FEW013TCU SCT014 33/24 Q1008 NOSIG=  
06-Sep-2023 SAID35 WAGB 061000 CCA METAR WAGB 061000Z 00000KT 9999 FEW013CB BKN014 33/24 Q1008 NOSIG=  
06-Sep-2023 SAID35 WAGB 061030 METAR WAGB 061030Z 00000KT 6000 -TSRA FEW013CB BKN014 32/24 Q1009 NOSIG=  
06-Sep-2023 SAID35 WAGB 061100 METAR WAGB 061100Z 07007KT 7000 TS FEW012CB BKN013 30/25 Q1010 NOSIG=  
06-Sep-2023 SAID35 WAGB 061100 CCA METAR WAGB 061100Z 07007KT 7000 -TSRA FEW012CB BKN013 30/25 Q1010 TEMPO TL1300 TSRA=  
06-Sep-2023 SAID35 WAGB 061200 METAR WAGB 061200Z 00000KT 5000 -RA FEW012CB BKN013 26/24 Q1010 RETS=  
06-Sep-2023 SAID35 WAGB 061200 CCA METAR WAGB 061200Z 00000KT 5000 -RA FEW012CB BKN013 26/24 Q1010 RETS=  
06-Sep-2023 SAID35 WAGB 061230 METAR WAGB 061230Z 00000KT 5000 FEW012CB BKN013 26/24 Q1010 RERA=  
06-Sep-2023 SAID35 WAGB 061300 METAR WAGB 061300Z 00000KT 5000 BKN012 25/24 Q1011=  
06-Sep-2023 SAID35 WAGB 061330 METAR WAGB 061330Z 00000KT 5000 BKN012 25/24 Q1011 NOSIG=  
06-Sep-2023 SAID35 WAGB 061400 METAR WAGB 061400Z 00000KT 6000 BKN012 25/24 Q1012 NOSIG=  
06-Sep-2023 SAID35 WAGB 061430 METAR WAGB 061430Z 00000KT 6000 BKN012 25/24 Q1012 NOSIG=  
06-Sep-2023 SAID35 WAGB 061500 METAR WAGB 061500Z 00000KT 6000 FEW012 25/24 Q1012 NOSIG=  
06-Sep-2023 SAID35 WAGB 061530 METAR WAGB 061530Z 00000KT 6000 FEW012 25/24 Q1012 NOSIG=  
06-Sep-2023 SAID35 WAGB 061600 METAR WAGB 061600Z 00000KT 5000 SCT012 25/24 Q1012 NOSIG=  
06-Sep-2023 SAID35 WAGB 061630 METAR WAGB 061630Z 00000KT 5000 SCT012 25/24 Q1011 NOSIG=  
06-Sep-2023 SAID35 WAGB 061700 METAR WAGB 061700Z 00000KT 5000 VCSH SCT011 25/24 Q1011 NOSIG=  
06-Sep-2023 SAID35 WAGB 061730 METAR WAGB 061730Z 00000KT 5000 VCSH SCT011 25/24 Q1011 NOSIG=  
06-Sep-2023 SAID35 WAGB 061800 METAR WAGB 061800Z 00000KT 5000 VCSH BKN011 25/24 Q1011 NOSIG=  
06-Sep-2023 SAID35 WAGB 061830 METAR WAGB 061830Z 00000KT 5000 VCSH BKN011 25/24 Q1011 NOSIG=  
06-Sep-2023 SAID35 WAGB 061900 METAR WAGB 061900Z 30003KT 4000 BR BKN010 25/24 Q1011 NOSIG=  
06-Sep-2023 SAID35 WAGB 061930 METAR WAGB 061930Z 30003KT 4000 BR BKN010 25/24 Q1011 NOSIG=  
06-Sep-2023 SAID35 WAGB 062000 METAR WAGB 062000Z 00000KT 4000 BR BKN010 24/24 Q1010 NOSIG=  
06-Sep-2023 SAID35 WAGB 062030 METAR WAGB 062030Z 00000KT 4000 BR BKN010 24/24 Q1011 NOSIG=  
06-Sep-2023 SAID35 WAGB 062100 METAR WAGB 062100Z 27002KT 4000 BR BKN010 24/24 Q1011 NOSIG=  
06-Sep-2023 SAID35 WAGB 062130 METAR WAGB 062130Z 00000KT 4000 BR BKN010 24/24 Q1011 NOSIG=  
06-Sep-2023 SAID35 WAGB 062200 METAR WAGB 062200Z 00000KT 4000 BR BKN010 25/24 Q1011 NOSIG=  
06-Sep-2023 SAID35 WAGB 062230 METAR WAGB 062230Z 00000KT 4000 BR BKN010 25/24 Q1012 NOSIG=  
06-Sep-2023 SAID35 WAGB 062300 METAR WAGB 062300Z 00000KT 4000 BR BKN010 25/24 Q1012 NOSIG=  
06-Sep-2023 SAID35 WAGB 062330 METAR WAGB 062330Z 00000KT 4000 BR BKN010 25/24 Q1012 NOSIG=  
07-Sep-2023 SAID35 WAGB 070000 METAR WAGB 070000Z 00000KT 4000 BR BKN011 25/24 Q1013=  
07-Sep-2023 SAID35 WAGB 070030 METAR WAGB 070030Z 00000KT 4000 FU BKN008 26/24 Q1013=  
07-Sep-2023 SAID35 WAGB 070100 METAR WAGB 070100Z 32004KT 4500 FU BKN008 26/24 Q1013=  
07-Sep-2023 SAID35 WAGB 070130 METAR WAGB 070130Z 30003KT 7000 BKN009 27/24 Q1013 NOSIG=  
07-Sep-2023 SAID35 WAGB 070200 METAR WAGB 070200Z 00000KT 8000 BKN009 28/23 Q1013 NOSIG=  
07-Sep-2023 SAID35 WAGB 070230 METAR WAGB 070230Z 00000KT 9000 BKN009 29/24 Q1013 NOSIG=  
07-Sep-2023 SAID35 WAGB 070300 METAR WAGB 070300Z 00000KT 9000 BKN009 29/24 Q1012 NOSIG=  
07-Sep-2023 SAID35 WAGB 070330 METAR WAGB 070330Z 34004KT 8000 VCSH BKN009 28/24 Q1012=  
07-Sep-2023 SAID35 WAGB 070400 METAR WAGB 070400Z 36003KT 7000 VCSH BKN009 29/24 Q1012=  
07-Sep-2023 SAID35 WAGB 070430 METAR WAGB 070430Z 23006KT 6000 BKN008 26/24 Q1011 RERA=  
07-Sep-2023 SAID35 WAGB 070500 METAR WAGB 070500Z 22004KT 2000 RA BKN008 26/24 Q1011=  
07-Sep-2023 SAID35 WAGB 070530 METAR WAGB 070530Z 26003KT 4000 RA FEW010TCU BKN011 26/25 Q1011=  
07-Sep-2023 SAID35 WAGB 070600 METAR WAGB 070600Z 25009KT 7000 FEW010TCU BKN011 26/24 Q1010 RERA=  
07-Sep-2023 SAID35 WAGB 070630 METAR WAGB 070630Z 24006KT 8000 VCSH FEW010TCU BKN011 27/24 Q1010=  
07-Sep-2023 SAID35 WAGB 070700 METAR WAGB 070700Z 23008KT 9999 SCT014 29/24 Q1010 NOSIG=  
07-Sep-2023 SAID35 WAGB 070730 METAR WAGB 070730Z 20007KT 9999 SCT014 29/24 Q1010 NOSIG=  
07-Sep-2023 SAID35 WAGB 070800 METAR WAGB 070800Z 24007KT 9000 FEW014TCU SCT015 28/23 Q1010 NOSIG=  
07-Sep-2023 SAID35 WAGB 070830 METAR WAGB 070830Z 26005KT 9000 FEW014TCU SCT015 28/23 Q1010 BECMG TL0930 FEW014CB=  
07-Sep-2023 SAID35 WAGB 070900 METAR WAGB 070900Z 25005KT 9000 FEW014TCU SCT015 32/24 Q1010 BECMG 0900/0930 FEW014CB=  
07-Sep-2023 SAID35 WAGB 070930 METAR WAGB 070930Z 28004KT 9000 FEW014CB SCT015 32/24 Q1010 NOSIG=  
07-Sep-2023 SAID35 WAGB 071000 METAR WAGB 071000Z 29006KT 9000 FEW014CB SCT015 26/22 Q1011 NOSIG=  
07-Sep-2023 SAID35 WAGB 071030 METAR WAGB 071030Z 28003KT 9000 FEW014CB FEW015 26/22 Q1011 NOSIG=  
07-Sep-2023 SAID35 WAGB 071100 METAR WAGB 071100Z 30003KT 9000 FEW014CB BKN015 25/22 Q1011 NOSIG=  
07-Sep-2023 SAID35 WAGB 071130 METAR WAGB 071130Z 00000KT 9000 FEW014CB BKN015 25/22 Q1012 NOSIG=  
07-Sep-2023 SAID35 WAGB 071200 METAR WAGB 071200Z 00000KT 7000 FEW013CB BKN014 25/22 Q1012=  
07-Sep-2023 SAID35 WAGB 071230 METAR WAGB 071230Z 00000KT 7000 FEW013CB BKN014 25/22 Q1012=  
07-Sep-2023 SAID35 WAGB 071300 METAR WAGB 071300Z 00000KT 7000 FEW013CB SCT014 24/23 Q1012=  
07-Sep-2023 SAID35 WAGB 071330 METAR WAGB 071330Z 00000KT 7000 FEW013CB SCT014 24/23 Q1012=  
07-Sep-2023 SAID35 WAGB 071400 METAR WAGB 071400Z 00000KT 7000 BKN012 24/23 Q1013=  
07-Sep-2023 SAID35 WAGB 071430 METAR WAGB 071430Z 00000KT 7000 BKN012 24/23 Q1013=  
07-Sep-2023 SAID35 WAGB 071500 METAR WAGB 071500Z 00000KT 7000 BKN012 24/23 Q1013=  
07-Sep-2023 SAID35 WAGB 071530 METAR WAGB 071530Z 00000KT 7000 BKN012 24/23 Q1013=  
07-Sep-2023 SAID35 WAGB 071600 METAR WAGB 071600Z 00000KT 7000 BKN012 24/22 Q1013=  
07-Sep-2023 SAID35 WAGB 071630 METAR WAGB 071630Z 00000KT 7000 BKN012 24/22 Q1013=  
07-Sep-2023 SAID35 WAGB 071700 METAR WAGB 071700Z 00000KT 6000 BKN011 24/23 Q1013=  
07-Sep-2023 SAID35 WAGB 071730 METAR WAGB 071730Z 00000KT 6000 BKN011 24/23 Q1013=  
07-Sep-2023 SAID35 WAGB 071800 METAR WAGB 071800Z 00000KT 6000 BKN011 24/23 Q1013=  
07-Sep-2023 SAID35 WAGB 071830 METAR WAGB 071830Z 00000KT 6000 BKN011 24/23 Q1013=  
07-Sep-2023 SAID35 WAGB 071900 METAR WAGB 071900Z 00000KT 5000 HZ BKN010 24/23 Q1012=  
07-Sep-2023 SAID35 WAGB 071930 METAR WAGB 071930Z 00000KT 5000 HZ BKN010 24/23 Q1012=  
07-Sep-2023 SAID35 WAGB 072000 METAR WAGB 072000Z 00000KT 5000 HZ BKN010 23/22 Q1012=  
07-Sep-2023 SAID35 WAGB 072030 METAR WAGB 072030Z 00000KT 5000 HZ BKN010 23/22 Q1012=  
07-Sep-2023 SAID35 WAGB 072100 METAR WAGB 072100Z 00000KT 5000 HZ BKN010 24/23 Q1012=  
07-Sep-2023 SAID35 WAGB 072130 METAR WAGB 072130Z 00000KT 5000 HZ BKN010 24/23 Q1012=  
07-Sep-2023 SAID35 WAGB 072200 METAR WAGB 072200Z 00000KT 5000 HZ BKN010 24/23 Q1013=  
07-Sep-2023 SAID35 WAGB 072230 METAR WAGB 072230Z 00000KT 5000 HZ BKN010 24/23 Q1013=  
07-Sep-2023 SAID35 WAGB 072300 METAR WAGB 072300Z 00000KT 5000 HZ BKN010 24/23 Q1013=  
07-Sep-2023 SAID35 WAGB 072330 METAR WAGB 072330Z 00000KT 5000 HZ BKN010 24/23 Q1013=  
08-Sep-2023 SAID35 WAGB 080000 METAR WAGB 080000Z 00000KT 5000 HZ BKN010 24/23 Q1013=  
08-Sep-2023 SAID35 WAGB 080030 METAR WAGB 080030Z 00000KT 6000 SCT010 25/23 Q1013 NOSIG=  
08-Sep-2023 SAID35 WAGB 080100 METAR WAGB 080100Z 04002KT 7000 SCT010 27/22 Q1013 NOSIG=  
08-Sep-2023 SAID35 WAGB 080130 METAR WAGB 080130Z 34004KT 7000 SCT010 27/23 Q1013 NOSIG=  
08-Sep-2023 SAID35 WAGB 080200 METAR WAGB 080200Z 34003KT 8000 SCT011 28/23 Q1013 NOSIG=  
08-Sep-2023 SAID35 WAGB 080230 METAR WAGB 080230Z 33004KT 8000 SCT011 29/23 Q1013 NOSIG=  
08-Sep-2023 SAID35 WAGB 080300 METAR WAGB 080300Z 21004KT 8000 BKN011 29/23 Q1012 NOSIG=  
08-Sep-2023 SAID35 WAGB 080330 METAR WAGB 080330Z 35002KT 8000 BKN011 30/23 Q1011 NOSIG=  
08-Sep-2023 SAID35 WAGB 080400 METAR WAGB 080400Z 31002KT 9000 BKN012 30/23 Q1011 NOSIG=  
08-Sep-2023 SAID35 WAGB 080430 METAR WAGB 080430Z 26005KT 9000 BKN012 30/23 Q1011 NOSIG=  
08-Sep-2023 SAID35 WAGB 080500 METAR WAGB 080500Z 34003KT 9000 BKN012 30/23 Q1010 NOSIG=  
08-Sep-2023 SAID35 WAGB 080530 METAR WAGB 080530Z 22003KT 9000 BKN012 30/23 Q1010 NOSIG=  
08-Sep-2023 SAID35 WAGB 080600 METAR WAGB 080600Z 25003KT 9999 BKN012 31/23 Q1009 NOSIG=  
08-Sep-2023 SAID35 WAGB 080630 METAR WAGB 080630Z 02004KT 9999 BKN013 32/24 Q1009 NOSIG=  
08-Sep-2023 SAID35 WAGB 080700 METAR WAGB 080700Z 00000KT 9999 BKN013 32/23 Q1008 NOSIG=  
08-Sep-2023 SAID35 WAGB 080730 METAR WAGB 080730Z 04003KT 9999 BKN013 31/23 Q1008 NOSIG=  
08-Sep-2023 SAID35 WAGB 080800 METAR WAGB 080800Z 04003KT 9999 BKN013 31/23 Q1008 NOSIG=  
08-Sep-2023 SAID35 WAGB 080830 METAR WAGB 080830Z 00000KT 9999 BKN013 31/23 Q1008 NOSIG=  
08-Sep-2023 SAID35 WAGB 080900 METAR WAGB 080900Z 00000KT 9000 FEW014CB BKN015 32/25 Q1009 NOSIG=  
08-Sep-2023 SAID35 WAGB 080930 METAR WAGB 080930Z 00000KT 9000 FEW014CB BKN015 32/25 Q1009 NOSIG=  
08-Sep-2023 SAID35 WAGB 081000 METAR WAGB 081000Z 00000KT 8000 FEW014TCU BKN015 30/24 Q1009 NOSIG=  
08-Sep-2023 SAID35 WAGB 081000 CCA METAR WAGB 081000Z 00000KT 8000 FEW014CB BKN015 30/24 Q1009 NOSIG=  
08-Sep-2023 SAID35 WAGB 081030 METAR WAGB 081030Z 00000KT 8000 FEW014CB BKN015 30/24 Q1009=  
08-Sep-2023 SAID35 WAGB 081030 CCA METAR WAGB 081030Z 00000KT 8000 FEW014CB BKN015 30/24 Q1009 NOSIG=  
08-Sep-2023 SAID35 WAGB 081100 METAR WAGB 081100Z 00000KT 7000 FEW014CB BKN015 28/24 Q1010 NOSIG=  
08-Sep-2023 SAID35 WAGB 081130 METAR WAGB 081130Z 00000KT 7000 FEW014CB BKN015 28/24 Q1010 NOSIG=  
08-Sep-2023 SAID35 WAGB 081200 METAR WAGB 081200Z 00000KT 7000 VCTS FEW014CB BKN015 27/24 Q1010=  
08-Sep-2023 SAID35 WAGB 081230 METAR WAGB 081230Z 00000KT 7000 VCTS FEW014CB BKN015 27/24 Q1010=  
08-Sep-2023 SAID35 WAGB 081300 METAR WAGB 081300Z 00000KT 6000 VCTS FEW014CB BKN015 28/24 Q1011=  
08-Sep-2023 SAID35 WAGB 081330 METAR WAGB 081330Z 00000KT 6000 VCTS FEW014CB BKN015 28/24 Q1011=  
08-Sep-2023 SAID35 WAGB 081400 METAR WAGB 081400Z 00000KT 6000 VCTS FEW014CB BKN015 27/24 Q1012=  
08-Sep-2023 SAID35 WAGB 081430 METAR WAGB 081430Z 00000KT 6000 VCTS FEW014CB BKN015 27/24 Q1012=  
08-Sep-2023 SAID35 WAGB 081500 METAR WAGB 081500Z 00000KT 5000 -RA FEW013CB BKN014 26/24 Q1012=  
08-Sep-2023 SAID35 WAGB 081530 METAR WAGB 081530Z 00000KT 5000 -RA FEW013CB BKN014 26/24 Q1012=  
08-Sep-2023 SAID35 WAGB 081600 METAR WAGB 081600Z 00000KT 5000 -RA FEW013CB BKN014 26/24 Q1012=  
08-Sep-2023 SAID35 WAGB 081630 METAR WAGB 081630Z 00000KT 5000 -RA FEW013CB BKN014 26/24 Q1012=  
08-Sep-2023 SAID35 WAGB 081700 METAR WAGB 081700Z 00000KT 5000 -RA FEW013CB BKN014 25/23 Q1011=  
08-Sep-2023 SAID35 WAGB 081730 METAR WAGB 081730Z 00000KT 5000 -RA FEW013CB BKN014 25/23 Q1011=  
08-Sep-2023 SAID35 WAGB 081800 METAR WAGB 081800Z 00000KT 6000 FEW012CB BKN013 25/23 Q1011 RERA=  
08-Sep-2023 SAID35 WAGB 081830 METAR WAGB 081830Z 00000KT 6000 VCTS FEW012CB BKN013 25/23 Q1011=  
08-Sep-2023 SAID35 WAGB 081900 METAR WAGB 081900Z 00000KT 5000 VCTS FEW012CB BKN013 24/23 Q1011=  
08-Sep-2023 SAID35 WAGB 081930 METAR WAGB 081930Z 00000KT 5000 VCTS FEW012CB BKN013 24/23 Q1011=  
08-Sep-2023 SAID35 WAGB 082000 METAR WAGB 082000Z 00000KT 4000 BR BKN011 24/23 Q1010=  
08-Sep-2023 SAID35 WAGB 082030 METAR WAGB 082030Z 00000KT 4000 BR BKN011 24/23 Q1010=  
08-Sep-2023 SAID35 WAGB 082100 METAR WAGB 082100Z 00000KT 4000 BR BKN011 24/23 Q1011=  
08-Sep-2023 SAID35 WAGB 082130 METAR WAGB 082130Z 00000KT 4000 BR BKN011 24/23 Q1011=  
08-Sep-2023 SAID35 WAGB 082200 METAR WAGB 082200Z 00000KT 4000 BR BKN010 25/24 Q1011=  
08-Sep-2023 SAID35 WAGB 082230 METAR WAGB 082230Z 00000KT 4000 BR BKN010 25/24 Q1011=  
08-Sep-2023 SAID35 WAGB 082300 METAR WAGB 082300Z 00000KT 4000 BR BKN010 25/24 Q1011=  
08-Sep-2023 SAID35 WAGB 082330 METAR WAGB 082330Z 00000KT 4000 BR BKN010 25/24 Q1011=  
09-Sep-2023 SAID35 WAGB 090000 METAR WAGB 090000Z 00000KT 5000 HZ BKN010 26/24 Q1012 NOSIG=  
09-Sep-2023 SAID35 WAGB 090030 METAR WAGB 090030Z 00000KT 5000 HZ BKN010 26/24 Q1012 NOSIG=  
09-Sep-2023 SAID35 WAGB 090100 METAR WAGB 090100Z 31002KT 6000 BKN010 27/25 Q1012 NOSIG=  
09-Sep-2023 SAID35 WAGB 090130 METAR WAGB 090130Z 02004KT 6000 BKN010 27/25 Q1012 NOSIG=  
09-Sep-2023 SAID35 WAGB 090200 METAR WAGB 090200Z 35004KT 6000 BKN010 28/24 Q1012 NOSIG=  
09-Sep-2023 SAID35 WAGB 090230 METAR WAGB 090230Z 06005KT 6000 BKN010 28/24 Q1012 NOSIG=  
09-Sep-2023 SAID35 WAGB 090300 METAR WAGB 090300Z 35007KT 8000 BKN010 30/24 Q1011 NOSIG=  
09-Sep-2023 SAID35 WAGB 090330 METAR WAGB 090330Z 34004KT 8000 BKN010 30/24 Q1011 NOSIG=  
09-Sep-2023 SAID35 WAGB 090400 METAR WAGB 090400Z 34005KT 8000 BKN012 31/24 Q1010 NOSIG=  
09-Sep-2023 SAID35 WAGB 090430 METAR WAGB 090430Z 05005KT 9000 BKN012 32/23 Q1010 NOSIG=  
09-Sep-2023 SAID35 WAGB 090500 METAR WAGB 090500Z 18004KT 9000 BKN013 32/23 Q1009 NOSIG=  
09-Sep-2023 SAID35 WAGB 090530 METAR WAGB 090530Z 10004KT 9000 BKN013 32/21 Q1009 NOSIG=  
09-Sep-2023 SAID35 WAGB 090600 METAR WAGB 090600Z 17003KT 9000 BKN013 32/21 Q1008 NOSIG=  
09-Sep-2023 SAID35 WAGB 090630 METAR WAGB 090630Z 18004KT 9999 SCT013 33/22 Q1008 NOSIG=  
09-Sep-2023 SAID35 WAGB 090700 METAR WAGB 090700Z 00000KT 9000 SCT013 33/23 Q1008 NOSIG=  
09-Sep-2023 SAID35 WAGB 090730 METAR WAGB 090730Z 00000KT 9000 SCT013 33/23 Q1008 NOSIG=  
09-Sep-2023 SAID35 WAGB 090800 METAR WAGB 090800Z 00000KT 9000 SCT013 34/23 Q1007 NOSIG=  
09-Sep-2023 SAID35 WAGB 090830 METAR WAGB 090830Z 00000KT 9000 SCT013 34/23 Q1007 NOSIG=  
09-Sep-2023 SAID35 WAGB 090900 METAR WAGB 090900Z 00000KT 9000 FEW013CB FEW014 34/23 Q1008 NOSIG=  
09-Sep-2023 SAID35 WAGB 090930 METAR WAGB 090930Z 00000KT 9000 FEW013CB FEW014 33/24 Q1008 NOSIG=  
09-Sep-2023 SAID35 WAGB 091000 METAR WAGB 091000Z 00000KT 9000 FEW013CB FEW014 32/24 Q1008 NOSIG=  
09-Sep-2023 SAID35 WAGB 091030 METAR WAGB 091030Z 00000KT 9000 FEW013CB FEW014 32/24 Q1008 NOSIG=  
09-Sep-2023 SAID35 WAGB 091100 METAR WAGB 091100Z 00000KT 9000 FEW013CB FEW014 25/24 Q1009 NOSIG=  
09-Sep-2023 SAID35 WAGB 091130 METAR WAGB 091130Z 00000KT 9000 FEW013CB FEW014 29/23 Q1009 NOSIG=  
09-Sep-2023 SAID35 WAGB 091200 METAR WAGB 091200Z 25005KT 8000 FEW013 28/23 Q1010 NOSIG=  
09-Sep-2023 SAID35 WAGB 091230 METAR WAGB 091230Z 00000KT 8000 FEW013 28/23 Q1010 NOSIG=  
09-Sep-2023 SAID35 WAGB 091300 METAR WAGB 091300Z 00000KT 8000 BKN013 28/24 Q1010 NOSIG=  
09-Sep-2023 SAID35 WAGB 091300 METAR WAGB 091330Z 00000KT 8000 BKN013 28/24 Q1011 NOSIG=  
09-Sep-2023 SAID35 WAGB 091330 METAR WAGB 091330Z 00000KT 8000 BKN013 28/24 Q1011 NOSIG=  
09-Sep-2023 SAID35 WAGB 091400 METAR WAGB 091400Z 00000KT 8000 BKN012 27/24 Q1011 NOSIG=  
09-Sep-2023 SAID35 WAGB 091430 METAR WAGB 091430Z 00000KT 8000 BKN012 27/24 Q1011 NOSIG=  
09-Sep-2023 SAID35 WAGB 091500 METAR WAGB 091500Z 01003KT 7000 VCSH BKN012 27/24 Q1011 NOSIG=  
09-Sep-2023 SAID35 WAGB 091530 METAR WAGB 091530Z 03002KT 7000 VCSH BKN012 27/24 Q1011 NOSIG=  
09-Sep-2023 SAID35 WAGB 091600 METAR WAGB 091600Z 00000KT 7000 VCSH BKN012 27/24 Q1011 NOSIG=  
09-Sep-2023 SAID35 WAGB 091630 METAR WAGB 091630Z 00000KT 7000 VCSH BKN012 27/24 Q1011 NOSIG=  
09-Sep-2023 SAID35 WAGB 091700 METAR WAGB 091700Z 00000KT 6000 BKN011 26/24 Q1010 NOSIG=  
09-Sep-2023 SAID35 WAGB 091730 METAR WAGB 091730Z 00000KT 6000 BKN011 26/24 Q1010 NOSIG=  
09-Sep-2023 SAID35 WAGB 091800 METAR WAGB 091800Z 21004KT 6000 BKN011 26/24 Q1010 NOSIG=  
09-Sep-2023 SAID35 WAGB 091830 METAR WAGB 091830Z 00000KT 6000 BKN011 26/24 Q1010 NOSIG=  
09-Sep-2023 SAID35 WAGB 091900 METAR WAGB 091900Z 00000KT 6000 BKN011 26/24 Q1010 NOSIG=  
09-Sep-2023 SAID35 WAGB 091930 METAR WAGB 091930Z 00000KT 6000 BKN011 26/24 Q1010 NOSIG=  
09-Sep-2023 SAID35 WAGB 091200 METAR WAGB 092000Z 00000KT 5000 HZ BKN010 25/24 Q1010 NOSIG=  
09-Sep-2023 SAID35 WAGB 092000 METAR WAGB 092000Z 00000KT 5000 HZ BKN010 25/24 Q1010 NOSIG=  
09-Sep-2023 SAID35 WAGB 091230 METAR WAGB 092030Z 00000KT 5000 HZ BKN010 25/24 Q1010 NOSIG=  
09-Sep-2023 SAID35 WAGB 092030 METAR WAGB 092030Z 00000KT 5000 HZ BKN010 25/24 Q1010 NOSIG=  
09-Sep-2023 SAID35 WAGB 092100 METAR WAGB 092100Z 32002KT 5000 HZ BKN010 25/24 Q1010 NOSIG=  
09-Sep-2023 SAID35 WAGB 092130 METAR WAGB 092130Z 00000KT 5000 HZ BKN010 25/24 Q1011 NOSIG=  
09-Sep-2023 SAID35 WAGB 092200 METAR WAGB 092200Z 00000KT 4000 HZ BKN010 25/24 Q1011 NOSIG=  
09-Sep-2023 SAID35 WAGB 092230 METAR WAGB 092230Z 00000KT 4000 HZ BKN010 25/24 Q1011 NOSIG=  
09-Sep-2023 SAID35 WAGB 092300 METAR WAGB 092300Z 00000KT 5000 HZ SCT010 26/24 Q1012 NOSIG=  
09-Sep-2023 SAID35 WAGB 092330 METAR WAGB 092330Z 00000KT 5000 HZ SCT010 26/24 Q1012 NOSIG=  
10-Sep-2023 SAID35 WAGB 100000 METAR WAGB 100000Z 00000KT 6000 FEW010 26/25 Q1012 NOSIG=  
10-Sep-2023 SAID35 WAGB 100030 METAR WAGB 100030Z 00000KT 6000 FEW010 27/25 Q1013 NOSIG=  
10-Sep-2023 SAID35 WAGB 100100 METAR WAGB 100100Z 00000KT 7000 SCT009 29/23 Q1012 NOSIG=  
10-Sep-2023 SAID35 WAGB 100130 METAR WAGB 100130Z 32004KT 7000 SCT009 29/23 Q1012 NOSIG=  
10-Sep-2023 SAID35 WAGB 100200 METAR WAGB 100200Z 00000KT 8000 SCT009 30/23 Q1012 NOSIG=  
10-Sep-2023 SAID35 WAGB 100230 METAR WAGB 100230Z 33004KT 9999 SCT009 30/24 Q1012 NOSIG=  
10-Sep-2023 SAID35 WAGB 100300 METAR WAGB 100300Z 02004KT 9999 BKN009 31/24 Q1012 NOSIG=  
10-Sep-2023 SAID35 WAGB 100330 METAR WAGB 100330Z 35008KT 9999 BKN009 31/24 Q1011 NOSIG=  
10-Sep-2023 SAID35 WAGB 100400 METAR WAGB 100400Z 00000KT 9999 BKN009 32/24 Q1010 NOSIG=  
10-Sep-2023 SAID35 WAGB 100430 METAR WAGB 100430Z 04003KT 9999 BKN010 34/24 Q1010 NOSIG=  
10-Sep-2023 SAID35 WAGB 100500 METAR WAGB 100500Z 34003KT 9999 BKN010 33/23 Q1009 NOSIG=  
10-Sep-2023 SAID35 WAGB 100530 METAR WAGB 100530Z 32003KT 9999 FEW011TCU SCT012 33/23 Q1009 NOSIG=  
10-Sep-2023 SAID35 WAGB 100600 METAR WAGB 100600Z 23003KT 9999 FEW011TCU SCT012 33/23 Q1008 NOSIG=  
10-Sep-2023 SAID35 WAGB 100630 METAR WAGB 100630Z 33003KT 9999 FEW011TCU SCT012 33/23 Q1008 NOSIG=  
10-Sep-2023 SAID35 WAGB 100700 METAR WAGB 100700Z 25003KT 9999 FEW013TCU BKN014 33/24 Q1008 NOSIG=  
10-Sep-2023 SAID35 WAGB 100730 METAR WAGB 100730Z 00000KT 8000 TS FEW013CB BKN014 33/24 Q1007 TEMPO FM0730 TS=  
10-Sep-2023 SPID33 WAGB 100740 SPECI WAGB 100740Z 11005KT 5000 RA FEW012CB BKN013 30/25 Q1007=  
10-Sep-2023 SAID35 WAGB 100800 METAR WAGB 100800Z 20002KT 7000 FEW012CB BKN013 29/26 Q1007 RETS NOSIG=  
10-Sep-2023 SAID35 WAGB 100830 METAR WAGB 100830Z 00000KT 7000 FEW012CB BKN013 29/26 Q1007 NOSIG=  
10-Sep-2023 SAID35 WAGB 100900 METAR WAGB 100900Z 26005KT 7000 FEW012CB BKN013 27/24 Q1007 NOSIG=  
10-Sep-2023 SAID35 WAGB 100930 METAR WAGB 100930Z 00000KT 7000 FEW012CB BKN013 27/24 Q1007 NOSIG=  
10-Sep-2023 SAID35 WAGB 101000 METAR WAGB 101000Z 00000KT 7000 FEW012CB BKN013 27/23 Q1008 NOSIG=  
10-Sep-2023 SAID35 WAGB 101030 METAR WAGB 101030Z 00000KT 7000 FEW012CB BKN013 27/23 Q1008 NOSIG=  
10-Sep-2023 SAID35 WAGB 101100 METAR WAGB 101100Z 00000KT 7000 FEW012CB BKN013 27/23 Q1008 NOSIG=  
10-Sep-2023 SAID35 WAGB 101130 METAR WAGB 101130Z 00000KT 7000 FEW012CB BKN013 27/23 Q1008 NOSIG=  
10-Sep-2023 SAID35 WAGB 101200 METAR WAGB 101200Z 00000KT 7000 SCT013 25/24 Q1009=  
10-Sep-2023 SAID35 WAGB 101230 METAR WAGB 101230Z 00000KT 7000 SCT013 25/24 Q1009=  
10-Sep-2023 SAID35 WAGB 101300 METAR WAGB 101300Z 00000KT 7000 SCT013 25/24 Q1010=  
10-Sep-2023 SAID35 WAGB 101330 METAR WAGB 101330Z 00000KT 7000 SCT013 25/24 Q1010=  
10-Sep-2023 SAID35 WAGB 101400 METAR WAGB 101400Z 00000KT 7000 SCT013 25/24 Q1010=  
10-Sep-2023 SAID35 WAGB 101430 METAR WAGB 101430Z 00000KT 7000 SCT013 25/24 Q1010=  
10-Sep-2023 SAID35 WAGB 101500 METAR WAGB 101500Z 00000KT 6000 SCT012 26/25 Q1011=  
10-Sep-2023 SAID35 WAGB 101530 METAR WAGB 101530Z 00000KT 6000 SCT012 26/25 Q1011=  
10-Sep-2023 SAID35 WAGB 101600 METAR WAGB 101600Z 00000KT 4000 -RA BKN012 26/24 Q1011=  
10-Sep-2023 SAID35 WAGB 101630 METAR WAGB 101630Z 00000KT 4000 -RA BKN012 26/24 Q1011=  
10-Sep-2023 SAID35 WAGB 101700 METAR WAGB 101700Z 00000KT 4000 -RA BKN011 26/24 Q1011=  
10-Sep-2023 SAID35 WAGB 101730 METAR WAGB 101730Z 00000KT 4000 -RA BKN011 26/24 Q1011=  
10-Sep-2023 SAID35 WAGB 101800 METAR WAGB 101800Z 00000KT 5000 BKN010 25/24 Q1010 RERA=  
10-Sep-2023 SAID35 WAGB 101830 METAR WAGB 101830Z 00000KT 5000 BKN010 25/24 Q1010=  
10-Sep-2023 SAID35 WAGB 101900 METAR WAGB 101900Z 00000KT 4000 BR BKN010 25/24 Q1010=  
10-Sep-2023 SAID35 WAGB 101930 METAR WAGB 101930Z 00000KT 4000 BR BKN010 25/24 Q1010=  
10-Sep-2023 SAID35 WAGB 102000 METAR WAGB 102000Z 00000KT 4000 BR BKN010 25/24 Q1010=  
10-Sep-2023 SAID35 WAGB 102030 METAR WAGB 102030Z 00000KT 4000 BR BKN010 25/24 Q1010=  
10-Sep-2023 SAID35 WAGB 102100 METAR WAGB 102100Z 00000KT 4000 BR BKN010 25/24 Q1010=  
10-Sep-2023 SAID35 WAGB 102130 METAR WAGB 102130Z 00000KT 4000 BR BKN010 25/24 Q1010=  
10-Sep-2023 SAID35 WAGB 102200 METAR WAGB 102200Z 00000KT 3000 BR BKN010 25/24 Q1011=  
10-Sep-2023 SAID35 WAGB 102230 METAR WAGB 102230Z 00000KT 3000 BR BKN010 25/24 Q1011=  
10-Sep-2023 SAID35 WAGB 102300 METAR WAGB 102300Z 00000KT 3000 BR BKN009 25/24 Q1012=  
10-Sep-2023 SAID35 WAGB 102330 METAR WAGB 102330Z 00000KT 3000 BR BKN009 25/24 Q1012=  
11-Sep-2023 SAID35 WAGB 110000 METAR WAGB 110000Z 35003KT 4000 HZ FEW009 26/25 Q1012 NOSIG=  
11-Sep-2023 SAID35 WAGB 110030 METAR WAGB 110030Z 35003KT 4000 HZ SCT009 27/24 Q1012 NOSIG=  
11-Sep-2023 SAID35 WAGB 110100 METAR WAGB 110100Z 29003KT 6000 BKN010 28/25 Q1012 NOSIG=  
11-Sep-2023 SAID35 WAGB 110130 METAR WAGB 110130Z 35004KT 7000 SCT010 28/24 Q1012 NOSIG=  
11-Sep-2023 SAID35 WAGB 110200 METAR WAGB 110200Z 33005KT 7000 BKN010 30/25 Q1012 NOSIG=  
11-Sep-2023 SAID35 WAGB 110230 METAR WAGB 110230Z 35005KT 8000 BKN011 30/25 Q1012 NOSIG=  
11-Sep-2023 SAID35 WAGB 110300 METAR WAGB 110300Z 35004KT 8000 SCT011 30/24 Q1011 NOSIG=  
11-Sep-2023 SAID35 WAGB 110330 METAR WAGB 110330Z 03003KT 8000 BKN011 32/24 Q1011 NOSIG=  
11-Sep-2023 SAID35 WAGB 110400 METAR WAGB 110400Z 08004KT 9000 BKN012 32/24 Q1011 NOSIG=  
11-Sep-2023 SAID35 WAGB 110430 METAR WAGB 110430Z 04005KT 9000 BKN012 33/23 Q1011 NOSIG=  
11-Sep-2023 SAID35 WAGB 110500 METAR WAGB 110500Z 03003KT 9999 BKN013 33/23 Q1010 NOSIG=  
11-Sep-2023 SAID35 WAGB 110530 METAR WAGB 110530Z 08003KT 9999 VCSH BKN013 31/24 Q1009 NOSIG=  
11-Sep-2023 SAID35 WAGB 110600 METAR WAGB 110600Z 07003KT 9999 FEW013TCU BKN014 33/24 Q1009 NOSIG=  
11-Sep-2023 SAID35 WAGB 110630 METAR WAGB 110630Z 07003KT 6000 -RA FEW013TCU BKN014 33/24 Q1009 NOSIG=  
11-Sep-2023 SPID33 WAGB 110635 SPECI WAGB 110635Z 00000KT 8000 FEW013TCU BKN014 33/24 Q1009 NOSIG=  
11-Sep-2023 SPID33 WAGB 110635 CCA SPECI WAGB 110635Z 00000KT 8000 FEW013TCU BKN014 33/24 Q1009 RERA NOSIG=  
11-Sep-2023 SAID35 WAGB 110700 METAR WAGB 110700Z 12003KT 9000 FEW013CB BKN014 29/24 Q1008 NOSIG=  
11-Sep-2023 SAID35 WAGB 110730 METAR WAGB 110730Z 12003KT 9000 FEW013CB BKN014 29/24 Q1008 NOSIG=  
11-Sep-2023 SPID33 WAGB 110735 SPECI WAGB 110735Z 00000KT 8000 FEW013TCU BKN014 33/24 Q1009 NOSIG=  
11-Sep-2023 SAID35 WAGB 110800 METAR WAGB 110800Z 00000KT 9000 FEW013CB BKN014 30/24 Q1007 NOSIG=  
11-Sep-2023 SAID35 WAGB 110830 METAR WAGB 110830Z 00000KT 9000 FEW013CB BKN014 30/24 Q1007 NOSIG=  
11-Sep-2023 SAID35 WAGB 110900 METAR WAGB 110900Z 00000KT 9999 FEW013CB BKN014 31/24 Q1008 NOSIG=  
11-Sep-2023 SPID33 WAGB 110905 SPECI WAGB 110905Z 00000KT 6000 -RA FEW013CB BKN014 30/24 Q1008 TEMPO TL1030 RA=  
11-Sep-2023 SAID35 WAGB 110930 METAR WAGB 110930Z 00000KT 8000 TS FEW013CB BKN014 31/24 Q1008 RERA NOSIG=  
11-Sep-2023 SAID35 WAGB 111000 METAR WAGB 111000Z 18003G22KT 7000 FEW011CB BKN012 28/24 Q1010 NOSIG=  
11-Sep-2023 SAID35 WAGB 111030 METAR WAGB 111030Z 22003G14KT 7000 FEW011CB BKN012 28/24 Q1010 NOSIG=  
11-Sep-2023 SAID35 WAGB 111100 METAR WAGB 111100Z 29003KT 7000 FEW011CB BKN012 25/22 Q1010 NOSIG=  
11-Sep-2023 SAID35 WAGB 111130 METAR WAGB 111130Z 00000KT 7000 FEW011CB BKN012 25/22 Q1010=  
11-Sep-2023 SAID35 WAGB 111200 METAR WAGB 111200Z 00000KT 6000 VCTS FEW011CB SCT012 25/23 Q1010=  
11-Sep-2023 SAID35 WAGB 111230 METAR WAGB 111230Z 00000KT 6000 VCTS FEW011CB SCT012 25/23 Q1011=  
11-Sep-2023 SAID35 WAGB 111300 METAR WAGB 111300Z 00000KT 6000 VCTS FEW011CB SCT012 25/23 Q1011=  
11-Sep-2023 SAID35 WAGB 111330 METAR WAGB 111330Z 00000KT 6000 VCTS FEW011CB SCT012 25/23 Q1011=  
11-Sep-2023 SAID35 WAGB 111400 METAR WAGB 111400Z 00000KT 6000 VCTS FEW011CB SCT012 25/23 Q1012=  
11-Sep-2023 SAID35 WAGB 111430 METAR WAGB 111430Z 00000KT 6000 VCTS FEW011CB SCT012 25/23 Q1012=  
11-Sep-2023 SAID35 WAGB 111500 METAR WAGB 111500Z 00000KT 6000 VCTS FEW011CB SCT012 25/24 Q1012=  
11-Sep-2023 SAID35 WAGB 111530 METAR WAGB 111530Z 00000KT 6000 VCTS FEW011CB SCT012 25/24 Q1012=  
11-Sep-2023 SAID35 WAGB 111600 METAR WAGB 111600Z 00000KT 6000 VCTS FEW011CB BKN012 25/23 Q1012=  
11-Sep-2023 SAID35 WAGB 111630 METAR WAGB 111630Z 00000KT 6000 VCTS FEW011CB BKN012 25/23 Q1012=  
11-Sep-2023 SAID35 WAGB 111700 METAR WAGB 111700Z 00000KT 6000 VCTS FEW011CB BKN012 24/23 Q1012=  
11-Sep-2023 SAID35 WAGB 111730 METAR WAGB 111730Z 00000KT 6000 VCTS FEW011CB BKN012 24/23 Q1011=  
11-Sep-2023 SAID35 WAGB 111800 METAR WAGB 111800Z 00000KT 6000 VCTS FEW011CB BKN012 24/23 Q1011=  
11-Sep-2023 SAID35 WAGB 111830 METAR WAGB 111830Z 00000KT 6000 VCTS FEW011CB BKN012 24/23 Q1011=  
11-Sep-2023 SAID35 WAGB 111900 METAR WAGB 111900Z 00000KT 6000 BKN011 24/23 Q1011 NOSIG=  
11-Sep-2023 SAID35 WAGB 111930 METAR WAGB 111930Z 00000KT 6000 BKN011 24/23 Q1011 NOSIG=  
11-Sep-2023 SAID35 WAGB 112000 METAR WAGB 112000Z 00000KT 6000 BKN011 24/23 Q1011 NOSIG=  
11-Sep-2023 SAID35 WAGB 112030 METAR WAGB 112030Z 00000KT 6000 BKN011 24/23 Q1011 NOSIG=  
11-Sep-2023 SAID35 WAGB 112100 METAR WAGB 112100Z 00000KT 4000 BR BKN011 24/23 Q1011=  
11-Sep-2023 SAID35 WAGB 112130 METAR WAGB 112130Z 00000KT 4000 BR BKN011 24/23 Q1011=  
11-Sep-2023 SAID35 WAGB 112200 METAR WAGB 112200Z 00000KT 4000 BR BKN010 24/24 Q1012=  
11-Sep-2023 SAID35 WAGB 112230 METAR WAGB 112230Z 00000KT 4000 BR BKN010 24/24 Q1012=  
11-Sep-2023 SAID35 WAGB 112300 METAR WAGB 112300Z 00000KT 4000 BR BKN010 24/24 Q1012=  
11-Sep-2023 SAID35 WAGB 112330 METAR WAGB 112330Z 00000KT 4000 BR BKN010 24/24 Q1012=  
12-Sep-2023 SAID35 WAGB 120000 METAR WAGB 120000Z 00000KT 1000 FU BKN009 24/24 Q1013 NOSIG=  
12-Sep-2023 SAID35 WAGB 120030 METAR WAGB 120030Z 15002KT 2000 DZ BKN009 24/24 Q1013 NOSIG=  
12-Sep-2023 SAID35 WAGB 120100 METAR WAGB 120100Z 17002KT 3500 BKN009 25/24 Q1013 NOSIG=  
12-Sep-2023 SAID35 WAGB 120130 METAR WAGB 120130Z 27005KT 5000 FU BKN009 26/24 Q1013 NOSIG=  
12-Sep-2023 SAID35 WAGB 120200 METAR WAGB 120200Z 24004KT 5000 FU BKN009 27/24 Q1013 NOSIG=  
12-Sep-2023 SAID35 WAGB 120230 METAR WAGB 120230Z 19003KT 5000 FU BKN009 27/24 Q1013 NOSIG=  
12-Sep-2023 SAID35 WAGB 120300 METAR WAGB 120300Z 22004KT 5000 FU BKN010 27/24 Q1013 NOSIG=  
12-Sep-2023 SAID35 WAGB 120330 METAR WAGB 120330Z 18005KT 6000 FU BKN010 27/24 Q1013 NOSIG=  
12-Sep-2023 SAID35 WAGB 120400 METAR WAGB 120400Z 19005KT 6000 FU BKN010 28/24 Q1012 NOSIG=  
12-Sep-2023 SAID35 WAGB 120430 METAR WAGB 120430Z 18005KT 7000 BKN010 28/24 Q1012 NOSIG=  
12-Sep-2023 SAID35 WAGB 120530 METAR WAGB 120530Z 18009KT 8000 BKN012 29/24 Q1010 NOSIG=  
12-Sep-2023 SAID35 WAGB 120600 METAR WAGB 120600Z 19007KT 8000 BKN012 30/23 Q1010 NOSIG=  
12-Sep-2023 SAID35 WAGB 120630 METAR WAGB 120630Z 18006KT 9999 BKN012 30/23 Q1010 NOSIG=  
12-Sep-2023 SAID35 WAGB 120700 METAR WAGB 120700Z 22003KT 9999 FEW013TCU SCT014 32/23 Q1009 NOSIG=  
12-Sep-2023 SAID35 WAGB 120730 METAR WAGB 120730Z 00000KT 9999 FEW013TCU SCT014 33/24 Q1009 NOSIG=  
12-Sep-2023 SAID35 WAGB 120800 METAR WAGB 120800Z 18004KT 9999 FEW013CB SCT014 32/22 Q1009 NOSIG=  
12-Sep-2023 SAID35 WAGB 120830 METAR WAGB 120830Z 00000KT 9000 FEW013CB SCT014 30/23 Q1009 NOSIG=  
12-Sep-2023 SAID35 WAGB 120900 METAR WAGB 120900Z 27004KT 7000 FEW012CB SCT013 29/24 Q1010 NOSIG=  
12-Sep-2023 SAID35 WAGB 120930 METAR WAGB 120930Z 00000KT 5000 -RA FEW012CB SCT013 28/23 Q1010=  
12-Sep-2023 SAID35 WAGB 121000 METAR WAGB 121000Z 28003KT 5000 -RA FEW012CB BKN013 27/24 Q1011=  
12-Sep-2023 SAID35 WAGB 121030 METAR WAGB 121030Z 19002KT 5000 -RA SCT010 25/23 Q1011=  
12-Sep-2023 SAID35 WAGB 121100 METAR WAGB 121100Z 28003KT 4000 -RA BKN010 26/24 Q1012=  
12-Sep-2023 SAID35 WAGB 121130 METAR WAGB 121130Z 00000KT 4000 -RA SCT010 25/23 Q1012=  
12-Sep-2023 SAID35 WAGB 121200 METAR WAGB 121200Z 00000KT 4000 -RA BKN010 25/24 Q1013=  
12-Sep-2023 SAID35 WAGB 121230 METAR WAGB 121230Z 00000KT 4000 -RA BKN010 25/24 Q1013=  
12-Sep-2023 SAID35 WAGB 121300 METAR WAGB 121300Z 00000KT 6000 BKN010 25/24 Q1014 RERA=  
12-Sep-2023 SAID35 WAGB 121330 METAR WAGB 121330Z 00000KT 6000 BKN010 25/24 Q1014=  
12-Sep-2023 SAID35 WAGB 121400 METAR WAGB 121400Z 00000KT 7000 BKN010 25/24 Q1014=  
12-Sep-2023 SAID35 WAGB 121430 METAR WAGB 121430Z 00000KT 7000 BKN010 25/24 Q1014=  
12-Sep-2023 SAID35 WAGB 121500 METAR WAGB 121500Z 00000KT 7000 BKN012 24/24 Q1013=  
12-Sep-2023 SAID35 WAGB 121530 METAR WAGB 121530Z 00000KT 7000 BKN010 24/24 Q1013=  
12-Sep-2023 SAID35 WAGB 121600 METAR WAGB 121600Z 00000KT 6000 BKN010 24/24 Q1013=  
12-Sep-2023 SAID35 WAGB 121630 METAR WAGB 121630Z 00000KT 6000 BKN010 24/24 Q1013=  
12-Sep-2023 SAID35 WAGB 121700 METAR WAGB 121700Z 00000KT 6000 BKN010 24/23 Q1013=  
12-Sep-2023 SAID35 WAGB 121730 METAR WAGB 121730Z 00000KT 6000 BKN010 24/23 Q1013=  
12-Sep-2023 SAID35 WAGB 121800 METAR WAGB 121800Z 00000KT 6000 BKN010 24/23 Q1012=  
12-Sep-2023 SAID35 WAGB 121830 METAR WAGB 121830Z 00000KT 6000 BKN010 24/23 Q1012=  
12-Sep-2023 SAID35 WAGB 121900 METAR WAGB 121900Z 00000KT 5000 HZ BKN010 24/23 Q1012=  
12-Sep-2023 SAID35 WAGB 121930 METAR WAGB 121930Z 00000KT 5000 HZ BKN010 24/23 Q1012=  
12-Sep-2023 SAID35 WAGB 122000 METAR WAGB 122000Z 00000KT 5000 HZ BKN010 23/23 Q1012=  
12-Sep-2023 SAID35 WAGB 122030 METAR WAGB 122030Z 00000KT 5000 HZ BKN010 23/23 Q1012=  
12-Sep-2023 SAID35 WAGB 122100 METAR WAGB 122100Z 00000KT 5000 HZ BKN010 23/23 Q1012=  
12-Sep-2023 SAID35 WAGB 122130 METAR WAGB 122130Z 00000KT 5000 HZ BKN010 23/23 Q1012=  
12-Sep-2023 SAID35 WAGB 122200 METAR WAGB 122200Z 00000KT 5000 HZ BKN010 24/23 Q1012=  
12-Sep-2023 SAID35 WAGB 122230 METAR WAGB 122230Z 00000KT 5000 HZ BKN010 24/23 Q1012=  
12-Sep-2023 SAID35 WAGB 122300 METAR WAGB 122300Z 00000KT 5000 HZ BKN010 24/23 Q1013=  
12-Sep-2023 SAID35 WAGB 122330 METAR WAGB 122330Z 00000KT 5000 HZ BKN010 24/23 Q1012=  
13-Sep-2023 SAID35 WAGB 130000 METAR WAGB 130000Z 00000KT 4000 HZ BKN009 25/23 Q1013 NOSIG=  
13-Sep-2023 SAID35 WAGB 130030 METAR WAGB 130030Z 00000KT 4500 HZ BKN009 25/23 Q1013 NOSIG=  
13-Sep-2023 SAID35 WAGB 130100 METAR WAGB 130100Z 00000KT 5000 HZ BKN009 25/23 Q1014 NOSIG=  
13-Sep-2023 SAID35 WAGB 130130 METAR WAGB 130130Z 00000KT 6000 BKN009 26/23 Q1014 NOSIG=  
13-Sep-2023 SAID35 WAGB 130200 METAR WAGB 130200Z 02004KT 8000 SCT010 28/24 Q1013 NOSIG=  
13-Sep-2023 SAID35 WAGB 130230 METAR WAGB 130230Z 00000KT 9999 SCT010 29/24 Q1013 NOSIG=  
13-Sep-2023 SAID35 WAGB 130300 METAR WAGB 130300Z 04004KT 9999 SCT010 30/23 Q1013 NOSIG=  
13-Sep-2023 SAID35 WAGB 130330 METAR WAGB 130330Z 00000KT 9999 SCT010 30/23 Q1012 NOSIG=  
13-Sep-2023 SAID35 WAGB 130400 METAR WAGB 130400Z 26004KT 9999 SCT010 30/23 Q1012 NOSIG=  
13-Sep-2023 SAID35 WAGB 130430 METAR WAGB 130430Z 33003KT 9999 SCT010 31/23 Q1011 NOSIG=  
13-Sep-2023 SAID35 WAGB 130500 METAR WAGB 130500Z 00000KT 9999 BKN011 32/24 Q1010 NOSIG=  
13-Sep-2023 SAID35 WAGB 130530 METAR WAGB 130530Z 23003KT 9999 BKN011 32/23 Q1010 NOSIG=  
13-Sep-2023 SAID35 WAGB 130600 METAR WAGB 130600Z 00000KT 9999 BKN011 31/23 Q1009 NOSIG=  
13-Sep-2023 SAID35 WAGB 130630 METAR WAGB 130630Z 00000KT 9999 BKN011 31/23 Q1009 NOSIG=  
13-Sep-2023 SAID35 WAGB 130700 METAR WAGB 130700Z 00000KT 9999 BKN012 32/24 Q1009=  
13-Sep-2023 SAID35 WAGB 130730 METAR WAGB 130730Z 00000KT 9999 BKN012 32/24 Q1008=  
13-Sep-2023 SAID35 WAGB 130800 METAR WAGB 130800Z 00000KT 9999 SCT013 33/22 Q1008 NOSIG=  
13-Sep-2023 SAID35 WAGB 130830 METAR WAGB 130830Z 00000KT 9999 SCT013 33/22 Q1008 NOSIG=  
13-Sep-2023 SAID35 WAGB 130900 METAR WAGB 130900Z 00000KT 9999 SCT013 33/23 Q1008 NOSIG=  
13-Sep-2023 SAID35 WAGB 130930 METAR WAGB 130930Z 00000KT 9999 SCT013 33/23 Q1008 NOSIG=  
13-Sep-2023 SAID35 WAGB 131000 METAR WAGB 131000Z 00000KT 9999 FEW014 32/22 Q1008=  
13-Sep-2023 SAID35 WAGB 131030 METAR WAGB 131030Z 00000KT 9999 FEW014 32/22 Q1008 NOSIG=  
13-Sep-2023 SAID35 WAGB 131100 METAR WAGB 131100Z 15003KT 9999 FEW014 29/24 Q1009 NOSIG=  
13-Sep-2023 SAID35 WAGB 131130 METAR WAGB 131130Z 10003KT 9999 FEW014 29/24 Q1009 NOSIG=  
13-Sep-2023 SAID35 WAGB 131200 METAR WAGB 131200Z 00000KT 9000 FEW013 28/24 Q1010=  
13-Sep-2023 SAID35 WAGB 131230 METAR WAGB 131230Z 00000KT 9000 FEW013 28/24 Q1010=  
13-Sep-2023 SAID35 WAGB 131300 METAR WAGB 131300Z 00000KT 8000 FEW013 28/24 Q1010=  
13-Sep-2023 SAID35 WAGB 131330 METAR WAGB 131330Z 00000KT 8000 FEW013 28/24 Q1010=  
13-Sep-2023 SAID35 WAGB 131400 METAR WAGB 131400Z 00000KT 8000 SCT013 27/24 Q1010=  
13-Sep-2023 SAID35 WAGB 131430 METAR WAGB 131430Z 00000KT 8000 SCT013 27/24 Q1011=  
13-Sep-2023 SAID35 WAGB 131500 METAR WAGB 131500Z 00000KT 7000 SCT012 26/24 Q1011=  
13-Sep-2023 SAID35 WAGB 131530 METAR WAGB 131530Z 00000KT 7000 SCT012 26/24 Q1011=  
13-Sep-2023 SAID35 WAGB 131600 METAR WAGB 131600Z 00000KT 7000 SCT012 25/24 Q1011=  
13-Sep-2023 SAID35 WAGB 131630 METAR WAGB 131630Z 00000KT 7000 SCT012 25/24 Q1011=  
13-Sep-2023 SAID35 WAGB 131700 METAR WAGB 131700Z 00000KT 7000 SCT012 25/24 Q1011=  
13-Sep-2023 SAID35 WAGB 131730 METAR WAGB 131730Z 00000KT 7000 SCT012 25/24 Q1011=  
13-Sep-2023 SAID35 WAGB 131800 METAR WAGB 131800Z 00000KT 5000 HZ SCT011 25/24 Q1010=  
13-Sep-2023 SAID35 WAGB 131830 METAR WAGB 131830Z 00000KT 5000 HZ SCT011 25/24 Q1010=  
13-Sep-2023 SAID35 WAGB 131900 METAR WAGB 131900Z 00000KT 5000 HZ BKN011 25/24 Q1010=  
13-Sep-2023 SAID35 WAGB 131930 METAR WAGB 131930Z 00000KT 5000 HZ BKN011 25/24 Q1010=  
13-Sep-2023 SAID35 WAGB 132000 METAR WAGB 132000Z 00000KT 5000 HZ BKN011 24/23 Q1010=  
13-Sep-2023 SAID35 WAGB 132030 METAR WAGB 132030Z 00000KT 5000 HZ BKN011 24/23 Q1010=  
13-Sep-2023 SAID35 WAGB 132100 METAR WAGB 132100Z 00000KT 5000 HZ BKN010 24/23 Q1011=  
13-Sep-2023 SAID35 WAGB 132130 METAR WAGB 132130Z 00000KT 5000 HZ BKN010 24/23 Q1011=  
13-Sep-2023 SAID35 WAGB 132200 METAR WAGB 132200Z 00000KT 5000 HZ BKN010 24/23 Q1012=  
13-Sep-2023 SAID35 WAGB 132230 METAR WAGB 132230Z 00000KT 5000 HZ BKN010 24/23 Q1012=  
13-Sep-2023 SAID35 WAGB 132300 METAR WAGB 132300Z 00000KT 5000 HZ BKN010 24/23 Q1013=  
13-Sep-2023 SAID35 WAGB 132330 METAR WAGB 132330Z 00000KT 5000 HZ BKN010 24/23 Q1013=  
14-Sep-2023 SAID35 WAGB 140000 METAR WAGB 140000Z 00000KT 5000 HZ BKN010 25/23 Q1013=  
14-Sep-2023 SAID35 WAGB 140030 METAR WAGB 140030Z 01004KT 7000 DZ BKN009 25/23 Q1014 NOSIG=  
14-Sep-2023 SAID35 WAGB 140100 METAR WAGB 140100Z 36003KT 7000 BKN009 26/24 Q1014 NOSIG=  
14-Sep-2023 SAID35 WAGB 140130 METAR WAGB 140130Z 05004KT 8000 BKN009 28/23 Q1014 NOSIG=  
14-Sep-2023 SAID35 WAGB 140200 METAR WAGB 140200Z 02003KT 8000 BKN009 28/23 Q1014 NOSIG=  
14-Sep-2023 SAID35 WAGB 140230 METAR WAGB 140230Z 35002KT 8000 BKN009 28/23 Q1014 NOSIG=  
14-Sep-2023 SAID35 WAGB 140300 METAR WAGB 140300Z 33002KT 8000 SCT010 29/22 Q1013 NOSIG=  
14-Sep-2023 SAID35 WAGB 140330 METAR WAGB 140330Z 15002KT 9000 SCT010 30/22 Q1013 NOSIG=  
14-Sep-2023 SAID35 WAGB 140400 METAR WAGB 140400Z 14003KT 9999 SCT011 31/22 Q1012 NOSIG=  
14-Sep-2023 SAID35 WAGB 140430 METAR WAGB 140430Z 18005KT 9999 SCT011 30/22 Q1011 NOSIG=  
14-Sep-2023 SAID35 WAGB 140500 METAR WAGB 140500Z 13004KT 9999 SCT012 31/21 Q1011 NOSIG=  
14-Sep-2023 SAID35 WAGB 140530 METAR WAGB 140530Z 20004KT 9999 SCT012 31/21 Q1010 NOSIG=  
14-Sep-2023 SAID35 WAGB 140600 METAR WAGB 140600Z 19004KT 9999 SCT012 32/22 Q1010 NOSIG=  
14-Sep-2023 SAID35 WAGB 140630 METAR WAGB 140630Z 19003KT 9999 SCT013 32/22 Q1010 NOSIG=  
14-Sep-2023 SAID35 WAGB 140700 METAR WAGB 140700Z 18004KT 9999 SCT013 32/23 Q1009 NOSIG=  
14-Sep-2023 SAID35 WAGB 140730 METAR WAGB 140730Z 17004KT 9999 SCT014 32/23 Q1009 NOSIG=  
14-Sep-2023 SAID35 WAGB 140800 METAR WAGB 140800Z 18004KT 9999 SCT014 32/22 Q1009 NOSIG=  
14-Sep-2023 SAID35 WAGB 140830 METAR WAGB 140830Z 21002KT 9999 SCT014 32/22 Q1008 NOSIG=  
14-Sep-2023 SAID35 WAGB 140900 METAR WAGB 140900Z 00000KT 9999 FEW013CB FEW014 32/23 Q1009 NOSIG=  
14-Sep-2023 SAID35 WAGB 140930 METAR WAGB 140930Z 00000KT 9999 FEW013CB FEW014 32/23 Q1009 NOSIG=  
14-Sep-2023 SAID35 WAGB 141000 METAR WAGB 141000Z 00000KT 9999 FEW013CB FEW014 32/23 Q1009 NOSIG=  
14-Sep-2023 SAID35 WAGB 141030 METAR WAGB 141030Z 00000KT 9999 FEW013CB FEW014 29/23 Q1009 NOSIG=  
14-Sep-2023 SAID35 WAGB 141100 METAR WAGB 141100Z 00000KT 9999 FEW013CB FEW014 28/25 Q1010 NOSIG=  
14-Sep-2023 SAID35 WAGB 141130 METAR WAGB 141130Z 00000KT 9000 FEW013CB FEW014 28/25 Q1010 NOSIG=  
14-Sep-2023 SAID35 WAGB 141200 METAR WAGB 141200Z 00000KT 9999 FEW012CB 28/25 Q1010=  
14-Sep-2023 SAID35 WAGB 141230 METAR WAGB 141230Z 00000KT 9999 FEW012CB 27/25 Q1010=  
14-Sep-2023 SAID35 WAGB 141300 METAR WAGB 141300Z 00000KT 9000 FEW013 27/25 Q1011=  
14-Sep-2023 SAID35 WAGB 141330 METAR WAGB 141330Z 00000KT 9000 FEW013 27/25 Q1011=  
14-Sep-2023 SAID35 WAGB 141400 METAR WAGB 141400Z 00000KT 9000 FEW013 27/25 Q1012=  
14-Sep-2023 SAID35 WAGB 141430 METAR WAGB 141430Z 00000KT 8000 FEW013 26/25 Q1012=  
14-Sep-2023 SAID35 WAGB 141500 METAR WAGB 141500Z 00000KT 6000 FEW012 26/24 Q1012=  
14-Sep-2023 SAID35 WAGB 141530 METAR WAGB 141530Z 00000KT 6000 FEW012 26/24 Q1012=  
14-Sep-2023 SAID35 WAGB 141600 METAR WAGB 141600Z 00000KT 6000 FEW012 26/24 Q1012=  
14-Sep-2023 SAID35 WAGB 141630 METAR WAGB 141630Z 00000KT 6000 FEW012 26/24 Q1012=  
14-Sep-2023 SAID35 WAGB 141700 METAR WAGB 141700Z 00000KT 6000 FEW011 25/24 Q1011=  
14-Sep-2023 SAID35 WAGB 141730 METAR WAGB 141730Z 00000KT 6000 FEW011 25/24 Q1011=  
14-Sep-2023 SAID35 WAGB 141800 METAR WAGB 141800Z 00000KT 6000 FEW011 25/24 Q1011=  
14-Sep-2023 SAID35 WAGB 141830 METAR WAGB 141830Z 00000KT 6000 FEW011 25/24 Q1011=  
14-Sep-2023 SAID35 WAGB 141900 METAR WAGB 141900Z 00000KT 6000 FEW010 25/24 Q1011=  
14-Sep-2023 SAID35 WAGB 141930 METAR WAGB 141930Z 00000KT 6000 FEW010 25/24 Q1010=  
14-Sep-2023 SAID35 WAGB 142000 METAR WAGB 142000Z 00000KT 6000 FEW010 25/24 Q1011=  
14-Sep-2023 SAID35 WAGB 142030 METAR WAGB 142030Z 00000KT 6000 FEW010 25/24 Q1011=  
14-Sep-2023 SAID35 WAGB 142100 METAR WAGB 142100Z 00000KT 6000 FEW010 25/24 Q1011=  
14-Sep-2023 SAID35 WAGB 142130 METAR WAGB 142130Z 00000KT 6000 FEW010 25/24 Q1011=  
14-Sep-2023 SAID35 WAGB 142200 METAR WAGB 142200Z 00000KT 5000 FEW009 25/24 Q1011=  
14-Sep-2023 SAID35 WAGB 142230 METAR WAGB 142230Z 00000KT 6000 FEW009 25/24 Q1011=  
14-Sep-2023 SAID35 WAGB 142300 METAR WAGB 142300Z 00000KT 6000 FEW009 25/24 Q1012=  
14-Sep-2023 SAID35 WAGB 142330 METAR WAGB 142330Z 00000KT 6000 SCT009 25/24 Q1012=  
15-Sep-2023 SAID35 WAGB 150000 METAR WAGB 150000Z 00000KT 5000 HZ BKN010 25/24 Q1012=  
15-Sep-2023 SAID35 WAGB 150030 METAR WAGB 150030Z 30003KT 6000 BKN009 27/23 Q1012 NOSIG=  
15-Sep-2023 SAID35 WAGB 150100 METAR WAGB 150100Z VRB02KT 7000 BKN010 28/23 Q1012 NOSIG=  
15-Sep-2023 SAID35 WAGB 150100 CCA METAR WAGB 150100Z VRB02KT 5000 FU BKN010 28/23 Q1012 NOSIG=  
15-Sep-2023 SAID35 WAGB 150130 METAR WAGB 150130Z VRB02KT 5000 FU BKN010 29/23 Q1012 NOSIG=  
15-Sep-2023 SAID35 WAGB 150130 CCA METAR WAGB 150130Z VRB02KT 5000 FU BKN010 29/23 Q1013 NOSIG=  
15-Sep-2023 SAID35 WAGB 150200 METAR WAGB 150200Z 06003KT 4000 FU BKN010 29/23 Q1013 NOSIG=  
15-Sep-2023 SAID35 WAGB 150230 METAR WAGB 150230Z VRB02KT 4000 FU BKN010 29/23 Q1012 NOSIG=  
15-Sep-2023 SAID35 WAGB 150300 METAR WAGB 150300Z 17003KT 4000 FU BKN010 30/24 Q1012 NOSIG=  
15-Sep-2023 SAID35 WAGB 150330 METAR WAGB 150330Z 22004KT 5000 FU BKN010 29/23 Q1012 NOSIG=  
15-Sep-2023 SAID35 WAGB 150400 METAR WAGB 150400Z 27004KT 6000 FU BKN010 29/24 Q1011 NOSIG=  
15-Sep-2023 SAID35 WAGB 150430 METAR WAGB 150430Z 26006KT 7000 BKN011 29/24 Q1011 NOSIG=  
15-Sep-2023 SAID35 WAGB 150430 CCA METAR WAGB 150430Z 26006KT 7000 BKN011 29/23 Q1011 NOSIG=  
15-Sep-2023 SAID35 WAGB 150500 METAR WAGB 150500Z 29004KT 8000 BKN011 31/22 Q1010 NOSIG=  
15-Sep-2023 SAID35 WAGB 150530 METAR WAGB 150530Z 15003KT 9000 BKN011 33/23 Q1009 NOSIG=  
15-Sep-2023 SAID35 WAGB 150600 METAR WAGB 150600Z 19006KT 9000 BKN012 32/24 Q1009 NOSIG=  
15-Sep-2023 SAID35 WAGB 150600 METAR WAGB 150630Z 21007KT 9999 FEW012TCU BKN013 31/23 Q1008 NOSIG=  
15-Sep-2023 SAID35 WAGB 150630 METAR WAGB 150630Z 21007KT 9999 FEW012TCU BKN013 31/23 Q1008 NOSIG=  
15-Sep-2023 SAID35 WAGB 150700 METAR WAGB 150700Z 20006KT 9999 FEW012TCU SCT013 32/23 Q1008 NOSIG=  
15-Sep-2023 SAID35 WAGB 150730 METAR WAGB 150730Z 2407KT 9999 SCT015 32/23 Q1008=  
15-Sep-2023 SAID35 WAGB 150800 METAR WAGB 150800Z 20003KT 9999 FEW014TCU SCT015 33/24 Q1008 NOSIG=  
15-Sep-2023 SAID35 WAGB 150830 METAR WAGB 150830Z 18004KT 9999 FEW014TCU SCT015 33/24 Q1008 NOSIG=  
15-Sep-2023 SAID35 WAGB 150900 METAR WAGB 150900Z 21005KT 8000 FEW014CB SCT015 33/24 Q1008=  
15-Sep-2023 SAID35 WAGB 150930 METAR WAGB 150930Z 23002KT 8000 FEW014CB SCT015 33/24 Q1008 NOSIG=  
15-Sep-2023 SAID35 WAGB 151000 METAR WAGB 151000Z 00000KT 8000 FEW014CB SCT015 31/25 Q1009 NOSIG=  
15-Sep-2023 SAID35 WAGB 151030 METAR WAGB 151030Z 00000KT 8000 FEW014CB SCT015 31/25 Q1009 NOSIG=  
15-Sep-2023 SAID35 WAGB 151100 METAR WAGB 151100Z 06002KT 8000 FEW013CB SCT012 30/25 Q1010=  
15-Sep-2023 SAID35 WAGB 151130 METAR WAGB 151130Z 00000KT 8000 FEW013CB SCT012 29/25 Q1010 NOSIG=  
15-Sep-2023 SAID35 WAGB 151200 METAR WAGB 151200Z 00000KT 8000 FEW013CB SCT014 29/25 Q1010=  
15-Sep-2023 SAID35 WAGB 151230 METAR WAGB 151230Z 00000KT 8000 FEW013CB SCT014 29/25 Q1010=  
15-Sep-2023 SAID35 WAGB 151300 METAR WAGB 151300Z 00000KT 8000 FEW013CB SCT014 28/25 Q1011=  
15-Sep-2023 SAID35 WAGB 151330 METAR WAGB 151330Z 00000KT 8000 FEW013CB SCT014 28/25 Q1011=  
15-Sep-2023 SAID35 WAGB 151400 METAR WAGB 151400Z 00000KT 8000 FEW012CB SCT013 27/25 Q1012=  
15-Sep-2023 SAID35 WAGB 151430 METAR WAGB 151430Z 00000KT 8000 FEW012CB SCT013 27/25 Q1012=  
15-Sep-2023 SAID35 WAGB 151500 METAR WAGB 151500Z 00000KT 8000 FEW012CB SCT013 27/24 Q1012=  
15-Sep-2023 SAID35 WAGB 151530 METAR WAGB 151530Z 00000KT 8000 FEW012CB SCT013 27/24 Q1012=  
15-Sep-2023 SAID35 WAGB 151600 METAR WAGB 151600Z 00000KT 8000 FEW012CB SCT013 26/25 Q1012=  
15-Sep-2023 SAID35 WAGB 151630 METAR WAGB 151630Z 00000KT 8000 FEW012CB SCT013 26/25 Q1012=  
15-Sep-2023 SAID35 WAGB 151700 METAR WAGB 151700Z 00000KT 8000 FEW012CB SCT013 26/25 Q1011=  
15-Sep-2023 SAID35 WAGB 151730 METAR WAGB 151730Z 00000KT 8000 FEW012CB SCT013 26/25 Q1011=  
15-Sep-2023 SAID35 WAGB 151800 METAR WAGB 151800Z 00000KT 7000 FEW012CB SCT013 26/24 Q1011=  
15-Sep-2023 SAID35 WAGB 151830 METAR WAGB 151830Z 00000KT 7000 FEW012CB SCT013 26/24 Q1011=  
15-Sep-2023 SAID35 WAGB 151900 METAR WAGB 151900Z 00000KT 6000 BKN011 25/24 Q1011=  
15-Sep-2023 SAID35 WAGB 151930 METAR WAGB 151930Z 00000KT 6000 BKN011 25/24 Q1011=  
15-Sep-2023 SAID35 WAGB 152000 METAR WAGB 152000Z 00000KT 6000 BKN011 25/24 Q1010=  
15-Sep-2023 SAID35 WAGB 152030 METAR WAGB 152030Z 00000KT 6000 BKN011 25/24 Q1010=  
15-Sep-2023 SAID35 WAGB 152100 METAR WAGB 152100Z 00000KT 6000 BKN011 24/23 Q1010=  
15-Sep-2023 SAID35 WAGB 152130 METAR WAGB 152130Z 00000KT 6000 BKN011 24/23 Q1011=  
15-Sep-2023 SAID35 WAGB 152200 METAR WAGB 152200Z 00000KT 6000 BKN011 25/23 Q1012=  
15-Sep-2023 SAID35 WAGB 152230 METAR WAGB 152230Z 00000KT 6000 BKN011 25/23 Q1012=  
15-Sep-2023 SAID35 WAGB 152300 METAR WAGB 152300Z 00000KT 6000 BKN011 25/23 Q1012=  
15-Sep-2023 SAID35 WAGB 152330 METAR WAGB 152330Z 00000KT 6000 BKN011 25/23 Q1012=  
16-Sep-2023 SAID35 WAGB 160000 METAR WAGB 160000Z VRB02KT 6000 BKN011 26/23 Q1013 NOSIG=  
16-Sep-2023 SAID35 WAGB 160030 METAR WAGB 160030Z 34005KT 7000 FEW011 26/23 Q1013 NOSIG=  
16-Sep-2023 SAID35 WAGB 160100 METAR WAGB 160100Z 02005KT 7000 FEW011 26/23 Q1013 NOSIG=  
16-Sep-2023 SAID35 WAGB 160130 METAR WAGB 160130Z 36004KT 7000 SCT011 26/23 Q1013 NOSIG=  
16-Sep-2023 SAID35 WAGB 160200 METAR WAGB 160200Z 35005KT 8000 SCT011 27/23 Q1013 NOSIG=  
16-Sep-2023 SAID35 WAGB 160230 METAR WAGB 160230Z 35005KT 8000 SCT012 27/23 Q1013 NOSIG=  
16-Sep-2023 SAID35 WAGB 160300 METAR WAGB 160300Z 3400KT 8000 SCT012 28/23 Q1013 NOSIG=  
16-Sep-2023 SAID35 WAGB 160330 METAR WAGB 160330Z 07008KT 9999 BKN012 30/23 Q1012 NOSIG=  
16-Sep-2023 SAID35 WAGB 160400 METAR WAGB 160400Z 12005KT 9999 BKN012 31/23 Q1012 NOSIG=  
16-Sep-2023 SAID35 WAGB 160430 METAR WAGB 160430Z 00000KT 9999 SCT013 31/23 Q1011 NOSIG=  
16-Sep-2023 SAID35 WAGB 160430 METAR WAGB 160500Z 03003KT 9999 SCT013 32/23 Q1010 NOSIG=  
16-Sep-2023 SAID35 WAGB 160530 METAR WAGB 160530Z 34003KT 9999 SCT013 32/23 Q1010 NOSIG=  
16-Sep-2023 SAID35 WAGB 160600 METAR WAGB 160600Z 34003KT 9999 SCT013 32/23 Q1009 NOSIG=  
16-Sep-2023 SAID35 WAGB 160630 METAR WAGB 160630Z 16003KT 9999 SCT013 32/23 Q1008 NOSIG=  
16-Sep-2023 SAID35 WAGB 160700 METAR WAGB 160700Z 13003KT 9999 SCT013 32/23 Q1007 NOSIG=  
16-Sep-2023 SAID35 WAGB 160730 METAR WAGB 160730Z 00000KT 9999 SCT013 32/23 Q1007 NOSIG=  
16-Sep-2023 SAID35 WAGB 160800 METAR WAGB 160800Z 00000KT 9999 SCT013 31/24 Q1007 NOSIG=  
16-Sep-2023 SAID35 WAGB 160830 METAR WAGB 160830Z 33005KT 9999 SCT013 30/24 Q1007 NOSIG=  
16-Sep-2023 SAID35 WAGB 160900 METAR WAGB 160900Z 00000KT 8000 FEW014 32/24 Q1007 NOSIG=  
16-Sep-2023 SAID35 WAGB 160930 METAR WAGB 160930Z 00000KT 9999 FEW014 32/24 Q1007 NOSIG=  
16-Sep-2023 SAID35 WAGB 161000 METAR WAGB 161000Z 00000KT 9999 FEW014 31/24 Q1008 NOSIG=  
16-Sep-2023 SAID35 WAGB 161030 METAR WAGB 161030Z 00000KT 9999 FEW014 31/24 Q1008 NOSIG=  
16-Sep-2023 SAID35 WAGB 161100 METAR WAGB 161100Z 00000KT 9999 FEW014 31/25 Q1009 NOSIG=  
16-Sep-2023 SAID35 WAGB 161130 METAR WAGB 161130Z 00000KT 9999 FEW014 31/24 Q1009 NOSIG=  
16-Sep-2023 SAID35 WAGB 161200 METAR WAGB 161200Z 00000KT 9999 FEW014 29/26 Q1010 NOSIG=  
16-Sep-2023 SAID35 WAGB 161230 METAR WAGB 161230Z 00000KT 9999 FEW014 29/26 Q1010 NOSIG=  
16-Sep-2023 SAID35 WAGB 161300 METAR WAGB 161300Z 00000KT 9000 FEW013 28/25 Q1011 NOSIG=  
16-Sep-2023 SAID35 WAGB 161330 METAR WAGB 161330Z 00000KT 9000 FEW013 28/25 Q1011 NOSIG=  
16-Sep-2023 SAID35 WAGB 161400 METAR WAGB 161400Z 00000KT 9000 FEW013 27/25 Q1011 NOSIG=  
16-Sep-2023 SAID35 WAGB 161430 METAR WAGB 161430Z 00000KT 9000 FEW013 27/25 Q1011 NOSIG=  
16-Sep-2023 SAID35 WAGB 161500 METAR WAGB 161500Z 00000KT 9000 FEW012 27/25 Q1011 NOSIG=  
16-Sep-2023 SAID35 WAGB 161530 METAR WAGB 161530Z 00000KT 9000 FEW012 27/25 Q1011 NOSIG=  
16-Sep-2023 SAID35 WAGB 161600 METAR WAGB 161600Z 00000KT 8000 SCT012 26/25 Q1011 NOSIG=  
16-Sep-2023 SAID35 WAGB 161630 METAR WAGB 161630Z 00000KT 8000 SCT012 26/25 Q1011 NOSIG=  
16-Sep-2023 SAID35 WAGB 161700 METAR WAGB 161700Z 00000KT 8000 BKN012 26/25 Q1010 NOSIG=  
16-Sep-2023 SAID35 WAGB 161730 METAR WAGB 161730Z 00000KT 8000 BKN012 26/25 Q1010 NOSIG=  
16-Sep-2023 SAID35 WAGB 161800 METAR WAGB 161800Z 00000KT 6000 BKN011 26/25 Q1010 NOSIG=  
16-Sep-2023 SAID35 WAGB 161830 METAR WAGB 161830Z 00000KT 6000 BKN011 26/25 Q1010 NOSIG=  
16-Sep-2023 SAID35 WAGB 161900 METAR WAGB 161900Z 00000KT 6000 BKN011 26/24 Q1010 NOSIG=  
16-Sep-2023 SAID35 WAGB 161930 METAR WAGB 161930Z 00000KT 6000 BKN011 26/24 Q1010 NOSIG=  
16-Sep-2023 SAID35 WAGB 162000 METAR WAGB 162000Z 00000KT 5000 HZ BKN010 25/24 Q1010 NOSIG=  
16-Sep-2023 SAID35 WAGB 162030 METAR WAGB 162030Z 00000KT 5000 HZ BKN010 25/24 Q1010 NOSIG=  
16-Sep-2023 SAID35 WAGB 162100 METAR WAGB 162100Z 00000KT 5000 VCSH BKN010 26/24 Q1010 NOSIG=  
16-Sep-2023 SAID35 WAGB 162130 METAR WAGB 162130Z 00000KT 5000 VCSH BKN010 26/24 Q1011 NOSIG=  
16-Sep-2023 SAID35 WAGB 162200 METAR WAGB 162200Z 00000KT 4000 DZ BKN009 25/24 Q1011 NOSIG=  
16-Sep-2023 SAID35 WAGB 162230 METAR WAGB 162230Z 00000KT 4000 DZ BKN009 25/24 Q1011 NOSIG=  
16-Sep-2023 SAID35 WAGB 162300 METAR WAGB 162300Z 00000KT 4000 DZ BKN009 25/24 Q1011=  
16-Sep-2023 SAID35 WAGB 162330 METAR WAGB 162330Z 00000KT 4000 BKN009 25/24 Q1012 REDZ=  
17-Sep-2023 SAID35 WAGB 170000 METAR WAGB 170000Z 00000KT 3000 BR OVC008 25/24 Q1012 NOSIG=  
17-Sep-2023 SAID35 WAGB 170030 METAR WAGB 170030Z 00000KT 4000 HZ OVC008 26/24 Q1012 NOSIG=  
17-Sep-2023 SAID35 WAGB 170100 METAR WAGB 170100Z 01005KT 4000 -RA BKN009 25/24 Q1012 TEMPO FM0100 TL0230 -RA=  
17-Sep-2023 SAID35 WAGB 170130 METAR WAGB 170130Z 03003KT 5000 BKN009 25/24 Q1013 RERA NOSIG=  
17-Sep-2023 SAID35 WAGB 170200 METAR WAGB 170200Z 03007KT 5000 BKN009 25/24 Q1013 NOSIG=  
17-Sep-2023 SPID33 WAGB 170210 SPECI WAGB 170210Z 36006KT 5000 -RA BKN009 26/24 Q1013 TEMPO FM0910 TL0300 RA=  
17-Sep-2023 SAID35 WAGB 170230 METAR WAGB 170230Z 03003KT 5000 -RA BKN009 26/24 Q1012 BECMG FM0310 NSW=  
17-Sep-2023 SPID33 WAGB 170240 SPECI WAGB 170240Z 36003KT 7000 BKN010 26/24 Q1012 RERA NOSIG=  
17-Sep-2023 SAID35 WAGB 170300 METAR WAGB 170300Z 35004KT 7000 BKN010 26/25 Q1012 NOSIG=  
17-Sep-2023 SAID35 WAGB 170330 METAR WAGB 170330Z 36005KT 9000 BKN011 28/24 Q1012 NOSIG=  
17-Sep-2023 SAID35 WAGB 170400 METAR WAGB 170400Z 01006KT 9000 BKN011 29/24 Q1011 NOSIG=  
17-Sep-2023 SAID35 WAGB 170430 METAR WAGB 170430Z 36006KT 9000 BKN011 29/24 Q1011 NOSIG=  
17-Sep-2023 SAID35 WAGB 170500 METAR WAGB 170500Z 01007KT 9000 BKN011 29/24 Q1010 NOSIG=  
17-Sep-2023 SAID35 WAGB 170530 METAR WAGB 170530Z 01009KT 9000 BKN011 29/24 Q1010 NOSIG=  
17-Sep-2023 SAID35 WAGB 170600 METAR WAGB 170600Z 32006KT 9999 BKN012 30/24 Q1009 NOSIG=  
17-Sep-2023 SAID35 WAGB 170630 METAR WAGB 170630Z 02005KT 9999 BKN012 30/24 Q1009 NOSIG=  
17-Sep-2023 SAID35 WAGB 170700 METAR WAGB 170700Z 01005KT 9999 BKN012 30/23 Q1008 NOSIG=  
17-Sep-2023 SAID35 WAGB 170730 METAR WAGB 170730Z 00000KT 9999 FEW012TCU SCT013 31/24 Q1008 NOSIG=  
17-Sep-2023 SAID35 WAGB 170800 METAR WAGB 170800Z 06002KT 9999 FEW012TCU SCT013 31/25 Q1008 NOSIG=  
17-Sep-2023 SAID35 WAGB 170830 METAR WAGB 170830Z 00000KT 9999 FEW012TCU SCT013 31/25 Q1008 NOSIG=  
17-Sep-2023 SAID35 WAGB 170900 METAR WAGB 170900Z 34003KT 9999 FEW013TCU FEW014 30/25 Q1008=  
17-Sep-2023 SAID35 WAGB 170930 METAR WAGB 170930Z 00000KT 9999 FEW013CB SCT014 30/24 Q1008 NOSIG=  
17-Sep-2023 SAID35 WAGB 171000 METAR WAGB 171000Z 00000KT 9999 FEW013CB SCT014 30/24 Q1009 NOSIG=  
17-Sep-2023 SAID35 WAGB 171030 METAR WAGB 171030Z 17002KT 8000 FEW012CB SCT013 29/25 Q1009 NOSIG=  
17-Sep-2023 SAID35 WAGB 171100 METAR WAGB 171100Z 00000KT 8000 FEW012CB BKN013 28/25 Q1009 NOSIG=  
17-Sep-2023 SAID35 WAGB 171130 METAR WAGB 171130Z 00000KT 7000 VCSH FEW012CB BKN013 28/24 Q1010=  
17-Sep-2023 SAID35 WAGB 171200 METAR WAGB 171200Z 00000KT 8000 BKN013 27/25 Q1010=  
17-Sep-2023 SAID35 WAGB 171230 METAR WAGB 171230Z 00000KT 8000 BKN013 27/25 Q1010=  
17-Sep-2023 SAID35 WAGB 171300 METAR WAGB 171300Z 00000KT 8000 BKN012 27/25 Q1011=  
17-Sep-2023 SAID35 WAGB 171330 METAR WAGB 171330Z 00000KT 7000 BKN012 27/25 Q1011=  
17-Sep-2023 SAID35 WAGB 171400 METAR WAGB 171400Z 00000KT 7000 SCT012 26/25 Q1011=  
17-Sep-2023 SAID35 WAGB 171430 METAR WAGB 171430Z 00000KT 7000 SCT012 26/25 Q1011=  
17-Sep-2023 SAID35 WAGB 171500 METAR WAGB 171500Z 00000KT 6000 BKN012 25/24 Q1011=  
17-Sep-2023 SAID35 WAGB 171530 METAR WAGB 171530Z 00000KT 6000 BKN012 25/24 Q1011=  
17-Sep-2023 SAID35 WAGB 171600 METAR WAGB 171600Z 00000KT 5000 BR BKN013 25/24 Q1011=  
17-Sep-2023 SAID35 WAGB 171630 METAR WAGB 171630Z 00000KT 5000 BR BKN013 25/24 Q1011=  
17-Sep-2023 SAID35 WAGB 171700 METAR WAGB 171700Z 00000KT 5000 BR BKN010 25/24 Q1011=  
17-Sep-2023 SAID35 WAGB 171730 METAR WAGB 171730Z 00000KT 5000 BR BKN010 25/24 Q1011=  
17-Sep-2023 SAID35 WAGB 171800 METAR WAGB 171800Z 00000KT 5000 BR BKN010 25/24 Q1010=  
17-Sep-2023 SAID35 WAGB 171830 METAR WAGB 171830Z 00000KT 5000 BR BKN010 25/24 Q1010=  
17-Sep-2023 SAID35 WAGB 171900 METAR WAGB 171900Z 00000KT 5000 BR BKN010 25/24 Q1010=  
17-Sep-2023 SAID35 WAGB 171930 METAR WAGB 171930Z 00000KT 5000 BR BKN010 25/24 Q1010=  
17-Sep-2023 SAID35 WAGB 172000 METAR WAGB 172000Z 00000KT 5000 BR BKN010 25/24 Q1010=  
17-Sep-2023 SAID35 WAGB 172030 METAR WAGB 172030Z 00000KT 5000 BR BKN010 25/24 Q1010=  
17-Sep-2023 SAID35 WAGB 172100 METAR WAGB 172100Z 00000KT 5000 BR BKN010 25/24 Q1010=  
17-Sep-2023 SAID35 WAGB 172130 METAR WAGB 172130Z 00000KT 5000 BR BKN010 25/24 Q1010=  
17-Sep-2023 SAID35 WAGB 172200 METAR WAGB 172200Z 00000KT 5000 BR BKN010 25/24 Q1011=  
17-Sep-2023 SAID35 WAGB 172230 METAR WAGB 172230Z 00000KT 5000 BR BKN010 25/24 Q1011=  
17-Sep-2023 SAID35 WAGB 172300 METAR WAGB 172300Z 00000KT 5000 BR BKN010 25/24 Q1011=  
17-Sep-2023 SAID35 WAGB 172330 METAR WAGB 172330Z 00000KT 5000 BR BKN010 25/24 Q1011=  
18-Sep-2023 SAID35 WAGB 180000 METAR WAGB 180000Z 06003KT 5000 HZ BKN010 25/24 Q1012 NOSIG=  
18-Sep-2023 SAID35 WAGB 180030 METAR WAGB 180030Z 00000KT 5000 HZ BKN010 25/24 Q1012 NOSIG=  
18-Sep-2023 SAID35 WAGB 180100 METAR WAGB 180100Z 00000KT 7000 BKN009 27/24 Q1012 NOSIG=  
18-Sep-2023 SAID35 WAGB 180130 METAR WAGB 180130Z 24002KT 8000 BKN009 28/24 Q1012 NOSIG=  
18-Sep-2023 SAID35 WAGB 180200 METAR WAGB 180200Z 00000KT 7000 BKN009 27/24 Q1012 NOSIG=  
18-Sep-2023 SAID35 WAGB 180200 CCA METAR WAGB 180200Z 25002KT 8000 BKN009 29/24 Q1012 NOSIG=  
18-Sep-2023 SAID35 WAGB 180230 METAR WAGB 180230Z 28004KT 9000 BKN010 29/24 Q1012 NOSIG=  
18-Sep-2023 SAID35 WAGB 180300 METAR WAGB 180300Z 25002KT 9999 BKN010 29/24 Q1011 NOSIG=  
18-Sep-2023 SAID35 WAGB 180330 METAR WAGB 180330Z 23005KT 9999 BKN011 30/24 Q1011 NOSIG=  
18-Sep-2023 SAID35 WAGB 180400 METAR WAGB 180400Z 20003KT 9999 BKN012 31/23 Q1012 NOSIG=  
18-Sep-2023 SAID35 WAGB 180430 METAR WAGB 180430Z 20003KT 9999 BKN012 31/23 Q1010 NOSIG=  
18-Sep-2023 SAID35 WAGB 180500 METAR WAGB 180500Z 03006KT 9999 BKN012 33/23 Q1009 NOSIG=  
18-Sep-2023 SAID35 WAGB 180530 METAR WAGB 180530Z 28003KT 9999 BKN012 33/23 Q1009 NOSIG=  
18-Sep-2023 SAID35 WAGB 180600 METAR WAGB 180600Z 23004KT 9999 SCT013 33/23 Q1008 NOSIG=  
18-Sep-2023 SAID35 WAGB 180630 METAR WAGB 180630Z 29005KT 9999 SCT013 33/23 Q1007 NOSIG=  
18-Sep-2023 SAID35 WAGB 180700 METAR WAGB 180700Z 30002KT 9999 SCT013 33/23 Q1007 NOSIG=  
18-Sep-2023 SAID35 WAGB 180730 METAR WAGB 180730Z 23002KT 9999 SCT013 32/23 Q1007 NOSIG=  
18-Sep-2023 SAID35 WAGB 180800 METAR WAGB 180800Z 24003KT 9999 SCT012 32/23 Q1006 NOSIG=  
18-Sep-2023 SAID35 WAGB 180830 METAR WAGB 180830Z 00000KT 9999 SCT012 32/23 Q1006 NOSIG=  
18-Sep-2023 SAID35 WAGB 180900 METAR WAGB 180900Z 22005KT 9999 BKN015 34/24 Q1007 NOSIG=  
18-Sep-2023 SAID35 WAGB 180930 METAR WAGB 180930Z 00000KT 9999 BKN015 34/24 Q1007 NOSIG=  
18-Sep-2023 SAID35 WAGB 181000 METAR WAGB 181000Z 00000KT 9999 BKN014 33/24 Q1007 NOSIG=  
18-Sep-2023 SAID35 WAGB 181030 METAR WAGB 181030Z 00000KT 9999 FEW013CB SCT014 33/24 Q1007 NOSIG=  
18-Sep-2023 SAID35 WAGB 181100 METAR WAGB 181100Z 00000KT 9999 FEW013CB FEW014 30/24 Q1008 NOSIG=  
18-Sep-2023 SAID35 WAGB 181130 METAR WAGB 181130Z 00000KT 9999 FEW013CB FEW014 30/24 Q1008 NOSIG=  
18-Sep-2023 SAID35 WAGB 181200 METAR WAGB 181200Z 00000KT 9000 VCTS FEW013CB 29/25 Q1009=  
18-Sep-2023 SAID35 WAGB 181230 METAR WAGB 181230Z 00000KT 9000 VCTS FEW013CB 29/25 Q1009=  
18-Sep-2023 SAID35 WAGB 181300 METAR WAGB 181300Z 00000KT 8000 VCTS FEW013CB 29/25 Q1009=  
18-Sep-2023 SAID35 WAGB 181330 METAR WAGB 181330Z 00000KT 8000 VCTS FEW013CB 29/25 Q1009=  
18-Sep-2023 SAID35 WAGB 181400 METAR WAGB 181400Z 28003KT 7000 VCTS FEW012CB SCT014 28/24 Q1010=  
18-Sep-2023 SAID35 WAGB 181430 METAR WAGB 181430Z 26004KT 2000 RA FEW012CB SCT014 28/24 Q1011=  
18-Sep-2023 SAID35 WAGB 181500 METAR WAGB 181500Z 25005KT 1000 -TSRA FEW010CB BKN012 25/24 Q1011=  
18-Sep-2023 SAID35 WAGB 181530 METAR WAGB 181530Z 00000KT 1000 -TSRA FEW010CB BKN012 25/24 Q1011=  
18-Sep-2023 SAID35 WAGB 181600 METAR WAGB 181600Z 20003KT 1000 -TSRA FEW010CB BKN012 25/24 Q1011=  
18-Sep-2023 SAID35 WAGB 181630 METAR WAGB 181630Z 00000KT 2000 -TSRA FEW010CB BKN012 25/24 Q1011=  
18-Sep-2023 SAID35 WAGB 181700 METAR WAGB 181700Z 00000KT 3000 -TSRA FEW010CB BKN012 25/24 Q1011=  
18-Sep-2023 SAID35 WAGB 181730 METAR WAGB 181730Z 00000KT 4000 -TSRA FEW010CB BKN012 25/24 Q1011=  
18-Sep-2023 SAID35 WAGB 181800 METAR WAGB 181800Z 00000KT 4000 -TSRA FEW010CB BKN012 24/24 Q1010=  
18-Sep-2023 SAID35 WAGB 181830 METAR WAGB 181830Z 00000KT 5000 -TSRA FEW010CB BKN012 24/24 Q1010=  
18-Sep-2023 SAID35 WAGB 181900 METAR WAGB 181900Z 00000KT 4000 -TSRA FEW010CB BKN012 24/24 Q1010=  
18-Sep-2023 SAID35 WAGB 181930 METAR WAGB 181930Z 00000KT 4000 -TSRA FEW010CB BKN012 24/24 Q1010=  
18-Sep-2023 SAID35 WAGB 182000 METAR WAGB 182000Z 00000KT 4000 -TSRA FEW010CB BKN012 25/24 Q1010=  
18-Sep-2023 SAID35 WAGB 182030 METAR WAGB 182030Z 00000KT 4000 -TSRA FEW010CB BKN012 25/24 Q1010=  
18-Sep-2023 SAID35 WAGB 182100 METAR WAGB 182100Z 00000KT 4000 -RA BKN009 24/24 Q1011=  
18-Sep-2023 SAID35 WAGB 182130 METAR WAGB 182130Z 00000KT 4000 -RA BKN009 24/24 Q1011=  
18-Sep-2023 SAID35 WAGB 182200 METAR WAGB 182200Z 00000KT 4000 -RA BKN009 24/24 Q1011=  
18-Sep-2023 SAID35 WAGB 182230 METAR WAGB 182230Z 00000KT 5000 -RA BKN009 24/24 Q1012=  
18-Sep-2023 SAID35 WAGB 182300 METAR WAGB 182300Z 00000KT 5000 -RA BKN008 24/24 Q1012=  
18-Sep-2023 SAID35 WAGB 182330 METAR WAGB 182330Z 00000KT 5000 -RA BKN008 24/24 Q1012=  
19-Sep-2023 SAID35 WAGB 190000 METAR WAGB 190000Z 21003KT 5000 -RA OVC010 24/23 Q1013 NOSIG=  
19-Sep-2023 SAID35 WAGB 190030 METAR WAGB 190030Z 21003KT 5000 -RA OVC010 24/23 Q1013 NOSIG=  
19-Sep-2023 SAID35 WAGB 190100 METAR WAGB 190100Z 19002KT 5000 -RA OVC010 24/24 Q1013 NOSIG=  
19-Sep-2023 SAID35 WAGB 190130 METAR WAGB 190130Z 23002KT 5000 DZ OVC010 24/24 Q1013 NOSIG=  
19-Sep-2023 SAID35 WAGB 190200 METAR WAGB 190200Z 21003KT 5000 BKN010 26/25 Q1013 RERA NOSIG=  
19-Sep-2023 SAID35 WAGB 190230 METAR WAGB 190230Z 19003KT 6000 BKN010 26/24 Q1013 NOSIG=  
19-Sep-2023 SAID35 WAGB 190300 METAR WAGB 190300Z 21005KT 7000 BKN010 26/24 Q1013 NOSIG=  
19-Sep-2023 SAID35 WAGB 190330 METAR WAGB 190330Z 18005KT 7000 BKN010 27/24 Q1012 NOSIG=  
19-Sep-2023 SAID35 WAGB 190400 METAR WAGB 190400Z 21005KT 8000 BKN011 27/23 Q1011 NOSIG=  
19-Sep-2023 SAID35 WAGB 190430 METAR WAGB 190430Z 21006KT 8000 BKN011 28/23 Q1011 NOSIG=  
19-Sep-2023 SAID35 WAGB 190500 METAR WAGB 190500Z 17005KT 8000 BKN011 28/24 Q1010 NOSIG=  
19-Sep-2023 SAID35 WAGB 190530 METAR WAGB 190530Z 16005KT 8000 BKN011 28/24 Q1010 NOSIG=  
19-Sep-2023 SAID35 WAGB 190600 METAR WAGB 190600Z 19003KT 8000 BKN011 28/23 Q1010 NOSIG=  
19-Sep-2023 SAID35 WAGB 190630 METAR WAGB 190630Z 20003KT 9000 BKN011 28/23 Q1009 NOSIG=  
19-Sep-2023 SAID35 WAGB 190700 METAR WAGB 190700Z 24005KT 9000 BKN011 28/23 Q1009 NOSIG=  
19-Sep-2023 SAID35 WAGB 190730 METAR WAGB 190730Z VRB02KT 9000 BKN011 29/24 Q1009 NOSIG=  
19-Sep-2023 SAID35 WAGB 190800 METAR WAGB 190800Z VRB02KT 9999 BKN012 30/23 Q1008 NOSIG=  
19-Sep-2023 SAID35 WAGB 190830 METAR WAGB 190830Z 26003KT 9999 BKN012 29/23 Q1008 NOSIG=  
19-Sep-2023 SAID35 WAGB 190900 METAR WAGB 190900Z 00000KT 9999 SCT013TCU 29/25 Q1008 NOSIG=  
19-Sep-2023 SAID35 WAGB 190900 CCA METAR WAGB 190900Z 00000KT 9999 SCT013 29/25 Q1008 NOSIG=  
19-Sep-2023 SAID35 WAGB 190930 METAR WAGB 190930Z 00000KT 9999 SCT013 29/25 Q1008 NOSIG=  
19-Sep-2023 SAID35 WAGB 191000 METAR WAGB 191000Z 00000KT 9000 FEW013CB 29/26 Q1009 NOSIG=  
19-Sep-2023 SAID35 WAGB 191030 METAR WAGB 191030Z 00000KT 8000 FEW013 28/26 Q1009 NOSIG=  
19-Sep-2023 SAID35 WAGB 191100 METAR WAGB 191100Z 00000KT 7000 FEW013 28/25 Q1009 NOSIG=  
19-Sep-2023 SAID35 WAGB 191130 METAR WAGB 191130Z 00000KT 7000 FEW013 27/25 Q1009 NOSIG=  
19-Sep-2023 SAID35 WAGB 191200 METAR WAGB 191200Z 00000KT 7000 FEW013CB 26/25 Q1010=  
19-Sep-2023 SAID35 WAGB 191230 CCA METAR COR WAGB 191230Z 00000KT 7000 FEW013 26/25 Q1011=  
19-Sep-2023 SAID35 WAGB 191230 METAR WAGB 191230Z 00000KT 7000 FEW013CB 26/25 Q1010=  
19-Sep-2023 SAID35 WAGB 191300 METAR WAGB 191300Z 00000KT 7000 NSC 26/25 Q1011=  
19-Sep-2023 SAID35 WAGB 191330 METAR WAGB 191330Z 00000KT 7000 NSC 26/25 Q1011=  
19-Sep-2023 SAID35 WAGB 191400 CCA METAR COR WAGB 191400Z 00000KT 7000 NSC 25/25 Q1011=  
19-Sep-2023 SAID35 WAGB 191400 METAR WAGB 191400Z 00000KT 7000 FEW013CB 25/25 Q1011=  
19-Sep-2023 SAID35 WAGB 191430 METAR WAGB 191430Z 00000KT 7000 NSC 25/25 Q1011=  
19-Sep-2023 SAID35 WAGB 191500 METAR WAGB 191500Z 00000KT 7000 NSC 25/24 Q1011=  
19-Sep-2023 SAID35 WAGB 191530 METAR WAGB 191530Z 00000KT 7000 NSC 25/24 Q1011=  
19-Sep-2023 SAID35 WAGB 191600 METAR WAGB 191600Z 00000KT 5000 BR NSC 25/24 Q1011=  
19-Sep-2023 SAID35 WAGB 191630 METAR WAGB 191630Z 00000KT 5000 BR NSC 25/24 Q1011=  
19-Sep-2023 SAID35 WAGB 191700 METAR WAGB 191700Z 00000KT 3500 BR NSC 24/24 Q1011=  
19-Sep-2023 SAID35 WAGB 191730 METAR WAGB 191730Z 00000KT 3500 BR NSC 24/24 Q1011=  
19-Sep-2023 SAID35 WAGB 191800 METAR WAGB 191800Z 00000KT 3500 BR FEW012 24/24 Q1010=  
19-Sep-2023 SAID35 WAGB 191830 METAR WAGB 191830Z 00000KT 3500 BR FEW012 24/24 Q1010=  
19-Sep-2023 SAID35 WAGB 191900 METAR WAGB 191900Z 00000KT 2500 BR FEW011 24/24 Q1010=  
19-Sep-2023 SAID35 WAGB 191930 METAR WAGB 191930Z 00000KT 2500 BR NSC 24/24 Q1010=  
19-Sep-2023 SAID35 WAGB 192000 METAR WAGB 192000Z 00000KT 1000 BR NSC 24/24 Q1010=  
19-Sep-2023 SAID35 WAGB 192030 CCA METAR COR WAGB 192030Z 00000KT 0900 FG NSC 24/24 Q1010=  
19-Sep-2023 SAID35 WAGB 192030 METAR WAGB 192030Z 00000KT 900 FG NSC 24/24 Q1010=  
19-Sep-2023 SAID35 WAGB 192100 METAR WAGB 192100Z 00000KT 0700 FG NSC 24/24 Q1010=  
19-Sep-2023 SAID35 WAGB 192130 METAR WAGB 192130Z 00000KT 0700 FG FEW009 24/24 Q1010=  
19-Sep-2023 SAID35 WAGB 192200 METAR WAGB 192200Z 00000KT 1500 BR SCT009 24/24 Q1011=  
19-Sep-2023 SAID35 WAGB 192230 METAR WAGB 192230Z 00000KT 1200 BR SCT009 24/24 Q1011=  
19-Sep-2023 SAID35 WAGB 192300 METAR WAGB 192300Z 00000KT 1200 BR SCT009 24/24 Q1012=  
19-Sep-2023 SAID35 WAGB 192330 METAR WAGB 192330Z 00000KT 1800 BR SCT008 24/24 Q1012=  
20-Sep-2023 SAID35 WAGB 200000 CCA METAR WAGB 200000Z 00000KT 5000 FEW009 25/24 Q1012 NOSIG=  
20-Sep-2023 SAID35 WAGB 200030 METAR WAGB 200030Z 00000KT 7000 SCT010 27/24 Q1012 NOSIG=  
20-Sep-2023 SAID35 WAGB 200100 METAR WAGB 200100Z 00000KT 9000 SCT010 28/24 Q1012 NOSIG=  
20-Sep-2023 SAID35 WAGB 200130 METAR WAGB 200130Z 25004KT 9999 BKN011 29/24 Q1012 NOSIG=  
20-Sep-2023 SAID35 WAGB 200200 METAR WAGB 200200Z 00000KT 9999 BKN011 30/24 Q1012 NOSIG=  
20-Sep-2023 SAID35 WAGB 200230 METAR WAGB 200230Z 31005KT 9999 BKN011 29/24 Q1012 NOSIG=  
20-Sep-2023 SAID35 WAGB 200300 METAR WAGB 200300Z 00000KT 9999 BKN012 31/24 Q1011 NOSIG=  
20-Sep-2023 SAID35 WAGB 200330 METAR WAGB 200330Z 23003KT 9999 BKN012 30/23 Q1011 NOSIG=  
20-Sep-2023 SAID35 WAGB 200400 METAR WAGB 200400Z 24006KT 9999 BKN012 32/23 Q1010 NOSIG=  
20-Sep-2023 SAID35 WAGB 200430 METAR WAGB 200430Z 19005KT 9999 BKN013 33/24 Q1010 NOSIG=  
20-Sep-2023 SAID35 WAGB 200500 METAR WAGB 200500Z 16004KT 9999 BKN013 33/23 Q1009 NOSIG=  
20-Sep-2023 SAID35 WAGB 200530 METAR WAGB 200530Z 20005KT 9999 BKN013 31/22 Q1008 NOSIG=  
20-Sep-2023 SAID35 WAGB 200600 METAR WAGB 200600Z 24004KT 9999 BKN014 32/23 Q1008 NOSIG=  
20-Sep-2023 SAID35 WAGB 200630 METAR WAGB 200630Z 00000KT 9999 BKN014 33/24 Q1008 NOSIG=  
20-Sep-2023 SAID35 WAGB 200700 METAR WAGB 200700Z 00000KT 9999 SCT014 34/22 Q1007 NOSIG=  
20-Sep-2023 SAID35 WAGB 200730 METAR WAGB 200730Z 00000KT 9999 SCT014 34/22 Q1007 NOSIG=  
20-Sep-2023 SAID35 WAGB 200800 METAR WAGB 200800Z 00000KT 9999 SCT013 30/25 Q1007 NOSIG=  
20-Sep-2023 SAID35 WAGB 200830 METAR WAGB 200830Z 00000KT 9999 SCT013 30/24 Q1007 NOSIG=  
20-Sep-2023 SAID35 WAGB 200900 METAR WAGB 200900Z 00000KT 9999 SCT013 30/26 Q1007 NOSIG=  
20-Sep-2023 SAID35 WAGB 200930 METAR WAGB 200930Z 00000KT 9999 SCT013 30/26 Q1007 NOSIG=  
20-Sep-2023 SAID35 WAGB 201000 METAR WAGB 201000Z 00000KT 9999 SCT013 30/26 Q1007 NOSIG=  
20-Sep-2023 SAID35 WAGB 201030 METAR WAGB 201030Z 00000KT 9999 SCT013 30/26 Q1007 NOSIG=  
20-Sep-2023 SAID35 WAGB 201100 METAR WAGB 201100Z 00000KT 9999 SCT013 29/25 Q1007 NOSIG=  
20-Sep-2023 SAID35 WAGB 201130 METAR WAGB 201130Z 00000KT 9999 SCT013 29/25 Q1007 NOSIG=  
20-Sep-2023 SAID35 WAGB 201200 METAR WAGB 201200Z 00000KT 8000 SCT012 28/26 Q1008=  
20-Sep-2023 SAID35 WAGB 201230 METAR WAGB 201230Z 00000KT 8000 SCT012 28/26 Q1009=  
20-Sep-2023 SAID35 WAGB 201300 METAR WAGB 201300Z 00000KT 8000 SCT012 27/25 Q1009=  
20-Sep-2023 SAID35 WAGB 201330 METAR WAGB 201330Z 00000KT 8000 SCT012 27/25 Q1009=  
20-Sep-2023 SAID35 WAGB 201400 METAR WAGB 201400Z 00000KT 7000 SCT012 27/25 Q1009=  
20-Sep-2023 SAID35 WAGB 201430 METAR WAGB 201430Z 00000KT 7000 SCT012 27/25 Q1010=  
20-Sep-2023 SAID35 WAGB 201500 METAR WAGB 201500Z 00000KT 7000 SCT012 26/25 Q1010=  
20-Sep-2023 SAID35 WAGB 201530 METAR WAGB 201530Z 20004KT 7000 SCT012 26/25 Q1010=  
20-Sep-2023 SAID35 WAGB 201600 METAR WAGB 201600Z 00000KT 5000 -RA BKN011 26/25 Q1010=  
20-Sep-2023 SAID35 WAGB 201600 CCA METAR WAGB 201600Z 00000KT 5000 -RA FEW010CB BKN011 26/25 Q1010=  
20-Sep-2023 SPID33 WAGB 201620 SPECI WAGB 201620Z 22008KT 1000 -TSRA FEW010CB BKN011 26/25 Q1011=  
20-Sep-2023 SAID35 WAGB 201630 METAR WAGB 201630Z 24007KT 1000 -RA FEW010CB BKN011 26/25 Q1011=  
20-Sep-2023 SAID35 WAGB 201630 CCA METAR WAGB 201630Z 24007KT 1000 -TSRA FEW010CB BKN011 26/25 Q1011=  
20-Sep-2023 SAID35 WAGB 201700 METAR WAGB 201700Z 00000KT 1000 -TSRA FEW010CB BKN011 24/23 Q1010=  
20-Sep-2023 SAID35 WAGB 201730 METAR WAGB 201730Z 00000KT 5000 -RA FEW010CB BKN011 24/23 Q1010 RETS=  
20-Sep-2023 SAID35 WAGB 201800 METAR WAGB 201800Z 00000KT 5000 TS FEW009CB BKN010 24/23 Q1009 RERA=  
20-Sep-2023 SAID35 WAGB 201830 METAR WAGB 201830Z 00000KT 5000 TS FEW009CB BKN010 24/23 Q1009=  
20-Sep-2023 SAID35 WAGB 201900 METAR WAGB 201900Z 00000KT 5000 HZ BKN010 23/23 Q1010 RETS=  
20-Sep-2023 SAID35 WAGB 201900 CCA METAR WAGB 201900Z 00000KT 5000 HZ BKN010 23/23 Q1010 RETS=  
20-Sep-2023 SAID35 WAGB 201930 METAR WAGB 201930Z 00000KT 5000 HZ BKN010 23/23 Q1010=  
20-Sep-2023 SAID35 WAGB 202000 METAR WAGB 202000Z 00000KT 5000 HZ BKN010 23/23 Q1010=  
20-Sep-2023 SAID35 WAGB 202030 METAR WAGB 202030Z 00000KT 5000 HZ BKN010 23/23 Q1010=  
20-Sep-2023 SAID35 WAGB 202100 CCA METAR WAGB 202100Z 00000KT 4000 BR BKN009 23/23 Q1010=  
20-Sep-2023 SAID35 WAGB 202100 METAR WAGB 202100Z 00000KT 5000 BR BKN009 23/23 Q1010=  
20-Sep-2023 SAID35 WAGB 202130 METAR WAGB 202130Z 00000KT 4000 BR BKN009 23/23 Q1010=  
20-Sep-2023 SAID35 WAGB 202200 METAR WAGB 202200Z 00000KT 4000 BR BKN009 24/23 Q1011=  
20-Sep-2023 SAID35 WAGB 202230 METAR WAGB 202230Z 00000KT 4000 BR BKN009 24/23 Q1011=  
20-Sep-2023 SAID35 WAGB 202300 METAR WAGB 202300Z 00000KT 4000 BR BKN009 24/24 Q1012=  
20-Sep-2023 SAID35 WAGB 202330 METAR WAGB 202330Z 00000KT 4000 BR BKN009 24/24 Q1012=  
21-Sep-2023 SAID35 WAGB 210000 METAR WAGB 210000Z 00000KT 4000 BR BKN009 25/24 Q1012=  
21-Sep-2023 SAID35 WAGB 210030 METAR WAGB 210030Z 00000KT 5000 HZ BKN010 25/24 Q1012=  
21-Sep-2023 SAID35 WAGB 210100 METAR WAGB 210100Z 00000KT 7000 BKN010 26/24 Q1013 NOSIG=  
21-Sep-2023 SAID35 WAGB 210130 METAR WAGB 210130Z 00000KT 8000 BKN010 27/24 Q1013 NOSIG=  
21-Sep-2023 SAID35 WAGB 210200 METAR WAGB 210200Z 17003KT 9999 SCT010 30/24 Q1011 NOSIG=  
21-Sep-2023 SAID35 WAGB 210230 METAR WAGB 210230Z 23003KT 9999 SCT010 29/24 Q1011 NOSIG=  
21-Sep-2023 SAID35 WAGB 210300 METAR WAGB 210300Z 00000KT 9999 SCT010 30/24 Q1011 NOSIG=  
21-Sep-2023 SAID35 WAGB 210330 METAR WAGB 210330Z 36003KT 9999 SCT010 31/24 Q1010 NOSIG=  
21-Sep-2023 SAID35 WAGB 210400 METAR WAGB 210400Z 00000KT 9999 SCT011 32/24 Q1010 NOSIG=  
21-Sep-2023 SAID35 WAGB 210430 METAR WAGB 210430Z 23003KT 9999 SCT011 32/23 Q1009 NOSIG=  
21-Sep-2023 SAID35 WAGB 210500 METAR WAGB 210500Z 00000KT 9999 SCT011 31/23 Q1009 NOSIG=  
21-Sep-2023 SAID35 WAGB 210530 METAR WAGB 210530Z 17004KT 9999 SCT011 33/21 Q1008 NOSIG=  
21-Sep-2023 SAID35 WAGB 210600 METAR WAGB 210600Z 23006KT 9999 SCT011 34/22 Q1008 NOSIG=  
21-Sep-2023 SAID35 WAGB 210630 METAR WAGB 210630Z 22004KT 9999 SCT011 34/21 Q1007 NOSIG=  
21-Sep-2023 SAID35 WAGB 210700 METAR WAGB 210700Z 24005KT 9999 BKN014 32/24 Q1007 NOSIG=  
21-Sep-2023 SAID35 WAGB 210730 METAR WAGB 210730Z 21002KT 9999 BKN014 32/24 Q1007 NOSIG=  
21-Sep-2023 SAID35 WAGB 210800 METAR WAGB 210800Z 25004KT 9999 BKN015 32/24 Q1007 NOSIG=  
21-Sep-2023 SAID35 WAGB 210830 METAR WAGB 210830Z 27002KT 9999 BKN015 32/24 Q1007 NOSIG=  
21-Sep-2023 SAID35 WAGB 210900 METAR WAGB 210900Z 27003KT 9999 SCT014 31/25 Q1007 NOSIG=  
21-Sep-2023 SAID35 WAGB 210930 METAR WAGB 210930Z 00000KT 9999 SCT014 31/25 Q1007 NOSIG=  
21-Sep-2023 SAID35 WAGB 211000 METAR WAGB 211000Z 00000KT 9999 BKN014 31/25 Q1007 NOSIG=  
21-Sep-2023 SAID35 WAGB 211030 METAR WAGB 211030Z 00000KT 9999 BKN014 31/25 Q1008 NOSIG=  
21-Sep-2023 SAID35 WAGB 211100 METAR WAGB 211100Z 00000KT 9999 BKN014 30/24 Q1008 NOSIG=  
21-Sep-2023 SAID35 WAGB 211130 METAR WAGB 211130Z 00000KT 9999 BKN014 30/24 Q1008 NOSIG=  
21-Sep-2023 SAID35 WAGB 211200 METAR WAGB 211200Z 00000KT 7000 SCT013 29/26 Q1009=  
21-Sep-2023 SAID35 WAGB 211230 METAR WAGB 211230Z 00000KT 6000 SCT013 29/26 Q1010=  
21-Sep-2023 SAID35 WAGB 211300 METAR WAGB 211300Z 00000KT 6000 SCT013 28/26 Q1009=  
21-Sep-2023 SAID35 WAGB 211330 METAR WAGB 211330Z 00000KT 6000 SCT013 28/26 Q1010=  
21-Sep-2023 SAID35 WAGB 211400 METAR WAGB 211400Z 04005KT 5000 BKN012 27/25 Q1010=  
21-Sep-2023 SAID35 WAGB 211430 METAR WAGB 211430Z 04004KT 5000 BKN012 27/25 Q1010=  
21-Sep-2023 SAID35 WAGB 211500 METAR WAGB 211500Z 00000KT 5000 BKN012 27/25 Q1010=  
21-Sep-2023 SAID35 WAGB 211530 METAR WAGB 211530Z 00000KT 5000 BKN011 27/25 Q1010=  
21-Sep-2023 SAID35 WAGB 211600 METAR WAGB 211600Z 00000KT 5000 BKN011 27/25 Q1011=  
21-Sep-2023 SAID35 WAGB 211630 METAR WAGB 211630Z 00000KT 5000 BKN011 27/25 Q1011=  
21-Sep-2023 SAID35 WAGB 211700 METAR WAGB 211700Z 00000KT 5000 BKN011 26/25 Q1010=  
21-Sep-2023 SAID35 WAGB 211730 METAR WAGB 211730Z 00000KT 5000 BKN011 26/25 Q1010=  
21-Sep-2023 SAID35 WAGB 211800 METAR WAGB 211800Z 09003KT 4500 VCSH BKN011 26/24 Q1010=  
21-Sep-2023 SAID35 WAGB 211830 METAR WAGB 211830Z 00000KT 4500 DZ BKN010 26/24 Q1010=  
21-Sep-2023 SAID35 WAGB 211900 METAR WAGB 211900Z 10004KT 4500 BKN010 26/24 Q1010=  
21-Sep-2023 SAID35 WAGB 211930 METAR WAGB 211930Z 10004KT 4500 BKN010 26/24 Q1010=  
21-Sep-2023 SAID35 WAGB 212000 METAR WAGB 212000Z 00000KT 4000 BKN010 25/24 Q1010=  
21-Sep-2023 SAID35 WAGB 212030 METAR WAGB 212030Z 00000KT 4000 BR BKN010 25/24 Q1010=  
21-Sep-2023 SAID35 WAGB 212100 METAR WAGB 212100Z 00000KT 4000 BR BKN010 25/24 Q1010=  
21-Sep-2023 SAID35 WAGB 212130 METAR WAGB 212130Z 00000KT 4000 BR BKN010 25/24 Q1010=  
21-Sep-2023 SAID35 WAGB 212200 METAR WAGB 212200Z 00000KT 4500 BR BKN010 25/24 Q1010=  
21-Sep-2023 SAID35 WAGB 212230 METAR WAGB 212230Z 00000KT 4500 BR BKN010 25/24 Q1010=  
21-Sep-2023 SAID35 WAGB 212300 METAR WAGB 212300Z 00000KT 5000 BR BKN010 25/24 Q1011=  
21-Sep-2023 SAID35 WAGB 212330 METAR WAGB 212330Z 00000KT 5000 BR BKN010 25/24 Q1011=  
22-Sep-2023 SAID35 WAGB 220000 METAR WAGB 220000Z VRB02KT 5000 HZ BKN010 26/24 Q1012 NOSIG=  
22-Sep-2023 SAID35 WAGB 220030 METAR WAGB 220030Z 00000KT 5000 HZ BKN010 26/24 Q1012 NOSIG=  
22-Sep-2023 SAID35 WAGB 220100 METAR WAGB 220100Z 27004KT 7000 BKN010 28/23 Q1012 NOSIG=  
22-Sep-2023 SAID35 WAGB 220130 METAR WAGB 220130Z VRB02KT 7000 BKN010 27/23 Q1012 NOSIG=  
22-Sep-2023 SAID35 WAGB 220200 METAR WAGB 220200Z VRB02KT 8000 BKN010 28/23 Q1012 NOSIG=  
22-Sep-2023 SAID35 WAGB 220230 METAR WAGB 220230Z 00000KT 8000 BKN010 28/23 Q1012 NOSIG=  
22-Sep-2023 SAID35 WAGB 220300 METAR WAGB 220300Z 00000KT 8000 BKN011 29/23 Q1012 NOSIG=  
22-Sep-2023 SAID35 WAGB 220330 METAR WAGB 220330Z VRB02KT 8000 BKN011 29/23 Q1011 NOSIG=  
22-Sep-2023 SAID35 WAGB 220330 CCA METAR WAGB 220330Z VRB02KT 8000 BKN011 30/23 Q1011 NOSIG=  
22-Sep-2023 SAID35 WAGB 220400 METAR WAGB 220400Z 25003KT 8000 BKN011 31/24 Q1010 NOSIG=  
22-Sep-2023 SAID35 WAGB 220430 METAR WAGB 220430Z VRB02KT 8000 BKN011 30/23 Q1010 NOSIG=  
22-Sep-2023 SAID35 WAGB 220500 METAR WAGB 220500Z 13003KT 8000 BKN012 31/23 Q1009 NOSIG=  
22-Sep-2023 SAID35 WAGB 220530 METAR WAGB 220530Z 07002KT 8000 BKN012 31/23 Q1009 NOSIG=  
22-Sep-2023 SAID35 WAGB 220600 METAR WAGB 220600Z 00000KT 8000 BKN012 32/22 Q1008 NOSIG=  
22-Sep-2023 SAID35 WAGB 220630 METAR WAGB 220630Z 19004KT 8000 BKN012 32/22 Q1008 NOSIG=  
22-Sep-2023 SAID35 WAGB 220700 METAR WAGB 220700Z 25004KT 8000 BKN012 32/21 Q1008 NOSIG=  
22-Sep-2023 SAID35 WAGB 220730 METAR WAGB 220730Z 00000KT 4500 FU SCT013 32/24 Q1008 NOSIG=  
22-Sep-2023 SAID35 WAGB 220800 METAR WAGB 220800Z 25003KT 4500 FU SCT013 30/24 Q1008 NOSIG=  
22-Sep-2023 SAID35 WAGB 220830 METAR WAGB 220830Z 24004KT 4500 FU SCT013 30/24 Q1008 NOSIG=  
22-Sep-2023 SAID35 WAGB 220900 METAR WAGB 220900Z 25003KT 5000 FU FEW013 31/24 Q1008=  
22-Sep-2023 SAID35 WAGB 220930 METAR WAGB 220930Z 00000KT 5000 FU FEW013 31/24 Q1008=  
22-Sep-2023 SAID35 WAGB 221000 METAR WAGB 221000Z 00000KT 5000 FU FEW013 31/25 Q1008=  
22-Sep-2023 SAID35 WAGB 221030 METAR WAGB 221030Z 00000KT 5000 FU FEW013 30/24 Q1009=  
22-Sep-2023 SAID35 WAGB 221100 METAR WAGB 221100Z 00000KT 4500 FU FEW013 30/24 Q1009=  
22-Sep-2023 SAID35 WAGB 221130 METAR WAGB 221130Z 00000KT 4500 FU FEW013 28/24 Q1009=  
22-Sep-2023 SAID35 WAGB 221200 METAR WAGB 221200Z 00000KT 4000 FU FEW013 28/26 Q1010 NOSIG=  
22-Sep-2023 SAID35 WAGB 221230 METAR WAGB 221230Z 00000KT 4000 FU FEW013 28/26 Q1010 NOSIG=  
22-Sep-2023 SAID35 WAGB 221300 METAR WAGB 221300Z 00000KT 2000 FU FEW012 27/25 Q1010 NOSIG=  
22-Sep-2023 SAID35 WAGB 221330 METAR WAGB 221330Z 00000KT 2000 FU FEW012 27/25 Q1011 NOSIG=  
22-Sep-2023 SAID35 WAGB 221400 METAR WAGB 221400Z 00000KT 3000 FU FEW012 26/25 Q1011 NOSIG=  
22-Sep-2023 SAID35 WAGB 221430 METAR WAGB 221430Z 00000KT 3000 FU FEW012 26/25 Q1011 NOSIG=  
22-Sep-2023 SAID35 WAGB 221500 METAR WAGB 221500Z 00000KT 3000 FU FEW012 25/24 Q1012 NOSIG=  
22-Sep-2023 SAID35 WAGB 221530 METAR WAGB 221530Z 00000KT 3000 FU FEW012 25/24 Q1012 NOSIG=  
22-Sep-2023 SAID35 WAGB 221600 METAR WAGB 221600Z 15002KT 3000 FU FEW012 25/23 Q1012 NOSIG=  
22-Sep-2023 SAID35 WAGB 221630 METAR WAGB 221630Z 00000KT 3000 FU FEW012 25/23 Q1012 NOSIG=  
22-Sep-2023 SAID35 WAGB 221700 METAR WAGB 221700Z 00000KT 3000 FU SCT012 25/23 Q1011 NOSIG=  
22-Sep-2023 SAID35 WAGB 221730 METAR WAGB 221730Z 00000KT 3000 FU SCT012 25/23 Q1011 NOSIG=  
22-Sep-2023 SAID35 WAGB 221800 METAR WAGB 221800Z 00000KT 3000 FU BKN011 24/23 Q1011 NOSIG=  
22-Sep-2023 SAID35 WAGB 221830 METAR WAGB 221830Z 00000KT 3000 FU BKN011 24/23 Q1011 NOSIG=  
22-Sep-2023 SAID35 WAGB 221900 METAR WAGB 221900Z 05002KT 3000 FU BKN010 24/23 Q1010 NOSIG=  
22-Sep-2023 SAID35 WAGB 221930 METAR WAGB 221930Z 00000KT 3000 FU BKN010 24/23 Q1010 NOSIG=  
22-Sep-2023 SAID35 WAGB 222000 METAR WAGB 222000Z 00000KT 3000 FU BKN010 24/23 Q1011 NOSIG=  
22-Sep-2023 SAID35 WAGB 222030 METAR WAGB 222030Z 00000KT 3000 FU BKN010 24/23 Q1011 NOSIG=  
22-Sep-2023 SAID35 WAGB 222100 METAR WAGB 222100Z 00000KT 2000 FU BKN010 24/23 Q1011 NOSIG=  
22-Sep-2023 SAID35 WAGB 222130 METAR WAGB 222130Z 00000KT 2000 FU BKN010 24/23 Q1011 NOSIG=  
22-Sep-2023 SAID35 WAGB 222200 METAR WAGB 222200Z 00000KT 2000 FU FEW009 23/23 Q1011 NOSIG=  
22-Sep-2023 SAID35 WAGB 222230 METAR WAGB 222230Z 00000KT 2000 FU FEW009 23/23 Q1012 NOSIG=  
22-Sep-2023 SAID35 WAGB 222300 METAR WAGB 222300Z 00000KT 2000 FU FEW010 23/22 Q1012 NOSIG=  
22-Sep-2023 SAID35 WAGB 222330 METAR WAGB 222330Z 00000KT 2000 FU FEW010 23/22 Q1012 NOSIG=  
23-Sep-2023 SAID35 WAGB 230000 METAR WAGB 230000Z 00000KT 5000 HZ SCT008 25/23 Q1013 NOSIG=  
23-Sep-2023 SAID35 WAGB 230030 METAR WAGB 230030Z 00000KT 5000 HZ SCT008 26/23 Q1013 NOSIG=  
23-Sep-2023 SAID35 WAGB 230100 METAR WAGB 230100Z 23003KT 5000 HZ SCT008 26/23 Q1013 NOSIG=  
23-Sep-2023 SAID35 WAGB 230130 METAR WAGB 230130Z 23003KT 6000 HZ FEW009 27/23 Q1013 NOSIG=  
23-Sep-2023 SAID35 WAGB 230200 METAR WAGB 230200Z 00000KT 6000 SCT009 28/23 Q1013 NOSIG=  
23-Sep-2023 SAID35 WAGB 230230 METAR WAGB 230230Z 00000KT 6000 SCT010 29/22 Q1012 NOSIG=  
23-Sep-2023 SAID35 WAGB 230300 METAR WAGB 230300Z 25006KT 6000 FEW009 29/23 Q1011 NOSIG=  
23-Sep-2023 SAID35 WAGB 230330 METAR WAGB 230330Z 29006KT 7000 FEW011 30/23 Q1011 NOSIG=  
23-Sep-2023 SAID35 WAGB 230400 METAR WAGB 230400Z 20004KT 8000 FEW012 31/23 Q1010 NOSIG=  
23-Sep-2023 SAID35 WAGB 230430 METAR WAGB 230430Z 19005KT 8000 FEW012 31/23 Q1010 NOSIG=  
23-Sep-2023 SAID35 WAGB 230500 METAR WAGB 230500Z 31002KT 8000 FEW012 32/23 Q1009 NOSIG=  
23-Sep-2023 SAID35 WAGB 230530 METAR WAGB 230530Z 27005KT 8000 FEW013 32/20 Q1009 NOSIG=  
23-Sep-2023 SAID35 WAGB 230600 METAR WAGB 230600Z 27003KT 8000 FEW013 32/20 Q1009 NOSIG=  
23-Sep-2023 SAID35 WAGB 230630 METAR WAGB 230630Z 01003KT 8000 FEW013 32/20 Q1008 NOSIG=  
23-Sep-2023 SAID35 WAGB 230630 METAR WAGB 230700Z 27003KT 8000 FEW013 32/20 Q1008 NOSIG=  
23-Sep-2023 SAID35 WAGB 230700 METAR WAGB 230700Z 27003KT 8000 FEW013 32/20 Q1008 NOSIG=  
23-Sep-2023 SAID35 WAGB 230730 METAR WAGB 230730Z 17003KT 8000 FEW0134 32/21 Q1007 NOSIG=  
23-Sep-2023 SAID35 WAGB 230730 CCA METAR COR WAGB 230730Z 17003KT 8000 FEW014 32/21 Q1007 NOSIG=  
23-Sep-2023 SAID35 WAGB 230800 METAR WAGB 230800Z 19004KT 8000 FEW014 31/21 Q1007 NOSIG=  
23-Sep-2023 SAID35 WAGB 230830 METAR WAGB 230830Z 18003KT 8000 FEW014 31/21 Q1007 NOSIG=  
23-Sep-2023 SAID35 WAGB 230900 METAR WAGB 230900Z 00000KT 5000 FU FEW013 31/23 Q1008=  
23-Sep-2023 SAID35 WAGB 230930 METAR WAGB 230930Z 00000KT 5000 FU FEW013 31/23 Q1008=  
23-Sep-2023 SAID35 WAGB 231000 METAR WAGB 231000Z 00000KT 7000 FEW013 30/23 Q1008 NOSIG=  
23-Sep-2023 SAID35 WAGB 231030 METAR WAGB 231030Z 00000KT 7000 FEW013 30/23 Q1008 NOSIG=  
23-Sep-2023 SAID35 WAGB 231100 METAR WAGB 231100Z 00000KT 7000 FEW013 29/24 Q1009 NOSIG=  
23-Sep-2023 SAID35 WAGB 231130 METAR WAGB 231130Z 00000KT 7000 FEW013 28/23 Q1009 NOSIG=  
23-Sep-2023 SAID35 WAGB 231200 METAR WAGB 231200Z 00000KT 7000 FEW012 27/24 Q1010=  
23-Sep-2023 SAID35 WAGB 231230 METAR WAGB 231230Z 00000KT 7000 FEW012 27/24 Q1010=  
23-Sep-2023 SAID35 WAGB 231300 METAR WAGB 231300Z 00000KT 7000 FEW012 24/24 Q1010=  
23-Sep-2023 SAID35 WAGB 231300 CCA METAR WAGB 231300Z 00000KT 7000 FEW012 27/24 Q1010=  
23-Sep-2023 SAID35 WAGB 231330 METAR WAGB 231330Z 00000KT 7000 FEW012 27/24 Q1010=  
23-Sep-2023 SAID35 WAGB 231400 METAR WAGB 231400Z 00000KT 7000 FEW012 27/25 Q1010=  
23-Sep-2023 SAID35 WAGB 231430 METAR WAGB 231430Z 00000KT 7000 FEW012 27/25 Q1010=  
23-Sep-2023 SAID35 WAGB 231500 METAR WAGB 231500Z 00000KT 7000 FEW012 26/24 Q1011=  
23-Sep-2023 SAID35 WAGB 231530 METAR WAGB 231530Z 00000KT 7000 FEW012 26/24 Q1011=  
23-Sep-2023 SAID35 WAGB 231600 METAR WAGB 231600Z 00000KT 6000 FEW012 26/24 Q1011=  
23-Sep-2023 SAID35 WAGB 231630 METAR WAGB 231630Z 00000KT 6000 FEW012 26/24 Q1011=  
23-Sep-2023 SAID35 WAGB 231700 METAR WAGB 231700Z 00000KT 6000 FEW011 26/24 Q1011=  
23-Sep-2023 SAID35 WAGB 231730 METAR WAGB 231730Z 00000KT 6000 FEW011 26/24 Q1011=  
23-Sep-2023 SAID35 WAGB 231800 METAR WAGB 231800Z 00000KT 6000 FEW011 26/24 Q1010=  
23-Sep-2023 SAID35 WAGB 231830 METAR WAGB 231830Z 00000KT 6000 FEW011 26/24 Q1010=  
23-Sep-2023 SAID35 WAGB 231900 METAR WAGB 231900Z 00000KT 5000 HZ FEW011 26/24 Q1010=  
23-Sep-2023 SAID35 WAGB 231930 METAR WAGB 231930Z 00000KT 5000 HZ FEW011 26/24 Q1010=  
23-Sep-2023 SAID35 WAGB 232000 METAR WAGB 232000Z 00000KT 5000 HZ FEW011 25/24 Q1010=  
23-Sep-2023 SAID35 WAGB 232030 METAR WAGB 232030Z 00000KT 5000 HZ FEW011 25/24 Q1010=  
23-Sep-2023 SAID35 WAGB 232100 METAR WAGB 232100Z 00000KT 5000 HZ FEW011 25/24 Q1010=  
23-Sep-2023 SAID35 WAGB 232130 METAR WAGB 232130Z 00000KT 5000 HZ FEW011 25/24 Q1010=  
23-Sep-2023 SAID35 WAGB 232200 METAR WAGB 232200Z 00000KT 5000 HZ FEW011 26/24 Q1010=  
23-Sep-2023 SAID35 WAGB 232230 METAR WAGB 232230Z 00000KT 5000 HZ FEW011 26/24 Q1010=  
23-Sep-2023 SAID35 WAGB 232300 METAR WAGB 232300Z 00000KT 5000 HZ FEW011 26/24 Q1011=  
23-Sep-2023 SAID35 WAGB 232330 METAR WAGB 232330Z 00000KT 5000 HZ FEW011 26/24 Q1011=  
24-Sep-2023 SAID35 WAGB 240000 METAR WAGB 240000Z 00000KT 5000 HZ FEW011 24/23 Q1012=  
24-Sep-2023 SAID35 WAGB 240030 METAR WAGB 240030Z 00000KT 5000 HZ FEW011 26/23 Q1012=  
24-Sep-2023 SAID35 WAGB 240100 METAR WAGB 240100Z 27003KT 4000 FU FEW010 27/23 Q1012 NOSIG=  
24-Sep-2023 SAID35 WAGB 240130 METAR WAGB 240130Z 26002KT 4000 FU FEW010 28/24 Q1012 NOSIG=  
24-Sep-2023 SAID35 WAGB 240200 METAR WAGB 240200Z 00000KT 5000 FU FEW011 30/23 Q1011 NOSIG=  
24-Sep-2023 SAID35 WAGB 240230 METAR WAGB 240230Z 02004KT 6000 FU FEW011 31/24 Q1011 NOSIG=  
24-Sep-2023 SAID35 WAGB 240300 METAR WAGB 240300Z 00000KT 6000 FU FEW011 32/23 Q1011 NOSIG=  
24-Sep-2023 SAID35 WAGB 240330 METAR WAGB 240330Z 12003KT 7000 SCT012 31/23 Q1010 NOSIG=  
24-Sep-2023 SAID35 WAGB 240400 METAR WAGB 240400Z 00000KT 7000 SCT012 33/23 Q1009 NOSIG=  
24-Sep-2023 SAID35 WAGB 240430 METAR WAGB 240430Z 00000KT 7000 SCT012 32/22 Q1009 NOSIG=  
24-Sep-2023 SAID35 WAGB 240500 METAR WAGB 240500Z 11003KT 8000 SCT013 33/22 Q1008 NOSIG=  
24-Sep-2023 SAID35 WAGB 240530 METAR WAGB 240530Z 23004KT 8000 SCT013 33/21 Q1008 NOSIG=  
24-Sep-2023 SAID35 WAGB 240600 METAR WAGB 240600Z 22005KT 8000 SCT013 34/21 Q1007 NOSIG=  
24-Sep-2023 SAID35 WAGB 240630 METAR WAGB 240630Z 22006KT 8000 SCT014 34/21 Q1007 NOSIG=  
24-Sep-2023 SAID35 WAGB 240700 METAR WAGB 240700Z 29003KT 8000 SCT014 34/21 Q1006 NOSIG=  
24-Sep-2023 SAID35 WAGB 240730 METAR WAGB 240730Z 24003KT 8000 SCT014 34/21 Q1006 NOSIG=  
24-Sep-2023 SAID35 WAGB 240800 METAR WAGB 240800Z 23005KT 8000 FEW014 34/21 Q1006 NOSIG=  
24-Sep-2023 SAID35 WAGB 240900 METAR WAGB 240900Z 27005KT 6000 FEW014 34/23 Q1006=  
24-Sep-2023 SAID35 WAGB 240930 METAR WAGB 240930Z 26003KT 5000 FU FEW014 33/23 Q1006 NOSIG=  
24-Sep-2023 SAID35 WAGB 241000 METAR WAGB 241000Z 27003KT 5000 FU FEW014 33/24 Q1007 NOSIG=  
24-Sep-2023 SAID35 WAGB 241030 METAR WAGB 241030Z VRB02KT 5000 FU FEW014 32/24 Q1007 NOSIG=  
24-Sep-2023 SAID35 WAGB 241100 METAR WAGB 241100Z 00000KT 5000 FU FEW014 31/25 Q1007 NOSIG=  
24-Sep-2023 SAID35 WAGB 241130 METAR WAGB 241130Z 00000KT 5000 FU FEW014 30/25 Q1008 NOSIG=  
24-Sep-2023 SAID35 WAGB 241200 METAR WAGB 241200Z 00000KT 5000 FU FEW014 30/26 Q1008=  
24-Sep-2023 SAID35 WAGB 241230 METAR WAGB 241230Z 00000KT 5000 FU FEW014 30/26 Q1009=  
24-Sep-2023 SAID35 WAGB 241300 METAR WAGB 241300Z 00000KT 5000 FU FEW014 29/26 Q1009=  
24-Sep-2023 SAID35 WAGB 241330 METAR WAGB 241330Z 00000KT 5000 FU FEW014 29/26 Q1009=  
24-Sep-2023 SAID35 WAGB 241400 METAR WAGB 241400Z 00000KT 5000 FU FEW014 28/25 Q1010=  
24-Sep-2023 SAID35 WAGB 241430 METAR WAGB 241430Z 00000KT 5000 FU FEW014 28/25 Q1010=  
24-Sep-2023 SAID35 WAGB 241500 METAR WAGB 241500Z 00000KT 5000 FU SCT013 27/25 Q1010=  
24-Sep-2023 SAID35 WAGB 241530 METAR WAGB 241530Z 00000KT 5000 FU SCT013 27/25 Q1010=  
24-Sep-2023 SAID35 WAGB 241600 METAR WAGB 241600Z 00000KT 5000 FU SCT013 27/25 Q1010=  
24-Sep-2023 SAID35 WAGB 241630 METAR WAGB 241630Z 00000KT 5000 FU SCT013 27/25 Q1010=  
24-Sep-2023 SAID35 WAGB 241700 METAR WAGB 241700Z 00000KT 5000 FU SCT013 27/25 Q1010=  
24-Sep-2023 SAID35 WAGB 241730 METAR WAGB 241730Z 00000KT 5000 FU SCT013 27/25 Q1010=  
24-Sep-2023 SAID35 WAGB 241800 METAR WAGB 241800Z 00000KT 5000 FU BKN010 26/25 Q1010=  
24-Sep-2023 SAID35 WAGB 241830 METAR WAGB 241830Z 00000KT 5000 VCSH BKN010 26/25 Q1010=  
24-Sep-2023 SAID35 WAGB 241900 METAR WAGB 241900Z 00000KT 5000 FU BKN009 26/25 Q1009=  
24-Sep-2023 SAID35 WAGB 241930 METAR WAGB 241930Z 00000KT 5000 FU BKN009 26/25 Q1009=  
24-Sep-2023 SAID35 WAGB 242000 METAR WAGB 242000Z 00000KT 5000 FU BKN009 26/25 Q1009=  
24-Sep-2023 SAID35 WAGB 242030 METAR WAGB 242030Z 00000KT 5000 FU BKN009 26/25 Q1010=  
24-Sep-2023 SAID35 WAGB 242100 METAR WAGB 242100Z 00000KT 5000 FU BKN009 26/24 Q1010=  
24-Sep-2023 SAID35 WAGB 242130 METAR WAGB 242130Z 00000KT 5000 FU BKN009 26/24 Q1010=  
24-Sep-2023 SAID35 WAGB 242200 METAR WAGB 242200Z 00000KT 3000 FU BKN009 25/24 Q1010=  
24-Sep-2023 SAID35 WAGB 242230 METAR WAGB 242230Z 00000KT 2000 FU BKN009 25/24 Q1010=  
24-Sep-2023 SAID35 WAGB 242300 METAR WAGB 242300Z 00000KT 2000 FU BKN009 25/24 Q1011=  
24-Sep-2023 SAID35 WAGB 242330 METAR WAGB 242330Z 00000KT 2000 FU BKN009 25/24 Q1011=  
25-Sep-2023 SAID35 WAGB 250000 METAR WAGB 250000Z 27004KT 2500 FU FEW009 26/25 Q1011 NOSIG=  
25-Sep-2023 SAID35 WAGB 250030 METAR WAGB 250030Z 26003KT 2500 FU FEW009 27/25 Q1012 NOSIG=  
25-Sep-2023 SAID35 WAGB 250100 METAR WAGB 250100Z 26004KT 2500 FU SCT009 27/24 Q1012 NOSIG=  
25-Sep-2023 SAID35 WAGB 250130 METAR WAGB 250130Z 27003KT 2500 FU SCT009 28/24 Q1012 NOSIG=  
25-Sep-2023 SAID35 WAGB 250200 METAR WAGB 250200Z 30002KT 2500 FU SCT010 29/24 Q1012 NOSIG=  
25-Sep-2023 SAID35 WAGB 250230 METAR WAGB 250230Z 28003KT 3000 FU SCT010 30/24 Q1011 NOSIG=  
25-Sep-2023 SAID35 WAGB 250300 METAR WAGB 250300Z 00000KT 3000 FU SCT010 30/24 Q1011 NOSIG=  
25-Sep-2023 SAID35 WAGB 250330 METAR WAGB 250330Z 21003KT 3000 FU SCT011 31/24 Q1010 NOSIG=  
25-Sep-2023 SAID35 WAGB 250400 METAR WAGB 250400Z 22004KT 4000 FU SCT012 31/24 Q1010 NOSIG=  
25-Sep-2023 SAID35 WAGB 250430 METAR WAGB 250430Z 20004KT 4000 FU SCT012 32/25 Q1009 BECMG TL0600 7000=  
25-Sep-2023 SAID35 WAGB 250500 METAR WAGB 250500Z 23003KT 4000 FU SCT012 31/24 Q1009 NOSIG=  
25-Sep-2023 SAID35 WAGB 250530 METAR WAGB 250530Z 33003KT 4000 FU SCT012 33/24 Q1008 NOSIG=  
25-Sep-2023 SAID35 WAGB 250600 METAR WAGB 250600Z 24005KT 4500 FU SCT012 33/24 Q1008 NOSIG=  
25-Sep-2023 SAID35 WAGB 250630 METAR WAGB 250630Z 00000KT 5000 FU SCT013 33/25 Q1007 NOSIG=  
25-Sep-2023 SAID35 WAGB 250700 METAR WAGB 250700Z 23003KT 5000 FU SCT013 33/24 Q1007 NOSIG=  
25-Sep-2023 SAID35 WAGB 250730 METAR WAGB 250730Z 22004KT 5000 FU SCT013 33/23 Q1007 NOSIG=  
25-Sep-2023 SAID35 WAGB 250800 METAR WAGB 250800Z 24003KT 5000 FU SCT013 33/24 Q1006 NOSIG=  
25-Sep-2023 SAID35 WAGB 250830 METAR WAGB 250830Z 18003KT 6000 FU SCT013 33/24 Q1006 NOSIG=  
25-Sep-2023 SAID35 WAGB 250900 METAR WAGB 250900Z 19002KT 5000 FU FEW014 33/25 Q1007=  
25-Sep-2023 SAID35 WAGB 250930 METAR WAGB 250930Z 00000KT 5000 FU 33/24 Q1007=  
25-Sep-2023 SAID35 WAGB 251000 METAR WAGB 251000Z 00000KT 5000 FU FEW014 31/25 Q1008=  
25-Sep-2023 SAID35 WAGB 251030 METAR WAGB 251030Z 00000KT 5000 FU FEW012 30/25 Q1008=  
25-Sep-2023 SAID35 WAGB 251100 METAR WAGB 251100Z 00000KT 5000 FU FEW012 30/26 Q1008=  
25-Sep-2023 SAID35 WAGB 251130 METAR WAGB 251130Z 00000KT 5000 FU FEW012 29/24 Q1008=  
25-Sep-2023 SAID35 WAGB 251200 METAR WAGB 251200Z 00000KT 5000 FU FEW013 29/26 Q1009=  
25-Sep-2023 SAID35 WAGB 251230 METAR WAGB 251230Z 00000KT 5000 FU FEW013 29/26 Q1009=  
25-Sep-2023 SAID35 WAGB 251300 METAR WAGB 251300Z 00000KT 5000 FU FEW013 28/26 Q1009=  
25-Sep-2023 SAID35 WAGB 251330 METAR WAGB 251330Z 00000KT 5000 FU FEW013 28/26 Q1009=  
25-Sep-2023 SAID35 WAGB 251400 METAR WAGB 251400Z 00000KT 5000 FU FEW012 27/26 Q1010=  
25-Sep-2023 SAID35 WAGB 251430 METAR WAGB 251430Z 00000KT 5000 FU FEW012 27/26 Q1010=  
25-Sep-2023 SAID35 WAGB 251500 METAR WAGB 251500Z 00000KT 5000 FU SCT012 27/25 Q1010=  
25-Sep-2023 SAID35 WAGB 251530 METAR WAGB 251530Z 00000KT 5000 FU SCT012 27/25 Q1010=  
25-Sep-2023 SAID35 WAGB 251600 METAR WAGB 251600Z 00000KT 5000 FU SCT012 27/25 Q1010=  
25-Sep-2023 SAID35 WAGB 251630 METAR WAGB 251630Z 00000KT 5000 FU SCT012 27/25 Q1010=  
25-Sep-2023 SAID35 WAGB 251700 METAR WAGB 251700Z 00000KT 5000 FU SCT012 27/25 Q1009=  
25-Sep-2023 SAID35 WAGB 251730 METAR WAGB 251730Z 00000KT 5000 FU SCT012 27/25 Q1009=  
25-Sep-2023 SAID35 WAGB 251800 METAR WAGB 251800Z 00000KT 4000 FU SCT011 26/25 Q1009=  
25-Sep-2023 SAID35 WAGB 251830 METAR WAGB 251830Z 00000KT 4000 FU SCT011 26/25 Q1009=  
25-Sep-2023 SAID35 WAGB 251900 METAR WAGB 251900Z 00000KT 4000 FU SCT011 26/25 Q1009=  
25-Sep-2023 SAID35 WAGB 251930 METAR WAGB 251930Z 00000KT 4000 FU SCT011 26/25 Q1009=  
25-Sep-2023 SAID35 WAGB 252000 METAR WAGB 252000Z 00000KT 4000 FU SCT011 25/24 Q1009=  
25-Sep-2023 SAID35 WAGB 252030 METAR WAGB 252030Z 00000KT 4000 FU SCT011 25/24 Q1009=  
25-Sep-2023 SAID35 WAGB 252100 METAR WAGB 252100Z 00000KT 3000 FU SCT011 25/24 Q1010=  
25-Sep-2023 SAID35 WAGB 252130 METAR WAGB 252130Z 00000KT 3000 FU SCT011 25/24 Q1010=  
25-Sep-2023 SAID35 WAGB 252200 METAR WAGB 252200Z 00000KT 3000 FU BKN010 25/24 Q1010=  
25-Sep-2023 SAID35 WAGB 252230 METAR WAGB 252230Z 00000KT 3000 FU BKN010 25/24 Q1010=  
25-Sep-2023 SAID35 WAGB 252300 METAR WAGB 252300Z 00000KT 1500 FU BKN010 26/25 Q1011=  
25-Sep-2023 SAID35 WAGB 252330 METAR WAGB 252330Z 00000KT 1500 FU BKN010 26/25 Q1011=  
26-Sep-2023 SAID35 WAGB 260000 METAR WAGB 260000Z 00000KT 2000 FU SCT010 27/25 Q1011 NOSIG=  
26-Sep-2023 SAID35 WAGB 260030 METAR WAGB 260030Z 31004KT 2500 FU SCT009 27/25 Q1011 NOSIG=  
26-Sep-2023 SAID35 WAGB 260100 METAR WAGB 260100Z 35005KT 2500 FU SCT009 28/24 Q1011 NOSIG=  
26-Sep-2023 SAID35 WAGB 260130 METAR WAGB 260130Z 34006KT 2500 FU SCT010 29/25 Q1012 NOSIG=  
26-Sep-2023 SAID35 WAGB 260200 METAR WAGB 260200Z 33005KT 3000 FU SCT010 30/24 Q1011 NOSIG=  
26-Sep-2023 SAID35 WAGB 260230 METAR WAGB 260230Z 01003KT 3000 FU SCT010 31/24 Q1011 NOSIG=  
26-Sep-2023 SAID35 WAGB 260300 METAR WAGB 260300Z 00000KT 3000 FU SCT011 32/23 Q1011 NOSIG=  
26-Sep-2023 SAID35 WAGB 260330 METAR WAGB 260330Z 05003KT 3700 FU SCT011 31/22 Q1010 NOSIG=  
26-Sep-2023 SAID35 WAGB 260400 METAR WAGB 260400Z 31003KT 4000 FU SCT012 32/22 Q1010 NOSIG=  
26-Sep-2023 SAID35 WAGB 260430 METAR WAGB 260430Z 18003KT 4000 FU SCT012 32/22 Q1009 NOSIG=  
26-Sep-2023 SAID35 WAGB 260500 METAR WAGB 260500Z 33003KT 5000 FU SCT012 32/22 Q1008 NOSIG=  
26-Sep-2023 SAID35 WAGB 260530 METAR WAGB 260530Z 32002KT 5000 FU SCT013 34/22 Q1008 NOSIG=  
26-Sep-2023 SAID35 WAGB 260600 METAR WAGB 260600Z 27006KT 6000 FU SCT013 33/21 Q1008 NOSIG=  
26-Sep-2023 SAID35 WAGB 260630 METAR WAGB 260630Z 31003KT 6000 FU SCT013 32/21 Q1007 NOSIG=  
26-Sep-2023 SAID35 WAGB 260700 METAR WAGB 260700Z 01004KT 6000 FU SCT013 33/21 Q1007 NOSIG=  
26-Sep-2023 SAID35 WAGB 260730 METAR WAGB 260730Z 01004KT 6000 SCT013 34/21 Q1007 NOSIG=  
26-Sep-2023 SAID35 WAGB 260800 METAR WAGB 260800Z 00000KT 6000 SCT013 34/22 Q1007 NOSIG=  
26-Sep-2023 SAID35 WAGB 260830 METAR WAGB 260830Z 00000KT 4500 FU FEW013 34/22 Q1007 NOSIG=  
26-Sep-2023 SAID35 WAGB 260900 METAR WAGB 260900Z 00000KT 4000 FU FEW013 34/23 Q1007 NOSIG=  
26-Sep-2023 SAID35 WAGB 260930 METAR WAGB 260930Z 00000KT 4000 FU FEW013 33/23 Q1007 NOSIG=  
26-Sep-2023 SAID35 WAGB 261000 METAR WAGB 261000Z 00000KT 3500 FU FEW013 32/24 Q1007 NOSIG=  
26-Sep-2023 SAID35 WAGB 261030 METAR WAGB 261030Z 00000KT 3500 FU FEW013 31/24 Q1007 NOSIG=  
26-Sep-2023 SAID35 WAGB 261100 METAR WAGB 261100Z 00000KT 3000 FU FEW013 30/25 Q1008 NOSIG=  
26-Sep-2023 SAID35 WAGB 261130 METAR WAGB 261130Z 00000KT 3000 FU FEW013 29/25 Q1008 NOSIG=  
26-Sep-2023 SAID35 WAGB 261200 METAR WAGB 261200Z 00000KT 2500 FU FEW013 29/25 Q1009=  
26-Sep-2023 SAID35 WAGB 261230 METAR WAGB 261230Z 00000KT 2500 FU FEW013 29/25 Q1009=  
26-Sep-2023 SAID35 WAGB 261300 METAR WAGB 261300Z 00000KT 2500 FU FEW013 28/25 Q1010=  
26-Sep-2023 SAID35 WAGB 261330 METAR WAGB 261330Z 00000KT 2500 FU FEW013 28/25 Q1010=  
26-Sep-2023 SAID35 WAGB 261400 METAR WAGB 261400Z 00000KT 1500 FU NSC 28/24 Q1010=  
26-Sep-2023 SAID35 WAGB 261430 METAR WAGB 261430Z 00000KT 1100 FU NSC 27/24 Q1011=  
26-Sep-2023 SAID35 WAGB 261500 METAR WAGB 261500Z 18002KT 1500 FU SCT012 27/24 Q1011=  
26-Sep-2023 SAID35 WAGB 261530 METAR WAGB 261530Z 21002KT 1800 FU SCT012 27/24 Q1011=  
26-Sep-2023 SAID35 WAGB 261600 METAR WAGB 261600Z 23002KT 2000 FU BKN012 24/23 Q1010=  
26-Sep-2023 SAID35 WAGB 261630 METAR WAGB 261630Z 21003KT 2000 FU BKN012 24/23 Q1010=  
26-Sep-2023 SAID35 WAGB 261700 METAR WAGB 261700Z 00000KT 2000 FU SCT011 26/25 Q1010=  
26-Sep-2023 SAID35 WAGB 261730 METAR WAGB 261730Z 00000KT 2000 FU SCT011 26/25 Q1010=  
26-Sep-2023 SAID35 WAGB 261800 METAR WAGB 261800Z 00000KT 1800 FU BKN011 26/25 Q1010=  
26-Sep-2023 SAID35 WAGB 261830 METAR WAGB 261830Z 00000KT 1800 FU BKN011 26/25 Q1010=  
26-Sep-2023 SAID35 WAGB 261900 METAR WAGB 261900Z 00000KT 1500 FU SCT010 26/24 Q1009=  
26-Sep-2023 SAID35 WAGB 261930 METAR WAGB 261930Z 00000KT 1500 FU SCT010 26/24 Q1009=  
26-Sep-2023 SAID35 WAGB 262000 METAR WAGB 262000Z 00000KT 1500 FU SCT010 26/24 Q1010=  
26-Sep-2023 SAID35 WAGB 262030 METAR WAGB 262030Z 00000KT 1300 FU SCT010 26/24 Q1010=  
26-Sep-2023 SAID35 WAGB 262100 METAR WAGB 262100Z 00000KT 1000 FU SCT010 26/24 Q1010=  
26-Sep-2023 SAID35 WAGB 262130 METAR WAGB 262130Z 00000KT 1000 FU SCT010 26/24 Q1010=  
26-Sep-2023 SAID35 WAGB 262200 METAR WAGB 262200Z 00000KT 1500 FU SCT010 26/24 Q1011=  
26-Sep-2023 SAID35 WAGB 262230 METAR WAGB 262230Z 00000KT 1500 FU SCT010 26/24 Q1011=  
26-Sep-2023 SAID35 WAGB 262300 METAR WAGB 262300Z 00000KT 2000 FU SCT009 26/24 Q1011=  
26-Sep-2023 SAID35 WAGB 262330 METAR WAGB 262330Z 00000KT 2000 FU SCT009 26/24 Q1011=  
27-Sep-2023 SAID35 WAGB 270000 METAR WAGB 270000Z 03003KT 3000 FU SCT009 27/23 Q1012 NOSIG=  
27-Sep-2023 SAID35 WAGB 270030 METAR WAGB 270030Z 33002KT 3000 FU SCT009 28/22 Q1012 NOSIG=  
27-Sep-2023 SAID35 WAGB 270100 METAR WAGB 270100Z 32002KT 3000 FU FEW010 28/21 Q1012 NOSIG=  
27-Sep-2023 SAID35 WAGB 270130 METAR WAGB 270130Z 02002KT 3500 FU FEW010 29/22 Q1012 NOSIG=  
27-Sep-2023 SAID35 WAGB 270200 METAR WAGB 270200Z 05002KT 4000 FU FEW011 31/23 Q1011 NOSIG=  
27-Sep-2023 SAID35 WAGB 270230 METAR WAGB 270230Z 05004KT 4000 FU SCT011 32/23 Q1011 NOSIG=  
27-Sep-2023 SAID35 WAGB 270300 METAR WAGB 270300Z 00000KT 4500 FU SCT011 32/24 Q1011 NOSIG=  
27-Sep-2023 SAID35 WAGB 270330 METAR WAGB 270330Z 29002KT 5000 FU SCT012 32/23 Q1010 NOSIG=  
27-Sep-2023 SAID35 WAGB 270400 METAR WAGB 270400Z 34003KT 5000 FU BKN012 33/23 Q1010 NOSIG=  
27-Sep-2023 SAID35 WAGB 270430 METAR WAGB 270430Z 04005KT 5000 FU BKN013 33/22 Q1009 NOSIG=  
27-Sep-2023 SAID35 WAGB 270500 METAR WAGB 270500Z 05003KT 5000 FU BKN013 33/23 Q1009 NOSIG=  
27-Sep-2023 SAID35 WAGB 270530 METAR WAGB 270530Z 02005KT 5000 FU BKN013 33/22 Q1008 NOSIG=  
27-Sep-2023 SAID35 WAGB 270600 METAR WAGB 270600Z 35004KT 5000 FU SCT013 33/22 Q1008 NOSIG=  
27-Sep-2023 SAID35 WAGB 270630 METAR WAGB 270630Z 32002KT 5000 FU BKN013 33/23 Q1007 NOSIG=  
27-Sep-2023 SAID35 WAGB 270700 METAR WAGB 270700Z 34003KT 5000 FU BKN013 32/22 Q1007 NOSIG=  
27-Sep-2023 SAID35 WAGB 270730 METAR WAGB 270730Z 34003KT 5000 FU BKN013 33/23 Q1007 NOSIG=  
27-Sep-2023 SAID35 WAGB 270800 METAR WAGB 270800Z 00000KT FU 6000 FEW013 34/22 Q1007=  
27-Sep-2023 SAID35 WAGB 270830 METAR WAGB 270830Z 00000KT 6000 FU FEW013 34/23 Q1007=  
27-Sep-2023 SAID35 WAGB 270900 METAR WAGB 270900Z 00000KT 6000 FU FEW013 33/23 Q1007=  
27-Sep-2023 SAID35 WAGB 270930 METAR WAGB 270930Z 00000KT 7000 FU FEW013 33/23 Q1007=  
27-Sep-2023 SAID35 WAGB 271000 METAR WAGB 271000Z 00000KT 7000 FU FEW013 32/23 Q1007=  
27-Sep-2023 SAID35 WAGB 271030 METAR WAGB 271030Z 00000KT 7000 FEW013 32/24 Q1007 NOSIG=  
27-Sep-2023 SAID35 WAGB 271130 METAR WAGB 271130Z 00000KT 7000 FEW013 30/23 Q1008 NOSIG=  
27-Sep-2023 SAID35 WAGB 271200 METAR WAGB 271200Z 00000KT 3000 FU FEW012 29/25 Q1009=  
27-Sep-2023 SAID35 WAGB 271230 METAR WAGB 271230Z 00000KT 3000 FU FEW012 29/25 Q1009=  
27-Sep-2023 SAID35 WAGB 271300 METAR WAGB 271300Z 00000KT 3000 FU FEW012 28/25 Q1008=  
27-Sep-2023 SAID35 WAGB 271330 METAR WAGB 271330Z 00000KT 3000 FU FEW012 28/25 Q1008=  
27-Sep-2023 SAID35 WAGB 271400 METAR WAGB 271400Z 00000KT 2500 FU FEW012 28/25 Q1008=  
27-Sep-2023 SAID35 WAGB 271430 METAR WAGB 271430Z 00000KT 2500 FU FEW012 28/25 Q1008=  
27-Sep-2023 SAID35 WAGB 271500 METAR WAGB 271500Z 00000KT 2500 FU SCT012 27/25 Q1009=  
27-Sep-2023 SAID35 WAGB 271530 METAR WAGB 271530Z 00000KT 2500 FU SCT012 27/25 Q1009=  
27-Sep-2023 SAID35 WAGB 271600 METAR WAGB 271600Z 00000KT 1800 FU SCT011 27/25 Q1009=  
27-Sep-2023 SAID35 WAGB 271630 METAR WAGB 271630Z 00000KT 1800 FU SCT011 27/25 Q1009=  
27-Sep-2023 SAID35 WAGB 271700 METAR WAGB 271700Z 00000KT 1800 FU SCT011 26/25 Q1009=  
27-Sep-2023 SAID35 WAGB 271730 METAR WAGB 271730Z 00000KT 1800 FU SCT011 26/25 Q1009=  
27-Sep-2023 SAID35 WAGB 271800 METAR WAGB 271800Z 00000KT 1500 FU BKN010 26/24 Q1010=  
27-Sep-2023 SAID35 WAGB 271830 METAR WAGB 271830Z 00000KT 1500 FU BKN010 26/24 Q1010=  
27-Sep-2023 SAID35 WAGB 271900 METAR WAGB 271900Z 00000KT 1500 FU BKN010 26/24 Q1010=  
27-Sep-2023 SAID35 WAGB 271930 METAR WAGB 271930Z 00000KT 1500 FU BKN010 26/24 Q1010=  
27-Sep-2023 SAID35 WAGB 272000 METAR WAGB 272000Z 00000KT 1500 FU BKN010 26/24 Q1010=  
27-Sep-2023 SAID35 WAGB 272100 METAR WAGB 272100Z 00000KT 2000 FU SCT010 25/24 Q1010=  
27-Sep-2023 SAID35 WAGB 272130 METAR WAGB 272130Z 00000KT 2000 BR BKN010 26/25 Q1007=  
27-Sep-2023 SAID35 WAGB 272200 METAR WAGB 272200Z 00000KT 2000 FU SCT010 25/24 Q1011=  
27-Sep-2023 SAID35 WAGB 272230 METAR WAGB 272230Z 00000KT 2000 FU SCT010 25/24 Q1011=  
27-Sep-2023 SAID35 WAGB 272300 METAR WAGB 272300Z 00000KT 2000 FU BKN010 26/24 Q1012=  
27-Sep-2023 SAID35 WAGB 272330 METAR WAGB 272330Z 00000KT 2000 FU BKN010 26/24 Q1012=  
28-Sep-2023 SAID35 WAGB 280000 METAR WAGB 280000Z 00000KT 5000 FU FEW010 26/24 Q1012=  
28-Sep-2023 SAID35 WAGB 280030 METAR WAGB 280030Z 01002KT 4000 HZ FEW008 27/24 Q1012 BECMG TL0200 7000=  
28-Sep-2023 SAID35 WAGB 280100 METAR WAGB 280100Z 04003KT 4500 HZ FEW008 29/24 Q1012 BECMG TL0200 7000=  
28-Sep-2023 SAID35 WAGB 280130 METAR WAGB 280130Z 32003KT 5000 HZ FEW008 30/23 Q1012 NOSIG=  
28-Sep-2023 SAID35 WAGB 280200 METAR WAGB 280200Z 32003KT 6000 FEW008 30/23 Q1012 NOSIG=  
28-Sep-2023 SAID35 WAGB 280230 METAR WAGB 280230Z 33003KT 7000 FEW010 32/24 Q1011 NOSIG=  
28-Sep-2023 SAID35 WAGB 280300 METAR WAGB 280300Z 35003KT 6000 FEW011 32/23 Q1011 NOSIG=  
28-Sep-2023 SAID35 WAGB 280330 METAR WAGB 280330Z 32006KT 6000 FEW010 32/23 Q1010 NOSIG=  
28-Sep-2023 SAID35 WAGB 280400 METAR WAGB 280400Z 35006KT 6000 FEW013 33/23 Q1011 NOSIG=  
28-Sep-2023 SAID35 WAGB 280430 METAR WAGB 280430Z 32005KT 6000 FEW013 34/24 Q1009 NOSIG=  
28-Sep-2023 SAID35 WAGB 280500 METAR WAGB 280500Z VRB02KT 7000 FEW013 35/21 Q1009 NOSIG=  
28-Sep-2023 SAID35 WAGB 280530 METAR WAGB 280530Z 20004KT 7000 FEW013 35/22 Q1008 NOSIG=  
28-Sep-2023 SAID35 WAGB 280600 METAR WAGB 280600Z 11004KT 7000 FEW013 35/22 Q1007 NOSIG=  
28-Sep-2023 SAID35 WAGB 280630 METAR WAGB 280630Z 31003KT 7000 FEW013 35/22 Q1007 NOSIG=  
28-Sep-2023 SAID35 WAGB 280700 METAR WAGB 280700Z 06003KT 7000 FEW013 36/22 Q1006 NOSIG=  
28-Sep-2023 SAID35 WAGB 280730 METAR WAGB 280730Z 08003KT 7000 FEW013 36/22 Q1006 NOSIG=  
28-Sep-2023 SAID35 WAGB 280800 METAR WAGB 280800Z VRB02KT 8000 FEW013 36/22 Q1006 NOSIG=  
28-Sep-2023 SAID35 WAGB 280830 METAR WAGB 280830Z VRB02KT 8000 FEW013 35/22 Q1006 NOSIG=  
28-Sep-2023 SAID35 WAGB 280900 METAR WAGB 280900Z 00000KT 6000 FU FEW013 35/25 Q1006 NOSIG=  
28-Sep-2023 SAID35 WAGB 280930 METAR WAGB 280930Z 00000KT 5000 FU FEW013 35/25 Q1006 NOSIG=  
28-Sep-2023 SAID35 WAGB 281000 METAR WAGB 281000Z 00000KT 4500 FU FEW013 34/26 Q1007 NOSIG=  
28-Sep-2023 SAID35 WAGB 281030 METAR WAGB 281030Z 00000KT 4500 FU FEW013 34/26 Q1007 NOSIG=  
28-Sep-2023 SAID35 WAGB 281100 METAR WAGB 281100Z 00000KT 4500 FU FEW012 32/26 Q1008 NOSIG=  
28-Sep-2023 SAID35 WAGB 281130 METAR WAGB 281130Z 00000KT 4500 FU FEW012 31/26 Q1008 NOSIG=  
28-Sep-2023 SAID35 WAGB 281200 METAR WAGB 281200Z 00000KT 3000 FU FEW012 31/27 Q1009 NOSIG=  
28-Sep-2023 SAID35 WAGB 281230 METAR WAGB 281230Z 00000KT 3000 FU FEW012 31/27 Q1009 NOSIG=  
28-Sep-2023 SAID35 WAGB 281300 METAR WAGB 281300Z 00000KT 3000 FU BKN011 30/26 Q1010 NOSIG=  
28-Sep-2023 SAID35 WAGB 281330 METAR WAGB 281330Z 00000KT 3000 VCSH BKN011 30/26 Q1010 NOSIG=  
28-Sep-2023 SAID35 WAGB 281400 METAR WAGB 281400Z 00000KT 3000 VCSH BKN011 29/26 Q1010 NOSIG=  
28-Sep-2023 SPID33 WAGB 281422 SPECI WAGB 281422Z 05002KT 3000 -RA BKN011 29/26 Q1011=  
28-Sep-2023 SAID35 WAGB 281430 METAR WAGB 281430Z 05002KT 3000 -RA BKN011 29/26 Q1011 NOSIG=  
28-Sep-2023 SAID35 WAGB 281500 METAR WAGB 281500Z 00000KT 2000 RA+ BKN010 26/24 Q1011=  
28-Sep-2023 SAID35 WAGB 281530 METAR WAGB 281530Z 00000KT 2000 TSRA BKN010 26/24 Q1011=  
28-Sep-2023 SAID35 WAGB 281600 METAR WAGB 281600Z 20004KT 1500 -RA BKN010 24/24 Q1011=  
28-Sep-2023 SAID35 WAGB 281630 METAR WAGB 281630Z 20004KT 1500 RA BKN010 24/24 Q1011=  
28-Sep-2023 SAID35 WAGB 281700 METAR WAGB 281700Z 00000KT 2000 -RA BKN010 25/24 Q1010=  
28-Sep-2023 SAID35 WAGB 281730 METAR WAGB 281730Z 00000KT 2000 BKN010 25/24 Q1010 RERA NOSIG=  
28-Sep-2023 SAID35 WAGB 281800 METAR WAGB 281800Z 00000KT 3000 BR BKN010 25/24 Q1010 NOSIG=  
28-Sep-2023 SAID35 WAGB 281830 METAR WAGB 281830Z 00000KT 3000 BR BKN010 25/24 Q1010 NOSIG=  
28-Sep-2023 SAID35 WAGB 281900 METAR WAGB 281900Z 00000KT 3000 BR BKN010 25/24 Q1010 NOSIG=  
28-Sep-2023 SAID35 WAGB 281930 METAR WAGB 281930Z 00000KT 3000 BR BKN010 25/24 Q1010 NOSIG=  
28-Sep-2023 SAID35 WAGB 282000 METAR WAGB 282000Z 35003KT 3000 BR BKN010 25/24 Q1010 NOSIG=  
28-Sep-2023 SAID35 WAGB 282030 METAR WAGB 282030Z 35003KT 3000 BR BKN010 25/24 Q1010 NOSIG=  
28-Sep-2023 SAID35 WAGB 282100 METAR WAGB 282100Z 00000KT 3000 BR BKN010 25/24 Q1011 NOSIG=  
28-Sep-2023 SAID35 WAGB 282130 METAR WAGB 282130Z 00000KT 3000 BR BKN010 25/24 Q1011 NOSIG=  
28-Sep-2023 SAID35 WAGB 282200 METAR WAGB 282200Z 00000KT 3000 BR FEW010 25/24 Q1011 NOSIG=  
28-Sep-2023 SAID35 WAGB 282230 METAR WAGB 282230Z 00000KT 3000 BR FEW010 25/24 Q1012 NOSIG=  
28-Sep-2023 SAID35 WAGB 282300 METAR WAGB 282300Z 00000KT 3000 BR FEW010 25/24 Q1012 NOSIG=  
28-Sep-2023 SAID35 WAGB 282330 METAR WAGB 282330Z 00000KT 3000 BR FEW010 25/24 Q1013 NOSIG=  
29-Sep-2023 SAID35 WAGB 290000 METAR WAGB 290000Z 00000KT 5000 HZ SCT010 26/25 Q1013=  
29-Sep-2023 SAID35 WAGB 290030 METAR WAGB 290030Z 00000KT 6000 SCT010 27/25 Q1013 NOSIG=  
29-Sep-2023 SAID35 WAGB 290100 METAR WAGB 290100Z 31005KT 6000 SCT010 28/24 Q1014 NOSIG=  
29-Sep-2023 SAID35 WAGB 290130 METAR WAGB 290130Z 00000KT 6000 SCT010 29/23 Q1014 NOSIG=  
29-Sep-2023 SAID35 WAGB 290200 METAR WAGB 290200Z 34004KT 7000 SCT011 29/23 Q1014 NOSIG=  
29-Sep-2023 SAID35 WAGB 290230 METAR WAGB 290230Z 33005KT 7000 SCT011 31/24 Q1013 NOSIG=  
29-Sep-2023 SAID35 WAGB 290300 METAR WAGB 290300Z 310V010 31004KT 7000 SCT011 31/24 Q1013 NOSIG=  
29-Sep-2023 SAID35 WAGB 290330 METAR WAGB 290330Z 29004KT 8000 SCT012 31/23 Q1012 NOSIG=  
29-Sep-2023 SAID35 WAGB 290400 METAR WAGB 290400Z 33002KT 9000 SCT012 32/24 Q1012 NOSIG=  
29-Sep-2023 SAID35 WAGB 290430 METAR WAGB 290430Z 02003KT 9000 SCT012 33/23 Q1011 NOSIG=  
29-Sep-2023 SAID35 WAGB 290500 METAR WAGB 290500Z 29002KT 9000 SCT012 33/23 Q1010 NOSIG=  
29-Sep-2023 SAID35 WAGB 290530 METAR WAGB 290530Z 00000KT 9000 SCT013 34/23 Q1010 NOSIG=  
29-Sep-2023 SAID35 WAGB 290600 METAR WAGB 290600Z 34003KT 9999 SCT013 33/23 Q1009 NOSIG=  
29-Sep-2023 SAID35 WAGB 290630 METAR WAGB 290630Z 28003KT 9999 SCT013 33/23 Q1009 NOSIG=  
29-Sep-2023 SAID35 WAGB 290700 METAR WAGB 290700Z 00000KT 9999 SCT013 33/23 Q1008 NOSIG=  
29-Sep-2023 SAID35 WAGB 290730 METAR WAGB 290730Z 00000KT 9999 SCT013 33/23 Q1008 NOSIG=  
29-Sep-2023 SAID35 WAGB 290800 METAR WAGB 290800Z 00000KT 9999 SCT014 34/23 Q1008 NOSIG=  
29-Sep-2023 SAID35 WAGB 290830 METAR WAGB 290830Z 00000KT 9999 SCT014 34/23 Q1008 NOSIG=  
29-Sep-2023 SAID35 WAGB 290900 METAR WAGB 290900Z 00000KT 9999 BKN013 34/25 Q1008 NOSIG=  
29-Sep-2023 SAID35 WAGB 290930 METAR WAGB 290930Z 00000KT 9999 BKN013 34/25 Q1008 NOSIG=  
29-Sep-2023 SAID35 WAGB 291000 METAR WAGB 291000Z 00000KT 9999 FEW012TCU BKN013 31/25 Q1009 NOSIG=  
29-Sep-2023 SAID35 WAGB 291030 METAR WAGB 291030Z 00000KT 9999 FEW012TCU BKN013 31/25 Q1009 NOSIG=  
29-Sep-2023 SAID35 WAGB 291100 METAR WAGB 291100Z 00000KT 8000 FEW012TCU BKN013 31/25 Q1010 NOSIG=  
29-Sep-2023 SAID35 WAGB 291130 METAR WAGB 291130Z 00000KT 8000 FEW012TCU BKN013 31/25 Q1010 NOSIG=  
29-Sep-2023 SAID35 WAGB 291200 METAR WAGB 291200Z 00000KT 7000 FEW012TCU SCT013 28/24 Q1011=  
29-Sep-2023 SAID35 WAGB 291230 METAR WAGB 291230Z 00000KT 7000 FEW012TCU SCT013 28/24 Q1011=  
29-Sep-2023 SAID35 WAGB 291300 METAR WAGB 291300Z 00000KT 7000 FEW012TCU SCT013 27/23 Q1011=  
29-Sep-2023 SAID35 WAGB 291330 METAR WAGB 291330Z 00000KT 7000 FEW012TCU SCT013 27/23 Q1011=  
29-Sep-2023 SAID35 WAGB 291400 METAR WAGB 291400Z 00000KT 7000 FEW012TCU SCT013 27/24 Q1011=  
29-Sep-2023 SAID35 WAGB 291430 METAR WAGB 291430Z 00000KT 7000 FEW012TCU SCT013 27/24 Q1012=  
29-Sep-2023 SAID35 WAGB 291500 METAR WAGB 291500Z 00000KT 6000 BKN012 27/24 Q1011=  
29-Sep-2023 SAID35 WAGB 291500 CCA METAR WAGB 291500Z 00000KT 6000 FEW012TCU SCT013 27/24 Q1011=  
29-Sep-2023 SAID35 WAGB 291530 METAR WAGB 291530Z 00000KT 6000 BKN012 27/24 Q1011=  
29-Sep-2023 SAID35 WAGB 291530 CCA METAR WAGB 291530Z 00000KT 6000 FEW012TCU SCT013 27/24 Q1011=  
29-Sep-2023 SAID35 WAGB 291600 METAR WAGB 291600Z 00000KT 6000 FEW012TCU SCT013 26/24 Q1011=  
29-Sep-2023 SAID35 WAGB 291630 METAR WAGB 291630Z 00000KT 6000 FEW012TCU SCT013 26/24 Q1012=  
29-Sep-2023 SAID35 WAGB 291700 METAR WAGB 291700Z VRB02KT 6000 FEW012TCU SCT013 26/24 Q1012=  
29-Sep-2023 SAID35 WAGB 291730 METAR WAGB 291730Z VRB02KT 6000 FEW012TCU SCT013 26/24 Q1012=  
29-Sep-2023 SAID35 WAGB 291800 METAR WAGB 291800Z VRB02KT 5000 HZ BKN011 26/25 Q1011=  
29-Sep-2023 SAID35 WAGB 291830 METAR WAGB 291830Z 00000KT 5000 HZ BKN011 26/25 Q1012=  
29-Sep-2023 SAID35 WAGB 291900 METAR WAGB 291900Z 00000KT 5000 HZ BKN011 26/25 Q1012=  
29-Sep-2023 SAID35 WAGB 291930 METAR WAGB 291930Z 00000KT 5000 HZ BKN011 26/25 Q1011=  
29-Sep-2023 SAID35 WAGB 292000 METAR WAGB 292000Z 00000KT 5000 HZ BKN010 26/25 Q1011=  
29-Sep-2023 SAID35 WAGB 292030 METAR WAGB 292030Z 00000KT 5000 HZ BKN010 26/25 Q1011=  
29-Sep-2023 SAID35 WAGB 292100 METAR WAGB 292100Z 00000KT 4000 BR BKN010 26/25 Q1011=  
29-Sep-2023 SAID35 WAGB 292130 METAR WAGB 292130Z 00000KT 4000 BR BKN010 26/25 Q1012=  
29-Sep-2023 SAID35 WAGB 292200 METAR WAGB 292200Z 00000KT 4000 BR BKN010 26/25 Q1012=  
29-Sep-2023 SAID35 WAGB 292230 METAR WAGB 292230Z 00000KT 4000 BR BKN010 26/25 Q1012=  
29-Sep-2023 SAID35 WAGB 292300 METAR WAGB 292300Z 00000KT 2000 FU BKN009 26/25 Q1013=  
29-Sep-2023 SAID35 WAGB 292330 METAR WAGB 292330Z 00000KT 2000 FU BKN009 26/25 Q1013=  
30-Sep-2023 SAID35 WAGB 300000 METAR WAGB 300000Z 00000KT 4000 FU BKN010 26/25 Q1013=  
30-Sep-2023 SAID35 WAGB 300030 METAR WAGB 300030Z 00000KT 4000 FU BKN001 27/25 Q1014=  
30-Sep-2023 SAID35 WAGB 300100 METAR WAGB 300100Z 03005KT 4000 FU OVC010 27/24 Q1013 NOSIG=  
30-Sep-2023 SAID35 WAGB 300130 METAR WAGB 300130Z 35005KT 3000 FU BKN009 27/24 Q1013 NOSIG=  
30-Sep-2023 SAID35 WAGB 300200 METAR WAGB 300200Z 06005KT 2500 FU VV008 29/25 Q1013 NOSIG=  
30-Sep-2023 SAID35 WAGB 300230 METAR WAGB 300230Z 30004KT 1500 FU VV008 29/25 Q1013 NOSIG=  
30-Sep-2023 SAID35 WAGB 300300 METAR WAGB 300300Z 34007KT 1500 FU VV008 30/25 Q1012 NOSIG=  
30-Sep-2023 SAID35 WAGB 300330 METAR WAGB 300330Z 32006KT 1500 FU VV008 30/25 Q1012 NOSIG=  
30-Sep-2023 SAID35 WAGB 300400 METAR WAGB 300400Z 00000KT 1700 FU VV009 31/24 Q1011 NOSIG=  
30-Sep-2023 SAID35 WAGB 300430 METAR WAGB 300430Z 34004KT 1700 FU VV009 31/25 Q1011=  
30-Sep-2023 SAID35 WAGB 300500 METAR WAGB 300500Z 03005KT 1700 FU VV009 31/25 Q1010=  
30-Sep-2023 SAID35 WAGB 300530 METAR WAGB 300530Z 29003KT 1700 FU VV009 31/24 Q1009=  
30-Sep-2023 SAID35 WAGB 300600 METAR WAGB 300600Z 00000KT 1700 FU VV009 32/25 Q1009=  
30-Sep-2023 SAID35 WAGB 300630 METAR WAGB 300630Z 35003KT 1700 FU VV008 32/25 Q1009=  
30-Sep-2023 SAID35 WAGB 300730 METAR WAGB 300730Z 25003KT 2000 FU BKN013 32/25 Q1009 NOSIG=  
30-Sep-2023 SAID35 WAGB 300800 METAR WAGB 300800Z 00000KT 2000 FU BKN013 32/25 Q1008 NOSIG=  
30-Sep-2023 SAID35 WAGB 300830 METAR WAGB 300830Z 00000KT 2000 FU BKN013 31/25 Q1008 NOSIG=  
30-Sep-2023 SAID35 WAGB 300900 METAR WAGB 300900Z 25004KT 2000 FU BKN013 31/25 Q1008 NOSIG=  
30-Sep-2023 SAID35 WAGB 300930 METAR WAGB 300930Z 00000KT 2000 FU BKN013 31/25 Q1008 NOSIG=  
30-Sep-2023 SAID35 WAGB 301000 METAR WAGB 301000Z 00000KT 1500 FU SCT013 30/26 Q1008 NOSIG=  
30-Sep-2023 SAID35 WAGB 301030 METAR WAGB 301030Z 00000KT 1500 FU SCT013 30/26 Q1008 NOSIG=  
30-Sep-2023 SAID35 WAGB 301100 METAR WAGB 301100Z 00000KT 1500 FU VV009 29/27 Q1009 NOSIG=  
30-Sep-2023 SAID35 WAGB 301130 METAR WAGB 301130Z 00000KT 1500 FU VV009 29/27 Q1009 NOSIG=  
30-Sep-2023 SAID35 WAGB 301200 METAR WAGB 301200Z 00000KT 2000 FU FEW013 28/26 Q1009=  
30-Sep-2023 SAID35 WAGB 301230 METAR WAGB 301230Z 00000KT 2000 FU FEW013 28/26 Q1009=  
30-Sep-2023 SAID35 WAGB 301300 METAR WAGB 301300Z 00000KT 2000 FU FEW013 28/26 Q1010=  
30-Sep-2023 SAID35 WAGB 301330 METAR WAGB 301330Z 00000KT 2000 FU FEW013 28/26 Q1010=  
30-Sep-2023 SAID35 WAGB 301400 METAR WAGB 301400Z 00000KT 2000 FU FEW013 27/26 Q1011=  
30-Sep-2023 SAID35 WAGB 301430 METAR WAGB 301430Z 00000KT 2000 FU FEW013 27/26 Q1011=  
30-Sep-2023 SAID35 WAGB 301500 METAR WAGB 301500Z 00000KT 2000 FU FEW012 27/26 Q1011=  
30-Sep-2023 SAID35 WAGB 301530 METAR WAGB 301530Z 00000KT 2000 FU FEW012 27/26 Q1011=  
30-Sep-2023 SAID35 WAGB 301600 METAR WAGB 301600Z 00000KT 2000 FU FEW012 26/24 Q1011=  
30-Sep-2023 SAID35 WAGB 301630 METAR WAGB 301630Z 00000KT 2000 FU FEW012 26/24 Q1011=  
30-Sep-2023 SAID35 WAGB 301700 METAR WAGB 301700Z 00000KT 2000 FU SCT011 26/25 Q1011=  
30-Sep-2023 SAID35 WAGB 301730 METAR WAGB 301730Z 00000KT 2000 FU SCT011 26/25 Q1011=  
30-Sep-2023 SAID35 WAGB 301800 METAR WAGB 301800Z 00000KT 2000 FU SCT010 26/25 Q1011=  
30-Sep-2023 SAID35 WAGB 301830 METAR WAGB 301830Z 00000KT 2000 FU SCT010 26/25 Q1011=  
30-Sep-2023 SAID35 WAGB 301900 METAR WAGB 301900Z 00000KT 2000 FU SCT010 26/25 Q1011=  
30-Sep-2023 SAID35 WAGB 301930 METAR WAGB 301930Z 00000KT 2000 FU SCT010 26/25 Q1011=  
30-Sep-2023 SAID35 WAGB 302000 METAR WAGB 302000Z 00000KT 2000 FU BKN010 26/24 Q1011=  
30-Sep-2023 SAID35 WAGB 302030 METAR WAGB 302030Z 00000KT 2000 FU BKN010 26/24 Q1011=  
30-Sep-2023 SAID35 WAGB 302100 METAR WAGB 302100Z 00000KT 2000 FU BKN010 25/24 Q1011=  
30-Sep-2023 SAID35 WAGB 302130 METAR WAGB 302130Z 00000KT 2000 FU BKN010 25/24 Q1011=  
30-Sep-2023 SAID35 WAGB 302200 METAR WAGB 302200Z 00000KT 1500 FU FEW010 25/24 Q1011=  
30-Sep-2023 SAID35 WAGB 302230 METAR WAGB 302230Z 00000KT 1500 FU FEW010 25/24 Q1011=  
30-Sep-2023 SAID35 WAGB 302300 METAR WAGB 302300Z 00000KT 1000 FU FEW010 25/24 Q1012=  
30-Sep-2023 SAID35 WAGB 302330 METAR WAGB 302330Z 00000KT 1000 FU FEW009 25/24 Q1012=  
01-Oct-2023 SAID35 WAGB 010000 METAR WAGB 010000Z 00000KT 1000 FU BKN008 26/24 Q1012 NOSIG=  
01-Oct-2023 SAID35 WAGB 010030 METAR WAGB 010030Z 27004KT 1000 FU SCT008 26/24 Q1012 NOSIG=  
01-Oct-2023 SAID35 WAGB 010100 METAR WAGB 010100Z 00000KT 9999 FEW010 27/24 Q1012=  
01-Oct-2023 SAID35 WAGB 010100 CCA METAR COR WAGB 010100Z 25005KT 1400 FU SCT008 27/23 Q1012 NOSIG=  
01-Oct-2023 SAID35 WAGB 010130 METAR WAGB 010130Z 24004KT 2000 FU FEW008 28/23 Q1012 BECMG TL0300 4000=  
01-Oct-2023 SAID35 WAGB 010200 METAR WAGB 010200Z 26003KT 2000 FU SCT008 29/23 Q1012 BECMG TL0300 4000=  
01-Oct-2023 SAID35 WAGB 010230 METAR WAGB 010230Z 00000KT 2500 FU SCT008 30/23 Q1012 NOSIG=  
01-Oct-2023 SAID35 WAGB 010330 METAR WAGB 010330Z 27006KT 3000 FU BKN012 31/21 Q1012 NOSIG=  
01-Oct-2023 SAID35 WAGB 010400 METAR WAGB 010400Z 27006KT 4000 FU BKN012 31/21 Q1011 NOSIG=  
01-Oct-2023 SAID35 WAGB 010430 METAR WAGB 010430Z 24002KT 4000 FU BKN012 32/21 Q1011 NOSIG=  
01-Oct-2023 SAID35 WAGB 010500 METAR WAGB 010430Z 24002KT 4000 FU BKN012 32/22 Q1010 NOSIG=  
01-Oct-2023 SAID35 WAGB 010500 METAR WAGB 010430Z 24002KT 4000 FU BKN012 32/22 Q1010 NOSIG=  
01-Oct-2023 SAID35 WAGB 010500 METAR WAGB 010500Z 28005KT 4500 FU BKN012 32/22 Q1010 NOSIG=  
01-Oct-2023 SAID35 WAGB 010530 METAR WAGB 010530Z 28005KT 4500 FU BKN012 32/22 Q1010 NOSIG=  
01-Oct-2023 SAID35 WAGB 010600 METAR WAGB 010600Z 28003KT 4000 FU BKN012 32/22 Q1009 NOSIG=  
01-Oct-2023 SAID35 WAGB 010630 METAR WAGB 010630Z 28006KT 5000 FU BKN012 32/22 Q1009 NOSIG=  
01-Oct-2023 SAID35 WAGB 010700 METAR WAGB 010700Z 26006KT 5000 FU BKN012 32/22 Q1009 NOSIG=  
01-Oct-2023 SAID35 WAGB 010730 METAR WAGB 010730Z 23004KT 5000 FU BKN012 32/23 Q1009 NOSIG=  
01-Oct-2023 SAID35 WAGB 010800 METAR WAGB 010800Z 28002KT 5000 FU BKN012 32/23 Q1008 NOSIG=  
01-Oct-2023 SAID35 WAGB 010830 METAR WAGB 010830Z 29006KT 5000 FU BKN012 32/23 Q1008 NOSIG=  
01-Oct-2023 SAID35 WAGB 010900 METAR WAGB 010900Z 28006KT 5000 FU BKN012 32/22 Q1008 NOSIG=  
01-Oct-2023 SAID35 WAGB 011030 METAR WAGB 011030Z 00000KT 5000 FU BKN012 28/24 Q1009 NOSIG=  
01-Oct-2023 SAID35 WAGB 011100 METAR WAGB 011100Z 00000KT 3000 FU FEW013 29/25 Q1010=  
01-Oct-2023 SAID35 WAGB 011130 METAR WAGB 011130Z 00000KT 3000 FU FEW013 29/25 Q1010=  
01-Oct-2023 SAID35 WAGB 011200 METAR WAGB 011200Z 00000KT 4000 FU FEW013 28/24 Q1010=  
01-Oct-2023 SAID35 WAGB 011230 METAR WAGB 011230Z 00000KT 4000 FU FEW013 28/24 Q1010=  
01-Oct-2023 SAID35 WAGB 011300 METAR WAGB 011300Z 00000KT 4000 FU FEW013 27/24 Q1011=  
01-Oct-2023 SAID35 WAGB 011330 METAR WAGB 011330Z 00000KT 4000 FU FEW013 27/24 Q1011=  
01-Oct-2023 SAID35 WAGB 011400 METAR WAGB 011400Z 00000KT 4000 FU FEW013 27/24 Q1012=  
01-Oct-2023 SAID35 WAGB 011430 METAR WAGB 011430Z 00000KT 4000 FU FEW013 27/24 Q1012=  
01-Oct-2023 SAID35 WAGB 011500 METAR WAGB 011500Z 00000KT 4000 FU FEW013 26/24 Q1012=  
01-Oct-2023 SAID35 WAGB 011530 METAR WAGB 011530Z 00000KT 4000 FU FEW013 26/24 Q1012=  
01-Oct-2023 SAID35 WAGB 011600 METAR WAGB 011600Z 00000KT 4000 FU FEW012 26/25 Q1012=  
01-Oct-2023 SAID35 WAGB 011630 METAR WAGB 011630Z 00000KT 4000 FU FEW012 26/25 Q1012=  
01-Oct-2023 SAID35 WAGB 011700 METAR WAGB 011700Z 00000KT 4000 FU BKN012 25/24 Q1012=  
01-Oct-2023 SAID35 WAGB 011730 METAR WAGB 011730Z 00000KT 4000 FU BKN012 25/24 Q1012=  
01-Oct-2023 SAID35 WAGB 011800 METAR WAGB 011800Z 00000KT 4000 FU BKN012 25/24 Q1011=  
01-Oct-2023 SAID35 WAGB 011830 METAR WAGB 011830Z 00000KT 4000 FU BKN012 25/24 Q1011=  
01-Oct-2023 SAID35 WAGB 011900 METAR WAGB 011900Z 00000KT 4000 FU BKN012 25/24 Q1011=  
01-Oct-2023 SAID35 WAGB 011930 METAR WAGB 011930Z 00000KT 4000 FU BKN012 25/24 Q1011=  
01-Oct-2023 SAID35 WAGB 012000 METAR WAGB 012000Z 00000KT 4000 FU BKN012 25/24 Q1011=  
01-Oct-2023 SAID35 WAGB 012030 METAR WAGB 012030Z 00000KT 4000 FU BKN012 25/24 Q1011=  
01-Oct-2023 SAID35 WAGB 012100 METAR WAGB 012100Z 00000KT 4000 FU BKN011 25/24 Q1011=  
01-Oct-2023 SAID35 WAGB 012130 METAR WAGB 012130Z 00000KT 4000 FU BKN011 25/24 Q1011=  
01-Oct-2023 SAID35 WAGB 012200 METAR WAGB 012200Z 00000KT 3000 FU SCT011 24/23 Q1012=  
01-Oct-2023 SAID35 WAGB 012230 METAR WAGB 012230Z 00000KT 1500 FU SCT011 24/23 Q1012=  
01-Oct-2023 SAID35 WAGB 012300 METAR WAGB 012300Z 00000KT 1500 FU SCT010 24/23 Q1012=  
01-Oct-2023 SAID35 WAGB 012330 METAR WAGB 012330Z 00000KT 1500 FU SCT010 24/23 Q1012=  
02-Oct-2023 SAID35 WAGB 020000 METAR WAGB 020000Z 00000KT 1500 FU VV005 25/23 Q1013 NOSIG=  
02-Oct-2023 SAID35 WAGB 030000 METAR WAGB 020000Z 00000KT 0600 FU VV008 26/24 Q1014 NOSIG=  
02-Oct-2023 SAID35 WAGB 030000 METAR WAGB 020000Z 00000KT 0600 FU VV008 26/24 Q1014 NOSIG=  
02-Oct-2023 SAID35 WAGB 020030 METAR WAGB 020030Z VRB02KT 1500 FU SCT010 26/23 Q1012 NOSIG=  
02-Oct-2023 SAID35 WAGB 020100 CCA METAR WAGB 020100Z 23003KT 1500 FU SCT010 28/23 Q1013 NOSIG=  
02-Oct-2023 SAID35 WAGB 020100 METAR WAGB 020100Z VRB02KT 1500 FU SCT010 26/23 Q1012 NOSIG=  
02-Oct-2023 SAID35 WAGB 020130 METAR WAGB 020130Z VRB02KT 1500 FU SCT010 28/23 Q1012 NOSIG=  
02-Oct-2023 SAID35 WAGB 020200 METAR WAGB 020200Z 00000KT 2000 FU SCT011 29/23 Q1012 NOSIG=  
02-Oct-2023 SAID35 WAGB 020230 METAR WAGB 020230Z VRB02KT 2000 FU SCT011 30/23 Q1012 NOSIG=  
02-Oct-2023 SAID35 WAGB 020300 METAR WAGB 020300Z 26003KT 2000 FU SCT011 31/23 Q1012 NOSIG=  
02-Oct-2023 SAID35 WAGB 020330 METAR WAGB 020330Z 00000KT 2500 FU SCT011 31/21 Q1012 NOSIG=  
02-Oct-2023 SAID35 WAGB 020400 METAR WAGB 020400Z 20004KT 3000 FU SCT012 32/22 Q1011 NOSIG=  
02-Oct-2023 SAID35 WAGB 020430 METAR WAGB 020430Z 26004KT 3000 FU SCT012 33/22 Q1010 NOSIG=  
02-Oct-2023 SAID35 WAGB 020500 METAR WAGB 020500Z VRB02KT 3000 FU SCT012 33/22 Q1010 NOSIG=  
02-Oct-2023 SAID35 WAGB 020530 METAR WAGB 020530Z 22005KT 3000 FU SCT012 32/22 Q1009 NOSIG=  
02-Oct-2023 SAID35 WAGB 020600 METAR WAGB 020600Z 35002KT 3000 FU SCT012 32/22 Q1009 NOSIG=  
02-Oct-2023 SAID35 WAGB 020630 METAR WAGB 020630Z 00000KT 3000 FU BKN012 34/23 Q1009 NOSIG=  
02-Oct-2023 SAID35 WAGB 020700 METAR WAGB 020700Z 06003KT 3000 FU BKN012 33/22 Q1009 NOSIG=  
02-Oct-2023 SAID35 WAGB 020730 METAR WAGB 020730Z 32004KT 3000 FU BKN012 33/23 Q1008 NOSIG=  
02-Oct-2023 SAID35 WAGB 020800 METAR WAGB 020800Z 35004KT 3000 FU BKN012 33/23 Q1008 NOSIG=  
02-Oct-2023 SAID35 WAGB 020830 METAR WAGB 020830Z 35002KT 3000 FU BKN012 33/22 Q1008 NOSIG=  
02-Oct-2023 SAID35 WAGB 020900 METAR WAGB 020900Z 00000KT 0900 FU VV007 33/24 Q1009=  
02-Oct-2023 SAID35 WAGB 020930 METAR WAGB 020930Z 00000KT 0900 FU VV007 32/24 Q1009=  
02-Oct-2023 SAID35 WAGB 021000 METAR WAGB 021000Z 00000KT 0900 FU VV007 31/26 Q1009 NOSIG=  
02-Oct-2023 SAID35 WAGB 021030 METAR WAGB 021030Z 00000KT 0900 FU VV007 31/26 Q1009 NOSIG=  
02-Oct-2023 SAID35 WAGB 021100 METAR WAGB 021100Z 00000KT 0900 FU VV007 30/26 Q1010=  
02-Oct-2023 SAID35 WAGB 021130 METAR WAGB 021130Z 00000KT 0900 FU VV007 30/26 Q1010 NOSIG=  
02-Oct-2023 SAID35 WAGB 021200 METAR WAGB 021200Z 00000KT 0900 FU VV007 29/26 Q1011 NOSIG=  
02-Oct-2023 SAID35 WAGB 021230 METAR WAGB 021230Z 00000KT 0900 FU VV007 29/26 Q1011 NOSIG=  
02-Oct-2023 SAID35 WAGB 021300 METAR WAGB 021300Z 00000KT 0900 FU VV007 29/26 Q1012 NOSIG=  
02-Oct-2023 SAID35 WAGB 021330 METAR WAGB 021330Z 00000KT 0900 FU VV007 29/26 Q1012 NOSIG=  
02-Oct-2023 SAID35 WAGB 021400 METAR WAGB 021400Z 00000KT 0900 FU VV007 27/25 Q1012 NOSIG=  
02-Oct-2023 SAID35 WAGB 021430 METAR WAGB 021430Z 00000KT 0900 FU VV007 27/25 Q1012 NOSIG=  
02-Oct-2023 SAID35 WAGB 021500 METAR WAGB 021500Z 00000KT 0900 FU VV007 27/25 Q1012=  
02-Oct-2023 SAID35 WAGB 021530 METAR WAGB 021530Z 00000KT 0900 FU VV007 27/25 Q1012=  
02-Oct-2023 SAID35 WAGB 021600 METAR WAGB 021600Z 00000KT 2000 FU BKN009 26/25 Q1013=  
02-Oct-2023 SAID35 WAGB 021630 METAR WAGB 021630Z 00000KT 2000 FU BKN009 26/25 Q1013=  
02-Oct-2023 SAID35 WAGB 021700 METAR WAGB 021700Z 00000KT 2000 FU BKN009 26/24 Q1013=  
02-Oct-2023 SAID35 WAGB 021730 METAR WAGB 021730Z 00000KT 2000 FU BKN009 26/24 Q1013=  
02-Oct-2023 SAID35 WAGB 021800 METAR WAGB 021800Z 00000KT 2000 FU BKN009 26/24 Q1012=  
02-Oct-2023 SAID35 WAGB 021830 METAR WAGB 021830Z 00000KT 2000 FU BKN009 26/24 Q1012=  
02-Oct-2023 SAID35 WAGB 021900 METAR WAGB 021900Z 00000KT 2000 FU BKN009 25/24 Q1012=  
02-Oct-2023 SAID35 WAGB 021930 METAR WAGB 021930Z 00000KT 2000 FU BKN009 25/24 Q1012=  
02-Oct-2023 SAID35 WAGB 022000 METAR WAGB 022000Z 00000KT 2000 FU VV009 25/23 Q1012=  
02-Oct-2023 SAID35 WAGB 022030 METAR WAGB 022030Z 00000KT 700 FU VV009 25/23 Q1012=  
02-Oct-2023 SAID35 WAGB 022100 METAR WAGB 022100Z 00000KT 0700 FU VV008 25/23 Q1012=  
02-Oct-2023 SAID35 WAGB 022130 METAR WAGB 022130Z 00000KT 0700 FU VV008 25/23 Q1012=  
02-Oct-2023 SAID35 WAGB 022200 METAR WAGB 022200Z 00000KT 0700 FU VV008 25/24 Q1012=  
02-Oct-2023 SAID35 WAGB 022230 METAR WAGB 022230Z 00000KT 0700 FU VV008 25/24 Q1012=  
02-Oct-2023 SAID35 WAGB 022300 METAR WAGB 022300Z 00000KT 0700 FU VV008 25/24 Q1013=  
03-Oct-2023 SAID35 WAGB 030000 METAR WAGB 030000Z 00000KT 1000 FU VV007 25/24 Q1014=  
03-Oct-2023 SAID35 WAGB 030030 METAR WAGB 030030Z 00000KT 0600 FU VV008 26/24 Q1014 NOSIG=  
03-Oct-2023 SAID35 WAGB 030100 METAR WAGB 030100Z 00000KT 0600 VV008 27/24 Q1014 NOSIG=  
03-Oct-2023 SAID35 WAGB 030100 CCA METAR COR WAGB 030100Z 00000KT 0600 FU VV008 27/24 Q1014 NOSIG=  
03-Oct-2023 SAID35 WAGB 030130 METAR WAGB 030130Z 00000KT 0600 FU VV008 28/24 Q1014 NOSIG=  
03-Oct-2023 SAID35 WAGB 030200 METAR WAGB 030200Z 00000KT 0500 FU VV007 28/24 Q1014 NOSIG=  
03-Oct-2023 SAID35 WAGB 030230 METAR WAGB 030230Z 00000KT 0500 FU VV007 29/24 Q1014 NOSIG=  
03-Oct-2023 SAID35 WAGB 030300 METAR WAGB 030300Z 00000KT 0500 FU VV007 30/24 Q1013 NOSIG=  
03-Oct-2023 SAID35 WAGB 030330 METAR WAGB 030330Z 00000KT 0500 FU VV008 30/23 Q1013 NOSIG=  
03-Oct-2023 SAID35 WAGB 030400 METAR WAGB 030400Z 30003KT 0500 FU VV008 31/23 Q1012 NOSIG=  
03-Oct-2023 SAID35 WAGB 030430 METAR WAGB 030430Z 25003KT 0600 FU VV009 31/23 Q1012 NOSIG=  
03-Oct-2023 SAID35 WAGB 030500 METAR WAGB 030500Z 00000KT 0600 FU VV009 32/23 Q1011 NOSIG=  
03-Oct-2023 SAID35 WAGB 030530 METAR WAGB 030530Z 09003KT 0600 FU VV009 33/23 Q1011 NOSIG=  
03-Oct-2023 SAID35 WAGB 030600 METAR WAGB 030600Z 00000KT 0750 FU VV009 32/22 Q1011 NOSIG=  
03-Oct-2023 SAID35 WAGB 030630 METAR WAGB 030630Z 00000KT 0750 FU SCT011 33/22 Q1010 NOSIG=  
03-Oct-2023 SAID35 WAGB 030700 CCA METAR WAGB 030700Z 00000KT 0800 FU SCT011 33/22 Q1010 NOSIG=  
03-Oct-2023 SAID35 WAGB 030700 METAR WAGB 030700Z 00000KT 0750 FU SCT011 33/22 Q1010 NOSIG=  
03-Oct-2023 SAID35 WAGB 030730 METAR WAGB 030730Z 00000KT 0800 FU SCT012 33/22 Q1010 NOSIG=  
03-Oct-2023 SAID35 WAGB 030800 METAR WAGB 030800Z 00000KT 0800 FU FEW012 33/22 Q1010 NOSIG=  
03-Oct-2023 SAID35 WAGB 030830 METAR WAGB 030830Z 00000KT 0800 FU FEW012 33/22 Q1009 NOSIG=  
03-Oct-2023 SAID35 WAGB 030900 METAR WAGB 030900Z 00000KT 0900 FU VV006 33/24 Q1010 NOSIG=  
03-Oct-2023 SAID35 WAGB 030930 METAR WAGB 030930Z 00000KT 0900 FU VV006 32/24 Q1010 NOSIG=  
03-Oct-2023 SAID35 WAGB 031000 METAR WAGB 031000Z 00000KT 1000 FU VV006 31/25 Q1010 NOSIG=  
03-Oct-2023 SAID35 WAGB 031030 METAR WAGB 031030Z 00000KT 1000 FU VV006 31/25 Q1010 NOSIG=  
03-Oct-2023 SAID35 WAGB 031100 METAR WAGB 031100Z 00000KT 1000 FU VV006 30/26 Q1011 NOSIG=  
03-Oct-2023 SAID35 WAGB 031130 METAR WAGB 031130Z 00000KT 1000 FU VV006 29/26 Q1011 NOSIG=  
03-Oct-2023 SAID35 WAGB 031200 METAR WAGB 031200Z 00000KT 0900 FU FEW011 28/25 Q1012=  
03-Oct-2023 SAID35 WAGB 031230 METAR WAGB 031230Z 00000KT 0900 FU FEW011 28/25 Q1012=  
03-Oct-2023 SAID35 WAGB 031300 METAR WAGB 031300Z 00000KT 0800 FU FEW011 28/25 Q1012=  
03-Oct-2023 SAID35 WAGB 031330 METAR WAGB 031330Z 00000KT 0800 FU FEW011 28/25 Q1012=  
03-Oct-2023 SAID35 WAGB 031400 METAR WAGB 031400Z 00000KT 0900 FU FEW011 27/25 Q1013=  
03-Oct-2023 SAID35 WAGB 031430 METAR WAGB 031430Z 00000KT 0900 FU FEW011 27/25 Q1013=  
03-Oct-2023 SAID35 WAGB 031500 METAR WAGB 031500Z 00000KT 0900 FU FEW011 26/25 Q1013=  
03-Oct-2023 SAID35 WAGB 031530 METAR WAGB 031530Z 00000KT 0900 FU FEW011 26/25 Q1013=  
03-Oct-2023 SAID35 WAGB 031600 METAR WAGB 031600Z 00000KT 0900 FU FEW010 26/25 Q1013=  
03-Oct-2023 SAID35 WAGB 031630 METAR WAGB 031630Z 00000KT 0900 FU FEW010 26/25 Q1012=  
03-Oct-2023 SAID35 WAGB 031700 METAR WAGB 031700Z 00000KT 0800 FU FEW010 25/25 Q1012=  
03-Oct-2023 SAID35 WAGB 031730 METAR WAGB 031730Z 00000KT 0800 FU FEW010 25/25 Q1012=  
03-Oct-2023 SAID35 WAGB 031800 METAR WAGB 031800Z 00000KT 0800 FU FEW010 25/24 Q1012=  
03-Oct-2023 SAID35 WAGB 031830 METAR WAGB 031830Z 00000KT 0800 FU FEW010 25/24 Q1011=  
03-Oct-2023 SAID35 WAGB 031900 METAR WAGB 031900Z 00000KT 0800 FU FEW010 25/24 Q1012=  
03-Oct-2023 SAID35 WAGB 031930 METAR WAGB 031930Z 00000KT 0800 FU FEW010 25/24 Q1012=  
03-Oct-2023 SAID35 WAGB 032030 METAR WAGB 032030Z 00000KT 0800 FU FEW012 25/24 Q1012=  
03-Oct-2023 SAID35 WAGB 032100 METAR WAGB 032100Z 00000KT 0800 FU FEW010 25/24 Q1012=  
03-Oct-2023 SAID35 WAGB 032130 METAR WAGB 032130Z 00000KT 0800 FU FEW010 25/24 Q1012=  
03-Oct-2023 SAID35 WAGB 032200 METAR WAGB 032200Z 00000KT 0800 FU FEW009 24/24 Q1013=  
03-Oct-2023 SAID35 WAGB 032230 METAR WAGB 032230Z 00000KT 0800 FU FEW009 24/24 Q1013=  
03-Oct-2023 SAID35 WAGB 032300 METAR WAGB 032300Z 00000KT 0800 FU VV007 24/24 Q1014=  
03-Oct-2023 SAID35 WAGB 032330 METAR WAGB 032330Z 00000KT 0800 FU VV007 24/24 Q1014=  
04-Oct-2023 SAID35 WAGB 040000 METAR WAGB 040000Z 00000KT 0800 FU VV007 25/24 Q1014 NOSIG=  
04-Oct-2023 SAID35 WAGB 040030 METAR WAGB 040030Z 00000KT 0800 FU VV007 25/24 Q1014 NOSIG=  
04-Oct-2023 SAID35 WAGB 040100 METAR WAGB 040100Z 05003KT 0700 VV005 28/25 Q1014 NOSIG=  
04-Oct-2023 SAID35 WAGB 040100 CCA METAR WAGB 040100Z 05003KT 0700 FU VV005 28/25 Q1014 NOSIG=  
