12-Aug-2015 SAID33 WAHS 120900 METAR WAHP 120900Z 33010KT 7000 FEW019 30/25 Q1010=
08-Feb-2017 SAID34 WIHH 080000 METAR WAHP 080000Z 00000KT 4000 HZ SCT018 24/23 Q1013 NOSIG=
08-Feb-2017 SAID34 WIHH 080300 METAR WAHP 080300Z 30007KT 9999 FEW020 30/25 Q1011 NOSIG=
09-Feb-2017 SAID31 WIHH 090000 METAR WAHP 090000Z 00000KT 2000 BR BKN012 24/24 Q1011 BR=
09-Feb-2017 SAID31 WIHH 090300 METAR WAHP 090300Z 05004KT 6000 SCT016 27/24 Q1013=
10-Feb-2017 SAID34 WIHH 100000 METAR WAHP 100000Z 00000KT 2000 BR BKN015 24/23 Q1012=
14-Feb-2017 SAID34 WIMK 140000 METAR WAHP 140000Z 00000KT 3000 HZ SCT015 25/24 Q1013 NOSIG=
14-Feb-2017 SAID34 WIHH 140300 METAR WAHP 140300Z 24003KT 6000 SCT018 29/24 Q1012 NOSIG=
16-Feb-2017 SAID34 WIHH 160000 METAR WAHP 160000Z 00000KT 6000 BKN012 25/24 Q1013 NOSIG=
16-Feb-2017 SAID34 WIHH 160300 METAR WAHP 160300Z 12003KT 7000 SCT018 28/25 Q1013 NOSIG=
20-Feb-2017 SAID34 WIHH 200000 METAR WAHP 200000Z 00000KT 2000 BR BKN015 25/24 Q1013 NOSIG=
20-Feb-2017 SAID34 WIHH 200300 METAR WAHP 200300Z 20005KT 7000 SCT018 28/24 Q1005 NOSIG=
24-Feb-2017 SAID31 WIHH 240000 METAR WAHP 240000Z 00000KT 4000 SCT015 25/24 Q1014 NOSIG=
28-Feb-2017 SAID31 WIHH 280000 METAR WAHP 280000Z 09003KT 4000 HZ SCT018 25/24 Q1013=
01-Mar-2017 SAID31 WIHH 010000 METAR WAHP 010000Z 00000KT 1000 BR BKN010 24/23 Q1013 NOSIG=
07-Mar-2017 SAID34 WIHH 070000 METAR WAHP 070000Z 03003KT 5000 HZ SCT018 24/23 Q1004 NOSIG=
15-Mar-2017 SAID31 WIHH 150000 METAR WAHP 150000Z 00000KT 4000 HZ SCT018 24/23 Q1009 NOSIG=
20-Mar-2017 SAID34 WIHH 200000 METAR WAHP 200000Z 00000KT 4000 HZ SCT015 24/23 Q1013 NOSIG=
22-Mar-2017 SAID34 WIHH 220000 METAR WAHP 220000Z 00000KT 5000 HZ SCT015 24/23 Q1013 NOSIG=
23-Mar-2017 SAID34 WIHH 230000 METAR WAHP 230000Z 00000KT 4000 HZ SCT015 24/23 Q1013 NOSIG=
06-Apr-2017 SAID34 WIHH 060000 METAR WAHP 060000Z 00000KT 5000 HZ BKN010 23/22 Q1013=
20-Apr-2017 SAID31 WIHH 200000 METAR WAHP 200000Z 00000KT 6000 FEW016 25/21 Q1015 NOSIG=
21-Apr-2017 SAID34 WIHH 210000 METAR WAHP 210000Z 00000KT 6000 FEW016 25/21 Q1015 NOSIG=
22-Apr-2017 SAID34 WIHH 220000 METAR WAHP 220000Z 00000KT 3000 HZ SCT015 24/23 Q1013 NOSIG=
25-Apr-2017 SAID34 WIHH 250000 METAR WAHP 250000Z 00000KT 4000 SCT018 24/23 Q1013 NOSIG=
22-May-2017 SAID31 WIHH 220300 METAR WAHP 220300Z 26006KT 8000 FEW020 30/25 Q1015 NOSIG=
02-Aug-2017 SAID31 WIHH 020600 METAR WAHP 020600Z 09012KT 9999 SCT017 29/22 Q1008 NOSIG=
