19-May-2011 SAID35 WAPC 190000 METAR WAOC 190000Z 34006KT 7000E 05HZ OVC018 27/25 Q1009=
03-May-2016 SAID35 WAPC 031900 METAR WAOC 031900Z 00000KT 8000 FEW020 26/25 Q1008=
03-May-2016 SAID35 WAPC 032000 METAR WAOC 032000Z 00000KT 8000 FEW020 26/25 Q1009=
03-May-2016 SAID35 WAPC 032100 METAR WAOC 032100Z 00000KT 8000 SCT020 26/25 Q1009=
30-Jul-2016 SAID35 WAPC 302100 METAR WAOC 302100Z 12006KT 8000 BKN018 OVC058 26/23 Q1009=
30-Jul-2016 SAID35 WAPC 302200 METAR WAOC 302200Z 15003KT 8000 SCT018 BKN080 26/23 Q1009=
30-Jul-2016 SAID35 WAPC 302300 METAR WAOC 302300Z 14006KT 9000 SCT018 BKN080 27/24 Q1010=
27-Jun-2018 SAID35 WAPC 271900 METAR WAOC 271900Z 12008KT 7000 BKN018 OVC080 25/23 Q1010=
10-Aug-2022 SAID31 WAOC 101030 METAR WAOC 101030Z 02003KT 27/26 Q1008 NOSIG=
10-Aug-2022 SAID31 WAOC 101050 METAR WAOC 101050Z 02003KT 27/26 Q1008 NOSIG=
10-Aug-2022 SPID31 WAOC 101053 SPECI WAOC 101053Z 02003KT 27/26 Q1008 NOSIG=
11-Aug-2022 SAID31 WAOC 110200 METAR WAOC 110200Z 21002KT 26/26 Q1011 NOSIG=
11-Aug-2022 SAID31 WAOC 110700 METAR WAOC 110700Z 06004KT 9999 SCT015 26/26 Q1011 NOSIG=
13-Aug-2022 SAID31 WAOC 130030 METAR WAOC 130030Z VRB02KT //// ////// 28/27 Q1010=
13-Aug-2022 SAID31 WAOC 130200 METAR WAOC 130200Z 11005KT 31/27 Q1010 NOSIG=
13-Aug-2022 SAID31 WAOC 130230 METAR WAOC 130230Z 08004KT //// ////// 31/26 Q1010 NOSIG=
13-Aug-2022 SAID31 WAOC 130300 METAR WAOC 130300Z 08005KT //// ////// 32/27 Q1010 NOSIG=
13-Aug-2022 SAID31 WAOC 130400 METAR WAOC 130400Z 31008KT //// ////// 26/26 Q1009 NOSIG=
13-Aug-2022 SAID31 WAOC 130430 METAR WAOC 130430Z 08006KT //// ////// 25/25 Q1009 NOSIG=
13-Aug-2022 SAID31 WAOC 130500 METAR WAOC 130500Z 14005KT //// ////// 25/25 Q1008 NOSIG=
13-Aug-2022 SAID31 WAOC 130600 METAR WAOC 130600Z 00000KT //// ////// 25/25 Q1007 NOSIG=
13-Aug-2022 SAID31 WAOC 130700 METAR WAOC 130700Z VRB02KT //// ////// 26/26 Q1007 NOSIG=
20-Aug-2022 SAID31 WAOC 200430 METAR WAOC 200430Z 00000KT 4000 BKN012 26/26 Q1008 NOSIG=
20-Aug-2022 SAID31 WAOC 200500 METAR WAOC 200500Z 5000 28/27 Q1008 NOSIG=
11-Apr-2023 SAID31 WAOC 110130 METAR WAOC 110130Z AUTO 30004G04KT 220V310 30/23 Q1010=
11-Apr-2023 SAID31 WAOC 110200 METAR WAOC 110200Z AUTO VRB03G03KT 30/23 Q1010=
11-Apr-2023 SAID31 WAOC 110230 METAR WAOC 110230Z AUTO VRB02G02KT 240V320 31/23 Q1010=
11-Apr-2023 SAID31 WAOC 110300 METAR WAOC 110300Z AUTO VRB02G02KT 210V280 30/23 Q1010=
11-Apr-2023 SAID31 WAOC 110330 METAR WAOC 110330Z AUTO 28004G04KT 190V290 31/23 Q1010=
11-Apr-2023 SAID31 WAOC 110400 METAR WAOC 110400Z AUTO VRB02G02KT 170V270 32/23 Q1009=
11-Apr-2023 SAID31 WAOC 110430 METAR WAOC 110430Z AUTO VRB03G03KT 190V300 33/23 Q1009=
11-Apr-2023 SAID31 WAOC 110500 METAR WAOC 110500Z AUTO VRB02G02KT 230V320 32/22 Q1008=
11-Apr-2023 SAID31 WAOC 110530 METAR WAOC 110530Z AUTO 25006G06KT 230V310 34/22 Q1007=
11-Apr-2023 SAID31 WAOC 110600 METAR WAOC 110600Z AUTO VRB03G03KT 33/22 Q1007=
11-Apr-2023 SAID31 WAOC 110630 METAR WAOC 110630Z AUTO VRB03G03KT 220V300 33/22 Q1006=
11-Apr-2023 SAID31 WAOC 110700 METAR WAOC 110700Z AUTO VRB01G01KT 230V310 33/23 Q1006=
11-Apr-2023 SAID31 WAOC 110730 METAR WAOC 110730Z AUTO 28005G05KT 34/22 Q1006=
11-Apr-2023 SAID31 WAOC 110800 METAR WAOC 110800Z AUTO 28006G06KT 250V320 34/22 Q1006=
11-Apr-2023 SAID31 WAOC 110830 METAR WAOC 110830Z AUTO 30004G04KT 33/22 Q1005=
11-Apr-2023 SAID31 WAOC 110900 METAR WAOC 110900Z AUTO 31004G04KT 32/22 Q1006=
11-Apr-2023 SAID31 WAOC 110930 METAR WAOC 110930Z AUTO 32004G04KT 32/23 Q1006=
11-Apr-2023 SAID31 WAOC 111000 METAR WAOC 111000Z AUTO VRB03G03KT 31/23 Q1006=
11-Apr-2023 SAID31 WAOC 111030 METAR WAOC 111030Z AUTO VRB01G01KT 30/23 Q1007=
11-Apr-2023 SAID31 WAOC 111100 METAR WAOC 111100Z AUTO VRB01G01KT 220V300 30/24 Q1008=
11-Apr-2023 SAID31 WAOC 111130 METAR WAOC 111130Z AUTO VRB01G01KT 30/22 Q1008=
11-Apr-2023 SAID31 WAOC 111200 METAR WAOC 111200Z AUTO VRB01G01KT 210V280 29/23 Q1008=
11-Apr-2023 SAID31 WAOC 111230 METAR WAOC 111230Z AUTO VRB03G03KT 200V280 28/23 Q1009=
11-Apr-2023 SAID31 WAOC 111300 METAR WAOC 111300Z AUTO VRB02G02KT 190V280 28/23 Q1009=
11-Apr-2023 SAID31 WAOC 111330 METAR WAOC 111330Z AUTO VRB01G01KT 200V310 27/23 Q1010=
11-Apr-2023 SAID31 WAOC 111400 METAR WAOC 111400Z AUTO VRB01G01KT 200V290 27/23 Q1010=
11-Apr-2023 SAID31 WAOC 111430 METAR WAOC 111430Z AUTO VRB01G01KT 190V290 27/23 Q1010=
11-Apr-2023 SAID31 WAOC 111500 METAR WAOC 111500Z AUTO VRB03G03KT 230V320 26/23 Q1010=
11-Apr-2023 SAID31 WAOC 111530 METAR WAOC 111530Z AUTO VRB02G02KT 26/23 Q1010=
11-Apr-2023 SAID31 WAOC 111600 METAR WAOC 111600Z AUTO VRB02G02KT 27/23 Q1010=
11-Apr-2023 SAID31 WAOC 111630 METAR WAOC 111630Z AUTO VRB01G01KT 27/23 Q1010=
11-Apr-2023 SAID31 WAOC 111700 METAR WAOC 111700Z AUTO VRB01G01KT 27/23 Q1009=
11-Apr-2023 SAID31 WAOC 111730 METAR WAOC 111730Z AUTO VRB01G01KT 27/23 Q1009=
11-Apr-2023 SAID31 WAOC 111800 METAR WAOC 111800Z AUTO VRB01G01KT 320V050 27/23 Q1009=
11-Apr-2023 SAID31 WAOC 111830 METAR WAOC 111830Z AUTO VRB01G01KT 330V010 27/23 Q1009=
11-Apr-2023 SAID31 WAOC 111900 METAR WAOC 111900Z AUTO VRB01G01KT 340V030 27/23 Q1009=
11-Apr-2023 SAID31 WAOC 111930 METAR WAOC 111930Z AUTO VRB02G02KT 26/23 Q1008=
11-Apr-2023 SAID31 WAOC 112000 METAR WAOC 112000Z AUTO VRB02G02KT 360V050 27/23 Q1008=
11-Apr-2023 SAID31 WAOC 112030 METAR WAOC 112030Z AUTO VRB02G02KT 26/23 Q1008=
11-Apr-2023 SAID31 WAOC 112100 METAR WAOC 112100Z AUTO VRB01G01KT 26/23 Q1008=
11-Apr-2023 SAID31 WAOC 112130 METAR WAOC 112130Z AUTO VRB01G01KT 310V010 26/24 Q1008=
11-Apr-2023 SAID31 WAOC 112200 METAR WAOC 112200Z AUTO 00000G00KT 110V190 25/24 Q1009=
11-Apr-2023 SAID31 WAOC 112230 METAR WAOC 112230Z AUTO VRB01G01KT 26/23 Q1009=
11-Apr-2023 SAID31 WAOC 112300 METAR WAOC 112300Z AUTO VRB02G02KT 350V030 27/24 Q1010=
11-Apr-2023 SAID31 WAOC 112330 METAR WAOC 112330Z AUTO VRB02G02KT 28/24 Q1010=
12-Apr-2023 SAID31 WAOC 120000 METAR WAOC 120000Z AUTO VRB01G01KT 28/24 Q1010=
12-Apr-2023 SAID31 WAOC 120030 METAR WAOC 120030Z AUTO VRB01G01KT 320V090 30/24 Q1010=
12-Apr-2023 SAID31 WAOC 120100 METAR WAOC 120100Z AUTO VRB02G02KT 210V320 30/24 Q1010=
12-Apr-2023 SAID31 WAOC 120130 METAR WAOC 120130Z AUTO VRB03G03KT 31/24 Q1010=
12-Apr-2023 SAID31 WAOC 120200 METAR WAOC 120200Z AUTO 31005G05KT 240V320 32/25 Q1009=
12-Apr-2023 SAID31 WAOC 120230 METAR WAOC 120230Z AUTO VRB02G02KT 220V360 32/24 Q1009=
12-Apr-2023 SAID31 WAOC 120300 METAR WAOC 120300Z AUTO VRB02G02KT 260V340 32/25 Q1009=
12-Apr-2023 SAID31 WAOC 120330 METAR WAOC 120330Z AUTO 25004G04KT 210V340 33/24 Q1008=
12-Apr-2023 SAID31 WAOC 120400 METAR WAOC 120400Z AUTO VRB01G01KT 220V320 31/25 Q1008=
12-Apr-2023 SAID31 WAOC 120430 METAR WAOC 120430Z AUTO VRB02G02KT 180V270 32/25 Q1007=
12-Apr-2023 SAID31 WAOC 120500 METAR WAOC 120500Z AUTO 19004G04KT 120V200 32/25 Q1006=
12-Apr-2023 SAID31 WAOC 120530 METAR WAOC 120530Z AUTO VRB03G03KT 31/25 Q1006=
12-Apr-2023 SAID31 WAOC 120600 METAR WAOC 120600Z AUTO VRB02G02KT 100V180 32/25 Q1006=
12-Apr-2023 SAID31 WAOC 120630 METAR WAOC 120630Z AUTO VRB02G02KT 130V220 33/25 Q1005=
12-Apr-2023 SAID31 WAOC 120700 METAR WAOC 120700Z AUTO 20005G05KT 120V230 32/25 Q1005=
12-Apr-2023 SAID31 WAOC 120730 METAR WAOC 120730Z AUTO VRB03G03KT 150V240 31/25 Q1005=
12-Apr-2023 SAID31 WAOC 120800 METAR WAOC 120800Z AUTO 22005G05KT 160V260 32/25 Q1005=
12-Apr-2023 SAID31 WAOC 120830 METAR WAOC 120830Z AUTO 20005G05KT 130V240 32/25 Q1005=
12-Apr-2023 SAID31 WAOC 120900 METAR WAOC 120900Z AUTO 14005G05KT 120V190 31/26 Q1006=
13-Apr-2023 SAID31 WAOC 130030 METAR WAOC 130030Z AUTO VRB02G02KT 29/25 Q1011=
13-Apr-2023 SAID31 WAOC 130100 METAR WAOC 130100Z AUTO VRB01G01KT 260V340 30/24 Q1011=
13-Apr-2023 SAID31 WAOC 130130 METAR WAOC 130130Z AUTO VRB02G02KT 140V340 31/24 Q1011=
13-Apr-2023 SAID31 WAOC 130200 METAR WAOC 130200Z AUTO 00000G00KT 190V040 31/23 Q1010=
13-Apr-2023 SAID31 WAOC 130230 METAR WAOC 130230Z AUTO VRB01G01KT 190V320 31/24 Q1010=
13-Apr-2023 SAID31 WAOC 130300 METAR WAOC 130300Z AUTO 33004G04KT 240V350 32/23 Q1009=
13-Apr-2023 SAID31 WAOC 130330 METAR WAOC 130330Z AUTO 30005G05KT 240V320 33/23 Q1009=
13-Apr-2023 SAID31 WAOC 130400 METAR WAOC 130400Z AUTO 32006G06KT 33/24 Q1008=
13-Apr-2023 SAID31 WAOC 130430 METAR WAOC 130430Z AUTO VRB03G03KT 180V270 32/24 Q1008=
13-Apr-2023 SAID31 WAOC 130500 METAR WAOC 130500Z AUTO 27004G04KT 33/23 Q1008=
13-Apr-2023 SAID31 WAOC 130530 METAR WAOC 130530Z AUTO 28006G06KT 35/23 Q1007=
13-Apr-2023 SAID31 WAOC 130600 METAR WAOC 130600Z AUTO 27004G04KT 190V310 34/22 Q1007=
13-Apr-2023 SAID31 WAOC 130630 METAR WAOC 130630Z AUTO 17005G05KT 120V220 31/25 Q1006=
13-Apr-2023 SAID31 WAOC 130700 METAR WAOC 130700Z AUTO 21005G05KT 150V240 30/24 Q1006=
13-Apr-2023 SAID31 WAOC 130730 METAR WAOC 130730Z AUTO 20005G05KT 160V230 30/23 Q1005=
13-Apr-2023 SAID31 WAOC 130800 METAR WAOC 130800Z AUTO VRB03G03KT 30/25 Q1005=
13-Apr-2023 SAID31 WAOC 130830 METAR WAOC 130830Z AUTO VRB02G02KT 110V250 29/25 Q1005=
13-Apr-2023 SAID31 WAOC 130900 METAR WAOC 130900Z AUTO VRB03G03KT 130V240 29/26 Q1005=
13-Apr-2023 SAID31 WAOC 130930 METAR WAOC 130930Z AUTO VRB02G02KT 160V230 29/26 Q1006=
13-Apr-2023 SAID31 WAOC 132330 METAR WAOC 132330Z AUTO 00000G00KT 120V290 27/25 Q1010=
14-Apr-2023 SAID31 WAOC 140000 METAR WAOC 140000Z AUTO VRB01G01KT 220V320 28/24 Q1010=
14-Apr-2023 SAID31 WAOC 140030 METAR WAOC 140030Z AUTO VRB02G02KT 330V040 28/24 Q1010=
14-Apr-2023 SAID31 WAOC 140100 METAR WAOC 140100Z AUTO VRB02G02KT 310V030 28/24 Q1011=
14-Apr-2023 SAID31 WAOC 140130 METAR WAOC 140130Z AUTO VRB01G01KT 330V010 28/24 Q1011=
14-Apr-2023 SAID31 WAOC 140200 METAR WAOC 140200Z AUTO VRB02G02KT 29/24 Q1011=
14-Apr-2023 SAID31 WAOC 140230 METAR WAOC 140230Z AUTO VRB01G01KT 320V000 29/24 Q1011=
14-Apr-2023 SAID31 WAOC 140300 METAR WAOC 140300Z AUTO VRB02G02KT 30/24 Q1011=
14-Apr-2023 SAID31 WAOC 140330 METAR WAOC 140330Z AUTO VRB02G02KT 190V020 30/24 Q1010=
14-Apr-2023 SAID31 WAOC 140400 METAR WAOC 140400Z AUTO VRB01G01KT 230V340 31/24 Q1009=
14-Apr-2023 SAID31 WAOC 140430 METAR WAOC 140430Z AUTO 22004G04KT 190V330 32/24 Q1009=
14-Apr-2023 SAID31 WAOC 140500 METAR WAOC 140500Z AUTO VRB01G01KT 260V340 32/24 Q1008=
14-Apr-2023 SAID31 WAOC 140530 METAR WAOC 140530Z AUTO VRB01G01KT 280V010 32/23 Q1007=
14-Apr-2023 SAID31 WAOC 140600 METAR WAOC 140600Z AUTO VRB02G02KT 210V020 32/24 Q1007=
14-Apr-2023 SAID31 WAOC 140630 METAR WAOC 140630Z AUTO 29004G04KT 33/24 Q1006=
14-Apr-2023 SAID31 WAOC 140700 METAR WAOC 140700Z AUTO VRB02G02KT 140V210 30/25 Q1006=
15-Apr-2023 SAID31 WAOC 150000 METAR WAOC 150000Z AUTO VRB02G01KT 26/25 Q1009=
15-Apr-2023 SAID31 WAOC 150030 METAR WAOC 150030Z AUTO VRB02G02KT 27/25 Q1010=
15-Apr-2023 SAID31 WAOC 150100 METAR WAOC 150100Z AUTO VRB03G03KT 28/25 Q1010=
15-Apr-2023 SAID31 WAOC 150130 METAR WAOC 150130Z AUTO VRB01G01KT 260V360 29/24 Q1010=
15-Apr-2023 SAID31 WAOC 150200 METAR WAOC 150200Z AUTO VRB01G01KT 220V030 30/25 Q1010=
15-Apr-2023 SAID31 WAOC 150230 METAR WAOC 150230Z AUTO VRB02G02KT 010V120 30/25 Q1010=
15-Apr-2023 SAID31 WAOC 150300 METAR WAOC 150300Z AUTO VRB03G03KT 30/25 Q1010=
15-Apr-2023 SAID31 WAOC 150330 METAR WAOC 150330Z AUTO VRB03G03KT 31/25 Q1009=
15-Apr-2023 SAID31 WAOC 150400 METAR WAOC 150400Z AUTO VRB02G02KT 360V050 30/24 Q1009=
15-Apr-2023 SAID31 WAOC 150430 METAR WAOC 150430Z AUTO VRB02G02KT 30/25 Q1008=
15-Apr-2023 SAID31 WAOC 150500 METAR WAOC 150500Z AUTO 18005G05KT 150V230 28/25 Q1007=
15-Apr-2023 SAID31 WAOC 150530 METAR WAOC 150530Z AUTO VRB02G02KT 090V220 28/24 Q1007=
15-Apr-2023 SAID31 WAOC 150600 METAR WAOC 150600Z AUTO VRB02G02KT 29/25 Q1007=
15-Apr-2023 SAID31 WAOC 150630 METAR WAOC 150630Z AUTO VRB01G01KT 160V290 28/25 Q1007=
15-Apr-2023 SAID31 WAOC 150900 METAR WAOC 150900Z AUTO VRB03G03KT 27/25 Q1007=
15-Apr-2023 SAID31 WAOC 150930 METAR WAOC 150930Z AUTO 00000G00KT 160V240 27/25 Q1007=
15-Apr-2023 SAID31 WAOC 151000 METAR WAOC 151000Z AUTO VRB01G01KT 280V010 27/25 Q1007=
15-Apr-2023 SAID31 WAOC 151030 METAR WAOC 151030Z AUTO VRB01G01KT 26/25 Q1007=
16-Apr-2023 SAID31 WAOC 160030 METAR WAOC 160030Z AUTO VRB01G01KT 310V050 27/25 Q1010=
16-Apr-2023 SAID31 WAOC 160100 METAR WAOC 160100Z AUTO VRB02G02KT 350V050 28/25 Q1010=
16-Apr-2023 SAID31 WAOC 160130 METAR WAOC 160130Z AUTO VRB02G02KT 350V040 28/25 Q1011=
16-Apr-2023 SAID31 WAOC 160200 METAR WAOC 160200Z AUTO VRB01G01KT 310V060 29/25 Q1010=
16-Apr-2023 SAID31 WAOC 160230 METAR WAOC 160230Z AUTO VRB01G01KT 340V100 29/25 Q1010=
16-Apr-2023 SAID31 WAOC 160300 METAR WAOC 160300Z AUTO VRB02G02KT 29/25 Q1010=
16-Apr-2023 SAID31 WAOC 160330 METAR WAOC 160330Z AUTO VRB02G02KT 29/25 Q1010=
16-Apr-2023 SAID31 WAOC 160400 METAR WAOC 160400Z AUTO VRB03G03KT 29/25 Q1009=
16-Apr-2023 SAID31 WAOC 160430 METAR WAOC 160430Z AUTO VRB01G01KT 000V140 30/25 Q1009=
16-Apr-2023 SAID31 WAOC 160500 METAR WAOC 160500Z AUTO VRB02G02KT 140V250 27/23 Q1009=
16-Apr-2023 SAID31 WAOC 160530 METAR WAOC 160530Z AUTO VRB01G01KT 190V270 27/24 Q1008=
16-Apr-2023 SAID31 WAOC 160600 METAR WAOC 160600Z AUTO VRB02G02KT 180V260 29/23 Q1007=
16-Apr-2023 SAID31 WAOC 160630 METAR WAOC 160630Z AUTO VRB01G01KT 090V170 29/24 Q1007=
16-Apr-2023 SAID31 WAOC 160700 METAR WAOC 160700Z AUTO VRB02G02KT 28/25 Q1007=
16-Apr-2023 SAID31 WAOC 160730 METAR WAOC 160730Z AUTO VRB01G01KT 080V170 29/24 Q1006=
16-Apr-2023 SAID31 WAOC 160800 METAR WAOC 160800Z AUTO VRB02G02KT 140V250 29/24 Q1006=
16-Apr-2023 SAID31 WAOC 160830 METAR WAOC 160830Z AUTO VRB01G01KT 120V240 29/25 Q1006=
16-Apr-2023 SAID31 WAOC 162230 METAR WAOC 162230Z AUTO VRB01G01KT 25/24 Q1010=
16-Apr-2023 SAID31 WAOC 162300 METAR WAOC 162300Z AUTO VRB02G02KT 25/24 Q1011=
16-Apr-2023 SAID31 WAOC 162330 METAR WAOC 162330Z AUTO VRB01G01KT 280V050 27/24 Q1011=
17-Apr-2023 SAID31 WAOC 170000 METAR WAOC 170000Z AUTO VRB01G01KT 060V130 28/25 Q1011=
17-Apr-2023 SAID31 WAOC 170030 METAR WAOC 170030Z AUTO VRB01G01KT 300V060 29/25 Q1011=
17-Apr-2023 SAID31 WAOC 170100 METAR WAOC 170100Z AUTO VRB01G01KT 140V060 30/25 Q1011=
17-Apr-2023 SAID31 WAOC 170130 METAR WAOC 170130Z AUTO 00000G00KT 310V110 30/25 Q1011=
17-Apr-2023 SAID31 WAOC 170200 METAR WAOC 170200Z AUTO VRB02G02KT 30/25 Q1011=
17-Apr-2023 SAID31 WAOC 170230 METAR WAOC 170230Z AUTO VRB02G02KT 070V140 30/25 Q1011=
17-Apr-2023 SAID31 WAOC 170300 METAR WAOC 170300Z AUTO VRB01G01KT 30/25 Q1011=
17-Apr-2023 SAID31 WAOC 170330 METAR WAOC 170330Z AUTO VRB02G02KT 070V140 32/25 Q1011=
17-Apr-2023 SAID31 WAOC 170400 METAR WAOC 170400Z AUTO VRB02G02KT 040V110 32/25 Q1010=
17-Apr-2023 SAID31 WAOC 170430 METAR WAOC 170430Z AUTO VRB03G03KT 350V110 32/24 Q1009=
17-Apr-2023 SAID31 WAOC 170500 METAR WAOC 170500Z AUTO VRB03G03KT 340V030 32/25 Q1008=
17-Apr-2023 SAID31 WAOC 170530 METAR WAOC 170530Z AUTO VRB03G03KT 250V080 32/24 Q1009=
17-Apr-2023 SAID31 WAOC 170600 METAR WAOC 170600Z AUTO 29009G09KT 230V310 24/24 Q1009=
17-Apr-2023 SAID31 WAOC 170630 METAR WAOC 170630Z AUTO VRB03G03KT 23/23 Q1009=
17-Apr-2023 SAID31 WAOC 170700 METAR WAOC 170700Z AUTO VRB02G02KT 340V030 24/23 Q1008=
18-Apr-2023 SAID31 WAOC 180000 METAR WAOC 180000Z AUTO VRB01G01KT 270V350 27/24 Q1012=
18-Apr-2023 SAID31 WAOC 180030 METAR WAOC 180030Z AUTO 00000G00KT 230V010 28/25 Q1012=
18-Apr-2023 SAID31 WAOC 180100 METAR WAOC 180100Z AUTO VRB01G01KT 290V070 29/24 Q1012=
18-Apr-2023 SAID31 WAOC 180130 METAR WAOC 180130Z AUTO VRB01G01KT 280V020 30/25 Q1012=
18-Apr-2023 SAID31 WAOC 180200 METAR WAOC 180200Z AUTO VRB02G02KT 250V350 31/25 Q1012=
18-Apr-2023 SAID31 WAOC 180230 METAR WAOC 180230Z AUTO VRB02G02KT 31/24 Q1012=
18-Apr-2023 SAID31 WAOC 180300 METAR WAOC 180300Z AUTO VRB02G02KT 31/23 Q1012=
18-Apr-2023 SAID31 WAOC 180330 METAR WAOC 180330Z AUTO VRB02G02KT 050V120 31/24 Q1011=
18-Apr-2023 SAID31 WAOC 180400 METAR WAOC 180400Z AUTO VRB02G02KT 31/23 Q1010=
18-Apr-2023 SAID31 WAOC 180430 METAR WAOC 180430Z AUTO VRB03G03KT 32/24 Q1010=
18-Apr-2023 SAID31 WAOC 180500 METAR WAOC 180500Z AUTO VRB02G02KT 010V100 32/24 Q1009=
18-Apr-2023 SAID31 WAOC 180530 METAR WAOC 180530Z AUTO VRB02G02KT 040V150 33/24 Q1009=
18-Apr-2023 SAID31 WAOC 180600 METAR WAOC 180600Z AUTO VRB03G03KT 050V140 33/24 Q1008=
18-Apr-2023 SAID31 WAOC 180630 METAR WAOC 180630Z AUTO VRB02G02KT 070V150 32/24 Q1008=
18-Apr-2023 SAID31 WAOC 180700 METAR WAOC 180700Z AUTO VRB02G02KT 32/25 Q1007=
18-Apr-2023 SAID31 WAOC 180730 METAR WAOC 180730Z AUTO VRB03G03KT 32/26 Q1007=
18-Apr-2023 SAID31 WAOC 180800 METAR WAOC 180800Z AUTO 15004G04KT 100V200 31/25 Q1007=
18-Apr-2023 SAID31 WAOC 180830 METAR WAOC 180830Z AUTO VRB02G02KT 090V160 31/25 Q1007=
18-Apr-2023 SAID31 WAOC 180900 METAR WAOC 180900Z AUTO 13004G04KT 30/26 Q1007=
18-Apr-2023 SAID31 WAOC 180930 METAR WAOC 180930Z AUTO VRB02G02KT 100V200 30/25 Q1008=
18-Apr-2023 SAID31 WAOC 181000 METAR WAOC 181000Z AUTO VRB03G03KT 160V230 29/25 Q1009=
18-Apr-2023 SAID31 WAOC 181030 METAR WAOC 181030Z AUTO VRB03G03KT 26/25 Q1009=
18-Apr-2023 SAID31 WAOC 181100 METAR WAOC 181100Z AUTO VRB02G02KT 320V030 26/26 Q1009=
18-Apr-2023 SAID31 WAOC 181130 METAR WAOC 181130Z AUTO VRB02G02KT 210V280 26/26 Q1010=
18-Apr-2023 SAID31 WAOC 181200 METAR WAOC 181200Z AUTO 00000G00KT 210V000 26/26 Q1010=
18-Apr-2023 SAID31 WAOC 181230 METAR WAOC 181230Z AUTO VRB02G02KT 26/26 Q1010=
18-Apr-2023 SAID31 WAOC 181300 METAR WAOC 181300Z AUTO VRB03G03KT 26/26 Q1011=
18-Apr-2023 SAID31 WAOC 181330 METAR WAOC 181330Z AUTO VRB01G01KT 240V320 26/25 Q1011=
18-Apr-2023 SAID31 WAOC 181400 METAR WAOC 181400Z AUTO VRB01G01KT 26/25 Q1011=
18-Apr-2023 SAID31 WAOC 181430 METAR WAOC 181430Z AUTO VRB01G01KT 26/25 Q1011=
18-Apr-2023 SAID31 WAOC 181500 METAR WAOC 181500Z AUTO VRB01G01KT 26/25 Q1011=
18-Apr-2023 SAID31 WAOC 181530 METAR WAOC 181530Z AUTO VRB03G03KT 25/25 Q1011=
18-Apr-2023 SAID31 WAOC 181600 METAR WAOC 181600Z AUTO VRB03G03KT 25/25 Q1011=
18-Apr-2023 SAID31 WAOC 181630 METAR WAOC 181630Z AUTO VRB02G02KT 25/24 Q1010=
18-Apr-2023 SAID31 WAOC 181700 METAR WAOC 181700Z AUTO VRB02G02KT 25/25 Q1010=
18-Apr-2023 SAID31 WAOC 181730 METAR WAOC 181730Z AUTO VRB03G03KT 25/25 Q1010=
18-Apr-2023 SAID31 WAOC 181800 METAR WAOC 181800Z AUTO VRB01G01KT 25/25 Q1009=
18-Apr-2023 SAID31 WAOC 181830 METAR WAOC 181830Z AUTO VRB02G02KT 25/25 Q1009=
18-Apr-2023 SAID31 WAOC 181900 METAR WAOC 181900Z AUTO VRB02G02KT 26/25 Q1009=
18-Apr-2023 SAID31 WAOC 181930 METAR WAOC 181930Z AUTO VRB01G01KT 26/25 Q1008=
18-Apr-2023 SAID31 WAOC 182000 METAR WAOC 182000Z AUTO VRB01G01KT 26/25 Q1008=
18-Apr-2023 SAID31 WAOC 182030 METAR WAOC 182030Z AUTO VRB01G01KT 26/25 Q1009=
18-Apr-2023 SAID31 WAOC 182100 METAR WAOC 182100Z AUTO VRB01G01KT 26/25 Q1008=
18-Apr-2023 SAID31 WAOC 182130 METAR WAOC 182130Z AUTO VRB01G01KT 25/25 Q1009=
18-Apr-2023 SAID31 WAOC 182200 METAR WAOC 182200Z AUTO VRB01G01KT 25/25 Q1009=
18-Apr-2023 SAID31 WAOC 182230 METAR WAOC 182230Z AUTO VRB01G01KT 160V240 26/25 Q1009=
18-Apr-2023 SAID31 WAOC 182300 METAR WAOC 182300Z AUTO VRB01G01KT 26/25 Q1009=
18-Apr-2023 SAID31 WAOC 182330 METAR WAOC 182330Z AUTO 00000G00KT 090V280 27/24 Q1010=
19-Apr-2023 SAID31 WAOC 190000 METAR WAOC 190000Z AUTO VRB01G01KT 080V240 27/25 Q1010=
19-Apr-2023 SAID31 WAOC 190030 METAR WAOC 190030Z AUTO VRB02G02KT 130V270 28/25 Q1010=
19-Apr-2023 SAID31 WAOC 190100 METAR WAOC 190100Z AUTO 00000G00KT 120V280 29/25 Q1010=
19-Apr-2023 SAID31 WAOC 190130 METAR WAOC 190130Z AUTO VRB01G01KT 060V240 30/25 Q1010=
19-Apr-2023 SAID31 WAOC 190200 METAR WAOC 190200Z AUTO VRB02G02KT 050V250 30/25 Q1010=
19-Apr-2023 SAID31 WAOC 190230 METAR WAOC 190230Z AUTO 00000G00KT 070V150 31/25 Q1010=
19-Apr-2023 SAID31 WAOC 190300 METAR WAOC 190300Z AUTO VRB02G02KT 30/25 Q1009=
19-Apr-2023 SAID31 WAOC 190330 METAR WAOC 190330Z AUTO VRB01G01KT 080V220 32/26 Q1009=
19-Apr-2023 SAID31 WAOC 190400 METAR WAOC 190400Z AUTO VRB02G02KT 040V190 31/25 Q1008=
19-Apr-2023 SAID31 WAOC 190430 METAR WAOC 190430Z AUTO 13005G05KT 110V190 30/26 Q1008=
19-Apr-2023 SAID31 WAOC 190500 METAR WAOC 190500Z AUTO VRB02G02KT 29/26 Q1007=
19-Apr-2023 SAID31 WAOC 190530 METAR WAOC 190530Z AUTO 10004G04KT 30/26 Q1007=
19-Apr-2023 SAID31 WAOC 190600 METAR WAOC 190600Z AUTO VRB03G03KT 050V130 30/25 Q1006=
19-Apr-2023 SAID31 WAOC 190630 METAR WAOC 190630Z AUTO VRB03G03KT 060V140 30/25 Q1006=
19-Apr-2023 SAID31 WAOC 190700 METAR WAOC 190700Z AUTO 13005G05KT 080V160 30/25 Q1005=
19-Apr-2023 SAID31 WAOC 190730 METAR WAOC 190730Z AUTO VRB03G03KT 090V170 30/25 Q1005=
19-Apr-2023 SAID31 WAOC 190800 METAR WAOC 190800Z AUTO VRB02G02KT 090V180 29/25 Q1005=
19-Apr-2023 SAID31 WAOC 190830 METAR WAOC 190830Z AUTO VRB02G02KT 100V170 29/25 Q1005=
19-Apr-2023 SAID31 WAOC 190900 METAR WAOC 190900Z AUTO VRB02G02KT 070V140 29/25 Q1005=
19-Apr-2023 SAID31 WAOC 190930 METAR WAOC 190930Z AUTO VRB01G01KT 160V230 29/25 Q1005=
19-Apr-2023 SAID31 WAOC 191000 METAR WAOC 191000Z AUTO VRB03G03KT 28/26 Q1006=
19-Apr-2023 SAID31 WAOC 191030 METAR WAOC 191030Z AUTO VRB02G02KT 27/26 Q1006=
19-Apr-2023 SAID31 WAOC 191100 METAR WAOC 191100Z AUTO VRB02G02KT 27/25 Q1006=
19-Apr-2023 SAID31 WAOC 191130 METAR WAOC 191130Z AUTO VRB02G02KT 27/26 Q1006=
20-Apr-2023 SAID31 WAOC 200000 METAR WAOC 200000Z AUTO VRB03G03KT 26/25 Q1007=
20-Apr-2023 SAID31 WAOC 200030 METAR WAOC 200030Z AUTO 30004G04KT 27/25 Q1008=
20-Apr-2023 SAID31 WAOC 200100 METAR WAOC 200100Z AUTO VRB01G01KT 280V010 29/25 Q1008=
20-Apr-2023 SAID31 WAOC 200130 METAR WAOC 200130Z AUTO VRB03G03KT 030V180 30/25 Q1008=
20-Apr-2023 SAID31 WAOC 200200 METAR WAOC 200200Z AUTO VRB02G02KT 140V250 30/25 Q1008=
20-Apr-2023 SAID31 WAOC 200230 METAR WAOC 200230Z AUTO VRB01G01KT 050V120 30/26 Q1008=
20-Apr-2023 SAID31 WAOC 200300 METAR WAOC 200300Z AUTO VRB01G01KT 110V240 30/25 Q1007=
20-Apr-2023 SAID31 WAOC 200330 METAR WAOC 200330Z AUTO 11005G05KT 28/25 Q1007=
20-Apr-2023 SAID31 WAOC 200400 METAR WAOC 200400Z AUTO VRB03G03KT 100V180 26/25 Q1008=
20-Apr-2023 SAID31 WAOC 200430 METAR WAOC 200430Z AUTO VRB03G03KT 25/24 Q1007=
20-Apr-2023 SAID31 WAOC 200500 METAR WAOC 200500Z AUTO VRB02G02KT 25/24 Q1007=
20-Apr-2023 SAID31 WAOC 200530 METAR WAOC 200530Z AUTO VRB02G02KT 25/24 Q1006=
20-Apr-2023 SAID31 WAOC 200600 METAR WAOC 200600Z AUTO VRB01G01KT 26/24 Q1007=
20-Apr-2023 SAID31 WAOC 200630 METAR WAOC 200630Z AUTO VRB02G02KT 26/25 Q1006=
20-Apr-2023 SAID31 WAOC 200700 METAR WAOC 200700Z AUTO VRB02G02KT 25/25 Q1006=
20-Apr-2023 SAID31 WAOC 200730 METAR WAOC 200730Z AUTO VRB02G02KT 25/24 Q1006=
20-Apr-2023 SAID31 WAOC 200800 METAR WAOC 200800Z AUTO VRB02G02KT 25/25 Q1006=
20-Apr-2023 SAID31 WAOC 200830 METAR WAOC 200830Z AUTO VRB02G02KT 25/24 Q1005=
20-Apr-2023 SAID31 WAOC 200900 METAR WAOC 200900Z AUTO VRB02G02KT 25/24 Q1005=
20-Apr-2023 SAID31 WAOC 200930 METAR WAOC 200930Z AUTO VRB01G01KT 320V010 25/24 Q1006=
20-Apr-2023 SAID31 WAOC 201000 METAR WAOC 201000Z AUTO VRB01G01KT 040V150 25/24 Q1006=
20-Apr-2023 SAID31 WAOC 202230 METAR WAOC 202230Z AUTO VRB01G01KT 270V020 24/24 Q1007=
20-Apr-2023 SAID31 WAOC 202300 METAR WAOC 202300Z AUTO VRB02G02KT 24/24 Q1008=
20-Apr-2023 SAID31 WAOC 202330 METAR WAOC 202330Z AUTO VRB01G01KT 130V270 26/24 Q1008=
21-Apr-2023 SAID31 WAOC 210000 METAR WAOC 210000Z AUTO VRB01G01KT 200V290 27/24 Q1009=
21-Apr-2023 SAID31 WAOC 210030 METAR WAOC 210030Z AUTO 00000G00KT 28/25 Q1009=
21-Apr-2023 SAID31 WAOC 210100 METAR WAOC 210100Z AUTO VRB01G01KT 220V320 29/25 Q1009=
21-Apr-2023 SAID31 WAOC 210130 METAR WAOC 210130Z AUTO 00000G00KT 270V180 30/25 Q1009=
21-Apr-2023 SAID31 WAOC 210200 METAR WAOC 210200Z AUTO VRB03G03KT 30/25 Q1009=
21-Apr-2023 SAID31 WAOC 210230 METAR WAOC 210230Z AUTO VRB03G03KT 100V170 30/25 Q1009=
21-Apr-2023 SAID31 WAOC 210300 METAR WAOC 210300Z AUTO VRB02G02KT 060V160 31/25 Q1009=
21-Apr-2023 SAID31 WAOC 210330 METAR WAOC 210330Z AUTO VRB01G01KT 020V170 32/25 Q1008=
21-Apr-2023 SAID31 WAOC 210400 METAR WAOC 210400Z AUTO VRB03G03KT 340V070 32/25 Q1007=
21-Apr-2023 SAID31 WAOC 210430 METAR WAOC 210430Z AUTO 12004G04KT 060V130 32/23 Q1007=
21-Apr-2023 SAID31 WAOC 210500 METAR WAOC 210500Z AUTO 10004G04KT 30/25 Q1007=
21-Apr-2023 SAID31 WAOC 210530 METAR WAOC 210530Z AUTO 13006G06KT 31/25 Q1006=
21-Apr-2023 SAID31 WAOC 210600 METAR WAOC 210600Z AUTO VRB03G03KT 31/24 Q1006=
21-Apr-2023 SAID31 WAOC 210630 METAR WAOC 210630Z AUTO 12005G05KT 32/24 Q1006=
21-Apr-2023 SAID31 WAOC 210700 METAR WAOC 210700Z AUTO VRB03G03KT 30/25 Q1006=
21-Apr-2023 SAID31 WAOC 210730 METAR WAOC 210730Z AUTO VRB02G02KT 110V200 30/25 Q1006=
21-Apr-2023 SAID31 WAOC 210800 METAR WAOC 210800Z AUTO VRB01G01KT 110V200 29/25 Q1006=
21-Apr-2023 SAID31 WAOC 210830 METAR WAOC 210830Z AUTO VRB03G03KT 140V220 29/26 Q1006=
21-Apr-2023 SAID31 WAOC 210900 METAR WAOC 210900Z AUTO VRB02G02KT 180V250 28/26 Q1006=
21-Apr-2023 SAID31 WAOC 210930 METAR WAOC 210930Z AUTO VRB02G02KT 28/26 Q1007=
21-Apr-2023 SAID31 WAOC 211000 METAR WAOC 211000Z AUTO VRB02G02KT 27/26 Q1007=
21-Apr-2023 SAID31 WAOC 211030 METAR WAOC 211030Z AUTO VRB02G02KT 27/26 Q1007=
21-Apr-2023 SAID31 WAOC 211100 METAR WAOC 211100Z AUTO VRB01G01KT 210V330 27/25 Q1007=
21-Apr-2023 SAID31 WAOC 211130 METAR WAOC 211130Z AUTO VRB02G02KT 200V320 27/25 Q1008=
21-Apr-2023 SAID31 WAOC 211200 METAR WAOC 211200Z AUTO VRB01G01KT 26/25 Q1008=
22-Apr-2023 SAID31 WAOC 220300 METAR WAOC 220300Z AUTO VRB03G03KT 110V230 32/25 Q1008=
22-Apr-2023 SAID31 WAOC 220330 METAR WAOC 220330Z AUTO 16005G05KT 130V220 31/26 Q1008=
22-Apr-2023 SAID31 WAOC 220400 METAR WAOC 220400Z AUTO 14007G07KT 30/25 Q1008=
22-Apr-2023 SAID31 WAOC 220430 METAR WAOC 220430Z AUTO 10004G04KT 28/24 Q1008=
22-Apr-2023 SAID31 WAOC 220500 METAR WAOC 220500Z AUTO VRB02G02KT 28/24 Q1008=
22-Apr-2023 SAID31 WAOC 220530 METAR WAOC 220530Z AUTO VRB03G03KT 28/24 Q1007=
22-Apr-2023 SAID31 WAOC 220600 METAR WAOC 220600Z AUTO VRB02G02KT 050V120 28/25 Q1007=
22-Apr-2023 SAID31 WAOC 220630 METAR WAOC 220630Z AUTO VRB02G02KT 28/25 Q1006=
22-Apr-2023 SAID31 WAOC 220700 METAR WAOC 220700Z AUTO VRB03G03KT 170V240 28/25 Q1006=
22-Apr-2023 SAID31 WAOC 220730 METAR WAOC 220730Z AUTO VRB02G02KT 110V220 28/25 Q1006=
22-Apr-2023 SAID31 WAOC 220800 METAR WAOC 220800Z AUTO VRB01G01KT 210V280 27/25 Q1007=
22-Apr-2023 SAID31 WAOC 220830 METAR WAOC 220830Z AUTO VRB02G02KT 27/25 Q1007=
22-Apr-2023 SAID31 WAOC 220900 METAR WAOC 220900Z AUTO VRB02G02KT 27/25 Q1007=
22-Apr-2023 SAID31 WAOC 220930 METAR WAOC 220930Z AUTO VRB02G02KT 27/25 Q1007=
22-Apr-2023 SAID31 WAOC 222200 METAR WAOC 222200Z AUTO VRB01G01KT 24/24 Q1008=
22-Apr-2023 SAID31 WAOC 222230 METAR WAOC 222230Z AUTO VRB01G01KT 24/24 Q1008=
22-Apr-2023 SAID31 WAOC 222300 METAR WAOC 222300Z AUTO VRB01G01KT 25/24 Q1008=
22-Apr-2023 SAID31 WAOC 222330 METAR WAOC 222330Z AUTO 00000G00KT 210V100 25/24 Q1009=
23-Apr-2023 SAID31 WAOC 230000 METAR WAOC 230000Z AUTO VRB01G01KT 28/24 Q1009=
23-Apr-2023 SAID31 WAOC 230030 METAR WAOC 230030Z AUTO VRB01G01KT 230V330 29/25 Q1009=
23-Apr-2023 SAID31 WAOC 230100 METAR WAOC 230100Z AUTO VRB02G02KT 150V310 30/25 Q1010=
23-Apr-2023 SAID31 WAOC 230130 METAR WAOC 230130Z AUTO VRB03G03KT 080V150 30/25 Q1010=
23-Apr-2023 SAID31 WAOC 230200 METAR WAOC 230200Z AUTO 00000G00KT 280V120 30/24 Q1009=
23-Apr-2023 SAID31 WAOC 230230 METAR WAOC 230230Z AUTO VRB02G02KT 080V170 31/25 Q1009=
23-Apr-2023 SAID31 WAOC 230300 METAR WAOC 230300Z AUTO VRB03G03KT 020V120 32/25 Q1009=
23-Apr-2023 SAID31 WAOC 230330 METAR WAOC 230330Z AUTO VRB01G01KT 060V170 32/25 Q1009=
23-Apr-2023 SAID31 WAOC 230400 METAR WAOC 230400Z AUTO 13004G04KT 31/26 Q1008=
23-Apr-2023 SAID31 WAOC 230430 METAR WAOC 230430Z AUTO VRB03G03KT 31/24 Q1008=
23-Apr-2023 SAID31 WAOC 230500 METAR WAOC 230500Z AUTO VRB02G02KT 080V180 32/24 Q1007=
23-Apr-2023 SAID31 WAOC 230530 METAR WAOC 230530Z AUTO 09007G07KT 32/26 Q1007=
23-Apr-2023 SAID31 WAOC 230600 METAR WAOC 230600Z AUTO 07005G05KT 31/25 Q1007=
23-Apr-2023 SAID31 WAOC 230630 METAR WAOC 230630Z AUTO VRB03G03KT 29/25 Q1006=
23-Apr-2023 SAID31 WAOC 230700 METAR WAOC 230700Z AUTO VRB03G03KT 30/25 Q1007=
23-Apr-2023 SAID31 WAOC 230730 METAR WAOC 230730Z AUTO VRB03G03KT 28/24 Q1007=
23-Apr-2023 SAID31 WAOC 230800 METAR WAOC 230800Z AUTO VRB02G02KT 180V280 28/25 Q1007=
23-Apr-2023 SAID31 WAOC 230830 METAR WAOC 230830Z AUTO VRB01G01KT 210V300 28/25 Q1007=
23-Apr-2023 SAID31 WAOC 230900 METAR WAOC 230900Z AUTO VRB01G01KT 28/25 Q1007=
23-Apr-2023 SAID31 WAOC 230930 METAR WAOC 230930Z AUTO VRB02G02KT 27/25 Q1008=
23-Apr-2023 SAID31 WAOC 231000 METAR WAOC 231000Z AUTO VRB01G01KT 250V330 27/25 Q1008=
23-Apr-2023 SAID31 WAOC 231030 METAR WAOC 231030Z AUTO VRB02G02KT 27/25 Q1008=
23-Apr-2023 SAID31 WAOC 231100 METAR WAOC 231100Z AUTO VRB03G03KT 26/25 Q1008=
23-Apr-2023 SAID31 WAOC 231130 METAR WAOC 231130Z AUTO VRB03G03KT 25/24 Q1008=
23-Apr-2023 SAID31 WAOC 231200 METAR WAOC 231200Z AUTO VRB02G02KT 25/24 Q1009=
23-Apr-2023 SAID31 WAOC 231230 METAR WAOC 231230Z AUTO VRB02G02KT 25/24 Q1009=
23-Apr-2023 SAID31 WAOC 231300 METAR WAOC 231300Z AUTO VRB02G02KT 26/24 Q1009=
23-Apr-2023 SAID31 WAOC 231330 METAR WAOC 231330Z AUTO VRB02G02KT 25/24 Q1010=
23-Apr-2023 SAID31 WAOC 231400 METAR WAOC 231400Z AUTO VRB01G01KT 25/24 Q1010=
23-Apr-2023 SAID31 WAOC 231430 METAR WAOC 231430Z AUTO VRB01G01KT 26/24 Q1010=
23-Apr-2023 SAID31 WAOC 231500 METAR WAOC 231500Z AUTO VRB01G01KT 26/24 Q1010=
23-Apr-2023 SAID31 WAOC 231530 METAR WAOC 231530Z AUTO VRB01G01KT 26/24 Q1010=
23-Apr-2023 SAID31 WAOC 231600 METAR WAOC 231600Z AUTO VRB01G01KT 26/25 Q1010=
23-Apr-2023 SAID31 WAOC 231630 METAR WAOC 231630Z AUTO VRB01G01KT 25/25 Q1010=
23-Apr-2023 SAID31 WAOC 231700 METAR WAOC 231700Z AUTO VRB01G01KT 25/24 Q1009=
23-Apr-2023 SAID31 WAOC 231730 METAR WAOC 231730Z AUTO VRB01G01KT 25/24 Q1009=
23-Apr-2023 SAID31 WAOC 231800 METAR WAOC 231800Z AUTO VRB01G01KT 25/24 Q1008=
23-Apr-2023 SAID31 WAOC 231830 METAR WAOC 231830Z AUTO VRB01G01KT 25/24 Q1008=
23-Apr-2023 SAID31 WAOC 231900 METAR WAOC 231900Z AUTO VRB01G01KT 24/24 Q1008=
23-Apr-2023 SAID31 WAOC 231930 METAR WAOC 231930Z AUTO VRB02G02KT 24/24 Q1008=
23-Apr-2023 SAID31 WAOC 232000 METAR WAOC 232000Z AUTO VRB01G01KT 24/24 Q1008=
23-Apr-2023 SAID31 WAOC 232030 METAR WAOC 232030Z AUTO VRB01G01KT 24/24 Q1008=
23-Apr-2023 SAID31 WAOC 232100 METAR WAOC 232100Z AUTO VRB01G01KT 24/24 Q1008=
23-Apr-2023 SAID31 WAOC 232130 METAR WAOC 232130Z AUTO VRB01G01KT 24/24 Q1008=
23-Apr-2023 SAID31 WAOC 232200 METAR WAOC 232200Z AUTO 00000G00KT 160V230 24/24 Q1008=
23-Apr-2023 SAID31 WAOC 232230 METAR WAOC 232230Z AUTO VRB01G01KT 230V020 24/24 Q1009=
23-Apr-2023 SAID31 WAOC 232300 METAR WAOC 232300Z AUTO VRB01G01KT 25/24 Q1009=
23-Apr-2023 SAID31 WAOC 232330 METAR WAOC 232330Z AUTO VRB01G01KT 210V310 27/25 Q1009=
24-Apr-2023 SAID31 WAOC 240000 METAR WAOC 240000Z AUTO VRB01G01KT 210V300 28/25 Q1009=
24-Apr-2023 SAID31 WAOC 240030 METAR WAOC 240030Z AUTO VRB01G01KT 220V340 28/25 Q1009=
24-Apr-2023 SAID31 WAOC 240100 METAR WAOC 240100Z AUTO VRB01G01KT 160V270 30/26 Q1009=
24-Apr-2023 SAID31 WAOC 240130 METAR WAOC 240130Z AUTO VRB03G02KT 080V210 30/26 Q1009=
24-Apr-2023 SAID31 WAOC 240200 METAR WAOC 240200Z AUTO VRB01G02KT 090V310 31/26 Q1009=
24-Apr-2023 SAID31 WAOC 240230 METAR WAOC 240230Z AUTO VRB02G02KT 060V140 29/25 Q1009=
24-Apr-2023 SAID31 WAOC 240300 METAR WAOC 240300Z AUTO VRB03G03KT 070V220 32/25 Q1008=
24-Apr-2023 SAID31 WAOC 240330 METAR WAOC 240330Z AUTO VRB03G03KT 100V180 32/25 Q1008=
24-Apr-2023 SAID31 WAOC 240400 METAR WAOC 240400Z AUTO VRB02G02KT 060V160 30/26 Q1008=
24-Apr-2023 SAID31 WAOC 240430 METAR WAOC 240430Z AUTO VRB01G01KT 360V190 31/26 Q1007=
24-Apr-2023 SAID31 WAOC 240500 METAR WAOC 240500Z AUTO VRB03G03KT 020V100 32/25 Q1006=
24-Apr-2023 SAID31 WAOC 240530 METAR WAOC 240530Z AUTO VRB02G02KT 070V170 31/25 Q1006=
24-Apr-2023 SAID31 WAOC 240600 METAR WAOC 240600Z AUTO 07004G04KT 31/26 Q1006=
24-Apr-2023 SAID31 WAOC 240630 METAR WAOC 240630Z AUTO VRB02G02KT 100V210 29/27 Q1005=
24-Apr-2023 SAID31 WAOC 240700 METAR WAOC 240700Z AUTO 10004G04KT 28/26 Q1005=
24-Apr-2023 SAID31 WAOC 240730 METAR WAOC 240730Z AUTO VRB02G02KT 180V270 28/25 Q1005=
24-Apr-2023 SAID31 WAOC 240800 METAR WAOC 240800Z AUTO VRB02G02KT 130V210 29/25 Q1005=
24-Apr-2023 SAID31 WAOC 240830 METAR WAOC 240830Z AUTO VRB03G03KT 090V160 29/26 Q1005=
24-Apr-2023 SAID31 WAOC 240900 METAR WAOC 240900Z AUTO VRB01G01KT 070V150 29/26 Q1006=
24-Apr-2023 SAID31 WAOC 240930 METAR WAOC 240930Z AUTO VRB02G02KT 070V140 29/26 Q1006=
24-Apr-2023 SAID31 WAOC 241000 METAR WAOC 241000Z AUTO VRB02G02KT 29/26 Q1006=
24-Apr-2023 SAID31 WAOC 241030 METAR WAOC 241030Z AUTO VRB01G01KT 28/26 Q1007=
24-Apr-2023 SAID31 WAOC 241100 METAR WAOC 241100Z AUTO VRB01G01KT 140V240 28/26 Q1007=
24-Apr-2023 SAID31 WAOC 241130 METAR WAOC 241130Z AUTO VRB02G02KT 27/26 Q1008=
24-Apr-2023 SAID31 WAOC 241200 METAR WAOC 241200Z AUTO VRB01G01KT 27/26 Q1008=
24-Apr-2023 SAID31 WAOC 241230 METAR WAOC 241230Z AUTO VRB01G01KT 27/26 Q1008=
24-Apr-2023 SAID31 WAOC 241300 METAR WAOC 241300Z AUTO VRB02G02KT 27/26 Q1009=
24-Apr-2023 SAID31 WAOC 241330 METAR WAOC 241330Z AUTO VRB02G02KT 26/25 Q1009=
24-Apr-2023 SAID31 WAOC 241400 METAR WAOC 241400Z AUTO VRB03G03KT 26/25 Q1009=
24-Apr-2023 SAID31 WAOC 241430 METAR WAOC 241430Z AUTO VRB01G01KT 26/25 Q1009=
24-Apr-2023 SAID31 WAOC 241500 METAR WAOC 241500Z AUTO VRB01G01KT 26/25 Q1009=
24-Apr-2023 SAID31 WAOC 241530 METAR WAOC 241530Z AUTO VRB01G01KT 26/25 Q1009=
24-Apr-2023 SAID31 WAOC 241600 METAR WAOC 241600Z AUTO VRB01G01KT 26/25 Q1009=
24-Apr-2023 SAID31 WAOC 241630 METAR WAOC 241630Z AUTO VRB01G01KT 26/25 Q1009=
24-Apr-2023 SAID31 WAOC 241700 METAR WAOC 241700Z AUTO VRB01G01KT 26/25 Q1009=
24-Apr-2023 SAID31 WAOC 241730 METAR WAOC 241730Z AUTO VRB01G01KT 170V270 26/25 Q1008=
24-Apr-2023 SAID31 WAOC 241800 METAR WAOC 241800Z AUTO VRB01G01KT 190V270 25/25 Q1008=
24-Apr-2023 SAID31 WAOC 241830 METAR WAOC 241830Z AUTO VRB02G02KT 25/25 Q1008=
24-Apr-2023 SAID31 WAOC 241900 METAR WAOC 241900Z AUTO VRB01G01KT 25/25 Q1008=
24-Apr-2023 SAID31 WAOC 241930 METAR WAOC 241930Z AUTO VRB01G01KT 25/25 Q1008=
24-Apr-2023 SAID31 WAOC 242000 METAR WAOC 242000Z AUTO VRB01G01KT 070V280 25/25 Q1008=
24-Apr-2023 SAID31 WAOC 242030 METAR WAOC 242030Z AUTO VRB01G01KT 25/25 Q1008=
24-Apr-2023 SAID31 WAOC 242100 METAR WAOC 242100Z AUTO 00000G00KT 240V310 25/25 Q1008=
24-Apr-2023 SAID31 WAOC 242130 METAR WAOC 242130Z AUTO 00000G00KT 330V150 25/25 Q1008=
24-Apr-2023 SAID31 WAOC 242200 METAR WAOC 242200Z AUTO VRB01G01KT 25/25 Q1009=
24-Apr-2023 SAID31 WAOC 242230 METAR WAOC 242230Z AUTO VRB01G01KT 25/24 Q1009=
24-Apr-2023 SAID31 WAOC 242300 METAR WAOC 242300Z AUTO VRB02G02KT 25/25 Q1009=
24-Apr-2023 SAID31 WAOC 242330 METAR WAOC 242330Z AUTO VRB01G01KT 180V320 26/25 Q1010=
25-Apr-2023 SAID31 WAOC 250000 METAR WAOC 250000Z AUTO VRB01G01KT 27/26 Q1010=
25-Apr-2023 SAID31 WAOC 250030 METAR WAOC 250030Z AUTO VRB02G02KT 27/25 Q1010=
25-Apr-2023 SAID31 WAOC 250100 METAR WAOC 250100Z AUTO VRB02G02KT 28/25 Q1010=
25-Apr-2023 SAID31 WAOC 250130 METAR WAOC 250130Z AUTO VRB01G01KT 210V340 28/25 Q1010=
25-Apr-2023 SAID31 WAOC 250200 METAR WAOC 250200Z AUTO VRB01G01KT 29/26 Q1010=
25-Apr-2023 SAID31 WAOC 250230 METAR WAOC 250230Z AUTO VRB01G01KT 320V090 30/26 Q1010=
25-Apr-2023 SAID31 WAOC 250300 METAR WAOC 250300Z AUTO VRB02G02KT 010V100 31/25 Q1009=
25-Apr-2023 SAID31 WAOC 250330 METAR WAOC 250330Z AUTO VRB02G02KT 240V110 31/26 Q1009=
25-Apr-2023 SAID31 WAOC 250400 METAR WAOC 250400Z AUTO VRB03G03KT 020V100 31/26 Q1008=
25-Apr-2023 SAID31 WAOC 250430 METAR WAOC 250430Z AUTO 10004G04KT 070V140 32/26 Q1008=
25-Apr-2023 SAID31 WAOC 250500 METAR WAOC 250500Z AUTO VRB03G03KT 030V100 32/25 Q1007=
25-Apr-2023 SAID31 WAOC 250530 METAR WAOC 250530Z AUTO 02005G05KT 32/25 Q1006=
25-Apr-2023 SAID31 WAOC 250600 METAR WAOC 250600Z AUTO VRB03G03KT 32/24 Q1006=
25-Apr-2023 SAID31 WAOC 250630 METAR WAOC 250630Z AUTO 00000G00KT 310V090 32/23 Q1005=
25-Apr-2023 SAID31 WAOC 250700 METAR WAOC 250700Z AUTO 08004G04KT 340V130 33/24 Q1005=
25-Apr-2023 SAID31 WAOC 250730 METAR WAOC 250730Z AUTO VRB02G02KT 320V070 33/25 Q1005=
25-Apr-2023 SAID31 WAOC 250800 METAR WAOC 250800Z AUTO VRB02G02KT 050V130 31/25 Q1004=
26-Apr-2023 SAID31 WAOC 260000 METAR WAOC 260000Z AUTO VRB02G02KT 360V070 28/25 Q1009=
26-Apr-2023 SAID31 WAOC 260030 METAR WAOC 260030Z AUTO VRB02G02KT 310V020 29/25 Q1009=
26-Apr-2023 SAID31 WAOC 260100 METAR WAOC 260100Z AUTO VRB01G01KT 30/25 Q1009=
26-Apr-2023 SAID31 WAOC 260130 METAR WAOC 260130Z AUTO VRB01G01KT 280V080 30/25 Q1009=
26-Apr-2023 SAID31 WAOC 260200 METAR WAOC 260200Z AUTO VRB01G01KT 330V170 30/25 Q1009=
26-Apr-2023 SAID31 WAOC 260230 METAR WAOC 260230Z AUTO VRB03G03KT 040V150 31/24 Q1008=
26-Apr-2023 SAID31 WAOC 260300 METAR WAOC 260300Z AUTO 00000G00KT 31/23 Q1008=
26-Apr-2023 SAID31 WAOC 260330 METAR WAOC 260330Z AUTO VRB03G03KT 32/24 Q1008=
26-Apr-2023 SAID31 WAOC 260400 METAR WAOC 260400Z AUTO VRB02G02KT 360V150 32/23 Q1007=
26-Apr-2023 SAID31 WAOC 260430 METAR WAOC 260430Z AUTO VRB03G03KT 050V140 33/24 Q1007=
26-Apr-2023 SAID31 WAOC 260500 METAR WAOC 260500Z AUTO VRB02G02KT 080V170 32/24 Q1006=
26-Apr-2023 SAID31 WAOC 260530 METAR WAOC 260530Z AUTO VRB01G01KT 350V080 32/24 Q1006=
26-Apr-2023 SAID31 WAOC 260600 METAR WAOC 260600Z AUTO VRB02G02KT 32/24 Q1005=
26-Apr-2023 SAID31 WAOC 260630 METAR WAOC 260630Z AUTO 02004G04KT 000V080 33/23 Q1005=
26-Apr-2023 SAID31 WAOC 260700 METAR WAOC 260700Z AUTO VRB02G02KT 000V090 33/23 Q1004=
26-Apr-2023 SAID31 WAOC 260730 METAR WAOC 260730Z AUTO 12004G04KT 32/25 Q1004=
26-Apr-2023 SAID31 WAOC 260800 METAR WAOC 260800Z AUTO 17004G04KT 140V230 31/24 Q1004=
26-Apr-2023 SAID31 WAOC 260830 METAR WAOC 260830Z AUTO VRB02G02KT 110V200 31/24 Q1005=
26-Apr-2023 SAID31 WAOC 260900 METAR WAOC 260900Z AUTO VRB03G03KT 31/24 Q1005=
26-Apr-2023 SAID31 WAOC 260930 METAR WAOC 260930Z AUTO VRB02G02KT 130V210 30/25 Q1005=
26-Apr-2023 SAID31 WAOC 261000 METAR WAOC 261000Z AUTO VRB01G01KT 120V220 29/24 Q1006=
26-Apr-2023 SAID31 WAOC 261030 METAR WAOC 261030Z AUTO VRB01G01KT 29/25 Q1006=
26-Apr-2023 SAID31 WAOC 261100 METAR WAOC 261100Z AUTO VRB02G02KT 29/25 Q1006=
26-Apr-2023 SAID31 WAOC 261130 METAR WAOC 261130Z AUTO VRB02G02KT 29/25 Q1007=
26-Apr-2023 SAID31 WAOC 261200 METAR WAOC 261200Z AUTO VRB02G02KT 070V140 28/25 Q1007=
26-Apr-2023 SAID31 WAOC 261230 METAR WAOC 261230Z AUTO VRB02G02KT 060V140 28/25 Q1008=
26-Apr-2023 SAID31 WAOC 261300 METAR WAOC 261300Z AUTO VRB02G02KT 28/25 Q1008=
26-Apr-2023 SAID31 WAOC 261330 METAR WAOC 261330Z AUTO VRB02G02KT 28/25 Q1008=
26-Apr-2023 SAID31 WAOC 261400 METAR WAOC 261400Z AUTO 00000G00KT 130V220 28/26 Q1009=
26-Apr-2023 SAID31 WAOC 261430 METAR WAOC 261430Z AUTO 00000G00KT 200V320 27/25 Q1009=
26-Apr-2023 SAID31 WAOC 261500 METAR WAOC 261500Z AUTO VRB03G03KT 27/25 Q1009=
26-Apr-2023 SAID31 WAOC 261530 METAR WAOC 261530Z AUTO 31004G04KT 27/25 Q1009=
26-Apr-2023 SAID31 WAOC 261600 METAR WAOC 261600Z AUTO VRB03G03KT 26/25 Q1010=
26-Apr-2023 SAID31 WAOC 261630 METAR WAOC 261630Z AUTO VRB03G03KT 26/24 Q1009=
26-Apr-2023 SAID31 WAOC 261700 METAR WAOC 261700Z AUTO VRB03G03KT 230V310 25/24 Q1009=
26-Apr-2023 SAID31 WAOC 261730 METAR WAOC 261730Z AUTO VRB03G03KT 25/24 Q1009=
26-Apr-2023 SAID31 WAOC 261800 METAR WAOC 261800Z AUTO 29004G04KT 25/24 Q1008=
26-Apr-2023 SAID31 WAOC 261830 METAR WAOC 261830Z AUTO VRB03G03KT 25/24 Q1008=
26-Apr-2023 SAID31 WAOC 261900 METAR WAOC 261900Z AUTO VRB02G02KT 25/24 Q1008=
26-Apr-2023 SAID31 WAOC 261930 METAR WAOC 261930Z AUTO VRB02G02KT 25/23 Q1008=
26-Apr-2023 SAID31 WAOC 262000 METAR WAOC 262000Z AUTO VRB01G01KT 25/23 Q1007=
26-Apr-2023 SAID31 WAOC 262030 METAR WAOC 262030Z AUTO VRB02G02KT 25/23 Q1007=
26-Apr-2023 SAID31 WAOC 262100 METAR WAOC 262100Z AUTO VRB01G01KT 210V280 25/24 Q1007=
26-Apr-2023 SAID31 WAOC 262130 METAR WAOC 262130Z AUTO VRB01G01KT 24/23 Q1008=
26-Apr-2023 SAID31 WAOC 262200 METAR WAOC 262200Z AUTO VRB01G01KT 24/23 Q1008=
26-Apr-2023 SAID31 WAOC 262230 METAR WAOC 262230Z AUTO VRB01G01KT 24/24 Q1008=
26-Apr-2023 SAID31 WAOC 262300 METAR WAOC 262300Z AUTO VRB01G01KT 26/25 Q1009=
26-Apr-2023 SAID31 WAOC 262330 METAR WAOC 262330Z AUTO VRB03G03KT 27/25 Q1009=
27-Apr-2023 SAID31 WAOC 270000 METAR WAOC 270000Z AUTO VRB01G01KT 020V090 28/25 Q1010=
27-Apr-2023 SAID31 WAOC 270030 METAR WAOC 270030Z AUTO VRB01G01KT 29/25 Q1010=
27-Apr-2023 SAID31 WAOC 270100 METAR WAOC 270100Z AUTO VRB02G02KT 000V100 30/26 Q1010=
27-Apr-2023 SAID31 WAOC 270130 METAR WAOC 270130Z AUTO VRB02G02KT 360V080 30/25 Q1010=
27-Apr-2023 SAID31 WAOC 270200 METAR WAOC 270200Z AUTO VRB02G02KT 340V040 31/25 Q1010=
27-Apr-2023 SAID31 WAOC 270230 METAR WAOC 270230Z AUTO 03004G04KT 31/24 Q1010=
27-Apr-2023 SAID31 WAOC 270300 METAR WAOC 270300Z AUTO VRB03G03KT 030V100 31/24 Q1009=
27-Apr-2023 SAID31 WAOC 270330 METAR WAOC 270330Z AUTO VRB03G03KT 31/24 Q1009=
27-Apr-2023 SAID31 WAOC 270400 METAR WAOC 270400Z AUTO VRB03G03KT 250V090 32/25 Q1008=
27-Apr-2023 SAID31 WAOC 270430 METAR WAOC 270430Z AUTO VRB03G03KT 360V130 32/25 Q1008=
27-Apr-2023 SAID31 WAOC 270500 METAR WAOC 270500Z AUTO VRB02G02KT 340V150 33/24 Q1007=
27-Apr-2023 SAID31 WAOC 270530 METAR WAOC 270530Z AUTO VRB03G03KT 32/24 Q1006=
27-Apr-2023 SAID31 WAOC 270600 METAR WAOC 270600Z AUTO VRB02G02KT 070V150 32/24 Q1006=
27-Apr-2023 SAID31 WAOC 270630 METAR WAOC 270630Z AUTO VRB03G03KT 33/24 Q1005=
27-Apr-2023 SAID31 WAOC 270700 METAR WAOC 270700Z AUTO VRB03G03KT 020V170 33/24 Q1005=
27-Apr-2023 SAID31 WAOC 270730 METAR WAOC 270730Z AUTO VRB03G03KT 33/24 Q1004=
27-Apr-2023 SAID31 WAOC 270800 METAR WAOC 270800Z AUTO 03004G04KT 350V060 32/25 Q1004=
27-Apr-2023 SAID31 WAOC 270830 METAR WAOC 270830Z AUTO VRB03G03KT 31/25 Q1005=
27-Apr-2023 SAID31 WAOC 270900 METAR WAOC 270900Z AUTO VRB03G03KT 30/25 Q1005=
27-Apr-2023 SAID31 WAOC 270930 METAR WAOC 270930Z AUTO 14005G03KT 29/25 Q1005=
27-Apr-2023 SAID31 WAOC 271000 METAR WAOC 271000Z AUTO VRB03G03KT 29/25 Q1006=
27-Apr-2023 SAID31 WAOC 271030 METAR WAOC 271030Z AUTO VRB02G02KT 29/25 Q1006=
27-Apr-2023 SAID31 WAOC 271100 METAR WAOC 271100Z AUTO VRB03G03KT 090V210 29/25 Q1007=
27-Apr-2023 SAID31 WAOC 271130 METAR WAOC 271130Z AUTO 11004G03KT 29/25 Q1007=
27-Apr-2023 SAID31 WAOC 271200 METAR WAOC 271200Z AUTO 09005G05KT 29/25 Q1008=
27-Apr-2023 SAID31 WAOC 271230 METAR WAOC 271230Z AUTO VRB03G03KT 29/25 Q1009=
27-Apr-2023 SAID31 WAOC 271300 METAR WAOC 271300Z AUTO VRB02G02KT 060V150 28/25 Q1009=
27-Apr-2023 SAID31 WAOC 271330 METAR WAOC 271330Z AUTO VRB01G01KT 320V040 28/25 Q1009=
27-Apr-2023 SAID31 WAOC 271400 METAR WAOC 271400Z AUTO VRB01G01KT 090V240 28/25 Q1010=
27-Apr-2023 SAID31 WAOC 271430 METAR WAOC 271430Z AUTO VRB03G02KT 27/25 Q1010=
27-Apr-2023 SAID31 WAOC 271500 METAR WAOC 271500Z AUTO 29004G04KT 26/25 Q1010=
27-Apr-2023 SAID31 WAOC 271530 METAR WAOC 271530Z AUTO 29005G05KT 26/24 Q1010=
27-Apr-2023 SAID31 WAOC 271600 METAR WAOC 271600Z AUTO 30004G04KT 26/24 Q1009=
27-Apr-2023 SAID31 WAOC 271630 METAR WAOC 271630Z AUTO 29005G05KT 25/24 Q1009=
27-Apr-2023 SAID31 WAOC 271700 METAR WAOC 271700Z AUTO 30004G04KT 25/24 Q1008=
27-Apr-2023 SAID31 WAOC 271730 METAR WAOC 271730Z AUTO VRB02G02KT 25/24 Q1008=
27-Apr-2023 SAID31 WAOC 271800 METAR WAOC 271800Z AUTO VRB03G03KT 25/24 Q1008=
27-Apr-2023 SAID31 WAOC 271830 METAR WAOC 271830Z AUTO VRB02G02KT 25/24 Q1008=
27-Apr-2023 SAID31 WAOC 271900 METAR WAOC 271900Z AUTO VRB02G02KT 25/24 Q1008=
27-Apr-2023 SAID31 WAOC 271930 METAR WAOC 271930Z AUTO VRB02G02KT 26/23 Q1008=
27-Apr-2023 SAID31 WAOC 272000 METAR WAOC 272000Z AUTO VRB01G01KT 300V010 26/24 Q1008=
27-Apr-2023 SAID31 WAOC 272030 METAR WAOC 272030Z AUTO VRB01G01KT 360V060 26/25 Q1008=
27-Apr-2023 SAID31 WAOC 272100 METAR WAOC 272100Z AUTO VRB02G02KT 26/25 Q1008=
27-Apr-2023 SAID31 WAOC 272130 METAR WAOC 272130Z AUTO VRB02G02KT 050V130 25/25 Q1008=
27-Apr-2023 SAID31 WAOC 272200 METAR WAOC 272200Z AUTO VRB01G01KT 310V040 26/25 Q1008=
27-Apr-2023 SAID31 WAOC 272230 METAR WAOC 272230Z AUTO VRB02G02KT 330V030 25/25 Q1009=
27-Apr-2023 SAID31 WAOC 272300 METAR WAOC 272300Z AUTO VRB02G02KT 25/24 Q1009=
27-Apr-2023 SAID31 WAOC 272330 METAR WAOC 272330Z AUTO VRB02G02KT 26/24 Q1009=
28-Apr-2023 SAID31 WAOC 280000 METAR WAOC 280000Z AUTO VRB02G02KT 340V040 27/25 Q1010=
28-Apr-2023 SAID31 WAOC 280030 METAR WAOC 280030Z AUTO VRB01G01KT 330V020 27/25 Q1010=
28-Apr-2023 SAID31 WAOC 280100 METAR WAOC 280100Z AUTO VRB02G02KT 330V050 29/25 Q1010=
28-Apr-2023 SAID31 WAOC 280130 METAR WAOC 280130Z AUTO VRB03G03KT 020V090 30/25 Q1009=
28-Apr-2023 SAID31 WAOC 280200 METAR WAOC 280200Z AUTO 07004G04KT 30/24 Q1009=
28-Apr-2023 SAID31 WAOC 280230 METAR WAOC 280230Z AUTO 04004G04KT 330V090 31/24 Q1009=
28-Apr-2023 SAID31 WAOC 280300 METAR WAOC 280300Z AUTO VRB02G02KT 010V090 31/25 Q1009=
28-Apr-2023 SAID31 WAOC 280330 METAR WAOC 280330Z AUTO VRB03G03KT 340V050 31/25 Q1008=
28-Apr-2023 SAID31 WAOC 280400 METAR WAOC 280400Z AUTO VRB03G03KT 330V030 32/23 Q1008=
28-Apr-2023 SAID31 WAOC 280430 METAR WAOC 280430Z AUTO VRB03G03KT 010V080 32/23 Q1007=
28-Apr-2023 SAID31 WAOC 280500 METAR WAOC 280500Z AUTO 05005G05KT 000V100 32/24 Q1007=
28-Apr-2023 SAID31 WAOC 280530 METAR WAOC 280530Z AUTO VRB03G03KT 040V120 32/24 Q1006=
28-Apr-2023 SAID31 WAOC 280600 METAR WAOC 280600Z AUTO 06004G04KT 33/24 Q1006=
28-Apr-2023 SAID31 WAOC 280630 METAR WAOC 280630Z AUTO 07004G04KT 32/24 Q1005=
28-Apr-2023 SAID31 WAOC 280700 METAR WAOC 280700Z AUTO VRB03G03KT 010V090 32/24 Q1005=
28-Apr-2023 SAID31 WAOC 280730 METAR WAOC 280730Z AUTO VRB02G02KT 31/24 Q1005=
28-Apr-2023 SAID31 WAOC 280800 METAR WAOC 280800Z AUTO 26004G04KT 220V310 28/25 Q1005=
28-Apr-2023 SAID31 WAOC 280830 METAR WAOC 280830Z AUTO VRB03G03KT 29/24 Q1005=
28-Apr-2023 SAID31 WAOC 280900 METAR WAOC 280900Z AUTO VRB01G01KT 200V270 28/25 Q1005=
28-Apr-2023 SAID31 WAOC 280930 METAR WAOC 280930Z AUTO VRB02G02KT 28/25 Q1006=
28-Apr-2023 SAID31 WAOC 281000 METAR WAOC 281000Z AUTO VRB01G01KT 28/25 Q1007=
28-Apr-2023 SAID31 WAOC 281030 METAR WAOC 281030Z AUTO VRB03G03KT 27/26 Q1007=
28-Apr-2023 SAID31 WAOC 281100 METAR WAOC 281100Z AUTO VRB01G01KT 170V250 27/27 Q1007=
28-Apr-2023 SAID31 WAOC 281130 METAR WAOC 281130Z AUTO VRB01G01KT 27/27 Q1008=
28-Apr-2023 SAID31 WAOC 281200 METAR WAOC 281200Z AUTO VRB01G01KT 27/27 Q1008=
28-Apr-2023 SAID31 WAOC 281230 METAR WAOC 281230Z AUTO VRB01G01KT 27/27 Q1009=
28-Apr-2023 SAID31 WAOC 281300 METAR WAOC 281300Z AUTO VRB01G01KT 240V320 27/27 Q1009=
28-Apr-2023 SAID31 WAOC 281330 METAR WAOC 281330Z AUTO VRB01G01KT 27/27 Q1010=
28-Apr-2023 SAID31 WAOC 281400 METAR WAOC 281400Z AUTO 00000G00KT 27/26 Q1010=
28-Apr-2023 SAID31 WAOC 281430 METAR WAOC 281430Z AUTO VRB03G03KT 27/26 Q1010=
28-Apr-2023 SAID31 WAOC 281500 METAR WAOC 281500Z AUTO VRB03G03KT 26/26 Q1010=
28-Apr-2023 SAID31 WAOC 281530 METAR WAOC 281530Z AUTO VRB02G02KT 26/26 Q1009=
28-Apr-2023 SAID31 WAOC 281600 METAR WAOC 281600Z AUTO VRB03G03KT 26/26 Q1009=
28-Apr-2023 SAID31 WAOC 281630 METAR WAOC 281630Z AUTO VRB02G02KT 26/26 Q1009=
28-Apr-2023 SAID31 WAOC 281700 METAR WAOC 281700Z AUTO VRB02G02KT 26/26 Q1008=
28-Apr-2023 SAID31 WAOC 281730 METAR WAOC 281730Z AUTO VRB02G02KT 26/26 Q1008=
28-Apr-2023 SAID31 WAOC 281800 METAR WAOC 281800Z AUTO VRB01G01KT 26/26 Q1008=
28-Apr-2023 SAID31 WAOC 281830 METAR WAOC 281830Z AUTO VRB02G02KT 26/26 Q1008=
28-Apr-2023 SAID31 WAOC 281900 METAR WAOC 281900Z AUTO VRB02G02KT 26/25 Q1007=
28-Apr-2023 SAID31 WAOC 281930 METAR WAOC 281930Z AUTO VRB02G02KT 26/25 Q1008=
28-Apr-2023 SAID31 WAOC 282000 METAR WAOC 282000Z AUTO VRB03G03KT 330V030 26/25 Q1008=
28-Apr-2023 SAID31 WAOC 282030 METAR WAOC 282030Z AUTO VRB02G02KT 350V030 26/25 Q1007=
28-Apr-2023 SAID31 WAOC 282100 METAR WAOC 282100Z AUTO VRB02G02KT 26/25 Q1008=
28-Apr-2023 SAID31 WAOC 282130 METAR WAOC 282130Z AUTO VRB02G02KT 350V030 26/25 Q1008=
28-Apr-2023 SAID31 WAOC 282200 METAR WAOC 282200Z AUTO VRB02G02KT 26/25 Q1008=
28-Apr-2023 SAID31 WAOC 282230 METAR WAOC 282230Z AUTO 00000G00KT 100V180 26/26 Q1009=
28-Apr-2023 SAID31 WAOC 282300 METAR WAOC 282300Z AUTO VRB01G01KT 26/26 Q1010=
28-Apr-2023 SAID31 WAOC 282330 METAR WAOC 282330Z AUTO VRB03G03KT 150V240 26/26 Q1010=
29-Apr-2023 SAID31 WAOC 290000 METAR WAOC 290000Z AUTO VRB01G01KT 130V350 26/25 Q1011=
29-Apr-2023 SAID31 WAOC 290030 METAR WAOC 290030Z AUTO VRB01G01KT 160V250 26/25 Q1010=
29-Apr-2023 SAID31 WAOC 290100 METAR WAOC 290100Z AUTO VRB03G03KT 240V310 25/24 Q1010=
29-Apr-2023 SAID31 WAOC 290130 METAR WAOC 290130Z AUTO VRB03G03KT 26/25 Q1010=
29-Apr-2023 SAID31 WAOC 290200 METAR WAOC 290200Z AUTO VRB03G03KT 27/25 Q1009=
29-Apr-2023 SAID31 WAOC 290230 METAR WAOC 290230Z AUTO 29005G05KT 28/26 Q1009=
29-Apr-2023 SAID31 WAOC 290300 METAR WAOC 290300Z AUTO VRB03G03KT 29/25 Q1008=
29-Apr-2023 SAID31 WAOC 290330 METAR WAOC 290330Z AUTO VRB01G01KT 240V000 30/25 Q1008=
29-Apr-2023 SAID31 WAOC 290400 METAR WAOC 290400Z AUTO VRB01G01KT 240V340 30/25 Q1008=
29-Apr-2023 SAID31 WAOC 290430 METAR WAOC 290430Z AUTO VRB03G03KT 000V080 30/25 Q1007=
29-Apr-2023 SAID31 WAOC 290500 METAR WAOC 290500Z AUTO VRB03G03KT 110V190 31/26 Q1007=
29-Apr-2023 SAID31 WAOC 290530 METAR WAOC 290530Z AUTO VRB03G03KT 31/25 Q1007=
29-Apr-2023 SAID31 WAOC 290600 METAR WAOC 290600Z AUTO 14005G05KT 31/25 Q1006=
29-Apr-2023 SAID31 WAOC 290630 METAR WAOC 290630Z AUTO 22004G04KT 180V260 29/25 Q1006=
29-Apr-2023 SAID31 WAOC 290700 METAR WAOC 290700Z AUTO VRB03G03KT 27/25 Q1006=
29-Apr-2023 SAID31 WAOC 290730 METAR WAOC 290730Z AUTO 03004G04KT 24/24 Q1006=
29-Apr-2023 SAID31 WAOC 290800 METAR WAOC 290800Z AUTO VRB01G01KT 340V050 25/24 Q1006=
29-Apr-2023 SAID31 WAOC 290830 METAR WAOC 290830Z AUTO 00000G00KT 010V240 25/24 Q1006=
29-Apr-2023 SAID31 WAOC 290900 METAR WAOC 290900Z AUTO VRB01G01KT 26/25 Q1006=
29-Apr-2023 SAID31 WAOC 290930 METAR WAOC 290930Z AUTO VRB02G02KT 26/25 Q1007=
29-Apr-2023 SAID31 WAOC 291000 METAR WAOC 291000Z AUTO VRB01G01KT 25/25 Q1007=
29-Apr-2023 SAID31 WAOC 291030 METAR WAOC 291030Z AUTO VRB02G02KT 25/25 Q1007=
29-Apr-2023 SAID31 WAOC 291100 METAR WAOC 291100Z AUTO VRB01G01KT 240V310 25/25 Q1008=
29-Apr-2023 SAID31 WAOC 291130 METAR WAOC 291130Z AUTO VRB01G01KT 25/24 Q1008=
29-Apr-2023 SAID31 WAOC 291200 METAR WAOC 291200Z AUTO VRB03G03KT 24/24 Q1008=
29-Apr-2023 SAID31 WAOC 291230 METAR WAOC 291230Z AUTO VRB02G02KT 240V310 24/24 Q1009=
29-Apr-2023 SAID31 WAOC 291300 METAR WAOC 291300Z AUTO VRB01G00KT 24/24 Q1009=
29-Apr-2023 SAID31 WAOC 291330 METAR WAOC 291330Z AUTO VRB01G01KT 240V310 24/24 Q1009=
29-Apr-2023 SAID31 WAOC 291400 METAR WAOC 291400Z AUTO VRB01G01KT 24/24 Q1009=
29-Apr-2023 SAID31 WAOC 291430 METAR WAOC 291430Z AUTO VRB02G02KT 24/24 Q1009=
29-Apr-2023 SAID31 WAOC 291500 METAR WAOC 291500Z AUTO VRB02G02KT 24/24 Q1009=
29-Apr-2023 SAID31 WAOC 291530 METAR WAOC 291530Z AUTO VRB02G02KT 24/24 Q1009=
29-Apr-2023 SAID31 WAOC 291600 METAR WAOC 291600Z AUTO VRB02G02KT 24/24 Q1009=
29-Apr-2023 SAID31 WAOC 291630 METAR WAOC 291630Z AUTO VRB02G02KT 24/24 Q1009=
29-Apr-2023 SAID31 WAOC 291700 METAR WAOC 291700Z AUTO VRB01G01KT 24/24 Q1008=
29-Apr-2023 SAID31 WAOC 291730 METAR WAOC 291730Z AUTO VRB01G02KT 24/23 Q1008=
29-Apr-2023 SAID31 WAOC 291800 METAR WAOC 291800Z AUTO VRB02G02KT 24/24 Q1008=
29-Apr-2023 SAID31 WAOC 291830 METAR WAOC 291830Z AUTO VRB01G01KT 24/24 Q1008=
29-Apr-2023 SAID31 WAOC 291900 METAR WAOC 291900Z AUTO VRB01G01KT 24/24 Q1008=
29-Apr-2023 SAID31 WAOC 291930 METAR WAOC 291930Z AUTO VRB01G01KT 24/24 Q1007=
29-Apr-2023 SAID31 WAOC 292000 METAR WAOC 292000Z AUTO VRB01G01KT 24/24 Q1007=
29-Apr-2023 SAID31 WAOC 292030 METAR WAOC 292030Z AUTO VRB02G02KT 24/24 Q1007=
29-Apr-2023 SAID31 WAOC 292100 METAR WAOC 292100Z AUTO VRB02G02KT 24/24 Q1007=
29-Apr-2023 SAID31 WAOC 292130 METAR WAOC 292130Z AUTO VRB02G02KT 24/24 Q1007=
29-Apr-2023 SAID31 WAOC 292200 METAR WAOC 292200Z AUTO VRB02G02KT 24/23 Q1007=
29-Apr-2023 SAID31 WAOC 292230 METAR WAOC 292230Z AUTO VRB02G02KT 24/23 Q1007=
29-Apr-2023 SAID31 WAOC 292300 METAR WAOC 292300Z AUTO VRB01G01KT 230V300 25/24 Q1008=
30-Apr-2023 SAID31 WAOC 300030 METAR WAOC 300030Z AUTO VRB02G02KT 230V300 27/24 Q1009=
30-Apr-2023 SAID31 WAOC 300100 METAR WAOC 300100Z AUTO VRB01G01KT 210V320 29/25 Q1009=
30-Apr-2023 SAID31 WAOC 300130 METAR WAOC 300130Z AUTO VRB02G02KT 150V250 29/25 Q1009=
30-Apr-2023 SAID31 WAOC 300200 METAR WAOC 300200Z AUTO VRB01G01KT 160V310 29/25 Q1009=
30-Apr-2023 SAID31 WAOC 300230 METAR WAOC 300230Z AUTO VRB03G03KT 090V210 31/25 Q1009=
30-Apr-2023 SAID31 WAOC 300300 METAR WAOC 300300Z AUTO 18004G03KT 060V240 31/25 Q1008=
30-Apr-2023 SAID31 WAOC 300330 METAR WAOC 300330Z AUTO VRB03G03KT 090V160 31/25 Q1008=
30-Apr-2023 SAID31 WAOC 300400 METAR WAOC 300400Z AUTO VRB03G03KT 070V200 32/24 Q1008=
30-Apr-2023 SAID31 WAOC 300430 METAR WAOC 300430Z AUTO 14004G04KT 31/24 Q1007=
30-Apr-2023 SAID31 WAOC 300500 METAR WAOC 300500Z AUTO VRB02G02KT 070V240 32/25 Q1007=
30-Apr-2023 SAID31 WAOC 300530 METAR WAOC 300530Z AUTO VRB03G03KT 060V130 31/23 Q1006=
30-Apr-2023 SAID31 WAOC 300600 METAR WAOC 300600Z AUTO VRB03G03KT 080V150 32/25 Q1006=
30-Apr-2023 SAID31 WAOC 300630 METAR WAOC 300630Z AUTO 09005G05KT 31/24 Q1005=
30-Apr-2023 SAID31 WAOC 300700 METAR WAOC 300700Z AUTO VRB02G02KT 31/24 Q1005=
30-Apr-2023 SAID31 WAOC 300730 METAR WAOC 300730Z AUTO 15004G04KT 120V220 30/24 Q1005=
30-Apr-2023 SAID31 WAOC 300800 METAR WAOC 300800Z AUTO VRB03G03KT 110V230 30/25 Q1005=
30-Apr-2023 SAID31 WAOC 300830 METAR WAOC 300830Z AUTO VRB02G02KT 110V210 30/24 Q1005=
30-Apr-2023 SAID31 WAOC 300900 METAR WAOC 300900Z AUTO VRB02G02KT 020V120 29/25 Q1005=
30-Apr-2023 SAID31 WAOC 300930 METAR WAOC 300930Z AUTO VRB02G02KT 29/25 Q1006=
30-Apr-2023 SAID31 WAOC 301000 METAR WAOC 301000Z AUTO VRB02G02KT 060V170 29/25 Q1006=
30-Apr-2023 SAID31 WAOC 301030 METAR WAOC 301030Z AUTO VRB01G01KT 28/25 Q1007=
30-Apr-2023 SAID31 WAOC 301100 METAR WAOC 301100Z AUTO VRB01G01KT 28/25 Q1007=
30-Apr-2023 SAID31 WAOC 301130 METAR WAOC 301130Z AUTO VRB01G01KT 070V150 28/25 Q1007=
30-Apr-2023 SAID31 WAOC 301200 METAR WAOC 301200Z AUTO VRB02G02KT 28/25 Q1008=
30-Apr-2023 SAID31 WAOC 301230 METAR WAOC 301230Z AUTO VRB01G01KT 28/25 Q1008=
30-Apr-2023 SAID31 WAOC 301300 METAR WAOC 301300Z AUTO VRB02G02KT 26/25 Q1009=
30-Apr-2023 SAID31 WAOC 301330 METAR WAOC 301330Z AUTO VRB02G02KT 26/25 Q1009=
30-Apr-2023 SAID31 WAOC 301400 METAR WAOC 301400Z AUTO VRB03G03KT 26/25 Q1009=
30-Apr-2023 SAID31 WAOC 301430 METAR WAOC 301430Z AUTO VRB02G02KT 26/25 Q1009=
30-Apr-2023 SAID31 WAOC 301500 METAR WAOC 301500Z AUTO VRB02G02KT 26/25 Q1009=
30-Apr-2023 SAID31 WAOC 301530 METAR WAOC 301530Z AUTO 00000G00KT 180V280 25/25 Q1009=
30-Apr-2023 SAID31 WAOC 301600 METAR WAOC 301600Z AUTO VRB01G01KT 26/25 Q1009=
30-Apr-2023 SAID31 WAOC 301630 METAR WAOC 301630Z AUTO VRB02G02KT 25/25 Q1008=
30-Apr-2023 SAID31 WAOC 301700 METAR WAOC 301700Z AUTO VRB01G01KT 25/25 Q1008=
30-Apr-2023 SAID31 WAOC 301730 METAR WAOC 301730Z AUTO VRB01G01KT 25/25 Q1008=
30-Apr-2023 SAID31 WAOC 301800 METAR WAOC 301800Z AUTO VRB02G02KT 25/24 Q1007=
30-Apr-2023 SAID31 WAOC 301830 METAR WAOC 301830Z AUTO VRB02G02KT 25/24 Q1007=
30-Apr-2023 SAID31 WAOC 301900 METAR WAOC 301900Z AUTO VRB01G01KT 25/24 Q1007=
30-Apr-2023 SAID31 WAOC 301930 METAR WAOC 301930Z AUTO VRB01G01KT 25/25 Q1007=
30-Apr-2023 SAID31 WAOC 302000 METAR WAOC 302000Z AUTO VRB01G01KT 010V120 25/25 Q1007=
30-Apr-2023 SAID31 WAOC 302030 METAR WAOC 302030Z AUTO VRB01G01KT 010V080 25/25 Q1007=
30-Apr-2023 SAID31 WAOC 302100 METAR WAOC 302100Z AUTO VRB01G01KT 25/25 Q1007=
30-Apr-2023 SAID31 WAOC 302130 METAR WAOC 302130Z AUTO VRB01G01KT 25/25 Q1007=
30-Apr-2023 SAID31 WAOC 302200 METAR WAOC 302200Z AUTO 00000G00KT 220V320 25/24 Q1007=
30-Apr-2023 SAID31 WAOC 302230 METAR WAOC 302230Z AUTO VRB01G01KT 25/24 Q1008=
30-Apr-2023 SAID31 WAOC 302300 METAR WAOC 302300Z AUTO VRB01G01KT 26/25 Q1008=
30-Apr-2023 SAID31 WAOC 302330 METAR WAOC 302330Z AUTO VRB01G01KT 190V050 27/25 Q1008=
01-May-2023 SAID31 WAOC 010000 METAR WAOC 010000Z AUTO VRB01G01KT 28/25 Q1008=
01-May-2023 SAID31 WAOC 010030 METAR WAOC 010030Z AUTO VRB01G01KT 290V010 29/26 Q1009=
01-May-2023 SAID31 WAOC 010100 METAR WAOC 010100Z AUTO VRB02G02KT 300V100 30/25 Q1009=
01-May-2023 SAID31 WAOC 010130 METAR WAOC 010130Z AUTO VRB02G02KT 080V150 30/25 Q1008=
01-May-2023 SAID31 WAOC 010200 METAR WAOC 010200Z AUTO VRB02G02KT 050V120 31/26 Q1009=
01-May-2023 SAID31 WAOC 010230 METAR WAOC 010230Z AUTO VRB01G01KT 040V170 31/24 Q1008=
01-May-2023 SAID31 WAOC 010300 METAR WAOC 010300Z AUTO VRB03G03KT 350V230 32/24 Q1008=
01-May-2023 SAID31 WAOC 010330 METAR WAOC 010330Z AUTO VRB02G02KT 090V160 32/25 Q1008=
01-May-2023 SAID31 WAOC 010400 METAR WAOC 010400Z AUTO 09005G05KT 070V150 33/23 Q1007=
01-May-2023 SAID31 WAOC 010430 METAR WAOC 010430Z AUTO VRB02G02KT 080V170 32/23 Q1007=
01-May-2023 SAID31 WAOC 010500 METAR WAOC 010500Z AUTO VRB03G03KT 070V140 30/25 Q1007=
01-May-2023 SAID31 WAOC 010530 METAR WAOC 010530Z AUTO VRB03G03KT 080V180 29/24 Q1006=
01-May-2023 SAID31 WAOC 010600 METAR WAOC 010600Z AUTO VRB03G03KT 090V180 28/24 Q1006=
01-May-2023 SAID31 WAOC 010630 METAR WAOC 010630Z AUTO VRB02G02KT 29/24 Q1006=
01-May-2023 SAID31 WAOC 010700 METAR WAOC 010700Z AUTO VRB02G02KT 100V220 30/24 Q1005=
01-May-2023 SAID31 WAOC 010730 METAR WAOC 010730Z AUTO VRB03G03KT 140V220 31/24 Q1005=
01-May-2023 SAID31 WAOC 010800 METAR WAOC 010800Z AUTO 17004G04KT 120V200 31/24 Q1005=
01-May-2023 SAID31 WAOC 010830 METAR WAOC 010830Z AUTO VRB02G02KT 130V220 30/25 Q1005=
01-May-2023 SAID31 WAOC 010900 METAR WAOC 010900Z AUTO VRB02G02KT 120V200 29/25 Q1005=
01-May-2023 SAID31 WAOC 010930 METAR WAOC 010930Z AUTO VRB01G01KT 120V190 29/26 Q1006=
01-May-2023 SAID31 WAOC 011000 METAR WAOC 011000Z AUTO VRB01G01KT 29/25 Q1007=
01-May-2023 SAID31 WAOC 011030 METAR WAOC 011030Z AUTO VRB02G02KT 29/25 Q1007=
01-May-2023 SAID31 WAOC 011100 METAR WAOC 011100Z AUTO VRB02G02KT 28/26 Q1007=
01-May-2023 SAID31 WAOC 011130 METAR WAOC 011130Z AUTO VRB01G01KT 28/25 Q1008=
01-May-2023 SAID31 WAOC 011200 METAR WAOC 011200Z AUTO VRB01G01KT 120V200 28/25 Q1008=
01-May-2023 SAID31 WAOC 011230 METAR WAOC 011230Z AUTO VRB01G01KT 100V170 28/25 Q1009=
01-May-2023 SAID31 WAOC 011300 METAR WAOC 011300Z AUTO VRB01G01KT 28/25 Q1009=
01-May-2023 SAID31 WAOC 011330 METAR WAOC 011330Z AUTO VRB01G01KT 27/26 Q1009=
01-May-2023 SAID31 WAOC 011400 METAR WAOC 011400Z AUTO VRB01G01KT 27/26 Q1010=
01-May-2023 SAID31 WAOC 011430 METAR WAOC 011430Z AUTO VRB02G02KT 27/26 Q1010=
01-May-2023 SAID31 WAOC 011500 METAR WAOC 011500Z AUTO VRB01G01KT 27/26 Q1010=
01-May-2023 SAID31 WAOC 011530 METAR WAOC 011530Z AUTO VRB01G01KT 27/26 Q1010=
01-May-2023 SAID31 WAOC 011600 METAR WAOC 011600Z AUTO VRB01G01KT 210V280 27/25 Q1009=
01-May-2023 SAID31 WAOC 011630 METAR WAOC 011630Z AUTO VRB01G01KT 27/25 Q1009=
01-May-2023 SAID31 WAOC 011700 METAR WAOC 011700Z AUTO VRB01G01KT 26/25 Q1009=
01-May-2023 SAID31 WAOC 011730 METAR WAOC 011730Z AUTO VRB01G01KT 26/25 Q1009=
01-May-2023 SAID31 WAOC 011800 METAR WAOC 011800Z AUTO VRB01G01KT 26/25 Q1009=
01-May-2023 SAID31 WAOC 011830 METAR WAOC 011830Z AUTO VRB01G01KT 26/25 Q1009=
01-May-2023 SAID31 WAOC 011900 METAR WAOC 011900Z AUTO VRB01G01KT 26/25 Q1009=
01-May-2023 SAID31 WAOC 011930 METAR WAOC 011930Z AUTO VRB02G01KT 26/25 Q1008=
01-May-2023 SAID31 WAOC 012000 METAR WAOC 012000Z AUTO VRB01G01KT 25/25 Q1008=
01-May-2023 SAID31 WAOC 012030 METAR WAOC 012030Z AUTO VRB01G01KT 26/25 Q1008=
01-May-2023 SAID31 WAOC 012100 METAR WAOC 012100Z AUTO VRB01G01KT 26/25 Q1008=
01-May-2023 SAID31 WAOC 012130 METAR WAOC 012130Z AUTO VRB01G01KT 26/25 Q1009=
01-May-2023 SAID31 WAOC 012200 METAR WAOC 012200Z AUTO 00000G00KT 170V240 26/25 Q1009=
01-May-2023 SAID31 WAOC 012230 METAR WAOC 012230Z AUTO VRB01G01KT 26/25 Q1010=
01-May-2023 SAID31 WAOC 012300 METAR WAOC 012300Z AUTO VRB01G01KT 190V320 27/26 Q1010=
01-May-2023 SAID31 WAOC 012330 METAR WAOC 012330Z AUTO VRB01G01KT 180V280 27/26 Q1011=
02-May-2023 SAID31 WAOC 020000 METAR WAOC 020000Z AUTO VRB02G02KT 28/25 Q1011=
02-May-2023 SAID31 WAOC 020030 METAR WAOC 020030Z AUTO VRB03G03KT 28/25 Q1012=
02-May-2023 SAID31 WAOC 020100 METAR WAOC 020100Z AUTO VRB02G02KT 090V160 28/25 Q1011=
02-May-2023 SAID31 WAOC 020130 METAR WAOC 020130Z AUTO VRB03G03KT 28/25 Q1012=
02-May-2023 SAID31 WAOC 020200 METAR WAOC 020200Z AUTO VRB02G02KT 080V150 29/25 Q1012=
02-May-2023 SAID31 WAOC 020230 METAR WAOC 020230Z AUTO VRB02G03KT 060V180 30/24 Q1011=
02-May-2023 SAID31 WAOC 020300 METAR WAOC 020300Z AUTO VRB02G02KT 050V140 30/24 Q1011=
02-May-2023 SAID31 WAOC 020330 METAR WAOC 020330Z AUTO VRB03G03KT 30/24 Q1010=
02-May-2023 SAID31 WAOC 020400 METAR WAOC 020400Z AUTO VRB03G03KT 30/24 Q1010=
02-May-2023 SAID31 WAOC 020430 METAR WAOC 020430Z AUTO 13004G04KT 070V150 31/25 Q1009=
02-May-2023 SAID31 WAOC 020500 METAR WAOC 020500Z AUTO VRB02G02KT 080V150 31/25 Q1008=
02-May-2023 SAID31 WAOC 020530 METAR WAOC 020530Z AUTO VRB02G02KT 31/24 Q1008=
02-May-2023 SAID31 WAOC 020600 METAR WAOC 020600Z AUTO 11004G04KT 31/25 Q1007=
02-May-2023 SAID31 WAOC 020630 METAR WAOC 020630Z AUTO VRB03G03KT 30/25 Q1007=
02-May-2023 SAID31 WAOC 020700 METAR WAOC 020700Z AUTO VRB03G03KT 110V180 31/25 Q1007=
02-May-2023 SAID31 WAOC 020730 METAR WAOC 020730Z AUTO VRB02G02KT 070V140 30/26 Q1006=
02-May-2023 SAID31 WAOC 020800 METAR WAOC 020800Z AUTO VRB03G03KT 110V200 31/25 Q1006=
02-May-2023 SAID31 WAOC 020830 METAR WAOC 020830Z AUTO VRB03G03KT 120V210 30/25 Q1006=
02-May-2023 SAID31 WAOC 020900 METAR WAOC 020900Z AUTO VRB02G02KT 090V220 30/25 Q1006=
02-May-2023 SAID31 WAOC 020930 METAR WAOC 020930Z AUTO 09004G04KT 30/25 Q1006=
02-May-2023 SAID31 WAOC 021000 METAR WAOC 021000Z AUTO VRB02G02KT 080V170 29/25 Q1007=
02-May-2023 SAID31 WAOC 021030 METAR WAOC 021030Z AUTO VRB03G03KT 29/25 Q1007=
02-May-2023 SAID31 WAOC 021100 METAR WAOC 021100Z AUTO VRB02G02KT 29/25 Q1008=
02-May-2023 SAID31 WAOC 021130 METAR WAOC 021130Z AUTO VRB01G01KT 29/25 Q1008=
02-May-2023 SAID31 WAOC 021200 METAR WAOC 021200Z AUTO VRB01G01KT 28/25 Q1008=
02-May-2023 SAID31 WAOC 021230 METAR WAOC 021230Z AUTO VRB01G01KT 110V180 28/25 Q1009=
02-May-2023 SAID31 WAOC 021300 METAR WAOC 021300Z AUTO VRB02G02KT 28/25 Q1010=
02-May-2023 SAID31 WAOC 021330 METAR WAOC 021330Z AUTO VRB01G01KT 28/26 Q1010=
02-May-2023 SAID31 WAOC 021400 METAR WAOC 021400Z AUTO VRB01G01KT 27/26 Q1010=
02-May-2023 SAID31 WAOC 021430 METAR WAOC 021430Z AUTO VRB02G02KT 27/26 Q1010=
02-May-2023 SAID31 WAOC 021500 METAR WAOC 021500Z AUTO VRB03G03KT 27/26 Q1010=
02-May-2023 SAID31 WAOC 021530 METAR WAOC 021530Z AUTO VRB01G01KT 240V320 27/25 Q1010=
02-May-2023 SAID31 WAOC 021600 METAR WAOC 021600Z AUTO VRB02G02KT 27/25 Q1010=
02-May-2023 SAID31 WAOC 021630 METAR WAOC 021630Z AUTO VRB01G01KT 240V310 27/26 Q1009=
02-May-2023 SAID31 WAOC 021700 METAR WAOC 021700Z AUTO 00000G00KT 120V280 26/25 Q1009=
02-May-2023 SAID31 WAOC 021730 METAR WAOC 021730Z AUTO 00000G00KT 000V070 27/26 Q1009=
02-May-2023 SAID31 WAOC 021800 METAR WAOC 021800Z AUTO VRB01G01KT 27/26 Q1009=
02-May-2023 SAID31 WAOC 021830 METAR WAOC 021830Z AUTO VRB01G01KT 27/26 Q1008=
02-May-2023 SAID31 WAOC 021900 METAR WAOC 021900Z AUTO VRB01G01KT 26/26 Q1008=
02-May-2023 SAID31 WAOC 021930 METAR WAOC 021930Z AUTO VRB02G02KT 26/26 Q1008=
02-May-2023 SAID31 WAOC 022000 METAR WAOC 022000Z AUTO VRB02G02KT 26/26 Q1008=
02-May-2023 SAID31 WAOC 022030 METAR WAOC 022030Z AUTO VRB02G02KT 26/25 Q1008=
02-May-2023 SAID31 WAOC 022100 METAR WAOC 022100Z AUTO VRB01G01KT 230V300 25/25 Q1008=
02-May-2023 SAID31 WAOC 022130 METAR WAOC 022130Z AUTO 00000G00KT 25/25 Q1009=
02-May-2023 SAID31 WAOC 022200 METAR WAOC 022200Z AUTO 00000G00KT 26/25 Q1009=
02-May-2023 SAID31 WAOC 022230 METAR WAOC 022230Z AUTO 00000G00KT 26/25 Q1009=
02-May-2023 SAID31 WAOC 022300 METAR WAOC 022300Z AUTO VRB01G01KT 160V300 26/25 Q1009=
02-May-2023 SAID31 WAOC 022330 METAR WAOC 022330Z AUTO 00000G00KT 250V140 28/26 Q1010=
03-May-2023 SAID31 WAOC 030000 METAR WAOC 030000Z AUTO VRB01G01KT 260V350 28/26 Q1010=
03-May-2023 SAID31 WAOC 030030 METAR WAOC 030030Z AUTO VRB01G01KT 29/26 Q1010=
03-May-2023 SAID31 WAOC 030100 METAR WAOC 030100Z AUTO VRB02G02KT 250V330 29/26 Q1010=
03-May-2023 SAID31 WAOC 030130 METAR WAOC 030130Z AUTO 00000G00KT 300V160 29/26 Q1010=
03-May-2023 SAID31 WAOC 030200 METAR WAOC 030200Z AUTO VRB01G01KT 270V180 30/25 Q1010=
03-May-2023 SAID31 WAOC 030230 METAR WAOC 030230Z AUTO VRB03G03KT 050V300 30/25 Q1010=
03-May-2023 SAID31 WAOC 030300 METAR WAOC 030300Z AUTO VRB03G03KT 080V200 31/24 Q1010=
03-May-2023 SAID31 WAOC 030330 METAR WAOC 030330Z AUTO 00000G00KT 010V180 32/24 Q1009=
03-May-2023 SAID31 WAOC 030400 METAR WAOC 030400Z AUTO VRB02G02KT 330V140 32/24 Q1009=
03-May-2023 SAID31 WAOC 030430 METAR WAOC 030430Z AUTO VRB01G01KT 360V160 33/24 Q1008=
03-May-2023 SAID31 WAOC 030500 METAR WAOC 030500Z AUTO VRB03G03KT 060V140 32/24 Q1008=
03-May-2023 SAID31 WAOC 030530 METAR WAOC 030530Z AUTO VRB02G02KT 080V270 32/23 Q1008=
03-May-2023 SAID31 WAOC 030600 METAR WAOC 030600Z AUTO VRB02G02KT 040V120 33/24 Q1007=
03-May-2023 SAID31 WAOC 030630 METAR WAOC 030630Z AUTO VRB03G03KT 060V140 32/24 Q1007=
03-May-2023 SAID31 WAOC 030700 METAR WAOC 030700Z AUTO 11005G05KT 070V140 32/25 Q1006=
03-May-2023 SAID31 WAOC 030730 METAR WAOC 030730Z AUTO VRB02G02KT 32/24 Q1006=
03-May-2023 SAID31 WAOC 030800 METAR WAOC 030800Z AUTO VRB02G02KT 050V130 33/25 Q1006=
03-May-2023 SAID31 WAOC 030830 METAR WAOC 030830Z AUTO VRB01G02KT 060V170 32/25 Q1006=
03-May-2023 SAID31 WAOC 030900 METAR WAOC 030900Z AUTO VRB02G02KT 100V170 31/25 Q1006=
03-May-2023 SAID31 WAOC 030930 METAR WAOC 030930Z AUTO VRB02G02KT 30/25 Q1006=
03-May-2023 SAID31 WAOC 031000 METAR WAOC 031000Z AUTO VRB02G02KT 30/25 Q1007=
03-May-2023 SAID31 WAOC 031030 METAR WAOC 031030Z AUTO VRB02G02KT 090V170 29/26 Q1007=
03-May-2023 SAID31 WAOC 031100 METAR WAOC 031100Z AUTO VRB02G02KT 110V190 29/26 Q1008=
03-May-2023 SAID31 WAOC 031130 METAR WAOC 031130Z AUTO VRB02G02KT 29/26 Q1008=
03-May-2023 SAID31 WAOC 031200 METAR WAOC 031200Z AUTO VRB01G01KT 29/26 Q1008=
03-May-2023 SAID31 WAOC 031230 METAR WAOC 031230Z AUTO VRB01G01KT 100V170 29/26 Q1009=
03-May-2023 SAID31 WAOC 031300 METAR WAOC 031300Z AUTO VRB01G01KT 28/26 Q1009=
03-May-2023 SAID31 WAOC 031330 METAR WAOC 031330Z AUTO VRB01G01KT 160V240 28/26 Q1009=
03-May-2023 SAID31 WAOC 031400 METAR WAOC 031400Z AUTO VRB02G02KT 28/26 Q1010=
03-May-2023 SAID31 WAOC 031430 METAR WAOC 031430Z AUTO VRB03G03KT 27/26 Q1010=
03-May-2023 SAID31 WAOC 031500 METAR WAOC 031500Z AUTO VRB02G02KT 27/26 Q1010=
03-May-2023 SAID31 WAOC 031530 METAR WAOC 031530Z AUTO VRB02G02KT 27/26 Q1010=
03-May-2023 SAID31 WAOC 031600 METAR WAOC 031600Z AUTO VRB03G03KT 27/26 Q1010=
03-May-2023 SAID31 WAOC 031630 METAR WAOC 031630Z AUTO VRB02G02KT 27/26 Q1009=
03-May-2023 SAID31 WAOC 031700 METAR WAOC 031700Z AUTO VRB02G02KT 26/25 Q1009=
03-May-2023 SAID31 WAOC 031730 METAR WAOC 031730Z AUTO VRB02G02KT 230V300 26/25 Q1009=
03-May-2023 SAID31 WAOC 031800 METAR WAOC 031800Z AUTO VRB02G02KT 26/25 Q1008=
03-May-2023 SAID31 WAOC 031830 METAR WAOC 031830Z AUTO VRB01G01KT 26/25 Q1008=
03-May-2023 SAID31 WAOC 031900 METAR WAOC 031900Z AUTO VRB02G02KT 25/25 Q1008=
03-May-2023 SAID31 WAOC 031930 METAR WAOC 031930Z AUTO VRB02G02KT 25/25 Q1008=
03-May-2023 SAID31 WAOC 032000 METAR WAOC 032000Z AUTO VRB01G01KT 25/25 Q1008=
03-May-2023 SAID31 WAOC 032030 METAR WAOC 032030Z AUTO VRB02G02KT 25/25 Q1008=
03-May-2023 SAID31 WAOC 032100 METAR WAOC 032100Z AUTO VRB02G02KT 26/25 Q1008=
03-May-2023 SAID31 WAOC 032130 METAR WAOC 032130Z AUTO VRB01G01KT 240V310 25/25 Q1008=
03-May-2023 SAID31 WAOC 032200 METAR WAOC 032200Z AUTO VRB02G02KT 25/25 Q1008=
03-May-2023 SAID31 WAOC 032230 METAR WAOC 032230Z AUTO VRB02G02KT 25/24 Q1008=
03-May-2023 SAID31 WAOC 032300 METAR WAOC 032300Z AUTO VRB03G03KT 27/25 Q1008=
03-May-2023 SAID31 WAOC 032330 METAR WAOC 032330Z AUTO VRB03G03KT 27/25 Q1009=
04-May-2023 SAID31 WAOC 040000 METAR WAOC 040000Z AUTO VRB02G02KT 28/25 Q1009=
04-May-2023 SAID31 WAOC 040030 METAR WAOC 040030Z AUTO VRB02G02KT 29/25 Q1009=
04-May-2023 SAID31 WAOC 040100 METAR WAOC 040100Z AUTO VRB01G01KT 180V260 29/25 Q1010=
04-May-2023 SAID31 WAOC 040130 METAR WAOC 040130Z AUTO VRB02G02KT 30/24 Q1010=
04-May-2023 SAID31 WAOC 040200 METAR WAOC 040200Z AUTO VRB02G02KT 050V210 31/25 Q1010=
04-May-2023 SAID31 WAOC 040230 METAR WAOC 040230Z AUTO VRB02G02KT 040V140 32/25 Q1009=
04-May-2023 SAID31 WAOC 040300 METAR WAOC 040300Z AUTO VRB02G02KT 070V350 32/24 Q1009=
04-May-2023 SAID31 WAOC 040330 METAR WAOC 040330Z AUTO 09004G04KT 330V180 32/24 Q1009=
04-May-2023 SAID31 WAOC 040400 METAR WAOC 040400Z AUTO VRB03G03KT 060V190 32/24 Q1008=
04-May-2023 SAID31 WAOC 040430 METAR WAOC 040430Z AUTO VRB01G01KT 110V250 33/25 Q1008=
04-May-2023 SAID31 WAOC 040500 METAR WAOC 040500Z AUTO VRB02G02KT 060V180 33/23 Q1007=
04-May-2023 SAID31 WAOC 040530 METAR WAOC 040530Z AUTO VRB03G03KT 120V220 32/26 Q1007=
04-May-2023 SAID31 WAOC 040600 METAR WAOC 040600Z AUTO VRB02G02KT 100V180 32/26 Q1006=
04-May-2023 SAID31 WAOC 040630 METAR WAOC 040630Z AUTO VRB03G03KT 080V220 32/24 Q1005=
04-May-2023 SAID31 WAOC 040700 METAR WAOC 040700Z AUTO VRB03G03KT 100V200 32/25 Q1005=
04-May-2023 SAID31 WAOC 040730 METAR WAOC 040730Z AUTO 14004G05KT 100V170 32/25 Q1005=
04-May-2023 SAID31 WAOC 040800 METAR WAOC 040800Z AUTO VRB03G03KT 120V200 31/25 Q1005=
04-May-2023 SAID31 WAOC 040830 METAR WAOC 040830Z AUTO 20005G05KT 130V210 31/26 Q1005=
04-May-2023 SAID31 WAOC 040900 METAR WAOC 040900Z AUTO VRB03G03KT 110V230 31/26 Q1005=
04-May-2023 SAID31 WAOC 040930 METAR WAOC 040930Z AUTO VRB03G03KT 150V240 31/26 Q1005=
04-May-2023 SAID31 WAOC 041000 METAR WAOC 041000Z AUTO VRB02G02KT 100V180 30/26 Q1006=
04-May-2023 SAID31 WAOC 041030 METAR WAOC 041030Z AUTO VRB03G03KT 120V200 29/26 Q1006=
04-May-2023 SAID31 WAOC 041100 METAR WAOC 041100Z AUTO 15004G04KT 29/26 Q1007=
04-May-2023 SAID31 WAOC 041130 METAR WAOC 041130Z AUTO VRB03G03KT 29/26 Q1007=
04-May-2023 SAID31 WAOC 041200 METAR WAOC 041200Z AUTO VRB01G01KT 29/26 Q1007=
04-May-2023 SAID31 WAOC 041230 METAR WAOC 041230Z AUTO VRB01G01KT 120V220 28/25 Q1008=
04-May-2023 SAID31 WAOC 041300 METAR WAOC 041300Z AUTO VRB02G02KT 120V200 28/25 Q1009=
04-May-2023 SAID31 WAOC 041330 METAR WAOC 041330Z AUTO VRB01G01KT 140V220 28/25 Q1009=
04-May-2023 SAID31 WAOC 041400 METAR WAOC 041400Z AUTO VRB01G01KT 28/25 Q1009=
04-May-2023 SAID31 WAOC 041430 METAR WAOC 041430Z AUTO VRB01G01KT 060V210 28/25 Q1009=
04-May-2023 SAID31 WAOC 041500 METAR WAOC 041500Z AUTO VRB02G02KT 120V190 28/25 Q1009=
04-May-2023 SAID31 WAOC 041530 METAR WAOC 041530Z AUTO VRB01G01KT 27/26 Q1009=
04-May-2023 SAID31 WAOC 041600 METAR WAOC 041600Z AUTO VRB02G02KT 27/26 Q1009=
04-May-2023 SAID31 WAOC 041630 METAR WAOC 041630Z AUTO VRB01G01KT 27/26 Q1008=
04-May-2023 SAID31 WAOC 041700 METAR WAOC 041700Z AUTO VRB02G02KT 27/26 Q1008=
04-May-2023 SAID31 WAOC 041730 METAR WAOC 041730Z AUTO VRB02G02KT 27/26 Q1008=
04-May-2023 SAID31 WAOC 041800 METAR WAOC 041800Z AUTO VRB02G02KT 27/26 Q1008=
04-May-2023 SAID31 WAOC 041830 METAR WAOC 041830Z AUTO VRB02G02KT 27/26 Q1007=
04-May-2023 SAID31 WAOC 041900 METAR WAOC 041900Z AUTO VRB02G02KT 27/26 Q1007=
04-May-2023 SAID31 WAOC 041930 METAR WAOC 041930Z AUTO VRB02G02KT 26/26 Q1007=
04-May-2023 SAID31 WAOC 042000 METAR WAOC 042000Z AUTO VRB01G01KT 26/26 Q1006=
04-May-2023 SAID31 WAOC 042030 METAR WAOC 042030Z AUTO VRB01G01KT 26/26 Q1006=
04-May-2023 SAID31 WAOC 042100 METAR WAOC 042100Z AUTO VRB01G01KT 26/26 Q1006=
04-May-2023 SAID31 WAOC 042130 METAR WAOC 042130Z AUTO 00000G00KT 26/26 Q1006=
04-May-2023 SAID31 WAOC 042200 METAR WAOC 042200Z AUTO VRB01G01KT 26/26 Q1007=
04-May-2023 SAID31 WAOC 042230 METAR WAOC 042230Z AUTO VRB03G03KT 26/25 Q1007=
04-May-2023 SAID31 WAOC 042300 METAR WAOC 042300Z AUTO VRB02G02KT 27/26 Q1007=
04-May-2023 SAID31 WAOC 042330 METAR WAOC 042330Z AUTO VRB03G03KT 27/26 Q1007=
05-May-2023 SAID31 WAOC 050000 METAR WAOC 050000Z AUTO VRB03G03KT 220V300 28/26 Q1007=
05-May-2023 SAID31 WAOC 050030 METAR WAOC 050030Z AUTO VRB02G02KT 190V340 29/26 Q1008=
05-May-2023 SAID31 WAOC 050100 METAR WAOC 050100Z AUTO VRB02G02KT 110V340 30/25 Q1008=
05-May-2023 SAID31 WAOC 050130 METAR WAOC 050130Z AUTO VRB02G02KT 030V200 30/25 Q1008=
05-May-2023 SAID31 WAOC 050200 METAR WAOC 050200Z AUTO VRB02G02KT 050V140 31/26 Q1008=
05-May-2023 SAID31 WAOC 050230 METAR WAOC 050230Z AUTO VRB03G03KT 100V210 32/24 Q1007=
05-May-2023 SAID31 WAOC 050300 METAR WAOC 050300Z AUTO VRB01G01KT 080V210 32/25 Q1007=
05-May-2023 SAID31 WAOC 050330 METAR WAOC 050330Z AUTO VRB02G02KT 080V170 32/25 Q1007=
05-May-2023 SAID31 WAOC 050400 METAR WAOC 050400Z AUTO 12004G04KT 30/25 Q1006=
05-May-2023 SAID31 WAOC 050430 METAR WAOC 050430Z AUTO 08004G04KT 29/24 Q1006=
05-May-2023 SAID31 WAOC 050500 METAR WAOC 050500Z AUTO VRB01G01KT 090V210 30/23 Q1005=
05-May-2023 SAID31 WAOC 050530 METAR WAOC 050530Z AUTO VRB03G03KT 080V230 32/25 Q1005=
05-May-2023 SAID31 WAOC 050600 METAR WAOC 050600Z AUTO VRB02G02KT 140V210 31/25 Q1004=
05-May-2023 SAID31 WAOC 050630 METAR WAOC 050630Z AUTO VRB02G02KT 30/25 Q1004=
05-May-2023 SAID31 WAOC 050700 METAR WAOC 050700Z AUTO VRB01G01KT 080V150 30/25 Q1004=
05-May-2023 SAID31 WAOC 050730 METAR WAOC 050730Z AUTO VRB01G01KT 30/25 Q1003=
05-May-2023 SAID31 WAOC 050800 METAR WAOC 050800Z AUTO VRB01G01KT 140V210 29/24 Q1003=
05-May-2023 SAID31 WAOC 050830 METAR WAOC 050830Z AUTO VRB01G01KT 030V260 29/25 Q1003=
05-May-2023 SAID31 WAOC 050900 METAR WAOC 050900Z AUTO VRB01G01KT 110V220 29/25 Q1004=
05-May-2023 SAID31 WAOC 050930 METAR WAOC 050930Z AUTO VRB02G02KT 130V210 29/25 Q1004=
05-May-2023 SAID31 WAOC 051000 METAR WAOC 051000Z AUTO VRB01G01KT 090V190 29/25 Q1004=
05-May-2023 SAID31 WAOC 051030 METAR WAOC 051030Z AUTO VRB01G01KT 100V300 29/25 Q1004=
05-May-2023 SAID31 WAOC 051100 METAR WAOC 051100Z AUTO VRB02G02KT 28/26 Q1005=
05-May-2023 SAID31 WAOC 051130 METAR WAOC 051130Z AUTO VRB02G02KT 27/26 Q1005=
05-May-2023 SAID31 WAOC 051200 METAR WAOC 051200Z AUTO VRB02G02KT 27/26 Q1006=
05-May-2023 SAID31 WAOC 051230 METAR WAOC 051230Z AUTO VRB02G02KT 27/26 Q1006=
05-May-2023 SAID31 WAOC 051300 METAR WAOC 051300Z AUTO VRB01G01KT 27/26 Q1007=
05-May-2023 SAID31 WAOC 051330 METAR WAOC 051330Z AUTO VRB01G01KT 26/26 Q1007=
05-May-2023 SAID31 WAOC 051400 METAR WAOC 051400Z AUTO VRB01G01KT 200V280 26/26 Q1008=
05-May-2023 SAID31 WAOC 051430 METAR WAOC 051430Z AUTO VRB01G01KT 26/26 Q1008=
05-May-2023 SAID31 WAOC 051500 METAR WAOC 051500Z AUTO VRB01G01KT 26/25 Q1008=
05-May-2023 SAID31 WAOC 051530 METAR WAOC 051530Z AUTO VRB02G02KT 26/25 Q1008=
05-May-2023 SAID31 WAOC 051600 METAR WAOC 051600Z AUTO VRB01G01KT 26/25 Q1008=
05-May-2023 SAID31 WAOC 051630 METAR WAOC 051630Z AUTO VRB02G02KT 26/25 Q1007=
05-May-2023 SAID31 WAOC 051700 METAR WAOC 051700Z AUTO VRB02G02KT 26/25 Q1007=
05-May-2023 SAID31 WAOC 051730 METAR WAOC 051730Z AUTO VRB02G02KT 26/25 Q1007=
05-May-2023 SAID31 WAOC 051800 METAR WAOC 051800Z AUTO VRB02G02KT 210V280 25/25 Q1007=
05-May-2023 SAID31 WAOC 051830 METAR WAOC 051830Z AUTO VRB02G02KT 25/25 Q1006=
05-May-2023 SAID31 WAOC 051900 METAR WAOC 051900Z AUTO VRB01G01KT 25/25 Q1006=
05-May-2023 SAID31 WAOC 051930 METAR WAOC 051930Z AUTO VRB02G02KT 25/25 Q1006=
05-May-2023 SAID31 WAOC 052000 METAR WAOC 052000Z AUTO VRB02G02KT 25/25 Q1006=
05-May-2023 SAID31 WAOC 052030 METAR WAOC 052030Z AUTO VRB02G02KT 25/25 Q1006=
05-May-2023 SAID31 WAOC 052100 METAR WAOC 052100Z AUTO VRB01G01KT 25/25 Q1006=
05-May-2023 SAID31 WAOC 052130 METAR WAOC 052130Z AUTO VRB02G02KT 25/24 Q1006=
05-May-2023 SAID31 WAOC 052200 METAR WAOC 052200Z AUTO VRB02G02KT 25/25 Q1007=
05-May-2023 SAID31 WAOC 052230 METAR WAOC 052230Z AUTO VRB03G03KT 25/25 Q1007=
05-May-2023 SAID31 WAOC 052300 METAR WAOC 052300Z AUTO VRB02G02KT 26/25 Q1007=
05-May-2023 SAID31 WAOC 052330 METAR WAOC 052330Z AUTO VRB01G01KT 27/26 Q1007=
06-May-2023 SAID31 WAOC 060000 METAR WAOC 060000Z AUTO VRB01G01KT 220V310 26/25 Q1008=
06-May-2023 SAID31 WAOC 060030 METAR WAOC 060030Z AUTO VRB01G01KT 27/26 Q1008=
06-May-2023 SAID31 WAOC 060100 METAR WAOC 060100Z AUTO VRB01G01KT 28/25 Q1008=
06-May-2023 SAID31 WAOC 060130 METAR WAOC 060130Z AUTO 00000G00KT 190V340 29/25 Q1008=
06-May-2023 SAID31 WAOC 060200 METAR WAOC 060200Z AUTO VRB02G02KT 090V200 29/25 Q1008=
06-May-2023 SAID31 WAOC 060230 METAR WAOC 060230Z AUTO VRB02G02KT 060V200 30/25 Q1008=
06-May-2023 SAID31 WAOC 060300 METAR WAOC 060300Z AUTO VRB02G02KT 090V280 31/25 Q1008=
06-May-2023 SAID31 WAOC 060330 METAR WAOC 060330Z AUTO VRB03G03KT 080V180 32/26 Q1007=
06-May-2023 SAID31 WAOC 060400 METAR WAOC 060400Z AUTO VRB02G02KT 110V220 32/25 Q1007=
06-May-2023 SAID31 WAOC 060430 METAR WAOC 060430Z AUTO VRB02G02KT 080V230 32/24 Q1006=
06-May-2023 SAID31 WAOC 060500 METAR WAOC 060500Z AUTO VRB03G03KT 110V210 31/24 Q1006=
06-May-2023 SAID31 WAOC 060530 METAR WAOC 060530Z AUTO 10004G04KT 080V150 32/24 Q1005=
06-May-2023 SAID31 WAOC 060600 METAR WAOC 060600Z AUTO 09005G05KT 30/24 Q1005=
06-May-2023 SAID31 WAOC 060630 METAR WAOC 060630Z AUTO 07004G04KT 040V110 30/24 Q1004=
06-May-2023 SAID31 WAOC 060700 METAR WAOC 060700Z AUTO VRB01G01KT 120V210 29/24 Q1004=
06-May-2023 SAID31 WAOC 060730 METAR WAOC 060730Z AUTO VRB03G03KT 170V250 29/23 Q1004=
06-May-2023 SAID31 WAOC 060800 METAR WAOC 060800Z AUTO VRB01G01KT 140V220 30/25 Q1004=
06-May-2023 SAID31 WAOC 060830 METAR WAOC 060830Z AUTO VRB01G01KT 30/25 Q1004=
06-May-2023 SAID31 WAOC 060900 METAR WAOC 060900Z AUTO VRB01G01KT 200V290 29/25 Q1004=
06-May-2023 SAID31 WAOC 060930 METAR WAOC 060930Z AUTO VRB02G01KT 140V220 29/25 Q1005=
06-May-2023 SAID31 WAOC 061000 METAR WAOC 061000Z AUTO VRB01G01KT 120V200 29/25 Q1005=
06-May-2023 SAID31 WAOC 061030 METAR WAOC 061030Z AUTO VRB01G01KT 170V280 29/25 Q1005=
06-May-2023 SAID31 WAOC 061100 METAR WAOC 061100Z AUTO VRB01G01KT 110V190 28/24 Q1005=
06-May-2023 SAID31 WAOC 061130 METAR WAOC 061130Z AUTO VRB01G01KT 28/25 Q1006=
06-May-2023 SAID31 WAOC 061200 METAR WAOC 061200Z AUTO VRB01G01KT 27/25 Q1007=
06-May-2023 SAID31 WAOC 061230 METAR WAOC 061230Z AUTO VRB02G02KT 27/25 Q1007=
06-May-2023 SAID31 WAOC 061300 METAR WAOC 061300Z AUTO VRB01G01KT 27/25 Q1007=
06-May-2023 SAID31 WAOC 061330 METAR WAOC 061330Z AUTO VRB01G01KT 27/25 Q1008=
06-May-2023 SAID31 WAOC 061400 METAR WAOC 061400Z AUTO VRB02G01KT 27/25 Q1008=
06-May-2023 SAID31 WAOC 061430 METAR WAOC 061430Z AUTO VRB01G01KT 27/25 Q1008=
06-May-2023 SAID31 WAOC 061500 METAR WAOC 061500Z AUTO VRB01G01KT 26/25 Q1008=
06-May-2023 SAID31 WAOC 061530 METAR WAOC 061530Z AUTO VRB02G02KT 26/25 Q1008=
06-May-2023 SAID31 WAOC 061600 METAR WAOC 061600Z AUTO VRB01G01KT 26/25 Q1008=
06-May-2023 SAID31 WAOC 061630 METAR WAOC 061630Z AUTO VRB02G02KT 26/25 Q1008=
06-May-2023 SAID31 WAOC 061700 METAR WAOC 061700Z AUTO VRB03G03KT 25/25 Q1008=
06-May-2023 SAID31 WAOC 061730 METAR WAOC 061730Z AUTO VRB03G03KT 25/25 Q1007=
06-May-2023 SAID31 WAOC 061800 METAR WAOC 061800Z AUTO VRB03G03KT 25/24 Q1007=
06-May-2023 SAID31 WAOC 061830 METAR WAOC 061830Z AUTO VRB02G02KT 25/24 Q1007=
06-May-2023 SAID31 WAOC 061900 METAR WAOC 061900Z AUTO VRB02G02KT 25/25 Q1006=
06-May-2023 SAID31 WAOC 061930 METAR WAOC 061930Z AUTO VRB01G01KT 200V300 25/25 Q1006=
06-May-2023 SAID31 WAOC 062000 METAR WAOC 062000Z AUTO VRB02G02KT 25/24 Q1006=
06-May-2023 SAID31 WAOC 062030 METAR WAOC 062030Z AUTO VRB02G02KT 25/24 Q1007=
06-May-2023 SAID31 WAOC 062100 METAR WAOC 062100Z AUTO VRB02G02KT 240V310 25/24 Q1007=
06-May-2023 SAID31 WAOC 062130 METAR WAOC 062130Z AUTO VRB01G01KT 25/24 Q1007=
06-May-2023 SAID31 WAOC 062200 METAR WAOC 062200Z AUTO VRB01G01KT 25/24 Q1007=
06-May-2023 SAID31 WAOC 062230 METAR WAOC 062230Z AUTO VRB01G01KT 220V290 25/24 Q1008=
06-May-2023 SAID31 WAOC 062300 METAR WAOC 062300Z AUTO VRB03G03KT 26/25 Q1008=
06-May-2023 SAID31 WAOC 062330 METAR WAOC 062330Z AUTO VRB01G01KT 210V300 27/25 Q1008=
07-May-2023 SAID31 WAOC 070000 METAR WAOC 070000Z AUTO VRB03G03KT 27/25 Q1008=
07-May-2023 SAID31 WAOC 070030 METAR WAOC 070030Z AUTO VRB03G03KT 260V340 28/25 Q1009=
07-May-2023 SAID31 WAOC 070100 METAR WAOC 070100Z AUTO VRB02G02KT 160V280 29/25 Q1009=
07-May-2023 SAID31 WAOC 070130 METAR WAOC 070130Z AUTO VRB01G01KT 100V220 30/26 Q1008=
07-May-2023 SAID31 WAOC 070200 METAR WAOC 070200Z AUTO 16004G04KT 110V230 31/25 Q1008=
07-May-2023 SAID31 WAOC 070230 METAR WAOC 070230Z AUTO 08005G05KT 27/26 Q1008=
07-May-2023 SAID31 WAOC 070300 METAR WAOC 070300Z AUTO VRB02G02KT 28/25 Q1008=
07-May-2023 SAID31 WAOC 070330 METAR WAOC 070330Z AUTO VRB03G03KT 29/26 Q1008=
07-May-2023 SAID31 WAOC 070400 METAR WAOC 070400Z AUTO VRB02G02KT 040V140 29/25 Q1007=
07-May-2023 SAID31 WAOC 070430 METAR WAOC 070430Z AUTO 00000G00KT 30/25 Q1006=
07-May-2023 SAID31 WAOC 070500 METAR WAOC 070500Z AUTO VRB02G02KT 030V120 31/25 Q1006=
07-May-2023 SAID31 WAOC 070530 METAR WAOC 070530Z AUTO 15004G04KT 050V150 30/25 Q1006=
07-May-2023 SAID31 WAOC 070600 METAR WAOC 070600Z AUTO VRB01G01KT 100V220 28/24 Q1006=
07-May-2023 SAID31 WAOC 070630 METAR WAOC 070630Z AUTO VRB01G01KT 150V240 28/24 Q1005=
07-May-2023 SAID31 WAOC 070700 METAR WAOC 070700Z AUTO VRB03G03KT 28/24 Q1005=
07-May-2023 SAID31 WAOC 070730 METAR WAOC 070730Z AUTO VRB02G02KT 230V300 28/25 Q1005=
07-May-2023 SAID31 WAOC 070800 METAR WAOC 070800Z AUTO VRB03G03KT 140V280 28/25 Q1005=
07-May-2023 SAID31 WAOC 070830 METAR WAOC 070830Z AUTO VRB03G03KT 27/26 Q1005=
07-May-2023 SAID31 WAOC 070900 METAR WAOC 070900Z AUTO VRB03G03KT 27/26 Q1005=
07-May-2023 SAID31 WAOC 070930 METAR WAOC 070930Z AUTO VRB02G02KT 26/26 Q1006=
07-May-2023 SAID31 WAOC 071000 METAR WAOC 071000Z AUTO VRB01G01KT 27/26 Q1006=
07-May-2023 SAID31 WAOC 071030 METAR WAOC 071030Z AUTO VRB01G01KT 27/26 Q1006=
07-May-2023 SAID31 WAOC 071100 METAR WAOC 071100Z AUTO VRB01G01KT 240V320 26/26 Q1007=
07-May-2023 SAID31 WAOC 071130 METAR WAOC 071130Z AUTO VRB01G01KT 26/26 Q1007=
07-May-2023 SAID31 WAOC 071200 METAR WAOC 071200Z AUTO VRB02G02KT 26/26 Q1008=
07-May-2023 SAID31 WAOC 071230 METAR WAOC 071230Z AUTO VRB02G02KT 26/25 Q1008=
07-May-2023 SAID31 WAOC 071300 METAR WAOC 071300Z AUTO VRB02G02KT 26/25 Q1008=
07-May-2023 SAID31 WAOC 071330 METAR WAOC 071330Z AUTO VRB01G01KT 26/25 Q1008=
07-May-2023 SAID31 WAOC 071400 METAR WAOC 071400Z AUTO VRB02G02KT 26/25 Q1008=
07-May-2023 SAID31 WAOC 071430 METAR WAOC 071430Z AUTO VRB01G01KT 220V290 26/25 Q1008=
07-May-2023 SAID31 WAOC 071500 METAR WAOC 071500Z AUTO VRB01G01KT 240V340 26/25 Q1008=
07-May-2023 SAID31 WAOC 071530 METAR WAOC 071530Z AUTO VRB03G03KT 26/25 Q1009=
07-May-2023 SAID31 WAOC 071600 METAR WAOC 071600Z AUTO VRB03G03KT 26/25 Q1009=
07-May-2023 SAID31 WAOC 071630 METAR WAOC 071630Z AUTO VRB02G02KT 210V310 26/25 Q1008=
07-May-2023 SAID31 WAOC 071700 METAR WAOC 071700Z AUTO VRB01G01KT 26/25 Q1008=
07-May-2023 SAID31 WAOC 071730 METAR WAOC 071730Z AUTO VRB01G01KT 190V270 25/25 Q1008=
07-May-2023 SAID31 WAOC 071800 METAR WAOC 071800Z AUTO 00000G00KT 000V330 26/25 Q1007=
07-May-2023 SAID31 WAOC 071830 METAR WAOC 071830Z AUTO VRB01G01KT 25/25 Q1007=
07-May-2023 SAID31 WAOC 071900 METAR WAOC 071900Z AUTO VRB01G02KT 200V300 25/25 Q1007=
07-May-2023 SAID31 WAOC 071930 METAR WAOC 071930Z AUTO VRB01G01KT 25/25 Q1007=
07-May-2023 SAID31 WAOC 072000 METAR WAOC 072000Z AUTO VRB01G02KT 25/25 Q1007=
07-May-2023 SAID31 WAOC 072030 METAR WAOC 072030Z AUTO VRB03G03KT 25/25 Q1007=
07-May-2023 SAID31 WAOC 072100 METAR WAOC 072100Z AUTO VRB03G03KT 25/25 Q1007=
07-May-2023 SAID31 WAOC 072130 METAR WAOC 072130Z AUTO VRB02G02KT 26/25 Q1007=
07-May-2023 SAID31 WAOC 072200 METAR WAOC 072200Z AUTO VRB02G02KT 25/25 Q1008=
07-May-2023 SAID31 WAOC 072230 METAR WAOC 072230Z AUTO VRB01G01KT 25/25 Q1008=
07-May-2023 SAID31 WAOC 072300 METAR WAOC 072300Z AUTO VRB02G02KT 220V290 26/25 Q1008=
07-May-2023 SAID31 WAOC 072330 METAR WAOC 072330Z AUTO VRB02G02KT 200V290 26/26 Q1009=
08-May-2023 SAID31 WAOC 080000 METAR WAOC 080000Z AUTO VRB02G02KT 220V310 26/25 Q1009=
08-May-2023 SAID31 WAOC 080030 METAR WAOC 080030Z AUTO VRB03G03KT 27/26 Q1009=
08-May-2023 SAID31 WAOC 080100 METAR WAOC 080100Z AUTO VRB02G02KT 30/29 Q1008=
08-May-2023 SAID31 WAOC 080130 METAR WAOC 080130Z AUTO VRB02G02KT 30/28 Q1008=
08-May-2023 SAID31 WAOC 080200 METAR WAOC 080200Z AUTO VRB02G02KT 270V350 29/26 Q1009=
08-May-2023 SAID31 WAOC 080230 METAR WAOC 080230Z AUTO VRB01G01KT 200V300 30/26 Q1009=
08-May-2023 SAID31 WAOC 080300 METAR WAOC 080300Z AUTO 13005G05KT 270V140 29/26 Q1009=
08-May-2023 SAID31 WAOC 080330 METAR WAOC 080330Z AUTO VRB01G01KT 110V320 26/25 Q1009=
08-May-2023 SAID31 WAOC 080400 METAR WAOC 080400Z AUTO VRB02G02KT 170V240 26/26 Q1009=
08-May-2023 SAID31 WAOC 080430 METAR WAOC 080430Z AUTO VRB01G01KT 210V300 26/26 Q1008=
08-May-2023 SAID31 WAOC 080500 METAR WAOC 080500Z AUTO VRB02G02KT 220V290 26/26 Q1008=
08-May-2023 SAID31 WAOC 080530 METAR WAOC 080530Z AUTO VRB01G01KT 220V290 27/25 Q1008=
08-May-2023 SAID31 WAOC 080600 METAR WAOC 080600Z AUTO VRB02G02KT 180V280 27/25 Q1007=
08-May-2023 SAID31 WAOC 080630 METAR WAOC 080630Z AUTO VRB02G02KT 200V270 28/26 Q1007=
08-May-2023 SAID31 WAOC 080700 METAR WAOC 080700Z AUTO VRB01G01KT 200V270 28/26 Q1007=
08-May-2023 SAID31 WAOC 080730 METAR WAOC 080730Z AUTO VRB02G02KT 200V270 28/26 Q1007=
08-May-2023 SAID31 WAOC 080800 METAR WAOC 080800Z AUTO VRB02G02KT 190V260 28/26 Q1007=
08-May-2023 SAID31 WAOC 080830 METAR WAOC 080830Z AUTO VRB01G01KT 200V330 28/26 Q1007=
08-May-2023 SAID31 WAOC 080900 METAR WAOC 080900Z AUTO VRB01G01KT 190V290 28/26 Q1007=
08-May-2023 SAID31 WAOC 080930 METAR WAOC 080930Z AUTO VRB01G01KT 28/26 Q1007=
08-May-2023 SAID31 WAOC 081000 METAR WAOC 081000Z AUTO VRB01G01KT 200V280 27/26 Q1007=
08-May-2023 SAID31 WAOC 081030 METAR WAOC 081030Z AUTO VRB01G01KT 27/26 Q1008=
08-May-2023 SAID31 WAOC 081100 METAR WAOC 081100Z AUTO VRB01G01KT 150V250 27/26 Q1008=
08-May-2023 SAID31 WAOC 081130 METAR WAOC 081130Z AUTO VRB01G01KT 27/26 Q1008=
08-May-2023 SAID31 WAOC 081200 METAR WAOC 081200Z AUTO VRB01G01KT 26/26 Q1009=
08-May-2023 SAID31 WAOC 081230 METAR WAOC 081230Z AUTO VRB02G02KT 26/26 Q1009=
08-May-2023 SAID31 WAOC 081300 METAR WAOC 081300Z AUTO VRB01G01KT 26/26 Q1009=
08-May-2023 SAID31 WAOC 081330 METAR WAOC 081330Z AUTO VRB01G01KT 210V310 26/25 Q1010=
08-May-2023 SAID31 WAOC 081400 METAR WAOC 081400Z AUTO VRB01G01KT 26/25 Q1010=
08-May-2023 SAID31 WAOC 081430 METAR WAOC 081430Z AUTO VRB01G02KT 26/25 Q1010=
08-May-2023 SAID31 WAOC 081500 METAR WAOC 081500Z AUTO VRB01G01KT 200V290 25/25 Q1010=
08-May-2023 SAID31 WAOC 081530 METAR WAOC 081530Z AUTO VRB01G01KT 230V300 25/25 Q1010=
08-May-2023 SAID31 WAOC 081600 METAR WAOC 081600Z AUTO VRB02G01KT 25/25 Q1009=
08-May-2023 SAID31 WAOC 081630 METAR WAOC 081630Z AUTO 00000G00KT 210V300 25/25 Q1009=
08-May-2023 SAID31 WAOC 081700 METAR WAOC 081700Z AUTO VRB01G01KT 250V320 25/25 Q1008=
08-May-2023 SAID31 WAOC 081730 METAR WAOC 081730Z AUTO VRB02G02KT 25/25 Q1008=
08-May-2023 SAID31 WAOC 081800 METAR WAOC 081800Z AUTO VRB03G03KT 25/25 Q1008=
08-May-2023 SAID31 WAOC 081830 METAR WAOC 081830Z AUTO VRB02G02KT 25/25 Q1008=
08-May-2023 SAID31 WAOC 081900 METAR WAOC 081900Z AUTO VRB01G01KT 25/25 Q1008=
08-May-2023 SAID31 WAOC 081930 METAR WAOC 081930Z AUTO VRB02G02KT 25/25 Q1008=
08-May-2023 SAID31 WAOC 082000 METAR WAOC 082000Z AUTO VRB02G02KT 25/25 Q1008=
08-May-2023 SAID31 WAOC 082030 METAR WAOC 082030Z AUTO VRB02G02KT 25/25 Q1008=
08-May-2023 SAID31 WAOC 082100 METAR WAOC 082100Z AUTO VRB02G02KT 25/25 Q1008=
08-May-2023 SAID31 WAOC 082130 METAR WAOC 082130Z AUTO VRB03G02KT 25/25 Q1008=
08-May-2023 SAID31 WAOC 082200 METAR WAOC 082200Z AUTO VRB02G02KT 25/25 Q1008=
08-May-2023 SAID31 WAOC 082230 METAR WAOC 082230Z AUTO VRB03G03KT 25/25 Q1009=
08-May-2023 SAID31 WAOC 082300 METAR WAOC 082300Z AUTO VRB02G02KT 25/25 Q1009=
08-May-2023 SAID31 WAOC 082330 METAR WAOC 082330Z AUTO VRB03G03KT 25/25 Q1009=
09-May-2023 SAID31 WAOC 090000 METAR WAOC 090000Z AUTO VRB02G02KT 26/26 Q1010=
09-May-2023 SAID31 WAOC 090030 METAR WAOC 090030Z AUTO VRB02G02KT 240V320 27/26 Q1010=
09-May-2023 SAID31 WAOC 090100 METAR WAOC 090100Z AUTO VRB01G01KT 27/25 Q1010=
09-May-2023 SAID31 WAOC 090130 METAR WAOC 090130Z AUTO VRB01G01KT 170V320 27/25 Q1010=
09-May-2023 SAID31 WAOC 090200 METAR WAOC 090200Z AUTO VRB02G02KT 28/25 Q1010=
09-May-2023 SAID31 WAOC 090230 METAR WAOC 090230Z AUTO VRB02G02KT 100V250 28/25 Q1009=
09-May-2023 SAID31 WAOC 090300 METAR WAOC 090300Z AUTO VRB01G01KT 170V250 28/25 Q1009=
09-May-2023 SAID31 WAOC 090330 METAR WAOC 090330Z AUTO VRB01G01KT 130V220 29/24 Q1009=
09-May-2023 SAID31 WAOC 090400 METAR WAOC 090400Z AUTO VRB01G01KT 28/24 Q1009=
09-May-2023 SAID31 WAOC 090430 METAR WAOC 090430Z AUTO VRB01G01KT 29/25 Q1008=
09-May-2023 SAID31 WAOC 090500 METAR WAOC 090500Z AUTO VRB01G01KT 080V210 29/25 Q1008=
09-May-2023 SAID31 WAOC 090530 METAR WAOC 090530Z AUTO VRB01G01KT 060V150 29/25 Q1007=
09-May-2023 SAID31 WAOC 090600 METAR WAOC 090600Z AUTO VRB01G01KT 050V120 29/25 Q1007=
09-May-2023 SAID31 WAOC 090630 METAR WAOC 090630Z AUTO VRB03G03KT 060V140 30/24 Q1007=
09-May-2023 SAID31 WAOC 090700 METAR WAOC 090700Z AUTO VRB02G02KT 29/24 Q1006=
09-May-2023 SAID31 WAOC 090730 METAR WAOC 090730Z AUTO VRB03G03KT 29/25 Q1006=
09-May-2023 SAID31 WAOC 090800 METAR WAOC 090800Z AUTO VRB02G02KT 060V130 30/25 Q1006=
09-May-2023 SAID31 WAOC 090830 METAR WAOC 090830Z AUTO VRB02G02KT 070V150 30/25 Q1006=
09-May-2023 SAID31 WAOC 090900 METAR WAOC 090900Z AUTO VRB03G03KT 120V220 28/25 Q1007=
09-May-2023 SAID31 WAOC 090930 METAR WAOC 090930Z AUTO VRB02G02KT 120V230 28/25 Q1007=
09-May-2023 SAID31 WAOC 091000 METAR WAOC 091000Z AUTO 25006G06KT 240V320 27/25 Q1008=
09-May-2023 SAID31 WAOC 091030 METAR WAOC 091030Z AUTO VRB03G03KT 24/24 Q1009=
09-May-2023 SAID31 WAOC 091100 METAR WAOC 091100Z AUTO 32005G05KT 320V000 24/23 Q1009=
09-May-2023 SAID31 WAOC 091130 METAR WAOC 091130Z AUTO VRB03G03KT 24/23 Q1009=
09-May-2023 SAID31 WAOC 091200 METAR WAOC 091200Z AUTO VRB03G03KT 320V010 24/23 Q1010=
09-May-2023 SAID31 WAOC 091230 METAR WAOC 091230Z AUTO VRB02G02KT 24/24 Q1010=
09-May-2023 SAID31 WAOC 091300 METAR WAOC 091300Z AUTO VRB01G01KT 24/24 Q1010=
09-May-2023 SAID31 WAOC 091330 METAR WAOC 091330Z AUTO VRB02G02KT 24/24 Q1011=
09-May-2023 SAID31 WAOC 091400 METAR WAOC 091400Z AUTO VRB02G02KT 24/24 Q1011=
09-May-2023 SAID31 WAOC 091430 METAR WAOC 091430Z AUTO VRB01G01KT 24/24 Q1010=
09-May-2023 SAID31 WAOC 091500 METAR WAOC 091500Z AUTO VRB02G02KT 24/24 Q1010=
09-May-2023 SAID31 WAOC 091530 METAR WAOC 091530Z AUTO VRB01G01KT 290V160 25/24 Q1010=
09-May-2023 SAID31 WAOC 091600 METAR WAOC 091600Z AUTO VRB01G01KT 24/24 Q1010=
09-May-2023 SAID31 WAOC 091630 METAR WAOC 091630Z AUTO VRB01G01KT 24/24 Q1010=
09-May-2023 SAID31 WAOC 091700 METAR WAOC 091700Z AUTO 00000G00KT 290V080 25/24 Q1010=
09-May-2023 SAID31 WAOC 091730 METAR WAOC 091730Z AUTO VRB01G01KT 310V040 25/25 Q1009=
09-May-2023 SAID31 WAOC 091800 METAR WAOC 091800Z AUTO VRB01G01KT 25/24 Q1009=
09-May-2023 SAID31 WAOC 091830 METAR WAOC 091830Z AUTO VRB01G01KT 25/25 Q1009=
09-May-2023 SAID31 WAOC 091900 METAR WAOC 091900Z AUTO VRB01G01KT 24/24 Q1009=
09-May-2023 SAID31 WAOC 091930 METAR WAOC 091930Z AUTO VRB01G01KT 350V030 25/24 Q1009=
09-May-2023 SAID31 WAOC 092000 METAR WAOC 092000Z AUTO 00000G00KT 050V180 25/25 Q1009=
09-May-2023 SAID31 WAOC 092030 METAR WAOC 092030Z AUTO VRB02G02KT 24/24 Q1009=
09-May-2023 SAID31 WAOC 092100 METAR WAOC 092100Z AUTO VRB02G02KT 290V050 24/24 Q1009=
09-May-2023 SAID31 WAOC 092130 METAR WAOC 092130Z AUTO VRB02G02KT 24/24 Q1010=
09-May-2023 SAID31 WAOC 092200 METAR WAOC 092200Z AUTO VRB01G01KT 280V090 24/24 Q1010=
09-May-2023 SAID31 WAOC 092230 METAR WAOC 092230Z AUTO VRB01G01KT 25/24 Q1010=
09-May-2023 SAID31 WAOC 092300 METAR WAOC 092300Z AUTO VRB01G01KT 040V120 25/24 Q1010=
09-May-2023 SAID31 WAOC 092330 METAR WAOC 092330Z AUTO VRB01G01KT 26/24 Q1011=
10-May-2023 SAID31 WAOC 100000 METAR WAOC 100000Z AUTO VRB02G02KT 26/24 Q1011=
10-May-2023 SAID31 WAOC 100030 METAR WAOC 100030Z AUTO VRB01G01KT 27/24 Q1011=
10-May-2023 SAID31 WAOC 100100 METAR WAOC 100100Z AUTO VRB02G02KT 28/24 Q1011=
10-May-2023 SAID31 WAOC 100130 METAR WAOC 100130Z AUTO VRB01G01KT 010V100 29/25 Q1011=
10-May-2023 SAID31 WAOC 100200 METAR WAOC 100200Z AUTO VRB01G01KT 330V090 29/24 Q1011=
10-May-2023 SAID31 WAOC 100230 METAR WAOC 100230Z AUTO VRB02G02KT 350V080 30/24 Q1011=
10-May-2023 SAID31 WAOC 100300 METAR WAOC 100300Z AUTO VRB02G02KT 000V100 31/25 Q1011=
10-May-2023 SAID31 WAOC 100330 METAR WAOC 100330Z AUTO 09004G04KT 30/24 Q1010=
10-May-2023 SAID31 WAOC 100430 METAR WAOC 100430Z AUTO VRB03G03KT 050V140 31/24 Q1010=
10-May-2023 SAID31 WAOC 100500 METAR WAOC 100500Z AUTO 08005G05KT 080V150 30/25 Q1009=
10-May-2023 SAID31 WAOC 100530 METAR WAOC 100530Z AUTO VRB03G03KT 29/25 Q1009=
10-May-2023 SAID31 WAOC 100600 METAR WAOC 100600Z AUTO VRB03G02KT 080V150 29/25 Q1009=
10-May-2023 SAID31 WAOC 100630 METAR WAOC 100630Z AUTO VRB03G03KT 060V140 28/24 Q1008=
10-May-2023 SAID31 WAOC 100700 METAR WAOC 100700Z AUTO 12004G04KT 27/25 Q1007=
10-May-2023 SAID31 WAOC 100730 METAR WAOC 100730Z AUTO 09004G03KT 26/25 Q1007=
10-May-2023 SAID31 WAOC 100800 METAR WAOC 100800Z AUTO 08004G04KT 26/25 Q1007=
10-May-2023 SAID31 WAOC 100830 METAR WAOC 100830Z AUTO VRB02G02KT 27/25 Q1007=
10-May-2023 SAID31 WAOC 100900 METAR WAOC 100900Z AUTO VRB01G01KT 330V050 27/25 Q1008=
10-May-2023 SAID31 WAOC 100930 METAR WAOC 100930Z AUTO VRB03G03KT 350V110 27/25 Q1008=
10-May-2023 SAID31 WAOC 101000 METAR WAOC 101000Z AUTO VRB02G02KT 27/25 Q1008=
10-May-2023 SAID31 WAOC 101030 METAR WAOC 101030Z AUTO VRB02G02KT 27/25 Q1008=
10-May-2023 SAID31 WAOC 101100 METAR WAOC 101100Z AUTO VRB02G02KT 090V160 27/25 Q1009=
10-May-2023 SAID31 WAOC 101130 METAR WAOC 101130Z AUTO VRB01G01KT 27/25 Q1009=
10-May-2023 SAID31 WAOC 101200 METAR WAOC 101200Z AUTO VRB02G02KT 340V050 27/25 Q1010=
10-May-2023 SAID31 WAOC 101230 METAR WAOC 101230Z AUTO VRB01G01KT 340V040 26/25 Q1010=
10-May-2023 SAID31 WAOC 101300 METAR WAOC 101300Z AUTO VRB01G01KT 340V070 27/25 Q1010=
10-May-2023 SAID31 WAOC 101330 METAR WAOC 101330Z AUTO VRB01G01KT 350V060 26/25 Q1011=
10-May-2023 SAID31 WAOC 101400 METAR WAOC 101400Z AUTO VRB01G01KT 320V060 26/25 Q1011=
10-May-2023 SAID31 WAOC 101430 METAR WAOC 101430Z AUTO 00000G00KT 26/25 Q1011=
10-May-2023 SAID31 WAOC 101500 METAR WAOC 101500Z AUTO VRB01G01KT 26/25 Q1011=
10-May-2023 SAID31 WAOC 101530 METAR WAOC 101530Z AUTO VRB01G01KT 26/25 Q1011=
10-May-2023 SAID31 WAOC 101600 METAR WAOC 101600Z AUTO VRB01G01KT 25/24 Q1011=
10-May-2023 SAID31 WAOC 101630 METAR WAOC 101630Z AUTO VRB01G01KT 25/25 Q1011=
10-May-2023 SAID31 WAOC 101700 METAR WAOC 101700Z AUTO VRB01G01KT 25/25 Q1010=
10-May-2023 SAID31 WAOC 101730 METAR WAOC 101730Z AUTO VRB01G01KT 250V330 25/25 Q1010=
10-May-2023 SAID31 WAOC 101800 METAR WAOC 101800Z AUTO VRB01G01KT 25/25 Q1010=
10-May-2023 SAID31 WAOC 101830 METAR WAOC 101830Z AUTO 00000G00KT 25/25 Q1010=
10-May-2023 SAID31 WAOC 101900 METAR WAOC 101900Z AUTO 00000G00KT 25/25 Q1010=
10-May-2023 SAID31 WAOC 101930 METAR WAOC 101930Z AUTO VRB01G01KT 25/25 Q1010=
10-May-2023 SAID31 WAOC 102000 METAR WAOC 102000Z AUTO VRB01G01KT 25/25 Q1010=
10-May-2023 SAID31 WAOC 102030 METAR WAOC 102030Z AUTO VRB01G01KT 25/25 Q1010=
10-May-2023 SAID31 WAOC 102100 METAR WAOC 102100Z AUTO VRB01G01KT 25/25 Q1010=
10-May-2023 SAID31 WAOC 102130 METAR WAOC 102130Z AUTO VRB01G01KT 210V280 25/24 Q1010=
10-May-2023 SAID31 WAOC 102200 METAR WAOC 102200Z AUTO VRB01G01KT 25/24 Q1011=
10-May-2023 SAID31 WAOC 102230 METAR WAOC 102230Z AUTO VRB01G01KT 24/24 Q1011=
10-May-2023 SAID31 WAOC 102300 METAR WAOC 102300Z AUTO VRB01G01KT 25/25 Q1012=
10-May-2023 SAID31 WAOC 102330 METAR WAOC 102330Z AUTO 00000G00KT 240V350 27/25 Q1012=
11-May-2023 SAID31 WAOC 110000 METAR WAOC 110000Z AUTO 00000G00KT 180V330 28/25 Q1012=
11-May-2023 SAID31 WAOC 110030 METAR WAOC 110030Z AUTO VRB01G01KT 300V060 29/25 Q1012=
11-May-2023 SAID31 WAOC 110100 METAR WAOC 110100Z AUTO VRB01G01KT 280V090 30/25 Q1012=
11-May-2023 SAID31 WAOC 110130 METAR WAOC 110130Z AUTO VRB02G02KT 040V110 30/25 Q1012=
11-May-2023 SAID31 WAOC 110200 METAR WAOC 110200Z AUTO VRB01G01KT 340V050 31/25 Q1012=
11-May-2023 SAID31 WAOC 110230 METAR WAOC 110230Z AUTO VRB01G01KT 280V050 31/25 Q1012=
11-May-2023 SAID31 WAOC 110300 METAR WAOC 110300Z AUTO VRB02G02KT 330V080 31/25 Q1011=
11-May-2023 SAID31 WAOC 110330 METAR WAOC 110330Z AUTO VRB01G01KT 020V150 31/24 Q1011=
11-May-2023 SAID31 WAOC 110400 METAR WAOC 110400Z AUTO VRB02G02KT 090V180 31/25 Q1010=
11-May-2023 SAID31 WAOC 110430 METAR WAOC 110430Z AUTO VRB01G01KT 110V250 31/24 Q1010=
11-May-2023 SAID31 WAOC 110500 METAR WAOC 110500Z AUTO VRB02G02KT 060V150 32/24 Q1010=
11-May-2023 SAID31 WAOC 110530 METAR WAOC 110530Z AUTO 07004G04KT 33/24 Q1009=
11-May-2023 SAID31 WAOC 110600 METAR WAOC 110600Z AUTO 10004G04KT 090V170 32/25 Q1009=
11-May-2023 SAID31 WAOC 110630 METAR WAOC 110630Z AUTO VRB03G03KT 31/24 Q1009=
11-May-2023 SAID31 WAOC 110700 METAR WAOC 110700Z AUTO VRB03G03KT 32/25 Q1008=
11-May-2023 SAID31 WAOC 110730 METAR WAOC 110730Z AUTO VRB02G02KT 140V230 31/25 Q1008=
11-May-2023 SAID31 WAOC 110800 METAR WAOC 110800Z AUTO 22004G04KT 31/25 Q1009=
11-May-2023 SAID31 WAOC 110830 METAR WAOC 110830Z AUTO VRB02G02KT 170V240 29/25 Q1009=
11-May-2023 SAID31 WAOC 110900 METAR WAOC 110900Z AUTO VRB02G02KT 170V260 29/25 Q1009=
11-May-2023 SAID31 WAOC 110930 METAR WAOC 110930Z AUTO VRB02G02KT 170V240 29/25 Q1009=
11-May-2023 SAID31 WAOC 111000 METAR WAOC 111000Z AUTO VRB01G01KT 29/26 Q1010=
11-May-2023 SAID31 WAOC 111030 METAR WAOC 111030Z AUTO VRB02G02KT 120V200 29/25 Q1011=
11-May-2023 SAID31 WAOC 111100 METAR WAOC 111100Z AUTO VRB03G03KT 29/25 Q1011=
11-May-2023 SAID31 WAOC 111130 METAR WAOC 111130Z AUTO VRB02G02KT 29/25 Q1011=
11-May-2023 SAID31 WAOC 111200 METAR WAOC 111200Z AUTO VRB01G01KT 110V220 28/25 Q1011=
11-May-2023 SAID31 WAOC 111230 METAR WAOC 111230Z AUTO VRB01G01KT 28/25 Q1012=
11-May-2023 SAID31 WAOC 111300 METAR WAOC 111300Z AUTO VRB01G01KT 27/26 Q1012=
11-May-2023 SAID31 WAOC 111330 METAR WAOC 111330Z AUTO VRB01G01KT 26/26 Q1012=
11-May-2023 SAID31 WAOC 111400 METAR WAOC 111400Z AUTO VRB02G02KT 26/25 Q1012=
11-May-2023 SAID31 WAOC 111430 METAR WAOC 111430Z AUTO VRB02G02KT 26/25 Q1012=
11-May-2023 SAID31 WAOC 111500 METAR WAOC 111500Z AUTO VRB03G03KT 250V320 26/25 Q1012=
11-May-2023 SAID31 WAOC 111530 METAR WAOC 111530Z AUTO VRB02G02KT 26/25 Q1012=
11-May-2023 SAID31 WAOC 111600 METAR WAOC 111600Z AUTO VRB01G01KT 26/25 Q1012=
11-May-2023 SAID31 WAOC 111630 METAR WAOC 111630Z AUTO VRB01G01KT 27/25 Q1011=
11-May-2023 SAID31 WAOC 111700 METAR WAOC 111700Z AUTO VRB03G03KT 26/25 Q1011=
11-May-2023 SAID31 WAOC 111730 METAR WAOC 111730Z AUTO 30004G03KT 26/25 Q1011=
11-May-2023 SAID31 WAOC 111800 METAR WAOC 111800Z AUTO VRB02G02KT 26/25 Q1010=
11-May-2023 SAID31 WAOC 111830 METAR WAOC 111830Z AUTO VRB02G02KT 26/25 Q1010=
11-May-2023 SAID31 WAOC 111900 METAR WAOC 111900Z AUTO VRB02G02KT 26/25 Q1010=
11-May-2023 SAID31 WAOC 111930 METAR WAOC 111930Z AUTO VRB02G02KT 25/25 Q1010=
11-May-2023 SAID31 WAOC 112000 METAR WAOC 112000Z AUTO VRB03G03KT 25/25 Q1010=
11-May-2023 SAID31 WAOC 112030 METAR WAOC 112030Z AUTO VRB02G02KT 26/25 Q1010=
11-May-2023 SAID31 WAOC 112100 METAR WAOC 112100Z AUTO VRB01G01KT 25/25 Q1011=
11-May-2023 SAID31 WAOC 112130 METAR WAOC 112130Z AUTO VRB01G01KT 25/25 Q1011=
11-May-2023 SAID31 WAOC 112200 METAR WAOC 112200Z AUTO VRB01G01KT 26/25 Q1011=
11-May-2023 SAID31 WAOC 112230 METAR WAOC 112230Z AUTO VRB02G02KT 26/25 Q1012=
11-May-2023 SAID31 WAOC 112300 METAR WAOC 112300Z AUTO VRB01G01KT 220V310 27/25 Q1012=
11-May-2023 SAID31 WAOC 112330 METAR WAOC 112330Z AUTO VRB01G01KT 28/26 Q1012=
12-May-2023 SAID31 WAOC 120000 METAR WAOC 120000Z AUTO VRB01G01KT 240V330 29/27 Q1012=
12-May-2023 SAID31 WAOC 120030 METAR WAOC 120030Z AUTO VRB02G02KT 030V110 30/26 Q1012=
12-May-2023 SAID31 WAOC 120100 METAR WAOC 120100Z AUTO VRB03G03KT 31/27 Q1012=
12-May-2023 SAID31 WAOC 120130 METAR WAOC 120130Z AUTO VRB03G03KT 30/27 Q1012=
12-May-2023 SAID31 WAOC 120200 METAR WAOC 120200Z AUTO 08004G04KT 32/26 Q1012=
12-May-2023 SAID31 WAOC 120230 METAR WAOC 120230Z AUTO VRB03G03KT 050V140 32/26 Q1012=
12-May-2023 SAID31 WAOC 120300 METAR WAOC 120300Z AUTO VRB01G01KT 33/26 Q1011=
12-May-2023 SAID31 WAOC 120330 METAR WAOC 120330Z AUTO 06007G07KT 26/25 Q1011=
12-May-2023 SAID31 WAOC 120400 METAR WAOC 120400Z AUTO VRB03G03KT 26/25 Q1011=
12-May-2023 SAID31 WAOC 120430 METAR WAOC 120430Z AUTO VRB03G03KT 060V140 29/26 Q1010=
12-May-2023 SAID31 WAOC 120500 METAR WAOC 120500Z AUTO 11006G06KT 30/25 Q1010=
12-May-2023 SAID31 WAOC 120530 METAR WAOC 120530Z AUTO VRB02G02KT 140V250 30/25 Q1010=
12-May-2023 SAID31 WAOC 120600 METAR WAOC 120600Z AUTO VRB02G02KT 090V200 30/26 Q1009=
12-May-2023 SAID31 WAOC 120630 METAR WAOC 120630Z AUTO VRB02G02KT 090V170 31/25 Q1009=
12-May-2023 SAID31 WAOC 120700 METAR WAOC 120700Z AUTO VRB03G03KT 31/25 Q1008=
12-May-2023 SAID31 WAOC 120730 METAR WAOC 120730Z AUTO VRB02G02KT 32/26 Q1008=
12-May-2023 SAID31 WAOC 120800 METAR WAOC 120800Z AUTO VRB03G02KT 31/26 Q1008=
12-May-2023 SAID31 WAOC 120830 METAR WAOC 120830Z AUTO 13004G04KT 30/26 Q1008=
12-May-2023 SAID31 WAOC 120900 METAR WAOC 120900Z AUTO VRB03G03KT 30/26 Q1009=
12-May-2023 SAID31 WAOC 120930 METAR WAOC 120930Z AUTO VRB03G03KT 29/26 Q1009=
12-May-2023 SAID31 WAOC 121000 METAR WAOC 121000Z AUTO VRB03G03KT 090V180 29/26 Q1009=
12-May-2023 SAID31 WAOC 121030 METAR WAOC 121030Z AUTO VRB03G03KT 29/25 Q1009=
12-May-2023 SAID31 WAOC 121100 METAR WAOC 121100Z AUTO VRB02G02KT 100V180 28/26 Q1010=
12-May-2023 SAID31 WAOC 121130 METAR WAOC 121130Z AUTO VRB01G01KT 130V200 29/26 Q1010=
12-May-2023 SAID31 WAOC 121200 METAR WAOC 121200Z AUTO VRB01G01KT 150V220 28/26 Q1010=
12-May-2023 SAID31 WAOC 121230 METAR WAOC 121230Z AUTO VRB02G02KT 27/26 Q1011=
12-May-2023 SAID31 WAOC 121300 METAR WAOC 121300Z AUTO VRB01G01KT 27/26 Q1011=
12-May-2023 SAID31 WAOC 121330 METAR WAOC 121330Z AUTO VRB01G01KT 27/26 Q1011=
12-May-2023 SAID31 WAOC 121400 METAR WAOC 121400Z AUTO VRB03G03KT 26/26 Q1011=
12-May-2023 SAID31 WAOC 121430 METAR WAOC 121430Z AUTO VRB02G02KT 26/25 Q1011=
12-May-2023 SAID31 WAOC 121500 METAR WAOC 121500Z AUTO VRB02G02KT 190V290 26/25 Q1011=
12-May-2023 SAID31 WAOC 121530 METAR WAOC 121530Z AUTO VRB01G01KT 26/25 Q1011=
12-May-2023 SAID31 WAOC 121600 METAR WAOC 121600Z AUTO VRB01G01KT 26/25 Q1011=
12-May-2023 SAID31 WAOC 121630 METAR WAOC 121630Z AUTO VRB01G01KT 160V280 26/25 Q1010=
12-May-2023 SAID31 WAOC 121700 METAR WAOC 121700Z AUTO VRB02G01KT 190V270 26/25 Q1010=
12-May-2023 SAID31 WAOC 121730 METAR WAOC 121730Z AUTO VRB01G01KT 170V250 27/25 Q1010=
12-May-2023 SAID31 WAOC 121800 METAR WAOC 121800Z AUTO VRB02G02KT 26/25 Q1010=
12-May-2023 SAID31 WAOC 121830 METAR WAOC 121830Z AUTO VRB01G01KT 26/25 Q1009=
12-May-2023 SAID31 WAOC 121900 METAR WAOC 121900Z AUTO VRB02G02KT 25/25 Q1009=
12-May-2023 SAID31 WAOC 121930 METAR WAOC 121930Z AUTO VRB02G02KT 25/25 Q1009=
12-May-2023 SAID31 WAOC 122000 METAR WAOC 122000Z AUTO VRB01G01KT 25/25 Q1009=
12-May-2023 SAID31 WAOC 122030 METAR WAOC 122030Z AUTO VRB01G01KT 210V290 25/25 Q1010=
12-May-2023 SAID31 WAOC 122100 METAR WAOC 122100Z AUTO VRB01G01KT 25/25 Q1010=
12-May-2023 SAID31 WAOC 122130 METAR WAOC 122130Z AUTO VRB01G01KT 25/25 Q1010=
12-May-2023 SAID31 WAOC 122200 METAR WAOC 122200Z AUTO VRB02G02KT 25/25 Q1010=
12-May-2023 SAID31 WAOC 122230 METAR WAOC 122230Z AUTO VRB02G02KT 25/24 Q1011=
12-May-2023 SAID31 WAOC 122300 METAR WAOC 122300Z AUTO VRB02G02KT 26/25 Q1011=
12-May-2023 SAID31 WAOC 122330 METAR WAOC 122330Z AUTO VRB01G01KT 220V300 27/26 Q1011=
13-May-2023 SAID31 WAOC 130000 METAR WAOC 130000Z AUTO VRB02G02KT 28/26 Q1012=
13-May-2023 SAID31 WAOC 130030 METAR WAOC 130030Z AUTO VRB03G03KT 200V280 29/25 Q1012=
13-May-2023 SAID31 WAOC 130100 METAR WAOC 130100Z AUTO VRB02G02KT 130V210 29/25 Q1012=
13-May-2023 SAID31 WAOC 130130 METAR WAOC 130130Z AUTO VRB03G03KT 100V200 29/25 Q1012=
13-May-2023 SAID31 WAOC 130200 METAR WAOC 130200Z AUTO VRB02G02KT 110V210 31/25 Q1012=
13-May-2023 SAID31 WAOC 130230 METAR WAOC 130230Z AUTO VRB03G03KT 110V210 30/25 Q1012=
13-May-2023 SAID31 WAOC 130300 METAR WAOC 130300Z AUTO VRB03G03KT 100V200 31/24 Q1011=
13-May-2023 SAID31 WAOC 130330 METAR WAOC 130330Z AUTO VRB02G02KT 120V220 31/24 Q1011=
13-May-2023 SAID31 WAOC 130400 METAR WAOC 130400Z AUTO VRB03G03KT 110V220 32/24 Q1010=
13-May-2023 SAID31 WAOC 130430 METAR WAOC 130430Z AUTO VRB02G02KT 120V240 32/24 Q1010=
13-May-2023 SAID31 WAOC 130500 METAR WAOC 130500Z AUTO 17005G05KT 110V210 31/24 Q1010=
13-May-2023 SAID31 WAOC 130530 METAR WAOC 130530Z AUTO VRB03G03KT 060V240 31/25 Q1009=
13-May-2023 SAID31 WAOC 130600 METAR WAOC 130600Z AUTO 14005G05KT 110V210 32/24 Q1009=
13-May-2023 SAID31 WAOC 130630 METAR WAOC 130630Z AUTO 15006G05KT 120V190 31/24 Q1008=
13-May-2023 SAID31 WAOC 130700 METAR WAOC 130700Z AUTO 14004G04KT 31/24 Q1008=
13-May-2023 SAID31 WAOC 130730 METAR WAOC 130730Z AUTO 13004G04KT 30/24 Q1008=
13-May-2023 SAID31 WAOC 130800 METAR WAOC 130800Z AUTO VRB03G03KT 100V190 30/24 Q1008=
13-May-2023 SAID31 WAOC 130830 METAR WAOC 130830Z AUTO VRB03G03KT 130V200 30/24 Q1008=
13-May-2023 SAID31 WAOC 130900 METAR WAOC 130900Z AUTO 13004G04KT 110V180 30/24 Q1009=
13-May-2023 SAID31 WAOC 130930 METAR WAOC 130930Z AUTO VRB02G03KT 110V190 29/24 Q1009=
13-May-2023 SAID31 WAOC 131000 METAR WAOC 131000Z AUTO 16004G04KT 090V190 28/23 Q1009=
13-May-2023 SAID31 WAOC 131030 METAR WAOC 131030Z AUTO VRB02G02KT 090V180 28/23 Q1010=
13-May-2023 SAID31 WAOC 131100 METAR WAOC 131100Z AUTO VRB02G02KT 28/24 Q1010=
13-May-2023 SAID31 WAOC 131130 METAR WAOC 131130Z AUTO VRB03G03KT 110V200 28/24 Q1011=
13-May-2023 SAID31 WAOC 131200 METAR WAOC 131200Z AUTO VRB02G02KT 110V190 28/24 Q1011=
13-May-2023 SAID31 WAOC 131230 METAR WAOC 131230Z AUTO VRB01G01KT 120V220 27/24 Q1012=
13-May-2023 SAID31 WAOC 131300 METAR WAOC 131300Z AUTO VRB01G01KT 140V220 27/24 Q1012=
13-May-2023 SAID31 WAOC 131330 METAR WAOC 131330Z AUTO 00000G00KT 170V250 27/24 Q1012=
13-May-2023 SAID31 WAOC 131400 METAR WAOC 131400Z AUTO 00000G00KT 120V300 27/24 Q1013=
13-May-2023 SAID31 WAOC 131430 METAR WAOC 131430Z AUTO VRB01G01KT 180V310 26/24 Q1013=
13-May-2023 SAID31 WAOC 131500 METAR WAOC 131500Z AUTO VRB01G01KT 26/24 Q1013=
13-May-2023 SAID31 WAOC 131530 METAR WAOC 131530Z AUTO VRB01G01KT 25/24 Q1013=
13-May-2023 SAID31 WAOC 131600 METAR WAOC 131600Z AUTO VRB02G02KT 25/24 Q1013=
13-May-2023 SAID31 WAOC 131630 METAR WAOC 131630Z AUTO VRB02G02KT 25/23 Q1012=
13-May-2023 SAID31 WAOC 131700 METAR WAOC 131700Z AUTO VRB01G01KT 25/23 Q1012=
13-May-2023 SAID31 WAOC 131730 METAR WAOC 131730Z AUTO VRB01G01KT 24/23 Q1012=
13-May-2023 SAID31 WAOC 131800 METAR WAOC 131800Z AUTO VRB02G02KT 24/23 Q1011=
13-May-2023 SAID31 WAOC 131830 METAR WAOC 131830Z AUTO 00000G00KT 200V270 24/23 Q1011=
13-May-2023 SAID31 WAOC 131900 METAR WAOC 131900Z AUTO VRB01G01KT 23/23 Q1011=
13-May-2023 SAID31 WAOC 131930 METAR WAOC 131930Z AUTO VRB01G01KT 24/23 Q1011=
13-May-2023 SAID31 WAOC 132000 METAR WAOC 132000Z AUTO VRB01G01KT 24/23 Q1010=
13-May-2023 SAID31 WAOC 132030 METAR WAOC 132030Z AUTO VRB02G02KT 24/23 Q1011=
13-May-2023 SAID31 WAOC 132100 METAR WAOC 132100Z AUTO VRB02G02KT 24/23 Q1011=
13-May-2023 SAID31 WAOC 132130 METAR WAOC 132130Z AUTO VRB02G02KT 24/23 Q1011=
13-May-2023 SAID31 WAOC 132200 METAR WAOC 132200Z AUTO VRB02G02KT 24/23 Q1011=
13-May-2023 SAID31 WAOC 132230 METAR WAOC 132230Z AUTO VRB01G02KT 24/23 Q1011=
13-May-2023 SAID31 WAOC 132300 METAR WAOC 132300Z AUTO VRB02G02KT 25/24 Q1012=
13-May-2023 SAID31 WAOC 132330 METAR WAOC 132330Z AUTO VRB02G02KT 26/24 Q1012=
14-May-2023 SAID31 WAOC 140000 METAR WAOC 140000Z AUTO VRB01G01KT 27/24 Q1013=
14-May-2023 SAID31 WAOC 140030 METAR WAOC 140030Z AUTO VRB01G01KT 27/24 Q1013=
14-May-2023 SAID31 WAOC 140100 METAR WAOC 140100Z AUTO VRB01G01KT 140V240 28/24 Q1013=
14-May-2023 SAID31 WAOC 140130 METAR WAOC 140130Z AUTO VRB02G02KT 140V240 30/23 Q1013=
14-May-2023 SAID31 WAOC 140200 METAR WAOC 140200Z AUTO VRB02G02KT 120V220 29/24 Q1013=
14-May-2023 SAID31 WAOC 140230 METAR WAOC 140230Z AUTO VRB03G04KT 140V240 30/23 Q1013=
14-May-2023 SAID31 WAOC 140300 METAR WAOC 140300Z AUTO 20004G04KT 120V220 31/23 Q1013=
14-May-2023 SAID31 WAOC 140330 METAR WAOC 140330Z AUTO 17004G04KT 160V230 30/23 Q1012=
14-May-2023 SAID31 WAOC 140400 METAR WAOC 140400Z AUTO 22005G05KT 160V240 31/23 Q1012=
14-May-2023 SAID31 WAOC 140430 METAR WAOC 140430Z AUTO VRB03G03KT 170V270 31/23 Q1011=
14-May-2023 SAID31 WAOC 140500 METAR WAOC 140500Z AUTO VRB03G03KT 140V230 31/23 Q1011=
14-May-2023 SAID31 WAOC 140530 METAR WAOC 140530Z AUTO 21004G04KT 180V270 31/22 Q1011=
14-May-2023 SAID31 WAOC 140600 METAR WAOC 140600Z AUTO 21004G04KT 120V340 31/23 Q1010=
14-May-2023 SAID31 WAOC 140630 METAR WAOC 140630Z AUTO VRB03G03KT 120V230 31/23 Q1010=
14-May-2023 SAID31 WAOC 140700 METAR WAOC 140700Z AUTO VRB01G01KT 130V220 31/23 Q1009=
14-May-2023 SAID31 WAOC 140730 METAR WAOC 140730Z AUTO VRB02G02KT 140V240 31/22 Q1009=
14-May-2023 SAID31 WAOC 140800 METAR WAOC 140800Z AUTO 20005G06KT 170V260 31/23 Q1009=
14-May-2023 SAID31 WAOC 140830 METAR WAOC 140830Z AUTO VRB03G03KT 130V310 30/22 Q1009=
14-May-2023 SAID31 WAOC 140900 METAR WAOC 140900Z AUTO 20006G04KT 160V250 30/23 Q1009=
14-May-2023 SAID31 WAOC 140930 METAR WAOC 140930Z AUTO VRB02G02KT 140V230 29/23 Q1010=
14-May-2023 SAID31 WAOC 141000 METAR WAOC 141000Z AUTO VRB03G03KT 28/23 Q1010=
14-May-2023 SAID31 WAOC 141030 METAR WAOC 141030Z AUTO VRB01G01KT 160V250 28/23 Q1010=
14-May-2023 SAID31 WAOC 141100 METAR WAOC 141100Z AUTO VRB01G01KT 27/23 Q1010=
14-May-2023 SAID31 WAOC 141130 METAR WAOC 141130Z AUTO VRB02G02KT 140V220 28/23 Q1011=
14-May-2023 SAID31 WAOC 141200 METAR WAOC 141200Z AUTO VRB03G03KT 28/23 Q1011=
14-May-2023 SAID31 WAOC 141230 METAR WAOC 141230Z AUTO VRB03G03KT 110V180 27/23 Q1012=
14-May-2023 SAID31 WAOC 141300 METAR WAOC 141300Z AUTO VRB01G01KT 27/23 Q1012=
14-May-2023 SAID31 WAOC 141330 METAR WAOC 141330Z AUTO VRB02G02KT 27/23 Q1012=
14-May-2023 SAID31 WAOC 141400 METAR WAOC 141400Z AUTO VRB02G02KT 27/23 Q1012=
14-May-2023 SAID31 WAOC 141430 METAR WAOC 141430Z AUTO VRB01G01KT 120V200 27/23 Q1012=
14-May-2023 SAID31 WAOC 141500 METAR WAOC 141500Z AUTO VRB02G02KT 27/24 Q1012=
14-May-2023 SAID31 WAOC 141530 METAR WAOC 141530Z AUTO VRB02G02KT 080V160 27/23 Q1012=
14-May-2023 SAID31 WAOC 141600 METAR WAOC 141600Z AUTO VRB02G02KT 070V140 26/23 Q1012=
14-May-2023 SAID31 WAOC 141630 METAR WAOC 141630Z AUTO VRB02G02KT 110V180 26/23 Q1012=
14-May-2023 SAID31 WAOC 141700 METAR WAOC 141700Z AUTO VRB02G02KT 120V200 27/23 Q1012=
14-May-2023 SAID31 WAOC 141730 METAR WAOC 141730Z AUTO VRB02G02KT 090V180 27/23 Q1011=
14-May-2023 SAID31 WAOC 141800 METAR WAOC 141800Z AUTO VRB02G02KT 140V220 27/23 Q1011=
14-May-2023 SAID31 WAOC 141830 METAR WAOC 141830Z AUTO VRB02G02KT 26/24 Q1011=
14-May-2023 SAID31 WAOC 141900 METAR WAOC 141900Z AUTO VRB02G03KT 25/24 Q1011=
14-May-2023 SAID31 WAOC 141930 METAR WAOC 141930Z AUTO VRB01G01KT 300V010 26/24 Q1011=
14-May-2023 SAID31 WAOC 142000 METAR WAOC 142000Z AUTO VRB01G01KT 26/24 Q1011=
14-May-2023 SAID31 WAOC 142030 METAR WAOC 142030Z AUTO VRB01G01KT 330V020 26/24 Q1011=
14-May-2023 SAID31 WAOC 142100 METAR WAOC 142100Z AUTO 00000G00KT 260V030 26/24 Q1011=
14-May-2023 SAID31 WAOC 142130 METAR WAOC 142130Z AUTO VRB02G02KT 150V270 26/24 Q1011=
14-May-2023 SAID31 WAOC 142200 METAR WAOC 142200Z AUTO VRB02G02KT 25/24 Q1012=
14-May-2023 SAID31 WAOC 142230 METAR WAOC 142230Z AUTO VRB01G01KT 25/24 Q1012=
14-May-2023 SAID31 WAOC 142300 METAR WAOC 142300Z AUTO VRB01G01KT 26/24 Q1012=
14-May-2023 SAID31 WAOC 142330 METAR WAOC 142330Z AUTO VRB02G02KT 120V280 27/24 Q1012=
15-May-2023 SAID31 WAOC 150000 METAR WAOC 150000Z AUTO VRB03G03KT 140V220 29/23 Q1013=
15-May-2023 SAID31 WAOC 150030 METAR WAOC 150030Z AUTO VRB01G01KT 120V220 28/23 Q1013=
15-May-2023 SAID31 WAOC 150100 METAR WAOC 150100Z AUTO VRB02G02KT 100V210 29/23 Q1013=
15-May-2023 SAID31 WAOC 150130 METAR WAOC 150130Z AUTO 13005G05KT 110V190 30/22 Q1013=
15-May-2023 SAID31 WAOC 150200 METAR WAOC 150200Z AUTO 17004G04KT 100V170 30/22 Q1013=
15-May-2023 SAID31 WAOC 150230 METAR WAOC 150230Z AUTO 19004G04KT 120V230 30/23 Q1013=
15-May-2023 SAID31 WAOC 150300 METAR WAOC 150300Z AUTO 14004G04KT 100V190 29/22 Q1013=
15-May-2023 SAID31 WAOC 150330 METAR WAOC 150330Z AUTO VRB03G03KT 120V210 30/23 Q1012=
15-May-2023 SAID31 WAOC 150400 METAR WAOC 150400Z AUTO VRB01G01KT 040V300 31/22 Q1012=
15-May-2023 SAID31 WAOC 150430 METAR WAOC 150430Z AUTO 14005G05KT 100V190 30/22 Q1011=
15-May-2023 SAID31 WAOC 150500 METAR WAOC 150500Z AUTO 13005G05KT 110V200 30/22 Q1011=
15-May-2023 SAID31 WAOC 150530 METAR WAOC 150530Z AUTO VRB02G02KT 160V280 30/22 Q1011=
15-May-2023 SAID31 WAOC 150600 METAR WAOC 150600Z AUTO 21004G04KT 130V230 31/21 Q1010=
15-May-2023 SAID31 WAOC 150630 METAR WAOC 150630Z AUTO 12004G04KT 30/22 Q1010=
15-May-2023 SAID31 WAOC 150700 METAR WAOC 150700Z AUTO VRB03G03KT 120V210 31/23 Q1009=
15-May-2023 SAID31 WAOC 150730 METAR WAOC 150730Z AUTO VRB02G02KT 110V210 30/23 Q1009=
15-May-2023 SAID31 WAOC 150800 METAR WAOC 150800Z AUTO VRB03G03KT 140V210 29/23 Q1010=
15-May-2023 SAID31 WAOC 150830 METAR WAOC 150830Z AUTO VRB03G03KT 29/23 Q1010=
15-May-2023 SAID31 WAOC 150900 METAR WAOC 150900Z AUTO VRB02G02KT 100V180 29/23 Q1010=
15-May-2023 SAID31 WAOC 150930 METAR WAOC 150930Z AUTO 13004G04KT 29/23 Q1010=
15-May-2023 SAID31 WAOC 151000 METAR WAOC 151000Z AUTO VRB03G03KT 090V160 28/23 Q1010=
15-May-2023 SAID31 WAOC 151030 METAR WAOC 151030Z AUTO VRB02G02KT 28/23 Q1010=
15-May-2023 SAID31 WAOC 151100 METAR WAOC 151100Z AUTO VRB02G02KT 100V170 28/23 Q1011=
15-May-2023 SAID31 WAOC 151130 METAR WAOC 151130Z AUTO VRB02G01KT 27/23 Q1011=
15-May-2023 SAID31 WAOC 151200 METAR WAOC 151200Z AUTO VRB02G02KT 27/23 Q1012=
15-May-2023 SAID31 WAOC 151230 METAR WAOC 151230Z AUTO VRB01G01KT 110V180 27/23 Q1012=
15-May-2023 SAID31 WAOC 151300 METAR WAOC 151300Z AUTO VRB01G01KT 27/23 Q1012=
15-May-2023 SAID31 WAOC 151330 METAR WAOC 151330Z AUTO 00000G00KT 27/23 Q1013=
15-May-2023 SAID31 WAOC 151400 METAR WAOC 151400Z AUTO VRB01G01KT 27/23 Q1013=
15-May-2023 SAID31 WAOC 151430 METAR WAOC 151430Z AUTO VRB01G01KT 27/23 Q1013=
15-May-2023 SAID31 WAOC 151500 METAR WAOC 151500Z AUTO VRB01G01KT 120V210 27/23 Q1013=
15-May-2023 SAID31 WAOC 151530 METAR WAOC 151530Z AUTO VRB01G01KT 130V220 27/23 Q1013=
15-May-2023 SAID31 WAOC 151600 METAR WAOC 151600Z AUTO VRB01G01KT 140V210 27/23 Q1013=
15-May-2023 SAID31 WAOC 151630 METAR WAOC 151630Z AUTO VRB01G01KT 120V190 27/23 Q1012=
15-May-2023 SAID31 WAOC 151700 METAR WAOC 151700Z AUTO VRB01G01KT 090V180 27/23 Q1012=
15-May-2023 SAID31 WAOC 151730 METAR WAOC 151730Z AUTO VRB01G01KT 26/23 Q1012=
15-May-2023 SAID31 WAOC 151800 METAR WAOC 151800Z AUTO 00000G00KT 010V090 26/23 Q1012=
15-May-2023 SAID31 WAOC 151830 METAR WAOC 151830Z AUTO VRB01G01KT 26/24 Q1012=
15-May-2023 SAID31 WAOC 151900 METAR WAOC 151900Z AUTO VRB01G01KT 25/24 Q1011=
15-May-2023 SAID31 WAOC 151930 METAR WAOC 151930Z AUTO VRB01G01KT 220V290 25/24 Q1011=
15-May-2023 SAID31 WAOC 152000 METAR WAOC 152000Z AUTO VRB01G01KT 25/24 Q1011=
15-May-2023 SAID31 WAOC 152030 METAR WAOC 152030Z AUTO VRB01G01KT 300V010 25/24 Q1011=
15-May-2023 SAID31 WAOC 152100 METAR WAOC 152100Z AUTO VRB01G01KT 25/24 Q1012=
15-May-2023 SAID31 WAOC 152130 METAR WAOC 152130Z AUTO VRB01G01KT 25/24 Q1012=
15-May-2023 SAID31 WAOC 152200 METAR WAOC 152200Z AUTO VRB02G02KT 25/24 Q1012=
15-May-2023 SAID31 WAOC 152230 METAR WAOC 152230Z AUTO VRB01G01KT 25/24 Q1013=
15-May-2023 SAID31 WAOC 152300 METAR WAOC 152300Z AUTO 00000G00KT 220V310 25/24 Q1013=
15-May-2023 SAID31 WAOC 152330 METAR WAOC 152330Z AUTO VRB02G02KT 26/24 Q1013=
16-May-2023 SAID31 WAOC 160000 METAR WAOC 160000Z AUTO 28004G03KT 27/24 Q1014=
16-May-2023 SAID31 WAOC 160030 METAR WAOC 160030Z AUTO VRB03G03KT 240V310 28/24 Q1014=
16-May-2023 SAID31 WAOC 160100 METAR WAOC 160100Z AUTO VRB02G02KT 240V320 28/24 Q1014=
16-May-2023 SAID31 WAOC 160130 METAR WAOC 160130Z AUTO VRB02G02KT 260V360 28/24 Q1014=
16-May-2023 SAID31 WAOC 160200 METAR WAOC 160200Z AUTO VRB02G02KT 090V230 29/24 Q1014=
16-May-2023 SAID31 WAOC 160230 METAR WAOC 160230Z AUTO VRB01G01KT 110V230 29/24 Q1014=
16-May-2023 SAID31 WAOC 160300 METAR WAOC 160300Z AUTO VRB02G02KT 100V230 30/24 Q1013=
16-May-2023 SAID31 WAOC 160330 METAR WAOC 160330Z AUTO 19005G05KT 120V200 30/24 Q1013=
16-May-2023 SAID31 WAOC 160400 METAR WAOC 160400Z AUTO VRB03G03KT 110V210 31/23 Q1012=
16-May-2023 SAID31 WAOC 160430 METAR WAOC 160430Z AUTO VRB02G02KT 150V220 30/22 Q1012=
16-May-2023 SAID31 WAOC 160500 METAR WAOC 160500Z AUTO 20004G04KT 140V220 31/23 Q1011=
16-May-2023 SAID31 WAOC 160530 METAR WAOC 160530Z AUTO 19005G05KT 150V270 31/23 Q1011=
16-May-2023 SAID31 WAOC 160600 METAR WAOC 160600Z AUTO 14004G04KT 110V190 30/21 Q1010=
16-May-2023 SAID31 WAOC 160630 METAR WAOC 160630Z AUTO VRB02G02KT 120V230 31/22 Q1010=
16-May-2023 SAID31 WAOC 160700 METAR WAOC 160700Z AUTO 18004G04KT 150V270 30/23 Q1010=
16-May-2023 SAID31 WAOC 160730 METAR WAOC 160730Z AUTO VRB03G03KT 150V240 30/23 Q1010=
16-May-2023 SAID31 WAOC 160800 METAR WAOC 160800Z AUTO 19004G04KT 140V230 30/23 Q1010=
16-May-2023 SAID31 WAOC 160830 METAR WAOC 160830Z AUTO VRB02G02KT 140V210 30/23 Q1010=
16-May-2023 SAID31 WAOC 160900 METAR WAOC 160900Z AUTO VRB03G03KT 130V220 29/24 Q1010=
16-May-2023 SAID31 WAOC 160930 METAR WAOC 160930Z AUTO VRB02G02KT 160V230 28/23 Q1010=
16-May-2023 SAID31 WAOC 161000 METAR WAOC 161000Z AUTO VRB02G02KT 170V250 28/23 Q1011=
16-May-2023 SAID31 WAOC 161030 METAR WAOC 161030Z AUTO VRB02G02KT 170V250 28/23 Q1011=
16-May-2023 SAID31 WAOC 161100 METAR WAOC 161100Z AUTO VRB01G01KT 180V260 27/23 Q1011=
16-May-2023 SAID31 WAOC 161130 METAR WAOC 161130Z AUTO VRB01G01KT 210V280 27/24 Q1012=
16-May-2023 SAID31 WAOC 161200 METAR WAOC 161200Z AUTO VRB01G01KT 110V190 28/24 Q1013=
16-May-2023 SAID31 WAOC 161230 METAR WAOC 161230Z AUTO VRB02G02KT 27/23 Q1013=
16-May-2023 SAID31 WAOC 161300 METAR WAOC 161300Z AUTO VRB01G01KT 27/22 Q1013=
16-May-2023 SAID31 WAOC 161330 METAR WAOC 161330Z AUTO VRB01G01KT 27/23 Q1013=
16-May-2023 SAID31 WAOC 161400 METAR WAOC 161400Z AUTO VRB01G01KT 27/22 Q1013=
16-May-2023 SAID31 WAOC 161430 METAR WAOC 161430Z AUTO VRB01G01KT 26/23 Q1013=
16-May-2023 SAID31 WAOC 161500 METAR WAOC 161500Z AUTO VRB01G01KT 26/23 Q1013=
16-May-2023 SAID31 WAOC 161530 METAR WAOC 161530Z AUTO 00000G00KT 000V100 26/23 Q1013=
16-May-2023 SAID31 WAOC 161600 METAR WAOC 161600Z AUTO 00000G00KT 26/24 Q1013=
16-May-2023 SAID31 WAOC 161630 METAR WAOC 161630Z AUTO 00000G00KT 25/24 Q1013=
16-May-2023 SAID31 WAOC 161700 METAR WAOC 161700Z AUTO VRB01G01KT 26/24 Q1013=
16-May-2023 SAID31 WAOC 161730 METAR WAOC 161730Z AUTO VRB01G01KT 26/24 Q1013=
16-May-2023 SAID31 WAOC 161800 METAR WAOC 161800Z AUTO VRB01G01KT 26/24 Q1012=
16-May-2023 SAID31 WAOC 161830 METAR WAOC 161830Z AUTO VRB02G02KT 25/24 Q1012=
16-May-2023 SAID31 WAOC 161900 METAR WAOC 161900Z AUTO VRB01G01KT 25/24 Q1012=
16-May-2023 SAID31 WAOC 161930 METAR WAOC 161930Z AUTO VRB02G02KT 25/24 Q1012=
16-May-2023 SAID31 WAOC 162000 METAR WAOC 162000Z AUTO VRB02G02KT 24/24 Q1012=
16-May-2023 SAID31 WAOC 162030 METAR WAOC 162030Z AUTO VRB03G03KT 24/24 Q1012=
16-May-2023 SAID31 WAOC 162100 METAR WAOC 162100Z AUTO VRB02G02KT 24/24 Q1012=
16-May-2023 SAID31 WAOC 162130 METAR WAOC 162130Z AUTO VRB01G01KT 240V310 25/24 Q1012=
16-May-2023 SAID31 WAOC 162200 METAR WAOC 162200Z AUTO VRB03G03KT 25/24 Q1013=
16-May-2023 SAID31 WAOC 162230 METAR WAOC 162230Z AUTO VRB02G02KT 25/24 Q1013=
16-May-2023 SAID31 WAOC 162300 METAR WAOC 162300Z AUTO VRB02G02KT 25/24 Q1013=
16-May-2023 SAID31 WAOC 162330 METAR WAOC 162330Z AUTO VRB03G03KT 26/24 Q1014=
17-May-2023 SAID31 WAOC 170000 METAR WAOC 170000Z AUTO VRB02G02KT 26/23 Q1014=
17-May-2023 SAID31 WAOC 170030 METAR WAOC 170030Z AUTO VRB02G02KT 230V300 26/24 Q1014=
17-May-2023 SAID31 WAOC 170100 METAR WAOC 170100Z AUTO VRB01G01KT 230V310 27/24 Q1014=
17-May-2023 SAID31 WAOC 170130 METAR WAOC 170130Z AUTO VRB01G01KT 240V320 27/24 Q1015=
17-May-2023 SAID31 WAOC 170200 METAR WAOC 170200Z AUTO VRB01G01KT 090V250 28/24 Q1014=
17-May-2023 SAID31 WAOC 170230 METAR WAOC 170230Z AUTO VRB03G03KT 150V270 29/23 Q1014=
17-May-2023 SAID31 WAOC 170300 METAR WAOC 170300Z AUTO VRB02G02KT 120V230 29/23 Q1014=
17-May-2023 SAID31 WAOC 170330 METAR WAOC 170330Z AUTO VRB02G01KT 080V310 30/22 Q1013=
17-May-2023 SAID31 WAOC 170400 METAR WAOC 170400Z AUTO VRB03G04KT 110V210 30/22 Q1013=
17-May-2023 SAID31 WAOC 170430 METAR WAOC 170430Z AUTO VRB01G01KT 100V210 30/22 Q1012=
17-May-2023 SAID31 WAOC 170500 METAR WAOC 170500Z AUTO VRB03G03KT 130V220 30/22 Q1012=
17-May-2023 SAID31 WAOC 170530 METAR WAOC 170530Z AUTO VRB03G03KT 120V190 30/22 Q1011=
17-May-2023 SAID31 WAOC 170600 METAR WAOC 170600Z AUTO VRB02G02KT 110V220 31/21 Q1010=
17-May-2023 SAID31 WAOC 170630 METAR WAOC 170630Z AUTO VRB03G03KT 080V210 31/22 Q1010=
17-May-2023 SAID31 WAOC 170700 METAR WAOC 170700Z AUTO 16004G04KT 31/24 Q1010=
17-May-2023 SAID31 WAOC 170730 METAR WAOC 170730Z AUTO VRB03G04KT 110V200 30/24 Q1010=
17-May-2023 SAID31 WAOC 170800 METAR WAOC 170800Z AUTO VRB01G01KT 120V210 29/24 Q1010=
17-May-2023 SAID31 WAOC 170830 METAR WAOC 170830Z AUTO 14004G04KT 29/24 Q1010=
17-May-2023 SAID31 WAOC 170900 METAR WAOC 170900Z AUTO VRB02G02KT 28/24 Q1010=
17-May-2023 SAID31 WAOC 170930 METAR WAOC 170930Z AUTO VRB03G03KT 28/24 Q1010=
17-May-2023 SAID31 WAOC 171000 METAR WAOC 171000Z AUTO VRB03G03KT 28/24 Q1011=
17-May-2023 SAID31 WAOC 171030 METAR WAOC 171030Z AUTO VRB03G03KT 28/24 Q1011=
17-May-2023 SAID31 WAOC 171100 METAR WAOC 171100Z AUTO VRB02G02KT 28/24 Q1012=
17-May-2023 SAID31 WAOC 171130 METAR WAOC 171130Z AUTO VRB02G02KT 140V210 28/24 Q1012=
17-May-2023 SAID31 WAOC 171200 METAR WAOC 171200Z AUTO VRB01G01KT 110V220 27/24 Q1012=
17-May-2023 SAID31 WAOC 171230 METAR WAOC 171230Z AUTO VRB01G01KT 210V310 26/24 Q1012=
17-May-2023 SAID31 WAOC 171300 METAR WAOC 171300Z AUTO VRB01G01KT 26/24 Q1013=
17-May-2023 SAID31 WAOC 171330 METAR WAOC 171330Z AUTO VRB02G02KT 26/24 Q1013=
17-May-2023 SAID31 WAOC 171400 METAR WAOC 171400Z AUTO VRB02G02KT 26/24 Q1013=
17-May-2023 SAID31 WAOC 171430 METAR WAOC 171430Z AUTO VRB01G01KT 260V340 26/24 Q1013=
17-May-2023 SAID31 WAOC 171500 METAR WAOC 171500Z AUTO VRB01G01KT 26/24 Q1013=
17-May-2023 SAID31 WAOC 171530 METAR WAOC 171530Z AUTO VRB01G01KT 140V210 26/24 Q1013=
17-May-2023 SAID31 WAOC 171600 METAR WAOC 171600Z AUTO VRB01G01KT 25/24 Q1013=
17-May-2023 SAID31 WAOC 171630 METAR WAOC 171630Z AUTO VRB02G02KT 25/24 Q1013=
17-May-2023 SAID31 WAOC 171700 METAR WAOC 171700Z AUTO VRB02G02KT 25/25 Q1012=
17-May-2023 SAID31 WAOC 171730 METAR WAOC 171730Z AUTO VRB02G02KT 25/24 Q1012=
17-May-2023 SAID31 WAOC 171800 METAR WAOC 171800Z AUTO VRB01G01KT 220V310 25/24 Q1012=
17-May-2023 SAID31 WAOC 171830 METAR WAOC 171830Z AUTO VRB02G02KT 25/24 Q1012=
17-May-2023 SAID31 WAOC 171900 METAR WAOC 171900Z AUTO VRB01G01KT 25/24 Q1012=
17-May-2023 SAID31 WAOC 171930 METAR WAOC 171930Z AUTO VRB01G01KT 220V300 25/24 Q1012=
17-May-2023 SAID31 WAOC 172000 METAR WAOC 172000Z AUTO VRB01G01KT 170V300 25/24 Q1012=
17-May-2023 SAID31 WAOC 172030 METAR WAOC 172030Z AUTO VRB02G02KT 25/24 Q1012=
17-May-2023 SAID31 WAOC 172100 METAR WAOC 172100Z AUTO VRB01G01KT 200V300 25/24 Q1012=
17-May-2023 SAID31 WAOC 172130 METAR WAOC 172130Z AUTO VRB01G01KT 25/24 Q1012=
17-May-2023 SAID31 WAOC 172200 METAR WAOC 172200Z AUTO VRB01G01KT 230V300 25/24 Q1012=
17-May-2023 SAID31 WAOC 172230 METAR WAOC 172230Z AUTO VRB01G01KT 25/24 Q1013=
17-May-2023 SAID31 WAOC 172300 METAR WAOC 172300Z AUTO VRB01G01KT 200V280 26/24 Q1013=
17-May-2023 SAID31 WAOC 172330 METAR WAOC 172330Z AUTO VRB01G01KT 26/25 Q1013=
18-May-2023 SAID31 WAOC 180000 METAR WAOC 180000Z AUTO VRB01G01KT 040V240 28/24 Q1013=
18-May-2023 SAID31 WAOC 180030 METAR WAOC 180030Z AUTO VRB03G03KT 200V300 28/24 Q1014=
18-May-2023 SAID31 WAOC 180100 METAR WAOC 180100Z AUTO VRB02G02KT 110V190 29/24 Q1014=
18-May-2023 SAID31 WAOC 180130 METAR WAOC 180130Z AUTO VRB03G03KT 110V210 29/24 Q1014=
18-May-2023 SAID31 WAOC 180200 METAR WAOC 180200Z AUTO VRB02G02KT 080V220 29/24 Q1013=
18-May-2023 SAID31 WAOC 180230 METAR WAOC 180230Z AUTO VRB02G02KT 30/23 Q1013=
18-May-2023 SAID31 WAOC 180300 METAR WAOC 180300Z AUTO VRB01G01KT 110V220 31/23 Q1013=
18-May-2023 SAID31 WAOC 180330 METAR WAOC 180330Z AUTO VRB02G02KT 120V210 31/23 Q1012=
18-May-2023 SAID31 WAOC 180400 METAR WAOC 180400Z AUTO VRB03G03KT 070V150 32/23 Q1012=
18-May-2023 SAID31 WAOC 180430 METAR WAOC 180430Z AUTO 13004G04KT 110V180 31/23 Q1011=
18-May-2023 SAID31 WAOC 180500 METAR WAOC 180500Z AUTO 17005G05KT 120V220 30/24 Q1011=
18-May-2023 SAID31 WAOC 180530 METAR WAOC 180530Z AUTO VRB02G02KT 29/24 Q1010=
18-May-2023 SAID31 WAOC 180600 METAR WAOC 180600Z AUTO 00000G00KT 100V200 31/24 Q1010=
18-May-2023 SAID31 WAOC 180630 METAR WAOC 180630Z AUTO VRB03G03KT 120V220 30/24 Q1009=
18-May-2023 SAID31 WAOC 180700 METAR WAOC 180700Z AUTO VRB02G02KT 110V230 31/23 Q1008=
18-May-2023 SAID31 WAOC 180730 METAR WAOC 180730Z AUTO VRB01G01KT 140V220 31/24 Q1008=
18-May-2023 SAID31 WAOC 180800 METAR WAOC 180800Z AUTO 15004G04KT 130V220 31/24 Q1008=
18-May-2023 SAID31 WAOC 180830 METAR WAOC 180830Z AUTO VRB03G03KT 110V190 30/23 Q1009=
18-May-2023 SAID31 WAOC 180900 METAR WAOC 180900Z AUTO VRB02G02KT 130V210 29/23 Q1009=
18-May-2023 SAID31 WAOC 180930 METAR WAOC 180930Z AUTO 14004G04KT 29/23 Q1009=
18-May-2023 SAID31 WAOC 181000 METAR WAOC 181000Z AUTO 14004G03KT 100V180 29/23 Q1009=
18-May-2023 SAID31 WAOC 181030 METAR WAOC 181030Z AUTO VRB02G02KT 28/24 Q1010=
18-May-2023 SAID31 WAOC 181100 METAR WAOC 181100Z AUTO VRB02G02KT 120V190 28/24 Q1011=
18-May-2023 SAID31 WAOC 181130 METAR WAOC 181130Z AUTO VRB01G01KT 140V210 28/24 Q1012=
18-May-2023 SAID31 WAOC 181200 METAR WAOC 181200Z AUTO VRB02G02KT 140V260 28/25 Q1012=
18-May-2023 SAID31 WAOC 181230 METAR WAOC 181230Z AUTO VRB01G01KT 140V290 27/25 Q1012=
18-May-2023 SAID31 WAOC 181300 METAR WAOC 181300Z AUTO VRB01G01KT 27/25 Q1013=
18-May-2023 SAID31 WAOC 181330 METAR WAOC 181330Z AUTO VRB01G01KT 26/24 Q1014=
18-May-2023 SAID31 WAOC 181400 METAR WAOC 181400Z AUTO VRB01G01KT 250V350 25/24 Q1014=
18-May-2023 SAID31 WAOC 181430 METAR WAOC 181430Z AUTO VRB02G02KT 25/24 Q1014=
18-May-2023 SAID31 WAOC 181500 METAR WAOC 181500Z AUTO VRB02G02KT 25/24 Q1014=
18-May-2023 SAID31 WAOC 181530 METAR WAOC 181530Z AUTO VRB03G03KT 24/24 Q1014=
18-May-2023 SAID31 WAOC 181600 METAR WAOC 181600Z AUTO VRB02G02KT 25/24 Q1014=
18-May-2023 SAID31 WAOC 181630 METAR WAOC 181630Z AUTO VRB01G01KT 320V010 25/24 Q1013=
18-May-2023 SAID31 WAOC 181700 METAR WAOC 181700Z AUTO VRB01G01KT 050V160 25/23 Q1013=
18-May-2023 SAID31 WAOC 181730 METAR WAOC 181730Z AUTO VRB01G01KT 23/23 Q1013=
18-May-2023 SAID31 WAOC 181800 METAR WAOC 181800Z AUTO VRB01G01KT 350V080 24/23 Q1013=
18-May-2023 SAID31 WAOC 181830 METAR WAOC 181830Z AUTO VRB01G01KT 070V210 24/23 Q1012=
18-May-2023 SAID31 WAOC 181900 METAR WAOC 181900Z AUTO VRB02G02KT 24/24 Q1012=
18-May-2023 SAID31 WAOC 181930 METAR WAOC 181930Z AUTO VRB01G01KT 24/24 Q1011=
18-May-2023 SAID31 WAOC 182000 METAR WAOC 182000Z AUTO 00000G00KT 080V170 24/24 Q1011=
18-May-2023 SAID31 WAOC 182030 METAR WAOC 182030Z AUTO 00000G00KT 200V290 24/24 Q1011=
18-May-2023 SAID31 WAOC 182100 METAR WAOC 182100Z AUTO VRB02G02KT 200V270 24/24 Q1011=
18-May-2023 SAID31 WAOC 182130 METAR WAOC 182130Z AUTO VRB01G01KT 24/24 Q1011=
18-May-2023 SAID31 WAOC 182200 METAR WAOC 182200Z AUTO VRB02G02KT 24/24 Q1011=
18-May-2023 SAID31 WAOC 182230 METAR WAOC 182230Z AUTO VRB01G01KT 230V300 24/24 Q1012=
18-May-2023 SAID31 WAOC 182300 METAR WAOC 182300Z AUTO VRB01G01KT 24/24 Q1012=
18-May-2023 SAID31 WAOC 182330 METAR WAOC 182330Z AUTO VRB03G03KT 24/24 Q1013=
19-May-2023 SAID31 WAOC 190000 METAR WAOC 190000Z AUTO VRB01G01KT 25/24 Q1013=
19-May-2023 SAID31 WAOC 190030 METAR WAOC 190030Z AUTO VRB01G01KT 230V310 25/24 Q1013=
19-May-2023 SAID31 WAOC 190100 METAR WAOC 190100Z AUTO VRB02G02KT 26/24 Q1013=
19-May-2023 SAID31 WAOC 190130 METAR WAOC 190130Z AUTO VRB01G01KT 090V200 26/24 Q1013=
19-May-2023 SAID31 WAOC 190200 METAR WAOC 190200Z AUTO VRB02G02KT 060V150 27/24 Q1013=
19-May-2023 SAID31 WAOC 190230 METAR WAOC 190230Z AUTO VRB02G02KT 27/24 Q1013=
19-May-2023 SAID31 WAOC 190300 METAR WAOC 190300Z AUTO VRB02G02KT 030V170 29/24 Q1013=
19-May-2023 SAID31 WAOC 190330 METAR WAOC 190330Z AUTO 14004G03KT 040V190 29/24 Q1012=
19-May-2023 SAID31 WAOC 190400 METAR WAOC 190400Z AUTO VRB02G02KT 090V240 29/23 Q1012=
19-May-2023 SAID31 WAOC 190430 METAR WAOC 190430Z AUTO VRB03G03KT 040V110 30/24 Q1012=
19-May-2023 SAID31 WAOC 190500 METAR WAOC 190500Z AUTO VRB03G03KT 050V230 30/24 Q1011=
19-May-2023 SAID31 WAOC 190530 METAR WAOC 190530Z AUTO VRB03G03KT 040V160 29/24 Q1011=
19-May-2023 SAID31 WAOC 190600 METAR WAOC 190600Z AUTO VRB03G03KT 30/24 Q1010=
19-May-2023 SAID31 WAOC 190630 METAR WAOC 190630Z AUTO 14005G05KT 080V190 29/24 Q1010=
19-May-2023 SAID31 WAOC 190700 METAR WAOC 190700Z AUTO VRB03G03KT 100V220 30/24 Q1009=
19-May-2023 SAID31 WAOC 190730 METAR WAOC 190730Z AUTO 12004G04KT 110V180 29/24 Q1009=
19-May-2023 SAID31 WAOC 190800 METAR WAOC 190800Z AUTO VRB02G02KT 29/23 Q1009=
19-May-2023 SAID31 WAOC 190830 METAR WAOC 190830Z AUTO VRB01G02KT 090V190 30/24 Q1009=
19-May-2023 SAID31 WAOC 190900 METAR WAOC 190900Z AUTO 11005G05KT 30/23 Q1009=
19-May-2023 SAID31 WAOC 190930 METAR WAOC 190930Z AUTO 13004G03KT 29/24 Q1009=
19-May-2023 SAID31 WAOC 191000 METAR WAOC 191000Z AUTO VRB03G03KT 28/24 Q1010=
19-May-2023 SAID31 WAOC 191030 METAR WAOC 191030Z AUTO VRB03G03KT 100V210 28/24 Q1010=
19-May-2023 SAID31 WAOC 191100 METAR WAOC 191100Z AUTO VRB02G02KT 100V180 28/24 Q1010=
19-May-2023 SAID31 WAOC 191130 METAR WAOC 191130Z AUTO VRB01G01KT 120V190 28/24 Q1011=
19-May-2023 SAID31 WAOC 191200 METAR WAOC 191200Z AUTO VRB02G02KT 100V190 27/24 Q1011=
19-May-2023 SAID31 WAOC 191230 METAR WAOC 191230Z AUTO VRB01G01KT 27/25 Q1012=
19-May-2023 SAID31 WAOC 191300 METAR WAOC 191300Z AUTO VRB01G01KT 27/25 Q1012=
19-May-2023 SAID31 WAOC 191330 METAR WAOC 191330Z AUTO VRB01G01KT 120V230 27/24 Q1013=
19-May-2023 SAID31 WAOC 191400 METAR WAOC 191400Z AUTO VRB01G01KT 130V220 27/24 Q1013=
19-May-2023 SAID31 WAOC 191430 METAR WAOC 191430Z AUTO VRB02G02KT 26/25 Q1013=
19-May-2023 SAID31 WAOC 191500 METAR WAOC 191500Z AUTO VRB02G02KT 25/24 Q1013=
19-May-2023 SAID31 WAOC 191530 METAR WAOC 191530Z AUTO VRB02G02KT 25/24 Q1013=
19-May-2023 SAID31 WAOC 191600 METAR WAOC 191600Z AUTO VRB03G03KT 25/24 Q1013=
19-May-2023 SAID31 WAOC 191630 METAR WAOC 191630Z AUTO VRB03G03KT 24/24 Q1012=
19-May-2023 SAID31 WAOC 191700 METAR WAOC 191700Z AUTO VRB03G03KT 24/24 Q1012=
19-May-2023 SAID31 WAOC 191730 METAR WAOC 191730Z AUTO VRB02G02KT 24/24 Q1012=
19-May-2023 SAID31 WAOC 191800 METAR WAOC 191800Z AUTO VRB02G02KT 24/24 Q1011=
19-May-2023 SAID31 WAOC 191830 METAR WAOC 191830Z AUTO VRB01G01KT 150V240 24/24 Q1012=
19-May-2023 SAID31 WAOC 191900 METAR WAOC 191900Z AUTO VRB01G01KT 24/22 Q1011=
19-May-2023 SAID31 WAOC 191930 METAR WAOC 191930Z AUTO VRB02G02KT 24/23 Q1011=
19-May-2023 SAID31 WAOC 192000 METAR WAOC 192000Z AUTO VRB02G02KT 24/23 Q1011=
19-May-2023 SAID31 WAOC 192030 METAR WAOC 192030Z AUTO VRB01G01KT 210V280 24/23 Q1011=
19-May-2023 SAID31 WAOC 192100 METAR WAOC 192100Z AUTO VRB01G01KT 24/23 Q1011=
19-May-2023 SAID31 WAOC 192130 METAR WAOC 192130Z AUTO VRB03G03KT 24/23 Q1012=
19-May-2023 SAID31 WAOC 192200 METAR WAOC 192200Z AUTO VRB01G01KT 24/23 Q1012=
19-May-2023 SAID31 WAOC 192230 METAR WAOC 192230Z AUTO VRB01G01KT 24/23 Q1012=
19-May-2023 SAID31 WAOC 192300 METAR WAOC 192300Z AUTO VRB01G01KT 24/24 Q1013=
19-May-2023 SAID31 WAOC 192330 METAR WAOC 192330Z AUTO VRB01G01KT 220V310 24/24 Q1013=
20-May-2023 SAID31 WAOC 200000 METAR WAOC 200000Z AUTO VRB01G01KT 040V120 25/23 Q1013=
20-May-2023 SAID31 WAOC 200030 METAR WAOC 200030Z AUTO VRB01G01KT 300V040 27/24 Q1013=
20-May-2023 SAID31 WAOC 200100 METAR WAOC 200100Z AUTO 00000G00KT 350V230 28/23 Q1013=
20-May-2023 SAID31 WAOC 200130 METAR WAOC 200130Z AUTO VRB01G02KT 060V140 29/22 Q1013=
20-May-2023 SAID31 WAOC 200200 METAR WAOC 200200Z AUTO VRB02G02KT 090V200 29/23 Q1012=
20-May-2023 SAID31 WAOC 200230 METAR WAOC 200230Z AUTO VRB02G02KT 120V230 29/24 Q1012=
20-May-2023 SAID31 WAOC 200300 METAR WAOC 200300Z AUTO VRB02G02KT 140V230 29/24 Q1011=
20-May-2023 SAID31 WAOC 200330 METAR WAOC 200330Z AUTO VRB03G03KT 120V260 30/24 Q1011=
20-May-2023 SAID31 WAOC 200400 METAR WAOC 200400Z AUTO VRB01G01KT 120V200 29/23 Q1011=
20-May-2023 SAID31 WAOC 200430 METAR WAOC 200430Z AUTO VRB01G01KT 31/22 Q1010=
20-May-2023 SAID31 WAOC 200500 METAR WAOC 200500Z AUTO VRB02G02KT 090V210 32/23 Q1010=
20-May-2023 SAID31 WAOC 200530 METAR WAOC 200530Z AUTO VRB02G02KT 110V180 31/23 Q1009=
20-May-2023 SAID31 WAOC 200600 METAR WAOC 200600Z AUTO VRB03G02KT 070V220 31/23 Q1009=
20-May-2023 SAID31 WAOC 200630 METAR WAOC 200630Z AUTO 15004G04KT 110V200 31/23 Q1009=
20-May-2023 SAID31 WAOC 200700 METAR WAOC 200700Z AUTO VRB01G01KT 100V200 31/23 Q1008=
20-May-2023 SAID31 WAOC 200730 METAR WAOC 200730Z AUTO VRB01G01KT 120V230 31/23 Q1008=
20-May-2023 SAID31 WAOC 200800 METAR WAOC 200800Z AUTO VRB03G03KT 130V220 30/22 Q1008=
20-May-2023 SAID31 WAOC 200830 METAR WAOC 200830Z AUTO 16004G04KT 100V180 31/22 Q1008=
20-May-2023 SAID31 WAOC 200900 METAR WAOC 200900Z AUTO VRB03G03KT 120V190 30/22 Q1008=
20-May-2023 SAID31 WAOC 200930 METAR WAOC 200930Z AUTO VRB03G03KT 110V180 30/23 Q1009=
20-May-2023 SAID31 WAOC 201000 METAR WAOC 201000Z AUTO VRB02G02KT 110V180 28/22 Q1009=
20-May-2023 SAID31 WAOC 201030 METAR WAOC 201030Z AUTO VRB03G03KT 28/22 Q1009=
20-May-2023 SAID31 WAOC 201100 METAR WAOC 201100Z AUTO VRB02G02KT 28/23 Q1010=
20-May-2023 SAID31 WAOC 201130 METAR WAOC 201130Z AUTO VRB01G01KT 27/23 Q1010=
20-May-2023 SAID31 WAOC 201200 METAR WAOC 201200Z AUTO VRB01G01KT 27/23 Q1011=
20-May-2023 SAID31 WAOC 201230 METAR WAOC 201230Z AUTO VRB01G01KT 140V220 27/23 Q1011=
20-May-2023 SAID31 WAOC 201300 METAR WAOC 201300Z AUTO VRB01G01KT 110V210 27/24 Q1012=
20-May-2023 SAID31 WAOC 201330 METAR WAOC 201330Z AUTO 00000G00KT 27/24 Q1012=
20-May-2023 SAID31 WAOC 201400 METAR WAOC 201400Z AUTO VRB01G01KT 26/24 Q1012=
20-May-2023 SAID31 WAOC 201430 METAR WAOC 201430Z AUTO VRB01G01KT 25/24 Q1012=
20-May-2023 SAID31 WAOC 201500 METAR WAOC 201500Z AUTO VRB02G02KT 25/24 Q1012=
20-May-2023 SAID31 WAOC 201530 METAR WAOC 201530Z AUTO VRB02G02KT 25/24 Q1012=
20-May-2023 SAID31 WAOC 201600 METAR WAOC 201600Z AUTO VRB02G02KT 25/24 Q1013=
20-May-2023 SAID31 WAOC 201630 METAR WAOC 201630Z AUTO VRB02G02KT 25/24 Q1012=
20-May-2023 SAID31 WAOC 201700 METAR WAOC 201700Z AUTO VRB01G01KT 25/24 Q1012=
20-May-2023 SAID31 WAOC 201730 METAR WAOC 201730Z AUTO VRB02G02KT 24/24 Q1012=
20-May-2023 SAID31 WAOC 201800 METAR WAOC 201800Z AUTO VRB02G02KT 24/23 Q1012=
20-May-2023 SAID31 WAOC 201830 METAR WAOC 201830Z AUTO VRB02G02KT 24/23 Q1012=
20-May-2023 SAID31 WAOC 201900 METAR WAOC 201900Z AUTO VRB02G02KT 24/23 Q1011=
20-May-2023 SAID31 WAOC 201930 METAR WAOC 201930Z AUTO VRB02G02KT 24/23 Q1011=
20-May-2023 SAID31 WAOC 202000 METAR WAOC 202000Z AUTO VRB02G02KT 24/23 Q1011=
20-May-2023 SAID31 WAOC 202030 METAR WAOC 202030Z AUTO VRB02G02KT 24/23 Q1011=
20-May-2023 SAID31 WAOC 202100 METAR WAOC 202100Z AUTO VRB02G02KT 24/23 Q1012=
20-May-2023 SAID31 WAOC 202130 METAR WAOC 202130Z AUTO VRB02G02KT 24/23 Q1012=
20-May-2023 SAID31 WAOC 202200 METAR WAOC 202200Z AUTO VRB01G01KT 260V330 24/23 Q1012=
20-May-2023 SAID31 WAOC 202230 METAR WAOC 202230Z AUTO VRB02G02KT 24/24 Q1013=
20-May-2023 SAID31 WAOC 202300 METAR WAOC 202300Z AUTO VRB02G02KT 26/24 Q1013=
20-May-2023 SAID31 WAOC 202330 METAR WAOC 202330Z AUTO VRB02G02KT 26/24 Q1013=
21-May-2023 SAID31 WAOC 210000 METAR WAOC 210000Z AUTO VRB02G02KT 27/24 Q1013=
21-May-2023 SAID31 WAOC 210030 METAR WAOC 210030Z AUTO VRB02G01KT 28/25 Q1013=
21-May-2023 SAID31 WAOC 210100 METAR WAOC 210100Z AUTO VRB01G01KT 28/24 Q1013=
21-May-2023 SAID31 WAOC 210130 METAR WAOC 210130Z AUTO VRB02G02KT 070V200 29/24 Q1013=
21-May-2023 SAID31 WAOC 210200 METAR WAOC 210200Z AUTO VRB03G03KT 100V190 30/24 Q1013=
21-May-2023 SAID31 WAOC 210230 METAR WAOC 210230Z AUTO VRB02G02KT 060V170 30/24 Q1013=
21-May-2023 SAID31 WAOC 210300 METAR WAOC 210300Z AUTO VRB03G03KT 090V210 31/24 Q1013=
21-May-2023 SAID31 WAOC 210330 METAR WAOC 210330Z AUTO 20005G05KT 140V230 29/24 Q1013=
21-May-2023 SAID31 WAOC 210400 METAR WAOC 210400Z AUTO VRB03G03KT 130V240 28/24 Q1012=
21-May-2023 SAID31 WAOC 210430 METAR WAOC 210430Z AUTO 18004G04KT 130V230 27/24 Q1012=
21-May-2023 SAID31 WAOC 210500 METAR WAOC 210500Z AUTO VRB02G02KT 27/24 Q1011=
21-May-2023 SAID31 WAOC 210530 METAR WAOC 210530Z AUTO 13004G04KT 26/23 Q1011=
21-May-2023 SAID31 WAOC 210600 METAR WAOC 210600Z AUTO VRB03G03KT 27/23 Q1011=
21-May-2023 SAID31 WAOC 210630 METAR WAOC 210630Z AUTO VRB02G02KT 050V140 28/23 Q1010=
21-May-2023 SAID31 WAOC 210700 METAR WAOC 210700Z AUTO VRB01G01KT 290V220 28/23 Q1010=
21-May-2023 SAID31 WAOC 210730 METAR WAOC 210730Z AUTO VRB02G02KT 100V210 29/22 Q1010=
21-May-2023 SAID31 WAOC 210800 METAR WAOC 210800Z AUTO VRB02G02KT 150V240 29/23 Q1009=
21-May-2023 SAID31 WAOC 210830 METAR WAOC 210830Z AUTO VRB03G03KT 29/23 Q1009=
21-May-2023 SAID31 WAOC 210900 METAR WAOC 210900Z AUTO VRB02G02KT 110V220 29/23 Q1009=
21-May-2023 SAID31 WAOC 210930 METAR WAOC 210930Z AUTO VRB02G02KT 130V200 28/24 Q1009=
21-May-2023 SAID31 WAOC 211000 METAR WAOC 211000Z AUTO VRB03G03KT 28/24 Q1010=
21-May-2023 SAID31 WAOC 211030 METAR WAOC 211030Z AUTO VRB02G02KT 100V170 28/24 Q1010=
21-May-2023 SAID31 WAOC 211100 METAR WAOC 211100Z AUTO VRB03G03KT 27/24 Q1010=
21-May-2023 SAID31 WAOC 211130 METAR WAOC 211130Z AUTO VRB01G01KT 090V160 27/24 Q1011=
21-May-2023 SAID31 WAOC 211200 METAR WAOC 211200Z AUTO VRB02G02KT 27/24 Q1011=
21-May-2023 SAID31 WAOC 211230 METAR WAOC 211230Z AUTO VRB01G01KT 120V230 27/24 Q1011=
21-May-2023 SAID31 WAOC 211300 METAR WAOC 211300Z AUTO VRB01G01KT 130V220 27/24 Q1012=
21-May-2023 SAID31 WAOC 211330 METAR WAOC 211330Z AUTO VRB01G01KT 130V220 27/24 Q1012=
21-May-2023 SAID31 WAOC 211400 METAR WAOC 211400Z AUTO 00000G00KT 190V270 26/24 Q1012=
21-May-2023 SAID31 WAOC 211430 METAR WAOC 211430Z AUTO VRB01G01KT 150V220 27/25 Q1012=
21-May-2023 SAID31 WAOC 211500 METAR WAOC 211500Z AUTO VRB01G01KT 110V240 26/25 Q1013=
21-May-2023 SAID31 WAOC 211530 METAR WAOC 211530Z AUTO VRB01G01KT 090V240 26/24 Q1012=
21-May-2023 SAID31 WAOC 211600 METAR WAOC 211600Z AUTO VRB02G02KT 25/24 Q1013=
21-May-2023 SAID31 WAOC 211630 METAR WAOC 211630Z AUTO VRB01G02KT 25/24 Q1012=
21-May-2023 SAID31 WAOC 211700 METAR WAOC 211700Z AUTO VRB02G02KT 25/24 Q1012=
21-May-2023 SAID31 WAOC 211730 METAR WAOC 211730Z AUTO VRB02G02KT 25/24 Q1012=
21-May-2023 SAID31 WAOC 211800 METAR WAOC 211800Z AUTO VRB02G02KT 24/24 Q1012=
21-May-2023 SAID31 WAOC 211830 METAR WAOC 211830Z AUTO VRB01G01KT 24/24 Q1012=
21-May-2023 SAID31 WAOC 211900 METAR WAOC 211900Z AUTO VRB01G01KT 24/24 Q1012=
21-May-2023 SAID31 WAOC 211930 METAR WAOC 211930Z AUTO VRB01G01KT 180V290 25/24 Q1011=
21-May-2023 SAID31 WAOC 212000 METAR WAOC 212000Z AUTO VRB02G02KT 220V290 24/24 Q1011=
21-May-2023 SAID31 WAOC 212030 METAR WAOC 212030Z AUTO VRB01G01KT 24/24 Q1012=
21-May-2023 SAID31 WAOC 212100 METAR WAOC 212100Z AUTO VRB02G02KT 24/23 Q1012=
21-May-2023 SAID31 WAOC 212130 METAR WAOC 212130Z AUTO VRB01G01KT 24/24 Q1012=
21-May-2023 SAID31 WAOC 212200 METAR WAOC 212200Z AUTO VRB01G01KT 24/24 Q1012=
21-May-2023 SAID31 WAOC 212230 METAR WAOC 212230Z AUTO VRB02G02KT 24/23 Q1013=
21-May-2023 SAID31 WAOC 212300 METAR WAOC 212300Z AUTO VRB02G02KT 25/24 Q1013=
21-May-2023 SAID31 WAOC 212330 METAR WAOC 212330Z AUTO VRB02G02KT 26/24 Q1013=
22-May-2023 SAID31 WAOC 220000 METAR WAOC 220000Z AUTO VRB02G02KT 26/24 Q1014=
22-May-2023 SAID31 WAOC 220030 METAR WAOC 220030Z AUTO VRB01G01KT 27/24 Q1014=
22-May-2023 SAID31 WAOC 220100 METAR WAOC 220100Z AUTO VRB01G01KT 050V290 29/24 Q1014=
22-May-2023 SAID31 WAOC 220130 METAR WAOC 220130Z AUTO VRB01G01KT 130V200 29/24 Q1014=
22-May-2023 SAID31 WAOC 220200 METAR WAOC 220200Z AUTO VRB03G03KT 120V240 29/23 Q1014=
22-May-2023 SAID31 WAOC 220230 METAR WAOC 220230Z AUTO VRB03G03KT 130V210 30/23 Q1014=
22-May-2023 SAID31 WAOC 220300 METAR WAOC 220300Z AUTO 12004G04KT 100V200 30/23 Q1013=
22-May-2023 SAID31 WAOC 220330 METAR WAOC 220330Z AUTO VRB01G01KT 120V240 30/22 Q1013=
22-May-2023 SAID31 WAOC 220400 METAR WAOC 220400Z AUTO VRB02G02KT 100V200 31/21 Q1012=
22-May-2023 SAID31 WAOC 220430 METAR WAOC 220430Z AUTO VRB01G01KT 120V190 31/22 Q1012=
22-May-2023 SAID31 WAOC 220500 METAR WAOC 220500Z AUTO VRB02G03KT 110V180 31/21 Q1011=
22-May-2023 SAID31 WAOC 220530 METAR WAOC 220530Z AUTO VRB02G02KT 100V170 31/22 Q1011=
22-May-2023 SAID31 WAOC 220600 METAR WAOC 220600Z AUTO 14004G04KT 31/23 Q1010=
22-May-2023 SAID31 WAOC 220630 METAR WAOC 220630Z AUTO 15005G05KT 090V170 31/23 Q1010=
22-May-2023 SAID31 WAOC 220700 METAR WAOC 220700Z AUTO 21005G05KT 110V230 31/23 Q1009=
22-May-2023 SAID31 WAOC 220730 METAR WAOC 220730Z AUTO 16005G05KT 090V270 30/23 Q1009=
22-May-2023 SAID31 WAOC 220800 METAR WAOC 220800Z AUTO VRB03G03KT 120V210 30/24 Q1009=
22-May-2023 SAID31 WAOC 220830 METAR WAOC 220830Z AUTO 12004G04KT 090V200 29/24 Q1009=
22-May-2023 SAID31 WAOC 220900 METAR WAOC 220900Z AUTO VRB03G03KT 110V200 29/24 Q1009=
22-May-2023 SAID31 WAOC 220930 METAR WAOC 220930Z AUTO 13004G04KT 28/24 Q1009=
22-May-2023 SAID31 WAOC 221000 METAR WAOC 221000Z AUTO 13005G05KT 28/24 Q1010=
22-May-2023 SAID31 WAOC 221030 METAR WAOC 221030Z AUTO VRB03G03KT 090V180 27/24 Q1010=
22-May-2023 SAID31 WAOC 221100 METAR WAOC 221100Z AUTO VRB02G02KT 100V170 27/24 Q1011=
22-May-2023 SAID31 WAOC 221130 METAR WAOC 221130Z AUTO VRB03G03KT 120V220 27/24 Q1011=
22-May-2023 SAID31 WAOC 221200 METAR WAOC 221200Z AUTO VRB02G02KT 110V200 27/23 Q1012=
22-May-2023 SAID31 WAOC 221230 METAR WAOC 221230Z AUTO VRB01G01KT 100V190 27/23 Q1012=
22-May-2023 SAID31 WAOC 221300 METAR WAOC 221300Z AUTO VRB02G02KT 120V220 27/23 Q1012=
22-May-2023 SAID31 WAOC 221330 METAR WAOC 221330Z AUTO VRB01G01KT 27/23 Q1012=
22-May-2023 SAID31 WAOC 221400 METAR WAOC 221400Z AUTO VRB01G01KT 110V210 27/24 Q1013=
22-May-2023 SAID31 WAOC 221430 METAR WAOC 221430Z AUTO VRB02G02KT 100V190 27/24 Q1013=
22-May-2023 SAID31 WAOC 221500 METAR WAOC 221500Z AUTO VRB01G01KT 190V270 27/24 Q1013=
22-May-2023 SAID31 WAOC 221530 METAR WAOC 221530Z AUTO VRB01G01KT 130V220 27/24 Q1013=
22-May-2023 SAID31 WAOC 221600 METAR WAOC 221600Z AUTO VRB01G01KT 130V240 27/23 Q1013=
22-May-2023 SAID31 WAOC 221630 METAR WAOC 221630Z AUTO VRB02G02KT 25/24 Q1012=
22-May-2023 SAID31 WAOC 221700 METAR WAOC 221700Z AUTO VRB02G02KT 25/24 Q1012=
22-May-2023 SAID31 WAOC 221730 METAR WAOC 221730Z AUTO VRB02G02KT 24/24 Q1012=
22-May-2023 SAID31 WAOC 221800 METAR WAOC 221800Z AUTO VRB02G02KT 24/24 Q1012=
22-May-2023 SAID31 WAOC 221830 METAR WAOC 221830Z AUTO VRB01G01KT 25/24 Q1011=
22-May-2023 SAID31 WAOC 221900 METAR WAOC 221900Z AUTO 00000G00KT 170V340 25/24 Q1011=
22-May-2023 SAID31 WAOC 221930 METAR WAOC 221930Z AUTO VRB01G01KT 25/24 Q1011=
22-May-2023 SAID31 WAOC 222000 METAR WAOC 222000Z AUTO VRB02G02KT 24/24 Q1011=
22-May-2023 SAID31 WAOC 222030 METAR WAOC 222030Z AUTO VRB01G01KT 210V280 24/24 Q1011=
22-May-2023 SAID31 WAOC 222100 METAR WAOC 222100Z AUTO VRB01G01KT 200V310 24/24 Q1011=
22-May-2023 SAID31 WAOC 222130 METAR WAOC 222130Z AUTO VRB02G02KT 24/23 Q1012=
22-May-2023 SAID31 WAOC 222200 METAR WAOC 222200Z AUTO VRB01G02KT 240V310 24/24 Q1012=
22-May-2023 SAID31 WAOC 222230 METAR WAOC 222230Z AUTO VRB02G02KT 24/24 Q1012=
22-May-2023 SAID31 WAOC 222300 METAR WAOC 222300Z AUTO VRB01G01KT 25/24 Q1012=
22-May-2023 SAID31 WAOC 222330 METAR WAOC 222330Z AUTO VRB02G02KT 26/24 Q1012=
23-May-2023 SAID31 WAOC 230000 METAR WAOC 230000Z AUTO VRB01G01KT 220V310 27/24 Q1013=
23-May-2023 SAID31 WAOC 230030 METAR WAOC 230030Z AUTO VRB01G01KT 150V260 28/24 Q1013=
23-May-2023 SAID31 WAOC 230100 METAR WAOC 230100Z AUTO VRB03G03KT 120V220 28/24 Q1013=
23-May-2023 SAID31 WAOC 230130 METAR WAOC 230130Z AUTO VRB02G03KT 090V180 29/23 Q1013=
23-May-2023 SAID31 WAOC 230200 METAR WAOC 230200Z AUTO VRB02G02KT 090V290 29/23 Q1013=
23-May-2023 SAID31 WAOC 230230 METAR WAOC 230230Z AUTO VRB02G02KT 110V210 30/23 Q1012=
23-May-2023 SAID31 WAOC 230300 METAR WAOC 230300Z AUTO VRB03G03KT 140V220 30/23 Q1012=
23-May-2023 SAID31 WAOC 230330 METAR WAOC 230330Z AUTO 19004G04KT 140V230 31/23 Q1012=
23-May-2023 SAID31 WAOC 230400 METAR WAOC 230400Z AUTO VRB02G02KT 110V230 32/23 Q1011=
23-May-2023 SAID31 WAOC 230430 METAR WAOC 230430Z AUTO 13004G04KT 31/23 Q1011=
23-May-2023 SAID31 WAOC 230500 METAR WAOC 230500Z AUTO 19004G04KT 100V230 31/23 Q1011=
23-May-2023 SAID31 WAOC 230530 METAR WAOC 230530Z AUTO 16004G05KT 110V180 31/23 Q1010=
23-May-2023 SAID31 WAOC 230600 METAR WAOC 230600Z AUTO 18004G04KT 110V190 31/23 Q1010=
23-May-2023 SAID31 WAOC 230630 METAR WAOC 230630Z AUTO 15005G05KT 110V200 31/23 Q1010=
23-May-2023 SAID31 WAOC 230700 METAR WAOC 230700Z AUTO 14004G04KT 30/23 Q1010=
23-May-2023 SAID31 WAOC 230730 METAR WAOC 230730Z AUTO 14004G04KT 29/23 Q1009=
23-May-2023 SAID31 WAOC 230800 METAR WAOC 230800Z AUTO VRB03G03KT 110V190 29/23 Q1009=
23-May-2023 SAID31 WAOC 230830 METAR WAOC 230830Z AUTO VRB03G03KT 29/24 Q1009=
23-May-2023 SAID31 WAOC 230900 METAR WAOC 230900Z AUTO VRB01G01KT 110V190 29/23 Q1009=
23-May-2023 SAID31 WAOC 230930 METAR WAOC 230930Z AUTO VRB03G03KT 120V190 28/23 Q1010=
23-May-2023 SAID31 WAOC 231000 METAR WAOC 231000Z AUTO VRB02G02KT 28/23 Q1010=
23-May-2023 SAID31 WAOC 231030 METAR WAOC 231030Z AUTO VRB02G02KT 28/23 Q1010=
23-May-2023 SAID31 WAOC 231100 METAR WAOC 231100Z AUTO VRB01G01KT 110V180 28/23 Q1011=
23-May-2023 SAID31 WAOC 231130 METAR WAOC 231130Z AUTO VRB01G01KT 110V190 28/24 Q1012=
23-May-2023 SAID31 WAOC 231200 METAR WAOC 231200Z AUTO VRB03G03KT 28/24 Q1012=
23-May-2023 SAID31 WAOC 231230 METAR WAOC 231230Z AUTO VRB01G01KT 100V180 28/24 Q1012=
23-May-2023 SAID31 WAOC 231300 METAR WAOC 231300Z AUTO VRB01G01KT 090V230 27/24 Q1012=
23-May-2023 SAID31 WAOC 231330 METAR WAOC 231330Z AUTO VRB01G01KT 27/24 Q1013=
23-May-2023 SAID31 WAOC 231400 METAR WAOC 231400Z AUTO 00000G00KT 190V350 26/24 Q1013=
23-May-2023 SAID31 WAOC 231430 METAR WAOC 231430Z AUTO VRB03G03KT 26/24 Q1013=
23-May-2023 SAID31 WAOC 231500 METAR WAOC 231500Z AUTO VRB03G03KT 26/24 Q1013=
23-May-2023 SAID31 WAOC 231530 METAR WAOC 231530Z AUTO 00000G00KT 130V310 25/24 Q1013=
23-May-2023 SAID31 WAOC 231600 METAR WAOC 231600Z AUTO VRB02G02KT 25/24 Q1013=
23-May-2023 SAID31 WAOC 231630 METAR WAOC 231630Z AUTO VRB03G03KT 25/25 Q1013=
23-May-2023 SAID31 WAOC 231700 METAR WAOC 231700Z AUTO VRB02G02KT 25/24 Q1012=
23-May-2023 SAID31 WAOC 231730 METAR WAOC 231730Z AUTO VRB01G01KT 25/24 Q1012=
23-May-2023 SAID31 WAOC 231800 METAR WAOC 231800Z AUTO VRB03G03KT 25/24 Q1012=
23-May-2023 SAID31 WAOC 231830 METAR WAOC 231830Z AUTO VRB01G01KT 210V290 25/24 Q1012=
23-May-2023 SAID31 WAOC 231900 METAR WAOC 231900Z AUTO VRB01G01KT 25/24 Q1012=
23-May-2023 SAID31 WAOC 231930 METAR WAOC 231930Z AUTO VRB02G03KT 24/24 Q1012=
23-May-2023 SAID31 WAOC 232000 METAR WAOC 232000Z AUTO VRB03G03KT 25/24 Q1012=
23-May-2023 SAID31 WAOC 232030 METAR WAOC 232030Z AUTO VRB02G03KT 25/24 Q1012=
23-May-2023 SAID31 WAOC 232100 METAR WAOC 232100Z AUTO VRB02G02KT 25/24 Q1012=
23-May-2023 SAID31 WAOC 232130 METAR WAOC 232130Z AUTO VRB02G02KT 210V290 25/24 Q1012=
23-May-2023 SAID31 WAOC 232200 METAR WAOC 232200Z AUTO VRB01G01KT 090V310 25/24 Q1012=
23-May-2023 SAID31 WAOC 232230 METAR WAOC 232230Z AUTO VRB02G02KT 25/24 Q1013=
23-May-2023 SAID31 WAOC 232300 METAR WAOC 232300Z AUTO VRB03G03KT 25/24 Q1013=
23-May-2023 SAID31 WAOC 232330 METAR WAOC 232330Z AUTO VRB02G02KT 220V310 26/24 Q1013=
24-May-2023 SAID31 WAOC 240000 METAR WAOC 240000Z AUTO VRB03G03KT 26/24 Q1014=
24-May-2023 SAID31 WAOC 240030 METAR WAOC 240030Z AUTO VRB01G01KT 220V310 28/24 Q1014=
24-May-2023 SAID31 WAOC 240100 METAR WAOC 240100Z AUTO VRB03G03KT 170V300 27/24 Q1014=
24-May-2023 SAID31 WAOC 240130 METAR WAOC 240130Z AUTO VRB01G01KT 150V270 27/25 Q1014=
24-May-2023 SAID31 WAOC 240200 METAR WAOC 240200Z AUTO VRB03G03KT 210V280 27/25 Q1014=
24-May-2023 SAID31 WAOC 240230 METAR WAOC 240230Z AUTO VRB03G03KT 160V230 28/25 Q1014=
24-May-2023 SAID31 WAOC 240300 METAR WAOC 240300Z AUTO VRB02G02KT 180V250 28/24 Q1014=
24-May-2023 SAID31 WAOC 240330 METAR WAOC 240330Z AUTO VRB02G02KT 210V320 29/24 Q1013=
24-May-2023 SAID31 WAOC 240400 METAR WAOC 240400Z AUTO VRB02G02KT 140V240 24/24 Q1014=
24-May-2023 SAID31 WAOC 240430 METAR WAOC 240430Z AUTO VRB01G01KT 130V270 24/24 Q1014=
24-May-2023 SAID31 WAOC 240500 METAR WAOC 240500Z AUTO VRB02G02KT 050V120 24/24 Q1013=
24-May-2023 SAID31 WAOC 240530 METAR WAOC 240530Z AUTO VRB03G03KT 25/24 Q1012=
24-May-2023 SAID31 WAOC 240600 METAR WAOC 240600Z AUTO VRB03G03KT 25/23 Q1012=
24-May-2023 SAID31 WAOC 240630 METAR WAOC 240630Z AUTO VRB03G03KT 090V160 26/23 Q1012=
24-May-2023 SAID31 WAOC 240700 METAR WAOC 240700Z AUTO VRB02G02KT 26/23 Q1011=
24-May-2023 SAID31 WAOC 240730 METAR WAOC 240730Z AUTO VRB01G01KT 25/23 Q1011=
24-May-2023 SAID31 WAOC 240800 METAR WAOC 240800Z AUTO VRB02G02KT 080V180 26/22 Q1011=
24-May-2023 SAID31 WAOC 240830 METAR WAOC 240830Z AUTO VRB01G01KT 050V140 26/22 Q1011=
24-May-2023 SAID31 WAOC 240900 METAR WAOC 240900Z AUTO 00000G00KT 26/22 Q1011=
24-May-2023 SAID31 WAOC 240930 METAR WAOC 240930Z AUTO VRB01G01KT 26/23 Q1012=
24-May-2023 SAID31 WAOC 241000 METAR WAOC 241000Z AUTO VRB01G01KT 26/23 Q1012=
24-May-2023 SAID31 WAOC 241030 METAR WAOC 241030Z AUTO VRB01G01KT 25/23 Q1012=
24-May-2023 SAID31 WAOC 241100 METAR WAOC 241100Z AUTO VRB01G01KT 140V240 25/23 Q1011=
24-May-2023 SAID31 WAOC 241130 METAR WAOC 241130Z AUTO 00000G00KT 310V090 25/24 Q1012=
24-May-2023 SAID31 WAOC 241200 METAR WAOC 241200Z AUTO 00000G00KT 320V000 25/23 Q1012=
24-May-2023 SAID31 WAOC 241230 METAR WAOC 241230Z AUTO VRB01G01KT 25/24 Q1012=
24-May-2023 SAID31 WAOC 241300 METAR WAOC 241300Z AUTO VRB02G02KT 24/23 Q1012=
24-May-2023 SAID31 WAOC 241330 METAR WAOC 241330Z AUTO VRB02G02KT 24/23 Q1013=
24-May-2023 SAID31 WAOC 241400 METAR WAOC 241400Z AUTO VRB02G02KT 25/23 Q1013=
24-May-2023 SAID31 WAOC 241430 METAR WAOC 241430Z AUTO VRB02G02KT 25/23 Q1013=
24-May-2023 SAID31 WAOC 241500 METAR WAOC 241500Z AUTO 00000G00KT 000V220 24/23 Q1013=
24-May-2023 SAID31 WAOC 241530 METAR WAOC 241530Z AUTO VRB01G01KT 25/23 Q1013=
24-May-2023 SAID31 WAOC 241600 METAR WAOC 241600Z AUTO VRB01G01KT 230V330 25/24 Q1013=
24-May-2023 SAID31 WAOC 241630 METAR WAOC 241630Z AUTO VRB02G02KT 250V320 24/24 Q1013=
24-May-2023 SAID31 WAOC 241700 METAR WAOC 241700Z AUTO VRB02G03KT 25/24 Q1013=
24-May-2023 SAID31 WAOC 241730 METAR WAOC 241730Z AUTO VRB02G02KT 25/24 Q1012=
24-May-2023 SAID31 WAOC 241800 METAR WAOC 241800Z AUTO VRB02G02KT 24/24 Q1012=
24-May-2023 SAID31 WAOC 241830 METAR WAOC 241830Z AUTO VRB02G02KT 24/23 Q1012=
24-May-2023 SAID31 WAOC 241900 METAR WAOC 241900Z AUTO VRB02G02KT 24/23 Q1012=
24-May-2023 SAID31 WAOC 241930 METAR WAOC 241930Z AUTO VRB01G01KT 24/23 Q1012=
24-May-2023 SAID31 WAOC 242000 METAR WAOC 242000Z AUTO VRB01G01KT 24/23 Q1013=
24-May-2023 SAID31 WAOC 242030 METAR WAOC 242030Z AUTO VRB02G02KT 23/23 Q1012=
24-May-2023 SAID31 WAOC 242100 METAR WAOC 242100Z AUTO VRB02G02KT 23/23 Q1012=
24-May-2023 SAID31 WAOC 242130 METAR WAOC 242130Z AUTO VRB01G01KT 23/23 Q1012=
24-May-2023 SAID31 WAOC 242200 METAR WAOC 242200Z AUTO VRB01G01KT 23/23 Q1012=
24-May-2023 SAID31 WAOC 242230 METAR WAOC 242230Z AUTO VRB01G01KT 23/23 Q1013=
24-May-2023 SAID31 WAOC 242300 METAR WAOC 242300Z AUTO VRB01G01KT 24/24 Q1013=
24-May-2023 SAID31 WAOC 242330 METAR WAOC 242330Z AUTO VRB03G03KT 25/24 Q1013=
25-May-2023 SAID31 WAOC 250000 METAR WAOC 250000Z AUTO VRB03G03KT 26/24 Q1013=
25-May-2023 SAID31 WAOC 250030 METAR WAOC 250030Z AUTO VRB02G02KT 27/25 Q1014=
25-May-2023 SAID31 WAOC 250100 METAR WAOC 250100Z AUTO 00000G00KT 110V240 28/25 Q1013=
25-May-2023 SAID31 WAOC 250130 METAR WAOC 250130Z AUTO VRB03G03KT 29/25 Q1013=
25-May-2023 SAID31 WAOC 250200 METAR WAOC 250200Z AUTO VRB03G03KT 140V210 30/25 Q1013=
25-May-2023 SAID31 WAOC 250230 METAR WAOC 250230Z AUTO VRB02G02KT 080V180 30/24 Q1013=
25-May-2023 SAID31 WAOC 250300 METAR WAOC 250300Z AUTO VRB03G03KT 130V250 31/25 Q1013=
25-May-2023 SAID31 WAOC 250330 METAR WAOC 250330Z AUTO VRB03G03KT 31/25 Q1012=
25-May-2023 SAID31 WAOC 250400 METAR WAOC 250400Z AUTO VRB01G01KT 090V200 31/26 Q1012=
25-May-2023 SAID31 WAOC 250430 METAR WAOC 250430Z AUTO 13004G04KT 100V200 29/24 Q1012=
25-May-2023 SAID31 WAOC 250500 METAR WAOC 250500Z AUTO VRB02G02KT 26/25 Q1011=
25-May-2023 SAID31 WAOC 250530 METAR WAOC 250530Z AUTO VRB01G01KT 200V300 27/25 Q1011=
25-May-2023 SAID31 WAOC 250600 METAR WAOC 250600Z AUTO VRB03G02KT 29/25 Q1010=
25-May-2023 SAID31 WAOC 250630 METAR WAOC 250630Z AUTO VRB02G02KT 070V160 30/25 Q1010=
25-May-2023 SAID31 WAOC 250700 METAR WAOC 250700Z AUTO VRB02G02KT 080V230 30/25 Q1010=
25-May-2023 SAID31 WAOC 250730 METAR WAOC 250730Z AUTO VRB02G02KT 28/24 Q1010=
25-May-2023 SAID31 WAOC 250800 METAR WAOC 250800Z AUTO VRB01G01KT 190V290 27/24 Q1010=
25-May-2023 SAID31 WAOC 250830 METAR WAOC 250830Z AUTO VRB02G02KT 190V260 27/24 Q1010=
25-May-2023 SAID31 WAOC 250900 METAR WAOC 250900Z AUTO VRB02G02KT 140V220 27/25 Q1010=
25-May-2023 SAID31 WAOC 250930 METAR WAOC 250930Z AUTO VRB02G02KT 110V220 26/25 Q1010=
25-May-2023 SAID31 WAOC 251000 METAR WAOC 251000Z AUTO VRB01G01KT 310V040 26/25 Q1011=
25-May-2023 SAID31 WAOC 251030 METAR WAOC 251030Z AUTO VRB02G02KT 26/25 Q1011=
25-May-2023 SAID31 WAOC 251100 METAR WAOC 251100Z AUTO VRB01G01KT 26/25 Q1011=
25-May-2023 SAID31 WAOC 251130 METAR WAOC 251130Z AUTO VRB01G01KT 26/25 Q1012=
25-May-2023 SAID31 WAOC 251200 METAR WAOC 251200Z AUTO VRB01G01KT 020V110 26/26 Q1012=
25-May-2023 SAID31 WAOC 251230 METAR WAOC 251230Z AUTO VRB01G01KT 27/26 Q1012=
25-May-2023 SAID31 WAOC 251300 METAR WAOC 251300Z AUTO VRB01G01KT 26/25 Q1013=
25-May-2023 SAID31 WAOC 251330 METAR WAOC 251330Z AUTO VRB01G01KT 26/26 Q1013=
25-May-2023 SAID31 WAOC 251400 METAR WAOC 251400Z AUTO VRB01G01KT 26/26 Q1013=
25-May-2023 SAID31 WAOC 251430 METAR WAOC 251430Z AUTO VRB01G01KT 26/25 Q1013=
25-May-2023 SAID31 WAOC 251500 METAR WAOC 251500Z AUTO VRB01G01KT 26/25 Q1013=
25-May-2023 SAID31 WAOC 251530 METAR WAOC 251530Z AUTO VRB02G02KT 26/25 Q1013=
25-May-2023 SAID31 WAOC 251600 METAR WAOC 251600Z AUTO VRB02G02KT 26/25 Q1013=
25-May-2023 SAID31 WAOC 251630 METAR WAOC 251630Z AUTO VRB02G02KT 25/25 Q1013=
25-May-2023 SAID31 WAOC 251700 METAR WAOC 251700Z AUTO VRB02G02KT 25/25 Q1013=
25-May-2023 SAID31 WAOC 251730 METAR WAOC 251730Z AUTO VRB01G01KT 25/25 Q1012=
25-May-2023 SAID31 WAOC 251800 METAR WAOC 251800Z AUTO VRB01G01KT 220V300 25/25 Q1012=
25-May-2023 SAID31 WAOC 251830 METAR WAOC 251830Z AUTO VRB02G02KT 25/25 Q1012=
25-May-2023 SAID31 WAOC 251900 METAR WAOC 251900Z AUTO VRB01G01KT 220V290 25/25 Q1012=
25-May-2023 SAID31 WAOC 251930 METAR WAOC 251930Z AUTO VRB01G01KT 25/25 Q1012=
25-May-2023 SAID31 WAOC 252000 METAR WAOC 252000Z AUTO VRB02G02KT 25/25 Q1011=
25-May-2023 SAID31 WAOC 252030 METAR WAOC 252030Z AUTO VRB01G01KT 25/25 Q1012=
25-May-2023 SAID31 WAOC 252100 METAR WAOC 252100Z AUTO VRB02G02KT 25/25 Q1012=
25-May-2023 SAID31 WAOC 252130 METAR WAOC 252130Z AUTO VRB01G01KT 25/25 Q1012=
25-May-2023 SAID31 WAOC 252200 METAR WAOC 252200Z AUTO VRB01G01KT 190V310 25/25 Q1012=
25-May-2023 SAID31 WAOC 252230 METAR WAOC 252230Z AUTO VRB01G01KT 25/25 Q1012=
25-May-2023 SAID31 WAOC 252300 METAR WAOC 252300Z AUTO VRB02G02KT 230V310 25/25 Q1012=
25-May-2023 SAID31 WAOC 252330 METAR WAOC 252330Z AUTO VRB01G01KT 26/25 Q1013=
26-May-2023 SAID31 WAOC 260000 METAR WAOC 260000Z AUTO VRB02G02KT 26/25 Q1013=
26-May-2023 SAID31 WAOC 260030 METAR WAOC 260030Z AUTO VRB03G03KT 27/26 Q1013=
26-May-2023 SAID31 WAOC 260100 METAR WAOC 260100Z AUTO VRB01G01KT 130V310 29/26 Q1013=
26-May-2023 SAID31 WAOC 260130 METAR WAOC 260130Z AUTO VRB02G02KT 140V220 29/26 Q1013=
26-May-2023 SAID31 WAOC 260200 METAR WAOC 260200Z AUTO VRB02G02KT 100V200 30/26 Q1013=
26-May-2023 SAID31 WAOC 260230 METAR WAOC 260230Z AUTO VRB03G03KT 30/25 Q1013=
26-May-2023 SAID31 WAOC 260300 METAR WAOC 260300Z AUTO 20004G04KT 110V220 30/25 Q1012=
26-May-2023 SAID31 WAOC 260330 METAR WAOC 260330Z AUTO VRB01G01KT 130V220 30/25 Q1012=
26-May-2023 SAID31 WAOC 260400 METAR WAOC 260400Z AUTO VRB03G03KT 30/25 Q1012=
26-May-2023 SAID31 WAOC 260430 METAR WAOC 260430Z AUTO VRB03G03KT 30/25 Q1011=
26-May-2023 SAID31 WAOC 260500 METAR WAOC 260500Z AUTO VRB02G02KT 040V150 29/26 Q1011=
26-May-2023 SAID31 WAOC 260530 METAR WAOC 260530Z AUTO VRB03G03KT 090V170 28/25 Q1010=
26-May-2023 SAID31 WAOC 260600 METAR WAOC 260600Z AUTO VRB02G02KT 29/26 Q1010=
26-May-2023 SAID31 WAOC 260630 METAR WAOC 260630Z AUTO VRB02G02KT 27/26 Q1009=
26-May-2023 SAID31 WAOC 260700 METAR WAOC 260700Z AUTO VRB01G01KT 27/27 Q1009=
26-May-2023 SAID31 WAOC 260730 METAR WAOC 260730Z AUTO VRB01G01KT 170V240 28/27 Q1009=
26-May-2023 SAID31 WAOC 260800 METAR WAOC 260800Z AUTO VRB02G02KT 110V190 29/26 Q1009=
26-May-2023 SAID31 WAOC 260830 METAR WAOC 260830Z AUTO VRB02G02KT 090V180 28/26 Q1009=
26-May-2023 SAID31 WAOC 260900 METAR WAOC 260900Z AUTO VRB03G03KT 090V170 28/26 Q1009=
26-May-2023 SAID31 WAOC 260930 METAR WAOC 260930Z AUTO VRB02G02KT 100V170 28/26 Q1009=
26-May-2023 SAID31 WAOC 261000 METAR WAOC 261000Z AUTO VRB02G02KT 28/25 Q1009=
26-May-2023 SAID31 WAOC 261030 METAR WAOC 261030Z AUTO VRB01G01KT 120V190 28/25 Q1010=
26-May-2023 SAID31 WAOC 261100 METAR WAOC 261100Z AUTO VRB01G01KT 27/25 Q1010=
26-May-2023 SAID31 WAOC 261130 METAR WAOC 261130Z AUTO VRB01G01KT 130V230 28/25 Q1010=
26-May-2023 SAID31 WAOC 261200 METAR WAOC 261200Z AUTO VRB01G01KT 130V230 27/25 Q1011=
26-May-2023 SAID31 WAOC 261230 METAR WAOC 261230Z AUTO VRB02G02KT 120V200 28/25 Q1011=
26-May-2023 SAID31 WAOC 261300 METAR WAOC 261300Z AUTO VRB01G01KT 150V270 27/25 Q1011=
26-May-2023 SAID31 WAOC 261330 METAR WAOC 261330Z AUTO VRB01G01KT 190V260 27/25 Q1012=
26-May-2023 SAID31 WAOC 261400 METAR WAOC 261400Z AUTO VRB01G01KT 27/25 Q1012=
26-May-2023 SAID31 WAOC 261430 METAR WAOC 261430Z AUTO VRB01G01KT 26/25 Q1012=
26-May-2023 SAID31 WAOC 261500 METAR WAOC 261500Z AUTO VRB02G02KT 26/25 Q1012=
26-May-2023 SAID31 WAOC 261530 METAR WAOC 261530Z AUTO VRB01G01KT 26/25 Q1012=
26-May-2023 SAID31 WAOC 261600 METAR WAOC 261600Z AUTO 00000G00KT 150V270 26/25 Q1011=
26-May-2023 SAID31 WAOC 261630 METAR WAOC 261630Z AUTO VRB01G01KT 25/25 Q1011=
26-May-2023 SAID31 WAOC 261700 METAR WAOC 261700Z AUTO VRB02G02KT 25/25 Q1011=
26-May-2023 SAID31 WAOC 261730 METAR WAOC 261730Z AUTO VRB02G02KT 25/25 Q1011=
26-May-2023 SAID31 WAOC 261800 METAR WAOC 261800Z AUTO VRB02G02KT 25/25 Q1011=
26-May-2023 SAID31 WAOC 261830 METAR WAOC 261830Z AUTO VRB01G01KT 240V310 25/25 Q1010=
26-May-2023 SAID31 WAOC 261900 METAR WAOC 261900Z AUTO VRB01G01KT 25/25 Q1010=
26-May-2023 SAID31 WAOC 261930 METAR WAOC 261930Z AUTO VRB01G01KT 150V300 25/25 Q1010=
26-May-2023 SAID31 WAOC 262000 METAR WAOC 262000Z AUTO VRB02G02KT 25/25 Q1010=
26-May-2023 SAID31 WAOC 262030 METAR WAOC 262030Z AUTO VRB02G02KT 25/25 Q1010=
26-May-2023 SAID31 WAOC 262100 METAR WAOC 262100Z AUTO VRB02G02KT 25/25 Q1010=
26-May-2023 SAID31 WAOC 262130 METAR WAOC 262130Z AUTO VRB01G01KT 230V300 25/25 Q1011=
26-May-2023 SAID31 WAOC 262200 METAR WAOC 262200Z AUTO 00000G00KT 25/25 Q1011=
26-May-2023 SAID31 WAOC 262230 METAR WAOC 262230Z AUTO VRB01G01KT 230V300 25/25 Q1011=
26-May-2023 SAID31 WAOC 262300 METAR WAOC 262300Z AUTO VRB01G01KT 25/25 Q1011=
26-May-2023 SAID31 WAOC 262330 METAR WAOC 262330Z AUTO VRB01G01KT 25/25 Q1011=
27-May-2023 SAID31 WAOC 270000 METAR WAOC 270000Z AUTO VRB02G02KT 27/25 Q1011=
27-May-2023 SAID31 WAOC 270030 METAR WAOC 270030Z AUTO VRB01G01KT 130V240 28/25 Q1011=
27-May-2023 SAID31 WAOC 270100 METAR WAOC 270100Z AUTO VRB01G01KT 060V220 29/25 Q1011=
27-May-2023 SAID31 WAOC 270130 METAR WAOC 270130Z AUTO VRB03G03KT 100V260 29/25 Q1011=
27-May-2023 SAID31 WAOC 270200 METAR WAOC 270200Z AUTO VRB03G03KT 120V210 30/25 Q1011=
27-May-2023 SAID31 WAOC 270230 METAR WAOC 270230Z AUTO VRB01G01KT 110V240 30/25 Q1011=
27-May-2023 SAID31 WAOC 270300 METAR WAOC 270300Z AUTO VRB01G01KT 110V220 31/25 Q1010=
27-May-2023 SAID31 WAOC 270330 METAR WAOC 270330Z AUTO VRB02G02KT 070V230 31/24 Q1010=
27-May-2023 SAID31 WAOC 270400 METAR WAOC 270400Z AUTO VRB02G02KT 080V170 31/24 Q1009=
27-May-2023 SAID31 WAOC 270430 METAR WAOC 270430Z AUTO VRB03G03KT 070V200 30/25 Q1008=
27-May-2023 SAID31 WAOC 270500 METAR WAOC 270500Z AUTO VRB02G02KT 120V220 30/25 Q1008=
27-May-2023 SAID31 WAOC 270530 METAR WAOC 270530Z AUTO 15004G04KT 070V250 31/24 Q1008=
27-May-2023 SAID31 WAOC 270600 METAR WAOC 270600Z AUTO VRB03G03KT 130V220 31/24 Q1007=
27-May-2023 SAID31 WAOC 270630 METAR WAOC 270630Z AUTO 14004G04KT 110V220 30/24 Q1007=
27-May-2023 SAID31 WAOC 270700 METAR WAOC 270700Z AUTO VRB03G03KT 120V220 31/24 Q1007=
27-May-2023 SAID31 WAOC 270730 METAR WAOC 270730Z AUTO 11004G04KT 090V160 31/24 Q1007=
27-May-2023 SAID31 WAOC 270800 METAR WAOC 270800Z AUTO 12004G03KT 30/25 Q1006=
27-May-2023 SAID31 WAOC 270830 METAR WAOC 270830Z AUTO VRB03G03KT 110V180 30/25 Q1007=
27-May-2023 SAID31 WAOC 270900 METAR WAOC 270900Z AUTO VRB02G02KT 090V170 30/25 Q1007=
27-May-2023 SAID31 WAOC 270930 METAR WAOC 270930Z AUTO VRB03G03KT 29/24 Q1007=
27-May-2023 SAID31 WAOC 271000 METAR WAOC 271000Z AUTO VRB02G02KT 29/24 Q1007=
27-May-2023 SAID31 WAOC 271030 METAR WAOC 271030Z AUTO VRB02G02KT 110V210 29/25 Q1008=
27-May-2023 SAID31 WAOC 271100 METAR WAOC 271100Z AUTO VRB02G02KT 100V170 29/24 Q1009=
27-May-2023 SAID31 WAOC 271130 METAR WAOC 271130Z AUTO VRB02G02KT 130V200 29/24 Q1009=
27-May-2023 SAID31 WAOC 271200 METAR WAOC 271200Z AUTO VRB02G02KT 120V210 29/24 Q1010=
27-May-2023 SAID31 WAOC 271230 METAR WAOC 271230Z AUTO VRB02G02KT 120V190 28/25 Q1010=
27-May-2023 SAID31 WAOC 271300 METAR WAOC 271300Z AUTO VRB02G02KT 100V190 28/24 Q1010=
27-May-2023 SAID31 WAOC 271330 METAR WAOC 271330Z AUTO VRB03G03KT 140V230 28/25 Q1010=
27-May-2023 SAID31 WAOC 271400 METAR WAOC 271400Z AUTO VRB02G02KT 140V250 28/25 Q1010=
27-May-2023 SAID31 WAOC 271430 METAR WAOC 271430Z AUTO VRB01G01KT 160V230 28/25 Q1010=
27-May-2023 SAID31 WAOC 271500 METAR WAOC 271500Z AUTO VRB02G02KT 150V240 28/25 Q1010=
27-May-2023 SAID31 WAOC 271530 METAR WAOC 271530Z AUTO VRB01G01KT 150V220 28/25 Q1010=
27-May-2023 SAID31 WAOC 271600 METAR WAOC 271600Z AUTO VRB01G01KT 28/25 Q1010=
27-May-2023 SAID31 WAOC 271630 METAR WAOC 271630Z AUTO VRB02G01KT 160V250 27/25 Q1010=
27-May-2023 SAID31 WAOC 271700 METAR WAOC 271700Z AUTO VRB01G01KT 170V270 27/25 Q1010=
27-May-2023 SAID31 WAOC 271730 METAR WAOC 271730Z AUTO VRB02G02KT 110V240 27/25 Q1010=
27-May-2023 SAID31 WAOC 271800 METAR WAOC 271800Z AUTO VRB01G01KT 140V220 27/25 Q1009=
27-May-2023 SAID31 WAOC 271830 METAR WAOC 271830Z AUTO VRB01G01KT 27/25 Q1009=
27-May-2023 SAID31 WAOC 271900 METAR WAOC 271900Z AUTO VRB01G01KT 160V250 27/25 Q1009=
27-May-2023 SAID31 WAOC 271930 METAR WAOC 271930Z AUTO VRB01G01KT 26/25 Q1009=
27-May-2023 SAID31 WAOC 272000 METAR WAOC 272000Z AUTO VRB01G01KT 190V280 26/25 Q1009=
27-May-2023 SAID31 WAOC 272030 METAR WAOC 272030Z AUTO VRB01G01KT 210V280 26/25 Q1009=
27-May-2023 SAID31 WAOC 272100 METAR WAOC 272100Z AUTO VRB01G01KT 210V290 26/25 Q1009=
27-May-2023 SAID31 WAOC 272130 METAR WAOC 272130Z AUTO VRB01G01KT 210V300 26/25 Q1010=
27-May-2023 SAID31 WAOC 272200 METAR WAOC 272200Z AUTO VRB01G01KT 26/25 Q1010=
27-May-2023 SAID31 WAOC 272230 METAR WAOC 272230Z AUTO VRB01G01KT 27/25 Q1010=
27-May-2023 SAID31 WAOC 272300 METAR WAOC 272300Z AUTO VRB01G01KT 160V250 28/25 Q1010=
27-May-2023 SAID31 WAOC 272330 METAR WAOC 272330Z AUTO VRB01G01KT 200V270 28/25 Q1010=
28-May-2023 SAID31 WAOC 280000 METAR WAOC 280000Z AUTO VRB01G01KT 110V200 29/25 Q1011=
28-May-2023 SAID31 WAOC 280030 METAR WAOC 280030Z AUTO VRB03G03KT 120V220 30/25 Q1011=
28-May-2023 SAID31 WAOC 280100 METAR WAOC 280100Z AUTO VRB03G03KT 130V220 30/25 Q1011=
28-May-2023 SAID31 WAOC 280130 METAR WAOC 280130Z AUTO 12004G04KT 090V160 30/25 Q1011=
28-May-2023 SAID31 WAOC 280200 METAR WAOC 280200Z AUTO 17007G07KT 110V210 31/23 Q1010=
28-May-2023 SAID31 WAOC 280230 METAR WAOC 280230Z AUTO VRB02G03KT 080V220 31/24 Q1010=
28-May-2023 SAID31 WAOC 280300 METAR WAOC 280300Z AUTO VRB03G03KT 28/25 Q1010=
28-May-2023 SAID31 WAOC 280330 METAR WAOC 280330Z AUTO VRB02G02KT 30/26 Q1009=
28-May-2023 SAID31 WAOC 280400 METAR WAOC 280400Z AUTO 11006G06KT 31/25 Q1009=
28-May-2023 SAID31 WAOC 280430 METAR WAOC 280430Z AUTO VRB03G03KT 30/24 Q1009=
28-May-2023 SAID31 WAOC 280500 METAR WAOC 280500Z AUTO VRB03G03KT 110V180 27/25 Q1008=
28-May-2023 SAID31 WAOC 280530 METAR WAOC 280530Z AUTO VRB03G03KT 090V160 29/25 Q1008=
28-May-2023 SAID31 WAOC 280600 METAR WAOC 280600Z AUTO VRB03G03KT 080V170 30/25 Q1007=
28-May-2023 SAID31 WAOC 280630 METAR WAOC 280630Z AUTO VRB02G02KT 090V190 30/25 Q1007=
28-May-2023 SAID31 WAOC 280700 METAR WAOC 280700Z AUTO VRB03G03KT 30/24 Q1006=
28-May-2023 SAID31 WAOC 280730 METAR WAOC 280730Z AUTO 12005G05KT 31/23 Q1006=
28-May-2023 SAID31 WAOC 280800 METAR WAOC 280800Z AUTO 13004G04KT 31/24 Q1006=
28-May-2023 SAID31 WAOC 280830 METAR WAOC 280830Z AUTO VRB03G03KT 30/24 Q1006=
28-May-2023 SAID31 WAOC 280900 METAR WAOC 280900Z AUTO 12004G04KT 30/24 Q1006=
28-May-2023 SAID31 WAOC 280930 METAR WAOC 280930Z AUTO VRB02G02KT 110V190 29/24 Q1007=
28-May-2023 SAID31 WAOC 281000 METAR WAOC 281000Z AUTO VRB03G03KT 29/24 Q1007=
28-May-2023 SAID31 WAOC 281030 METAR WAOC 281030Z AUTO VRB02G02KT 110V180 29/24 Q1007=
28-May-2023 SAID31 WAOC 281100 METAR WAOC 281100Z AUTO VRB01G01KT 28/24 Q1008=
28-May-2023 SAID31 WAOC 281130 METAR WAOC 281130Z AUTO VRB02G02KT 28/25 Q1008=
28-May-2023 SAID31 WAOC 281200 METAR WAOC 281200Z AUTO VRB01G01KT 28/24 Q1009=
28-May-2023 SAID31 WAOC 281230 METAR WAOC 281230Z AUTO VRB01G01KT 160V240 28/24 Q1009=
28-May-2023 SAID31 WAOC 281300 METAR WAOC 281300Z AUTO VRB02G02KT 100V220 28/24 Q1009=
28-May-2023 SAID31 WAOC 281330 METAR WAOC 281330Z AUTO VRB02G02KT 110V210 28/24 Q1010=
28-May-2023 SAID31 WAOC 281400 METAR WAOC 281400Z AUTO VRB02G02KT 090V210 28/24 Q1010=
28-May-2023 SAID31 WAOC 281430 METAR WAOC 281430Z AUTO VRB02G02KT 100V180 28/24 Q1009=
28-May-2023 SAID31 WAOC 281500 METAR WAOC 281500Z AUTO 00000G00KT 140V220 27/24 Q1010=
28-May-2023 SAID31 WAOC 281530 METAR WAOC 281530Z AUTO VRB02G02KT 100V170 27/24 Q1009=
28-May-2023 SAID31 WAOC 281600 METAR WAOC 281600Z AUTO VRB01G01KT 060V170 27/24 Q1009=
28-May-2023 SAID31 WAOC 281630 METAR WAOC 281630Z AUTO VRB01G01KT 27/24 Q1009=
28-May-2023 SAID31 WAOC 281700 METAR WAOC 281700Z AUTO VRB01G01KT 200V280 27/24 Q1009=
28-May-2023 SAID31 WAOC 281730 METAR WAOC 281730Z AUTO VRB02G02KT 26/24 Q1009=
28-May-2023 SAID31 WAOC 281800 METAR WAOC 281800Z AUTO VRB03G03KT 060V150 27/24 Q1009=
28-May-2023 SAID31 WAOC 281830 METAR WAOC 281830Z AUTO VRB01G01KT 26/24 Q1009=
28-May-2023 SAID31 WAOC 281900 METAR WAOC 281900Z AUTO VRB01G00KT 080V160 26/24 Q1009=
28-May-2023 SAID31 WAOC 281930 METAR WAOC 281930Z AUTO 00000G00KT 140V250 26/24 Q1009=
28-May-2023 SAID31 WAOC 282000 METAR WAOC 282000Z AUTO VRB01G01KT 25/24 Q1009=
28-May-2023 SAID31 WAOC 282030 METAR WAOC 282030Z AUTO VRB01G01KT 25/24 Q1009=
28-May-2023 SAID31 WAOC 282100 METAR WAOC 282100Z AUTO VRB02G02KT 25/24 Q1009=
28-May-2023 SAID31 WAOC 282130 METAR WAOC 282130Z AUTO VRB01G01KT 25/24 Q1010=
28-May-2023 SAID31 WAOC 282200 METAR WAOC 282200Z AUTO VRB02G02KT 25/24 Q1010=
28-May-2023 SAID31 WAOC 282230 METAR WAOC 282230Z AUTO VRB01G01KT 25/24 Q1010=
28-May-2023 SAID31 WAOC 282300 METAR WAOC 282300Z AUTO VRB02G02KT 25/24 Q1010=
28-May-2023 SAID31 WAOC 282330 METAR WAOC 282330Z AUTO VRB01G01KT 180V280 27/25 Q1010=
29-May-2023 SAID31 WAOC 290000 METAR WAOC 290000Z AUTO VRB01G01KT 100V200 29/24 Q1011=
29-May-2023 SAID31 WAOC 290030 METAR WAOC 290030Z AUTO VRB02G02KT 120V230 29/24 Q1011=
29-May-2023 SAID31 WAOC 290100 METAR WAOC 290100Z AUTO VRB02G01KT 150V260 30/25 Q1011=
29-May-2023 SAID31 WAOC 290130 METAR WAOC 290130Z AUTO VRB03G03KT 090V190 30/25 Q1011=
29-May-2023 SAID31 WAOC 290200 METAR WAOC 290200Z AUTO VRB01G01KT 110V220 31/25 Q1011=
29-May-2023 SAID31 WAOC 290230 METAR WAOC 290230Z AUTO VRB02G02KT 31/24 Q1011=
29-May-2023 SAID31 WAOC 290300 METAR WAOC 290300Z AUTO VRB03G03KT 070V250 32/23 Q1010=
29-May-2023 SAID31 WAOC 290330 METAR WAOC 290330Z AUTO VRB03G02KT 32/23 Q1010=
29-May-2023 SAID31 WAOC 290400 METAR WAOC 290400Z AUTO VRB03G03KT 090V180 32/24 Q1009=
29-May-2023 SAID31 WAOC 290430 METAR WAOC 290430Z AUTO VRB03G03KT 090V230 32/24 Q1009=
29-May-2023 SAID31 WAOC 290500 METAR WAOC 290500Z AUTO 14004G04KT 110V200 32/24 Q1009=
29-May-2023 SAID31 WAOC 290530 METAR WAOC 290530Z AUTO 18005G05KT 130V210 31/24 Q1008=
29-May-2023 SAID31 WAOC 290600 METAR WAOC 290600Z AUTO VRB02G02KT 110V190 31/25 Q1008=
29-May-2023 SAID31 WAOC 290630 METAR WAOC 290630Z AUTO VRB03G03KT 100V200 31/24 Q1007=
29-May-2023 SAID31 WAOC 290700 METAR WAOC 290700Z AUTO VRB02G02KT 090V170 30/25 Q1007=
29-May-2023 SAID31 WAOC 290730 METAR WAOC 290730Z AUTO VRB03G03KT 30/25 Q1007=
29-May-2023 SAID31 WAOC 290800 METAR WAOC 290800Z AUTO VRB02G02KT 30/25 Q1007=
29-May-2023 SAID31 WAOC 290830 METAR WAOC 290830Z AUTO VRB02G02KT 120V220 30/25 Q1007=
29-May-2023 SAID31 WAOC 290900 METAR WAOC 290900Z AUTO 16004G03KT 30/25 Q1007=
29-May-2023 SAID31 WAOC 290930 METAR WAOC 290930Z AUTO VRB02G02KT 100V170 30/25 Q1008=
29-May-2023 SAID31 WAOC 291000 METAR WAOC 291000Z AUTO VRB03G03KT 110V190 38/35 Q1008=
29-May-2023 SAID31 WAOC 291030 METAR WAOC 291030Z AUTO VRB02G02KT 110V190 38/35 Q1008=
29-May-2023 SAID31 WAOC 291100 METAR WAOC 291100Z AUTO VRB02G02KT 110V200 31/28 Q1009=
29-May-2023 SAID31 WAOC 291130 METAR WAOC 291130Z AUTO VRB02G02KT 120V190 30/26 Q1010=
29-May-2023 SAID31 WAOC 291200 METAR WAOC 291200Z AUTO VRB02G02KT 110V190 32/29 Q1010=
29-May-2023 SAID31 WAOC 291230 METAR WAOC 291230Z AUTO VRB03G03KT 090V230 29/26 Q1010=
29-May-2023 SAID31 WAOC 291300 METAR WAOC 291300Z AUTO VRB02G02KT 110V210 29/25 Q1010=
29-May-2023 SAID31 WAOC 291330 METAR WAOC 291330Z AUTO VRB01G01KT 150V230 32/29 Q1010=
29-May-2023 SAID31 WAOC 291400 METAR WAOC 291400Z AUTO 00000G00KT 110V250 31/29 Q1011=
29-May-2023 SAID31 WAOC 291430 METAR WAOC 291430Z AUTO VRB01G01KT 180V250 32/30 Q1011=
29-May-2023 SAID31 WAOC 291500 METAR WAOC 291500Z AUTO 00000G00KT 29/27 Q1011=
29-May-2023 SAID31 WAOC 291530 METAR WAOC 291530Z AUTO 00000G00KT 260V000 31/30 Q1011=
29-May-2023 SAID31 WAOC 291600 METAR WAOC 291600Z AUTO 00000G00KT 30/29 Q1011=
29-May-2023 SAID31 WAOC 291630 METAR WAOC 291630Z AUTO VRB01G01KT 28/27 Q1011=
29-May-2023 SAID31 WAOC 291700 METAR WAOC 291700Z AUTO VRB01G01KT 28/27 Q1010=
29-May-2023 SAID31 WAOC 291730 METAR WAOC 291730Z AUTO VRB01G01KT 28/27 Q1010=
29-May-2023 SAID31 WAOC 291800 METAR WAOC 291800Z AUTO VRB01G01KT 27/26 Q1010=
29-May-2023 SAID31 WAOC 291830 METAR WAOC 291830Z AUTO VRB02G02KT 27/26 Q1009=
29-May-2023 SAID31 WAOC 291900 METAR WAOC 291900Z AUTO VRB01G01KT 260V340 27/26 Q1009=
29-May-2023 SAID31 WAOC 291930 METAR WAOC 291930Z AUTO VRB02G02KT 27/26 Q1010=
29-May-2023 SAID31 WAOC 292000 METAR WAOC 292000Z AUTO VRB01G01KT 26/26 Q1010=
29-May-2023 SAID31 WAOC 292030 METAR WAOC 292030Z AUTO VRB01G01KT 220V290 26/26 Q1010=
29-May-2023 SAID31 WAOC 292100 METAR WAOC 292100Z AUTO VRB02G02KT 26/26 Q1010=
29-May-2023 SAID31 WAOC 292130 METAR WAOC 292130Z AUTO VRB01G01KT 230V300 26/26 Q1010=
29-May-2023 SAID31 WAOC 292200 METAR WAOC 292200Z AUTO 00000G00KT 220V030 26/26 Q1010=
29-May-2023 SAID31 WAOC 292230 METAR WAOC 292230Z AUTO VRB01G01KT 27/26 Q1011=
29-May-2023 SAID31 WAOC 292300 METAR WAOC 292300Z AUTO VRB01G01KT 27/27 Q1011=
29-May-2023 SAID31 WAOC 292330 METAR WAOC 292330Z AUTO VRB02G02KT 28/27 Q1011=
30-May-2023 SAID31 WAOC 300000 METAR WAOC 300000Z AUTO VRB02G02KT 28/26 Q1012=
30-May-2023 SAID31 WAOC 300030 METAR WAOC 300030Z AUTO VRB03G03KT 29/26 Q1012=
30-May-2023 SAID31 WAOC 300100 METAR WAOC 300100Z AUTO VRB03G03KT 100V280 30/25 Q1012=
30-May-2023 SAID31 WAOC 300130 METAR WAOC 300130Z AUTO VRB03G03KT 090V170 30/25 Q1012=
30-May-2023 SAID31 WAOC 300200 METAR WAOC 300200Z AUTO VRB03G03KT 120V250 30/25 Q1011=
30-May-2023 SAID31 WAOC 300230 METAR WAOC 300230Z AUTO VRB03G03KT 31/25 Q1011=
30-May-2023 SAID31 WAOC 300300 METAR WAOC 300300Z AUTO VRB01G01KT 130V290 32/25 Q1011=
30-May-2023 SAID31 WAOC 300330 METAR WAOC 300330Z AUTO VRB02G02KT 120V220 31/24 Q1011=
30-May-2023 SAID31 WAOC 300400 METAR WAOC 300400Z AUTO VRB03G03KT 150V230 33/24 Q1010=
30-May-2023 SAID31 WAOC 300430 METAR WAOC 300430Z AUTO VRB03G03KT 080V200 33/24 Q1010=
30-May-2023 SAID31 WAOC 300500 METAR WAOC 300500Z AUTO VRB03G03KT 130V220 33/24 Q1009=
30-May-2023 SAID31 WAOC 300530 METAR WAOC 300530Z AUTO VRB01G01KT 100V260 32/24 Q1009=
30-May-2023 SAID31 WAOC 300600 METAR WAOC 300600Z AUTO 14004G04KT 130V210 33/24 Q1008=
30-May-2023 SAID31 WAOC 300630 METAR WAOC 300630Z AUTO VRB02G02KT 110V200 32/23 Q1008=
30-May-2023 SAID31 WAOC 300700 METAR WAOC 300700Z AUTO 15004G04KT 130V210 32/23 Q1008=
30-May-2023 SAID31 WAOC 300730 METAR WAOC 300730Z AUTO VRB02G02KT 31/24 Q1007=
30-May-2023 SAID31 WAOC 300800 METAR WAOC 300800Z AUTO VRB02G02KT 31/23 Q1007=
30-May-2023 SAID31 WAOC 300830 METAR WAOC 300830Z AUTO VRB03G03KT 090V180 31/22 Q1007=
30-May-2023 SAID31 WAOC 300900 METAR WAOC 300900Z AUTO 13004G04KT 31/22 Q1007=
30-May-2023 SAID31 WAOC 300930 METAR WAOC 300930Z AUTO VRB03G03KT 090V160 32/24 Q1008=
30-May-2023 SAID31 WAOC 301000 METAR WAOC 301000Z AUTO VRB03G03KT 100V170 30/23 Q1008=
30-May-2023 SAID31 WAOC 301030 METAR WAOC 301030Z AUTO VRB02G02KT 29/24 Q1009=
30-May-2023 SAID31 WAOC 301100 METAR WAOC 301100Z AUTO VRB02G02KT 100V190 29/25 Q1009=
30-May-2023 SAID31 WAOC 301130 METAR WAOC 301130Z AUTO VRB01G01KT 29/25 Q1009=
30-May-2023 SAID31 WAOC 301200 METAR WAOC 301200Z AUTO VRB02G02KT 080V150 29/25 Q1010=
30-May-2023 SAID31 WAOC 301230 METAR WAOC 301230Z AUTO VRB02G02KT 140V230 29/25 Q1010=
30-May-2023 SAID31 WAOC 301300 METAR WAOC 301300Z AUTO VRB01G01KT 29/26 Q1010=
30-May-2023 SAID31 WAOC 301330 METAR WAOC 301330Z AUTO VRB01G00KT 120V240 29/26 Q1010=
30-May-2023 SAID31 WAOC 301400 METAR WAOC 301400Z AUTO VRB02G02KT 28/26 Q1011=
30-May-2023 SAID31 WAOC 301430 METAR WAOC 301430Z AUTO VRB02G02KT 28/26 Q1010=
30-May-2023 SAID31 WAOC 301500 METAR WAOC 301500Z AUTO VRB01G01KT 28/26 Q1010=
30-May-2023 SAID31 WAOC 301530 METAR WAOC 301530Z AUTO VRB01G01KT 250V350 28/26 Q1010=
30-May-2023 SAID31 WAOC 301600 METAR WAOC 301600Z AUTO VRB01G01KT 27/26 Q1010=
30-May-2023 SAID31 WAOC 301630 METAR WAOC 301630Z AUTO VRB01G01KT 27/26 Q1010=
30-May-2023 SAID31 WAOC 301700 METAR WAOC 301700Z AUTO VRB02G02KT 27/26 Q1010=
30-May-2023 SAID31 WAOC 301730 METAR WAOC 301730Z AUTO VRB01G01KT 27/26 Q1010=
30-May-2023 SAID31 WAOC 301800 METAR WAOC 301800Z AUTO VRB02G02KT 27/26 Q1010=
30-May-2023 SAID31 WAOC 301830 METAR WAOC 301830Z AUTO VRB02G02KT 27/26 Q1010=
30-May-2023 SAID31 WAOC 301900 METAR WAOC 301900Z AUTO VRB02G02KT 27/26 Q1010=
30-May-2023 SAID31 WAOC 301930 METAR WAOC 301930Z AUTO VRB03G03KT 27/26 Q1009=
30-May-2023 SAID31 WAOC 302000 METAR WAOC 302000Z AUTO VRB01G01KT 170V350 27/26 Q1009=
30-May-2023 SAID31 WAOC 302030 METAR WAOC 302030Z AUTO VRB02G02KT 27/26 Q1009=
30-May-2023 SAID31 WAOC 302100 METAR WAOC 302100Z AUTO VRB02G02KT 26/26 Q1010=
30-May-2023 SAID31 WAOC 302130 METAR WAOC 302130Z AUTO VRB02G02KT 26/25 Q1010=
30-May-2023 SAID31 WAOC 302200 METAR WAOC 302200Z AUTO VRB02G02KT 26/25 Q1010=
30-May-2023 SAID31 WAOC 302230 METAR WAOC 302230Z AUTO VRB01G01KT 26/25 Q1011=
30-May-2023 SAID31 WAOC 302300 METAR WAOC 302300Z AUTO VRB01G01KT 230V310 26/25 Q1011=
30-May-2023 SAID31 WAOC 302330 METAR WAOC 302330Z AUTO VRB02G02KT 230V300 26/25 Q1011=
31-May-2023 SAID31 WAOC 310000 METAR WAOC 310000Z AUTO VRB02G02KT 27/25 Q1012=
31-May-2023 SAID31 WAOC 310030 METAR WAOC 310030Z AUTO VRB02G02KT 250V320 28/25 Q1012=
31-May-2023 SAID31 WAOC 310100 METAR WAOC 310100Z AUTO VRB01G01KT 180V260 29/26 Q1012=
31-May-2023 SAID31 WAOC 310130 METAR WAOC 310130Z AUTO 00000G00KT 120V240 30/26 Q1012=
31-May-2023 SAID31 WAOC 310200 METAR WAOC 310200Z AUTO VRB02G02KT 120V210 31/25 Q1011=
31-May-2023 SAID31 WAOC 310230 METAR WAOC 310230Z AUTO VRB02G02KT 100V190 31/24 Q1011=
31-May-2023 SAID31 WAOC 310300 METAR WAOC 310300Z AUTO VRB02G02KT 080V210 32/25 Q1011=
31-May-2023 SAID31 WAOC 310330 METAR WAOC 310330Z AUTO 12004G04KT 100V180 32/25 Q1010=
31-May-2023 SAID31 WAOC 310400 METAR WAOC 310400Z AUTO VRB01G01KT 120V230 32/24 Q1010=
31-May-2023 SAID31 WAOC 310430 METAR WAOC 310430Z AUTO VRB03G03KT 33/25 Q1009=
31-May-2023 SAID31 WAOC 310500 METAR WAOC 310500Z AUTO 21004G04KT 150V230 32/25 Q1009=
31-May-2023 SAID31 WAOC 310530 METAR WAOC 310530Z AUTO 22004G04KT 33/26 Q1008=
31-May-2023 SAID31 WAOC 310600 METAR WAOC 310600Z AUTO VRB03G03KT 140V220 31/25 Q1008=
31-May-2023 SAID31 WAOC 310630 METAR WAOC 310630Z AUTO 16005G05KT 130V210 31/25 Q1008=
31-May-2023 SAID31 WAOC 310700 METAR WAOC 310700Z AUTO 12004G04KT 31/29 Q1007=
31-May-2023 SAID31 WAOC 310730 METAR WAOC 310730Z AUTO VRB02G02KT 32/29 Q1007=
31-May-2023 SAID31 WAOC 310800 METAR WAOC 310800Z AUTO VRB03G03KT 29/25 Q1007=
31-May-2023 SAID31 WAOC 310830 METAR WAOC 310830Z AUTO VRB02G02KT 30/26 Q1007=
31-May-2023 SAID31 WAOC 310900 METAR WAOC 310900Z AUTO VRB02G02KT 30/25 Q1007=
31-May-2023 SAID31 WAOC 310930 METAR WAOC 310930Z AUTO 12004G04KT 30/25 Q1007=
31-May-2023 SAID31 WAOC 311000 METAR WAOC 311000Z AUTO VRB02G02KT 090V160 30/25 Q1008=
31-May-2023 SAID31 WAOC 311030 METAR WAOC 311030Z AUTO VRB02G02KT 29/25 Q1008=
31-May-2023 SAID31 WAOC 311100 METAR WAOC 311100Z AUTO VRB02G02KT 120V200 29/25 Q1009=
31-May-2023 SAID31 WAOC 311130 METAR WAOC 311130Z AUTO VRB02G02KT 110V180 29/25 Q1009=
31-May-2023 SAID31 WAOC 311200 METAR WAOC 311200Z AUTO VRB02G02KT 29/26 Q1009=
31-May-2023 SAID31 WAOC 311230 METAR WAOC 311230Z AUTO VRB01G01KT 30/27 Q1010=
31-May-2023 SAID31 WAOC 311300 METAR WAOC 311300Z AUTO VRB01G01KT 060V200 30/27 Q1010=
31-May-2023 SAID31 WAOC 311330 METAR WAOC 311330Z AUTO VRB01G01KT 30/28 Q1010=
31-May-2023 SAID31 WAOC 311400 METAR WAOC 311400Z AUTO VRB02G02KT 29/27 Q1010=
31-May-2023 SAID31 WAOC 311430 METAR WAOC 311430Z AUTO VRB01G01KT 28/27 Q1010=
31-May-2023 SAID31 WAOC 311500 METAR WAOC 311500Z AUTO VRB01G01KT 28/27 Q1010=
31-May-2023 SAID31 WAOC 311530 METAR WAOC 311530Z AUTO VRB01G01KT 29/28 Q1010=
31-May-2023 SAID31 WAOC 311600 METAR WAOC 311600Z AUTO VRB01G01KT 220V290 30/29 Q1010=
31-May-2023 SAID31 WAOC 311630 METAR WAOC 311630Z AUTO VRB01G01KT 210V280 30/30 Q1010=
31-May-2023 SAID31 WAOC 311700 METAR WAOC 311700Z AUTO VRB01G01KT 32/31 Q1010=
31-May-2023 SAID31 WAOC 311730 METAR WAOC 311730Z AUTO VRB01G01KT 34/34 Q1010=
31-May-2023 SAID31 WAOC 311800 METAR WAOC 311800Z AUTO VRB02G02KT 31/31 Q1009=
31-May-2023 SAID31 WAOC 311830 METAR WAOC 311830Z AUTO VRB01G01KT 29/28 Q1010=
31-May-2023 SAID31 WAOC 311900 METAR WAOC 311900Z AUTO VRB03G03KT 28/28 Q1010=
31-May-2023 SAID31 WAOC 311930 METAR WAOC 311930Z AUTO VRB02G02KT 28/27 Q1009=
31-May-2023 SAID31 WAOC 312000 METAR WAOC 312000Z AUTO VRB02G01KT 28/28 Q1009=
31-May-2023 SAID31 WAOC 312030 METAR WAOC 312030Z AUTO VRB02G02KT 28/27 Q1009=
31-May-2023 SAID31 WAOC 312100 METAR WAOC 312100Z AUTO VRB03G03KT 28/28 Q1010=
31-May-2023 SAID31 WAOC 312130 METAR WAOC 312130Z AUTO VRB03G03KT 28/27 Q1010=
31-May-2023 SAID31 WAOC 312200 METAR WAOC 312200Z AUTO VRB03G03KT 26/25 Q1010=
31-May-2023 SAID31 WAOC 312230 METAR WAOC 312230Z AUTO VRB02G02KT 26/25 Q1010=
31-May-2023 SAID31 WAOC 312300 METAR WAOC 312300Z AUTO VRB01G01KT 230V300 27/26 Q1011=
31-May-2023 SAID31 WAOC 312330 METAR WAOC 312330Z AUTO VRB02G02KT 190V310 27/26 Q1011=
01-Jun-2023 SAID31 WAOC 010000 METAR WAOC 010000Z AUTO VRB01G02KT 260V330 29/26 Q1011=
01-Jun-2023 SAID31 WAOC 010030 METAR WAOC 010030Z AUTO VRB02G02KT 110V280 30/27 Q1011=
01-Jun-2023 SAID31 WAOC 010100 METAR WAOC 010100Z AUTO VRB03G03KT 140V230 31/27 Q1011=
01-Jun-2023 SAID31 WAOC 010130 METAR WAOC 010130Z AUTO VRB03G03KT 140V210 32/28 Q1011=
01-Jun-2023 SAID31 WAOC 010200 METAR WAOC 010200Z AUTO VRB02G02KT 090V200 32/27 Q1011=
01-Jun-2023 SAID31 WAOC 010230 METAR WAOC 010230Z AUTO VRB02G02KT 090V200 33/27 Q1011=
01-Jun-2023 SAID31 WAOC 010300 METAR WAOC 010300Z AUTO VRB03G03KT 33/26 Q1010=
01-Jun-2023 SAID31 WAOC 010330 METAR WAOC 010330Z AUTO VRB02G02KT 130V230 33/26 Q1010=
01-Jun-2023 SAID31 WAOC 010400 METAR WAOC 010400Z AUTO VRB01G01KT 110V230 34/26 Q1009=
01-Jun-2023 SAID31 WAOC 010430 METAR WAOC 010430Z AUTO VRB02G02KT 090V210 34/27 Q1009=
01-Jun-2023 SAID31 WAOC 010500 METAR WAOC 010500Z AUTO 12004G04KT 090V170 34/27 Q1008=
01-Jun-2023 SAID31 WAOC 010530 METAR WAOC 010530Z AUTO 17004G04KT 090V200 35/26 Q1008=
01-Jun-2023 SAID31 WAOC 010600 METAR WAOC 010600Z AUTO 15005G05KT 090V190 33/26 Q1008=
01-Jun-2023 SAID31 WAOC 010630 METAR WAOC 010630Z AUTO VRB03G03KT 110V180 33/26 Q1007=
01-Jun-2023 SAID31 WAOC 010700 METAR WAOC 010700Z AUTO VRB02G02KT 150V220 32/26 Q1007=
01-Jun-2023 SAID31 WAOC 010730 METAR WAOC 010730Z AUTO VRB02G02KT 140V210 30/26 Q1007=
01-Jun-2023 SAID31 WAOC 010800 METAR WAOC 010800Z AUTO VRB01G01KT 170V260 31/26 Q1007=
01-Jun-2023 SAID31 WAOC 010830 METAR WAOC 010830Z AUTO VRB01G01KT 140V240 31/26 Q1007=
01-Jun-2023 SAID31 WAOC 010900 METAR WAOC 010900Z AUTO VRB01G01KT 120V220 32/26 Q1007=
01-Jun-2023 SAID31 WAOC 010930 METAR WAOC 010930Z AUTO VRB02G02KT 110V230 32/26 Q1007=
01-Jun-2023 SAID31 WAOC 011000 METAR WAOC 011000Z AUTO VRB02G02KT 31/26 Q1007=
01-Jun-2023 SAID31 WAOC 011030 METAR WAOC 011030Z AUTO VRB02G02KT 31/26 Q1008=
01-Jun-2023 SAID31 WAOC 011100 METAR WAOC 011100Z AUTO VRB03G03KT 31/27 Q1008=
01-Jun-2023 SAID31 WAOC 011130 METAR WAOC 011130Z AUTO VRB02G02KT 110V190 31/28 Q1009=
01-Jun-2023 SAID31 WAOC 011200 METAR WAOC 011200Z AUTO VRB01G01KT 140V210 31/29 Q1009=
01-Jun-2023 SAID31 WAOC 011230 METAR WAOC 011230Z AUTO VRB01G01KT 120V230 33/31 Q1009=
01-Jun-2023 SAID31 WAOC 011300 METAR WAOC 011300Z AUTO VRB01G01KT 33/32 Q1010=
01-Jun-2023 SAID31 WAOC 011330 METAR WAOC 011330Z AUTO VRB01G01KT 33/31 Q1010=
01-Jun-2023 SAID31 WAOC 011400 METAR WAOC 011400Z AUTO 00000G00KT 32/31 Q1010=
01-Jun-2023 SAID31 WAOC 011430 METAR WAOC 011430Z AUTO VRB01G01KT 34/34 Q1011=
01-Jun-2023 SAID31 WAOC 011500 METAR WAOC 011500Z AUTO VRB02G02KT 32/31 Q1010=
01-Jun-2023 SAID31 WAOC 011530 METAR WAOC 011530Z AUTO VRB01G01KT 31/30 Q1011=
01-Jun-2023 SAID31 WAOC 011600 METAR WAOC 011600Z AUTO VRB01G01KT 31/30 Q1010=
01-Jun-2023 SAID31 WAOC 011630 METAR WAOC 011630Z AUTO 00000G00KT 150V010 30/29 Q1010=
01-Jun-2023 SAID31 WAOC 011700 METAR WAOC 011700Z AUTO VRB01G01KT 30/29 Q1010=
01-Jun-2023 SAID31 WAOC 011730 METAR WAOC 011730Z AUTO VRB01G01KT 31/30 Q1010=
01-Jun-2023 SAID31 WAOC 011800 METAR WAOC 011800Z AUTO VRB02G02KT 29/28 Q1010=
01-Jun-2023 SAID31 WAOC 011830 METAR WAOC 011830Z AUTO VRB01G01KT 220V290 28/28 Q1009=
01-Jun-2023 SAID31 WAOC 011900 METAR WAOC 011900Z AUTO VRB02G02KT 28/28 Q1009=
01-Jun-2023 SAID31 WAOC 011930 METAR WAOC 011930Z AUTO VRB02G02KT 28/27 Q1009=
01-Jun-2023 SAID31 WAOC 012000 METAR WAOC 012000Z AUTO VRB01G01KT 27/27 Q1009=
01-Jun-2023 SAID31 WAOC 012030 METAR WAOC 012030Z AUTO VRB01G02KT 27/26 Q1009=
01-Jun-2023 SAID31 WAOC 012100 METAR WAOC 012100Z AUTO VRB02G02KT 27/26 Q1010=
01-Jun-2023 SAID31 WAOC 012130 METAR WAOC 012130Z AUTO VRB01G02KT 27/26 Q1010=
01-Jun-2023 SAID31 WAOC 012200 METAR WAOC 012200Z AUTO VRB02G02KT 27/26 Q1010=
01-Jun-2023 SAID31 WAOC 012230 METAR WAOC 012230Z AUTO VRB02G02KT 27/27 Q1010=
01-Jun-2023 SAID31 WAOC 012300 METAR WAOC 012300Z AUTO VRB02G02KT 31/31 Q1010=
01-Jun-2023 SAID31 WAOC 012330 METAR WAOC 012330Z AUTO VRB02G02KT 34/34 Q1011=
02-Jun-2023 SAID31 WAOC 020000 METAR WAOC 020000Z AUTO VRB02G02KT 35/35 Q1011=
02-Jun-2023 SAID31 WAOC 020030 METAR WAOC 020030Z AUTO VRB01G01KT 270V340 33/31 Q1011=
02-Jun-2023 SAID31 WAOC 020100 METAR WAOC 020100Z AUTO VRB03G03KT 120V190 30/27 Q1011=
02-Jun-2023 SAID31 WAOC 020130 METAR WAOC 020130Z AUTO VRB01G01KT 130V210 32/27 Q1011=
02-Jun-2023 SAID31 WAOC 020200 METAR WAOC 020200Z AUTO VRB02G02KT 110V200 32/26 Q1011=
02-Jun-2023 SAID31 WAOC 020230 METAR WAOC 020230Z AUTO VRB03G03KT 110V230 33/26 Q1011=
02-Jun-2023 SAID31 WAOC 020300 METAR WAOC 020300Z AUTO VRB02G02KT 120V260 33/26 Q1010=
02-Jun-2023 SAID31 WAOC 020330 METAR WAOC 020330Z AUTO VRB02G02KT 120V190 33/28 Q1010=
02-Jun-2023 SAID31 WAOC 020400 METAR WAOC 020400Z AUTO VRB03G03KT 27/26 Q1010=
02-Jun-2023 SAID31 WAOC 020430 METAR WAOC 020430Z AUTO VRB02G02KT 060V280 29/24 Q1010=
02-Jun-2023 SAID31 WAOC 020500 METAR WAOC 020500Z AUTO 15005G05KT 120V200 30/25 Q1009=
02-Jun-2023 SAID31 WAOC 020530 METAR WAOC 020530Z AUTO VRB03G03KT 110V220 31/25 Q1009=
02-Jun-2023 SAID31 WAOC 020600 METAR WAOC 020600Z AUTO 16004G04KT 130V220 30/24 Q1008=
02-Jun-2023 SAID31 WAOC 020630 METAR WAOC 020630Z AUTO VRB02G02KT 110V210 30/24 Q1008=
02-Jun-2023 SAID31 WAOC 020700 METAR WAOC 020700Z AUTO VRB03G03KT 110V210 31/24 Q1008=
02-Jun-2023 SAID31 WAOC 020730 METAR WAOC 020730Z AUTO VRB03G03KT 090V280 31/25 Q1008=
02-Jun-2023 SAID31 WAOC 020800 METAR WAOC 020800Z AUTO VRB02G02KT 080V170 31/25 Q1008=
02-Jun-2023 SAID31 WAOC 020830 METAR WAOC 020830Z AUTO VRB02G02KT 120V210 31/25 Q1008=
02-Jun-2023 SAID31 WAOC 020900 METAR WAOC 020900Z AUTO VRB02G02KT 120V220 30/26 Q1008=
02-Jun-2023 SAID31 WAOC 020930 METAR WAOC 020930Z AUTO VRB03G03KT 100V220 30/26 Q1008=
02-Jun-2023 SAID31 WAOC 021000 METAR WAOC 021000Z AUTO VRB03G03KT 30/26 Q1009=
02-Jun-2023 SAID31 WAOC 021030 METAR WAOC 021030Z AUTO VRB02G02KT 29/26 Q1009=
02-Jun-2023 SAID31 WAOC 021100 METAR WAOC 021100Z AUTO VRB01G01KT 29/26 Q1010=
02-Jun-2023 SAID31 WAOC 021130 METAR WAOC 021130Z AUTO VRB02G02KT 130V200 29/26 Q1010=
02-Jun-2023 SAID31 WAOC 021200 METAR WAOC 021200Z AUTO VRB02G02KT 140V220 29/26 Q1010=
02-Jun-2023 SAID31 WAOC 021230 METAR WAOC 021230Z AUTO VRB01G01KT 140V230 29/26 Q1011=
02-Jun-2023 SAID31 WAOC 021300 METAR WAOC 021300Z AUTO VRB01G01KT 210V300 28/26 Q1011=
02-Jun-2023 SAID31 WAOC 021330 METAR WAOC 021330Z AUTO VRB01G01KT 130V200 29/26 Q1011=
02-Jun-2023 SAID31 WAOC 021400 METAR WAOC 021400Z AUTO VRB02G02KT 27/26 Q1011=
02-Jun-2023 SAID31 WAOC 021430 METAR WAOC 021430Z AUTO VRB01G01KT 230V320 27/26 Q1011=
02-Jun-2023 SAID31 WAOC 021500 METAR WAOC 021500Z AUTO VRB01G01KT 27/26 Q1011=
02-Jun-2023 SAID31 WAOC 021530 METAR WAOC 021530Z AUTO VRB02G02KT 120V210 28/26 Q1011=
02-Jun-2023 SAID31 WAOC 021600 METAR WAOC 021600Z AUTO VRB02G02KT 100V190 28/25 Q1011=
02-Jun-2023 SAID31 WAOC 021630 METAR WAOC 021630Z AUTO VRB01G01KT 130V220 28/25 Q1011=
02-Jun-2023 SAID31 WAOC 021700 METAR WAOC 021700Z AUTO VRB02G02KT 190V290 28/25 Q1010=
02-Jun-2023 SAID31 WAOC 021730 METAR WAOC 021730Z AUTO 00000G00KT 27/26 Q1010=
02-Jun-2023 SAID31 WAOC 021800 METAR WAOC 021800Z AUTO VRB01G01KT 28/27 Q1010=
02-Jun-2023 SAID31 WAOC 021830 METAR WAOC 021830Z AUTO VRB03G03KT 28/28 Q1010=
02-Jun-2023 SAID31 WAOC 021900 METAR WAOC 021900Z AUTO VRB01G01KT 30/30 Q1010=
02-Jun-2023 SAID31 WAOC 021930 METAR WAOC 021930Z AUTO VRB01G01KT 30/30 Q1010=
02-Jun-2023 SAID31 WAOC 022000 METAR WAOC 022000Z AUTO VRB02G02KT 29/29 Q1010=
02-Jun-2023 SAID31 WAOC 022030 METAR WAOC 022030Z AUTO VRB02G02KT 29/30 Q1010=
02-Jun-2023 SAID31 WAOC 022100 METAR WAOC 022100Z AUTO VRB02G03KT 29/28 Q1010=
02-Jun-2023 SAID31 WAOC 022130 METAR WAOC 022130Z AUTO VRB03G03KT 29/28 Q1010=
02-Jun-2023 SAID31 WAOC 022230 METAR WAOC 022230Z AUTO VRB01G02KT 27/27 Q1011=
02-Jun-2023 SAID31 WAOC 022300 METAR WAOC 022300Z AUTO VRB01G01KT 26/26 Q1011=
02-Jun-2023 SAID31 WAOC 022330 METAR WAOC 022330Z AUTO VRB02G02KT 26/25 Q1011=
03-Jun-2023 SAID31 WAOC 030000 METAR WAOC 030000Z AUTO VRB02G02KT 27/25 Q1011=
03-Jun-2023 SAID31 WAOC 030030 METAR WAOC 030030Z AUTO VRB02G02KT 27/25 Q1012=
03-Jun-2023 SAID31 WAOC 030100 METAR WAOC 030100Z AUTO VRB02G02KT 200V300 28/25 Q1012=
03-Jun-2023 SAID31 WAOC 030130 METAR WAOC 030130Z AUTO VRB02G01KT 190V310 29/25 Q1012=
03-Jun-2023 SAID31 WAOC 030230 METAR WAOC 030230Z AUTO VRB03G03KT 110V230 30/25 Q1011=
03-Jun-2023 SAID31 WAOC 030300 METAR WAOC 030300Z AUTO VRB02G02KT 150V220 31/24 Q1011=
03-Jun-2023 SAID31 WAOC 030330 METAR WAOC 030330Z AUTO VRB02G02KT 100V190 31/24 Q1011=
03-Jun-2023 SAID31 WAOC 030400 METAR WAOC 030400Z AUTO VRB03G03KT 110V220 32/25 Q1010=
03-Jun-2023 SAID31 WAOC 030430 METAR WAOC 030430Z AUTO 12004G04KT 090V160 31/25 Q1010=
03-Jun-2023 SAID31 WAOC 030500 METAR WAOC 030500Z AUTO 14004G04KT 120V220 31/25 Q1009=
03-Jun-2023 SAID31 WAOC 030530 METAR WAOC 030530Z AUTO VRB03G03KT 30/25 Q1009=
03-Jun-2023 SAID31 WAOC 030600 METAR WAOC 030600Z AUTO 14004G04KT 130V260 32/25 Q1008=
03-Jun-2023 SAID31 WAOC 030630 METAR WAOC 030630Z AUTO VRB02G02KT 130V210 31/25 Q1008=
03-Jun-2023 SAID31 WAOC 030700 METAR WAOC 030700Z AUTO VRB03G03KT 100V210 31/25 Q1008=
03-Jun-2023 SAID31 WAOC 030730 METAR WAOC 030730Z AUTO VRB02G02KT 200V270 30/26 Q1008=
03-Jun-2023 SAID31 WAOC 030800 METAR WAOC 030800Z AUTO 12004G04KT 100V180 31/25 Q1008=
03-Jun-2023 SAID31 WAOC 030830 METAR WAOC 030830Z AUTO VRB02G02KT 110V190 30/25 Q1008=
03-Jun-2023 SAID31 WAOC 030900 METAR WAOC 030900Z AUTO VRB02G02KT 120V210 30/25 Q1008=
03-Jun-2023 SAID31 WAOC 030930 METAR WAOC 030930Z AUTO 13005G05KT 29/25 Q1008=
03-Jun-2023 SAID31 WAOC 031000 METAR WAOC 031000Z AUTO 12004G04KT 30/26 Q1008=
03-Jun-2023 SAID31 WAOC 031030 METAR WAOC 031030Z AUTO VRB02G02KT 100V170 29/25 Q1008=
03-Jun-2023 SAID31 WAOC 031100 METAR WAOC 031100Z AUTO VRB02G02KT 090V180 28/24 Q1009=
03-Jun-2023 SAID31 WAOC 031130 METAR WAOC 031130Z AUTO VRB02G02KT 090V180 28/24 Q1009=
03-Jun-2023 SAID31 WAOC 031200 METAR WAOC 031200Z AUTO VRB01G01KT 110V180 28/25 Q1009=
03-Jun-2023 SAID31 WAOC 031230 METAR WAOC 031230Z AUTO VRB02G02KT 28/25 Q1010=
03-Jun-2023 SAID31 WAOC 031300 METAR WAOC 031300Z AUTO VRB01G01KT 070V160 28/25 Q1010=
03-Jun-2023 SAID31 WAOC 031330 METAR WAOC 031330Z AUTO VRB01G01KT 130V220 29/26 Q1010=
03-Jun-2023 SAID31 WAOC 031400 METAR WAOC 031400Z AUTO VRB01G01KT 28/27 Q1010=
03-Jun-2023 SAID31 WAOC 031430 METAR WAOC 031430Z AUTO VRB01G01KT 30/29 Q1010=
03-Jun-2023 SAID31 WAOC 031500 METAR WAOC 031500Z AUTO VRB02G02KT 34/34 Q1010=
03-Jun-2023 SAID31 WAOC 031530 METAR WAOC 031530Z AUTO VRB01G01KT 36/36 Q1010=
03-Jun-2023 SAID31 WAOC 031600 METAR WAOC 031600Z AUTO VRB01G01KT 33/33 Q1010=
03-Jun-2023 SAID31 WAOC 031630 METAR WAOC 031630Z AUTO VRB02G02KT 32/32 Q1010=
03-Jun-2023 SAID31 WAOC 031700 METAR WAOC 031700Z AUTO VRB02G02KT 34/34 Q1010=
03-Jun-2023 SAID31 WAOC 031730 METAR WAOC 031730Z AUTO VRB03G03KT 35/35 Q1010=
03-Jun-2023 SAID31 WAOC 031800 METAR WAOC 031800Z AUTO VRB01G01KT 31/31 Q1010=
03-Jun-2023 SAID31 WAOC 031830 METAR WAOC 031830Z AUTO VRB02G02KT 30/30 Q1010=
03-Jun-2023 SAID31 WAOC 031900 METAR WAOC 031900Z AUTO VRB02G02KT 29/29 Q1010=
03-Jun-2023 SAID31 WAOC 031930 METAR WAOC 031930Z AUTO VRB02G02KT 29/29 Q1010=
03-Jun-2023 SAID31 WAOC 032000 METAR WAOC 032000Z AUTO VRB01G01KT 30/29 Q1009=
03-Jun-2023 SAID31 WAOC 032030 METAR WAOC 032030Z AUTO 00000G00KT 30/29 Q1009=
03-Jun-2023 SAID31 WAOC 032100 METAR WAOC 032100Z AUTO 00000G00KT 110V240 30/29 Q1009=
03-Jun-2023 SAID31 WAOC 032130 METAR WAOC 032130Z AUTO VRB01G01KT 30/30 Q1009=
03-Jun-2023 SAID31 WAOC 032200 METAR WAOC 032200Z AUTO VRB02G02KT 29/30 Q1010=
03-Jun-2023 SAID31 WAOC 032230 METAR WAOC 032230Z AUTO VRB01G01KT 31/31 Q1010=
03-Jun-2023 SAID31 WAOC 032300 METAR WAOC 032300Z AUTO VRB01G01KT 29/28 Q1010=
03-Jun-2023 SAID31 WAOC 032330 METAR WAOC 032330Z AUTO VRB01G01KT 30/29 Q1011=
04-Jun-2023 SAID31 WAOC 040000 METAR WAOC 040000Z AUTO 00000G00KT 180V340 28/25 Q1011=
04-Jun-2023 SAID31 WAOC 040030 METAR WAOC 040030Z AUTO VRB01G01KT 120V200 29/25 Q1011=
04-Jun-2023 SAID31 WAOC 040100 METAR WAOC 040100Z AUTO VRB01G01KT 30/25 Q1011=
04-Jun-2023 SAID31 WAOC 040130 METAR WAOC 040130Z AUTO 13004G04KT 070V140 30/25 Q1011=
04-Jun-2023 SAID31 WAOC 040200 METAR WAOC 040200Z AUTO VRB01G01KT 30/25 Q1011=
04-Jun-2023 SAID31 WAOC 040230 METAR WAOC 040230Z AUTO VRB02G02KT 090V310 31/25 Q1011=
04-Jun-2023 SAID31 WAOC 040300 METAR WAOC 040300Z AUTO VRB02G02KT 050V190 31/25 Q1010=
04-Jun-2023 SAID31 WAOC 040330 METAR WAOC 040330Z AUTO VRB02G02KT 28/24 Q1010=
04-Jun-2023 SAID31 WAOC 040400 METAR WAOC 040400Z AUTO 12004G04KT 28/25 Q1010=
04-Jun-2023 SAID31 WAOC 040430 METAR WAOC 040430Z AUTO VRB03G03KT 100V180 28/26 Q1010=
04-Jun-2023 SAID31 WAOC 040500 METAR WAOC 040500Z AUTO VRB02G02KT 190V270 25/25 Q1010=
04-Jun-2023 SAID31 WAOC 040530 METAR WAOC 040530Z AUTO 27004G04KT 26/25 Q1009=
04-Jun-2023 SAID31 WAOC 040600 METAR WAOC 040600Z AUTO VRB01G01KT 190V280 26/25 Q1009=
04-Jun-2023 SAID31 WAOC 040630 METAR WAOC 040630Z AUTO VRB03G03KT 170V240 26/24 Q1008=
04-Jun-2023 SAID31 WAOC 040700 METAR WAOC 040700Z AUTO VRB01G01KT 190V280 25/24 Q1008=
04-Jun-2023 SAID31 WAOC 040730 METAR WAOC 040730Z AUTO 00000G00KT 26/24 Q1008=
04-Jun-2023 SAID31 WAOC 040800 METAR WAOC 040800Z AUTO VRB01G01KT 170V260 27/24 Q1007=
04-Jun-2023 SAID31 WAOC 040830 METAR WAOC 040830Z AUTO VRB03G03KT 27/25 Q1007=
04-Jun-2023 SAID31 WAOC 040900 METAR WAOC 040900Z AUTO VRB01G01KT 210V300 27/25 Q1007=
04-Jun-2023 SAID31 WAOC 040930 METAR WAOC 040930Z AUTO VRB01G01KT 190V290 27/24 Q1007=
04-Jun-2023 SAID31 WAOC 041000 METAR WAOC 041000Z AUTO VRB02G02KT 230V300 26/24 Q1008=
04-Jun-2023 SAID31 WAOC 041030 METAR WAOC 041030Z AUTO VRB01G02KT 26/24 Q1008=
04-Jun-2023 SAID31 WAOC 041100 METAR WAOC 041100Z AUTO VRB01G01KT 25/24 Q1008=
04-Jun-2023 SAID31 WAOC 041130 METAR WAOC 041130Z AUTO VRB01G01KT 180V300 25/24 Q1008=
04-Jun-2023 SAID31 WAOC 041200 METAR WAOC 041200Z AUTO VRB01G01KT 25/24 Q1008=
04-Jun-2023 SAID31 WAOC 041230 METAR WAOC 041230Z AUTO VRB02G02KT 25/24 Q1009=
04-Jun-2023 SAID31 WAOC 041300 METAR WAOC 041300Z AUTO VRB02G02KT 25/24 Q1009=
04-Jun-2023 SAID31 WAOC 041330 METAR WAOC 041330Z AUTO VRB01G01KT 25/24 Q1009=
04-Jun-2023 SAID31 WAOC 041400 METAR WAOC 041400Z AUTO VRB01G01KT 240V000 25/24 Q1009=
04-Jun-2023 SAID31 WAOC 041430 METAR WAOC 041430Z AUTO VRB01G01KT 25/24 Q1009=
04-Jun-2023 SAID31 WAOC 041500 METAR WAOC 041500Z AUTO VRB01G01KT 25/24 Q1009=
04-Jun-2023 SAID31 WAOC 041530 METAR WAOC 041530Z AUTO VRB01G02KT 25/24 Q1009=
04-Jun-2023 SAID31 WAOC 041600 METAR WAOC 041600Z AUTO VRB02G02KT 25/24 Q1009=
04-Jun-2023 SAID31 WAOC 041630 METAR WAOC 041630Z AUTO VRB02G02KT 25/24 Q1009=
04-Jun-2023 SAID31 WAOC 041700 METAR WAOC 041700Z AUTO VRB02G02KT 25/24 Q1009=
04-Jun-2023 SAID31 WAOC 041730 METAR WAOC 041730Z AUTO VRB02G02KT 25/24 Q1009=
04-Jun-2023 SAID31 WAOC 041800 METAR WAOC 041800Z AUTO VRB01G01KT 25/24 Q1008=
04-Jun-2023 SAID31 WAOC 041830 METAR WAOC 041830Z AUTO VRB01G01KT 25/24 Q1008=
04-Jun-2023 SAID31 WAOC 041900 METAR WAOC 041900Z AUTO VRB02G02KT 25/24 Q1008=
04-Jun-2023 SAID31 WAOC 041930 METAR WAOC 041930Z AUTO VRB01G01KT 25/24 Q1009=
04-Jun-2023 SAID31 WAOC 042000 METAR WAOC 042000Z AUTO VRB02G02KT 25/24 Q1008=
04-Jun-2023 SAID31 WAOC 042030 METAR WAOC 042030Z AUTO VRB01G01KT 230V300 25/24 Q1009=
04-Jun-2023 SAID31 WAOC 042100 METAR WAOC 042100Z AUTO VRB01G01KT 25/24 Q1009=
04-Jun-2023 SAID31 WAOC 042130 METAR WAOC 042130Z AUTO 00000G01KT 220V310 25/24 Q1009=
04-Jun-2023 SAID31 WAOC 042200 METAR WAOC 042200Z AUTO VRB01G01KT 25/24 Q1009=
04-Jun-2023 SAID31 WAOC 042230 METAR WAOC 042230Z AUTO VRB01G01KT 25/24 Q1010=
04-Jun-2023 SAID31 WAOC 042300 METAR WAOC 042300Z AUTO VRB01G01KT 26/25 Q1010=
04-Jun-2023 SAID31 WAOC 042330 METAR WAOC 042330Z AUTO VRB02G02KT 26/25 Q1010=
05-Jun-2023 SAID31 WAOC 050000 METAR WAOC 050000Z AUTO VRB02G02KT 27/25 Q1010=
05-Jun-2023 SAID31 WAOC 050030 METAR WAOC 050030Z AUTO VRB01G01KT 160V020 27/24 Q1010=
05-Jun-2023 SAID31 WAOC 050100 METAR WAOC 050100Z AUTO VRB01G01KT 27/24 Q1010=
05-Jun-2023 SAID31 WAOC 050130 METAR WAOC 050130Z AUTO VRB01G01KT 170V250 29/24 Q1010=
05-Jun-2023 SAID31 WAOC 050200 METAR WAOC 050200Z AUTO VRB03G03KT 29/25 Q1010=
05-Jun-2023 SAID31 WAOC 050230 METAR WAOC 050230Z AUTO VRB02G02KT 100V250 30/25 Q1010=
05-Jun-2023 SAID31 WAOC 050300 METAR WAOC 050300Z AUTO VRB01G01KT 310V140 31/25 Q1010=
05-Jun-2023 SAID31 WAOC 050330 METAR WAOC 050330Z AUTO VRB01G01KT 140V220 30/25 Q1009=
05-Jun-2023 SAID31 WAOC 050400 METAR WAOC 050400Z AUTO VRB02G02KT 110V210 30/25 Q1009=
05-Jun-2023 SAID31 WAOC 050430 METAR WAOC 050430Z AUTO 15004G04KT 110V210 28/24 Q1009=
05-Jun-2023 SAID31 WAOC 050500 METAR WAOC 050500Z AUTO VRB02G02KT 110V220 27/25 Q1009=
06-Jun-2023 SAID31 WAOC 061300 METAR WAOC 061300Z AUTO VRB03G03KT 32/31 Q1010=
06-Jun-2023 SAID31 WAOC 061330 METAR WAOC 061330Z AUTO 30004G04KT 27/26 Q1010=
07-Jun-2023 SAID31 WAOC 070430 METAR WAOC 070430Z AUTO VRB01G01KT 070V160 31/24 Q1010=
07-Jun-2023 SAID31 WAOC 070500 METAR WAOC 070500Z AUTO VRB02G02KT 080V180 31/24 Q1010=
07-Jun-2023 SAID31 WAOC 070530 METAR WAOC 070530Z AUTO 17004G04KT 32/24 Q1009=
07-Jun-2023 SAID31 WAOC 070600 METAR WAOC 070600Z AUTO VRB02G02KT 110V190 32/24 Q1009=
07-Jun-2023 SAID31 WAOC 070630 METAR WAOC 070630Z AUTO VRB01G01KT 060V230 32/25 Q1008=
07-Jun-2023 SAID31 WAOC 070700 METAR WAOC 070700Z AUTO VRB03G03KT 090V220 32/25 Q1008=
07-Jun-2023 SAID31 WAOC 070730 METAR WAOC 070730Z AUTO VRB03G03KT 060V170 32/24 Q1008=
07-Jun-2023 SAID31 WAOC 070800 METAR WAOC 070800Z AUTO 13004G04KT 32/23 Q1008=
07-Jun-2023 SAID31 WAOC 070830 METAR WAOC 070830Z AUTO VRB03G03KT 31/24 Q1008=
07-Jun-2023 SAID31 WAOC 070900 METAR WAOC 070900Z AUTO VRB02G02KT 080V180 31/24 Q1008=
07-Jun-2023 SAID31 WAOC 070930 METAR WAOC 070930Z AUTO VRB02G02KT 30/24 Q1008=
07-Jun-2023 SAID31 WAOC 071000 METAR WAOC 071000Z AUTO VRB02G02KT 31/25 Q1009=
07-Jun-2023 SAID31 WAOC 071030 METAR WAOC 071030Z AUTO VRB02G02KT 30/26 Q1009=
07-Jun-2023 SAID31 WAOC 071130 METAR WAOC 071130Z AUTO VRB02G02KT 30/27 Q1010=
07-Jun-2023 SAID31 WAOC 071200 METAR WAOC 071200Z AUTO VRB02G02KT 29/26 Q1010=
07-Jun-2023 SAID31 WAOC 071230 METAR WAOC 071230Z AUTO VRB01G01KT 28/25 Q1011=
07-Jun-2023 SAID31 WAOC 071300 METAR WAOC 071300Z AUTO VRB02G02KT 120V190 29/26 Q1011=
07-Jun-2023 SAID31 WAOC 071330 METAR WAOC 071330Z AUTO VRB01G01KT 130V240 28/25 Q1011=
07-Jun-2023 SAID31 WAOC 071400 METAR WAOC 071400Z AUTO VRB01G01KT 080V150 28/25 Q1011=
07-Jun-2023 SAID31 WAOC 071430 METAR WAOC 071430Z AUTO VRB01G01KT 100V180 29/26 Q1011=
07-Jun-2023 SAID31 WAOC 071500 METAR WAOC 071500Z AUTO VRB01G01KT 29/26 Q1012=
07-Jun-2023 SAID31 WAOC 071530 METAR WAOC 071530Z AUTO VRB01G01KT 29/26 Q1012=
07-Jun-2023 SAID31 WAOC 071600 METAR WAOC 071600Z AUTO 00000G00KT 29/27 Q1012=
07-Jun-2023 SAID31 WAOC 071630 METAR WAOC 071630Z AUTO VRB01G01KT 210V310 28/27 Q1012=
07-Jun-2023 SAID31 WAOC 071700 METAR WAOC 071700Z AUTO VRB02G02KT 27/26 Q1011=
07-Jun-2023 SAID31 WAOC 071730 METAR WAOC 071730Z AUTO VRB01G01KT 27/26 Q1011=
07-Jun-2023 SAID31 WAOC 071800 METAR WAOC 071800Z AUTO VRB02G02KT 27/26 Q1011=
07-Jun-2023 SAID31 WAOC 071830 METAR WAOC 071830Z AUTO VRB02G02KT 27/26 Q1011=
07-Jun-2023 SAID31 WAOC 071900 METAR WAOC 071900Z AUTO VRB02G02KT 26/26 Q1011=
07-Jun-2023 SAID31 WAOC 071930 METAR WAOC 071930Z AUTO VRB01G01KT 26/26 Q1010=
07-Jun-2023 SAID31 WAOC 072000 METAR WAOC 072000Z AUTO VRB01G01KT 26/26 Q1010=
07-Jun-2023 SAID31 WAOC 072030 METAR WAOC 072030Z AUTO VRB02G02KT 26/26 Q1010=
07-Jun-2023 SAID31 WAOC 072100 METAR WAOC 072100Z AUTO VRB02G02KT 26/26 Q1010=
07-Jun-2023 SAID31 WAOC 072130 METAR WAOC 072130Z AUTO VRB02G02KT 26/26 Q1011=
07-Jun-2023 SAID31 WAOC 072200 METAR WAOC 072200Z AUTO VRB02G02KT 26/25 Q1011=
07-Jun-2023 SAID31 WAOC 072230 METAR WAOC 072230Z AUTO VRB01G01KT 26/25 Q1011=
07-Jun-2023 SAID31 WAOC 072300 METAR WAOC 072300Z AUTO VRB02G02KT 26/25 Q1012=
07-Jun-2023 SAID31 WAOC 072330 METAR WAOC 072330Z AUTO VRB02G02KT 27/26 Q1012=
08-Jun-2023 SAID31 WAOC 080000 METAR WAOC 080000Z AUTO VRB02G02KT 240V310 28/25 Q1012=
08-Jun-2023 SAID31 WAOC 080030 METAR WAOC 080030Z AUTO VRB02G02KT 220V330 28/24 Q1012=
08-Jun-2023 SAID31 WAOC 080100 METAR WAOC 080100Z AUTO VRB02G02KT 160V310 29/25 Q1012=
08-Jun-2023 SAID31 WAOC 080130 METAR WAOC 080130Z AUTO VRB03G03KT 000V190 30/24 Q1012=
08-Jun-2023 SAID31 WAOC 080200 METAR WAOC 080200Z AUTO VRB02G02KT 100V220 30/24 Q1012=
08-Jun-2023 SAID31 WAOC 080230 METAR WAOC 080230Z AUTO VRB03G03KT 110V220 30/24 Q1012=
08-Jun-2023 SAID31 WAOC 080300 METAR WAOC 080300Z AUTO VRB03G03KT 090V210 31/23 Q1011=
08-Jun-2023 SAID31 WAOC 080330 METAR WAOC 080330Z AUTO VRB01G01KT 120V220 31/23 Q1011=
08-Jun-2023 SAID31 WAOC 080400 METAR WAOC 080400Z AUTO VRB03G03KT 080V150 32/23 Q1010=
08-Jun-2023 SAID31 WAOC 080430 METAR WAOC 080430Z AUTO VRB03G03KT 080V150 32/22 Q1010=
08-Jun-2023 SAID31 WAOC 080500 METAR WAOC 080500Z AUTO VRB03G03KT 33/22 Q1010=
08-Jun-2023 SAID31 WAOC 080530 METAR WAOC 080530Z AUTO VRB03G03KT 080V170 32/22 Q1009=
08-Jun-2023 SAID31 WAOC 080600 METAR WAOC 080600Z AUTO 11004G04KT 070V150 32/21 Q1009=
08-Jun-2023 SAID31 WAOC 080630 METAR WAOC 080630Z AUTO VRB02G02KT 080V160 32/21 Q1008=
08-Jun-2023 SAID31 WAOC 080700 METAR WAOC 080700Z AUTO VRB02G02KT 070V150 32/21 Q1008=
08-Jun-2023 SAID31 WAOC 080730 METAR WAOC 080730Z AUTO VRB03G03KT 32/21 Q1008=
08-Jun-2023 SAID31 WAOC 080800 METAR WAOC 080800Z AUTO VRB02G02KT 110V190 32/22 Q1008=
08-Jun-2023 SAID31 WAOC 080830 METAR WAOC 080830Z AUTO 18004G04KT 110V210 32/24 Q1008=
08-Jun-2023 SAID31 WAOC 080900 METAR WAOC 080900Z AUTO 14004G04KT 080V160 31/24 Q1008=
08-Jun-2023 SAID31 WAOC 080930 METAR WAOC 080930Z AUTO 11005G05KT 31/25 Q1008=
08-Jun-2023 SAID31 WAOC 081000 METAR WAOC 081000Z AUTO VRB02G02KT 31/25 Q1008=
08-Jun-2023 SAID31 WAOC 081030 METAR WAOC 081030Z AUTO VRB01G01KT 30/25 Q1009=
08-Jun-2023 SAID31 WAOC 081100 METAR WAOC 081100Z AUTO VRB01G00KT 30/25 Q1009=
08-Jun-2023 SAID31 WAOC 081130 METAR WAOC 081130Z AUTO VRB01G01KT 29/25 Q1009=
08-Jun-2023 SAID31 WAOC 081200 METAR WAOC 081200Z AUTO VRB02G02KT 100V200 29/26 Q1009=
08-Jun-2023 SAID31 WAOC 081230 METAR WAOC 081230Z AUTO VRB01G01KT 100V250 29/26 Q1010=
08-Jun-2023 SAID31 WAOC 081300 METAR WAOC 081300Z AUTO VRB01G01KT 130V200 29/25 Q1010=
08-Jun-2023 SAID31 WAOC 081330 METAR WAOC 081330Z AUTO VRB01G01KT 120V260 28/26 Q1010=
08-Jun-2023 SAID31 WAOC 081400 METAR WAOC 081400Z AUTO VRB01G01KT 27/26 Q1011=
08-Jun-2023 SAID31 WAOC 081430 METAR WAOC 081430Z AUTO VRB01G01KT 250V320 27/25 Q1011=
08-Jun-2023 SAID31 WAOC 081500 METAR WAOC 081500Z AUTO VRB01G01KT 260V020 27/25 Q1011=
08-Jun-2023 SAID31 WAOC 081530 METAR WAOC 081530Z AUTO VRB01G01KT 120V360 27/25 Q1011=
08-Jun-2023 SAID31 WAOC 081600 METAR WAOC 081600Z AUTO VRB01G01KT 220V290 26/25 Q1011=
08-Jun-2023 SAID31 WAOC 081630 METAR WAOC 081630Z AUTO VRB01G01KT 26/25 Q1011=
08-Jun-2023 SAID31 WAOC 081700 METAR WAOC 081700Z AUTO VRB01G01KT 240V320 26/25 Q1010=
08-Jun-2023 SAID31 WAOC 081730 METAR WAOC 081730Z AUTO VRB01G01KT 26/25 Q1010=
08-Jun-2023 SAID31 WAOC 081800 METAR WAOC 081800Z AUTO VRB01G01KT 26/25 Q1010=
08-Jun-2023 SAID31 WAOC 081830 METAR WAOC 081830Z AUTO VRB02G02KT 26/25 Q1010=
08-Jun-2023 SAID31 WAOC 081900 METAR WAOC 081900Z AUTO VRB01G01KT 26/26 Q1009=
08-Jun-2023 SAID31 WAOC 081930 METAR WAOC 081930Z AUTO VRB01G01KT 26/25 Q1009=
08-Jun-2023 SAID31 WAOC 082000 METAR WAOC 082000Z AUTO VRB02G02KT 26/25 Q1009=
08-Jun-2023 SAID31 WAOC 082030 METAR WAOC 082030Z AUTO VRB02G02KT 25/25 Q1010=
08-Jun-2023 SAID31 WAOC 082100 METAR WAOC 082100Z AUTO VRB02G02KT 25/25 Q1010=
08-Jun-2023 SAID31 WAOC 082130 METAR WAOC 082130Z AUTO VRB01G01KT 25/25 Q1010=
08-Jun-2023 SAID31 WAOC 082200 METAR WAOC 082200Z AUTO VRB01G01KT 26/25 Q1010=
08-Jun-2023 SAID31 WAOC 082230 METAR WAOC 082230Z AUTO VRB03G03KT 26/25 Q1010=
08-Jun-2023 SAID31 WAOC 082300 METAR WAOC 082300Z AUTO VRB02G02KT 250V350 26/25 Q1011=
08-Jun-2023 SAID31 WAOC 082330 METAR WAOC 082330Z AUTO 30004G04KT 26/25 Q1011=
09-Jun-2023 SAID31 WAOC 090000 METAR WAOC 090000Z AUTO VRB03G03KT 27/26 Q1011=
09-Jun-2023 SAID31 WAOC 090030 METAR WAOC 090030Z AUTO VRB03G03KT 28/26 Q1012=
09-Jun-2023 SAID31 WAOC 090100 METAR WAOC 090100Z AUTO VRB02G02KT 210V300 29/25 Q1012=
09-Jun-2023 SAID31 WAOC 090130 METAR WAOC 090130Z AUTO VRB03G03KT 130V340 30/25 Q1011=
09-Jun-2023 SAID31 WAOC 090200 METAR WAOC 090200Z AUTO VRB02G02KT 160V250 31/25 Q1011=
09-Jun-2023 SAID31 WAOC 090230 METAR WAOC 090230Z AUTO VRB03G03KT 120V240 32/24 Q1011=
09-Jun-2023 SAID31 WAOC 090300 METAR WAOC 090300Z AUTO VRB01G01KT 090V180 32/24 Q1010=
09-Jun-2023 SAID31 WAOC 090330 METAR WAOC 090330Z AUTO VRB03G04KT 020V310 32/25 Q1010=
09-Jun-2023 SAID31 WAOC 090400 METAR WAOC 090400Z AUTO VRB02G02KT 160V250 33/25 Q1009=
09-Jun-2023 SAID31 WAOC 090430 METAR WAOC 090430Z AUTO VRB03G03KT 150V260 32/24 Q1009=
09-Jun-2023 SAID31 WAOC 090500 METAR WAOC 090500Z AUTO VRB02G02KT 190V270 32/25 Q1009=
09-Jun-2023 SAID31 WAOC 090530 METAR WAOC 090530Z AUTO 23004G04KT 170V250 32/25 Q1009=
09-Jun-2023 SAID31 WAOC 090600 METAR WAOC 090600Z AUTO VRB03G03KT 140V230 33/25 Q1008=
09-Jun-2023 SAID31 WAOC 090630 METAR WAOC 090630Z AUTO 12006G06KT 30/26 Q1008=
09-Jun-2023 SAID31 WAOC 090700 METAR WAOC 090700Z AUTO VRB03G03KT 29/24 Q1008=
09-Jun-2023 SAID31 WAOC 090730 METAR WAOC 090730Z AUTO VRB03G03KT 130V220 30/25 Q1008=
09-Jun-2023 SAID31 WAOC 090800 METAR WAOC 090800Z AUTO VRB02G02KT 090V240 30/25 Q1007=
09-Jun-2023 SAID31 WAOC 090830 METAR WAOC 090830Z AUTO VRB02G02KT 140V240 31/25 Q1008=
09-Jun-2023 SAID31 WAOC 090900 METAR WAOC 090900Z AUTO VRB02G02KT 30/25 Q1007=
09-Jun-2023 SAID31 WAOC 090930 METAR WAOC 090930Z AUTO VRB01G01KT 130V220 30/25 Q1008=
09-Jun-2023 SAID31 WAOC 091000 METAR WAOC 091000Z AUTO VRB03G03KT 30/26 Q1008=
09-Jun-2023 SAID31 WAOC 091030 METAR WAOC 091030Z AUTO VRB02G02KT 190V270 30/26 Q1008=
09-Jun-2023 SAID31 WAOC 091100 METAR WAOC 091100Z AUTO VRB01G01KT 110V200 30/27 Q1008=
09-Jun-2023 SAID31 WAOC 091130 METAR WAOC 091130Z AUTO VRB02G02KT 120V200 29/26 Q1009=
09-Jun-2023 SAID31 WAOC 091200 METAR WAOC 091200Z AUTO VRB01G01KT 110V180 29/26 Q1009=
09-Jun-2023 SAID31 WAOC 091230 METAR WAOC 091230Z AUTO VRB01G01KT 100V210 29/26 Q1010=
09-Jun-2023 SAID31 WAOC 091300 METAR WAOC 091300Z AUTO VRB01G01KT 070V330 29/26 Q1010=
09-Jun-2023 SAID31 WAOC 091330 METAR WAOC 091330Z AUTO VRB01G01KT 110V190 29/26 Q1010=
09-Jun-2023 SAID31 WAOC 091400 METAR WAOC 091400Z AUTO 00000G00KT 210V330 28/26 Q1010=
09-Jun-2023 SAID31 WAOC 091430 METAR WAOC 091430Z AUTO VRB01G01KT 28/26 Q1010=
09-Jun-2023 SAID31 WAOC 091500 METAR WAOC 091500Z AUTO 00000G00KT 210V300 28/26 Q1010=
09-Jun-2023 SAID31 WAOC 091530 METAR WAOC 091530Z AUTO VRB01G01KT 27/26 Q1010=
09-Jun-2023 SAID31 WAOC 091600 METAR WAOC 091600Z AUTO 00000G00KT 240V320 27/26 Q1010=
09-Jun-2023 SAID31 WAOC 091630 METAR WAOC 091630Z AUTO VRB01G01KT 27/26 Q1010=
09-Jun-2023 SAID31 WAOC 091700 METAR WAOC 091700Z AUTO VRB02G02KT 27/26 Q1009=
09-Jun-2023 SAID31 WAOC 091730 METAR WAOC 091730Z AUTO VRB02G02KT 26/26 Q1009=
09-Jun-2023 SAID31 WAOC 091800 METAR WAOC 091800Z AUTO VRB02G02KT 27/26 Q1009=
09-Jun-2023 SAID31 WAOC 091830 METAR WAOC 091830Z AUTO VRB02G02KT 27/26 Q1009=
09-Jun-2023 SAID31 WAOC 091900 METAR WAOC 091900Z AUTO VRB01G01KT 27/26 Q1008=
09-Jun-2023 SAID31 WAOC 091930 METAR WAOC 091930Z AUTO VRB02G02KT 27/26 Q1008=
09-Jun-2023 SAID31 WAOC 092000 METAR WAOC 092000Z AUTO VRB02G02KT 27/27 Q1008=
09-Jun-2023 SAID31 WAOC 092030 METAR WAOC 092030Z AUTO VRB02G03KT 27/26 Q1009=
09-Jun-2023 SAID31 WAOC 092100 METAR WAOC 092100Z AUTO VRB02G02KT 27/27 Q1009=
09-Jun-2023 SAID31 WAOC 092130 METAR WAOC 092130Z AUTO VRB02G02KT 27/27 Q1009=
09-Jun-2023 SAID31 WAOC 092200 METAR WAOC 092200Z AUTO VRB02G02KT 27/27 Q1009=
09-Jun-2023 SAID31 WAOC 092230 METAR WAOC 092230Z AUTO VRB02G02KT 27/27 Q1009=
09-Jun-2023 SAID31 WAOC 092300 METAR WAOC 092300Z AUTO VRB01G01KT 28/27 Q1010=
09-Jun-2023 SAID31 WAOC 092330 METAR WAOC 092330Z AUTO VRB01G01KT 220V320 27/26 Q1010=
10-Jun-2023 SAID31 WAOC 100000 METAR WAOC 100000Z AUTO VRB01G01KT 190V260 28/26 Q1010=
10-Jun-2023 SAID31 WAOC 100030 METAR WAOC 100030Z AUTO VRB01G01KT 200V290 29/26 Q1010=
10-Jun-2023 SAID31 WAOC 100100 METAR WAOC 100100Z AUTO VRB02G02KT 150V260 31/26 Q1011=
10-Jun-2023 SAID31 WAOC 100130 METAR WAOC 100130Z AUTO VRB02G02KT 150V230 31/25 Q1011=
10-Jun-2023 SAID31 WAOC 100200 METAR WAOC 100200Z AUTO VRB02G02KT 120V210 31/25 Q1011=
10-Jun-2023 SAID31 WAOC 100230 METAR WAOC 100230Z AUTO VRB02G02KT 110V220 32/25 Q1010=
10-Jun-2023 SAID31 WAOC 100300 METAR WAOC 100300Z AUTO VRB02G02KT 110V180 32/24 Q1010=
10-Jun-2023 SAID31 WAOC 100330 METAR WAOC 100330Z AUTO VRB03G03KT 150V230 33/25 Q1009=
10-Jun-2023 SAID31 WAOC 100400 METAR WAOC 100400Z AUTO 18004G04KT 140V220 32/24 Q1009=
10-Jun-2023 SAID31 WAOC 100430 METAR WAOC 100430Z AUTO VRB03G03KT 160V260 33/25 Q1008=
10-Jun-2023 SAID31 WAOC 100500 METAR WAOC 100500Z AUTO 17004G04KT 130V240 33/25 Q1008=
10-Jun-2023 SAID31 WAOC 100530 METAR WAOC 100530Z AUTO 17004G04KT 120V240 32/25 Q1008=
10-Jun-2023 SAID31 WAOC 100600 METAR WAOC 100600Z AUTO 19005G05KT 33/25 Q1007=
10-Jun-2023 SAID31 WAOC 100630 METAR WAOC 100630Z AUTO 16006G06KT 050V240 33/25 Q1007=
10-Jun-2023 SAID31 WAOC 100700 METAR WAOC 100700Z AUTO VRB03G02KT 120V220 33/25 Q1007=
10-Jun-2023 SAID31 WAOC 100730 METAR WAOC 100730Z AUTO VRB02G02KT 140V230 33/24 Q1006=
10-Jun-2023 SAID31 WAOC 100800 METAR WAOC 100800Z AUTO VRB03G03KT 160V240 32/25 Q1006=
10-Jun-2023 SAID31 WAOC 100830 METAR WAOC 100830Z AUTO 21006G06KT 160V240 32/26 Q1007=
10-Jun-2023 SAID31 WAOC 100900 METAR WAOC 100900Z AUTO VRB03G03KT 150V260 32/26 Q1007=
10-Jun-2023 SAID31 WAOC 100930 METAR WAOC 100930Z AUTO VRB01G01KT 160V240 32/27 Q1007=
10-Jun-2023 SAID31 WAOC 101000 METAR WAOC 101000Z AUTO VRB03G03KT 32/27 Q1008=
10-Jun-2023 SAID31 WAOC 101030 METAR WAOC 101030Z AUTO VRB02G02KT 30/27 Q1008=
10-Jun-2023 SAID31 WAOC 101100 METAR WAOC 101100Z AUTO VRB02G02KT 30/27 Q1008=
10-Jun-2023 SAID31 WAOC 101130 METAR WAOC 101130Z AUTO VRB02G02KT 100V200 30/27 Q1009=
10-Jun-2023 SAID31 WAOC 101200 METAR WAOC 101200Z AUTO VRB01G01KT 100V170 31/27 Q1009=
10-Jun-2023 SAID31 WAOC 101230 METAR WAOC 101230Z AUTO VRB02G02KT 080V190 30/27 Q1010=
10-Jun-2023 SAID31 WAOC 101300 METAR WAOC 101300Z AUTO VRB02G02KT 110V190 30/27 Q1010=
10-Jun-2023 SAID31 WAOC 101330 METAR WAOC 101330Z AUTO VRB01G01KT 090V200 30/27 Q1010=
10-Jun-2023 SAID31 WAOC 101400 METAR WAOC 101400Z AUTO VRB01G01KT 110V210 30/28 Q1010=
10-Jun-2023 SAID31 WAOC 101430 METAR WAOC 101430Z AUTO VRB01G01KT 30/28 Q1010=
10-Jun-2023 SAID31 WAOC 101500 METAR WAOC 101500Z AUTO VRB02G02KT 31/30 Q1010=
10-Jun-2023 SAID31 WAOC 101530 METAR WAOC 101530Z AUTO VRB02G02KT 32/32 Q1010=
10-Jun-2023 SAID31 WAOC 101600 METAR WAOC 101600Z AUTO VRB01G01KT 33/32 Q1010=
10-Jun-2023 SAID31 WAOC 101630 METAR WAOC 101630Z AUTO VRB01G01KT 33/32 Q1009=
10-Jun-2023 SAID31 WAOC 101700 METAR WAOC 101700Z AUTO 00000G00KT 130V260 32/32 Q1009=
10-Jun-2023 SAID31 WAOC 101730 METAR WAOC 101730Z AUTO VRB02G02KT 200V310 31/30 Q1008=
10-Jun-2023 SAID31 WAOC 101800 METAR WAOC 101800Z AUTO VRB02G02KT 30/30 Q1008=
10-Jun-2023 SAID31 WAOC 101830 METAR WAOC 101830Z AUTO VRB02G02KT 230V300 32/32 Q1008=
10-Jun-2023 SAID31 WAOC 101900 METAR WAOC 101900Z AUTO VRB02G02KT Q1008=
10-Jun-2023 SAID31 WAOC 101930 METAR WAOC 101930Z AUTO VRB01G01KT Q1008=
10-Jun-2023 SAID31 WAOC 102000 METAR WAOC 102000Z AUTO VRB01G01KT 240V310 Q1008=
10-Jun-2023 SAID31 WAOC 102030 METAR WAOC 102030Z AUTO VRB03G03KT 31/30 Q1008=
10-Jun-2023 SAID31 WAOC 102100 METAR WAOC 102100Z AUTO VRB02G02KT 30/30 Q1008=
10-Jun-2023 SAID31 WAOC 102130 METAR WAOC 102130Z AUTO VRB02G02KT 30/30 Q1008=
10-Jun-2023 SAID31 WAOC 102200 METAR WAOC 102200Z AUTO VRB02G02KT 29/29 Q1008=
10-Jun-2023 SAID31 WAOC 102230 METAR WAOC 102230Z AUTO VRB02G02KT 30/29 Q1009=
10-Jun-2023 SAID31 WAOC 102300 METAR WAOC 102300Z AUTO VRB01G01KT 220V300 28/26 Q1009=
10-Jun-2023 SAID31 WAOC 102330 METAR WAOC 102330Z AUTO VRB03G03KT 260V330 29/27 Q1009=
11-Jun-2023 SAID31 WAOC 110000 METAR WAOC 110000Z AUTO VRB02G02KT 240V310 30/27 Q1009=
11-Jun-2023 SAID31 WAOC 110030 METAR WAOC 110030Z AUTO VRB01G01KT 230V310 30/27 Q1009=
11-Jun-2023 SAID31 WAOC 110100 METAR WAOC 110100Z AUTO VRB01G01KT 150V230 30/27 Q1010=
11-Jun-2023 SAID31 WAOC 110130 METAR WAOC 110130Z AUTO VRB01G01KT 140V320 31/26 Q1009=
11-Jun-2023 SAID31 WAOC 110200 METAR WAOC 110200Z AUTO VRB01G01KT 100V230 31/26 Q1009=
11-Jun-2023 SAID31 WAOC 110230 METAR WAOC 110230Z AUTO VRB02G02KT 180V290 32/27 Q1009=
11-Jun-2023 SAID31 WAOC 110300 METAR WAOC 110300Z AUTO VRB02G02KT 130V300 32/26 Q1009=
11-Jun-2023 SAID31 WAOC 110330 METAR WAOC 110330Z AUTO VRB03G03KT 060V180 33/25 Q1008=
11-Jun-2023 SAID31 WAOC 110400 METAR WAOC 110400Z AUTO VRB03G03KT 080V210 33/25 Q1008=
11-Jun-2023 SAID31 WAOC 110430 METAR WAOC 110430Z AUTO VRB01G01KT 33/25 Q1008=
11-Jun-2023 SAID31 WAOC 110500 METAR WAOC 110500Z AUTO 13007G05KT 100V210 31/24 Q1008=
11-Jun-2023 SAID31 WAOC 110530 METAR WAOC 110530Z AUTO VRB03G03KT 110V180 32/23 Q1007=
11-Jun-2023 SAID31 WAOC 110600 METAR WAOC 110600Z AUTO VRB02G02KT 33/22 Q1006=
11-Jun-2023 SAID31 WAOC 110630 METAR WAOC 110630Z AUTO 13005G06KT 090V170 31/25 Q1006=
11-Jun-2023 SAID31 WAOC 110700 METAR WAOC 110700Z AUTO 13004G04KT 30/24 Q1006=
11-Jun-2023 SAID31 WAOC 110730 METAR WAOC 110730Z AUTO 08004G04KT 30/25 Q1006=
11-Jun-2023 SAID31 WAOC 110800 METAR WAOC 110800Z AUTO VRB02G02KT 31/25 Q1006=
11-Jun-2023 SAID31 WAOC 110830 METAR WAOC 110830Z AUTO 12004G05KT 080V170 31/24 Q1006=
11-Jun-2023 SAID31 WAOC 110900 METAR WAOC 110900Z AUTO VRB02G02KT 31/25 Q1006=
11-Jun-2023 SAID31 WAOC 110930 METAR WAOC 110930Z AUTO VRB02G02KT 100V170 30/25 Q1007=
11-Jun-2023 SAID31 WAOC 111000 METAR WAOC 111000Z AUTO VRB02G02KT 32/27 Q1008=
11-Jun-2023 SAID31 WAOC 111030 METAR WAOC 111030Z AUTO VRB02G02KT 30/27 Q1008=
11-Jun-2023 SAID31 WAOC 111100 METAR WAOC 111100Z AUTO VRB02G02KT 100V190 32/29 Q1008=
11-Jun-2023 SAID31 WAOC 111130 METAR WAOC 111130Z AUTO VRB02G02KT 32/29 Q1009=
11-Jun-2023 SAID31 WAOC 111200 METAR WAOC 111200Z AUTO VRB02G02KT 220V300 38/37 Q1009=
11-Jun-2023 SAID31 WAOC 111230 METAR WAOC 111230Z AUTO VRB02G02KT 32/30 Q1010=
11-Jun-2023 SAID31 WAOC 111300 METAR WAOC 111300Z AUTO VRB02G02KT 36/36 Q1010=
11-Jun-2023 SAID31 WAOC 111330 METAR WAOC 111330Z AUTO VRB02G02KT 30/29 Q1010=
11-Jun-2023 SAID31 WAOC 111400 METAR WAOC 111400Z AUTO VRB01G02KT 230V310 30/29 Q1010=
11-Jun-2023 SAID31 WAOC 111430 METAR WAOC 111430Z AUTO VRB01G01KT 29/28 Q1010=
11-Jun-2023 SAID31 WAOC 111500 METAR WAOC 111500Z AUTO VRB02G02KT 29/28 Q1010=
11-Jun-2023 SAID31 WAOC 111530 METAR WAOC 111530Z AUTO VRB02G02KT 30/29 Q1010=
11-Jun-2023 SAID31 WAOC 111600 METAR WAOC 111600Z AUTO VRB03G03KT 30/30 Q1010=
11-Jun-2023 SAID31 WAOC 111630 METAR WAOC 111630Z AUTO VRB02G02KT 220V300 32/31 Q1010=
11-Jun-2023 SAID31 WAOC 111700 METAR WAOC 111700Z AUTO VRB02G02KT 31/31 Q1009=
11-Jun-2023 SAID31 WAOC 111730 METAR WAOC 111730Z AUTO VRB01G01KT 32/31 Q1009=
11-Jun-2023 SAID31 WAOC 111800 METAR WAOC 111800Z AUTO VRB01G01KT 150V300 30/29 Q1009=
11-Jun-2023 SAID31 WAOC 111830 METAR WAOC 111830Z AUTO VRB02G02KT 32/31 Q1009=
11-Jun-2023 SAID31 WAOC 111900 METAR WAOC 111900Z AUTO VRB01G01KT 31/31 Q1008=
11-Jun-2023 SAID31 WAOC 111930 METAR WAOC 111930Z AUTO VRB03G03KT 31/31 Q1009=
11-Jun-2023 SAID31 WAOC 112000 METAR WAOC 112000Z AUTO VRB02G02KT 31/31 Q1009=
11-Jun-2023 SAID31 WAOC 112030 METAR WAOC 112030Z AUTO VRB03G03KT 29/28 Q1009=
11-Jun-2023 SAID31 WAOC 112100 METAR WAOC 112100Z AUTO VRB02G02KT 29/29 Q1009=
11-Jun-2023 SAID31 WAOC 112200 METAR WAOC 112200Z AUTO VRB01G01KT 31/30 Q1009=
11-Jun-2023 SAID31 WAOC 112230 METAR WAOC 112230Z AUTO VRB01G01KT 210V280 30/30 Q1010=
11-Jun-2023 SAID31 WAOC 112300 METAR WAOC 112300Z AUTO VRB02G02KT 28/27 Q1010=
11-Jun-2023 SAID31 WAOC 112330 METAR WAOC 112330Z AUTO VRB02G02KT 29/27 Q1011=
12-Jun-2023 SAID31 WAOC 120000 METAR WAOC 120000Z AUTO VRB02G02KT 30/27 Q1011=
12-Jun-2023 SAID31 WAOC 120030 METAR WAOC 120030Z AUTO VRB02G02KT 120V320 30/26 Q1011=
12-Jun-2023 SAID31 WAOC 120100 METAR WAOC 120100Z AUTO VRB01G01KT 240V320 30/25 Q1011=
12-Jun-2023 SAID31 WAOC 120130 METAR WAOC 120130Z AUTO VRB01G01KT 170V240 31/25 Q1011=
12-Jun-2023 SAID31 WAOC 120200 METAR WAOC 120200Z AUTO VRB02G02KT 140V240 31/23 Q1011=
12-Jun-2023 SAID31 WAOC 120230 METAR WAOC 120230Z AUTO VRB02G02KT 100V180 32/24 Q1011=
12-Jun-2023 SAID31 WAOC 120300 METAR WAOC 120300Z AUTO VRB02G02KT 040V140 32/24 Q1010=
12-Jun-2023 SAID31 WAOC 120330 METAR WAOC 120330Z AUTO VRB03G03KT 090V180 33/26 Q1010=
12-Jun-2023 SAID31 WAOC 120400 METAR WAOC 120400Z AUTO 00000G00KT 020V130 32/27 Q1010=
12-Jun-2023 SAID31 WAOC 120430 METAR WAOC 120430Z AUTO VRB03G03KT 090V180 33/26 Q1009=
12-Jun-2023 SAID31 WAOC 120500 METAR WAOC 120500Z AUTO 15004G04KT 070V150 33/26 Q1008=
12-Jun-2023 SAID31 WAOC 120530 METAR WAOC 120530Z AUTO VRB03G03KT 28/25 Q1008=
12-Jun-2023 SAID31 WAOC 120600 METAR WAOC 120600Z AUTO VRB02G02KT 060V150 31/25 Q1008=
12-Jun-2023 SAID31 WAOC 120630 METAR WAOC 120630Z AUTO 09004G04KT 31/25 Q1008=
12-Jun-2023 SAID31 WAOC 120700 METAR WAOC 120700Z AUTO VRB03G03KT 30/25 Q1008=
12-Jun-2023 SAID31 WAOC 120730 METAR WAOC 120730Z AUTO 30005G05KT 28/24 Q1007=
12-Jun-2023 SAID31 WAOC 120800 METAR WAOC 120800Z AUTO VRB03G03KT 29/24 Q1007=
12-Jun-2023 SAID31 WAOC 120830 METAR WAOC 120830Z AUTO VRB03G03KT 29/25 Q1007=
12-Jun-2023 SAID31 WAOC 120900 METAR WAOC 120900Z AUTO 30004G04KT 28/24 Q1008=
12-Jun-2023 SAID31 WAOC 120930 METAR WAOC 120930Z AUTO VRB03G03KT 27/24 Q1008=
12-Jun-2023 SAID31 WAOC 121000 METAR WAOC 121000Z AUTO VRB03G03KT 28/26 Q1008=
12-Jun-2023 SAID31 WAOC 121030 METAR WAOC 121030Z AUTO VRB02G02KT 28/26 Q1009=
12-Jun-2023 SAID31 WAOC 121100 METAR WAOC 121100Z AUTO VRB03G03KT 240V310 27/26 Q1009=
12-Jun-2023 SAID31 WAOC 121130 METAR WAOC 121130Z AUTO VRB02G02KT 240V310 27/26 Q1009=
12-Jun-2023 SAID31 WAOC 121200 METAR WAOC 121200Z AUTO 29004G04KT 27/26 Q1010=
12-Jun-2023 SAID31 WAOC 121230 METAR WAOC 121230Z AUTO VRB02G02KT 27/25 Q1010=
12-Jun-2023 SAID31 WAOC 121300 METAR WAOC 121300Z AUTO VRB01G01KT 27/25 Q1010=
12-Jun-2023 SAID31 WAOC 121330 METAR WAOC 121330Z AUTO VRB01G01KT 27/25 Q1010=
12-Jun-2023 SAID31 WAOC 121400 METAR WAOC 121400Z AUTO VRB01G01KT 220V290 27/25 Q1010=
12-Jun-2023 SAID31 WAOC 121430 METAR WAOC 121430Z AUTO VRB01G01KT 230V300 27/25 Q1010=
12-Jun-2023 SAID31 WAOC 121500 METAR WAOC 121500Z AUTO VRB01G01KT 27/25 Q1010=
12-Jun-2023 SAID31 WAOC 121530 METAR WAOC 121530Z AUTO VRB01G01KT 210V340 27/26 Q1010=
12-Jun-2023 SAID31 WAOC 121600 METAR WAOC 121600Z AUTO VRB01G01KT 27/26 Q1010=
12-Jun-2023 SAID31 WAOC 121630 METAR WAOC 121630Z AUTO VRB02G02KT 27/26 Q1010=
12-Jun-2023 SAID31 WAOC 121700 METAR WAOC 121700Z AUTO VRB02G02KT 27/25 Q1010=
12-Jun-2023 SAID31 WAOC 121730 METAR WAOC 121730Z AUTO VRB01G01KT 26/25 Q1009=
12-Jun-2023 SAID31 WAOC 121800 METAR WAOC 121800Z AUTO 00000G00KT 070V180 26/25 Q1009=
12-Jun-2023 SAID31 WAOC 121830 METAR WAOC 121830Z AUTO VRB01G02KT 26/25 Q1009=
12-Jun-2023 SAID31 WAOC 121900 METAR WAOC 121900Z AUTO VRB01G01KT 26/25 Q1009=
12-Jun-2023 SAID31 WAOC 121930 METAR WAOC 121930Z AUTO VRB02G02KT 26/25 Q1009=
12-Jun-2023 SAID31 WAOC 122000 METAR WAOC 122000Z AUTO VRB01G01KT 26/25 Q1009=
12-Jun-2023 SAID31 WAOC 122030 METAR WAOC 122030Z AUTO VRB01G01KT 26/25 Q1009=
12-Jun-2023 SAID31 WAOC 122100 METAR WAOC 122100Z AUTO VRB01G01KT 26/25 Q1009=
12-Jun-2023 SAID31 WAOC 122130 METAR WAOC 122130Z AUTO VRB01G01KT 26/25 Q1010=
12-Jun-2023 SAID31 WAOC 122200 METAR WAOC 122200Z AUTO VRB01G01KT 26/25 Q1010=
12-Jun-2023 SAID31 WAOC 122230 METAR WAOC 122230Z AUTO VRB01G01KT 210V290 26/25 Q1010=
12-Jun-2023 SAID31 WAOC 122300 METAR WAOC 122300Z AUTO VRB03G03KT 26/25 Q1010=
12-Jun-2023 SAID31 WAOC 122330 METAR WAOC 122330Z AUTO VRB01G01KT 26/25 Q1010=
13-Jun-2023 SAID31 WAOC 130000 METAR WAOC 130000Z AUTO VRB03G03KT 27/25 Q1010=
13-Jun-2023 SAID31 WAOC 130030 METAR WAOC 130030Z AUTO VRB03G03KT 27/25 Q1011=
13-Jun-2023 SAID31 WAOC 130100 METAR WAOC 130100Z AUTO VRB01G01KT 260V000 27/25 Q1011=
13-Jun-2023 SAID31 WAOC 130130 METAR WAOC 130130Z AUTO VRB01G01KT 27/25 Q1011=
13-Jun-2023 SAID31 WAOC 130200 METAR WAOC 130200Z AUTO VRB01G01KT 350V070 28/25 Q1011=
13-Jun-2023 SAID31 WAOC 130230 METAR WAOC 130230Z AUTO VRB01G01KT 29/25 Q1011=
13-Jun-2023 SAID31 WAOC 130300 METAR WAOC 130300Z AUTO VRB02G02KT 000V070 29/25 Q1011=
13-Jun-2023 SAID31 WAOC 130330 METAR WAOC 130330Z AUTO VRB03G03KT 050V170 30/26 Q1010=
13-Jun-2023 SAID31 WAOC 130400 METAR WAOC 130400Z AUTO VRB03G03KT 040V150 31/25 Q1010=
13-Jun-2023 SAID31 WAOC 130430 METAR WAOC 130430Z AUTO VRB03G03KT 31/25 Q1009=
13-Jun-2023 SAID31 WAOC 130500 METAR WAOC 130500Z AUTO 13004G04KT 050V220 32/24 Q1008=
13-Jun-2023 SAID31 WAOC 130530 METAR WAOC 130530Z AUTO VRB03G03KT 060V130 32/25 Q1008=
13-Jun-2023 SAID31 WAOC 130600 METAR WAOC 130600Z AUTO 08005G05KT 31/24 Q1008=
13-Jun-2023 SAID31 WAOC 130630 METAR WAOC 130630Z AUTO 12005G05KT 32/24 Q1007=
13-Jun-2023 SAID31 WAOC 130700 METAR WAOC 130700Z AUTO VRB03G03KT 28/26 Q1008=
13-Jun-2023 SAID31 WAOC 130730 METAR WAOC 130730Z AUTO VRB03G03KT 29/26 Q1007=
13-Jun-2023 SAID31 WAOC 130800 METAR WAOC 130800Z AUTO 13004G05KT 31/27 Q1007=
13-Jun-2023 SAID31 WAOC 130830 METAR WAOC 130830Z AUTO VRB02G02KT 30/25 Q1007=
13-Jun-2023 SAID31 WAOC 130900 METAR WAOC 130900Z AUTO VRB02G02KT 070V150 30/25 Q1007=
13-Jun-2023 SAID31 WAOC 130930 METAR WAOC 130930Z AUTO VRB02G02KT 110V200 29/25 Q1008=
13-Jun-2023 SAID31 WAOC 131000 METAR WAOC 131000Z AUTO VRB02G02KT 30/26 Q1008=
13-Jun-2023 SAID31 WAOC 131030 METAR WAOC 131030Z AUTO VRB02G02KT 32/29 Q1008=
13-Jun-2023 SAID31 WAOC 131100 METAR WAOC 131100Z AUTO VRB03G03KT 30/27 Q1009=
13-Jun-2023 SAID31 WAOC 131130 METAR WAOC 131130Z AUTO VRB02G02KT 29/26 Q1009=
13-Jun-2023 SAID31 WAOC 131200 METAR WAOC 131200Z AUTO VRB01G01KT 29/27 Q1010=
13-Jun-2023 SAID31 WAOC 131230 METAR WAOC 131230Z AUTO VRB01G01KT Q1010=
13-Jun-2023 SAID31 WAOC 131300 METAR WAOC 131300Z AUTO VRB03G03KT 37/37 Q1010=
13-Jun-2023 SAID31 WAOC 131330 METAR WAOC 131330Z AUTO VRB02G02KT 41/36 Q1011=
13-Jun-2023 SAID31 WAOC 131400 METAR WAOC 131400Z AUTO VRB02G02KT 31/30 Q1011=
13-Jun-2023 SAID31 WAOC 131430 METAR WAOC 131430Z AUTO VRB02G02KT 31/31 Q1011=
13-Jun-2023 SAID31 WAOC 131500 METAR WAOC 131500Z AUTO VRB02G02KT 31/31 Q1011=
13-Jun-2023 SAID31 WAOC 131530 METAR WAOC 131530Z AUTO VRB01G01KT 32/31 Q1010=
13-Jun-2023 SAID31 WAOC 131600 METAR WAOC 131600Z AUTO VRB03G03KT 260V060 31/31 Q1010=
13-Jun-2023 SAID31 WAOC 131630 METAR WAOC 131630Z AUTO VRB01G01KT 270V340 30/30 Q1010=
13-Jun-2023 SAID31 WAOC 131700 METAR WAOC 131700Z AUTO 00000G00KT 30/30 Q1010=
13-Jun-2023 SAID31 WAOC 131730 METAR WAOC 131730Z AUTO 00000G00KT 250V330 31/30 Q1010=
13-Jun-2023 SAID31 WAOC 131800 METAR WAOC 131800Z AUTO VRB01G01KT 210V280 31/31 Q1009=
13-Jun-2023 SAID31 WAOC 131830 METAR WAOC 131830Z AUTO VRB01G01KT 31/31 Q1009=
13-Jun-2023 SAID31 WAOC 131900 METAR WAOC 131900Z AUTO VRB02G02KT 30/30 Q1009=
13-Jun-2023 SAID31 WAOC 131930 METAR WAOC 131930Z AUTO VRB01G01KT 31/31 Q1009=
13-Jun-2023 SAID31 WAOC 132000 METAR WAOC 132000Z AUTO VRB01G01KT 240V330 29/28 Q1009=
13-Jun-2023 SAID31 WAOC 132030 METAR WAOC 132030Z AUTO VRB01G01KT 230V320 28/27 Q1009=
13-Jun-2023 SAID31 WAOC 132100 METAR WAOC 132100Z AUTO VRB01G01KT 28/27 Q1009=
13-Jun-2023 SAID31 WAOC 132130 METAR WAOC 132130Z AUTO VRB01G01KT 210V290 27/27 Q1010=
13-Jun-2023 SAID31 WAOC 132200 METAR WAOC 132200Z AUTO VRB01G01KT 210V280 27/27 Q1010=
13-Jun-2023 SAID31 WAOC 132230 METAR WAOC 132230Z AUTO VRB02G02KT 330V030 28/28 Q1011=
13-Jun-2023 SAID31 WAOC 132300 METAR WAOC 132300Z AUTO VRB02G02KT 26/26 Q1011=
13-Jun-2023 SAID31 WAOC 132330 METAR WAOC 132330Z AUTO VRB01G01KT 170V020 27/26 Q1012=
14-Jun-2023 SAID31 WAOC 140000 METAR WAOC 140000Z AUTO VRB02G02KT 26/25 Q1012=
14-Jun-2023 SAID31 WAOC 140030 METAR WAOC 140030Z AUTO VRB01G01KT 27/26 Q1012=
14-Jun-2023 SAID31 WAOC 140100 METAR WAOC 140100Z AUTO VRB01G01KT 240V320 27/27 Q1013=
14-Jun-2023 SAID31 WAOC 140130 METAR WAOC 140130Z AUTO VRB02G02KT 27/27 Q1012=
14-Jun-2023 SAID31 WAOC 140200 METAR WAOC 140200Z AUTO VRB02G02KT 27/27 Q1012=
14-Jun-2023 SAID31 WAOC 140230 METAR WAOC 140230Z AUTO VRB01G01KT 27/27 Q1011=
14-Jun-2023 SAID31 WAOC 140300 METAR WAOC 140300Z AUTO 06004G04KT 27/27 Q1011=
14-Jun-2023 SAID31 WAOC 140330 METAR WAOC 140330Z AUTO VRB02G02KT 28/28 Q1011=
14-Jun-2023 SAID31 WAOC 140400 METAR WAOC 140400Z AUTO VRB01G01KT 340V050 Q1011=
14-Jun-2023 SAID31 WAOC 140430 METAR WAOC 140430Z AUTO 00000G01KT 300V060 Q1011=
14-Jun-2023 SAID31 WAOC 140500 METAR WAOC 140500Z AUTO VRB01G01KT 190V290 28/28 Q1011=
14-Jun-2023 SAID31 WAOC 140530 METAR WAOC 140530Z AUTO VRB01G01KT 060V130 28/28 Q1010=
14-Jun-2023 SAID31 WAOC 140600 METAR WAOC 140600Z AUTO VRB02G02KT 31/32 Q1010=
14-Jun-2023 SAID31 WAOC 140630 METAR WAOC 140630Z AUTO VRB02G02KT 30/30 Q1009=
14-Jun-2023 SAID31 WAOC 140700 METAR WAOC 140700Z AUTO VRB02G02KT 090V160 31/31 Q1009=
14-Jun-2023 SAID31 WAOC 140730 METAR WAOC 140730Z AUTO VRB02G02KT 32/32 Q1008=
14-Jun-2023 SAID31 WAOC 140800 METAR WAOC 140800Z AUTO VRB01G01KT 080V160 30/30 Q1008=
14-Jun-2023 SAID31 WAOC 140830 METAR WAOC 140830Z AUTO VRB02G02KT 090V160 29/28 Q1008=
14-Jun-2023 SAID31 WAOC 140900 METAR WAOC 140900Z AUTO VRB02G02KT 28/26 Q1008=
14-Jun-2023 SAID31 WAOC 140930 METAR WAOC 140930Z AUTO VRB01G01KT 090V170 26/24 Q1008=
14-Jun-2023 SAID31 WAOC 141000 METAR WAOC 141000Z AUTO VRB01G01KT 130V250 26/24 Q1009=
14-Jun-2023 SAID31 WAOC 141030 METAR WAOC 141030Z AUTO VRB01G01KT 26/24 Q1009=
14-Jun-2023 SAID31 WAOC 141100 METAR WAOC 141100Z AUTO VRB01G01KT 25/24 Q1010=
14-Jun-2023 SAID31 WAOC 141130 METAR WAOC 141130Z AUTO VRB01G01KT 25/25 Q1011=
14-Jun-2023 SAID31 WAOC 141200 METAR WAOC 141200Z AUTO VRB01G01KT 25/24 Q1011=
14-Jun-2023 SAID31 WAOC 141230 METAR WAOC 141230Z AUTO VRB01G01KT 25/24 Q1011=
14-Jun-2023 SAID31 WAOC 141300 METAR WAOC 141300Z AUTO VRB02G02KT 25/24 Q1011=
14-Jun-2023 SAID31 WAOC 141330 METAR WAOC 141330Z AUTO VRB01G01KT 25/24 Q1012=
14-Jun-2023 SAID31 WAOC 141400 METAR WAOC 141400Z AUTO VRB02G02KT 25/24 Q1012=
14-Jun-2023 SAID31 WAOC 141430 METAR WAOC 141430Z AUTO VRB02G02KT 25/24 Q1011=
14-Jun-2023 SAID31 WAOC 141500 METAR WAOC 141500Z AUTO VRB02G02KT 25/24 Q1011=
14-Jun-2023 SAID31 WAOC 141530 METAR WAOC 141530Z AUTO VRB02G02KT 25/24 Q1012=
14-Jun-2023 SAID31 WAOC 141600 METAR WAOC 141600Z AUTO VRB01G01KT 230V320 24/23 Q1011=
14-Jun-2023 SAID31 WAOC 141630 METAR WAOC 141630Z AUTO VRB01G01KT 25/24 Q1011=
14-Jun-2023 SAID31 WAOC 141700 METAR WAOC 141700Z AUTO VRB01G01KT 24/24 Q1011=
14-Jun-2023 SAID31 WAOC 141730 METAR WAOC 141730Z AUTO VRB02G02KT 24/23 Q1010=
14-Jun-2023 SAID31 WAOC 141800 METAR WAOC 141800Z AUTO VRB02G02KT 24/23 Q1010=
14-Jun-2023 SAID31 WAOC 141830 METAR WAOC 141830Z AUTO VRB02G02KT 24/23 Q1010=
14-Jun-2023 SAID31 WAOC 141900 METAR WAOC 141900Z AUTO VRB02G02KT 24/23 Q1010=
14-Jun-2023 SAID31 WAOC 141930 METAR WAOC 141930Z AUTO VRB01G01KT 24/23 Q1010=
14-Jun-2023 SAID31 WAOC 142000 METAR WAOC 142000Z AUTO VRB01G01KT 24/23 Q1010=
14-Jun-2023 SAID31 WAOC 142030 METAR WAOC 142030Z AUTO VRB01G01KT 24/23 Q1010=
14-Jun-2023 SAID31 WAOC 142100 METAR WAOC 142100Z AUTO VRB01G01KT 24/23 Q1010=
14-Jun-2023 SAID31 WAOC 142130 METAR WAOC 142130Z AUTO VRB02G02KT 24/23 Q1010=
14-Jun-2023 SAID31 WAOC 142200 METAR WAOC 142200Z AUTO VRB01G01KT 24/23 Q1010=
14-Jun-2023 SAID31 WAOC 142230 METAR WAOC 142230Z AUTO VRB02G02KT 24/23 Q1010=
14-Jun-2023 SAID31 WAOC 142300 METAR WAOC 142300Z AUTO VRB01G01KT 24/23 Q1010=
14-Jun-2023 SAID31 WAOC 142330 METAR WAOC 142330Z AUTO VRB02G02KT 24/24 Q1011=
15-Jun-2023 SAID31 WAOC 150000 METAR WAOC 150000Z AUTO 29004G04KT 25/24 Q1011=
15-Jun-2023 SAID31 WAOC 150030 METAR WAOC 150030Z AUTO VRB02G02KT 26/24 Q1011=
15-Jun-2023 SAID31 WAOC 150100 METAR WAOC 150100Z AUTO VRB03G03KT 27/25 Q1012=
15-Jun-2023 SAID31 WAOC 150130 METAR WAOC 150130Z AUTO VRB01G01KT 190V310 28/25 Q1012=
15-Jun-2023 SAID31 WAOC 150200 METAR WAOC 150200Z AUTO VRB02G02KT 180V280 29/25 Q1011=
15-Jun-2023 SAID31 WAOC 150230 METAR WAOC 150230Z AUTO VRB02G02KT 200V290 27/24 Q1011=
15-Jun-2023 SAID31 WAOC 150300 METAR WAOC 150300Z AUTO 23004G04KT 180V270 29/23 Q1011=
15-Jun-2023 SAID31 WAOC 150330 METAR WAOC 150330Z AUTO 22004G04KT 160V230 29/23 Q1010=
15-Jun-2023 SAID31 WAOC 150400 METAR WAOC 150400Z AUTO VRB02G02KT 29/24 Q1010=
15-Jun-2023 SAID31 WAOC 150430 METAR WAOC 150430Z AUTO VRB03G03KT 110V210 28/25 Q1010=
15-Jun-2023 SAID31 WAOC 150500 METAR WAOC 150500Z AUTO VRB02G02KT 120V220 25/24 Q1011=
15-Jun-2023 SAID31 WAOC 150530 METAR WAOC 150530Z AUTO VRB01G01KT 190V300 25/24 Q1011=
15-Jun-2023 SAID31 WAOC 150600 METAR WAOC 150600Z AUTO VRB03G03KT 25/24 Q1011=
15-Jun-2023 SAID31 WAOC 150630 METAR WAOC 150630Z AUTO VRB01G01KT 210V290 25/24 Q1010=
15-Jun-2023 SAID31 WAOC 150700 METAR WAOC 150700Z AUTO VRB01G01KT 230V300 25/24 Q1010=
15-Jun-2023 SAID31 WAOC 150730 METAR WAOC 150730Z AUTO VRB02G02KT 25/24 Q1010=
15-Jun-2023 SAID31 WAOC 150800 METAR WAOC 150800Z AUTO VRB03G03KT 25/24 Q1010=
15-Jun-2023 SAID31 WAOC 150830 METAR WAOC 150830Z AUTO VRB03G02KT 210V280 25/24 Q1010=
15-Jun-2023 SAID31 WAOC 150900 METAR WAOC 150900Z AUTO VRB01G01KT 200V290 25/24 Q1010=
15-Jun-2023 SAID31 WAOC 150930 METAR WAOC 150930Z AUTO VRB02G02KT 180V250 25/24 Q1010=
15-Jun-2023 SAID31 WAOC 151000 METAR WAOC 151000Z AUTO VRB01G01KT 140V240 25/24 Q1010=
15-Jun-2023 SAID31 WAOC 151030 METAR WAOC 151030Z AUTO VRB01G01KT 070V150 25/24 Q1010=
15-Jun-2023 SAID31 WAOC 151100 METAR WAOC 151100Z AUTO VRB02G02KT 25/24 Q1010=
15-Jun-2023 SAID31 WAOC 151130 METAR WAOC 151130Z AUTO 00000G00KT 120V270 25/24 Q1010=
15-Jun-2023 SAID31 WAOC 151200 METAR WAOC 151200Z AUTO VRB02G02KT 25/24 Q1010=
15-Jun-2023 SAID31 WAOC 151230 METAR WAOC 151230Z AUTO VRB01G01KT 24/24 Q1010=
15-Jun-2023 SAID31 WAOC 151300 METAR WAOC 151300Z AUTO VRB01G01KT 25/24 Q1011=
15-Jun-2023 SAID31 WAOC 151330 METAR WAOC 151330Z AUTO VRB02G02KT 24/23 Q1011=
15-Jun-2023 SAID31 WAOC 151400 METAR WAOC 151400Z AUTO VRB03G03KT 24/23 Q1011=
15-Jun-2023 SAID31 WAOC 151430 METAR WAOC 151430Z AUTO VRB03G03KT 24/23 Q1011=
15-Jun-2023 SAID31 WAOC 151500 METAR WAOC 151500Z AUTO VRB03G03KT 24/23 Q1011=
15-Jun-2023 SAID31 WAOC 151530 METAR WAOC 151530Z AUTO VRB03G03KT 24/23 Q1011=
15-Jun-2023 SAID31 WAOC 151600 METAR WAOC 151600Z AUTO VRB02G02KT 24/23 Q1011=
15-Jun-2023 SAID31 WAOC 151630 METAR WAOC 151630Z AUTO VRB03G03KT 24/23 Q1011=
15-Jun-2023 SAID31 WAOC 151700 METAR WAOC 151700Z AUTO VRB02G02KT 24/23 Q1011=
15-Jun-2023 SAID31 WAOC 151730 METAR WAOC 151730Z AUTO VRB02G02KT 24/23 Q1011=
15-Jun-2023 SAID31 WAOC 151800 METAR WAOC 151800Z AUTO VRB02G02KT 230V300 24/23 Q1010=
15-Jun-2023 SAID31 WAOC 151830 METAR WAOC 151830Z AUTO VRB01G01KT 24/23 Q1010=
15-Jun-2023 SAID31 WAOC 151900 METAR WAOC 151900Z AUTO VRB02G02KT 24/23 Q1010=
15-Jun-2023 SAID31 WAOC 151930 METAR WAOC 151930Z AUTO VRB02G02KT 24/23 Q1010=
15-Jun-2023 SAID31 WAOC 152000 METAR WAOC 152000Z AUTO VRB01G01KT 24/23 Q1010=
15-Jun-2023 SAID31 WAOC 152030 METAR WAOC 152030Z AUTO VRB02G02KT 24/23 Q1010=
15-Jun-2023 SAID31 WAOC 152100 METAR WAOC 152100Z AUTO VRB02G02KT 23/23 Q1010=
15-Jun-2023 SAID31 WAOC 152130 METAR WAOC 152130Z AUTO VRB01G01KT 24/23 Q1010=
15-Jun-2023 SAID31 WAOC 152200 METAR WAOC 152200Z AUTO VRB02G02KT 24/23 Q1010=
15-Jun-2023 SAID31 WAOC 152230 METAR WAOC 152230Z AUTO VRB02G02KT 240V310 24/23 Q1011=
15-Jun-2023 SAID31 WAOC 152300 METAR WAOC 152300Z AUTO VRB02G02KT 24/23 Q1011=
16-Jun-2023 SAID31 WAOC 160000 METAR WAOC 160000Z AUTO VRB02G02KT 26/24 Q1011=
16-Jun-2023 SAID31 WAOC 160030 METAR WAOC 160030Z AUTO VRB02G03KT 26/24 Q1012=
16-Jun-2023 SAID31 WAOC 160100 METAR WAOC 160100Z AUTO VRB03G03KT 27/24 Q1012=
16-Jun-2023 SAID31 WAOC 160130 METAR WAOC 160130Z AUTO VRB01G01KT 240V330 28/25 Q1011=
16-Jun-2023 SAID31 WAOC 160200 METAR WAOC 160200Z AUTO VRB02G02KT 170V270 28/25 Q1011=
16-Jun-2023 SAID31 WAOC 160230 METAR WAOC 160230Z AUTO VRB01G01KT 080V220 29/24 Q1011=
16-Jun-2023 SAID31 WAOC 160300 METAR WAOC 160300Z AUTO VRB03G03KT 100V190 30/24 Q1011=
16-Jun-2023 SAID31 WAOC 160330 METAR WAOC 160330Z AUTO VRB02G02KT 100V170 30/23 Q1010=
16-Jun-2023 SAID31 WAOC 160400 METAR WAOC 160400Z AUTO VRB03G03KT 100V170 31/23 Q1010=
16-Jun-2023 SAID31 WAOC 160430 METAR WAOC 160430Z AUTO VRB01G01KT 100V170 31/22 Q1010=
16-Jun-2023 SAID31 WAOC 160500 METAR WAOC 160500Z AUTO VRB03G04KT 31/23 Q1009=
16-Jun-2023 SAID31 WAOC 160530 METAR WAOC 160530Z AUTO VRB02G02KT 100V190 31/23 Q1009=
16-Jun-2023 SAID31 WAOC 160600 METAR WAOC 160600Z AUTO VRB03G03KT 110V190 31/24 Q1008=
16-Jun-2023 SAID31 WAOC 160630 METAR WAOC 160630Z AUTO VRB03G03KT 120V190 30/24 Q1008=
16-Jun-2023 SAID31 WAOC 160700 METAR WAOC 160700Z AUTO VRB02G03KT 110V210 30/24 Q1008=
16-Jun-2023 SAID31 WAOC 160730 METAR WAOC 160730Z AUTO VRB03G03KT 110V210 30/24 Q1007=
16-Jun-2023 SAID31 WAOC 160800 METAR WAOC 160800Z AUTO VRB01G01KT 100V210 30/25 Q1007=
16-Jun-2023 SAID31 WAOC 160830 METAR WAOC 160830Z AUTO VRB03G02KT 120V210 30/24 Q1007=
16-Jun-2023 SAID31 WAOC 160900 METAR WAOC 160900Z AUTO VRB02G02KT 100V220 29/25 Q1007=
16-Jun-2023 SAID31 WAOC 160930 METAR WAOC 160930Z AUTO VRB02G02KT 150V250 29/24 Q1008=
16-Jun-2023 SAID31 WAOC 161000 METAR WAOC 161000Z AUTO VRB01G01KT 210V050 29/27 Q1008=
16-Jun-2023 SAID31 WAOC 161030 METAR WAOC 161030Z AUTO VRB01G01KT 29/27 Q1009=
16-Jun-2023 SAID31 WAOC 161100 METAR WAOC 161100Z AUTO VRB01G01KT 110V210 30/28 Q1009=
16-Jun-2023 SAID31 WAOC 161130 METAR WAOC 161130Z AUTO VRB02G02KT 090V190 31/29 Q1009=
16-Jun-2023 SAID31 WAOC 161200 METAR WAOC 161200Z AUTO VRB02G02KT 120V220 31/28 Q1010=
16-Jun-2023 SAID31 WAOC 161230 METAR WAOC 161230Z AUTO 00000G00KT 170V240 30/28 Q1010=
16-Jun-2023 SAID31 WAOC 161300 METAR WAOC 161300Z AUTO VRB01G01KT 30/29 Q1011=
16-Jun-2023 SAID31 WAOC 161330 METAR WAOC 161330Z AUTO VRB01G01KT 30/29 Q1011=
16-Jun-2023 SAID31 WAOC 161400 METAR WAOC 161400Z AUTO VRB01G01KT 190V270 29/28 Q1012=
16-Jun-2023 SAID31 WAOC 161430 METAR WAOC 161430Z AUTO VRB01G01KT 30/29 Q1012=
16-Jun-2023 SAID31 WAOC 161500 METAR WAOC 161500Z AUTO VRB01G02KT 28/28 Q1012=
16-Jun-2023 SAID31 WAOC 161530 METAR WAOC 161530Z AUTO VRB02G02KT 240V310 28/28 Q1012=
16-Jun-2023 SAID31 WAOC 161600 METAR WAOC 161600Z AUTO VRB01G01KT 230V310 28/28 Q1012=
16-Jun-2023 SAID31 WAOC 161630 METAR WAOC 161630Z AUTO VRB01G01KT 28/28 Q1011=
16-Jun-2023 SAID31 WAOC 161700 METAR WAOC 161700Z AUTO VRB01G01KT 220V300 28/28 Q1011=
16-Jun-2023 SAID31 WAOC 161730 METAR WAOC 161730Z AUTO VRB01G01KT 28/28 Q1011=
16-Jun-2023 SAID31 WAOC 161800 METAR WAOC 161800Z AUTO VRB01G01KT 140V210 28/28 Q1010=
16-Jun-2023 SAID31 WAOC 161830 METAR WAOC 161830Z AUTO VRB01G01KT 28/28 Q1010=
16-Jun-2023 SAID31 WAOC 161900 METAR WAOC 161900Z AUTO VRB01G01KT 28/28 Q1010=
16-Jun-2023 SAID31 WAOC 161930 METAR WAOC 161930Z AUTO VRB01G01KT 28/28 Q1010=
16-Jun-2023 SAID31 WAOC 162000 METAR WAOC 162000Z AUTO VRB02G02KT 28/28 Q1010=
16-Jun-2023 SAID31 WAOC 162030 METAR WAOC 162030Z AUTO VRB01G01KT 28/28 Q1010=
16-Jun-2023 SAID31 WAOC 162100 METAR WAOC 162100Z AUTO VRB01G01KT 170V300 28/28 Q1010=
16-Jun-2023 SAID31 WAOC 162130 METAR WAOC 162130Z AUTO VRB01G01KT 200V270 28/28 Q1010=
16-Jun-2023 SAID31 WAOC 162200 METAR WAOC 162200Z AUTO VRB02G02KT 150V320 28/28 Q1011=
16-Jun-2023 SAID31 WAOC 162230 METAR WAOC 162230Z AUTO VRB02G02KT 28/28 Q1011=
16-Jun-2023 SAID31 WAOC 162300 METAR WAOC 162300Z AUTO VRB01G01KT 29/29 Q1011=
17-Jun-2023 SAID31 WAOC 170000 METAR WAOC 170000Z AUTO VRB02G02KT 27/25 Q1012=
17-Jun-2023 SAID31 WAOC 170030 METAR WAOC 170030Z AUTO VRB01G01KT 170V260 27/25 Q1012=
17-Jun-2023 SAID31 WAOC 170100 METAR WAOC 170100Z AUTO VRB01G01KT 180V280 28/25 Q1012=
17-Jun-2023 SAID31 WAOC 170130 METAR WAOC 170130Z AUTO VRB02G02KT 160V230 28/24 Q1012=
17-Jun-2023 SAID31 WAOC 170200 METAR WAOC 170200Z AUTO 13004G04KT 100V200 30/24 Q1013=
17-Jun-2023 SAID31 WAOC 170230 METAR WAOC 170230Z AUTO VRB03G03KT 080V220 30/24 Q1012=
17-Jun-2023 SAID31 WAOC 170300 METAR WAOC 170300Z AUTO VRB03G03KT 100V230 30/23 Q1012=
17-Jun-2023 SAID31 WAOC 170330 METAR WAOC 170330Z AUTO VRB02G02KT 150V290 30/22 Q1011=
17-Jun-2023 SAID31 WAOC 170400 METAR WAOC 170400Z AUTO VRB02G02KT 120V280 31/22 Q1011=
17-Jun-2023 SAID31 WAOC 170430 METAR WAOC 170430Z AUTO 14004G04KT 100V280 31/23 Q1011=
17-Jun-2023 SAID31 WAOC 170500 METAR WAOC 170500Z AUTO VRB03G03KT 110V230 31/23 Q1010=
17-Jun-2023 SAID31 WAOC 170530 METAR WAOC 170530Z AUTO VRB03G03KT 160V230 30/23 Q1010=
17-Jun-2023 SAID31 WAOC 170600 METAR WAOC 170600Z AUTO VRB02G02KT 30/23 Q1010=
17-Jun-2023 SAID31 WAOC 170630 METAR WAOC 170630Z AUTO VRB02G02KT 160V230 30/23 Q1009=
17-Jun-2023 SAID31 WAOC 170700 METAR WAOC 170700Z AUTO VRB02G02KT 110V220 30/23 Q1009=
17-Jun-2023 SAID31 WAOC 170730 METAR WAOC 170730Z AUTO VRB03G03KT 30/23 Q1008=
17-Jun-2023 SAID31 WAOC 170800 METAR WAOC 170800Z AUTO VRB03G03KT 30/24 Q1008=
17-Jun-2023 SAID31 WAOC 170830 METAR WAOC 170830Z AUTO VRB01G01KT 070V220 30/24 Q1008=
17-Jun-2023 SAID31 WAOC 170900 METAR WAOC 170900Z AUTO VRB02G02KT 060V130 29/24 Q1008=
17-Jun-2023 SAID31 WAOC 170930 METAR WAOC 170930Z AUTO VRB02G02KT 29/24 Q1009=
17-Jun-2023 SAID31 WAOC 171000 METAR WAOC 171000Z AUTO VRB02G02KT 29/24 Q1009=
17-Jun-2023 SAID31 WAOC 171030 METAR WAOC 171030Z AUTO VRB02G02KT 28/24 Q1009=
17-Jun-2023 SAID31 WAOC 171100 METAR WAOC 171100Z AUTO VRB01G01KT 28/24 Q1009=
17-Jun-2023 SAID31 WAOC 171130 METAR WAOC 171130Z AUTO VRB02G02KT 100V190 28/24 Q1009=
17-Jun-2023 SAID31 WAOC 171200 METAR WAOC 171200Z AUTO VRB01G01KT 120V190 28/25 Q1010=
17-Jun-2023 SAID31 WAOC 171230 METAR WAOC 171230Z AUTO VRB01G01KT 100V220 28/24 Q1010=
17-Jun-2023 SAID31 WAOC 171300 METAR WAOC 171300Z AUTO VRB01G01KT 110V200 28/24 Q1010=
17-Jun-2023 SAID31 WAOC 171330 METAR WAOC 171330Z AUTO VRB01G01KT 28/25 Q1011=
17-Jun-2023 SAID31 WAOC 171400 METAR WAOC 171400Z AUTO VRB01G01KT 280V010 27/25 Q1011=
17-Jun-2023 SAID31 WAOC 171430 METAR WAOC 171430Z AUTO 00000G00KT 090V000 27/25 Q1011=
17-Jun-2023 SAID31 WAOC 171500 METAR WAOC 171500Z AUTO 00000G00KT 27/25 Q1011=
17-Jun-2023 SAID31 WAOC 171530 METAR WAOC 171530Z AUTO VRB02G02KT 27/26 Q1011=
17-Jun-2023 SAID31 WAOC 171600 METAR WAOC 171600Z AUTO VRB02G02KT 26/26 Q1011=
17-Jun-2023 SAID31 WAOC 171630 METAR WAOC 171630Z AUTO VRB01G01KT 190V280 26/25 Q1011=
17-Jun-2023 SAID31 WAOC 171700 METAR WAOC 171700Z AUTO VRB01G01KT 27/26 Q1011=
17-Jun-2023 SAID31 WAOC 171730 METAR WAOC 171730Z AUTO VRB02G02KT 26/25 Q1011=
17-Jun-2023 SAID31 WAOC 171800 METAR WAOC 171800Z AUTO VRB03G03KT 26/25 Q1011=
17-Jun-2023 SAID31 WAOC 171830 METAR WAOC 171830Z AUTO VRB03G03KT 26/25 Q1011=
17-Jun-2023 SAID31 WAOC 171900 METAR WAOC 171900Z AUTO VRB02G02KT 26/25 Q1010=
17-Jun-2023 SAID31 WAOC 171930 METAR WAOC 171930Z AUTO VRB02G02KT 26/25 Q1010=
17-Jun-2023 SAID31 WAOC 172000 METAR WAOC 172000Z AUTO VRB01G01KT 26/25 Q1010=
17-Jun-2023 SAID31 WAOC 172030 METAR WAOC 172030Z AUTO VRB01G01KT 26/25 Q1010=
17-Jun-2023 SAID31 WAOC 172100 METAR WAOC 172100Z AUTO VRB01G01KT 190V290 26/25 Q1010=
17-Jun-2023 SAID31 WAOC 172130 METAR WAOC 172130Z AUTO VRB01G01KT 26/25 Q1010=
17-Jun-2023 SAID31 WAOC 172200 METAR WAOC 172200Z AUTO VRB01G01KT 26/25 Q1010=
17-Jun-2023 SAID31 WAOC 172230 METAR WAOC 172230Z AUTO VRB02G02KT 230V300 26/25 Q1011=
17-Jun-2023 SAID31 WAOC 172300 METAR WAOC 172300Z AUTO VRB02G02KT 26/26 Q1011=
17-Jun-2023 SAID31 WAOC 172330 METAR WAOC 172330Z AUTO VRB01G01KT 27/26 Q1011=
18-Jun-2023 SAID31 WAOC 180000 METAR WAOC 180000Z AUTO VRB03G03KT 27/25 Q1012=
18-Jun-2023 SAID31 WAOC 180030 METAR WAOC 180030Z AUTO VRB03G03KT 28/26 Q1012=
18-Jun-2023 SAID31 WAOC 180100 METAR WAOC 180100Z AUTO VRB02G02KT 28/26 Q1012=
18-Jun-2023 SAID31 WAOC 180130 METAR WAOC 180130Z AUTO VRB02G02KT 240V310 29/26 Q1012=
18-Jun-2023 SAID31 WAOC 180200 METAR WAOC 180200Z AUTO VRB01G01KT 140V260 29/26 Q1012=
18-Jun-2023 SAID31 WAOC 180230 METAR WAOC 180230Z AUTO 00000G00KT 090V310 30/24 Q1012=
18-Jun-2023 SAID31 WAOC 180300 METAR WAOC 180300Z AUTO VRB02G02KT 140V230 29/25 Q1012=
18-Jun-2023 SAID31 WAOC 180330 METAR WAOC 180330Z AUTO VRB02G02KT 150V260 29/25 Q1012=
18-Jun-2023 SAID31 WAOC 180400 METAR WAOC 180400Z AUTO VRB01G01KT 120V240 29/25 Q1011=
18-Jun-2023 SAID31 WAOC 180430 METAR WAOC 180430Z AUTO VRB02G02KT 160V230 30/25 Q1011=
18-Jun-2023 SAID31 WAOC 180500 METAR WAOC 180500Z AUTO VRB01G01KT 050V210 30/24 Q1010=
18-Jun-2023 SAID31 WAOC 180530 METAR WAOC 180530Z AUTO VRB02G02KT 060V210 31/22 Q1009=
18-Jun-2023 SAID31 WAOC 180600 METAR WAOC 180600Z AUTO VRB02G02KT 100V240 31/24 Q1009=
18-Jun-2023 SAID31 WAOC 180630 METAR WAOC 180630Z AUTO VRB01G01KT 30/23 Q1008=
18-Jun-2023 SAID31 WAOC 180700 METAR WAOC 180700Z AUTO VRB01G01KT 110V180 31/22 Q1008=
18-Jun-2023 SAID31 WAOC 180730 METAR WAOC 180730Z AUTO VRB02G02KT 30/25 Q1008=
18-Jun-2023 SAID31 WAOC 180800 METAR WAOC 180800Z AUTO VRB03G03KT 100V200 30/25 Q1008=
18-Jun-2023 SAID31 WAOC 180830 METAR WAOC 180830Z AUTO VRB01G01KT 080V220 30/26 Q1008=
18-Jun-2023 SAID31 WAOC 180900 METAR WAOC 180900Z AUTO VRB01G01KT 30/25 Q1008=
18-Jun-2023 SAID31 WAOC 180930 METAR WAOC 180930Z AUTO VRB02G02KT 130V210 30/25 Q1008=
18-Jun-2023 SAID31 WAOC 181000 METAR WAOC 181000Z AUTO VRB02G02KT 30/26 Q1008=
18-Jun-2023 SAID31 WAOC 181030 METAR WAOC 181030Z AUTO VRB02G02KT 29/26 Q1008=
18-Jun-2023 SAID31 WAOC 181100 METAR WAOC 181100Z AUTO VRB03G03KT 29/27 Q1009=
18-Jun-2023 SAID31 WAOC 181130 METAR WAOC 181130Z AUTO VRB02G02KT 29/26 Q1009=
18-Jun-2023 SAID31 WAOC 181200 METAR WAOC 181200Z AUTO VRB01G01KT 29/26 Q1009=
18-Jun-2023 SAID31 WAOC 181230 METAR WAOC 181230Z AUTO VRB01G01KT 29/26 Q1010=
18-Jun-2023 SAID31 WAOC 181300 METAR WAOC 181300Z AUTO 00000G00KT 330V100 29/26 Q1010=
18-Jun-2023 SAID31 WAOC 181330 METAR WAOC 181330Z AUTO VRB01G01KT 100V180 29/26 Q1010=
18-Jun-2023 SAID31 WAOC 181400 METAR WAOC 181400Z AUTO VRB01G01KT 28/26 Q1010=
18-Jun-2023 SAID31 WAOC 181430 METAR WAOC 181430Z AUTO VRB01G01KT 28/26 Q1011=
18-Jun-2023 SAID31 WAOC 181500 METAR WAOC 181500Z AUTO 00000G00KT 28/26 Q1011=
18-Jun-2023 SAID31 WAOC 181530 METAR WAOC 181530Z AUTO VRB01G01KT 28/26 Q1011=
18-Jun-2023 SAID31 WAOC 181600 METAR WAOC 181600Z AUTO VRB02G02KT 28/27 Q1011=
18-Jun-2023 SAID31 WAOC 181630 METAR WAOC 181630Z AUTO VRB02G02KT 28/27 Q1011=
18-Jun-2023 SAID31 WAOC 181700 METAR WAOC 181700Z AUTO VRB01G01KT 27/27 Q1010=
18-Jun-2023 SAID31 WAOC 181730 METAR WAOC 181730Z AUTO VRB02G02KT 28/27 Q1010=
18-Jun-2023 SAID31 WAOC 181800 METAR WAOC 181800Z AUTO VRB02G02KT 28/27 Q1010=
18-Jun-2023 SAID31 WAOC 181830 METAR WAOC 181830Z AUTO VRB02G02KT 27/27 Q1010=
18-Jun-2023 SAID31 WAOC 181900 METAR WAOC 181900Z AUTO VRB03G03KT 27/27 Q1010=
18-Jun-2023 SAID31 WAOC 181930 METAR WAOC 181930Z AUTO VRB01G01KT 27/27 Q1009=
18-Jun-2023 SAID31 WAOC 182000 METAR WAOC 182000Z AUTO VRB01G01KT 27/26 Q1010=
18-Jun-2023 SAID31 WAOC 182030 METAR WAOC 182030Z AUTO VRB01G01KT 27/27 Q1009=
18-Jun-2023 SAID31 WAOC 182100 METAR WAOC 182100Z AUTO VRB03G03KT 27/27 Q1010=
18-Jun-2023 SAID31 WAOC 182130 METAR WAOC 182130Z AUTO VRB02G02KT 27/26 Q1009=
18-Jun-2023 SAID31 WAOC 182200 METAR WAOC 182200Z AUTO VRB01G01KT 230V320 27/27 Q1010=
18-Jun-2023 SAID31 WAOC 182230 METAR WAOC 182230Z AUTO VRB01G01KT 240V310 27/26 Q1010=
18-Jun-2023 SAID31 WAOC 182300 METAR WAOC 182300Z AUTO VRB01G01KT 27/26 Q1010=
18-Jun-2023 SAID31 WAOC 182330 METAR WAOC 182330Z AUTO VRB01G01KT 27/26 Q1010=
19-Jun-2023 SAID31 WAOC 190000 METAR WAOC 190000Z AUTO VRB01G01KT 310V020 28/26 Q1011=
19-Jun-2023 SAID31 WAOC 190030 METAR WAOC 190030Z AUTO VRB01G01KT 29/27 Q1011=
19-Jun-2023 SAID31 WAOC 190100 METAR WAOC 190100Z AUTO VRB02G02KT 29/27 Q1011=
19-Jun-2023 SAID31 WAOC 190130 METAR WAOC 190130Z AUTO VRB02G02KT 200V330 29/27 Q1011=
19-Jun-2023 SAID31 WAOC 190200 METAR WAOC 190200Z AUTO VRB01G01KT 140V270 29/26 Q1011=
19-Jun-2023 SAID31 WAOC 190230 METAR WAOC 190230Z AUTO 00000G00KT 090V270 29/26 Q1011=
19-Jun-2023 SAID31 WAOC 190300 METAR WAOC 190300Z AUTO VRB01G01KT 200V300 30/25 Q1011=
19-Jun-2023 SAID31 WAOC 190330 METAR WAOC 190330Z AUTO VRB01G01KT 300V050 30/25 Q1010=
19-Jun-2023 SAID31 WAOC 190400 METAR WAOC 190400Z AUTO VRB01G01KT 30/25 Q1010=
19-Jun-2023 SAID31 WAOC 190430 METAR WAOC 190430Z AUTO VRB01G01KT 150V250 31/24 Q1009=
19-Jun-2023 SAID31 WAOC 190500 METAR WAOC 190500Z AUTO VRB03G03KT 30/23 Q1009=
19-Jun-2023 SAID31 WAOC 190530 METAR WAOC 190530Z AUTO VRB01G01KT 31/25 Q1009=
19-Jun-2023 SAID31 WAOC 190600 METAR WAOC 190600Z AUTO VRB03G03KT 090V170 30/24 Q1008=
19-Jun-2023 SAID31 WAOC 190630 METAR WAOC 190630Z AUTO VRB02G02KT 070V140 31/24 Q1008=
19-Jun-2023 SAID31 WAOC 190700 METAR WAOC 190700Z AUTO VRB02G02KT 31/25 Q1007=
19-Jun-2023 SAID31 WAOC 190730 METAR WAOC 190730Z AUTO VRB02G02KT 090V170 31/24 Q1007=
19-Jun-2023 SAID31 WAOC 190800 METAR WAOC 190800Z AUTO VRB02G02KT 080V160 31/24 Q1007=
19-Jun-2023 SAID31 WAOC 190830 METAR WAOC 190830Z AUTO VRB02G02KT 31/24 Q1007=
19-Jun-2023 SAID31 WAOC 190900 METAR WAOC 190900Z AUTO VRB03G03KT 140V220 31/26 Q1007=
19-Jun-2023 SAID31 WAOC 190930 METAR WAOC 190930Z AUTO VRB02G02KT 180V260 30/26 Q1008=
19-Jun-2023 SAID31 WAOC 191000 METAR WAOC 191000Z AUTO 29005G05KT 27/24 Q1009=
19-Jun-2023 SAID31 WAOC 191030 METAR WAOC 191030Z AUTO 32004G04KT 26/25 Q1010=
19-Jun-2023 SAID31 WAOC 191100 METAR WAOC 191100Z AUTO 30004G04KT 25/25 Q1010=
19-Jun-2023 SAID31 WAOC 191130 METAR WAOC 191130Z AUTO VRB03G03KT 25/24 Q1010=
19-Jun-2023 SAID31 WAOC 191200 METAR WAOC 191200Z AUTO VRB02G02KT 25/24 Q1011=
19-Jun-2023 SAID31 WAOC 191230 METAR WAOC 191230Z AUTO 00000G00KT 200V340 25/24 Q1011=
19-Jun-2023 SAID31 WAOC 191300 METAR WAOC 191300Z AUTO VRB01G01KT 250V010 25/24 Q1012=
19-Jun-2023 SAID31 WAOC 191330 METAR WAOC 191330Z AUTO VRB02G02KT 25/24 Q1012=
19-Jun-2023 SAID31 WAOC 191400 METAR WAOC 191400Z AUTO 00000G00KT 190V310 25/24 Q1012=
19-Jun-2023 SAID31 WAOC 191430 METAR WAOC 191430Z AUTO VRB02G02KT 160V230 25/24 Q1012=
19-Jun-2023 SAID31 WAOC 191700 METAR WAOC 191700Z AUTO VRB01G01KT 140V240 25/24 Q1011=
19-Jun-2023 SAID31 WAOC 191730 METAR WAOC 191730Z AUTO VRB01G01KT 210V280 25/24 Q1011=
19-Jun-2023 SAID31 WAOC 191800 METAR WAOC 191800Z AUTO VRB03G03KT 130V250 25/24 Q1011=
19-Jun-2023 SAID31 WAOC 191830 METAR WAOC 191830Z AUTO VRB03G03KT 170V240 25/24 Q1011=
19-Jun-2023 SAID31 WAOC 191900 METAR WAOC 191900Z AUTO VRB02G02KT 170V240 25/24 Q1011=
19-Jun-2023 SAID31 WAOC 191930 METAR WAOC 191930Z AUTO VRB01G01KT 25/24 Q1011=
19-Jun-2023 SAID31 WAOC 192000 METAR WAOC 192000Z AUTO VRB02G02KT 180V290 25/24 Q1011=
19-Jun-2023 SAID31 WAOC 192030 METAR WAOC 192030Z AUTO VRB01G01KT 180V260 25/24 Q1011=
19-Jun-2023 SAID31 WAOC 192100 METAR WAOC 192100Z AUTO VRB01G01KT 200V300 25/24 Q1011=
19-Jun-2023 SAID31 WAOC 192130 METAR WAOC 192130Z AUTO VRB01G01KT 24/23 Q1011=
19-Jun-2023 SAID31 WAOC 192200 METAR WAOC 192200Z AUTO VRB02G01KT 25/23 Q1011=
19-Jun-2023 SAID31 WAOC 192230 METAR WAOC 192230Z AUTO VRB01G01KT 25/23 Q1011=
19-Jun-2023 SAID31 WAOC 192300 METAR WAOC 192300Z AUTO 00000G00KT 25/23 Q1012=
19-Jun-2023 SAID31 WAOC 192330 METAR WAOC 192330Z AUTO VRB02G02KT 25/24 Q1012=
20-Jun-2023 SAID31 WAOC 200000 METAR WAOC 200000Z AUTO VRB02G02KT 350V040 25/24 Q1013=
20-Jun-2023 SAID31 WAOC 200030 METAR WAOC 200030Z AUTO VRB01G01KT 25/24 Q1013=
20-Jun-2023 SAID31 WAOC 200100 METAR WAOC 200100Z AUTO VRB01G01KT 340V040 25/24 Q1013=
20-Jun-2023 SAID31 WAOC 200130 METAR WAOC 200130Z AUTO VRB01G01KT 330V040 25/24 Q1013=
20-Jun-2023 SAID31 WAOC 200200 METAR WAOC 200200Z AUTO VRB02G02KT 25/25 Q1013=
20-Jun-2023 SAID31 WAOC 200230 METAR WAOC 200230Z AUTO VRB01G01KT 310V010 26/24 Q1013=
20-Jun-2023 SAID31 WAOC 200300 METAR WAOC 200300Z AUTO 31004G04KT 26/24 Q1012=
20-Jun-2023 SAID31 WAOC 200330 METAR WAOC 200330Z AUTO 30004G04KT 27/24 Q1012=
20-Jun-2023 SAID31 WAOC 200400 METAR WAOC 200400Z AUTO 29005G05KT 27/25 Q1012=
20-Jun-2023 SAID31 WAOC 200430 METAR WAOC 200430Z AUTO 31005G05KT 28/24 Q1011=
20-Jun-2023 SAID31 WAOC 200500 METAR WAOC 200500Z AUTO 30004G04KT 28/24 Q1011=
20-Jun-2023 SAID31 WAOC 200600 METAR WAOC 200600Z AUTO 30004G04KT 28/23 Q1011=
20-Jun-2023 SAID31 WAOC 200630 METAR WAOC 200630Z AUTO 29004G04KT 28/23 Q1011=
20-Jun-2023 SAID31 WAOC 200700 METAR WAOC 200700Z AUTO 29004G04KT 28/23 Q1010=
20-Jun-2023 SAID31 WAOC 200730 METAR WAOC 200730Z AUTO VRB01G01KT 300V000 28/24 Q1010=
20-Jun-2023 SAID31 WAOC 200800 METAR WAOC 200800Z AUTO 34004G04KT 28/23 Q1010=
20-Jun-2023 SAID31 WAOC 200830 METAR WAOC 200830Z AUTO VRB01G01KT 330V030 28/23 Q1010=
20-Jun-2023 SAID31 WAOC 200900 METAR WAOC 200900Z AUTO VRB01G01KT 340V040 28/23 Q1010=
20-Jun-2023 SAID31 WAOC 200930 METAR WAOC 200930Z AUTO VRB01G01KT 310V010 27/23 Q1011=
20-Jun-2023 SAID31 WAOC 201000 METAR WAOC 201000Z AUTO VRB01G01KT 330V080 27/24 Q1011=
20-Jun-2023 SAID31 WAOC 201030 METAR WAOC 201030Z AUTO 00000G00KT 27/25 Q1011=
20-Jun-2023 SAID31 WAOC 201100 METAR WAOC 201100Z AUTO VRB01G01KT 27/25 Q1011=
20-Jun-2023 SAID31 WAOC 201130 METAR WAOC 201130Z AUTO VRB01G01KT 27/24 Q1011=
20-Jun-2023 SAID31 WAOC 201200 METAR WAOC 201200Z AUTO VRB01G01KT 330V010 27/25 Q1012=
20-Jun-2023 SAID31 WAOC 201230 METAR WAOC 201230Z AUTO VRB01G01KT 350V050 26/25 Q1012=
20-Jun-2023 SAID31 WAOC 201300 METAR WAOC 201300Z AUTO VRB02G02KT 26/25 Q1012=
20-Jun-2023 SAID31 WAOC 201330 METAR WAOC 201330Z AUTO VRB01G01KT 26/25 Q1012=
20-Jun-2023 SAID31 WAOC 201400 METAR WAOC 201400Z AUTO 00000G00KT 26/25 Q1012=
20-Jun-2023 SAID31 WAOC 201430 METAR WAOC 201430Z AUTO VRB01G01KT 220V050 26/25 Q1011=
20-Jun-2023 SAID31 WAOC 201500 METAR WAOC 201500Z AUTO VRB02G02KT 25/25 Q1011=
20-Jun-2023 SAID31 WAOC 201530 METAR WAOC 201530Z AUTO VRB01G01KT 25/25 Q1011=
20-Jun-2023 SAID31 WAOC 201600 METAR WAOC 201600Z AUTO VRB01G01KT 220V310 25/25 Q1011=
20-Jun-2023 SAID31 WAOC 201630 METAR WAOC 201630Z AUTO VRB03G03KT 25/24 Q1011=
20-Jun-2023 SAID31 WAOC 201700 METAR WAOC 201700Z AUTO VRB02G02KT 25/24 Q1011=
20-Jun-2023 SAID31 WAOC 201730 METAR WAOC 201730Z AUTO VRB02G02KT 25/24 Q1011=
20-Jun-2023 SAID31 WAOC 201800 METAR WAOC 201800Z AUTO VRB01G01KT 25/24 Q1011=
20-Jun-2023 SAID31 WAOC 201830 METAR WAOC 201830Z AUTO VRB01G01KT 25/24 Q1010=
20-Jun-2023 SAID31 WAOC 201900 METAR WAOC 201900Z AUTO VRB01G01KT 25/25 Q1010=
20-Jun-2023 SAID31 WAOC 202000 METAR WAOC 202000Z AUTO VRB01G01KT 25/24 Q1010=
20-Jun-2023 SAID31 WAOC 202030 METAR WAOC 202030Z AUTO VRB01G01KT 25/24 Q1010=
20-Jun-2023 SAID31 WAOC 202100 METAR WAOC 202100Z AUTO VRB01G01KT 25/24 Q1011=
20-Jun-2023 SAID31 WAOC 202130 METAR WAOC 202130Z AUTO VRB01G01KT 25/24 Q1011=
20-Jun-2023 SAID31 WAOC 202200 METAR WAOC 202200Z AUTO VRB01G01KT 25/24 Q1011=
20-Jun-2023 SAID31 WAOC 202230 METAR WAOC 202230Z AUTO VRB02G02KT 25/24 Q1011=
20-Jun-2023 SAID31 WAOC 202300 METAR WAOC 202300Z AUTO VRB02G02KT 25/24 Q1011=
20-Jun-2023 SAID31 WAOC 202330 METAR WAOC 202330Z AUTO VRB01G01KT 25/24 Q1011=
21-Jun-2023 SAID31 WAOC 210000 METAR WAOC 210000Z AUTO VRB01G01KT 26/24 Q1012=
21-Jun-2023 SAID31 WAOC 210030 METAR WAOC 210030Z AUTO VRB01G01KT 27/24 Q1012=
21-Jun-2023 SAID31 WAOC 210100 METAR WAOC 210100Z AUTO VRB02G02KT 28/24 Q1012=
21-Jun-2023 SAID31 WAOC 210130 METAR WAOC 210130Z AUTO 00000G00KT 040V320 28/25 Q1012=
21-Jun-2023 SAID31 WAOC 210200 METAR WAOC 210200Z AUTO VRB01G01KT 29/25 Q1011=
21-Jun-2023 SAID31 WAOC 210230 METAR WAOC 210230Z AUTO VRB02G02KT 140V210 30/25 Q1011=
21-Jun-2023 SAID31 WAOC 210300 METAR WAOC 210300Z AUTO VRB01G01KT 150V240 30/25 Q1011=
21-Jun-2023 SAID31 WAOC 210330 METAR WAOC 210330Z AUTO VRB03G03KT 100V200 31/25 Q1011=
21-Jun-2023 SAID31 WAOC 210400 METAR WAOC 210400Z AUTO VRB03G03KT 120V190 31/24 Q1010=
21-Jun-2023 SAID31 WAOC 210430 METAR WAOC 210430Z AUTO 15004G04KT 110V220 32/24 Q1010=
21-Jun-2023 SAID31 WAOC 210500 METAR WAOC 210500Z AUTO VRB02G02KT 100V220 32/24 Q1010=
21-Jun-2023 SAID31 WAOC 210530 METAR WAOC 210530Z AUTO VRB02G03KT 100V230 33/24 Q1009=
21-Jun-2023 SAID31 WAOC 210600 METAR WAOC 210600Z AUTO VRB02G03KT 090V220 31/23 Q1009=
21-Jun-2023 SAID31 WAOC 210630 METAR WAOC 210630Z AUTO 15005G05KT 120V220 32/24 Q1009=
21-Jun-2023 SAID31 WAOC 210700 METAR WAOC 210700Z AUTO VRB02G02KT 080V220 32/23 Q1008=
21-Jun-2023 SAID31 WAOC 210730 METAR WAOC 210730Z AUTO VRB03G03KT 120V200 31/22 Q1008=
21-Jun-2023 SAID31 WAOC 210800 METAR WAOC 210800Z AUTO VRB03G03KT 130V220 31/23 Q1008=
21-Jun-2023 SAID31 WAOC 210830 METAR WAOC 210830Z AUTO 15004G04KT 130V230 31/23 Q1008=
21-Jun-2023 SAID31 WAOC 210900 METAR WAOC 210900Z AUTO 16004G04KT 120V220 31/23 Q1009=
21-Jun-2023 SAID31 WAOC 210930 METAR WAOC 210930Z AUTO 14004G04KT 30/23 Q1009=
21-Jun-2023 SAID31 WAOC 211000 METAR WAOC 211000Z AUTO VRB02G02KT 30/23 Q1009=
21-Jun-2023 SAID31 WAOC 211030 METAR WAOC 211030Z AUTO VRB02G02KT 29/24 Q1010=
21-Jun-2023 SAID31 WAOC 211100 METAR WAOC 211100Z AUTO VRB02G02KT 28/24 Q1010=
21-Jun-2023 SAID31 WAOC 211130 METAR WAOC 211130Z AUTO VRB02G02KT 090V190 28/24 Q1010=
21-Jun-2023 SAID31 WAOC 211200 METAR WAOC 211200Z AUTO VRB01G01KT 28/24 Q1011=
21-Jun-2023 SAID31 WAOC 211230 METAR WAOC 211230Z AUTO VRB01G01KT 28/24 Q1011=
21-Jun-2023 SAID31 WAOC 211300 METAR WAOC 211300Z AUTO VRB01G01KT 110V180 28/24 Q1011=
21-Jun-2023 SAID31 WAOC 211330 METAR WAOC 211330Z AUTO VRB01G01KT 120V200 27/24 Q1012=
21-Jun-2023 SAID31 WAOC 211400 METAR WAOC 211400Z AUTO VRB01G01KT 180V250 26/24 Q1012=
21-Jun-2023 SAID31 WAOC 211430 METAR WAOC 211430Z AUTO VRB01G01KT 170V240 26/24 Q1012=
21-Jun-2023 SAID31 WAOC 211500 METAR WAOC 211500Z AUTO VRB02G02KT 29/28 Q1012=
21-Jun-2023 SAID31 WAOC 211530 METAR WAOC 211530Z AUTO VRB01G01KT 180V290 30/30 Q1012=
21-Jun-2023 SAID31 WAOC 211600 METAR WAOC 211600Z AUTO VRB02G02KT 31/31 Q1012=
21-Jun-2023 SAID31 WAOC 211630 METAR WAOC 211630Z AUTO VRB02G02KT 32/31 Q1011=
21-Jun-2023 SAID31 WAOC 211700 METAR WAOC 211700Z AUTO VRB02G02KT 31/32 Q1011=
21-Jun-2023 SAID31 WAOC 211730 METAR WAOC 211730Z AUTO VRB02G02KT 30/30 Q1011=
21-Jun-2023 SAID31 WAOC 211800 METAR WAOC 211800Z AUTO VRB02G02KT Q1011=
21-Jun-2023 SAID31 WAOC 211830 METAR WAOC 211830Z AUTO VRB02G02KT 220V300 Q1011=
21-Jun-2023 SAID31 WAOC 211900 METAR WAOC 211900Z AUTO VRB02G02KT Q1011=
21-Jun-2023 SAID31 WAOC 211930 METAR WAOC 211930Z AUTO VRB01G01KT Q1011=
21-Jun-2023 SAID31 WAOC 212000 METAR WAOC 212000Z AUTO VRB01G01KT Q1011=
21-Jun-2023 SAID31 WAOC 212030 METAR WAOC 212030Z AUTO VRB03G03KT 28/28 Q1011=
21-Jun-2023 SAID31 WAOC 212100 METAR WAOC 212100Z AUTO VRB02G02KT 28/28 Q1011=
21-Jun-2023 SAID31 WAOC 212130 METAR WAOC 212130Z AUTO VRB02G02KT 28/28 Q1011=
21-Jun-2023 SAID31 WAOC 212200 METAR WAOC 212200Z AUTO VRB01G01KT 200V000 26/26 Q1011=
21-Jun-2023 SAID31 WAOC 212230 METAR WAOC 212230Z AUTO VRB01G01KT 26/26 Q1011=
21-Jun-2023 SAID31 WAOC 212300 METAR WAOC 212300Z AUTO VRB01G01KT 25/25 Q1011=
21-Jun-2023 SAID31 WAOC 212330 METAR WAOC 212330Z AUTO VRB01G01KT 220V290 26/25 Q1011=
22-Jun-2023 SAID31 WAOC 220000 METAR WAOC 220000Z AUTO VRB01G01KT 26/24 Q1011=
22-Jun-2023 SAID31 WAOC 220030 METAR WAOC 220030Z AUTO VRB01G01KT 180V300 27/24 Q1011=
22-Jun-2023 SAID31 WAOC 220100 METAR WAOC 220100Z AUTO VRB02G01KT 180V270 28/24 Q1011=
22-Jun-2023 SAID31 WAOC 220130 METAR WAOC 220130Z AUTO VRB02G02KT 100V250 29/23 Q1011=
22-Jun-2023 SAID31 WAOC 220200 METAR WAOC 220200Z AUTO 16004G04KT 080V190 30/24 Q1011=
22-Jun-2023 SAID31 WAOC 220230 METAR WAOC 220230Z AUTO VRB03G03KT 100V240 30/24 Q1011=
22-Jun-2023 SAID31 WAOC 220300 METAR WAOC 220300Z AUTO VRB03G03KT 140V230 30/23 Q1010=
22-Jun-2023 SAID31 WAOC 220330 METAR WAOC 220330Z AUTO 20004G04KT 100V210 31/23 Q1010=
22-Jun-2023 SAID31 WAOC 220400 METAR WAOC 220400Z AUTO VRB03G03KT 140V230 31/23 Q1009=
22-Jun-2023 SAID31 WAOC 220430 METAR WAOC 220430Z AUTO VRB03G03KT 350V170 31/22 Q1009=
22-Jun-2023 SAID31 WAOC 220500 METAR WAOC 220500Z AUTO 12004G04KT 100V210 32/22 Q1009=
22-Jun-2023 SAID31 WAOC 220530 METAR WAOC 220530Z AUTO 13004G04KT 090V180 32/23 Q1008=
22-Jun-2023 SAID31 WAOC 220600 METAR WAOC 220600Z AUTO VRB03G03KT 120V210 32/22 Q1008=
22-Jun-2023 SAID31 WAOC 220630 METAR WAOC 220630Z AUTO VRB02G02KT 150V230 32/23 Q1007=
22-Jun-2023 SAID31 WAOC 220700 METAR WAOC 220700Z AUTO VRB03G03KT 190V270 32/24 Q1007=
22-Jun-2023 SAID31 WAOC 220730 METAR WAOC 220730Z AUTO VRB03G03KT 140V250 32/24 Q1007=
22-Jun-2023 SAID31 WAOC 220800 METAR WAOC 220800Z AUTO VRB03G03KT 160V230 30/24 Q1007=
22-Jun-2023 SAID31 WAOC 220830 METAR WAOC 220830Z AUTO VRB02G02KT 160V230 31/24 Q1007=
22-Jun-2023 SAID31 WAOC 220900 METAR WAOC 220900Z AUTO VRB03G03KT 180V250 30/25 Q1008=
22-Jun-2023 SAID31 WAOC 220930 METAR WAOC 220930Z AUTO VRB02G02KT 140V270 30/25 Q1008=
22-Jun-2023 SAID31 WAOC 221000 METAR WAOC 221000Z AUTO VRB03G03KT 170V240 29/25 Q1008=
22-Jun-2023 SAID31 WAOC 221030 METAR WAOC 221030Z AUTO VRB02G02KT 200V280 29/25 Q1008=
22-Jun-2023 SAID31 WAOC 221100 METAR WAOC 221100Z AUTO VRB02G02KT 29/25 Q1009=
22-Jun-2023 SAID31 WAOC 221130 METAR WAOC 221130Z AUTO VRB01G01KT 120V210 28/25 Q1009=
22-Jun-2023 SAID31 WAOC 221200 METAR WAOC 221200Z AUTO VRB01G01KT 100V220 28/25 Q1009=
22-Jun-2023 SAID31 WAOC 221230 METAR WAOC 221230Z AUTO VRB01G01KT 28/25 Q1010=
22-Jun-2023 SAID31 WAOC 221300 METAR WAOC 221300Z AUTO VRB01G01KT 28/25 Q1010=
22-Jun-2023 SAID31 WAOC 221330 METAR WAOC 221330Z AUTO VRB01G01KT 27/25 Q1010=
22-Jun-2023 SAID31 WAOC 221400 METAR WAOC 221400Z AUTO VRB01G01KT 160V230 27/25 Q1010=
22-Jun-2023 SAID31 WAOC 221430 METAR WAOC 221430Z AUTO VRB01G01KT 27/25 Q1010=
22-Jun-2023 SAID31 WAOC 221500 METAR WAOC 221500Z AUTO VRB01G01KT 27/25 Q1010=
22-Jun-2023 SAID31 WAOC 221530 METAR WAOC 221530Z AUTO VRB02G02KT 26/25 Q1010=
22-Jun-2023 SAID31 WAOC 221600 METAR WAOC 221600Z AUTO VRB02G02KT 31/30 Q1010=
22-Jun-2023 SAID31 WAOC 221630 METAR WAOC 221630Z AUTO VRB02G02KT 28/27 Q1010=
22-Jun-2023 SAID31 WAOC 221700 METAR WAOC 221700Z AUTO VRB02G02KT 28/27 Q1010=
22-Jun-2023 SAID31 WAOC 221730 METAR WAOC 221730Z AUTO VRB01G01KT 27/27 Q1010=
22-Jun-2023 SAID31 WAOC 221800 METAR WAOC 221800Z AUTO VRB02G02KT 27/26 Q1010=
22-Jun-2023 SAID31 WAOC 221830 METAR WAOC 221830Z AUTO VRB01G02KT 27/26 Q1009=
22-Jun-2023 SAID31 WAOC 221900 METAR WAOC 221900Z AUTO VRB02G02KT 27/26 Q1009=
22-Jun-2023 SAID31 WAOC 221930 METAR WAOC 221930Z AUTO VRB02G02KT 27/26 Q1009=
22-Jun-2023 SAID31 WAOC 222000 METAR WAOC 222000Z AUTO VRB01G01KT 230V300 27/26 Q1009=
22-Jun-2023 SAID31 WAOC 222030 METAR WAOC 222030Z AUTO VRB02G02KT 26/26 Q1009=
22-Jun-2023 SAID31 WAOC 222100 METAR WAOC 222100Z AUTO VRB02G02KT 26/26 Q1009=
22-Jun-2023 SAID31 WAOC 222130 METAR WAOC 222130Z AUTO VRB02G02KT 240V310 27/26 Q1009=
22-Jun-2023 SAID31 WAOC 222200 METAR WAOC 222200Z AUTO VRB02G02KT 26/26 Q1009=
22-Jun-2023 SAID31 WAOC 222230 METAR WAOC 222230Z AUTO VRB02G02KT 27/26 Q1009=
22-Jun-2023 SAID31 WAOC 222300 METAR WAOC 222300Z AUTO 29004G04KT 28/27 Q1009=
22-Jun-2023 SAID31 WAOC 222330 METAR WAOC 222330Z AUTO VRB03G03KT 27/26 Q1010=
23-Jun-2023 SAID31 WAOC 230000 METAR WAOC 230000Z AUTO VRB03G03KT 28/26 Q1010=
23-Jun-2023 SAID31 WAOC 230030 METAR WAOC 230030Z AUTO VRB03G03KT 28/25 Q1010=
23-Jun-2023 SAID31 WAOC 230100 METAR WAOC 230100Z AUTO VRB02G02KT 170V330 29/25 Q1010=
23-Jun-2023 SAID31 WAOC 230130 METAR WAOC 230130Z AUTO 00000G00KT 060V280 29/24 Q1010=
23-Jun-2023 SAID31 WAOC 230200 METAR WAOC 230200Z AUTO VRB01G01KT 200V270 29/25 Q1010=
23-Jun-2023 SAID31 WAOC 230230 METAR WAOC 230230Z AUTO VRB02G02KT 120V270 30/24 Q1010=
23-Jun-2023 SAID31 WAOC 230300 METAR WAOC 230300Z AUTO 18004G04KT 090V190 31/23 Q1010=
23-Jun-2023 SAID31 WAOC 230330 METAR WAOC 230330Z AUTO VRB03G03KT 100V180 31/23 Q1010=
23-Jun-2023 SAID31 WAOC 230400 METAR WAOC 230400Z AUTO VRB01G01KT 110V210 32/24 Q1009=
23-Jun-2023 SAID31 WAOC 230430 METAR WAOC 230430Z AUTO 18004G04KT 110V220 32/23 Q1009=
23-Jun-2023 SAID31 WAOC 230500 METAR WAOC 230500Z AUTO VRB03G03KT 110V200 32/24 Q1008=
23-Jun-2023 SAID31 WAOC 230530 METAR WAOC 230530Z AUTO VRB03G03KT 180V270 31/25 Q1008=
23-Jun-2023 SAID31 WAOC 230600 METAR WAOC 230600Z AUTO 19004G04KT 150V220 31/25 Q1007=
23-Jun-2023 SAID31 WAOC 230630 METAR WAOC 230630Z AUTO 12004G04KT 130V200 31/25 Q1007=
23-Jun-2023 SAID31 WAOC 230700 METAR WAOC 230700Z AUTO 13006G06KT 080V180 33/30 Q1007=
23-Jun-2023 SAID31 WAOC 230730 METAR WAOC 230730Z AUTO VRB03G03KT 31/28 Q1007=
23-Jun-2023 SAID31 WAOC 230800 METAR WAOC 230800Z AUTO 13004G04KT 31/28 Q1007=
23-Jun-2023 SAID31 WAOC 230830 METAR WAOC 230830Z AUTO VRB03G03KT 100V170 32/29 Q1007=
23-Jun-2023 SAID31 WAOC 230900 METAR WAOC 230900Z AUTO VRB03G03KT 110V200 32/29 Q1007=
23-Jun-2023 SAID31 WAOC 230930 METAR WAOC 230930Z AUTO VRB03G03KT 150V230 34/31 Q1007=
23-Jun-2023 SAID31 WAOC 231000 METAR WAOC 231000Z AUTO VRB03G03KT 120V220 34/32 Q1007=
23-Jun-2023 SAID31 WAOC 231030 METAR WAOC 231030Z AUTO VRB01G01KT 150V230 33/30 Q1008=
23-Jun-2023 SAID31 WAOC 231100 METAR WAOC 231100Z AUTO VRB01G01KT 100V220 32/30 Q1008=
23-Jun-2023 SAID31 WAOC 231130 METAR WAOC 231130Z AUTO VRB02G02KT 33/31 Q1008=
23-Jun-2023 SAID31 WAOC 231200 METAR WAOC 231200Z AUTO VRB02G02KT 32/31 Q1009=
23-Jun-2023 SAID31 WAOC 231230 METAR WAOC 231230Z AUTO VRB01G01KT 100V180 31/29 Q1009=
23-Jun-2023 SAID31 WAOC 231300 METAR WAOC 231300Z AUTO VRB02G02KT 31/29 Q1009=
23-Jun-2023 SAID31 WAOC 231330 METAR WAOC 231330Z AUTO VRB01G01KT 32/29 Q1010=
23-Jun-2023 SAID31 WAOC 231400 METAR WAOC 231400Z AUTO 00000G00KT 090V230 32/30 Q1010=
23-Jun-2023 SAID31 WAOC 231430 METAR WAOC 231430Z AUTO VRB01G01KT 31/30 Q1010=
23-Jun-2023 SAID31 WAOC 231500 METAR WAOC 231500Z AUTO VRB02G02KT 29/28 Q1010=
23-Jun-2023 SAID31 WAOC 231530 METAR WAOC 231530Z AUTO VRB02G02KT 29/28 Q1010=
23-Jun-2023 SAID31 WAOC 231600 METAR WAOC 231600Z AUTO VRB01G01KT 29/28 Q1010=
23-Jun-2023 SAID31 WAOC 231630 METAR WAOC 231630Z AUTO VRB02G02KT 29/28 Q1009=
23-Jun-2023 SAID31 WAOC 231700 METAR WAOC 231700Z AUTO VRB01G01KT 30/30 Q1009=
23-Jun-2023 SAID31 WAOC 231730 METAR WAOC 231730Z AUTO VRB01G01KT Q1009=
23-Jun-2023 SAID31 WAOC 231800 METAR WAOC 231800Z AUTO VRB01G01KT 220V300 32/32 Q1009=
23-Jun-2023 SAID31 WAOC 231830 METAR WAOC 231830Z AUTO VRB02G02KT 32/32 Q1009=
23-Jun-2023 SAID31 WAOC 231930 METAR WAOC 231930Z AUTO VRB02G02KT 31/31 Q1009=
23-Jun-2023 SAID31 WAOC 232030 METAR WAOC 232030Z AUTO VRB02G02KT 31/31 Q1008=
23-Jun-2023 SAID31 WAOC 232100 METAR WAOC 232100Z AUTO VRB01G01KT 32/33 Q1008=
23-Jun-2023 SAID31 WAOC 232130 METAR WAOC 232130Z AUTO VRB01G01KT 32/32 Q1009=
23-Jun-2023 SAID31 WAOC 232200 METAR WAOC 232200Z AUTO VRB02G02KT Q1009=
23-Jun-2023 SAID31 WAOC 232230 METAR WAOC 232230Z AUTO VRB02G02KT Q1009=
23-Jun-2023 SAID31 WAOC 232300 METAR WAOC 232300Z AUTO VRB02G02KT Q1009=
23-Jun-2023 SAID31 WAOC 232330 METAR WAOC 232330Z AUTO VRB01G01KT 33/33 Q1009=
24-Jun-2023 SAID31 WAOC 240000 METAR WAOC 240000Z AUTO VRB01G01KT 220V310 31/29 Q1010=
24-Jun-2023 SAID31 WAOC 240030 METAR WAOC 240030Z AUTO VRB02G02KT 150V260 28/25 Q1010=
24-Jun-2023 SAID31 WAOC 240100 METAR WAOC 240100Z AUTO VRB02G02KT 160V260 29/24 Q1010=
24-Jun-2023 SAID31 WAOC 240130 METAR WAOC 240130Z AUTO VRB03G03KT 090V200 29/24 Q1010=
24-Jun-2023 SAID31 WAOC 240200 METAR WAOC 240200Z AUTO VRB02G02KT 120V240 30/23 Q1010=
24-Jun-2023 SAID31 WAOC 240230 METAR WAOC 240230Z AUTO VRB02G02KT 100V260 30/23 Q1010=
24-Jun-2023 SAID31 WAOC 240300 METAR WAOC 240300Z AUTO 15004G04KT 120V230 32/23 Q1009=
24-Jun-2023 SAID31 WAOC 240330 METAR WAOC 240330Z AUTO VRB03G03KT 100V170 31/22 Q1009=
24-Jun-2023 SAID31 WAOC 240400 METAR WAOC 240400Z AUTO VRB03G03KT 100V190 31/22 Q1009=
24-Jun-2023 SAID31 WAOC 240430 METAR WAOC 240430Z AUTO VRB02G02KT 120V230 31/22 Q1008=
24-Jun-2023 SAID31 WAOC 240500 METAR WAOC 240500Z AUTO 15006G06KT 31/23 Q1008=
24-Jun-2023 SAID31 WAOC 240530 METAR WAOC 240530Z AUTO VRB02G02KT 120V240 32/22 Q1007=
24-Jun-2023 SAID31 WAOC 240600 METAR WAOC 240600Z AUTO 20004G04KT 120V220 32/23 Q1007=
24-Jun-2023 SAID31 WAOC 240630 METAR WAOC 240630Z AUTO 14005G05KT 30/23 Q1007=
24-Jun-2023 SAID31 WAOC 240700 METAR WAOC 240700Z AUTO VRB03G03KT 30/24 Q1007=
24-Jun-2023 SAID31 WAOC 240730 METAR WAOC 240730Z AUTO VRB03G03KT 30/24 Q1006=
24-Jun-2023 SAID31 WAOC 240800 METAR WAOC 240800Z AUTO VRB03G03KT 30/24 Q1006=
24-Jun-2023 SAID31 WAOC 240830 METAR WAOC 240830Z AUTO VRB03G03KT 080V150 30/24 Q1006=
24-Jun-2023 SAID31 WAOC 240900 METAR WAOC 240900Z AUTO VRB02G02KT 100V230 30/23 Q1006=
24-Jun-2023 SAID31 WAOC 240930 METAR WAOC 240930Z AUTO VRB02G02KT 090V180 31/25 Q1007=
24-Jun-2023 SAID31 WAOC 241000 METAR WAOC 241000Z AUTO VRB02G02KT 30/25 Q1007=
24-Jun-2023 SAID31 WAOC 241030 METAR WAOC 241030Z AUTO VRB03G03KT 30/25 Q1007=
24-Jun-2023 SAID31 WAOC 241100 METAR WAOC 241100Z AUTO VRB01G01KT 29/25 Q1007=
24-Jun-2023 SAID31 WAOC 241130 METAR WAOC 241130Z AUTO VRB02G02KT 110V230 29/25 Q1008=
24-Jun-2023 SAID31 WAOC 241200 METAR WAOC 241200Z AUTO VRB01G01KT 100V210 29/26 Q1008=
24-Jun-2023 SAID31 WAOC 241230 METAR WAOC 241230Z AUTO VRB03G03KT 110V220 29/26 Q1008=
24-Jun-2023 SAID31 WAOC 241300 METAR WAOC 241300Z AUTO VRB01G01KT 160V240 29/26 Q1009=
24-Jun-2023 SAID31 WAOC 241330 METAR WAOC 241330Z AUTO 00000G00KT 160V260 28/26 Q1009=
24-Jun-2023 SAID31 WAOC 241400 METAR WAOC 241400Z AUTO VRB01G01KT 28/26 Q1009=
24-Jun-2023 SAID31 WAOC 241430 METAR WAOC 241430Z AUTO VRB01G01KT 27/26 Q1009=
24-Jun-2023 SAID31 WAOC 241500 METAR WAOC 241500Z AUTO 00000G00KT 350V200 28/26 Q1009=
24-Jun-2023 SAID31 WAOC 241530 METAR WAOC 241530Z AUTO VRB01G01KT 27/26 Q1009=
24-Jun-2023 SAID31 WAOC 241600 METAR WAOC 241600Z AUTO VRB01G01KT 27/26 Q1009=
24-Jun-2023 SAID31 WAOC 241630 METAR WAOC 241630Z AUTO VRB01G01KT 27/26 Q1009=
24-Jun-2023 SAID31 WAOC 241700 METAR WAOC 241700Z AUTO VRB01G01KT 26/25 Q1008=
24-Jun-2023 SAID31 WAOC 241730 METAR WAOC 241730Z AUTO VRB02G02KT 26/25 Q1008=
24-Jun-2023 SAID31 WAOC 241800 METAR WAOC 241800Z AUTO 00000G00KT 190V300 26/25 Q1008=
24-Jun-2023 SAID31 WAOC 241830 METAR WAOC 241830Z AUTO VRB01G01KT 26/25 Q1008=
24-Jun-2023 SAID31 WAOC 241900 METAR WAOC 241900Z AUTO VRB01G01KT 26/25 Q1008=
24-Jun-2023 SAID31 WAOC 241930 METAR WAOC 241930Z AUTO VRB01G01KT 25/25 Q1008=
24-Jun-2023 SAID31 WAOC 242000 METAR WAOC 242000Z AUTO VRB01G01KT 26/25 Q1008=
24-Jun-2023 SAID31 WAOC 242030 METAR WAOC 242030Z AUTO VRB02G02KT 26/25 Q1008=
24-Jun-2023 SAID31 WAOC 242100 METAR WAOC 242100Z AUTO VRB02G02KT 25/25 Q1008=
24-Jun-2023 SAID31 WAOC 242130 METAR WAOC 242130Z AUTO VRB02G02KT 25/25 Q1008=
24-Jun-2023 SAID31 WAOC 242200 METAR WAOC 242200Z AUTO VRB01G01KT 26/25 Q1009=
24-Jun-2023 SAID31 WAOC 242230 METAR WAOC 242230Z AUTO VRB01G01KT 190V290 26/25 Q1009=
24-Jun-2023 SAID31 WAOC 242300 METAR WAOC 242300Z AUTO VRB02G02KT 26/25 Q1009=
24-Jun-2023 SAID31 WAOC 242330 METAR WAOC 242330Z AUTO VRB02G02KT 28/26 Q1010=
25-Jun-2023 SAID31 WAOC 250000 METAR WAOC 250000Z AUTO VRB02G02KT 28/25 Q1009=
25-Jun-2023 SAID31 WAOC 250030 METAR WAOC 250030Z AUTO VRB01G01KT 160V340 28/25 Q1010=
25-Jun-2023 SAID31 WAOC 250100 METAR WAOC 250100Z AUTO VRB01G01KT 100V310 29/25 Q1010=
25-Jun-2023 SAID31 WAOC 250130 METAR WAOC 250130Z AUTO VRB01G01KT 010V220 29/24 Q1010=
25-Jun-2023 SAID31 WAOC 250200 METAR WAOC 250200Z AUTO VRB02G02KT 090V190 30/23 Q1010=
25-Jun-2023 SAID31 WAOC 250230 METAR WAOC 250230Z AUTO VRB03G03KT 090V290 31/23 Q1009=
25-Jun-2023 SAID31 WAOC 250300 METAR WAOC 250300Z AUTO VRB03G03KT 31/23 Q1009=
25-Jun-2023 SAID31 WAOC 250330 METAR WAOC 250330Z AUTO VRB03G02KT 32/22 Q1009=
25-Jun-2023 SAID31 WAOC 250400 METAR WAOC 250400Z AUTO VRB02G02KT 090V160 32/22 Q1008=
25-Jun-2023 SAID31 WAOC 250430 METAR WAOC 250430Z AUTO VRB03G03KT 32/24 Q1008=
25-Jun-2023 SAID31 WAOC 250500 METAR WAOC 250500Z AUTO VRB02G02KT 32/23 Q1007=
25-Jun-2023 SAID31 WAOC 250530 METAR WAOC 250530Z AUTO 15004G04KT 100V230 32/24 Q1007=
25-Jun-2023 SAID31 WAOC 250600 METAR WAOC 250600Z AUTO 14004G04KT 100V200 33/26 Q1007=
25-Jun-2023 SAID31 WAOC 250630 METAR WAOC 250630Z AUTO VRB03G03KT 090V160 32/27 Q1006=
25-Jun-2023 SAID31 WAOC 250700 METAR WAOC 250700Z AUTO VRB03G03KT 080V150 31/25 Q1006=
25-Jun-2023 SAID31 WAOC 250730 METAR WAOC 250730Z AUTO VRB03G03KT 31/26 Q1006=
25-Jun-2023 SAID31 WAOC 250800 METAR WAOC 250800Z AUTO VRB03G03KT 080V150 31/26 Q1006=
25-Jun-2023 SAID31 WAOC 250830 METAR WAOC 250830Z AUTO VRB02G02KT 100V170 31/25 Q1006=
25-Jun-2023 SAID31 WAOC 250900 METAR WAOC 250900Z AUTO VRB02G02KT 110V230 31/26 Q1006=
25-Jun-2023 SAID31 WAOC 250930 METAR WAOC 250930Z AUTO VRB02G02KT 31/27 Q1006=
25-Jun-2023 SAID31 WAOC 251000 METAR WAOC 251000Z AUTO VRB02G02KT 110V200 34/31 Q1007=
25-Jun-2023 SAID31 WAOC 251030 METAR WAOC 251030Z AUTO VRB03G03KT 40/39 Q1007=
25-Jun-2023 SAID31 WAOC 251100 METAR WAOC 251100Z AUTO VRB02G02KT 36/34 Q1008=
25-Jun-2023 SAID31 WAOC 251130 METAR WAOC 251130Z AUTO VRB03G03KT 37/34 Q1008=
25-Jun-2023 SAID31 WAOC 251200 METAR WAOC 251200Z AUTO VRB03G03KT 37/35 Q1008=
25-Jun-2023 SAID31 WAOC 251230 METAR WAOC 251230Z AUTO VRB01G01KT 110V190 40/39 Q1009=
25-Jun-2023 SAID31 WAOC 251300 METAR WAOC 251300Z AUTO VRB02G02KT 110V210 40/39 Q1009=
25-Jun-2023 SAID31 WAOC 251330 METAR WAOC 251330Z AUTO VRB02G02KT 130V270 36/35 Q1009=
25-Jun-2023 SAID31 WAOC 251400 METAR WAOC 251400Z AUTO VRB01G01KT 150V240 38/37 Q1009=
25-Jun-2023 SAID31 WAOC 251430 METAR WAOC 251430Z AUTO VRB01G01KT 42/41 Q1009=
25-Jun-2023 SAID31 WAOC 251500 METAR WAOC 251500Z AUTO VRB02G02KT Q1009=
25-Jun-2023 SAID31 WAOC 251530 METAR WAOC 251530Z AUTO VRB01G01KT Q1009=
25-Jun-2023 SAID31 WAOC 251600 METAR WAOC 251600Z AUTO VRB02G02KT 33/33 Q1009=
25-Jun-2023 SAID31 WAOC 251630 METAR WAOC 251630Z AUTO VRB02G02KT 35/35 Q1009=
25-Jun-2023 SAID31 WAOC 251700 METAR WAOC 251700Z AUTO VRB02G02KT Q1008=
25-Jun-2023 SAID31 WAOC 251730 METAR WAOC 251730Z AUTO VRB02G02KT Q1008=
25-Jun-2023 SAID31 WAOC 251800 METAR WAOC 251800Z AUTO VRB01G01KT Q1008=
25-Jun-2023 SAID31 WAOC 251830 METAR WAOC 251830Z AUTO VRB01G01KT Q1008=
25-Jun-2023 SAID31 WAOC 251900 METAR WAOC 251900Z AUTO VRB02G02KT Q1008=
25-Jun-2023 SAID31 WAOC 251930 METAR WAOC 251930Z AUTO VRB01G01KT 240V310 Q1008=
25-Jun-2023 SAID31 WAOC 252030 METAR WAOC 252030Z AUTO VRB01G01KT 33/33 Q1008=
25-Jun-2023 SAID31 WAOC 252100 METAR WAOC 252100Z AUTO VRB01G01KT 33/33 Q1009=
25-Jun-2023 SAID31 WAOC 252130 METAR WAOC 252130Z AUTO VRB01G01KT 33/33 Q1009=
25-Jun-2023 SAID31 WAOC 252200 METAR WAOC 252200Z AUTO VRB01G01KT 28/28 Q1009=
25-Jun-2023 SAID31 WAOC 252230 METAR WAOC 252230Z AUTO VRB01G01KT 240V310 29/28 Q1009=
25-Jun-2023 SAID31 WAOC 252300 METAR WAOC 252300Z AUTO VRB01G01KT 32/31 Q1009=
25-Jun-2023 SAID31 WAOC 252330 METAR WAOC 252330Z AUTO VRB02G02KT 40/40 Q1010=
26-Jun-2023 SAID31 WAOC 260000 METAR WAOC 260000Z AUTO VRB01G01KT 38/37 Q1010=
26-Jun-2023 SAID31 WAOC 260030 METAR WAOC 260030Z AUTO VRB01G01KT 190V330 34/32 Q1010=
26-Jun-2023 SAID31 WAOC 260100 METAR WAOC 260100Z AUTO VRB01G01KT 170V040 34/32 Q1010=
26-Jun-2023 SAID31 WAOC 260130 METAR WAOC 260130Z AUTO VRB01G01KT 36/33 Q1010=
26-Jun-2023 SAID31 WAOC 260200 METAR WAOC 260200Z AUTO VRB02G02KT 120V250 35/31 Q1010=
26-Jun-2023 SAID31 WAOC 260230 METAR WAOC 260230Z AUTO VRB03G03KT 100V170 35/29 Q1009=
26-Jun-2023 SAID31 WAOC 260300 METAR WAOC 260300Z AUTO VRB03G03KT 31/24 Q1009=
26-Jun-2023 SAID31 WAOC 260330 METAR WAOC 260330Z AUTO VRB02G02KT 090V240 31/25 Q1009=
26-Jun-2023 SAID31 WAOC 260400 METAR WAOC 260400Z AUTO VRB03G03KT 120V220 32/23 Q1009=
26-Jun-2023 SAID31 WAOC 260430 METAR WAOC 260430Z AUTO VRB02G02KT 110V220 33/24 Q1008=
26-Jun-2023 SAID31 WAOC 260500 METAR WAOC 260500Z AUTO VRB02G02KT 140V220 31/25 Q1008=
26-Jun-2023 SAID31 WAOC 260530 METAR WAOC 260530Z AUTO VRB01G01KT 220V300 34/30 Q1008=
26-Jun-2023 SAID31 WAOC 260600 METAR WAOC 260600Z AUTO VRB02G02KT 110V230 35/29 Q1007=
26-Jun-2023 SAID31 WAOC 260630 METAR WAOC 260630Z AUTO 10005G05KT 38/35 Q1007=
26-Jun-2023 SAID31 WAOC 260700 METAR WAOC 260700Z AUTO VRB03G03KT 39/35 Q1007=
26-Jun-2023 SAID31 WAOC 260730 METAR WAOC 260730Z AUTO VRB03G03KT 110V200 40/35 Q1006=
26-Jun-2023 SAID31 WAOC 260800 METAR WAOC 260800Z AUTO 20004G04KT 100V230 31/23 Q1006=
26-Jun-2023 SAID31 WAOC 260830 METAR WAOC 260830Z AUTO VRB03G03KT 140V230 30/23 Q1007=
26-Jun-2023 SAID31 WAOC 260900 METAR WAOC 260900Z AUTO 20004G04KT 160V230 29/23 Q1007=
26-Jun-2023 SAID31 WAOC 260930 METAR WAOC 260930Z AUTO VRB02G02KT 150V240 33/29 Q1007=
26-Jun-2023 SAID31 WAOC 261000 METAR WAOC 261000Z AUTO VRB02G02KT 35/32 Q1007=
26-Jun-2023 SAID31 WAOC 261030 METAR WAOC 261030Z AUTO VRB01G01KT 160V250 34/31 Q1007=
26-Jun-2023 SAID31 WAOC 261100 METAR WAOC 261100Z AUTO VRB02G02KT 180V270 33/31 Q1008=
26-Jun-2023 SAID31 WAOC 261130 METAR WAOC 261130Z AUTO VRB01G01KT 33/32 Q1008=
26-Jun-2023 SAID31 WAOC 261200 METAR WAOC 261200Z AUTO VRB01G01KT 31/29 Q1009=
26-Jun-2023 SAID31 WAOC 261230 METAR WAOC 261230Z AUTO VRB02G02KT 31/30 Q1009=
26-Jun-2023 SAID31 WAOC 261300 METAR WAOC 261300Z AUTO VRB01G01KT 30/29 Q1010=
26-Jun-2023 SAID31 WAOC 261330 METAR WAOC 261330Z AUTO VRB02G02KT 30/29 Q1010=
26-Jun-2023 SAID31 WAOC 261400 METAR WAOC 261400Z AUTO VRB02G02KT 30/29 Q1010=
26-Jun-2023 SAID31 WAOC 261430 METAR WAOC 261430Z AUTO VRB02G02KT 30/29 Q1010=
26-Jun-2023 SAID31 WAOC 261500 METAR WAOC 261500Z AUTO VRB01G01KT 30/29 Q1010=
26-Jun-2023 SAID31 WAOC 261530 METAR WAOC 261530Z AUTO VRB01G01KT 29/29 Q1010=
26-Jun-2023 SAID31 WAOC 261600 METAR WAOC 261600Z AUTO VRB02G02KT 30/30 Q1010=
26-Jun-2023 SAID31 WAOC 261700 METAR WAOC 261700Z AUTO VRB01G01KT 31/30 Q1009=
26-Jun-2023 SAID31 WAOC 261730 METAR WAOC 261730Z AUTO VRB01G01KT 30/30 Q1009=
26-Jun-2023 SAID31 WAOC 261800 METAR WAOC 261800Z AUTO VRB01G01KT 30/30 Q1009=
26-Jun-2023 SAID31 WAOC 261830 METAR WAOC 261830Z AUTO VRB02G02KT 30/30 Q1009=
26-Jun-2023 SAID31 WAOC 261900 METAR WAOC 261900Z AUTO VRB02G03KT 30/30 Q1009=
26-Jun-2023 SAID31 WAOC 261930 METAR WAOC 261930Z AUTO VRB02G02KT 230V310 30/29 Q1009=
26-Jun-2023 SAID31 WAOC 262000 METAR WAOC 262000Z AUTO VRB01G01KT 30/29 Q1009=
26-Jun-2023 SAID31 WAOC 262030 METAR WAOC 262030Z AUTO VRB02G02KT 30/29 Q1009=
26-Jun-2023 SAID31 WAOC 262100 METAR WAOC 262100Z AUTO VRB01G01KT 30/29 Q1009=
26-Jun-2023 SAID31 WAOC 262130 METAR WAOC 262130Z AUTO VRB01G01KT 210V280 30/29 Q1009=
26-Jun-2023 SAID31 WAOC 262200 METAR WAOC 262200Z AUTO VRB01G01KT 30/29 Q1009=
26-Jun-2023 SAID31 WAOC 262230 METAR WAOC 262230Z AUTO VRB01G01KT 30/30 Q1010=
26-Jun-2023 SAID31 WAOC 262300 METAR WAOC 262300Z AUTO VRB01G01KT 200V300 31/30 Q1010=
26-Jun-2023 SAID31 WAOC 262330 METAR WAOC 262330Z AUTO VRB01G01KT 42/42 Q1010=
27-Jun-2023 SAID31 WAOC 270000 METAR WAOC 270000Z AUTO VRB02G02KT 190V270 32/30 Q1011=
27-Jun-2023 SAID31 WAOC 270030 METAR WAOC 270030Z AUTO VRB01G01KT 180V270 31/28 Q1011=
27-Jun-2023 SAID31 WAOC 270100 METAR WAOC 270100Z AUTO VRB02G02KT 160V270 32/28 Q1011=
27-Jun-2023 SAID31 WAOC 270130 METAR WAOC 270130Z AUTO VRB03G02KT 31/27 Q1011=
27-Jun-2023 SAID31 WAOC 270200 METAR WAOC 270200Z AUTO VRB03G03KT 110V210 32/26 Q1011=
27-Jun-2023 SAID31 WAOC 270230 METAR WAOC 270230Z AUTO VRB02G02KT 120V200 33/26 Q1011=
27-Jun-2023 SAID31 WAOC 270300 METAR WAOC 270300Z AUTO VRB02G01KT 090V210 32/25 Q1011=
27-Jun-2023 SAID31 WAOC 270330 METAR WAOC 270330Z AUTO 25006G06KT 33/29 Q1011=
27-Jun-2023 SAID31 WAOC 270400 METAR WAOC 270400Z AUTO 26004G04KT 30/25 Q1010=
27-Jun-2023 SAID31 WAOC 270430 METAR WAOC 270430Z AUTO VRB02G02KT 200V320 30/26 Q1010=
27-Jun-2023 SAID31 WAOC 270500 METAR WAOC 270500Z AUTO 13004G04KT 090V160 29/24 Q1010=
27-Jun-2023 SAID31 WAOC 270530 METAR WAOC 270530Z AUTO VRB01G01KT 060V160 31/24 Q1009=
27-Jun-2023 SAID31 WAOC 270600 METAR WAOC 270600Z AUTO VRB02G02KT 040V120 31/24 Q1009=
27-Jun-2023 SAID31 WAOC 270630 METAR WAOC 270630Z AUTO 16004G04KT 130V210 32/25 Q1009=
27-Jun-2023 SAID31 WAOC 270700 METAR WAOC 270700Z AUTO VRB02G02KT 100V210 33/25 Q1008=
27-Jun-2023 SAID31 WAOC 270730 METAR WAOC 270730Z AUTO 16004G04KT 120V210 33/25 Q1008=
27-Jun-2023 SAID31 WAOC 270800 METAR WAOC 270800Z AUTO VRB02G02KT 35/30 Q1008=
27-Jun-2023 SAID31 WAOC 270830 METAR WAOC 270830Z AUTO 14004G04KT 31/26 Q1008=
27-Jun-2023 SAID31 WAOC 270900 METAR WAOC 270900Z AUTO VRB03G03KT 31/27 Q1009=
27-Jun-2023 SAID31 WAOC 270930 METAR WAOC 270930Z AUTO VRB03G03KT 31/27 Q1009=
27-Jun-2023 SAID31 WAOC 271000 METAR WAOC 271000Z AUTO VRB03G03KT 120V200 31/27 Q1009=
27-Jun-2023 SAID31 WAOC 271030 METAR WAOC 271030Z AUTO VRB02G02KT 130V210 31/27 Q1010=
27-Jun-2023 SAID31 WAOC 271100 METAR WAOC 271100Z AUTO VRB01G01KT 30/27 Q1010=
27-Jun-2023 SAID31 WAOC 271130 METAR WAOC 271130Z AUTO VRB02G02KT 110V180 30/27 Q1010=
27-Jun-2023 SAID31 WAOC 271200 METAR WAOC 271200Z AUTO VRB02G02KT 120V210 30/27 Q1011=
27-Jun-2023 SAID31 WAOC 271230 METAR WAOC 271230Z AUTO VRB02G01KT 130V210 30/27 Q1011=
27-Jun-2023 SAID31 WAOC 271300 METAR WAOC 271300Z AUTO VRB01G01KT 30/27 Q1012=
27-Jun-2023 SAID31 WAOC 271330 METAR WAOC 271330Z AUTO VRB01G01KT 110V200 30/27 Q1012=
27-Jun-2023 SAID31 WAOC 271400 METAR WAOC 271400Z AUTO VRB01G01KT 120V220 30/27 Q1012=
27-Jun-2023 SAID31 WAOC 271430 METAR WAOC 271430Z AUTO VRB01G01KT 30/27 Q1012=
27-Jun-2023 SAID31 WAOC 271500 METAR WAOC 271500Z AUTO VRB02G02KT 29/27 Q1012=
27-Jun-2023 SAID31 WAOC 271530 METAR WAOC 271530Z AUTO VRB01G01KT 160V240 29/27 Q1012=
27-Jun-2023 SAID31 WAOC 271600 METAR WAOC 271600Z AUTO VRB01G01KT 120V220 29/27 Q1012=
27-Jun-2023 SAID31 WAOC 271630 METAR WAOC 271630Z AUTO VRB02G02KT 27/27 Q1012=
27-Jun-2023 SAID31 WAOC 271700 METAR WAOC 271700Z AUTO VRB01G01KT 28/27 Q1012=
27-Jun-2023 SAID31 WAOC 271730 METAR WAOC 271730Z AUTO VRB01G01KT 27/27 Q1011=
27-Jun-2023 SAID31 WAOC 271800 METAR WAOC 271800Z AUTO 00000G00KT 220V290 27/27 Q1011=
27-Jun-2023 SAID31 WAOC 271830 METAR WAOC 271830Z AUTO VRB01G01KT 27/27 Q1011=
27-Jun-2023 SAID31 WAOC 271900 METAR WAOC 271900Z AUTO VRB01G01KT 200V310 27/27 Q1011=
27-Jun-2023 SAID31 WAOC 271930 METAR WAOC 271930Z AUTO VRB02G02KT 27/26 Q1011=
27-Jun-2023 SAID31 WAOC 272000 METAR WAOC 272000Z AUTO VRB02G02KT 27/26 Q1011=
27-Jun-2023 SAID31 WAOC 272030 METAR WAOC 272030Z AUTO VRB02G02KT 27/26 Q1011=
27-Jun-2023 SAID31 WAOC 272100 METAR WAOC 272100Z AUTO VRB03G03KT 27/26 Q1011=
27-Jun-2023 SAID31 WAOC 272130 METAR WAOC 272130Z AUTO VRB02G02KT 26/26 Q1011=
27-Jun-2023 SAID31 WAOC 272200 METAR WAOC 272200Z AUTO VRB02G02KT 27/26 Q1011=
27-Jun-2023 SAID31 WAOC 272230 METAR WAOC 272230Z AUTO VRB02G02KT 27/26 Q1012=
27-Jun-2023 SAID31 WAOC 272300 METAR WAOC 272300Z AUTO VRB02G02KT 27/27 Q1012=
27-Jun-2023 SAID31 WAOC 272330 METAR WAOC 272330Z AUTO VRB02G02KT 27/27 Q1012=
28-Jun-2023 SAID31 WAOC 280030 METAR WAOC 280030Z AUTO VRB01G01KT 230V320 28/27 Q1013=
28-Jun-2023 SAID31 WAOC 280100 METAR WAOC 280100Z AUTO 00000G00KT 270V180 Q1013=
28-Jun-2023 SAID31 WAOC 280130 METAR WAOC 280130Z AUTO VRB01G01KT Q1013=
28-Jun-2023 SAID31 WAOC 280200 METAR WAOC 280200Z AUTO VRB03G02KT 36/36 Q1012=
28-Jun-2023 SAID31 WAOC 280230 METAR WAOC 280230Z AUTO VRB02G02KT 29/27 Q1012=
28-Jun-2023 SAID31 WAOC 280300 METAR WAOC 280300Z AUTO VRB01G01KT 220V010 30/26 Q1012=
28-Jun-2023 SAID31 WAOC 280330 METAR WAOC 280330Z AUTO VRB03G03KT 100V170 30/26 Q1011=
28-Jun-2023 SAID31 WAOC 280400 METAR WAOC 280400Z AUTO VRB02G02KT 100V240 30/25 Q1011=
28-Jun-2023 SAID31 WAOC 280430 METAR WAOC 280430Z AUTO VRB03G03KT 160V230 32/25 Q1010=
28-Jun-2023 SAID31 WAOC 280500 METAR WAOC 280500Z AUTO VRB02G02KT 120V220 31/27 Q1010=
28-Jun-2023 SAID31 WAOC 280530 METAR WAOC 280530Z AUTO VRB02G02KT 120V200 31/26 Q1010=
28-Jun-2023 SAID31 WAOC 280600 METAR WAOC 280600Z AUTO VRB02G02KT 070V160 32/26 Q1009=
28-Jun-2023 SAID31 WAOC 280630 METAR WAOC 280630Z AUTO VRB01G01KT 110V210 32/26 Q1009=
28-Jun-2023 SAID31 WAOC 280700 METAR WAOC 280700Z AUTO VRB02G02KT 100V250 32/26 Q1008=
28-Jun-2023 SAID31 WAOC 280730 METAR WAOC 280730Z AUTO 16006G07KT 120V230 33/26 Q1008=
28-Jun-2023 SAID31 WAOC 280800 METAR WAOC 280800Z AUTO 12004G04KT 26/25 Q1009=
28-Jun-2023 SAID31 WAOC 280830 METAR WAOC 280830Z AUTO VRB01G01KT 170V260 26/25 Q1009=
28-Jun-2023 SAID31 WAOC 280900 METAR WAOC 280900Z AUTO VRB02G02KT 130V200 28/26 Q1009=
28-Jun-2023 SAID31 WAOC 280930 METAR WAOC 280930Z AUTO VRB03G03KT 28/26 Q1009=
28-Jun-2023 SAID31 WAOC 281000 METAR WAOC 281000Z AUTO 18004G04KT 110V180 28/25 Q1009=
28-Jun-2023 SAID31 WAOC 281030 METAR WAOC 281030Z AUTO VRB01G00KT 130V210 27/25 Q1009=
28-Jun-2023 SAID31 WAOC 281100 METAR WAOC 281100Z AUTO VRB01G01KT 27/26 Q1010=
28-Jun-2023 SAID31 WAOC 281130 METAR WAOC 281130Z AUTO VRB02G02KT 26/25 Q1010=
28-Jun-2023 SAID31 WAOC 281200 METAR WAOC 281200Z AUTO VRB01G01KT 26/25 Q1011=
28-Jun-2023 SAID31 WAOC 281230 METAR WAOC 281230Z AUTO VRB01G01KT 120V320 26/25 Q1011=
28-Jun-2023 SAID31 WAOC 281300 METAR WAOC 281300Z AUTO VRB02G02KT 26/25 Q1011=
28-Jun-2023 SAID31 WAOC 281330 METAR WAOC 281330Z AUTO VRB01G01KT 26/25 Q1012=
28-Jun-2023 SAID31 WAOC 281400 METAR WAOC 281400Z AUTO VRB02G02KT 25/25 Q1012=
28-Jun-2023 SAID31 WAOC 281430 METAR WAOC 281430Z AUTO VRB01G01KT 25/25 Q1012=
28-Jun-2023 SAID31 WAOC 281500 METAR WAOC 281500Z AUTO VRB02G02KT 25/24 Q1012=
28-Jun-2023 SAID31 WAOC 281530 METAR WAOC 281530Z AUTO VRB02G02KT 25/24 Q1012=
28-Jun-2023 SAID31 WAOC 281600 METAR WAOC 281600Z AUTO VRB03G03KT 25/24 Q1012=
28-Jun-2023 SAID31 WAOC 281630 METAR WAOC 281630Z AUTO VRB02G02KT 250V340 25/24 Q1012=
28-Jun-2023 SAID31 WAOC 281700 METAR WAOC 281700Z AUTO VRB02G02KT 25/24 Q1012=
28-Jun-2023 SAID31 WAOC 281730 METAR WAOC 281730Z AUTO VRB01G02KT 25/24 Q1011=
28-Jun-2023 SAID31 WAOC 281800 METAR WAOC 281800Z AUTO VRB03G03KT 24/24 Q1011=
28-Jun-2023 SAID31 WAOC 281830 METAR WAOC 281830Z AUTO VRB02G02KT 24/24 Q1010=
28-Jun-2023 SAID31 WAOC 281900 METAR WAOC 281900Z AUTO VRB01G01KT 250V340 25/24 Q1010=
28-Jun-2023 SAID31 WAOC 281930 METAR WAOC 281930Z AUTO VRB02G02KT 230V300 24/23 Q1010=
28-Jun-2023 SAID31 WAOC 282000 METAR WAOC 282000Z AUTO VRB01G01KT 24/23 Q1010=
28-Jun-2023 SAID31 WAOC 282030 METAR WAOC 282030Z AUTO 24/23 Q1010=
28-Jun-2023 SAID31 WAOC 282100 METAR WAOC 282100Z AUTO 27032G32KT 24/23 Q1010=
28-Jun-2023 SAID31 WAOC 282130 METAR WAOC 282130Z AUTO 00011G11KT 270V100 24/23 Q1011=
28-Jun-2023 SAID31 WAOC 282200 METAR WAOC 282200Z AUTO VRB02G02KT 24/23 Q1010=
28-Jun-2023 SAID31 WAOC 282230 METAR WAOC 282230Z AUTO VRB01G01KT 24/23 Q1011=
28-Jun-2023 SAID31 WAOC 282300 METAR WAOC 282300Z AUTO VRB01G01KT 24/23 Q1011=
28-Jun-2023 SAID31 WAOC 282330 METAR WAOC 282330Z AUTO VRB01G01KT 25/24 Q1011=
29-Jun-2023 SAID31 WAOC 290000 METAR WAOC 290000Z AUTO VRB02G02KT 26/25 Q1012=
29-Jun-2023 SAID31 WAOC 290030 METAR WAOC 290030Z AUTO VRB02G02KT 27/24 Q1011=
29-Jun-2023 SAID31 WAOC 290100 METAR WAOC 290100Z AUTO VRB02G02KT 230V330 28/25 Q1012=
29-Jun-2023 SAID31 WAOC 290130 METAR WAOC 290130Z AUTO VRB01G01KT 230V310 28/25 Q1012=
29-Jun-2023 SAID31 WAOC 290200 METAR WAOC 290200Z AUTO VRB01G01KT 110V220 29/24 Q1011=
29-Jun-2023 SAID31 WAOC 290230 METAR WAOC 290230Z AUTO VRB02G02KT 29/24 Q1011=
29-Jun-2023 SAID31 WAOC 290300 METAR WAOC 290300Z AUTO VRB03G03KT 060V150 30/24 Q1011=
29-Jun-2023 SAID31 WAOC 290330 METAR WAOC 290330Z AUTO VRB03G03KT 290V160 31/25 Q1010=
29-Jun-2023 SAID31 WAOC 290400 METAR WAOC 290400Z AUTO VRB02G02KT 060V150 31/24 Q1010=
29-Jun-2023 SAID31 WAOC 290430 METAR WAOC 290430Z AUTO 14006G06KT 110V180 29/25 Q1009=
29-Jun-2023 SAID31 WAOC 290500 METAR WAOC 290500Z AUTO 13004G04KT 130V210 31/24 Q1009=
29-Jun-2023 SAID31 WAOC 290530 METAR WAOC 290530Z AUTO 11004G04KT 30/25 Q1008=
29-Jun-2023 SAID31 WAOC 290600 METAR WAOC 290600Z AUTO 13004G03KT 120V190 28/25 Q1008=
29-Jun-2023 SAID31 WAOC 290630 METAR WAOC 290630Z AUTO VRB03G03KT 100V170 28/25 Q1008=
29-Jun-2023 SAID31 WAOC 290700 METAR WAOC 290700Z AUTO VRB01G01KT 100V220 29/25 Q1008=
29-Jun-2023 SAID31 WAOC 290730 METAR WAOC 290730Z AUTO VRB03G03KT 27/24 Q1007=
29-Jun-2023 SAID31 WAOC 290800 METAR WAOC 290800Z AUTO VRB03G03KT 120V230 28/24 Q1007=
29-Jun-2023 SAID31 WAOC 290830 METAR WAOC 290830Z AUTO VRB01G02KT 120V220 28/24 Q1007=
29-Jun-2023 SAID31 WAOC 290900 METAR WAOC 290900Z AUTO VRB02G02KT 110V220 27/24 Q1007=
29-Jun-2023 SAID31 WAOC 290930 METAR WAOC 290930Z AUTO 14004G04KT 110V220 27/25 Q1007=
29-Jun-2023 SAID31 WAOC 291000 METAR WAOC 291000Z AUTO VRB02G02KT 080V170 27/25 Q1008=
29-Jun-2023 SAID31 WAOC 291030 METAR WAOC 291030Z AUTO VRB01G01KT 090V160 28/24 Q1008=
29-Jun-2023 SAID31 WAOC 291100 METAR WAOC 291100Z AUTO VRB03G03KT 26/24 Q1008=
29-Jun-2023 SAID31 WAOC 291130 METAR WAOC 291130Z AUTO VRB02G02KT 020V200 26/24 Q1009=
29-Jun-2023 SAID31 WAOC 291200 METAR WAOC 291200Z AUTO VRB01G01KT 350V200 26/24 Q1009=
29-Jun-2023 SAID31 WAOC 291230 METAR WAOC 291230Z AUTO VRB02G02KT 26/25 Q1010=
29-Jun-2023 SAID31 WAOC 291300 METAR WAOC 291300Z AUTO VRB01G01KT 26/25 Q1010=
29-Jun-2023 SAID31 WAOC 291330 METAR WAOC 291330Z AUTO VRB02G02KT 26/25 Q1010=
29-Jun-2023 SAID31 WAOC 291400 METAR WAOC 291400Z AUTO 00000G00KT 350V120 26/25 Q1010=
29-Jun-2023 SAID31 WAOC 291500 METAR WAOC 291500Z AUTO VRB01G01KT 26/25 Q1010=
29-Jun-2023 SAID31 WAOC 291530 METAR WAOC 291530Z AUTO VRB02G02KT 26/25 Q1010=
29-Jun-2023 SAID31 WAOC 291600 METAR WAOC 291600Z AUTO VRB02G02KT 25/24 Q1011=
29-Jun-2023 SAID31 WAOC 291630 METAR WAOC 291630Z AUTO VRB02G02KT 25/24 Q1010=
29-Jun-2023 SAID31 WAOC 291700 METAR WAOC 291700Z AUTO VRB03G03KT 25/24 Q1010=
29-Jun-2023 SAID31 WAOC 291730 METAR WAOC 291730Z AUTO VRB03G03KT 25/24 Q1010=
29-Jun-2023 SAID31 WAOC 291800 METAR WAOC 291800Z AUTO VRB02G02KT 220V300 25/24 Q1009=
29-Jun-2023 SAID31 WAOC 291830 METAR WAOC 291830Z AUTO VRB02G02KT 210V320 25/24 Q1009=
29-Jun-2023 SAID31 WAOC 291900 METAR WAOC 291900Z AUTO VRB01G01KT 230V300 25/24 Q1009=
29-Jun-2023 SAID31 WAOC 291930 METAR WAOC 291930Z AUTO VRB01G01KT 25/24 Q1009=
29-Jun-2023 SAID31 WAOC 292000 METAR WAOC 292000Z AUTO VRB02G02KT 25/24 Q1009=
29-Jun-2023 SAID31 WAOC 292030 METAR WAOC 292030Z AUTO VRB01G01KT 140V290 25/24 Q1009=
29-Jun-2023 SAID31 WAOC 292100 METAR WAOC 292100Z AUTO VRB01G01KT 25/24 Q1009=
29-Jun-2023 SAID31 WAOC 292130 METAR WAOC 292130Z AUTO 00000G00KT 180V260 24/24 Q1009=
29-Jun-2023 SAID31 WAOC 292200 METAR WAOC 292200Z AUTO VRB02G02KT 210V280 24/23 Q1009=
29-Jun-2023 SAID31 WAOC 292230 METAR WAOC 292230Z AUTO VRB01G01KT 24/23 Q1010=
29-Jun-2023 SAID31 WAOC 292300 METAR WAOC 292300Z AUTO VRB01G01KT 24/24 Q1010=
29-Jun-2023 SAID31 WAOC 292330 METAR WAOC 292330Z AUTO VRB02G02KT 25/24 Q1010=
30-Jun-2023 SAID31 WAOC 300000 METAR WAOC 300000Z AUTO VRB02G02KT 26/25 Q1011=
30-Jun-2023 SAID31 WAOC 300030 METAR WAOC 300030Z AUTO VRB01G01KT 26/25 Q1012=
30-Jun-2023 SAID31 WAOC 300100 METAR WAOC 300100Z AUTO VRB02G02KT 27/25 Q1012=
30-Jun-2023 SAID31 WAOC 300130 METAR WAOC 300130Z AUTO VRB02G02KT 27/25 Q1012=
30-Jun-2023 SAID31 WAOC 300200 METAR WAOC 300200Z AUTO VRB01G01KT 130V260 27/25 Q1012=
30-Jun-2023 SAID31 WAOC 300230 METAR WAOC 300230Z AUTO VRB01G01KT 200V290 27/25 Q1011=
30-Jun-2023 SAID31 WAOC 300300 METAR WAOC 300300Z AUTO VRB02G02KT 26/24 Q1011=
30-Jun-2023 SAID31 WAOC 300330 METAR WAOC 300330Z AUTO VRB03G03KT 080V150 25/24 Q1011=
30-Jun-2023 SAID31 WAOC 300400 METAR WAOC 300400Z AUTO VRB03G03KT 25/24 Q1011=
30-Jun-2023 SAID31 WAOC 300430 METAR WAOC 300430Z AUTO VRB02G02KT 080V190 25/24 Q1010=
30-Jun-2023 SAID31 WAOC 300500 METAR WAOC 300500Z AUTO 00000G00KT 300V230 26/24 Q1010=
30-Jun-2023 SAID31 WAOC 300530 METAR WAOC 300530Z AUTO VRB02G02KT 27/24 Q1009=
30-Jun-2023 SAID31 WAOC 300600 METAR WAOC 300600Z AUTO VRB02G01KT 140V220 27/24 Q1009=
30-Jun-2023 SAID31 WAOC 300630 METAR WAOC 300630Z AUTO VRB03G03KT 110V190 28/24 Q1008=
30-Jun-2023 SAID31 WAOC 300700 METAR WAOC 300700Z AUTO VRB02G02KT 160V240 28/24 Q1008=
30-Jun-2023 SAID31 WAOC 300730 METAR WAOC 300730Z AUTO VRB02G02KT 070V250 29/24 Q1007=
30-Jun-2023 SAID31 WAOC 300800 METAR WAOC 300800Z AUTO VRB01G01KT 150V230 28/24 Q1007=
30-Jun-2023 SAID31 WAOC 300830 METAR WAOC 300830Z AUTO VRB01G01KT 29/25 Q1007=
30-Jun-2023 SAID31 WAOC 300900 METAR WAOC 300900Z AUTO VRB01G01KT 200V280 28/24 Q1008=
30-Jun-2023 SAID31 WAOC 300930 METAR WAOC 300930Z AUTO VRB02G02KT 180V280 28/24 Q1008=
30-Jun-2023 SAID31 WAOC 301000 METAR WAOC 301000Z AUTO VRB01G01KT 27/25 Q1008=
30-Jun-2023 SAID31 WAOC 301030 METAR WAOC 301030Z AUTO VRB01G01KT 27/24 Q1008=
30-Jun-2023 SAID31 WAOC 301100 METAR WAOC 301100Z AUTO VRB01G01KT 27/25 Q1009=
30-Jun-2023 SAID31 WAOC 301130 METAR WAOC 301130Z AUTO VRB01G01KT 27/25 Q1009=
30-Jun-2023 SAID31 WAOC 301200 METAR WAOC 301200Z AUTO VRB02G02KT 28/26 Q1010=
30-Jun-2023 SAID31 WAOC 301230 METAR WAOC 301230Z AUTO 00000G00KT 27/26 Q1010=
30-Jun-2023 SAID31 WAOC 301300 METAR WAOC 301300Z AUTO VRB01G01KT 32/31 Q1011=
30-Jun-2023 SAID31 WAOC 301330 METAR WAOC 301330Z AUTO VRB01G01KT 34/34 Q1011=
30-Jun-2023 SAID31 WAOC 301400 METAR WAOC 301400Z AUTO 00000G00KT 29/29 Q1011=
30-Jun-2023 SAID31 WAOC 301430 METAR WAOC 301430Z AUTO 00000G00KT 30/29 Q1011=
30-Jun-2023 SAID31 WAOC 301500 METAR WAOC 301500Z AUTO VRB01G01KT 31/32 Q1011=
30-Jun-2023 SAID31 WAOC 301530 METAR WAOC 301530Z AUTO VRB02G02KT Q1011=
30-Jun-2023 SAID31 WAOC 301600 METAR WAOC 301600Z AUTO VRB01G01KT Q1010=
30-Jun-2023 SAID31 WAOC 301630 METAR WAOC 301630Z AUTO VRB02G02KT 32/29 Q1010=
30-Jun-2023 SAID31 WAOC 301700 METAR WAOC 301700Z AUTO VRB02G02KT Q1010=
30-Jun-2023 SAID31 WAOC 301730 METAR WAOC 301730Z AUTO VRB02G02KT Q1010=
30-Jun-2023 SAID31 WAOC 301800 METAR WAOC 301800Z AUTO VRB02G02KT 220V290 Q1010=
30-Jun-2023 SAID31 WAOC 301830 METAR WAOC 301830Z AUTO VRB02G02KT Q1010=
30-Jun-2023 SAID31 WAOC 301900 METAR WAOC 301900Z AUTO VRB02G02KT Q1009=
30-Jun-2023 SAID31 WAOC 301930 METAR WAOC 301930Z AUTO VRB02G02KT 32/32 Q1009=
30-Jun-2023 SAID31 WAOC 302000 METAR WAOC 302000Z AUTO VRB02G02KT 31/32 Q1009=
30-Jun-2023 SAID31 WAOC 302030 METAR WAOC 302030Z AUTO VRB01G01KT 31/31 Q1009=
30-Jun-2023 SAID31 WAOC 302100 METAR WAOC 302100Z AUTO VRB01G01KT Q1009=
30-Jun-2023 SAID31 WAOC 302130 METAR WAOC 302130Z AUTO VRB02G02KT 31/31 Q1010=
30-Jun-2023 SAID31 WAOC 302200 METAR WAOC 302200Z AUTO VRB01G01KT 240V310 31/31 Q1010=
30-Jun-2023 SAID31 WAOC 302230 METAR WAOC 302230Z AUTO VRB02G02KT Q1010=
30-Jun-2023 SAID31 WAOC 302300 METAR WAOC 302300Z AUTO VRB02G02KT 30/30 Q1010=
30-Jun-2023 SAID31 WAOC 302330 METAR WAOC 302330Z AUTO VRB03G03KT 28/26 Q1011=
01-Jul-2023 SAID31 WAOC 010000 METAR WAOC 010000Z AUTO VRB03G03KT 28/25 Q1011=
01-Jul-2023 SAID31 WAOC 010030 METAR WAOC 010030Z AUTO VRB01G01KT 230V310 28/25 Q1011=
01-Jul-2023 SAID31 WAOC 010100 METAR WAOC 010100Z AUTO VRB01G01KT 170V000 28/25 Q1012=
01-Jul-2023 SAID31 WAOC 010130 METAR WAOC 010130Z AUTO VRB02G02KT 070V210 30/25 Q1012=
01-Jul-2023 SAID31 WAOC 010200 METAR WAOC 010200Z AUTO VRB01G01KT 110V230 30/25 Q1012=
01-Jul-2023 SAID31 WAOC 010230 METAR WAOC 010230Z AUTO VRB02G02KT 060V250 30/25 Q1011=
01-Jul-2023 SAID31 WAOC 010300 METAR WAOC 010300Z AUTO VRB02G01KT 040V140 31/25 Q1011=
01-Jul-2023 SAID31 WAOC 010330 METAR WAOC 010330Z AUTO VRB03G03KT 060V180 31/25 Q1011=
01-Jul-2023 SAID31 WAOC 010400 METAR WAOC 010400Z AUTO VRB02G02KT 090V220 30/25 Q1010=
01-Jul-2023 SAID31 WAOC 010430 METAR WAOC 010430Z AUTO VRB03G03KT 150V220 30/24 Q1010=
01-Jul-2023 SAID31 WAOC 010500 METAR WAOC 010500Z AUTO 14005G05KT 120V210 30/25 Q1010=
01-Jul-2023 SAID31 WAOC 010530 METAR WAOC 010530Z AUTO VRB03G03KT 100V180 26/25 Q1010=
01-Jul-2023 SAID31 WAOC 010600 METAR WAOC 010600Z AUTO VRB01G01KT 27/26 Q1009=
01-Jul-2023 SAID31 WAOC 010630 METAR WAOC 010630Z AUTO VRB01G01KT 310V050 28/26 Q1008=
01-Jul-2023 SAID31 WAOC 010700 METAR WAOC 010700Z AUTO VRB01G01KT 070V140 28/25 Q1008=
01-Jul-2023 SAID31 WAOC 010730 METAR WAOC 010730Z AUTO VRB01G01KT 29/25 Q1008=
01-Jul-2023 SAID31 WAOC 010800 METAR WAOC 010800Z AUTO 00000G00KT 210V330 29/25 Q1008=
01-Jul-2023 SAID31 WAOC 010830 METAR WAOC 010830Z AUTO VRB01G01KT 110V220 28/25 Q1008=
01-Jul-2023 SAID31 WAOC 010900 METAR WAOC 010900Z AUTO VRB02G02KT 140V210 29/25 Q1008=
01-Jul-2023 SAID31 WAOC 010930 METAR WAOC 010930Z AUTO VRB01G01KT 210V280 29/25 Q1008=
01-Jul-2023 SAID31 WAOC 011000 METAR WAOC 011000Z AUTO VRB01G01KT 190V260 28/25 Q1009=
01-Jul-2023 SAID31 WAOC 011030 METAR WAOC 011030Z AUTO VRB01G01KT 28/25 Q1009=
01-Jul-2023 SAID31 WAOC 011100 METAR WAOC 011100Z AUTO VRB01G01KT 200V290 28/25 Q1009=
01-Jul-2023 SAID31 WAOC 011130 METAR WAOC 011130Z AUTO VRB01G01KT 27/25 Q1010=
01-Jul-2023 SAID31 WAOC 011200 METAR WAOC 011200Z AUTO VRB01G01KT 140V210 27/26 Q1010=
01-Jul-2023 SAID31 WAOC 011230 METAR WAOC 011230Z AUTO VRB01G01KT 200V310 27/26 Q1011=
01-Jul-2023 SAID31 WAOC 011300 METAR WAOC 011300Z AUTO VRB01G01KT 27/26 Q1011=
01-Jul-2023 SAID31 WAOC 011330 METAR WAOC 011330Z AUTO VRB02G02KT 26/26 Q1011=
01-Jul-2023 SAID31 WAOC 011400 METAR WAOC 011400Z AUTO VRB01G01KT 330V050 26/25 Q1011=
01-Jul-2023 SAID31 WAOC 011430 METAR WAOC 011430Z AUTO VRB01G01KT 26/25 Q1011=
01-Jul-2023 SAID31 WAOC 011500 METAR WAOC 011500Z AUTO VRB02G02KT 26/25 Q1011=
01-Jul-2023 SAID31 WAOC 011530 METAR WAOC 011530Z AUTO 00000G00KT 150V060 26/25 Q1011=
01-Jul-2023 SAID31 WAOC 011600 METAR WAOC 011600Z AUTO VRB01G01KT 26/25 Q1011=
01-Jul-2023 SAID31 WAOC 011630 METAR WAOC 011630Z AUTO VRB01G01KT 26/25 Q1011=
01-Jul-2023 SAID31 WAOC 011700 METAR WAOC 011700Z AUTO VRB02G02KT 25/25 Q1012=
01-Jul-2023 SAID31 WAOC 011730 METAR WAOC 011730Z AUTO VRB03G03KT 25/24 Q1011=
01-Jul-2023 SAID31 WAOC 011800 METAR WAOC 011800Z AUTO VRB01G01KT 25/24 Q1011=
01-Jul-2023 SAID31 WAOC 011830 METAR WAOC 011830Z AUTO VRB02G02KT 25/24 Q1011=
01-Jul-2023 SAID31 WAOC 011900 METAR WAOC 011900Z AUTO VRB02G02KT 25/24 Q1011=
01-Jul-2023 SAID31 WAOC 011930 METAR WAOC 011930Z AUTO VRB01G01KT 230V320 25/24 Q1010=
01-Jul-2023 SAID31 WAOC 012000 METAR WAOC 012000Z AUTO VRB03G04KT 270V130 25/24 Q1011=
01-Jul-2023 SAID31 WAOC 012030 METAR WAOC 012030Z AUTO VRB02G02KT 25/24 Q1010=
01-Jul-2023 SAID31 WAOC 012100 METAR WAOC 012100Z AUTO VRB02G02KT 25/24 Q1011=
01-Jul-2023 SAID31 WAOC 012130 METAR WAOC 012130Z AUTO VRB01G01KT 25/24 Q1011=
01-Jul-2023 SAID31 WAOC 012200 METAR WAOC 012200Z AUTO VRB02G02KT 240V340 25/24 Q1011=
01-Jul-2023 SAID31 WAOC 012230 METAR WAOC 012230Z AUTO VRB02G02KT 24/24 Q1011=
01-Jul-2023 SAID31 WAOC 012300 METAR WAOC 012300Z AUTO VRB01G01KT 240V340 25/24 Q1011=
01-Jul-2023 SAID31 WAOC 012330 METAR WAOC 012330Z AUTO VRB02G02KT 26/24 Q1011=
02-Jul-2023 SAID31 WAOC 020000 METAR WAOC 020000Z AUTO VRB02G02KT 240V310 26/24 Q1012=
02-Jul-2023 SAID31 WAOC 020030 METAR WAOC 020030Z AUTO VRB01G01KT 27/24 Q1012=
02-Jul-2023 SAID31 WAOC 020100 METAR WAOC 020100Z AUTO VRB01G01KT 180V290 27/25 Q1012=
02-Jul-2023 SAID31 WAOC 020130 METAR WAOC 020130Z AUTO VRB02G02KT 180V280 28/24 Q1012=
02-Jul-2023 SAID31 WAOC 020200 METAR WAOC 020200Z AUTO VRB01G01KT 020V250 29/24 Q1012=
02-Jul-2023 SAID31 WAOC 020230 METAR WAOC 020230Z AUTO VRB01G01KT 230V340 29/24 Q1012=
02-Jul-2023 SAID31 WAOC 020300 METAR WAOC 020300Z AUTO VRB02G02KT 120V190 30/24 Q1012=
02-Jul-2023 SAID31 WAOC 020330 METAR WAOC 020330Z AUTO 00000G00KT 120V280 31/23 Q1011=
02-Jul-2023 SAID31 WAOC 020400 METAR WAOC 020400Z AUTO VRB01G01KT 160V300 31/23 Q1011=
02-Jul-2023 SAID31 WAOC 020430 METAR WAOC 020430Z AUTO VRB02G02KT 30/23 Q1010=
02-Jul-2023 SAID31 WAOC 020500 METAR WAOC 020500Z AUTO VRB02G03KT 130V200 29/25 Q1010=
02-Jul-2023 SAID31 WAOC 020530 METAR WAOC 020530Z AUTO 14004G04KT 070V180 27/25 Q1010=
02-Jul-2023 SAID31 WAOC 020600 METAR WAOC 020600Z AUTO VRB01G01KT 110V200 27/25 Q1010=
02-Jul-2023 SAID31 WAOC 020630 METAR WAOC 020630Z AUTO VRB03G03KT 140V210 27/25 Q1009=
02-Jul-2023 SAID31 WAOC 020700 METAR WAOC 020700Z AUTO VRB02G02KT 100V190 28/25 Q1009=
02-Jul-2023 SAID31 WAOC 020730 METAR WAOC 020730Z AUTO VRB02G02KT 140V210 28/25 Q1009=
02-Jul-2023 SAID31 WAOC 020800 METAR WAOC 020800Z AUTO VRB02G02KT 28/25 Q1009=
02-Jul-2023 SAID31 WAOC 020830 METAR WAOC 020830Z AUTO VRB03G03KT 100V240 28/24 Q1009=
02-Jul-2023 SAID31 WAOC 020900 METAR WAOC 020900Z AUTO VRB01G01KT 170V260 28/25 Q1009=
02-Jul-2023 SAID31 WAOC 020930 METAR WAOC 020930Z AUTO VRB01G01KT 28/24 Q1009=
02-Jul-2023 SAID31 WAOC 021000 METAR WAOC 021000Z AUTO VRB02G02KT 230V300 26/25 Q1009=
02-Jul-2023 SAID31 WAOC 021030 METAR WAOC 021030Z AUTO VRB03G03KT 26/25 Q1010=
02-Jul-2023 SAID31 WAOC 021100 METAR WAOC 021100Z AUTO VRB01G01KT 26/25 Q1010=
02-Jul-2023 SAID31 WAOC 021130 METAR WAOC 021130Z AUTO 00000G00KT 26/25 Q1011=
02-Jul-2023 SAID31 WAOC 021200 METAR WAOC 021200Z AUTO VRB02G02KT 220V300 26/25 Q1011=
02-Jul-2023 SAID31 WAOC 021230 METAR WAOC 021230Z AUTO VRB01G01KT 240V330 25/25 Q1012=
02-Jul-2023 SAID31 WAOC 021300 METAR WAOC 021300Z AUTO VRB01G01KT 25/24 Q1012=
02-Jul-2023 SAID31 WAOC 021330 METAR WAOC 021330Z AUTO VRB01G01KT 25/24 Q1012=
02-Jul-2023 SAID31 WAOC 021400 METAR WAOC 021400Z AUTO VRB02G02KT 25/24 Q1012=
02-Jul-2023 SAID31 WAOC 021430 METAR WAOC 021430Z AUTO VRB01G01KT 25/24 Q1012=
02-Jul-2023 SAID31 WAOC 021500 METAR WAOC 021500Z AUTO VRB01G01KT 25/24 Q1012=
02-Jul-2023 SAID31 WAOC 021530 METAR WAOC 021530Z AUTO VRB02G02KT 25/24 Q1012=
02-Jul-2023 SAID31 WAOC 021600 METAR WAOC 021600Z AUTO VRB02G02KT 25/24 Q1012=
02-Jul-2023 SAID31 WAOC 021630 METAR WAOC 021630Z AUTO VRB02G02KT 25/24 Q1011=
02-Jul-2023 SAID31 WAOC 021700 METAR WAOC 021700Z AUTO VRB02G02KT 25/24 Q1011=
02-Jul-2023 SAID31 WAOC 021730 METAR WAOC 021730Z AUTO VRB02G02KT 24/23 Q1011=
02-Jul-2023 SAID31 WAOC 021800 METAR WAOC 021800Z AUTO VRB02G02KT 24/24 Q1011=
02-Jul-2023 SAID31 WAOC 021830 METAR WAOC 021830Z AUTO VRB01G01KT 24/23 Q1011=
02-Jul-2023 SAID31 WAOC 021900 METAR WAOC 021900Z AUTO VRB01G01KT 220V290 24/23 Q1011=
02-Jul-2023 SAID31 WAOC 021930 METAR WAOC 021930Z AUTO VRB02G02KT 230V300 24/23 Q1010=
02-Jul-2023 SAID31 WAOC 022000 METAR WAOC 022000Z AUTO VRB01G01KT 24/23 Q1010=
02-Jul-2023 SAID31 WAOC 022030 METAR WAOC 022030Z AUTO VRB01G01KT 24/23 Q1010=
02-Jul-2023 SAID31 WAOC 022100 METAR WAOC 022100Z AUTO VRB02G02KT 24/23 Q1010=
02-Jul-2023 SAID31 WAOC 022130 METAR WAOC 022130Z AUTO VRB01G01KT 24/23 Q1011=
02-Jul-2023 SAID31 WAOC 022200 METAR WAOC 022200Z AUTO VRB01G01KT 24/23 Q1011=
02-Jul-2023 SAID31 WAOC 022230 METAR WAOC 022230Z AUTO 00000G00KT 220V290 24/23 Q1011=
02-Jul-2023 SAID31 WAOC 022300 METAR WAOC 022300Z AUTO VRB01G01KT 200V280 24/23 Q1011=
02-Jul-2023 SAID31 WAOC 022330 METAR WAOC 022330Z AUTO VRB01G01KT 24/23 Q1012=
03-Jul-2023 SAID31 WAOC 030000 METAR WAOC 030000Z AUTO VRB01G01KT 24/23 Q1012=
03-Jul-2023 SAID31 WAOC 030030 METAR WAOC 030030Z AUTO VRB01G01KT 24/23 Q1012=
03-Jul-2023 SAID31 WAOC 030100 METAR WAOC 030100Z AUTO 00000G00KT 100V170 25/24 Q1013=
03-Jul-2023 SAID31 WAOC 030130 METAR WAOC 030130Z AUTO 00000G00KT 300V110 25/24 Q1013=
03-Jul-2023 SAID31 WAOC 030200 METAR WAOC 030200Z AUTO 00000G00KT 030V130 25/24 Q1013=
03-Jul-2023 SAID31 WAOC 030230 METAR WAOC 030230Z AUTO VRB01G01KT 200V290 25/24 Q1013=
03-Jul-2023 SAID31 WAOC 030300 METAR WAOC 030300Z AUTO VRB02G02KT 200V340 25/24 Q1012=
03-Jul-2023 SAID31 WAOC 030330 METAR WAOC 030330Z AUTO VRB02G02KT 25/24 Q1012=
03-Jul-2023 SAID31 WAOC 030400 METAR WAOC 030400Z AUTO VRB02G02KT 250V320 25/24 Q1012=
03-Jul-2023 SAID31 WAOC 030430 METAR WAOC 030430Z AUTO VRB01G01KT 290V020 26/24 Q1012=
03-Jul-2023 SAID31 WAOC 030500 METAR WAOC 030500Z AUTO 00000G00KT 200V340 26/24 Q1012=
03-Jul-2023 SAID31 WAOC 030530 METAR WAOC 030530Z AUTO VRB01G01KT 030V180 27/25 Q1011=
03-Jul-2023 SAID31 WAOC 030600 METAR WAOC 030600Z AUTO VRB02G02KT 210V310 27/25 Q1010=
03-Jul-2023 SAID31 WAOC 030630 METAR WAOC 030630Z AUTO VRB02G02KT 220V320 28/24 Q1010=
03-Jul-2023 SAID31 WAOC 030700 METAR WAOC 030700Z AUTO VRB03G03KT 240V310 28/24 Q1010=
03-Jul-2023 SAID31 WAOC 030730 METAR WAOC 030730Z AUTO VRB02G02KT 200V280 28/24 Q1010=
03-Jul-2023 SAID31 WAOC 030800 METAR WAOC 030800Z AUTO VRB03G02KT 29/24 Q1009=
03-Jul-2023 SAID31 WAOC 030830 METAR WAOC 030830Z AUTO VRB03G03KT 230V300 28/24 Q1009=
03-Jul-2023 SAID31 WAOC 030900 METAR WAOC 030900Z AUTO VRB02G02KT 180V260 28/24 Q1009=
03-Jul-2023 SAID31 WAOC 030930 METAR WAOC 030930Z AUTO VRB03G03KT 27/24 Q1009=
03-Jul-2023 SAID31 WAOC 031000 METAR WAOC 031000Z AUTO 24004G04KT 200V300 26/24 Q1010=
03-Jul-2023 SAID31 WAOC 031030 METAR WAOC 031030Z AUTO VRB02G02KT 160V300 25/23 Q1010=
03-Jul-2023 SAID31 WAOC 031100 METAR WAOC 031100Z AUTO VRB02G02KT 240V310 24/23 Q1010=
03-Jul-2023 SAID31 WAOC 031130 METAR WAOC 031130Z AUTO VRB01G01KT 24/23 Q1010=
03-Jul-2023 SAID31 WAOC 031200 METAR WAOC 031200Z AUTO VRB01G01KT 220V290 24/23 Q1010=
03-Jul-2023 SAID31 WAOC 031230 METAR WAOC 031230Z AUTO VRB01G01KT 25/23 Q1010=
03-Jul-2023 SAID31 WAOC 031300 METAR WAOC 031300Z AUTO VRB01G01KT 24/23 Q1011=
03-Jul-2023 SAID31 WAOC 031330 METAR WAOC 031330Z AUTO VRB01G01KT 130V240 24/23 Q1011=
03-Jul-2023 SAID31 WAOC 031400 METAR WAOC 031400Z AUTO VRB01G01KT 25/23 Q1011=
03-Jul-2023 SAID31 WAOC 031430 METAR WAOC 031430Z AUTO VRB01G01KT 25/24 Q1011=
03-Jul-2023 SAID31 WAOC 031500 METAR WAOC 031500Z AUTO VRB01G01KT 24/23 Q1012=
03-Jul-2023 SAID31 WAOC 031530 METAR WAOC 031530Z AUTO VRB02G02KT 24/23 Q1012=
03-Jul-2023 SAID31 WAOC 031600 METAR WAOC 031600Z AUTO VRB01G01KT 250V320 24/23 Q1012=
03-Jul-2023 SAID31 WAOC 031630 METAR WAOC 031630Z AUTO VRB02G02KT 24/23 Q1012=
03-Jul-2023 SAID31 WAOC 031700 METAR WAOC 031700Z AUTO VRB02G02KT 24/23 Q1011=
03-Jul-2023 SAID31 WAOC 031730 METAR WAOC 031730Z AUTO VRB01G01KT 24/23 Q1011=
03-Jul-2023 SAID31 WAOC 031800 METAR WAOC 031800Z AUTO VRB02G02KT 24/23 Q1011=
03-Jul-2023 SAID31 WAOC 031830 METAR WAOC 031830Z AUTO VRB02G02KT 24/23 Q1010=
03-Jul-2023 SAID31 WAOC 031900 METAR WAOC 031900Z AUTO VRB01G01KT 24/23 Q1010=
03-Jul-2023 SAID31 WAOC 031930 METAR WAOC 031930Z AUTO VRB02G02KT 24/23 Q1010=
03-Jul-2023 SAID31 WAOC 032000 METAR WAOC 032000Z AUTO VRB02G02KT 24/23 Q1009=
03-Jul-2023 SAID31 WAOC 032030 METAR WAOC 032030Z AUTO VRB02G02KT 320V010 25/23 Q1009=
03-Jul-2023 SAID31 WAOC 032100 METAR WAOC 032100Z AUTO VRB01G01KT 24/23 Q1009=
03-Jul-2023 SAID31 WAOC 032130 METAR WAOC 032130Z AUTO VRB01G01KT 24/23 Q1010=
03-Jul-2023 SAID31 WAOC 032200 METAR WAOC 032200Z AUTO VRB02G02KT 24/23 Q1010=
03-Jul-2023 SAID31 WAOC 032230 METAR WAOC 032230Z AUTO VRB02G02KT 350V050 24/23 Q1010=
03-Jul-2023 SAID31 WAOC 032300 METAR WAOC 032300Z AUTO VRB01G01KT 24/23 Q1010=
03-Jul-2023 SAID31 WAOC 032330 METAR WAOC 032330Z AUTO 00000G00KT 000V260 24/23 Q1010=
04-Jul-2023 SAID31 WAOC 040000 METAR WAOC 040000Z AUTO VRB01G01KT 25/24 Q1011=
04-Jul-2023 SAID31 WAOC 040030 METAR WAOC 040030Z AUTO VRB01G01KT 230V320 25/24 Q1011=
04-Jul-2023 SAID31 WAOC 040100 METAR WAOC 040100Z AUTO VRB01G01KT 180V300 26/24 Q1011=
04-Jul-2023 SAID31 WAOC 040130 METAR WAOC 040130Z AUTO VRB01G01KT 220V310 26/24 Q1011=
04-Jul-2023 SAID31 WAOC 040200 METAR WAOC 040200Z AUTO VRB01G01KT 180V000 27/24 Q1011=
04-Jul-2023 SAID31 WAOC 040230 METAR WAOC 040230Z AUTO 00000G00KT 270V360 27/24 Q1011=
04-Jul-2023 SAID31 WAOC 040300 METAR WAOC 040300Z AUTO VRB02G02KT 160V360 28/24 Q1010=
04-Jul-2023 SAID31 WAOC 040330 METAR WAOC 040330Z AUTO VRB01G01KT 290V010 28/24 Q1010=
04-Jul-2023 SAID31 WAOC 040400 METAR WAOC 040400Z AUTO VRB01G01KT 260V030 29/23 Q1010=
04-Jul-2023 SAID31 WAOC 040430 METAR WAOC 040430Z AUTO VRB01G01KT 120V200 29/23 Q1010=
04-Jul-2023 SAID31 WAOC 040500 METAR WAOC 040500Z AUTO VRB01G01KT 300V180 29/24 Q1009=
04-Jul-2023 SAID31 WAOC 040530 METAR WAOC 040530Z AUTO VRB02G02KT 320V020 30/24 Q1009=
04-Jul-2023 SAID31 WAOC 040600 METAR WAOC 040600Z AUTO 00000G00KT 160V040 30/24 Q1008=
04-Jul-2023 SAID31 WAOC 040630 METAR WAOC 040630Z AUTO 00000G00KT 230V340 31/23 Q1008=
04-Jul-2023 SAID31 WAOC 040700 METAR WAOC 040700Z AUTO VRB02G02KT 30/23 Q1008=
04-Jul-2023 SAID31 WAOC 040730 METAR WAOC 040730Z AUTO VRB03G03KT 30/24 Q1008=
04-Jul-2023 SAID31 WAOC 040800 METAR WAOC 040800Z AUTO VRB03G03KT 28/25 Q1008=
04-Jul-2023 SAID31 WAOC 040830 METAR WAOC 040830Z AUTO VRB03G03KT 28/25 Q1008=
04-Jul-2023 SAID31 WAOC 040900 METAR WAOC 040900Z AUTO 08004G04KT 28/25 Q1008=
04-Jul-2023 SAID31 WAOC 040930 METAR WAOC 040930Z AUTO VRB03G03KT 28/25 Q1008=
04-Jul-2023 SAID31 WAOC 041000 METAR WAOC 041000Z AUTO VRB03G03KT 27/24 Q1008=
04-Jul-2023 SAID31 WAOC 041030 METAR WAOC 041030Z AUTO VRB02G02KT 27/24 Q1009=
04-Jul-2023 SAID31 WAOC 041100 METAR WAOC 041100Z AUTO VRB01G01KT 27/25 Q1009=
04-Jul-2023 SAID31 WAOC 041130 METAR WAOC 041130Z AUTO VRB01G01KT 27/25 Q1010=
04-Jul-2023 SAID31 WAOC 041200 METAR WAOC 041200Z AUTO VRB01G01KT 27/25 Q1010=
04-Jul-2023 SAID31 WAOC 041230 METAR WAOC 041230Z AUTO VRB01G01KT 120V190 27/24 Q1010=
04-Jul-2023 SAID31 WAOC 041300 METAR WAOC 041300Z AUTO VRB03G03KT 27/25 Q1011=
04-Jul-2023 SAID31 WAOC 041330 METAR WAOC 041330Z AUTO VRB02G02KT 27/25 Q1011=
04-Jul-2023 SAID31 WAOC 041400 METAR WAOC 041400Z AUTO VRB02G02KT 26/25 Q1011=
04-Jul-2023 SAID31 WAOC 041430 METAR WAOC 041430Z AUTO VRB02G02KT 25/25 Q1011=
04-Jul-2023 SAID31 WAOC 041500 METAR WAOC 041500Z AUTO VRB02G02KT 25/25 Q1011=
04-Jul-2023 SAID31 WAOC 041530 METAR WAOC 041530Z AUTO VRB02G02KT 25/24 Q1011=
04-Jul-2023 SAID31 WAOC 041600 METAR WAOC 041600Z AUTO VRB03G03KT 25/24 Q1010=
04-Jul-2023 SAID31 WAOC 041630 METAR WAOC 041630Z AUTO VRB01G01KT 25/24 Q1010=
04-Jul-2023 SAID31 WAOC 041700 METAR WAOC 041700Z AUTO VRB01G01KT 230V300 25/24 Q1010=
04-Jul-2023 SAID31 WAOC 041730 METAR WAOC 041730Z AUTO VRB02G02KT 25/24 Q1010=
04-Jul-2023 SAID31 WAOC 041800 METAR WAOC 041800Z AUTO VRB02G02KT 25/24 Q1010=
04-Jul-2023 SAID31 WAOC 041830 METAR WAOC 041830Z AUTO VRB01G01KT 25/24 Q1009=
04-Jul-2023 SAID31 WAOC 041900 METAR WAOC 041900Z AUTO 00000G00KT 310V120 25/24 Q1009=
04-Jul-2023 SAID31 WAOC 041930 METAR WAOC 041930Z AUTO VRB01G00KT 340V020 25/24 Q1009=
04-Jul-2023 SAID31 WAOC 042000 METAR WAOC 042000Z AUTO VRB01G01KT 24/24 Q1008=
04-Jul-2023 SAID31 WAOC 042030 METAR WAOC 042030Z AUTO VRB01G01KT 24/23 Q1008=
04-Jul-2023 SAID31 WAOC 042100 METAR WAOC 042100Z AUTO VRB01G01KT 24/23 Q1008=
04-Jul-2023 SAID31 WAOC 042130 METAR WAOC 042130Z AUTO VRB02G02KT 24/24 Q1008=
04-Jul-2023 SAID31 WAOC 042200 METAR WAOC 042200Z AUTO VRB02G02KT 24/23 Q1008=
04-Jul-2023 SAID31 WAOC 042230 METAR WAOC 042230Z AUTO VRB01G01KT 24/23 Q1009=
04-Jul-2023 SAID31 WAOC 042300 METAR WAOC 042300Z AUTO VRB01G01KT 210V310 24/23 Q1009=
04-Jul-2023 SAID31 WAOC 042330 METAR WAOC 042330Z AUTO VRB02G02KT 25/24 Q1009=
05-Jul-2023 SAID31 WAOC 050000 METAR WAOC 050000Z AUTO VRB02G02KT 26/24 Q1010=
05-Jul-2023 SAID31 WAOC 050030 METAR WAOC 050030Z AUTO VRB02G02KT 27/25 Q1010=
05-Jul-2023 SAID31 WAOC 050100 METAR WAOC 050100Z AUTO VRB02G02KT 240V350 28/25 Q1010=
05-Jul-2023 SAID31 WAOC 050130 METAR WAOC 050130Z AUTO VRB01G01KT 120V230 28/25 Q1010=
05-Jul-2023 SAID31 WAOC 050200 METAR WAOC 050200Z AUTO VRB02G02KT 180V280 29/25 Q1010=
05-Jul-2023 SAID31 WAOC 050230 METAR WAOC 050230Z AUTO VRB01G01KT 070V140 29/25 Q1010=
05-Jul-2023 SAID31 WAOC 050300 METAR WAOC 050300Z AUTO VRB01G01KT 050V190 30/24 Q1009=
05-Jul-2023 SAID31 WAOC 050330 METAR WAOC 050330Z AUTO VRB03G03KT 130V240 30/24 Q1009=
05-Jul-2023 SAID31 WAOC 050400 METAR WAOC 050400Z AUTO VRB03G03KT 31/24 Q1008=
05-Jul-2023 SAID31 WAOC 050430 METAR WAOC 050430Z AUTO 17004G04KT 110V210 28/25 Q1008=
05-Jul-2023 SAID31 WAOC 050500 METAR WAOC 050500Z AUTO VRB02G01KT 110V240 27/25 Q1008=
05-Jul-2023 SAID31 WAOC 050530 METAR WAOC 050530Z AUTO VRB02G02KT 100V190 27/25 Q1008=
05-Jul-2023 SAID31 WAOC 050600 METAR WAOC 050600Z AUTO 00000G00KT 260V000 27/25 Q1008=
05-Jul-2023 SAID31 WAOC 050630 METAR WAOC 050630Z AUTO VRB03G03KT 200V280 27/26 Q1008=
05-Jul-2023 SAID31 WAOC 050700 METAR WAOC 050700Z AUTO VRB02G02KT 190V290 26/25 Q1007=
05-Jul-2023 SAID31 WAOC 050730 METAR WAOC 050730Z AUTO 27004G02KT 220V290 25/25 Q1007=
05-Jul-2023 SAID31 WAOC 050800 METAR WAOC 050800Z AUTO VRB03G03KT 26/25 Q1007=
05-Jul-2023 SAID31 WAOC 050830 METAR WAOC 050830Z AUTO VRB03G03KT 26/24 Q1007=
05-Jul-2023 SAID31 WAOC 050900 METAR WAOC 050900Z AUTO VRB02G02KT 26/25 Q1007=
05-Jul-2023 SAID31 WAOC 050930 METAR WAOC 050930Z AUTO VRB01G01KT 26/25 Q1007=
05-Jul-2023 SAID31 WAOC 051000 METAR WAOC 051000Z AUTO VRB02G02KT 26/25 Q1008=
05-Jul-2023 SAID31 WAOC 051030 METAR WAOC 051030Z AUTO VRB02G02KT 26/25 Q1008=
05-Jul-2023 SAID31 WAOC 051130 METAR WAOC 051130Z AUTO VRB02G02KT 26/25 Q1009=
05-Jul-2023 SAID31 WAOC 051200 METAR WAOC 051200Z AUTO VRB01G01KT 26/25 Q1009=
05-Jul-2023 SAID31 WAOC 051230 METAR WAOC 051230Z AUTO VRB01G01KT 200V270 26/25 Q1010=
05-Jul-2023 SAID31 WAOC 051300 METAR WAOC 051300Z AUTO VRB02G02KT 25/25 Q1010=
05-Jul-2023 SAID31 WAOC 051330 METAR WAOC 051330Z AUTO VRB01G01KT 25/24 Q1010=
05-Jul-2023 SAID31 WAOC 051400 METAR WAOC 051400Z AUTO VRB01G01KT 240V330 25/24 Q1010=
05-Jul-2023 SAID31 WAOC 051430 METAR WAOC 051430Z AUTO VRB01G01KT 200V290 25/24 Q1010=
05-Jul-2023 SAID31 WAOC 051500 METAR WAOC 051500Z AUTO VRB02G02KT 25/24 Q1010=
05-Jul-2023 SAID31 WAOC 051530 METAR WAOC 051530Z AUTO VRB02G02KT 25/24 Q1010=
05-Jul-2023 SAID31 WAOC 051600 METAR WAOC 051600Z AUTO VRB03G03KT 25/24 Q1010=
05-Jul-2023 SAID31 WAOC 051630 METAR WAOC 051630Z AUTO VRB01G01KT 25/24 Q1010=
05-Jul-2023 SAID31 WAOC 051700 METAR WAOC 051700Z AUTO VRB02G02KT 24/24 Q1010=
05-Jul-2023 SAID31 WAOC 051730 METAR WAOC 051730Z AUTO VRB02G02KT 25/24 Q1010=
05-Jul-2023 SAID31 WAOC 051800 METAR WAOC 051800Z AUTO VRB01G01KT 200V320 25/24 Q1010=
05-Jul-2023 SAID31 WAOC 051830 METAR WAOC 051830Z AUTO VRB01G01KT 25/24 Q1009=
05-Jul-2023 SAID31 WAOC 051900 METAR WAOC 051900Z AUTO VRB01G01KT 230V310 25/24 Q1009=
05-Jul-2023 SAID31 WAOC 051930 METAR WAOC 051930Z AUTO VRB02G02KT 220V290 25/24 Q1009=
05-Jul-2023 SAID31 WAOC 052000 METAR WAOC 052000Z AUTO VRB02G02KT 24/24 Q1009=
05-Jul-2023 SAID31 WAOC 052030 METAR WAOC 052030Z AUTO VRB02G02KT 24/23 Q1009=
05-Jul-2023 SAID31 WAOC 052100 METAR WAOC 052100Z AUTO VRB02G02KT 24/23 Q1009=
05-Jul-2023 SAID31 WAOC 052130 METAR WAOC 052130Z AUTO VRB02G02KT 24/23 Q1009=
05-Jul-2023 SAID31 WAOC 052200 METAR WAOC 052200Z AUTO VRB01G01KT 24/23 Q1009=
05-Jul-2023 SAID31 WAOC 052230 METAR WAOC 052230Z AUTO VRB01G01KT 24/23 Q1010=
05-Jul-2023 SAID31 WAOC 052300 METAR WAOC 052300Z AUTO VRB03G03KT 25/24 Q1010=
05-Jul-2023 SAID31 WAOC 052330 METAR WAOC 052330Z AUTO VRB02G02KT 26/25 Q1010=
06-Jul-2023 SAID31 WAOC 060000 METAR WAOC 060000Z AUTO VRB02G02KT 27/25 Q1011=
06-Jul-2023 SAID31 WAOC 060030 METAR WAOC 060030Z AUTO VRB02G02KT 28/25 Q1011=
06-Jul-2023 SAID31 WAOC 060100 METAR WAOC 060100Z AUTO VRB01G01KT 180V310 28/26 Q1011=
06-Jul-2023 SAID31 WAOC 060130 METAR WAOC 060130Z AUTO VRB02G02KT 100V240 28/26 Q1011=
06-Jul-2023 SAID31 WAOC 060200 METAR WAOC 060200Z AUTO VRB01G01KT 110V180 29/25 Q1011=
06-Jul-2023 SAID31 WAOC 060230 METAR WAOC 060230Z AUTO VRB02G02KT 120V190 30/26 Q1010=
06-Jul-2023 SAID31 WAOC 060300 METAR WAOC 060300Z AUTO VRB02G02KT 160V270 31/26 Q1010=
06-Jul-2023 SAID31 WAOC 060330 METAR WAOC 060330Z AUTO 19004G04KT 120V210 31/25 Q1010=
06-Jul-2023 SAID31 WAOC 060400 METAR WAOC 060400Z AUTO VRB02G02KT 130V220 29/25 Q1009=
06-Jul-2023 SAID31 WAOC 060430 METAR WAOC 060430Z AUTO VRB03G03KT 090V230 31/25 Q1009=
06-Jul-2023 SAID31 WAOC 060500 METAR WAOC 060500Z AUTO VRB01G01KT 130V220 32/25 Q1009=
06-Jul-2023 SAID31 WAOC 060530 METAR WAOC 060530Z AUTO 16004G04KT 100V220 31/24 Q1008=
06-Jul-2023 SAID31 WAOC 060600 METAR WAOC 060600Z AUTO 16006G06KT 090V220 31/25 Q1008=
06-Jul-2023 SAID31 WAOC 060630 METAR WAOC 060630Z AUTO VRB01G01KT 170V260 28/25 Q1008=
06-Jul-2023 SAID31 WAOC 060700 METAR WAOC 060700Z AUTO VRB01G01KT 020V100 28/26 Q1007=
06-Jul-2023 SAID31 WAOC 060730 METAR WAOC 060730Z AUTO VRB01G01KT 190V320 28/26 Q1008=
06-Jul-2023 SAID31 WAOC 060800 METAR WAOC 060800Z AUTO VRB01G01KT 220V290 27/26 Q1008=
06-Jul-2023 SAID31 WAOC 060830 METAR WAOC 060830Z AUTO VRB03G03KT 260V330 27/26 Q1008=
06-Jul-2023 SAID31 WAOC 060900 METAR WAOC 060900Z AUTO 29004G04KT 26/25 Q1008=
06-Jul-2023 SAID31 WAOC 060930 METAR WAOC 060930Z AUTO 30004G04KT 25/25 Q1008=
06-Jul-2023 SAID31 WAOC 061000 METAR WAOC 061000Z AUTO 29004G04KT 25/24 Q1009=
06-Jul-2023 SAID31 WAOC 061030 METAR WAOC 061030Z AUTO VRB03G03KT 25/24 Q1009=
06-Jul-2023 SAID31 WAOC 061130 METAR WAOC 061130Z AUTO VRB01G01KT 320V030 25/24 Q1009=
06-Jul-2023 SAID31 WAOC 061200 METAR WAOC 061200Z AUTO 00000G00KT 330V080 25/24 Q1009=
06-Jul-2023 SAID31 WAOC 061230 METAR WAOC 061230Z AUTO 00000G00KT 25/24 Q1010=
06-Jul-2023 SAID31 WAOC 061300 METAR WAOC 061300Z AUTO VRB02G02KT 25/24 Q1010=
06-Jul-2023 SAID31 WAOC 061330 METAR WAOC 061330Z AUTO VRB01G01KT 25/24 Q1010=
06-Jul-2023 SAID31 WAOC 061400 METAR WAOC 061400Z AUTO VRB02G02KT 25/24 Q1010=
06-Jul-2023 SAID31 WAOC 061430 METAR WAOC 061430Z AUTO VRB02G02KT 24/24 Q1010=
06-Jul-2023 SAID31 WAOC 061500 METAR WAOC 061500Z AUTO VRB02G02KT 24/24 Q1011=
06-Jul-2023 SAID31 WAOC 061530 METAR WAOC 061530Z AUTO VRB02G02KT 24/23 Q1011=
06-Jul-2023 SAID31 WAOC 061600 METAR WAOC 061600Z AUTO VRB02G02KT 25/24 Q1011=
06-Jul-2023 SAID31 WAOC 061630 METAR WAOC 061630Z AUTO VRB02G02KT 25/24 Q1011=
06-Jul-2023 SAID31 WAOC 061700 METAR WAOC 061700Z AUTO VRB02G02KT 25/24 Q1010=
06-Jul-2023 SAID31 WAOC 061730 METAR WAOC 061730Z AUTO VRB02G02KT 25/24 Q1010=
06-Jul-2023 SAID31 WAOC 061800 METAR WAOC 061800Z AUTO VRB02G02KT 24/24 Q1010=
06-Jul-2023 SAID31 WAOC 061830 METAR WAOC 061830Z AUTO VRB02G02KT 24/24 Q1010=
06-Jul-2023 SAID31 WAOC 061900 METAR WAOC 061900Z AUTO VRB01G01KT 24/24 Q1010=
06-Jul-2023 SAID31 WAOC 061930 METAR WAOC 061930Z AUTO VRB01G01KT 210V330 24/23 Q1009=
06-Jul-2023 SAID31 WAOC 062000 METAR WAOC 062000Z AUTO VRB01G01KT 140V210 25/24 Q1010=
06-Jul-2023 SAID31 WAOC 062030 METAR WAOC 062030Z AUTO VRB01G01KT 200V310 24/23 Q1010=
06-Jul-2023 SAID31 WAOC 062100 METAR WAOC 062100Z AUTO VRB01G01KT 110V210 24/23 Q1010=
06-Jul-2023 SAID31 WAOC 062130 METAR WAOC 062130Z AUTO VRB01G01KT 100V170 24/24 Q1010=
06-Jul-2023 SAID31 WAOC 062200 METAR WAOC 062200Z AUTO VRB01G01KT 350V030 25/24 Q1010=
06-Jul-2023 SAID31 WAOC 062230 METAR WAOC 062230Z AUTO VRB02G02KT 25/24 Q1011=
06-Jul-2023 SAID31 WAOC 062300 METAR WAOC 062300Z AUTO 00000G00KT 060V150 25/24 Q1010=
06-Jul-2023 SAID31 WAOC 062330 METAR WAOC 062330Z AUTO VRB01G01KT 170V270 25/24 Q1011=
07-Jul-2023 SAID31 WAOC 070000 METAR WAOC 070000Z AUTO VRB01G01KT 25/24 Q1012=
07-Jul-2023 SAID31 WAOC 070030 METAR WAOC 070030Z AUTO VRB01G01KT 26/25 Q1012=
07-Jul-2023 SAID31 WAOC 070100 METAR WAOC 070100Z AUTO VRB01G01KT 220V290 27/26 Q1011=
07-Jul-2023 SAID31 WAOC 070130 METAR WAOC 070130Z AUTO VRB01G01KT 080V260 27/26 Q1011=
07-Jul-2023 SAID31 WAOC 070200 METAR WAOC 070200Z AUTO VRB03G03KT 130V220 28/25 Q1011=
07-Jul-2023 SAID31 WAOC 070230 METAR WAOC 070230Z AUTO VRB02G02KT 190V280 28/25 Q1011=
07-Jul-2023 SAID31 WAOC 070300 METAR WAOC 070300Z AUTO VRB01G01KT 28/25 Q1011=
07-Jul-2023 SAID31 WAOC 070330 METAR WAOC 070330Z AUTO VRB01G01KT 100V240 28/26 Q1011=
07-Jul-2023 SAID31 WAOC 070400 METAR WAOC 070400Z AUTO VRB01G01KT 29/25 Q1011=
07-Jul-2023 SAID31 WAOC 070430 METAR WAOC 070430Z AUTO VRB01G01KT 070V160 29/24 Q1010=
07-Jul-2023 SAID31 WAOC 070500 METAR WAOC 070500Z AUTO 00000G00KT 030V220 30/24 Q1010=
07-Jul-2023 SAID31 WAOC 070530 METAR WAOC 070530Z AUTO VRB01G01KT 050V360 30/25 Q1009=
07-Jul-2023 SAID31 WAOC 070600 METAR WAOC 070600Z AUTO VRB03G03KT 060V180 31/25 Q1009=
07-Jul-2023 SAID31 WAOC 070630 METAR WAOC 070630Z AUTO VRB01G01KT 320V120 30/25 Q1008=
07-Jul-2023 SAID31 WAOC 070700 METAR WAOC 070700Z AUTO 14006G06KT 30/25 Q1008=
07-Jul-2023 SAID31 WAOC 070730 METAR WAOC 070730Z AUTO 11004G04KT 27/25 Q1009=
07-Jul-2023 SAID31 WAOC 070800 METAR WAOC 070800Z AUTO VRB02G02KT 27/25 Q1009=
07-Jul-2023 SAID31 WAOC 070830 METAR WAOC 070830Z AUTO VRB01G01KT 27/25 Q1009=
07-Jul-2023 SAID31 WAOC 070900 METAR WAOC 070900Z AUTO VRB01G01KT 120V280 27/25 Q1009=
07-Jul-2023 SAID31 WAOC 070930 METAR WAOC 070930Z AUTO VRB01G01KT 350V220 26/25 Q1010=
07-Jul-2023 SAID31 WAOC 071000 METAR WAOC 071000Z AUTO 10005G05KT 26/24 Q1010=
07-Jul-2023 SAID31 WAOC 071030 METAR WAOC 071030Z AUTO VRB03G03KT 25/25 Q1011=
07-Jul-2023 SAID31 WAOC 071100 METAR WAOC 071100Z AUTO VRB01G01KT 300V010 25/25 Q1011=
07-Jul-2023 SAID31 WAOC 071130 METAR WAOC 071130Z AUTO VRB01G01KT 25/24 Q1011=
07-Jul-2023 SAID31 WAOC 071200 METAR WAOC 071200Z AUTO VRB02G02KT 25/24 Q1011=
07-Jul-2023 SAID31 WAOC 071230 METAR WAOC 071230Z AUTO VRB03G03KT 25/24 Q1011=
07-Jul-2023 SAID31 WAOC 071300 METAR WAOC 071300Z AUTO VRB03G03KT 25/24 Q1012=
07-Jul-2023 SAID31 WAOC 071330 METAR WAOC 071330Z AUTO VRB03G03KT 25/24 Q1012=
07-Jul-2023 SAID31 WAOC 071430 METAR WAOC 071430Z AUTO VRB03G03KT 25/24 Q1012=
07-Jul-2023 SAID31 WAOC 071500 METAR WAOC 071500Z AUTO VRB02G02KT 25/24 Q1012=
07-Jul-2023 SAID31 WAOC 071530 METAR WAOC 071530Z AUTO VRB03G03KT 25/24 Q1012=
07-Jul-2023 SAID31 WAOC 071600 METAR WAOC 071600Z AUTO VRB03G03KT 25/24 Q1012=
07-Jul-2023 SAID31 WAOC 071630 METAR WAOC 071630Z AUTO VRB02G02KT 180V260 25/24 Q1012=
07-Jul-2023 SAID31 WAOC 071700 METAR WAOC 071700Z AUTO VRB01G01KT 210V330 25/24 Q1012=
07-Jul-2023 SAID31 WAOC 071730 METAR WAOC 071730Z AUTO 08004G04KT 25/24 Q1012=
07-Jul-2023 SAID31 WAOC 071800 METAR WAOC 071800Z AUTO VRB01G01KT 24/23 Q1012=
07-Jul-2023 SAID31 WAOC 071830 METAR WAOC 071830Z AUTO VRB01G01KT 200V290 24/23 Q1011=
07-Jul-2023 SAID31 WAOC 071900 METAR WAOC 071900Z AUTO VRB02G02KT 24/23 Q1011=
07-Jul-2023 SAID31 WAOC 071930 METAR WAOC 071930Z AUTO VRB01G01KT 24/23 Q1011=
07-Jul-2023 SAID31 WAOC 072000 METAR WAOC 072000Z AUTO 00000G00KT 250V030 24/23 Q1011=
07-Jul-2023 SAID31 WAOC 072030 METAR WAOC 072030Z AUTO 09004G04KT 24/23 Q1011=
07-Jul-2023 SAID31 WAOC 072100 METAR WAOC 072100Z AUTO VRB01G01KT 24/23 Q1012=
07-Jul-2023 SAID31 WAOC 072130 METAR WAOC 072130Z AUTO VRB01G01KT 300V040 24/23 Q1012=
07-Jul-2023 SAID31 WAOC 072200 METAR WAOC 072200Z AUTO VRB02G02KT 24/23 Q1012=
07-Jul-2023 SAID31 WAOC 072230 METAR WAOC 072230Z AUTO VRB03G03KT 24/23 Q1012=
07-Jul-2023 SAID31 WAOC 072300 METAR WAOC 072300Z AUTO 29005G05KT 24/23 Q1013=
07-Jul-2023 SAID31 WAOC 072330 METAR WAOC 072330Z AUTO 29005G05KT 24/23 Q1013=
08-Jul-2023 SAID31 WAOC 080000 METAR WAOC 080000Z AUTO 29005G05KT 24/23 Q1013=
08-Jul-2023 SAID31 WAOC 080030 METAR WAOC 080030Z AUTO VRB03G03KT 24/23 Q1014=
08-Jul-2023 SAID31 WAOC 080100 METAR WAOC 080100Z AUTO VRB03G03KT 23/23 Q1014=
08-Jul-2023 SAID31 WAOC 080130 METAR WAOC 080130Z AUTO VRB03G03KT 24/23 Q1014=
08-Jul-2023 SAID31 WAOC 080200 METAR WAOC 080200Z AUTO VRB02G02KT 23/23 Q1014=
08-Jul-2023 SAID31 WAOC 080230 METAR WAOC 080230Z AUTO VRB03G03KT 23/23 Q1013=
08-Jul-2023 SAID31 WAOC 080300 METAR WAOC 080300Z AUTO VRB02G01KT 240V320 25/24 Q1013=
08-Jul-2023 SAID31 WAOC 080330 METAR WAOC 080330Z AUTO 28004G04KT 220V310 25/25 Q1013=
08-Jul-2023 SAID31 WAOC 080400 METAR WAOC 080400Z AUTO VRB02G02KT 27/25 Q1013=
08-Jul-2023 SAID31 WAOC 080430 METAR WAOC 080430Z AUTO VRB02G02KT 29/27 Q1012=
08-Jul-2023 SAID31 WAOC 080500 METAR WAOC 080500Z AUTO VRB02G02KT 230V300 32/29 Q1012=
08-Jul-2023 SAID31 WAOC 080530 METAR WAOC 080530Z AUTO VRB01G01KT 010V360 33/30 Q1011=
08-Jul-2023 SAID31 WAOC 080600 METAR WAOC 080600Z AUTO VRB03G03KT 160V250 32/28 Q1010=
08-Jul-2023 SAID31 WAOC 080630 METAR WAOC 080630Z AUTO VRB03G03KT 170V270 32/26 Q1010=
08-Jul-2023 SAID31 WAOC 080700 METAR WAOC 080700Z AUTO VRB02G02KT 130V220 31/26 Q1010=
08-Jul-2023 SAID31 WAOC 080730 METAR WAOC 080730Z AUTO VRB02G02KT 30/26 Q1010=
08-Jul-2023 SAID31 WAOC 080800 METAR WAOC 080800Z AUTO VRB02G01KT 30/25 Q1010=
08-Jul-2023 SAID31 WAOC 080830 METAR WAOC 080830Z AUTO VRB02G02KT 30/24 Q1009=
08-Jul-2023 SAID31 WAOC 080900 METAR WAOC 080900Z AUTO VRB02G02KT 30/24 Q1010=
08-Jul-2023 SAID31 WAOC 080930 METAR WAOC 080930Z AUTO VRB02G02KT 29/25 Q1010=
08-Jul-2023 SAID31 WAOC 081000 METAR WAOC 081000Z AUTO VRB02G02KT 170V250 28/24 Q1010=
08-Jul-2023 SAID31 WAOC 081030 METAR WAOC 081030Z AUTO VRB01G01KT 160V250 27/24 Q1010=
08-Jul-2023 SAID31 WAOC 081100 METAR WAOC 081100Z AUTO VRB01G01KT 27/24 Q1010=
08-Jul-2023 SAID31 WAOC 081130 METAR WAOC 081130Z AUTO VRB01G01KT 160V230 27/24 Q1011=
08-Jul-2023 SAID31 WAOC 081200 METAR WAOC 081200Z AUTO VRB01G01KT 26/24 Q1011=
08-Jul-2023 SAID31 WAOC 081230 METAR WAOC 081230Z AUTO 00000G00KT 230V330 26/24 Q1011=
08-Jul-2023 SAID31 WAOC 081300 METAR WAOC 081300Z AUTO 00000G00KT 25/24 Q1011=
08-Jul-2023 SAID31 WAOC 081330 METAR WAOC 081330Z AUTO 00000G00KT 200V360 25/24 Q1012=
08-Jul-2023 SAID31 WAOC 081400 METAR WAOC 081400Z AUTO VRB01G01KT 25/24 Q1012=
08-Jul-2023 SAID31 WAOC 081430 METAR WAOC 081430Z AUTO VRB01G01KT 25/24 Q1012=
08-Jul-2023 SAID31 WAOC 081500 METAR WAOC 081500Z AUTO VRB01G01KT 25/24 Q1012=
08-Jul-2023 SAID31 WAOC 081530 METAR WAOC 081530Z AUTO VRB01G01KT 25/24 Q1012=
08-Jul-2023 SAID31 WAOC 081600 METAR WAOC 081600Z AUTO VRB01G01KT 25/24 Q1012=
08-Jul-2023 SAID31 WAOC 081630 METAR WAOC 081630Z AUTO VRB01G01KT 25/24 Q1011=
08-Jul-2023 SAID31 WAOC 081700 METAR WAOC 081700Z AUTO VRB02G02KT 24/23 Q1011=
08-Jul-2023 SAID31 WAOC 081730 METAR WAOC 081730Z AUTO VRB02G02KT 24/23 Q1011=
08-Jul-2023 SAID31 WAOC 081800 METAR WAOC 081800Z AUTO VRB01G01KT 240V310 24/23 Q1011=
08-Jul-2023 SAID31 WAOC 081830 METAR WAOC 081830Z AUTO VRB01G01KT 24/23 Q1010=
08-Jul-2023 SAID31 WAOC 081900 METAR WAOC 081900Z AUTO VRB02G02KT 24/23 Q1010=
08-Jul-2023 SAID31 WAOC 081930 METAR WAOC 081930Z AUTO VRB02G02KT 24/23 Q1010=
08-Jul-2023 SAID31 WAOC 082000 METAR WAOC 082000Z AUTO VRB02G02KT 24/23 Q1010=
08-Jul-2023 SAID31 WAOC 082030 METAR WAOC 082030Z AUTO VRB03G03KT 24/23 Q1010=
08-Jul-2023 SAID31 WAOC 082100 METAR WAOC 082100Z AUTO VRB02G02KT 24/23 Q1010=
08-Jul-2023 SAID31 WAOC 082130 METAR WAOC 082130Z AUTO VRB03G03KT 24/23 Q1010=
08-Jul-2023 SAID31 WAOC 082200 METAR WAOC 082200Z AUTO VRB02G02KT 24/23 Q1010=
08-Jul-2023 SAID31 WAOC 082300 METAR WAOC 082300Z AUTO VRB01G01KT 230V300 25/24 Q1011=
08-Jul-2023 SAID31 WAOC 082330 METAR WAOC 082330Z AUTO VRB01G01KT 230V310 26/24 Q1011=
09-Jul-2023 SAID31 WAOC 090000 METAR WAOC 090000Z AUTO VRB02G02KT 270V340 28/25 Q1011=
09-Jul-2023 SAID31 WAOC 090030 METAR WAOC 090030Z AUTO VRB02G02KT 230V310 28/25 Q1011=
09-Jul-2023 SAID31 WAOC 090100 METAR WAOC 090100Z AUTO VRB01G01KT 050V170 29/24 Q1011=
09-Jul-2023 SAID31 WAOC 090130 METAR WAOC 090130Z AUTO VRB02G02KT 29/25 Q1011=
09-Jul-2023 SAID31 WAOC 090200 METAR WAOC 090200Z AUTO VRB03G03KT 060V170 29/25 Q1011=
09-Jul-2023 SAID31 WAOC 090230 METAR WAOC 090230Z AUTO VRB03G03KT 30/24 Q1011=
09-Jul-2023 SAID31 WAOC 090300 METAR WAOC 090300Z AUTO 11004G04KT 29/24 Q1010=
09-Jul-2023 SAID31 WAOC 090330 METAR WAOC 090330Z AUTO 09004G04KT 29/25 Q1010=
09-Jul-2023 SAID31 WAOC 090400 METAR WAOC 090400Z AUTO VRB03G03KT 28/24 Q1010=
09-Jul-2023 SAID31 WAOC 090430 METAR WAOC 090430Z AUTO VRB03G03KT 050V120 29/24 Q1009=
09-Jul-2023 SAID31 WAOC 090500 METAR WAOC 090500Z AUTO VRB03G03KT 30/25 Q1009=
09-Jul-2023 SAID31 WAOC 090530 METAR WAOC 090530Z AUTO 12005G05KT 30/24 Q1009=
09-Jul-2023 SAID31 WAOC 090600 METAR WAOC 090600Z AUTO 11004G04KT 30/24 Q1008=
09-Jul-2023 SAID31 WAOC 090630 METAR WAOC 090630Z AUTO 10004G04KT 070V140 30/23 Q1008=
09-Jul-2023 SAID31 WAOC 090700 METAR WAOC 090700Z AUTO 09005G05KT 050V130 31/24 Q1007=
09-Jul-2023 SAID31 WAOC 090730 METAR WAOC 090730Z AUTO 08007G07KT 30/24 Q1007=
09-Jul-2023 SAID31 WAOC 090800 METAR WAOC 090800Z AUTO VRB03G03KT 29/24 Q1008=
09-Jul-2023 SAID31 WAOC 090830 METAR WAOC 090830Z AUTO 10004G05KT 30/23 Q1008=
09-Jul-2023 SAID31 WAOC 090900 METAR WAOC 090900Z AUTO VRB03G03KT 30/23 Q1008=
09-Jul-2023 SAID31 WAOC 090930 METAR WAOC 090930Z AUTO VRB02G02KT 29/23 Q1008=
09-Jul-2023 SAID31 WAOC 091000 METAR WAOC 091000Z AUTO VRB03G03KT 050V140 28/22 Q1008=
09-Jul-2023 SAID31 WAOC 091030 METAR WAOC 091030Z AUTO VRB02G02KT 29/23 Q1009=
09-Jul-2023 SAID31 WAOC 091100 METAR WAOC 091100Z AUTO VRB01G01KT 28/24 Q1009=
09-Jul-2023 SAID31 WAOC 091130 METAR WAOC 091130Z AUTO VRB01G01KT 28/24 Q1009=
09-Jul-2023 SAID31 WAOC 091200 METAR WAOC 091200Z AUTO VRB01G01KT 27/24 Q1010=
09-Jul-2023 SAID31 WAOC 091230 METAR WAOC 091230Z AUTO VRB01G01KT 010V080 27/24 Q1010=
09-Jul-2023 SAID31 WAOC 091300 METAR WAOC 091300Z AUTO 00000G00KT 26/25 Q1010=
09-Jul-2023 SAID31 WAOC 091330 METAR WAOC 091330Z AUTO VRB01G01KT 26/25 Q1011=
09-Jul-2023 SAID31 WAOC 091400 METAR WAOC 091400Z AUTO VRB01G01KT 26/25 Q1011=
09-Jul-2023 SAID31 WAOC 091430 METAR WAOC 091430Z AUTO VRB02G02KT 26/24 Q1011=
09-Jul-2023 SAID31 WAOC 091500 METAR WAOC 091500Z AUTO VRB01G01KT 26/24 Q1011=
09-Jul-2023 SAID31 WAOC 091530 METAR WAOC 091530Z AUTO VRB02G02KT 26/24 Q1011=
09-Jul-2023 SAID31 WAOC 091600 METAR WAOC 091600Z AUTO VRB02G02KT 26/24 Q1011=
09-Jul-2023 SAID31 WAOC 091630 METAR WAOC 091630Z AUTO VRB02G02KT 25/24 Q1011=
09-Jul-2023 SAID31 WAOC 091700 METAR WAOC 091700Z AUTO VRB02G02KT 25/24 Q1011=
09-Jul-2023 SAID31 WAOC 091730 METAR WAOC 091730Z AUTO VRB02G02KT 25/24 Q1010=
09-Jul-2023 SAID31 WAOC 091800 METAR WAOC 091800Z AUTO VRB01G01KT 25/24 Q1010=
09-Jul-2023 SAID31 WAOC 091830 METAR WAOC 091830Z AUTO VRB01G01KT 25/24 Q1010=
09-Jul-2023 SAID31 WAOC 091900 METAR WAOC 091900Z AUTO VRB01G01KT 25/24 Q1009=
09-Jul-2023 SAID31 WAOC 091930 METAR WAOC 091930Z AUTO VRB01G01KT 24/24 Q1010=
09-Jul-2023 SAID31 WAOC 092000 METAR WAOC 092000Z AUTO VRB02G02KT 24/23 Q1009=
09-Jul-2023 SAID31 WAOC 092030 METAR WAOC 092030Z AUTO VRB02G02KT 24/23 Q1009=
09-Jul-2023 SAID31 WAOC 092100 METAR WAOC 092100Z AUTO VRB03G03KT 25/24 Q1009=
09-Jul-2023 SAID31 WAOC 092130 METAR WAOC 092130Z AUTO VRB02G02KT 24/23 Q1010=
09-Jul-2023 SAID31 WAOC 092200 METAR WAOC 092200Z AUTO VRB02G02KT 24/23 Q1010=
09-Jul-2023 SAID31 WAOC 092230 METAR WAOC 092230Z AUTO VRB02G02KT 24/24 Q1010=
09-Jul-2023 SAID31 WAOC 092300 METAR WAOC 092300Z AUTO VRB01G01KT 170V300 25/24 Q1010=
09-Jul-2023 SAID31 WAOC 092330 METAR WAOC 092330Z AUTO VRB03G03KT 26/24 Q1010=
10-Jul-2023 SAID31 WAOC 100000 METAR WAOC 100000Z AUTO VRB02G03KT 27/24 Q1011=
10-Jul-2023 SAID31 WAOC 100030 METAR WAOC 100030Z AUTO VRB02G02KT 27/25 Q1011=
10-Jul-2023 SAID31 WAOC 100100 METAR WAOC 100100Z AUTO VRB01G01KT 250V350 29/25 Q1011=
10-Jul-2023 SAID31 WAOC 100130 METAR WAOC 100130Z AUTO VRB01G01KT 130V220 29/25 Q1011=
10-Jul-2023 SAID31 WAOC 100200 METAR WAOC 100200Z AUTO VRB02G03KT 140V220 30/25 Q1010=
10-Jul-2023 SAID31 WAOC 100230 METAR WAOC 100230Z AUTO VRB03G03KT 070V190 30/25 Q1010=
10-Jul-2023 SAID31 WAOC 100300 METAR WAOC 100300Z AUTO 10004G04KT 060V170 31/25 Q1010=
10-Jul-2023 SAID31 WAOC 100330 METAR WAOC 100330Z AUTO VRB03G02KT 060V170 31/26 Q1009=
10-Jul-2023 SAID31 WAOC 100400 METAR WAOC 100400Z AUTO VRB03G03KT 31/25 Q1009=
10-Jul-2023 SAID31 WAOC 100430 METAR WAOC 100430Z AUTO 09005G05KT 31/24 Q1008=
10-Jul-2023 SAID31 WAOC 100500 METAR WAOC 100500Z AUTO VRB03G03KT 060V130 32/25 Q1008=
10-Jul-2023 SAID31 WAOC 100530 METAR WAOC 100530Z AUTO 09006G06KT 060V130 32/25 Q1008=
10-Jul-2023 SAID31 WAOC 100600 METAR WAOC 100600Z AUTO 11004G04KT 070V140 32/25 Q1007=
10-Jul-2023 SAID31 WAOC 100630 METAR WAOC 100630Z AUTO 10004G04KT 32/25 Q1007=
10-Jul-2023 SAID31 WAOC 100700 METAR WAOC 100700Z AUTO VRB02G02KT 31/24 Q1007=
10-Jul-2023 SAID31 WAOC 100730 METAR WAOC 100730Z AUTO 12004G04KT 32/24 Q1007=
10-Jul-2023 SAID31 WAOC 100800 METAR WAOC 100800Z AUTO 13005G05KT 32/24 Q1007=
10-Jul-2023 SAID31 WAOC 100830 METAR WAOC 100830Z AUTO 12005G04KT 31/24 Q1007=
10-Jul-2023 SAID31 WAOC 100900 METAR WAOC 100900Z AUTO VRB03G04KT 31/25 Q1007=
10-Jul-2023 SAID31 WAOC 100930 METAR WAOC 100930Z AUTO VRB03G03KT 30/24 Q1008=
10-Jul-2023 SAID31 WAOC 101000 METAR WAOC 101000Z AUTO VRB03G03KT 29/24 Q1008=
10-Jul-2023 SAID31 WAOC 101030 METAR WAOC 101030Z AUTO VRB02G02KT 29/24 Q1009=
10-Jul-2023 SAID31 WAOC 101100 METAR WAOC 101100Z AUTO VRB02G02KT 29/24 Q1009=
10-Jul-2023 SAID31 WAOC 101130 METAR WAOC 101130Z AUTO VRB02G02KT 100V200 28/24 Q1010=
10-Jul-2023 SAID31 WAOC 101200 METAR WAOC 101200Z AUTO VRB02G01KT 120V190 28/24 Q1010=
10-Jul-2023 SAID31 WAOC 101230 METAR WAOC 101230Z AUTO VRB01G01KT 140V210 28/24 Q1010=
10-Jul-2023 SAID31 WAOC 101300 METAR WAOC 101300Z AUTO VRB01G01KT 120V290 28/24 Q1011=
10-Jul-2023 SAID31 WAOC 101330 METAR WAOC 101330Z AUTO VRB01G01KT 190V270 27/24 Q1011=
10-Jul-2023 SAID31 WAOC 101400 METAR WAOC 101400Z AUTO VRB01G01KT 26/24 Q1011=
10-Jul-2023 SAID31 WAOC 101430 METAR WAOC 101430Z AUTO VRB01G01KT 26/24 Q1011=
10-Jul-2023 SAID31 WAOC 101500 METAR WAOC 101500Z AUTO VRB01G01KT 210V280 26/24 Q1011=
10-Jul-2023 SAID31 WAOC 101530 METAR WAOC 101530Z AUTO VRB02G02KT 26/24 Q1011=
10-Jul-2023 SAID31 WAOC 101600 METAR WAOC 101600Z AUTO VRB02G02KT 25/24 Q1011=
10-Jul-2023 SAID31 WAOC 101630 METAR WAOC 101630Z AUTO VRB02G02KT 25/24 Q1011=
10-Jul-2023 SAID31 WAOC 101700 METAR WAOC 101700Z AUTO VRB02G02KT 25/24 Q1011=
10-Jul-2023 SAID31 WAOC 101730 METAR WAOC 101730Z AUTO VRB01G01KT 25/24 Q1010=
10-Jul-2023 SAID31 WAOC 101800 METAR WAOC 101800Z AUTO VRB02G02KT 25/24 Q1010=
10-Jul-2023 SAID31 WAOC 101830 METAR WAOC 101830Z AUTO VRB01G01KT 25/24 Q1010=
10-Jul-2023 SAID31 WAOC 101900 METAR WAOC 101900Z AUTO VRB01G01KT 25/24 Q1010=
10-Jul-2023 SAID31 WAOC 101930 METAR WAOC 101930Z AUTO VRB02G01KT 220V290 24/24 Q1010=
10-Jul-2023 SAID31 WAOC 102000 METAR WAOC 102000Z AUTO VRB01G01KT 24/24 Q1010=
10-Jul-2023 SAID31 WAOC 102030 METAR WAOC 102030Z AUTO VRB02G02KT 24/24 Q1010=
10-Jul-2023 SAID31 WAOC 102100 METAR WAOC 102100Z AUTO VRB01G01KT 24/23 Q1010=
10-Jul-2023 SAID31 WAOC 102130 METAR WAOC 102130Z AUTO VRB01G01KT 24/23 Q1010=
10-Jul-2023 SAID31 WAOC 102200 METAR WAOC 102200Z AUTO VRB02G02KT 24/23 Q1011=
10-Jul-2023 SAID31 WAOC 102230 METAR WAOC 102230Z AUTO VRB02G02KT 24/23 Q1011=
10-Jul-2023 SAID31 WAOC 102300 METAR WAOC 102300Z AUTO VRB01G01KT 24/23 Q1011=
10-Jul-2023 SAID31 WAOC 102330 METAR WAOC 102330Z AUTO VRB01G01KT 24/23 Q1011=
11-Jul-2023 SAID31 WAOC 110000 METAR WAOC 110000Z AUTO VRB01G01KT 26/24 Q1012=
11-Jul-2023 SAID31 WAOC 110030 METAR WAOC 110030Z AUTO VRB01G01KT 190V300 28/25 Q1012=
11-Jul-2023 SAID31 WAOC 110100 METAR WAOC 110100Z AUTO VRB01G01KT 160V240 30/26 Q1012=
11-Jul-2023 SAID31 WAOC 110130 METAR WAOC 110130Z AUTO VRB03G03KT 130V230 31/26 Q1012=
11-Jul-2023 SAID31 WAOC 110200 METAR WAOC 110200Z AUTO VRB03G03KT 110V190 32/26 Q1011=
11-Jul-2023 SAID31 WAOC 110230 METAR WAOC 110230Z AUTO VRB01G01KT 120V230 31/24 Q1011=
11-Jul-2023 SAID31 WAOC 110300 METAR WAOC 110300Z AUTO VRB03G03KT 110V230 31/24 Q1011=
11-Jul-2023 SAID31 WAOC 110330 METAR WAOC 110330Z AUTO VRB03G04KT 140V280 31/23 Q1011=
11-Jul-2023 SAID31 WAOC 110400 METAR WAOC 110400Z AUTO VRB01G01KT 100V280 31/23 Q1010=
11-Jul-2023 SAID31 WAOC 110430 METAR WAOC 110430Z AUTO VRB02G02KT 080V240 32/23 Q1010=
11-Jul-2023 SAID31 WAOC 110500 METAR WAOC 110500Z AUTO VRB02G02KT 130V230 31/23 Q1010=
11-Jul-2023 SAID31 WAOC 110530 METAR WAOC 110530Z AUTO 13005G05KT 31/23 Q1009=
11-Jul-2023 SAID31 WAOC 110600 METAR WAOC 110600Z AUTO VRB01G01KT 120V210 31/23 Q1009=
11-Jul-2023 SAID31 WAOC 110630 METAR WAOC 110630Z AUTO VRB03G03KT 100V210 30/23 Q1009=
11-Jul-2023 SAID31 WAOC 110700 METAR WAOC 110700Z AUTO VRB02G02KT 100V280 31/22 Q1008=
11-Jul-2023 SAID31 WAOC 110830 METAR WAOC 110830Z AUTO VRB03G03KT 160V230 29/23 Q1009=
11-Jul-2023 SAID31 WAOC 110900 METAR WAOC 110900Z AUTO 15005G05KT 29/23 Q1009=
11-Jul-2023 SAID31 WAOC 110930 METAR WAOC 110930Z AUTO VRB02G02KT 110V200 28/23 Q1009=
11-Jul-2023 SAID31 WAOC 111000 METAR WAOC 111000Z AUTO VRB02G02KT 100V220 28/23 Q1009=
11-Jul-2023 SAID31 WAOC 111030 METAR WAOC 111030Z AUTO VRB02G02KT 110V200 28/23 Q1010=
11-Jul-2023 SAID31 WAOC 111100 METAR WAOC 111100Z AUTO VRB01G01KT 110V200 27/23 Q1010=
11-Jul-2023 SAID31 WAOC 111130 METAR WAOC 111130Z AUTO VRB03G02KT 120V190 27/23 Q1011=
11-Jul-2023 SAID31 WAOC 111200 METAR WAOC 111200Z AUTO VRB01G01KT 120V200 27/23 Q1011=
11-Jul-2023 SAID31 WAOC 111230 METAR WAOC 111230Z AUTO VRB01G01KT 120V210 27/23 Q1011=
11-Jul-2023 SAID31 WAOC 111300 METAR WAOC 111300Z AUTO VRB01G01KT 140V210 27/23 Q1011=
11-Jul-2023 SAID31 WAOC 111330 METAR WAOC 111330Z AUTO VRB01G01KT 26/24 Q1011=
11-Jul-2023 SAID31 WAOC 111400 METAR WAOC 111400Z AUTO 00000G00KT 180V250 31/29 Q1011=
11-Jul-2023 SAID31 WAOC 111430 METAR WAOC 111430Z AUTO VRB01G01KT 170V240 28/25 Q1011=
11-Jul-2023 SAID31 WAOC 111500 METAR WAOC 111500Z AUTO VRB02G02KT 28/26 Q1011=
11-Jul-2023 SAID31 WAOC 111530 METAR WAOC 111530Z AUTO VRB01G01KT 28/26 Q1011=
11-Jul-2023 SAID31 WAOC 111600 METAR WAOC 111600Z AUTO VRB01G01KT 230V340 28/27 Q1011=
11-Jul-2023 SAID31 WAOC 111630 METAR WAOC 111630Z AUTO VRB01G01KT 28/27 Q1011=
11-Jul-2023 SAID31 WAOC 111700 METAR WAOC 111700Z AUTO VRB03G03KT 33/33 Q1011=
11-Jul-2023 SAID31 WAOC 111730 METAR WAOC 111730Z AUTO VRB02G02KT 31/31 Q1010=
11-Jul-2023 SAID31 WAOC 111800 METAR WAOC 111800Z AUTO VRB02G02KT 33/34 Q1010=
11-Jul-2023 SAID31 WAOC 111830 METAR WAOC 111830Z AUTO VRB02G02KT 29/28 Q1010=
11-Jul-2023 SAID31 WAOC 111900 METAR WAOC 111900Z AUTO VRB03G03KT 26/25 Q1009=
11-Jul-2023 SAID31 WAOC 111930 METAR WAOC 111930Z AUTO VRB03G03KT 26/25 Q1009=
11-Jul-2023 SAID31 WAOC 112000 METAR WAOC 112000Z AUTO VRB02G02KT 26/25 Q1010=
11-Jul-2023 SAID31 WAOC 112030 METAR WAOC 112030Z AUTO VRB01G01KT 26/25 Q1009=
11-Jul-2023 SAID31 WAOC 112100 METAR WAOC 112100Z AUTO VRB01G01KT 230V300 26/25 Q1010=
11-Jul-2023 SAID31 WAOC 112130 METAR WAOC 112130Z AUTO VRB01G01KT 200V280 26/25 Q1010=
11-Jul-2023 SAID31 WAOC 112200 METAR WAOC 112200Z AUTO VRB02G02KT 26/25 Q1010=
11-Jul-2023 SAID31 WAOC 112230 METAR WAOC 112230Z AUTO VRB02G02KT 26/25 Q1010=
11-Jul-2023 SAID31 WAOC 112300 METAR WAOC 112300Z AUTO VRB02G02KT 26/25 Q1011=
11-Jul-2023 SAID31 WAOC 112330 METAR WAOC 112330Z AUTO VRB02G02KT 200V290 28/27 Q1011=
12-Jul-2023 SAID31 WAOC 120000 METAR WAOC 120000Z AUTO VRB03G03KT 27/26 Q1011=
12-Jul-2023 SAID31 WAOC 120030 METAR WAOC 120030Z AUTO VRB03G03KT 27/25 Q1011=
12-Jul-2023 SAID31 WAOC 120100 METAR WAOC 120100Z AUTO VRB02G02KT 240V310 28/25 Q1011=
12-Jul-2023 SAID31 WAOC 120130 METAR WAOC 120130Z AUTO VRB02G02KT 240V320 29/25 Q1011=
12-Jul-2023 SAID31 WAOC 120200 METAR WAOC 120200Z AUTO VRB02G02KT 100V180 29/25 Q1011=
12-Jul-2023 SAID31 WAOC 120230 METAR WAOC 120230Z AUTO 22004G04KT 120V240 29/24 Q1011=
12-Jul-2023 SAID31 WAOC 120300 METAR WAOC 120300Z AUTO VRB01G01KT 120V260 29/23 Q1011=
12-Jul-2023 SAID31 WAOC 120330 METAR WAOC 120330Z AUTO VRB03G03KT 160V240 30/24 Q1010=
12-Jul-2023 SAID31 WAOC 120400 METAR WAOC 120400Z AUTO 20006G06KT 140V240 29/24 Q1010=
12-Jul-2023 SAID31 WAOC 120430 METAR WAOC 120430Z AUTO VRB03G03KT 28/25 Q1010=
12-Jul-2023 SAID31 WAOC 120500 METAR WAOC 120500Z AUTO VRB02G02KT 140V210 26/24 Q1010=
12-Jul-2023 SAID31 WAOC 120530 METAR WAOC 120530Z AUTO VRB01G01KT 190V290 25/24 Q1009=
12-Jul-2023 SAID31 WAOC 120600 METAR WAOC 120600Z AUTO VRB02G02KT 26/24 Q1009=
12-Jul-2023 SAID31 WAOC 120630 METAR WAOC 120630Z AUTO VRB01G01KT 240V320 25/24 Q1009=
12-Jul-2023 SAID31 WAOC 120700 METAR WAOC 120700Z AUTO 26004G04KT 220V290 25/24 Q1009=
12-Jul-2023 SAID31 WAOC 120730 METAR WAOC 120730Z AUTO VRB02G02KT 25/24 Q1009=
12-Jul-2023 SAID31 WAOC 120800 METAR WAOC 120800Z AUTO VRB02G02KT 25/24 Q1009=
12-Jul-2023 SAID31 WAOC 120830 METAR WAOC 120830Z AUTO VRB02G02KT 210V290 25/24 Q1009=
12-Jul-2023 SAID31 WAOC 120900 METAR WAOC 120900Z AUTO VRB02G02KT 25/24 Q1009=
12-Jul-2023 SAID31 WAOC 120930 METAR WAOC 120930Z AUTO VRB02G02KT 25/24 Q1009=
12-Jul-2023 SAID31 WAOC 121000 METAR WAOC 121000Z AUTO VRB02G02KT 25/24 Q1009=
12-Jul-2023 SAID31 WAOC 121030 METAR WAOC 121030Z AUTO 30004G03KT 25/24 Q1009=
12-Jul-2023 SAID31 WAOC 121100 METAR WAOC 121100Z AUTO VRB03G03KT 25/24 Q1010=
12-Jul-2023 SAID31 WAOC 121130 METAR WAOC 121130Z AUTO VRB01G01KT 25/24 Q1010=
12-Jul-2023 SAID31 WAOC 121200 METAR WAOC 121200Z AUTO VRB02G02KT 24/24 Q1010=
12-Jul-2023 SAID31 WAOC 121230 METAR WAOC 121230Z AUTO VRB01G01KT 24/23 Q1011=
12-Jul-2023 SAID31 WAOC 121300 METAR WAOC 121300Z AUTO VRB02G02KT 24/23 Q1011=
12-Jul-2023 SAID31 WAOC 121330 METAR WAOC 121330Z AUTO VRB02G02KT 24/23 Q1011=
12-Jul-2023 SAID31 WAOC 121400 METAR WAOC 121400Z AUTO VRB01G01KT 220V300 24/23 Q1011=
12-Jul-2023 SAID31 WAOC 121430 METAR WAOC 121430Z AUTO VRB01G01KT 180V310 24/23 Q1011=
12-Jul-2023 SAID31 WAOC 121500 METAR WAOC 121500Z AUTO VRB01G01KT 24/23 Q1011=
12-Jul-2023 SAID31 WAOC 121530 METAR WAOC 121530Z AUTO VRB01G01KT 24/23 Q1012=
12-Jul-2023 SAID31 WAOC 121600 METAR WAOC 121600Z AUTO VRB02G02KT 24/23 Q1012=
12-Jul-2023 SAID31 WAOC 121630 METAR WAOC 121630Z AUTO VRB02G02KT 24/23 Q1011=
12-Jul-2023 SAID31 WAOC 121700 METAR WAOC 121700Z AUTO VRB02G02KT 24/23 Q1011=
12-Jul-2023 SAID31 WAOC 121730 METAR WAOC 121730Z AUTO VRB02G02KT 250V330 24/23 Q1011=
12-Jul-2023 SAID31 WAOC 121800 METAR WAOC 121800Z AUTO VRB02G02KT 24/23 Q1011=
12-Jul-2023 SAID31 WAOC 121830 METAR WAOC 121830Z AUTO VRB02G02KT 24/23 Q1010=
12-Jul-2023 SAID31 WAOC 121900 METAR WAOC 121900Z AUTO VRB02G02KT 24/23 Q1010=
12-Jul-2023 SAID31 WAOC 121930 METAR WAOC 121930Z AUTO VRB03G03KT 24/23 Q1010=
12-Jul-2023 SAID31 WAOC 122000 METAR WAOC 122000Z AUTO VRB02G02KT 24/23 Q1010=
12-Jul-2023 SAID31 WAOC 122030 METAR WAOC 122030Z AUTO VRB03G03KT 24/23 Q1010=
12-Jul-2023 SAID31 WAOC 122100 METAR WAOC 122100Z AUTO VRB02G02KT 24/23 Q1010=
12-Jul-2023 SAID31 WAOC 122130 METAR WAOC 122130Z AUTO VRB03G03KT 24/23 Q1010=
12-Jul-2023 SAID31 WAOC 122200 METAR WAOC 122200Z AUTO VRB02G02KT 220V300 24/23 Q1011=
12-Jul-2023 SAID31 WAOC 122230 METAR WAOC 122230Z AUTO VRB02G02KT 24/23 Q1011=
12-Jul-2023 SAID31 WAOC 122300 METAR WAOC 122300Z AUTO VRB02G02KT 220V320 24/23 Q1011=
12-Jul-2023 SAID31 WAOC 122330 METAR WAOC 122330Z AUTO 00000G00KT 240V330 24/24 Q1012=
13-Jul-2023 SAID31 WAOC 130000 METAR WAOC 130000Z AUTO VRB03G03KT 24/23 Q1012=
13-Jul-2023 SAID31 WAOC 130030 METAR WAOC 130030Z AUTO VRB01G01KT 24/23 Q1013=
13-Jul-2023 SAID31 WAOC 130100 METAR WAOC 130100Z AUTO VRB01G01KT 160V260 24/23 Q1013=
13-Jul-2023 SAID31 WAOC 130130 METAR WAOC 130130Z AUTO 00000G00KT 170V260 24/23 Q1012=
13-Jul-2023 SAID31 WAOC 130200 METAR WAOC 130200Z AUTO 00000G00KT 24/23 Q1012=
13-Jul-2023 SAID31 WAOC 130230 METAR WAOC 130230Z AUTO VRB01G01KT 24/23 Q1012=
13-Jul-2023 SAID31 WAOC 130300 METAR WAOC 130300Z AUTO VRB01G01KT 230V300 24/24 Q1012=
13-Jul-2023 SAID31 WAOC 130330 METAR WAOC 130330Z AUTO VRB01G01KT 220V310 24/23 Q1012=
13-Jul-2023 SAID31 WAOC 130400 METAR WAOC 130400Z AUTO VRB01G01KT 220V310 25/24 Q1011=
13-Jul-2023 SAID31 WAOC 130430 METAR WAOC 130430Z AUTO VRB02G02KT 170V270 26/25 Q1010=
13-Jul-2023 SAID31 WAOC 130500 METAR WAOC 130500Z AUTO VRB02G02KT 180V300 27/25 Q1009=
13-Jul-2023 SAID31 WAOC 130530 METAR WAOC 130530Z AUTO VRB02G02KT 26/24 Q1009=
13-Jul-2023 SAID31 WAOC 130600 METAR WAOC 130600Z AUTO VRB01G01KT 150V260 26/24 Q1009=
13-Jul-2023 SAID31 WAOC 130630 METAR WAOC 130630Z AUTO VRB01G02KT 180V280 26/25 Q1008=
13-Jul-2023 SAID31 WAOC 130700 METAR WAOC 130700Z AUTO VRB01G01KT 200V310 26/25 Q1008=
13-Jul-2023 SAID31 WAOC 130730 METAR WAOC 130730Z AUTO VRB01G01KT 26/25 Q1008=
13-Jul-2023 SAID31 WAOC 130800 METAR WAOC 130800Z AUTO VRB02G02KT 26/25 Q1008=
13-Jul-2023 SAID31 WAOC 130830 METAR WAOC 130830Z AUTO VRB01G01KT 26/25 Q1008=
13-Jul-2023 SAID31 WAOC 130900 METAR WAOC 130900Z AUTO VRB01G01KT 300V000 27/25 Q1008=
13-Jul-2023 SAID31 WAOC 130930 METAR WAOC 130930Z AUTO VRB01G01KT 350V090 27/25 Q1009=
13-Jul-2023 SAID31 WAOC 131000 METAR WAOC 131000Z AUTO VRB02G02KT 340V040 27/26 Q1009=
13-Jul-2023 SAID31 WAOC 131030 METAR WAOC 131030Z AUTO VRB01G01KT 320V030 26/26 Q1009=
13-Jul-2023 SAID31 WAOC 131100 METAR WAOC 131100Z AUTO VRB01G01KT 26/25 Q1009=
13-Jul-2023 SAID31 WAOC 131130 METAR WAOC 131130Z AUTO VRB01G01KT 260V340 26/25 Q1010=
13-Jul-2023 SAID31 WAOC 131200 METAR WAOC 131200Z AUTO VRB01G01KT 26/25 Q1010=
13-Jul-2023 SAID31 WAOC 131230 METAR WAOC 131230Z AUTO VRB01G01KT 230V300 26/25 Q1010=
13-Jul-2023 SAID31 WAOC 131300 METAR WAOC 131300Z AUTO 00000G00KT 000V150 26/25 Q1011=
13-Jul-2023 SAID31 WAOC 131330 METAR WAOC 131330Z AUTO VRB01G01KT 26/25 Q1011=
13-Jul-2023 SAID31 WAOC 131400 METAR WAOC 131400Z AUTO VRB02G02KT 26/25 Q1011=
13-Jul-2023 SAID31 WAOC 131430 METAR WAOC 131430Z AUTO VRB01G01KT 25/25 Q1011=
13-Jul-2023 SAID31 WAOC 131500 METAR WAOC 131500Z AUTO VRB01G01KT 25/25 Q1011=
13-Jul-2023 SAID31 WAOC 131530 METAR WAOC 131530Z AUTO VRB02G02KT 25/24 Q1012=
13-Jul-2023 SAID31 WAOC 131600 METAR WAOC 131600Z AUTO VRB02G02KT 25/24 Q1011=
13-Jul-2023 SAID31 WAOC 131630 METAR WAOC 131630Z AUTO VRB01G01KT 25/24 Q1011=
13-Jul-2023 SAID31 WAOC 131700 METAR WAOC 131700Z AUTO VRB02G02KT 25/24 Q1011=
13-Jul-2023 SAID31 WAOC 131730 METAR WAOC 131730Z AUTO VRB02G02KT 25/24 Q1011=
13-Jul-2023 SAID31 WAOC 131800 METAR WAOC 131800Z AUTO VRB02G02KT 230V300 25/24 Q1010=
13-Jul-2023 SAID31 WAOC 131830 METAR WAOC 131830Z AUTO VRB01G01KT 200V270 25/24 Q1010=
13-Jul-2023 SAID31 WAOC 131900 METAR WAOC 131900Z AUTO VRB01G01KT 25/24 Q1010=
13-Jul-2023 SAID31 WAOC 131930 METAR WAOC 131930Z AUTO VRB02G02KT 25/24 Q1009=
13-Jul-2023 SAID31 WAOC 132000 METAR WAOC 132000Z AUTO VRB02G02KT 25/24 Q1010=
13-Jul-2023 SAID31 WAOC 132030 METAR WAOC 132030Z AUTO VRB02G02KT 25/24 Q1010=
13-Jul-2023 SAID31 WAOC 132100 METAR WAOC 132100Z AUTO VRB01G01KT 25/24 Q1010=
13-Jul-2023 SAID31 WAOC 132130 METAR WAOC 132130Z AUTO VRB01G01KT 200V270 25/24 Q1010=
13-Jul-2023 SAID31 WAOC 132200 METAR WAOC 132200Z AUTO VRB02G02KT 25/24 Q1010=
13-Jul-2023 SAID31 WAOC 132230 METAR WAOC 132230Z AUTO VRB01G01KT 180V290 25/24 Q1011=
13-Jul-2023 SAID31 WAOC 132300 METAR WAOC 132300Z AUTO VRB01G01KT 200V280 25/24 Q1011=
13-Jul-2023 SAID31 WAOC 132330 METAR WAOC 132330Z AUTO VRB02G02KT 25/24 Q1011=
14-Jul-2023 SAID31 WAOC 140000 METAR WAOC 140000Z AUTO VRB02G02KT 240V330 26/25 Q1012=
14-Jul-2023 SAID31 WAOC 140030 METAR WAOC 140030Z AUTO VRB02G02KT 220V300 26/26 Q1012=
14-Jul-2023 SAID31 WAOC 140100 METAR WAOC 140100Z AUTO VRB02G02KT 27/26 Q1012=
14-Jul-2023 SAID31 WAOC 140130 METAR WAOC 140130Z AUTO VRB02G02KT 27/26 Q1012=
14-Jul-2023 SAID31 WAOC 140200 METAR WAOC 140200Z AUTO VRB01G01KT 150V220 26/25 Q1012=
14-Jul-2023 SAID31 WAOC 140230 METAR WAOC 140230Z AUTO VRB03G03KT 160V230 26/25 Q1012=
14-Jul-2023 SAID31 WAOC 140300 METAR WAOC 140300Z AUTO 00000G00KT 090V320 27/24 Q1011=
14-Jul-2023 SAID31 WAOC 140330 METAR WAOC 140330Z AUTO VRB02G01KT 140V220 28/26 Q1011=
14-Jul-2023 SAID31 WAOC 140400 METAR WAOC 140400Z AUTO VRB03G03KT 100V220 28/25 Q1011=
14-Jul-2023 SAID31 WAOC 140430 METAR WAOC 140430Z AUTO VRB02G02KT 100V210 28/25 Q1011=
14-Jul-2023 SAID31 WAOC 140500 METAR WAOC 140500Z AUTO VRB02G02KT 070V170 28/25 Q1010=
14-Jul-2023 SAID31 WAOC 140530 METAR WAOC 140530Z AUTO VRB01G01KT 030V190 29/25 Q1010=
14-Jul-2023 SAID31 WAOC 140600 METAR WAOC 140600Z AUTO VRB01G02KT 110V210 29/25 Q1009=
14-Jul-2023 SAID31 WAOC 140630 METAR WAOC 140630Z AUTO VRB03G04KT 120V210 29/25 Q1009=
14-Jul-2023 SAID31 WAOC 140700 METAR WAOC 140700Z AUTO 15004G04KT 100V220 29/25 Q1008=
14-Jul-2023 SAID31 WAOC 140730 METAR WAOC 140730Z AUTO VRB03G03KT 130V200 30/25 Q1008=
14-Jul-2023 SAID31 WAOC 140800 METAR WAOC 140800Z AUTO VRB01G01KT 130V210 30/26 Q1008=
14-Jul-2023 SAID31 WAOC 140830 METAR WAOC 140830Z AUTO VRB02G02KT 30/25 Q1008=
14-Jul-2023 SAID31 WAOC 140900 METAR WAOC 140900Z AUTO 17004G04KT 110V210 30/25 Q1008=
14-Jul-2023 SAID31 WAOC 140930 METAR WAOC 140930Z AUTO VRB02G02KT 110V200 29/25 Q1008=
14-Jul-2023 SAID31 WAOC 141000 METAR WAOC 141000Z AUTO 17005G05KT 120V220 28/25 Q1008=
14-Jul-2023 SAID31 WAOC 141030 METAR WAOC 141030Z AUTO VRB02G02KT 100V170 28/25 Q1009=
14-Jul-2023 SAID31 WAOC 141100 METAR WAOC 141100Z AUTO VRB02G02KT 27/25 Q1009=
14-Jul-2023 SAID31 WAOC 141130 METAR WAOC 141130Z AUTO VRB03G03KT 110V180 27/25 Q1010=
14-Jul-2023 SAID31 WAOC 141200 METAR WAOC 141200Z AUTO VRB02G01KT 130V220 27/25 Q1010=
14-Jul-2023 SAID31 WAOC 141230 METAR WAOC 141230Z AUTO 00000G00KT 200V270 27/25 Q1010=
14-Jul-2023 SAID31 WAOC 141300 METAR WAOC 141300Z AUTO VRB01G01KT 130V250 27/25 Q1011=
14-Jul-2023 SAID31 WAOC 141330 METAR WAOC 141330Z AUTO 00000G01KT 240V040 27/25 Q1011=
14-Jul-2023 SAID31 WAOC 141400 METAR WAOC 141400Z AUTO VRB01G01KT 27/25 Q1011=
14-Jul-2023 SAID31 WAOC 141430 METAR WAOC 141430Z AUTO 00000G00KT 27/25 Q1011=
14-Jul-2023 SAID31 WAOC 141500 METAR WAOC 141500Z AUTO VRB01G01KT 160V240 27/25 Q1011=
14-Jul-2023 SAID31 WAOC 141530 METAR WAOC 141530Z AUTO VRB01G01KT 26/25 Q1011=
14-Jul-2023 SAID31 WAOC 141600 METAR WAOC 141600Z AUTO 00000G00KT 26/25 Q1011=
14-Jul-2023 SAID31 WAOC 141630 METAR WAOC 141630Z AUTO VRB02G02KT 26/25 Q1011=
14-Jul-2023 SAID31 WAOC 141700 METAR WAOC 141700Z AUTO VRB02G02KT 26/25 Q1010=
14-Jul-2023 SAID31 WAOC 141730 METAR WAOC 141730Z AUTO VRB01G01KT 230V300 26/25 Q1010=
14-Jul-2023 SAID31 WAOC 141800 METAR WAOC 141800Z AUTO VRB02G02KT 25/25 Q1010=
14-Jul-2023 SAID31 WAOC 141830 METAR WAOC 141830Z AUTO VRB01G01KT 26/25 Q1009=
14-Jul-2023 SAID31 WAOC 141900 METAR WAOC 141900Z AUTO VRB01G01KT 250V320 26/25 Q1009=
14-Jul-2023 SAID31 WAOC 141930 METAR WAOC 141930Z AUTO VRB01G01KT 170V360 26/25 Q1009=
14-Jul-2023 SAID31 WAOC 142000 METAR WAOC 142000Z AUTO VRB01G01KT 26/25 Q1009=
14-Jul-2023 SAID31 WAOC 142030 METAR WAOC 142030Z AUTO VRB02G02KT 25/25 Q1009=
14-Jul-2023 SAID31 WAOC 142100 METAR WAOC 142100Z AUTO VRB01G01KT 26/25 Q1009=
14-Jul-2023 SAID31 WAOC 142130 METAR WAOC 142130Z AUTO VRB02G02KT 26/25 Q1009=
14-Jul-2023 SAID31 WAOC 142200 METAR WAOC 142200Z AUTO VRB02G01KT 25/24 Q1009=
14-Jul-2023 SAID31 WAOC 142230 METAR WAOC 142230Z AUTO VRB01G02KT 25/24 Q1010=
14-Jul-2023 SAID31 WAOC 142300 METAR WAOC 142300Z AUTO VRB02G02KT 25/25 Q1010=
14-Jul-2023 SAID31 WAOC 142330 METAR WAOC 142330Z AUTO VRB01G01KT 230V300 26/25 Q1010=
15-Jul-2023 SAID31 WAOC 150000 METAR WAOC 150000Z AUTO VRB01G01KT 180V270 27/25 Q1011=
15-Jul-2023 SAID31 WAOC 150030 METAR WAOC 150030Z AUTO VRB01G01KT 160V260 27/25 Q1011=
15-Jul-2023 SAID31 WAOC 150100 METAR WAOC 150100Z AUTO VRB03G03KT 100V200 28/25 Q1011=
15-Jul-2023 SAID31 WAOC 150130 METAR WAOC 150130Z AUTO VRB02G02KT 100V180 29/25 Q1011=
15-Jul-2023 SAID31 WAOC 150200 METAR WAOC 150200Z AUTO VRB03G02KT 110V190 29/25 Q1011=
15-Jul-2023 SAID31 WAOC 150230 METAR WAOC 150230Z AUTO VRB03G03KT 120V200 29/25 Q1011=
15-Jul-2023 SAID31 WAOC 150300 METAR WAOC 150300Z AUTO VRB02G02KT 29/24 Q1011=
15-Jul-2023 SAID31 WAOC 150330 METAR WAOC 150330Z AUTO VRB02G03KT 110V200 30/25 Q1010=
15-Jul-2023 SAID31 WAOC 150400 METAR WAOC 150400Z AUTO 16004G04KT 130V200 30/24 Q1010=
15-Jul-2023 SAID31 WAOC 150430 METAR WAOC 150430Z AUTO VRB02G02KT 100V200 30/24 Q1010=
15-Jul-2023 SAID31 WAOC 150500 METAR WAOC 150500Z AUTO VRB03G03KT 100V230 30/24 Q1009=
15-Jul-2023 SAID31 WAOC 150530 METAR WAOC 150530Z AUTO 17004G04KT 110V210 31/24 Q1009=
15-Jul-2023 SAID31 WAOC 150600 METAR WAOC 150600Z AUTO 13004G04KT 120V190 31/23 Q1008=
15-Jul-2023 SAID31 WAOC 150630 METAR WAOC 150630Z AUTO VRB02G04KT 110V210 31/24 Q1008=
15-Jul-2023 SAID31 WAOC 150700 METAR WAOC 150700Z AUTO 13004G04KT 110V220 31/23 Q1007=
15-Jul-2023 SAID31 WAOC 150730 METAR WAOC 150730Z AUTO 18004G04KT 110V200 31/23 Q1007=
15-Jul-2023 SAID31 WAOC 150800 METAR WAOC 150800Z AUTO VRB02G02KT 080V150 30/24 Q1007=
15-Jul-2023 SAID31 WAOC 150830 METAR WAOC 150830Z AUTO 11005G05KT 30/23 Q1007=
15-Jul-2023 SAID31 WAOC 150900 METAR WAOC 150900Z AUTO VRB03G03KT 30/23 Q1007=
15-Jul-2023 SAID31 WAOC 150930 METAR WAOC 150930Z AUTO VRB02G02KT 100V170 29/24 Q1008=
15-Jul-2023 SAID31 WAOC 151000 METAR WAOC 151000Z AUTO VRB02G02KT 28/23 Q1008=
15-Jul-2023 SAID31 WAOC 151030 METAR WAOC 151030Z AUTO VRB02G02KT 28/24 Q1008=
15-Jul-2023 SAID31 WAOC 151100 METAR WAOC 151100Z AUTO VRB01G01KT 100V180 28/24 Q1009=
15-Jul-2023 SAID31 WAOC 151130 METAR WAOC 151130Z AUTO 00000G00KT 110V230 27/24 Q1010=
15-Jul-2023 SAID31 WAOC 151200 METAR WAOC 151200Z AUTO VRB01G01KT 130V220 27/24 Q1010=
15-Jul-2023 SAID31 WAOC 151230 METAR WAOC 151230Z AUTO VRB01G01KT 120V210 27/24 Q1010=
15-Jul-2023 SAID31 WAOC 151300 METAR WAOC 151300Z AUTO VRB01G01KT 180V270 27/24 Q1011=
15-Jul-2023 SAID31 WAOC 151330 METAR WAOC 151330Z AUTO VRB01G01KT 26/24 Q1011=
15-Jul-2023 SAID31 WAOC 151400 METAR WAOC 151400Z AUTO VRB01G01KT 26/24 Q1011=
15-Jul-2023 SAID31 WAOC 151430 METAR WAOC 151430Z AUTO VRB01G01KT 26/24 Q1011=
15-Jul-2023 SAID31 WAOC 151500 METAR WAOC 151500Z AUTO VRB01G01KT 170V250 26/24 Q1012=
15-Jul-2023 SAID31 WAOC 151530 METAR WAOC 151530Z AUTO VRB02G02KT 25/24 Q1011=
15-Jul-2023 SAID31 WAOC 151600 METAR WAOC 151600Z AUTO VRB02G02KT 25/24 Q1011=
15-Jul-2023 SAID31 WAOC 151700 METAR WAOC 151700Z AUTO VRB02G02KT 230V300 25/24 Q1011=
15-Jul-2023 SAID31 WAOC 151730 METAR WAOC 151730Z AUTO VRB02G02KT 24/23 Q1011=
15-Jul-2023 SAID31 WAOC 151800 METAR WAOC 151800Z AUTO VRB02G02KT 24/24 Q1010=
15-Jul-2023 SAID31 WAOC 151830 METAR WAOC 151830Z AUTO VRB03G03KT 24/23 Q1010=
15-Jul-2023 SAID31 WAOC 151900 METAR WAOC 151900Z AUTO VRB03G03KT 24/23 Q1010=
15-Jul-2023 SAID31 WAOC 151930 METAR WAOC 151930Z AUTO VRB02G02KT 24/23 Q1010=
15-Jul-2023 SAID31 WAOC 152000 METAR WAOC 152000Z AUTO VRB01G01KT 110V300 24/23 Q1010=
15-Jul-2023 SAID31 WAOC 152030 METAR WAOC 152030Z AUTO VRB02G02KT 24/23 Q1010=
15-Jul-2023 SAID31 WAOC 152100 METAR WAOC 152100Z AUTO VRB01G01KT 23/23 Q1010=
15-Jul-2023 SAID31 WAOC 152130 METAR WAOC 152130Z AUTO VRB02G02KT 23/23 Q1010=
15-Jul-2023 SAID31 WAOC 152200 METAR WAOC 152200Z AUTO VRB01G01KT 23/23 Q1010=
15-Jul-2023 SAID31 WAOC 152230 METAR WAOC 152230Z AUTO VRB03G03KT 23/22 Q1010=
15-Jul-2023 SAID31 WAOC 152300 METAR WAOC 152300Z AUTO VRB02G02KT 24/23 Q1011=
15-Jul-2023 SAID31 WAOC 152330 METAR WAOC 152330Z AUTO VRB01G01KT 24/23 Q1011=
16-Jul-2023 SAID31 WAOC 160000 METAR WAOC 160000Z AUTO VRB02G02KT 240V310 25/24 Q1012=
16-Jul-2023 SAID31 WAOC 160030 METAR WAOC 160030Z AUTO VRB02G02KT 26/24 Q1012=
16-Jul-2023 SAID31 WAOC 160100 METAR WAOC 160100Z AUTO VRB02G02KT 180V300 27/24 Q1012=
16-Jul-2023 SAID31 WAOC 160130 METAR WAOC 160130Z AUTO VRB01G01KT 150V240 28/24 Q1012=
16-Jul-2023 SAID31 WAOC 160200 METAR WAOC 160200Z AUTO VRB02G02KT 130V230 29/24 Q1012=
16-Jul-2023 SAID31 WAOC 160230 METAR WAOC 160230Z AUTO VRB03G03KT 110V220 30/24 Q1012=
16-Jul-2023 SAID31 WAOC 160300 METAR WAOC 160300Z AUTO VRB02G02KT 110V240 29/23 Q1012=
16-Jul-2023 SAID31 WAOC 160330 METAR WAOC 160330Z AUTO VRB01G01KT 100V230 30/24 Q1011=
16-Jul-2023 SAID31 WAOC 160400 METAR WAOC 160400Z AUTO VRB03G03KT 140V230 30/23 Q1011=
16-Jul-2023 SAID31 WAOC 160430 METAR WAOC 160430Z AUTO VRB03G03KT 170V240 30/23 Q1011=
16-Jul-2023 SAID31 WAOC 160500 METAR WAOC 160500Z AUTO VRB02G02KT 130V230 30/23 Q1010=
16-Jul-2023 SAID31 WAOC 160530 METAR WAOC 160530Z AUTO VRB03G03KT 140V220 30/23 Q1010=
16-Jul-2023 SAID31 WAOC 160600 METAR WAOC 160600Z AUTO VRB02G02KT 130V220 30/23 Q1009=
16-Jul-2023 SAID31 WAOC 160630 METAR WAOC 160630Z AUTO 17004G04KT 130V220 30/23 Q1008=
16-Jul-2023 SAID31 WAOC 160700 METAR WAOC 160700Z AUTO 18004G04KT 130V210 30/24 Q1008=
16-Jul-2023 SAID31 WAOC 160730 METAR WAOC 160730Z AUTO VRB03G03KT 130V220 30/24 Q1008=
16-Jul-2023 SAID31 WAOC 160800 METAR WAOC 160800Z AUTO VRB02G02KT 140V270 29/24 Q1008=
16-Jul-2023 SAID31 WAOC 160830 METAR WAOC 160830Z AUTO VRB03G04KT 130V220 29/23 Q1008=
16-Jul-2023 SAID31 WAOC 160900 METAR WAOC 160900Z AUTO VRB03G03KT 130V200 29/23 Q1008=
16-Jul-2023 SAID31 WAOC 160930 METAR WAOC 160930Z AUTO VRB03G04KT 100V210 29/23 Q1008=
16-Jul-2023 SAID31 WAOC 161000 METAR WAOC 161000Z AUTO 13004G04KT 28/23 Q1009=
16-Jul-2023 SAID31 WAOC 161030 METAR WAOC 161030Z AUTO VRB02G02KT 120V230 28/23 Q1009=
16-Jul-2023 SAID31 WAOC 161100 METAR WAOC 161100Z AUTO VRB03G05KT 140V260 27/23 Q1009=
16-Jul-2023 SAID31 WAOC 161130 METAR WAOC 161130Z AUTO VRB01G01KT 120V210 27/23 Q1009=
16-Jul-2023 SAID31 WAOC 161200 METAR WAOC 161200Z AUTO VRB02G02KT 130V210 27/23 Q1010=
16-Jul-2023 SAID31 WAOC 161230 METAR WAOC 161230Z AUTO VRB03G03KT 120V190 27/23 Q1010=
16-Jul-2023 SAID31 WAOC 161300 METAR WAOC 161300Z AUTO VRB02G01KT 090V180 27/23 Q1010=
16-Jul-2023 SAID31 WAOC 161330 METAR WAOC 161330Z AUTO 15004G04KT 120V210 27/23 Q1011=
16-Jul-2023 SAID31 WAOC 161400 METAR WAOC 161400Z AUTO VRB02G02KT 110V180 26/23 Q1011=
16-Jul-2023 SAID31 WAOC 161430 METAR WAOC 161430Z AUTO VRB01G02KT 110V190 26/23 Q1011=
16-Jul-2023 SAID31 WAOC 161500 METAR WAOC 161500Z AUTO VRB03G02KT 100V220 26/23 Q1011=
16-Jul-2023 SAID31 WAOC 161530 METAR WAOC 161530Z AUTO VRB01G01KT 130V220 26/23 Q1011=
16-Jul-2023 SAID31 WAOC 161600 METAR WAOC 161600Z AUTO VRB02G02KT 110V210 26/23 Q1011=
16-Jul-2023 SAID31 WAOC 161630 METAR WAOC 161630Z AUTO VRB01G01KT 26/24 Q1011=
16-Jul-2023 SAID31 WAOC 161700 METAR WAOC 161700Z AUTO VRB02G02KT 24/23 Q1011=
16-Jul-2023 SAID31 WAOC 161730 METAR WAOC 161730Z AUTO VRB02G02KT 24/23 Q1011=
16-Jul-2023 SAID31 WAOC 161800 METAR WAOC 161800Z AUTO VRB03G03KT 25/23 Q1010=
16-Jul-2023 SAID31 WAOC 161830 METAR WAOC 161830Z AUTO VRB02G02KT 24/23 Q1010=
16-Jul-2023 SAID31 WAOC 161900 METAR WAOC 161900Z AUTO VRB02G02KT 25/24 Q1010=
16-Jul-2023 SAID31 WAOC 161930 METAR WAOC 161930Z AUTO VRB02G02KT 25/24 Q1010=
16-Jul-2023 SAID31 WAOC 162000 METAR WAOC 162000Z AUTO VRB01G01KT 210V290 25/24 Q1010=
16-Jul-2023 SAID31 WAOC 162030 METAR WAOC 162030Z AUTO VRB02G02KT 25/24 Q1010=
16-Jul-2023 SAID31 WAOC 162100 METAR WAOC 162100Z AUTO VRB01G01KT 25/24 Q1010=
16-Jul-2023 SAID31 WAOC 162130 METAR WAOC 162130Z AUTO VRB02G02KT 24/24 Q1010=
16-Jul-2023 SAID31 WAOC 162200 METAR WAOC 162200Z AUTO VRB02G02KT 220V300 25/24 Q1010=
16-Jul-2023 SAID31 WAOC 162230 METAR WAOC 162230Z AUTO VRB02G01KT 230V310 25/24 Q1010=
16-Jul-2023 SAID31 WAOC 162300 METAR WAOC 162300Z AUTO VRB02G02KT 230V300 25/24 Q1011=
16-Jul-2023 SAID31 WAOC 162330 METAR WAOC 162330Z AUTO VRB03G03KT 28/28 Q1011=
17-Jul-2023 SAID31 WAOC 170000 METAR WAOC 170000Z AUTO VRB02G02KT 27/25 Q1011=
17-Jul-2023 SAID31 WAOC 170030 METAR WAOC 170030Z AUTO VRB02G02KT 230V300 27/25 Q1012=
17-Jul-2023 SAID31 WAOC 170100 METAR WAOC 170100Z AUTO VRB01G01KT 170V310 28/25 Q1012=
17-Jul-2023 SAID31 WAOC 170130 METAR WAOC 170130Z AUTO VRB03G03KT 140V240 29/25 Q1012=
17-Jul-2023 SAID31 WAOC 170200 METAR WAOC 170200Z AUTO VRB01G01KT 110V200 30/24 Q1012=
17-Jul-2023 SAID31 WAOC 170230 METAR WAOC 170230Z AUTO VRB01G01KT 150V220 29/24 Q1012=
17-Jul-2023 SAID31 WAOC 170300 METAR WAOC 170300Z AUTO VRB03G03KT 100V200 30/24 Q1011=
17-Jul-2023 SAID31 WAOC 170330 METAR WAOC 170330Z AUTO 13005G05KT 31/23 Q1011=
17-Jul-2023 SAID31 WAOC 170400 METAR WAOC 170400Z AUTO 12005G05KT 100V180 31/21 Q1011=
17-Jul-2023 SAID31 WAOC 170430 METAR WAOC 170430Z AUTO 13005G05KT 100V170 31/21 Q1010=
17-Jul-2023 SAID31 WAOC 170500 METAR WAOC 170500Z AUTO 14004G04KT 100V170 31/21 Q1010=
17-Jul-2023 SAID31 WAOC 170530 METAR WAOC 170530Z AUTO 15005G04KT 31/21 Q1009=
17-Jul-2023 SAID31 WAOC 170600 METAR WAOC 170600Z AUTO VRB03G03KT 30/21 Q1009=
17-Jul-2023 SAID31 WAOC 170630 METAR WAOC 170630Z AUTO 14005G05KT 30/20 Q1008=
17-Jul-2023 SAID31 WAOC 170700 METAR WAOC 170700Z AUTO VRB03G03KT 30/21 Q1008=
17-Jul-2023 SAID31 WAOC 170730 METAR WAOC 170730Z AUTO 13005G05KT 30/21 Q1007=
17-Jul-2023 SAID31 WAOC 170800 METAR WAOC 170800Z AUTO VRB02G02KT 30/21 Q1007=
17-Jul-2023 SAID31 WAOC 170830 METAR WAOC 170830Z AUTO 14004G04KT 090V160 30/21 Q1008=
17-Jul-2023 SAID31 WAOC 170900 METAR WAOC 170900Z AUTO VRB02G02KT 29/21 Q1008=
17-Jul-2023 SAID31 WAOC 170930 METAR WAOC 170930Z AUTO 12004G04KT 090V180 29/22 Q1008=
17-Jul-2023 SAID31 WAOC 171000 METAR WAOC 171000Z AUTO VRB02G02KT 28/22 Q1008=
17-Jul-2023 SAID31 WAOC 171030 METAR WAOC 171030Z AUTO VRB02G02KT 110V180 37/33 Q1009=
17-Jul-2023 SAID31 WAOC 171100 METAR WAOC 171100Z AUTO VRB02G02KT 32/27 Q1009=
17-Jul-2023 SAID31 WAOC 171130 METAR WAOC 171130Z AUTO VRB01G01KT 110V210 31/26 Q1009=
17-Jul-2023 SAID31 WAOC 171200 METAR WAOC 171200Z AUTO VRB02G03KT 100V200 29/25 Q1010=
17-Jul-2023 SAID31 WAOC 171230 METAR WAOC 171230Z AUTO VRB01G01KT 120V210 36/33 Q1010=
17-Jul-2023 SAID31 WAOC 171300 METAR WAOC 171300Z AUTO VRB01G01KT 120V190 28/24 Q1010=
17-Jul-2023 SAID31 WAOC 171330 METAR WAOC 171330Z AUTO VRB01G01KT 140V220 31/28 Q1010=
17-Jul-2023 SAID31 WAOC 171400 METAR WAOC 171400Z AUTO VRB02G02KT 140V210 31/28 Q1010=
17-Jul-2023 SAID31 WAOC 171430 METAR WAOC 171430Z AUTO VRB01G01KT 29/27 Q1011=
17-Jul-2023 SAID31 WAOC 171500 METAR WAOC 171500Z AUTO VRB01G01KT 180V330 30/28 Q1011=
17-Jul-2023 SAID31 WAOC 171530 METAR WAOC 171530Z AUTO VRB01G01KT 170V290 33/32 Q1011=
17-Jul-2023 SAID31 WAOC 171600 METAR WAOC 171600Z AUTO VRB02G02KT 27/25 Q1011=
17-Jul-2023 SAID31 WAOC 171630 METAR WAOC 171630Z AUTO VRB02G02KT 27/27 Q1011=
17-Jul-2023 SAID31 WAOC 171700 METAR WAOC 171700Z AUTO VRB01G01KT 32/32 Q1011=
17-Jul-2023 SAID31 WAOC 171730 METAR WAOC 171730Z AUTO VRB02G02KT Q1011=
17-Jul-2023 SAID31 WAOC 171800 METAR WAOC 171800Z AUTO VRB02G02KT 29/29 Q1011=
17-Jul-2023 SAID31 WAOC 171830 METAR WAOC 171830Z AUTO VRB03G03KT 28/28 Q1010=
17-Jul-2023 SAID31 WAOC 171900 METAR WAOC 171900Z AUTO VRB02G02KT 27/26 Q1010=
17-Jul-2023 SAID31 WAOC 171930 METAR WAOC 171930Z AUTO VRB02G02KT 29/29 Q1010=
17-Jul-2023 SAID31 WAOC 172000 METAR WAOC 172000Z AUTO VRB02G02KT 28/27 Q1010=
17-Jul-2023 SAID31 WAOC 172030 METAR WAOC 172030Z AUTO VRB03G03KT 28/27 Q1010=
17-Jul-2023 SAID31 WAOC 172100 METAR WAOC 172100Z AUTO VRB02G02KT 28/27 Q1010=
17-Jul-2023 SAID31 WAOC 172130 METAR WAOC 172130Z AUTO VRB02G02KT 28/27 Q1010=
17-Jul-2023 SAID31 WAOC 172200 METAR WAOC 172200Z AUTO VRB02G02KT 180V280 28/27 Q1010=
17-Jul-2023 SAID31 WAOC 172230 METAR WAOC 172230Z AUTO VRB01G01KT 210V290 28/27 Q1010=
17-Jul-2023 SAID31 WAOC 172300 METAR WAOC 172300Z AUTO VRB01G01KT 29/29 Q1010=
17-Jul-2023 SAID31 WAOC 172330 METAR WAOC 172330Z AUTO VRB01G01KT 27/26 Q1011=
18-Jul-2023 SAID31 WAOC 180000 METAR WAOC 180000Z AUTO VRB01G01KT 33/32 Q1011=
18-Jul-2023 SAID31 WAOC 180030 METAR WAOC 180030Z AUTO VRB01G01KT 220V290 29/28 Q1011=
18-Jul-2023 SAID31 WAOC 180100 METAR WAOC 180100Z AUTO VRB02G02KT 29/27 Q1011=
18-Jul-2023 SAID31 WAOC 180130 METAR WAOC 180130Z AUTO VRB02G02KT 220V300 27/24 Q1011=
18-Jul-2023 SAID31 WAOC 180200 METAR WAOC 180200Z AUTO VRB01G01KT 220V330 27/24 Q1011=
18-Jul-2023 SAID31 WAOC 180230 METAR WAOC 180230Z AUTO VRB03G03KT 060V170 28/24 Q1011=
18-Jul-2023 SAID31 WAOC 180300 METAR WAOC 180300Z AUTO VRB03G03KT 110V220 29/24 Q1011=
18-Jul-2023 SAID31 WAOC 180330 METAR WAOC 180330Z AUTO VRB01G01KT 060V220 29/24 Q1010=
18-Jul-2023 SAID31 WAOC 180400 METAR WAOC 180400Z AUTO VRB03G03KT 110V200 30/24 Q1010=
18-Jul-2023 SAID31 WAOC 180430 METAR WAOC 180430Z AUTO VRB03G03KT 31/22 Q1009=
18-Jul-2023 SAID31 WAOC 180500 METAR WAOC 180500Z AUTO VRB03G03KT 090V160 31/22 Q1009=
18-Jul-2023 SAID31 WAOC 180530 METAR WAOC 180530Z AUTO 09004G04KT 090V160 31/21 Q1008=
18-Jul-2023 SAID31 WAOC 180600 METAR WAOC 180600Z AUTO 13004G04KT 080V150 31/22 Q1008=
18-Jul-2023 SAID31 WAOC 180630 METAR WAOC 180630Z AUTO 11005G05KT 31/22 Q1007=
18-Jul-2023 SAID31 WAOC 180700 METAR WAOC 180700Z AUTO 11006G06KT 100V170 31/21 Q1007=
18-Jul-2023 SAID31 WAOC 180730 METAR WAOC 180730Z AUTO VRB03G03KT 31/22 Q1007=
18-Jul-2023 SAID31 WAOC 180800 METAR WAOC 180800Z AUTO 11007G07KT 31/21 Q1007=
18-Jul-2023 SAID31 WAOC 180830 METAR WAOC 180830Z AUTO VRB03G03KT 30/22 Q1007=
18-Jul-2023 SAID31 WAOC 180900 METAR WAOC 180900Z AUTO VRB03G03KT 070V140 30/22 Q1007=
18-Jul-2023 SAID31 WAOC 180930 METAR WAOC 180930Z AUTO VRB03G03KT 090V160 29/22 Q1008=
18-Jul-2023 SAID31 WAOC 181000 METAR WAOC 181000Z AUTO VRB02G02KT 31/25 Q1008=
18-Jul-2023 SAID31 WAOC 181030 METAR WAOC 181030Z AUTO VRB02G02KT 080V160 34/30 Q1009=
18-Jul-2023 SAID31 WAOC 181100 METAR WAOC 181100Z AUTO VRB02G02KT 37/35 Q1009=
18-Jul-2023 SAID31 WAOC 181130 METAR WAOC 181130Z AUTO VRB02G02KT 32/29 Q1009=
18-Jul-2023 SAID31 WAOC 181200 METAR WAOC 181200Z AUTO VRB02G01KT 34/31 Q1009=
18-Jul-2023 SAID31 WAOC 181230 METAR WAOC 181230Z AUTO VRB01G01KT 34/31 Q1010=
18-Jul-2023 SAID31 WAOC 181300 METAR WAOC 181300Z AUTO VRB01G01KT 130V210 34/32 Q1010=
18-Jul-2023 SAID31 WAOC 181330 METAR WAOC 181330Z AUTO VRB01G01KT 110V180 35/33 Q1010=
18-Jul-2023 SAID31 WAOC 181400 METAR WAOC 181400Z AUTO VRB01G01KT 35/32 Q1010=
18-Jul-2023 SAID31 WAOC 181430 METAR WAOC 181430Z AUTO VRB01G01KT 35/32 Q1011=
18-Jul-2023 SAID31 WAOC 181500 METAR WAOC 181500Z AUTO VRB01G01KT 180V300 40/39 Q1011=
18-Jul-2023 SAID31 WAOC 181530 METAR WAOC 181530Z AUTO VRB02G02KT 29/27 Q1011=
18-Jul-2023 SAID31 WAOC 181600 METAR WAOC 181600Z AUTO VRB02G02KT 28/27 Q1011=
18-Jul-2023 SAID31 WAOC 181630 METAR WAOC 181630Z AUTO VRB02G02KT 28/27 Q1011=
18-Jul-2023 SAID31 WAOC 181700 METAR WAOC 181700Z AUTO VRB02G02KT 28/27 Q1010=
18-Jul-2023 SAID31 WAOC 181730 METAR WAOC 181730Z AUTO VRB02G02KT 28/27 Q1010=
18-Jul-2023 SAID31 WAOC 181800 METAR WAOC 181800Z AUTO VRB02G02KT 29/28 Q1010=
18-Jul-2023 SAID31 WAOC 181830 METAR WAOC 181830Z AUTO VRB02G02KT 29/28 Q1010=
18-Jul-2023 SAID31 WAOC 181900 METAR WAOC 181900Z AUTO VRB02G02KT 29/29 Q1010=
18-Jul-2023 SAID31 WAOC 181930 METAR WAOC 181930Z AUTO VRB02G02KT 30/29 Q1009=
18-Jul-2023 SAID31 WAOC 182000 METAR WAOC 182000Z AUTO VRB02G02KT 32/32 Q1009=
18-Jul-2023 SAID31 WAOC 182030 METAR WAOC 182030Z AUTO VRB02G02KT Q1009=
18-Jul-2023 SAID31 WAOC 182100 METAR WAOC 182100Z AUTO VRB02G02KT 30/30 Q1009=
18-Jul-2023 SAID31 WAOC 182130 METAR WAOC 182130Z AUTO VRB01G01KT 220V320 32/32 Q1009=
18-Jul-2023 SAID31 WAOC 182200 METAR WAOC 182200Z AUTO VRB01G01KT Q1009=
18-Jul-2023 SAID31 WAOC 182230 METAR WAOC 182230Z AUTO VRB01G01KT Q1009=
18-Jul-2023 SAID31 WAOC 182330 METAR WAOC 182330Z AUTO VRB02G02KT 31/30 Q1010=
19-Jul-2023 SAID31 WAOC 190000 METAR WAOC 190000Z AUTO VRB01G01KT 31/31 Q1010=
19-Jul-2023 SAID31 WAOC 190030 METAR WAOC 190030Z AUTO VRB01G01KT 250V330 27/25 Q1010=
19-Jul-2023 SAID31 WAOC 190100 METAR WAOC 190100Z AUTO VRB03G03KT 150V230 29/25 Q1010=
19-Jul-2023 SAID31 WAOC 190130 METAR WAOC 190130Z AUTO VRB02G02KT 100V200 29/24 Q1010=
19-Jul-2023 SAID31 WAOC 190200 METAR WAOC 190200Z AUTO VRB03G02KT 090V220 29/24 Q1010=
19-Jul-2023 SAID31 WAOC 190230 METAR WAOC 190230Z AUTO VRB02G02KT 090V190 30/24 Q1010=
19-Jul-2023 SAID31 WAOC 190300 METAR WAOC 190300Z AUTO 15004G04KT 110V210 29/24 Q1010=
19-Jul-2023 SAID31 WAOC 190330 METAR WAOC 190330Z AUTO VRB02G03KT 090V220 29/24 Q1009=
19-Jul-2023 SAID31 WAOC 190400 METAR WAOC 190400Z AUTO VRB02G02KT 090V160 31/24 Q1009=
19-Jul-2023 SAID31 WAOC 190430 METAR WAOC 190430Z AUTO VRB03G03KT 30/24 Q1009=
19-Jul-2023 SAID31 WAOC 190500 METAR WAOC 190500Z AUTO 13004G04KT 090V160 30/23 Q1008=
19-Jul-2023 SAID31 WAOC 190530 METAR WAOC 190530Z AUTO 12004G04KT 30/23 Q1008=
19-Jul-2023 SAID31 WAOC 190600 METAR WAOC 190600Z AUTO VRB03G03KT 080V150 31/23 Q1007=
19-Jul-2023 SAID31 WAOC 190630 METAR WAOC 190630Z AUTO 14005G05KT 31/23 Q1007=
19-Jul-2023 SAID31 WAOC 190700 METAR WAOC 190700Z AUTO 15004G04KT 30/22 Q1007=
19-Jul-2023 SAID31 WAOC 190730 METAR WAOC 190730Z AUTO VRB03G04KT 100V170 30/23 Q1007=
19-Jul-2023 SAID31 WAOC 190800 METAR WAOC 190800Z AUTO 15004G04KT 100V210 29/23 Q1007=
19-Jul-2023 SAID31 WAOC 190830 METAR WAOC 190830Z AUTO 30005G05KT 31/30 Q1007=
19-Jul-2023 SAID31 WAOC 190900 METAR WAOC 190900Z AUTO VRB01G01KT 130V230 31/30 Q1007=
19-Jul-2023 SAID31 WAOC 190930 METAR WAOC 190930Z AUTO VRB02G02KT 130V220 33/32 Q1008=
19-Jul-2023 SAID31 WAOC 191000 METAR WAOC 191000Z AUTO VRB02G02KT 36/34 Q1008=
19-Jul-2023 SAID31 WAOC 191030 METAR WAOC 191030Z AUTO VRB01G01KT 100V170 39/37 Q1008=
19-Jul-2023 SAID31 WAOC 191100 METAR WAOC 191100Z AUTO VRB02G02KT 34/31 Q1008=
19-Jul-2023 SAID31 WAOC 191130 METAR WAOC 191130Z AUTO VRB01G01KT 140V210 34/32 Q1009=
19-Jul-2023 SAID31 WAOC 191200 METAR WAOC 191200Z AUTO VRB01G01KT 170V260 34/31 Q1009=
19-Jul-2023 SAID31 WAOC 191230 METAR WAOC 191230Z AUTO VRB01G01KT 34/32 Q1009=
19-Jul-2023 SAID31 WAOC 191300 METAR WAOC 191300Z AUTO VRB01G01KT 130V200 34/31 Q1010=
19-Jul-2023 SAID31 WAOC 191330 METAR WAOC 191330Z AUTO VRB01G01KT 150V250 33/31 Q1010=
19-Jul-2023 SAID31 WAOC 191400 METAR WAOC 191400Z AUTO VRB01G01KT 35/34 Q1010=
19-Jul-2023 SAID31 WAOC 191430 METAR WAOC 191430Z AUTO VRB01G01KT 28/26 Q1010=
19-Jul-2023 SAID31 WAOC 191500 METAR WAOC 191500Z AUTO VRB01G01KT 28/26 Q1010=
19-Jul-2023 SAID31 WAOC 191530 METAR WAOC 191530Z AUTO VRB01G01KT 28/26 Q1010=
19-Jul-2023 SAID31 WAOC 191600 METAR WAOC 191600Z AUTO VRB02G02KT 27/26 Q1010=
19-Jul-2023 SAID31 WAOC 191630 METAR WAOC 191630Z AUTO VRB02G03KT 27/26 Q1010=
19-Jul-2023 SAID31 WAOC 191700 METAR WAOC 191700Z AUTO VRB02G02KT 26/26 Q1010=
19-Jul-2023 SAID31 WAOC 191730 METAR WAOC 191730Z AUTO VRB01G02KT 26/25 Q1009=
19-Jul-2023 SAID31 WAOC 191800 METAR WAOC 191800Z AUTO VRB01G01KT 230V300 26/25 Q1009=
19-Jul-2023 SAID31 WAOC 191830 METAR WAOC 191830Z AUTO VRB02G02KT 26/25 Q1009=
19-Jul-2023 SAID31 WAOC 191900 METAR WAOC 191900Z AUTO VRB03G03KT 26/25 Q1009=
19-Jul-2023 SAID31 WAOC 191930 METAR WAOC 191930Z AUTO VRB02G02KT 26/25 Q1009=
19-Jul-2023 SAID31 WAOC 192000 METAR WAOC 192000Z AUTO VRB02G02KT 26/25 Q1008=
19-Jul-2023 SAID31 WAOC 192030 METAR WAOC 192030Z AUTO VRB02G02KT 25/25 Q1008=
19-Jul-2023 SAID31 WAOC 192100 METAR WAOC 192100Z AUTO VRB01G01KT 25/25 Q1009=
19-Jul-2023 SAID31 WAOC 192130 METAR WAOC 192130Z AUTO VRB02G02KT 25/25 Q1009=
19-Jul-2023 SAID31 WAOC 192200 METAR WAOC 192200Z AUTO VRB01G01KT 25/25 Q1009=
19-Jul-2023 SAID31 WAOC 192230 METAR WAOC 192230Z AUTO VRB02G02KT 25/25 Q1009=
19-Jul-2023 SAID31 WAOC 192300 METAR WAOC 192300Z AUTO VRB02G02KT 25/25 Q1009=
19-Jul-2023 SAID31 WAOC 192330 METAR WAOC 192330Z AUTO VRB01G01KT 27/26 Q1010=
20-Jul-2023 SAID31 WAOC 200000 METAR WAOC 200000Z AUTO VRB03G02KT 27/25 Q1010=
20-Jul-2023 SAID31 WAOC 200030 METAR WAOC 200030Z AUTO VRB02G02KT 230V310 27/25 Q1010=
20-Jul-2023 SAID31 WAOC 200100 METAR WAOC 200100Z AUTO VRB03G03KT 110V280 28/25 Q1010=
20-Jul-2023 SAID31 WAOC 200130 METAR WAOC 200130Z AUTO VRB02G02KT 130V210 28/24 Q1010=
20-Jul-2023 SAID31 WAOC 200200 METAR WAOC 200200Z AUTO VRB03G03KT 140V230 28/24 Q1010=
20-Jul-2023 SAID31 WAOC 200230 METAR WAOC 200230Z AUTO 15005G05KT 110V210 29/24 Q1010=
20-Jul-2023 SAID31 WAOC 200300 METAR WAOC 200300Z AUTO 12004G04KT 100V170 28/24 Q1010=
20-Jul-2023 SAID31 WAOC 200330 METAR WAOC 200330Z AUTO VRB02G02KT 090V170 27/24 Q1010=
20-Jul-2023 SAID31 WAOC 200400 METAR WAOC 200400Z AUTO VRB02G02KT 090V190 27/24 Q1010=
20-Jul-2023 SAID31 WAOC 200430 METAR WAOC 200430Z AUTO VRB03G03KT 080V200 27/23 Q1010=
20-Jul-2023 SAID31 WAOC 200500 METAR WAOC 200500Z AUTO VRB03G03KT 30/26 Q1009=
20-Jul-2023 SAID31 WAOC 200530 METAR WAOC 200530Z AUTO VRB03G03KT 130V230 29/24 Q1009=
20-Jul-2023 SAID31 WAOC 200600 METAR WAOC 200600Z AUTO 14005G05KT 29/24 Q1008=
20-Jul-2023 SAID31 WAOC 200630 METAR WAOC 200630Z AUTO 12005G05KT 28/24 Q1008=
20-Jul-2023 SAID31 WAOC 200700 METAR WAOC 200700Z AUTO VRB03G03KT 100V190 28/23 Q1007=
20-Jul-2023 SAID31 WAOC 200730 METAR WAOC 200730Z AUTO VRB01G01KT 100V240 29/23 Q1007=
20-Jul-2023 SAID31 WAOC 200800 METAR WAOC 200800Z AUTO 17005G05KT 110V190 29/23 Q1007=
20-Jul-2023 SAID31 WAOC 200830 METAR WAOC 200830Z AUTO VRB03G03KT 110V180 28/23 Q1007=
20-Jul-2023 SAID31 WAOC 200900 METAR WAOC 200900Z AUTO VRB02G02KT 100V180 28/23 Q1008=
20-Jul-2023 SAID31 WAOC 200930 METAR WAOC 200930Z AUTO VRB03G03KT 29/25 Q1008=
20-Jul-2023 SAID31 WAOC 201000 METAR WAOC 201000Z AUTO VRB02G02KT 34/32 Q1008=
20-Jul-2023 SAID31 WAOC 201030 METAR WAOC 201030Z AUTO 14004G04KT 130V220 36/33 Q1008=
20-Jul-2023 SAID31 WAOC 201100 METAR WAOC 201100Z AUTO VRB03G03KT 110V200 33/30 Q1009=
20-Jul-2023 SAID31 WAOC 201130 METAR WAOC 201130Z AUTO VRB01G01KT 110V190 28/25 Q1009=
20-Jul-2023 SAID31 WAOC 201200 METAR WAOC 201200Z AUTO VRB01G01KT 130V230 28/25 Q1010=
20-Jul-2023 SAID31 WAOC 201230 METAR WAOC 201230Z AUTO VRB01G01KT 160V230 28/25 Q1010=
20-Jul-2023 SAID31 WAOC 201300 METAR WAOC 201300Z AUTO VRB01G02KT 110V220 28/25 Q1010=
20-Jul-2023 SAID31 WAOC 201330 METAR WAOC 201330Z AUTO VRB02G02KT 150V230 28/25 Q1011=
20-Jul-2023 SAID31 WAOC 201400 METAR WAOC 201400Z AUTO VRB02G02KT 28/25 Q1011=
20-Jul-2023 SAID31 WAOC 201430 METAR WAOC 201430Z AUTO VRB01G01KT 100V300 28/25 Q1011=
20-Jul-2023 SAID31 WAOC 201500 METAR WAOC 201500Z AUTO VRB01G01KT 28/25 Q1011=
20-Jul-2023 SAID31 WAOC 201530 METAR WAOC 201530Z AUTO VRB01G01KT 150V250 27/24 Q1011=
20-Jul-2023 SAID31 WAOC 201600 METAR WAOC 201600Z AUTO VRB01G01KT 140V210 27/25 Q1011=
20-Jul-2023 SAID31 WAOC 201630 METAR WAOC 201630Z AUTO 00000G00KT 27/25 Q1011=
20-Jul-2023 SAID31 WAOC 201700 METAR WAOC 201700Z AUTO VRB01G01KT 27/25 Q1011=
20-Jul-2023 SAID31 WAOC 201730 METAR WAOC 201730Z AUTO VRB01G01KT 220V290 28/26 Q1011=
20-Jul-2023 SAID31 WAOC 201800 METAR WAOC 201800Z AUTO VRB01G01KT 27/26 Q1011=
20-Jul-2023 SAID31 WAOC 201830 METAR WAOC 201830Z AUTO VRB01G01KT 36/30 Q1010=
20-Jul-2023 SAID31 WAOC 201900 METAR WAOC 201900Z AUTO VRB01G01KT Q1010=
20-Jul-2023 SAID31 WAOC 201930 METAR WAOC 201930Z AUTO VRB01G01KT 200V270 31/31 Q1010=
20-Jul-2023 SAID31 WAOC 202000 METAR WAOC 202000Z AUTO VRB01G01KT 27/25 Q1010=
20-Jul-2023 SAID31 WAOC 202030 METAR WAOC 202030Z AUTO VRB01G01KT 140V220 27/25 Q1010=
20-Jul-2023 SAID31 WAOC 202100 METAR WAOC 202100Z AUTO VRB02G02KT 27/25 Q1010=
20-Jul-2023 SAID31 WAOC 202130 METAR WAOC 202130Z AUTO VRB02G02KT 150V230 27/25 Q1010=
20-Jul-2023 SAID31 WAOC 202200 METAR WAOC 202200Z AUTO VRB01G01KT 150V250 27/25 Q1011=
20-Jul-2023 SAID31 WAOC 202230 METAR WAOC 202230Z AUTO 00000G00KT 110V230 27/25 Q1011=
20-Jul-2023 SAID31 WAOC 202300 METAR WAOC 202300Z AUTO VRB02G02KT 100V220 30/27 Q1011=
20-Jul-2023 SAID31 WAOC 202330 METAR WAOC 202330Z AUTO VRB03G03KT 110V200 28/23 Q1012=
21-Jul-2023 SAID31 WAOC 210000 METAR WAOC 210000Z AUTO VRB01G01KT 120V200 28/23 Q1012=
21-Jul-2023 SAID31 WAOC 210030 METAR WAOC 210030Z AUTO VRB01G01KT 120V220 29/23 Q1012=
21-Jul-2023 SAID31 WAOC 210100 METAR WAOC 210100Z AUTO 14005G05KT 110V200 28/23 Q1013=
21-Jul-2023 SAID31 WAOC 210130 METAR WAOC 210130Z AUTO VRB03G03KT 110V230 29/23 Q1013=
21-Jul-2023 SAID31 WAOC 210200 METAR WAOC 210200Z AUTO 18004G04KT 120V210 29/23 Q1012=
21-Jul-2023 SAID31 WAOC 210230 METAR WAOC 210230Z AUTO VRB02G03KT 120V200 29/23 Q1012=
21-Jul-2023 SAID31 WAOC 210300 METAR WAOC 210300Z AUTO 16004G04KT 110V220 29/23 Q1012=
21-Jul-2023 SAID31 WAOC 210330 METAR WAOC 210330Z AUTO 17004G04KT 130V200 29/23 Q1012=
21-Jul-2023 SAID31 WAOC 210400 METAR WAOC 210400Z AUTO VRB02G01KT 110V220 30/24 Q1011=
21-Jul-2023 SAID31 WAOC 210430 METAR WAOC 210430Z AUTO VRB02G02KT 100V180 29/23 Q1011=
21-Jul-2023 SAID31 WAOC 210500 METAR WAOC 210500Z AUTO 13005G05KT 100V200 29/23 Q1011=
21-Jul-2023 SAID31 WAOC 210530 METAR WAOC 210530Z AUTO VRB01G01KT 120V220 30/23 Q1010=
21-Jul-2023 SAID31 WAOC 210600 METAR WAOC 210600Z AUTO 12004G04KT 29/24 Q1010=
21-Jul-2023 SAID31 WAOC 210630 METAR WAOC 210630Z AUTO VRB03G03KT 29/24 Q1010=
21-Jul-2023 SAID31 WAOC 210700 METAR WAOC 210700Z AUTO 17004G04KT 130V210 29/24 Q1009=
21-Jul-2023 SAID31 WAOC 210730 METAR WAOC 210730Z AUTO 15004G04KT 120V190 29/23 Q1009=
21-Jul-2023 SAID31 WAOC 210800 METAR WAOC 210800Z AUTO VRB03G02KT 29/23 Q1009=
21-Jul-2023 SAID31 WAOC 210830 METAR WAOC 210830Z AUTO 16005G05KT 100V170 29/23 Q1009=
21-Jul-2023 SAID31 WAOC 210900 METAR WAOC 210900Z AUTO VRB03G03KT 100V210 28/23 Q1010=
21-Jul-2023 SAID31 WAOC 210930 METAR WAOC 210930Z AUTO 17005G05KT 120V200 31/26 Q1010=
21-Jul-2023 SAID31 WAOC 211000 METAR WAOC 211000Z AUTO VRB03G03KT 110V190 36/31 Q1010=
21-Jul-2023 SAID31 WAOC 211030 METAR WAOC 211030Z AUTO VRB01G01KT 110V220 31/27 Q1010=
21-Jul-2023 SAID31 WAOC 211100 METAR WAOC 211100Z AUTO VRB02G02KT 120V210 30/26 Q1011=
21-Jul-2023 SAID31 WAOC 211130 METAR WAOC 211130Z AUTO VRB01G01KT 100V230 29/26 Q1011=
21-Jul-2023 SAID31 WAOC 211200 METAR WAOC 211200Z AUTO 00000G00KT 120V250 29/26 Q1012=
21-Jul-2023 SAID31 WAOC 211230 METAR WAOC 211230Z AUTO VRB01G01KT 160V230 28/25 Q1012=
21-Jul-2023 SAID31 WAOC 211300 METAR WAOC 211300Z AUTO VRB01G01KT 170V250 28/26 Q1013=
21-Jul-2023 SAID31 WAOC 211330 METAR WAOC 211330Z AUTO VRB01G01KT 200V270 27/25 Q1013=
21-Jul-2023 SAID31 WAOC 211400 METAR WAOC 211400Z AUTO VRB01G01KT 27/25 Q1013=
21-Jul-2023 SAID31 WAOC 211430 METAR WAOC 211430Z AUTO VRB01G01KT 180V280 27/25 Q1013=
21-Jul-2023 SAID31 WAOC 211500 METAR WAOC 211500Z AUTO VRB01G01KT 27/25 Q1013=
21-Jul-2023 SAID31 WAOC 211530 METAR WAOC 211530Z AUTO VRB01G01KT 27/25 Q1013=
21-Jul-2023 SAID31 WAOC 211600 METAR WAOC 211600Z AUTO VRB01G01KT 28/26 Q1013=
21-Jul-2023 SAID31 WAOC 211630 METAR WAOC 211630Z AUTO VRB01G01KT 27/27 Q1013=
21-Jul-2023 SAID31 WAOC 211700 METAR WAOC 211700Z AUTO VRB01G01KT 29/27 Q1013=
21-Jul-2023 SAID31 WAOC 211730 METAR WAOC 211730Z AUTO VRB01G01KT 29/28 Q1013=
21-Jul-2023 SAID31 WAOC 211800 METAR WAOC 211800Z AUTO VRB02G02KT 29/28 Q1012=
21-Jul-2023 SAID31 WAOC 211830 METAR WAOC 211830Z AUTO VRB01G01KT 210V320 Q1012=
21-Jul-2023 SAID31 WAOC 211900 METAR WAOC 211900Z AUTO VRB02G02KT 28/27 Q1012=
21-Jul-2023 SAID31 WAOC 211930 METAR WAOC 211930Z AUTO VRB02G02KT 28/28 Q1012=
21-Jul-2023 SAID31 WAOC 212000 METAR WAOC 212000Z AUTO VRB01G01KT 28/27 Q1012=
21-Jul-2023 SAID31 WAOC 212030 METAR WAOC 212030Z AUTO VRB01G01KT 27/27 Q1012=
21-Jul-2023 SAID31 WAOC 212100 METAR WAOC 212100Z AUTO VRB01G01KT 27/26 Q1012=
21-Jul-2023 SAID31 WAOC 212130 METAR WAOC 212130Z AUTO VRB01G01KT 30/30 Q1012=
21-Jul-2023 SAID31 WAOC 212200 METAR WAOC 212200Z AUTO VRB02G02KT 27/27 Q1012=
21-Jul-2023 SAID31 WAOC 212230 METAR WAOC 212230Z AUTO VRB02G02KT 28/28 Q1012=
21-Jul-2023 SAID31 WAOC 212300 METAR WAOC 212300Z AUTO VRB01G02KT Q1012=
21-Jul-2023 SAID31 WAOC 212330 METAR WAOC 212330Z AUTO VRB01G01KT 150V000 26/25 Q1013=
22-Jul-2023 SAID31 WAOC 220000 METAR WAOC 220000Z AUTO VRB02G02KT 31/31 Q1013=
22-Jul-2023 SAID31 WAOC 220030 METAR WAOC 220030Z AUTO VRB01G01KT 26/24 Q1013=
22-Jul-2023 SAID31 WAOC 220100 METAR WAOC 220100Z AUTO VRB01G01KT 360V210 28/24 Q1013=
22-Jul-2023 SAID31 WAOC 220130 METAR WAOC 220130Z AUTO VRB02G02KT 110V220 28/23 Q1013=
22-Jul-2023 SAID31 WAOC 220200 METAR WAOC 220200Z AUTO VRB02G02KT 120V210 29/23 Q1013=
22-Jul-2023 SAID31 WAOC 220230 METAR WAOC 220230Z AUTO VRB02G02KT 120V200 29/22 Q1013=
22-Jul-2023 SAID31 WAOC 220300 METAR WAOC 220300Z AUTO VRB02G02KT 100V230 30/23 Q1013=
22-Jul-2023 SAID31 WAOC 220330 METAR WAOC 220330Z AUTO VRB03G03KT 29/22 Q1013=
22-Jul-2023 SAID31 WAOC 220400 METAR WAOC 220400Z AUTO VRB03G03KT 29/22 Q1012=
22-Jul-2023 SAID31 WAOC 220430 METAR WAOC 220430Z AUTO 18005G05KT 110V220 30/23 Q1012=
22-Jul-2023 SAID31 WAOC 220500 METAR WAOC 220500Z AUTO VRB03G03KT 100V210 31/22 Q1011=
22-Jul-2023 SAID31 WAOC 220530 METAR WAOC 220530Z AUTO VRB03G03KT 130V200 30/22 Q1010=
22-Jul-2023 SAID31 WAOC 220600 METAR WAOC 220600Z AUTO VRB03G03KT 31/22 Q1010=
22-Jul-2023 SAID31 WAOC 220630 METAR WAOC 220630Z AUTO 12005G05KT 30/21 Q1010=
22-Jul-2023 SAID31 WAOC 220700 METAR WAOC 220700Z AUTO 13004G04KT 31/21 Q1009=
22-Jul-2023 SAID31 WAOC 220730 METAR WAOC 220730Z AUTO VRB02G02KT 30/21 Q1009=
22-Jul-2023 SAID31 WAOC 220800 METAR WAOC 220800Z AUTO 13004G04KT 30/22 Q1009=
22-Jul-2023 SAID31 WAOC 220830 METAR WAOC 220830Z AUTO 13004G04KT 29/22 Q1009=
22-Jul-2023 SAID31 WAOC 220900 METAR WAOC 220900Z AUTO 13004G04KT 080V180 29/22 Q1010=
22-Jul-2023 SAID31 WAOC 220930 METAR WAOC 220930Z AUTO VRB02G01KT 110V190 29/22 Q1010=
22-Jul-2023 SAID31 WAOC 221000 METAR WAOC 221000Z AUTO VRB02G03KT 31/26 Q1010=
22-Jul-2023 SAID31 WAOC 221030 METAR WAOC 221030Z AUTO VRB01G01KT 30/24 Q1010=
22-Jul-2023 SAID31 WAOC 221100 METAR WAOC 221100Z AUTO VRB03G03KT 110V190 29/24 Q1011=
22-Jul-2023 SAID31 WAOC 221130 METAR WAOC 221130Z AUTO VRB01G01KT 110V180 29/25 Q1011=
22-Jul-2023 SAID31 WAOC 221200 METAR WAOC 221200Z AUTO VRB01G01KT 100V170 30/25 Q1012=
22-Jul-2023 SAID31 WAOC 221230 METAR WAOC 221230Z AUTO VRB01G01KT 120V210 30/26 Q1012=
22-Jul-2023 SAID31 WAOC 221300 METAR WAOC 221300Z AUTO VRB01G01KT 180V270 30/27 Q1012=
22-Jul-2023 SAID31 WAOC 221330 METAR WAOC 221330Z AUTO VRB02G02KT 29/28 Q1012=
22-Jul-2023 SAID31 WAOC 221400 METAR WAOC 221400Z AUTO VRB02G02KT 29/27 Q1013=
22-Jul-2023 SAID31 WAOC 221430 METAR WAOC 221430Z AUTO VRB02G02KT 29/28 Q1013=
22-Jul-2023 SAID31 WAOC 221500 METAR WAOC 221500Z AUTO VRB02G02KT 30/29 Q1013=
22-Jul-2023 SAID31 WAOC 221530 METAR WAOC 221530Z AUTO VRB02G02KT 32/32 Q1013=
22-Jul-2023 SAID31 WAOC 221600 METAR WAOC 221600Z AUTO VRB01G01KT 32/32 Q1013=
22-Jul-2023 SAID31 WAOC 221630 METAR WAOC 221630Z AUTO VRB01G01KT Q1013=
22-Jul-2023 SAID31 WAOC 221700 METAR WAOC 221700Z AUTO VRB02G02KT 29/28 Q1013=
22-Jul-2023 SAID31 WAOC 221730 METAR WAOC 221730Z AUTO VRB02G02KT 28/29 Q1012=
22-Jul-2023 SAID31 WAOC 221800 METAR WAOC 221800Z AUTO VRB02G02KT 30/30 Q1012=
22-Jul-2023 SAID31 WAOC 221830 METAR WAOC 221830Z AUTO VRB02G02KT 30/31 Q1012=
22-Jul-2023 SAID31 WAOC 221900 METAR WAOC 221900Z AUTO VRB02G02KT 27/26 Q1012=
22-Jul-2023 SAID31 WAOC 221930 METAR WAOC 221930Z AUTO VRB02G02KT 27/27 Q1012=
22-Jul-2023 SAID31 WAOC 222000 METAR WAOC 222000Z AUTO VRB02G03KT 27/27 Q1012=
22-Jul-2023 SAID31 WAOC 222030 METAR WAOC 222030Z AUTO VRB01G01KT Q1012=
22-Jul-2023 SAID31 WAOC 222100 METAR WAOC 222100Z AUTO VRB01G01KT 32/32 Q1013=
22-Jul-2023 SAID31 WAOC 222130 METAR WAOC 222130Z AUTO VRB02G02KT 31/31 Q1013=
22-Jul-2023 SAID31 WAOC 222200 METAR WAOC 222200Z AUTO VRB02G02KT Q1013=
22-Jul-2023 SAID31 WAOC 222300 METAR WAOC 222300Z AUTO VRB01G01KT 32/27 Q1013=
22-Jul-2023 SAID31 WAOC 222330 METAR WAOC 222330Z AUTO VRB01G01KT 170V290 36/36 Q1013=
23-Jul-2023 SAID31 WAOC 230000 METAR WAOC 230000Z AUTO VRB01G01KT 130V290 27/24 Q1013=
23-Jul-2023 SAID31 WAOC 230030 METAR WAOC 230030Z AUTO VRB01G01KT 210V280 27/24 Q1014=
23-Jul-2023 SAID31 WAOC 230100 METAR WAOC 230100Z AUTO VRB03G03KT 150V230 28/24 Q1014=
23-Jul-2023 SAID31 WAOC 230130 METAR WAOC 230130Z AUTO VRB03G03KT 140V230 29/24 Q1014=
23-Jul-2023 SAID31 WAOC 230200 METAR WAOC 230200Z AUTO 17004G04KT 110V230 29/24 Q1014=
23-Jul-2023 SAID31 WAOC 230230 METAR WAOC 230230Z AUTO VRB02G02KT 120V230 30/23 Q1013=
23-Jul-2023 SAID31 WAOC 230300 METAR WAOC 230300Z AUTO 16004G04KT 120V210 30/23 Q1013=
23-Jul-2023 SAID31 WAOC 230330 METAR WAOC 230330Z AUTO 18005G03KT 110V200 31/24 Q1012=
23-Jul-2023 SAID31 WAOC 230400 METAR WAOC 230400Z AUTO VRB01G02KT 120V230 31/24 Q1012=
23-Jul-2023 SAID31 WAOC 230430 METAR WAOC 230430Z AUTO VRB03G03KT 100V220 30/22 Q1011=
23-Jul-2023 SAID31 WAOC 230500 METAR WAOC 230500Z AUTO VRB01G01KT 110V220 30/23 Q1011=
23-Jul-2023 SAID31 WAOC 230530 METAR WAOC 230530Z AUTO 11004G04KT 070V150 30/23 Q1010=
23-Jul-2023 SAID31 WAOC 230600 METAR WAOC 230600Z AUTO VRB03G03KT 110V210 30/21 Q1010=
23-Jul-2023 SAID31 WAOC 230630 METAR WAOC 230630Z AUTO 19004G03KT 110V200 30/22 Q1009=
23-Jul-2023 SAID31 WAOC 230700 METAR WAOC 230700Z AUTO 14004G04KT 130V200 29/22 Q1009=
23-Jul-2023 SAID31 WAOC 230730 METAR WAOC 230730Z AUTO 16006G05KT 120V190 29/22 Q1009=
23-Jul-2023 SAID31 WAOC 230800 METAR WAOC 230800Z AUTO 16004G04KT 30/22 Q1009=
23-Jul-2023 SAID31 WAOC 230830 METAR WAOC 230830Z AUTO 15004G04KT 30/22 Q1009=
23-Jul-2023 SAID31 WAOC 230900 METAR WAOC 230900Z AUTO VRB03G01KT 130V210 29/23 Q1009=
23-Jul-2023 SAID31 WAOC 230930 METAR WAOC 230930Z AUTO 13004G04KT 110V180 29/23 Q1009=
23-Jul-2023 SAID31 WAOC 231000 METAR WAOC 231000Z AUTO 14004G04KT 120V190 28/22 Q1009=
23-Jul-2023 SAID31 WAOC 231030 METAR WAOC 231030Z AUTO VRB02G02KT 28/23 Q1009=
23-Jul-2023 SAID31 WAOC 231100 METAR WAOC 231100Z AUTO VRB03G02KT 110V180 27/23 Q1009=
23-Jul-2023 SAID31 WAOC 231130 METAR WAOC 231130Z AUTO VRB03G03KT 27/23 Q1010=
23-Jul-2023 SAID31 WAOC 231200 METAR WAOC 231200Z AUTO VRB02G01KT 090V230 27/23 Q1010=
23-Jul-2023 SAID31 WAOC 231230 METAR WAOC 231230Z AUTO VRB01G01KT 27/23 Q1011=
23-Jul-2023 SAID31 WAOC 231300 METAR WAOC 231300Z AUTO VRB01G01KT 180V250 27/23 Q1011=
23-Jul-2023 SAID31 WAOC 231330 METAR WAOC 231330Z AUTO VRB02G01KT 150V240 26/23 Q1011=
23-Jul-2023 SAID31 WAOC 231400 METAR WAOC 231400Z AUTO VRB01G00KT 150V250 26/23 Q1011=
23-Jul-2023 SAID31 WAOC 231430 METAR WAOC 231430Z AUTO VRB01G01KT 26/23 Q1011=
23-Jul-2023 SAID31 WAOC 231500 METAR WAOC 231500Z AUTO VRB01G01KT 090V260 26/23 Q1011=
23-Jul-2023 SAID31 WAOC 231530 METAR WAOC 231530Z AUTO VRB01G01KT 110V180 26/23 Q1011=
23-Jul-2023 SAID31 WAOC 231600 METAR WAOC 231600Z AUTO VRB02G02KT 26/23 Q1012=
23-Jul-2023 SAID31 WAOC 231630 METAR WAOC 231630Z AUTO VRB02G02KT 110V180 26/23 Q1011=
23-Jul-2023 SAID31 WAOC 231700 METAR WAOC 231700Z AUTO VRB03G03KT 26/23 Q1011=
23-Jul-2023 SAID31 WAOC 231730 METAR WAOC 231730Z AUTO VRB02G02KT 26/23 Q1011=
23-Jul-2023 SAID31 WAOC 231800 METAR WAOC 231800Z AUTO VRB01G01KT 110V200 26/23 Q1010=
23-Jul-2023 SAID31 WAOC 231830 METAR WAOC 231830Z AUTO VRB02G02KT 24/23 Q1011=
23-Jul-2023 SAID31 WAOC 231900 METAR WAOC 231900Z AUTO VRB02G02KT 24/23 Q1011=
23-Jul-2023 SAID31 WAOC 231930 METAR WAOC 231930Z AUTO VRB02G02KT 24/23 Q1010=
23-Jul-2023 SAID31 WAOC 232000 METAR WAOC 232000Z AUTO VRB01G01KT 24/23 Q1011=
23-Jul-2023 SAID31 WAOC 232030 METAR WAOC 232030Z AUTO VRB02G02KT 24/23 Q1011=
23-Jul-2023 SAID31 WAOC 232100 METAR WAOC 232100Z AUTO VRB01G01KT 220V290 24/23 Q1011=
23-Jul-2023 SAID31 WAOC 232130 METAR WAOC 232130Z AUTO VRB02G02KT 24/23 Q1011=
23-Jul-2023 SAID31 WAOC 232230 METAR WAOC 232230Z AUTO VRB01G01KT 24/23 Q1011=
23-Jul-2023 SAID31 WAOC 232300 METAR WAOC 232300Z AUTO VRB01G01KT 25/24 Q1012=
23-Jul-2023 SAID31 WAOC 232330 METAR WAOC 232330Z AUTO VRB02G02KT 31/30 Q1012=
24-Jul-2023 SAID31 WAOC 240000 METAR WAOC 240000Z AUTO VRB02G02KT 230V310 29/27 Q1012=
24-Jul-2023 SAID31 WAOC 240030 METAR WAOC 240030Z AUTO VRB01G01KT 160V240 28/24 Q1012=
24-Jul-2023 SAID31 WAOC 240100 METAR WAOC 240100Z AUTO VRB02G02KT 150V220 28/24 Q1012=
24-Jul-2023 SAID31 WAOC 240130 METAR WAOC 240130Z AUTO VRB02G02KT 100V190 29/23 Q1012=
24-Jul-2023 SAID31 WAOC 240200 METAR WAOC 240200Z AUTO VRB03G03KT 130V230 29/23 Q1012=
24-Jul-2023 SAID31 WAOC 240230 METAR WAOC 240230Z AUTO VRB01G01KT 100V230 29/23 Q1012=
24-Jul-2023 SAID31 WAOC 240300 METAR WAOC 240300Z AUTO 12004G04KT 30/23 Q1011=
24-Jul-2023 SAID31 WAOC 240330 METAR WAOC 240330Z AUTO 15004G04KT 120V210 30/22 Q1011=
24-Jul-2023 SAID31 WAOC 240400 METAR WAOC 240400Z AUTO VRB01G01KT 100V250 30/23 Q1011=
24-Jul-2023 SAID31 WAOC 240430 METAR WAOC 240430Z AUTO 16004G04KT 130V220 31/22 Q1010=
24-Jul-2023 SAID31 WAOC 240500 METAR WAOC 240500Z AUTO VRB03G03KT 100V200 31/22 Q1010=
24-Jul-2023 SAID31 WAOC 240530 METAR WAOC 240530Z AUTO 17004G04KT 130V220 31/22 Q1009=
24-Jul-2023 SAID31 WAOC 240600 METAR WAOC 240600Z AUTO VRB02G02KT 130V230 31/23 Q1009=
24-Jul-2023 SAID31 WAOC 240630 METAR WAOC 240630Z AUTO 15004G04KT 110V180 30/22 Q1008=
24-Jul-2023 SAID31 WAOC 240700 METAR WAOC 240700Z AUTO VRB03G03KT 130V200 30/22 Q1008=
24-Jul-2023 SAID31 WAOC 240730 METAR WAOC 240730Z AUTO 14004G04KT 120V250 30/22 Q1008=
24-Jul-2023 SAID31 WAOC 240800 METAR WAOC 240800Z AUTO 15005G05KT 120V190 29/22 Q1008=
24-Jul-2023 SAID31 WAOC 240830 METAR WAOC 240830Z AUTO 16004G04KT 130V200 29/22 Q1008=
24-Jul-2023 SAID31 WAOC 240900 METAR WAOC 240900Z AUTO 16005G05KT 110V190 30/22 Q1008=
24-Jul-2023 SAID31 WAOC 240930 METAR WAOC 240930Z AUTO VRB03G03KT 29/22 Q1009=
24-Jul-2023 SAID31 WAOC 241000 METAR WAOC 241000Z AUTO 15005G05KT 110V200 28/22 Q1009=
24-Jul-2023 SAID31 WAOC 241030 METAR WAOC 241030Z AUTO 15004G05KT 120V220 28/23 Q1009=
24-Jul-2023 SAID31 WAOC 241100 METAR WAOC 241100Z AUTO VRB02G03KT 110V200 28/23 Q1010=
24-Jul-2023 SAID31 WAOC 241130 METAR WAOC 241130Z AUTO VRB02G02KT 110V210 27/23 Q1010=
24-Jul-2023 SAID31 WAOC 241200 METAR WAOC 241200Z AUTO VRB03G02KT 120V210 27/23 Q1010=
24-Jul-2023 SAID31 WAOC 241230 METAR WAOC 241230Z AUTO VRB01G01KT 130V210 27/23 Q1011=
24-Jul-2023 SAID31 WAOC 241300 METAR WAOC 241300Z AUTO VRB01G01KT 26/23 Q1011=
24-Jul-2023 SAID31 WAOC 241330 METAR WAOC 241330Z AUTO VRB02G02KT 26/23 Q1012=
24-Jul-2023 SAID31 WAOC 241400 METAR WAOC 241400Z AUTO VRB02G02KT 25/23 Q1012=
24-Jul-2023 SAID31 WAOC 241430 METAR WAOC 241430Z AUTO VRB01G01KT 25/23 Q1012=
24-Jul-2023 SAID31 WAOC 241500 METAR WAOC 241500Z AUTO VRB02G02KT 25/23 Q1012=
24-Jul-2023 SAID31 WAOC 241530 METAR WAOC 241530Z AUTO VRB01G01KT 25/23 Q1012=
24-Jul-2023 SAID31 WAOC 241600 METAR WAOC 241600Z AUTO VRB01G01KT 24/23 Q1012=
24-Jul-2023 SAID31 WAOC 241630 METAR WAOC 241630Z AUTO VRB01G01KT 240V330 24/23 Q1012=
24-Jul-2023 SAID31 WAOC 241700 METAR WAOC 241700Z AUTO VRB02G02KT 24/23 Q1012=
24-Jul-2023 SAID31 WAOC 241730 METAR WAOC 241730Z AUTO VRB01G01KT 24/23 Q1012=
24-Jul-2023 SAID31 WAOC 241800 METAR WAOC 241800Z AUTO VRB02G02KT 24/23 Q1012=
24-Jul-2023 SAID31 WAOC 241830 METAR WAOC 241830Z AUTO VRB02G02KT 24/23 Q1012=
24-Jul-2023 SAID31 WAOC 241900 METAR WAOC 241900Z AUTO VRB01G01KT 24/23 Q1011=
24-Jul-2023 SAID31 WAOC 242030 METAR WAOC 242030Z AUTO VRB02G02KT 24/23 Q1012=
24-Jul-2023 SAID31 WAOC 242100 METAR WAOC 242100Z AUTO VRB02G02KT 24/23 Q1012=
24-Jul-2023 SAID31 WAOC 242130 METAR WAOC 242130Z AUTO VRB01G01KT 24/23 Q1012=
24-Jul-2023 SAID31 WAOC 242200 METAR WAOC 242200Z AUTO VRB01G01KT 23/22 Q1012=
24-Jul-2023 SAID31 WAOC 242230 METAR WAOC 242230Z AUTO VRB02G02KT 23/22 Q1012=
24-Jul-2023 SAID31 WAOC 242300 METAR WAOC 242300Z AUTO VRB02G02KT 25/24 Q1012=
24-Jul-2023 SAID31 WAOC 242330 METAR WAOC 242330Z AUTO VRB03G03KT 25/23 Q1013=
25-Jul-2023 SAID31 WAOC 250000 METAR WAOC 250000Z AUTO VRB03G03KT 26/24 Q1013=
25-Jul-2023 SAID31 WAOC 250030 METAR WAOC 250030Z AUTO VRB02G02KT 27/24 Q1013=
25-Jul-2023 SAID31 WAOC 250100 METAR WAOC 250100Z AUTO VRB02G02KT 120V260 30/27 Q1013=
25-Jul-2023 SAID31 WAOC 250130 METAR WAOC 250130Z AUTO VRB03G03KT 120V210 30/25 Q1013=
25-Jul-2023 SAID31 WAOC 250200 METAR WAOC 250200Z AUTO VRB01G01KT 110V220 29/24 Q1013=
25-Jul-2023 SAID31 WAOC 250230 METAR WAOC 250230Z AUTO VRB02G02KT 090V210 29/23 Q1013=
25-Jul-2023 SAID31 WAOC 250300 METAR WAOC 250300Z AUTO VRB01G01KT 130V250 29/22 Q1012=
25-Jul-2023 SAID31 WAOC 250330 METAR WAOC 250330Z AUTO 13004G04KT 100V170 30/22 Q1012=
25-Jul-2023 SAID31 WAOC 250400 METAR WAOC 250400Z AUTO VRB03G03KT 090V260 31/22 Q1012=
25-Jul-2023 SAID31 WAOC 250430 METAR WAOC 250430Z AUTO VRB01G02KT 120V210 31/21 Q1011=
25-Jul-2023 SAID31 WAOC 250500 METAR WAOC 250500Z AUTO VRB02G02KT 110V240 31/22 Q1011=
25-Jul-2023 SAID31 WAOC 250530 METAR WAOC 250530Z AUTO VRB03G03KT 100V170 31/20 Q1010=
25-Jul-2023 SAID31 WAOC 250600 METAR WAOC 250600Z AUTO 15004G04KT 110V200 30/20 Q1010=
25-Jul-2023 SAID31 WAOC 250630 METAR WAOC 250630Z AUTO 17004G04KT 100V190 31/20 Q1009=
25-Jul-2023 SAID31 WAOC 250700 METAR WAOC 250700Z AUTO VRB02G02KT 090V170 30/21 Q1009=
25-Jul-2023 SAID31 WAOC 250730 METAR WAOC 250730Z AUTO VRB03G02KT 120V190 30/21 Q1009=
25-Jul-2023 SAID31 WAOC 250800 METAR WAOC 250800Z AUTO 10005G05KT 30/21 Q1009=
25-Jul-2023 SAID31 WAOC 250830 METAR WAOC 250830Z AUTO 12005G05KT 31/22 Q1009=
25-Jul-2023 SAID31 WAOC 250900 METAR WAOC 250900Z AUTO 11005G05KT 31/24 Q1009=
25-Jul-2023 SAID31 WAOC 250930 METAR WAOC 250930Z AUTO VRB02G02KT 31/23 Q1009=
25-Jul-2023 SAID31 WAOC 251000 METAR WAOC 251000Z AUTO VRB03G03KT 110V190 36/30 Q1010=
25-Jul-2023 SAID31 WAOC 251030 METAR WAOC 251030Z AUTO VRB03G03KT 36/31 Q1010=
25-Jul-2023 SAID31 WAOC 251100 METAR WAOC 251100Z AUTO VRB01G02KT 110V180 28/22 Q1010=
25-Jul-2023 SAID31 WAOC 251130 METAR WAOC 251130Z AUTO VRB02G02KT 100V170 27/22 Q1011=
25-Jul-2023 SAID31 WAOC 251200 METAR WAOC 251200Z AUTO VRB01G01KT 26/22 Q1011=
25-Jul-2023 SAID31 WAOC 251230 METAR WAOC 251230Z AUTO VRB02G02KT 110V180 26/23 Q1011=
25-Jul-2023 SAID31 WAOC 251300 METAR WAOC 251300Z AUTO VRB01G01KT 120V190 26/23 Q1011=
25-Jul-2023 SAID31 WAOC 251330 METAR WAOC 251330Z AUTO VRB01G01KT 26/23 Q1012=
25-Jul-2023 SAID31 WAOC 251400 METAR WAOC 251400Z AUTO VRB02G02KT 25/23 Q1012=
25-Jul-2023 SAID31 WAOC 251430 METAR WAOC 251430Z AUTO VRB02G02KT 30/29 Q1012=
25-Jul-2023 SAID31 WAOC 251500 METAR WAOC 251500Z AUTO VRB02G02KT 27/26 Q1012=
25-Jul-2023 SAID31 WAOC 251530 METAR WAOC 251530Z AUTO VRB02G02KT 28/28 Q1012=
25-Jul-2023 SAID31 WAOC 251600 METAR WAOC 251600Z AUTO VRB02G02KT 28/27 Q1012=
25-Jul-2023 SAID31 WAOC 251630 METAR WAOC 251630Z AUTO VRB02G02KT 26/25 Q1012=
25-Jul-2023 SAID31 WAOC 251700 METAR WAOC 251700Z AUTO VRB02G02KT 25/24 Q1012=
25-Jul-2023 SAID31 WAOC 251730 METAR WAOC 251730Z AUTO VRB02G02KT 210V310 25/24 Q1012=
25-Jul-2023 SAID31 WAOC 251830 METAR WAOC 251830Z AUTO VRB02G02KT 25/25 Q1012=
25-Jul-2023 SAID31 WAOC 251900 METAR WAOC 251900Z AUTO VRB02G02KT 25/25 Q1011=
25-Jul-2023 SAID31 WAOC 251930 METAR WAOC 251930Z AUTO VRB02G02KT 25/24 Q1011=
25-Jul-2023 SAID31 WAOC 252000 METAR WAOC 252000Z AUTO VRB02G02KT 25/24 Q1011=
25-Jul-2023 SAID31 WAOC 252030 METAR WAOC 252030Z AUTO VRB02G02KT 24/24 Q1012=
25-Jul-2023 SAID31 WAOC 252100 METAR WAOC 252100Z AUTO VRB01G01KT 24/23 Q1012=
25-Jul-2023 SAID31 WAOC 252130 METAR WAOC 252130Z AUTO VRB02G02KT 24/23 Q1012=
25-Jul-2023 SAID31 WAOC 252200 METAR WAOC 252200Z AUTO VRB02G02KT 220V300 24/23 Q1012=
25-Jul-2023 SAID31 WAOC 252230 METAR WAOC 252230Z AUTO VRB02G02KT 25/24 Q1012=
25-Jul-2023 SAID31 WAOC 252300 METAR WAOC 252300Z AUTO VRB03G03KT 30/24 Q1013=
25-Jul-2023 SAID31 WAOC 252330 METAR WAOC 252330Z AUTO VRB02G02KT 31/31 Q1013=
26-Jul-2023 SAID31 WAOC 260000 METAR WAOC 260000Z AUTO VRB03G03KT 28/27 Q1013=
26-Jul-2023 SAID31 WAOC 260030 METAR WAOC 260030Z AUTO VRB03G03KT 29/26 Q1013=
26-Jul-2023 SAID31 WAOC 260100 METAR WAOC 260100Z AUTO VRB03G02KT 130V340 28/24 Q1013=
26-Jul-2023 SAID31 WAOC 260130 METAR WAOC 260130Z AUTO 15005G05KT 100V240 29/24 Q1013=
26-Jul-2023 SAID31 WAOC 260200 METAR WAOC 260200Z AUTO 15004G04KT 110V220 29/23 Q1013=
26-Jul-2023 SAID31 WAOC 260230 METAR WAOC 260230Z AUTO VRB02G02KT 120V240 30/23 Q1013=
26-Jul-2023 SAID31 WAOC 260300 METAR WAOC 260300Z AUTO VRB03G03KT 110V190 30/22 Q1012=
26-Jul-2023 SAID31 WAOC 260330 METAR WAOC 260330Z AUTO VRB02G02KT 100V230 30/22 Q1012=
26-Jul-2023 SAID31 WAOC 260400 METAR WAOC 260400Z AUTO 18004G04KT 120V240 31/21 Q1012=
26-Jul-2023 SAID31 WAOC 260430 METAR WAOC 260430Z AUTO 19004G04KT 130V230 31/21 Q1011=
26-Jul-2023 SAID31 WAOC 260500 METAR WAOC 260500Z AUTO 17005G04KT 140V240 31/20 Q1011=
26-Jul-2023 SAID31 WAOC 260530 METAR WAOC 260530Z AUTO 20004G04KT 130V220 31/21 Q1010=
26-Jul-2023 SAID31 WAOC 260600 METAR WAOC 260600Z AUTO 21004G04KT 140V220 31/21 Q1010=
26-Jul-2023 SAID31 WAOC 260630 METAR WAOC 260630Z AUTO VRB03G03KT 140V230 32/20 Q1010=
26-Jul-2023 SAID31 WAOC 260700 METAR WAOC 260700Z AUTO VRB03G02KT 120V230 32/20 Q1009=
26-Jul-2023 SAID31 WAOC 260730 METAR WAOC 260730Z AUTO VRB03G03KT 120V240 31/21 Q1009=
26-Jul-2023 SAID31 WAOC 260800 METAR WAOC 260800Z AUTO 21004G04KT 190V300 30/20 Q1009=
26-Jul-2023 SAID31 WAOC 260830 METAR WAOC 260830Z AUTO 17004G04KT 160V230 32/22 Q1010=
26-Jul-2023 SAID31 WAOC 260900 METAR WAOC 260900Z AUTO 23004G03KT 200V270 35/28 Q1010=
26-Jul-2023 SAID31 WAOC 260930 METAR WAOC 260930Z AUTO 20004G04KT 160V240 30/23 Q1010=
26-Jul-2023 SAID31 WAOC 261000 METAR WAOC 261000Z AUTO VRB02G02KT 29/24 Q1011=
26-Jul-2023 SAID31 WAOC 261030 METAR WAOC 261030Z AUTO VRB03G03KT 170V240 28/24 Q1011=
26-Jul-2023 SAID31 WAOC 261100 METAR WAOC 261100Z AUTO VRB02G02KT 170V250 28/24 Q1011=
26-Jul-2023 SAID31 WAOC 261130 METAR WAOC 261130Z AUTO VRB01G01KT 150V250 28/24 Q1012=
26-Jul-2023 SAID31 WAOC 261200 METAR WAOC 261200Z AUTO VRB03G03KT 28/24 Q1012=
26-Jul-2023 SAID31 WAOC 261230 METAR WAOC 261230Z AUTO VRB01G01KT 100V200 28/24 Q1012=
26-Jul-2023 SAID31 WAOC 261300 METAR WAOC 261300Z AUTO VRB01G01KT 150V250 27/24 Q1013=
26-Jul-2023 SAID31 WAOC 261330 METAR WAOC 261330Z AUTO VRB01G01KT 140V240 27/24 Q1013=
26-Jul-2023 SAID31 WAOC 261400 METAR WAOC 261400Z AUTO VRB01G01KT 150V230 27/24 Q1013=
26-Jul-2023 SAID31 WAOC 261430 METAR WAOC 261430Z AUTO VRB01G01KT 27/25 Q1013=
26-Jul-2023 SAID31 WAOC 261500 METAR WAOC 261500Z AUTO VRB01G01KT 26/25 Q1013=
26-Jul-2023 SAID31 WAOC 261530 METAR WAOC 261530Z AUTO VRB01G01KT 26/24 Q1013=
26-Jul-2023 SAID31 WAOC 261600 METAR WAOC 261600Z AUTO VRB01G01KT 25/24 Q1013=
26-Jul-2023 SAID31 WAOC 261630 METAR WAOC 261630Z AUTO VRB01G01KT 220V290 25/24 Q1013=
26-Jul-2023 SAID31 WAOC 261700 METAR WAOC 261700Z AUTO VRB01G01KT 200V270 25/24 Q1012=
26-Jul-2023 SAID31 WAOC 261730 METAR WAOC 261730Z AUTO VRB01G01KT 25/24 Q1012=
26-Jul-2023 SAID31 WAOC 261830 METAR WAOC 261830Z AUTO VRB01G01KT 220V310 25/24 Q1012=
26-Jul-2023 SAID31 WAOC 261900 METAR WAOC 261900Z AUTO VRB02G01KT 25/24 Q1012=
26-Jul-2023 SAID31 WAOC 261930 METAR WAOC 261930Z AUTO VRB02G02KT 24/24 Q1012=
26-Jul-2023 SAID31 WAOC 262000 METAR WAOC 262000Z AUTO VRB02G02KT 24/24 Q1012=
26-Jul-2023 SAID31 WAOC 262030 METAR WAOC 262030Z AUTO VRB02G02KT 25/25 Q1012=
26-Jul-2023 SAID31 WAOC 262100 METAR WAOC 262100Z AUTO VRB02G02KT 25/24 Q1013=
26-Jul-2023 SAID31 WAOC 262130 METAR WAOC 262130Z AUTO VRB01G01KT 25/24 Q1013=
26-Jul-2023 SAID31 WAOC 262200 METAR WAOC 262200Z AUTO VRB02G02KT 24/24 Q1013=
26-Jul-2023 SAID31 WAOC 262230 METAR WAOC 262230Z AUTO VRB01G01KT 25/24 Q1013=
26-Jul-2023 SAID31 WAOC 262300 METAR WAOC 262300Z AUTO VRB02G02KT Q1013=
26-Jul-2023 SAID31 WAOC 262330 METAR WAOC 262330Z AUTO VRB01G01KT 220V300 27/25 Q1013=
27-Jul-2023 SAID31 WAOC 270000 METAR WAOC 270000Z AUTO VRB01G02KT 30/28 Q1014=
27-Jul-2023 SAID31 WAOC 270030 METAR WAOC 270030Z AUTO VRB01G01KT 150V240 29/26 Q1014=
27-Jul-2023 SAID31 WAOC 270100 METAR WAOC 270100Z AUTO VRB03G02KT 110V200 36/33 Q1014=
27-Jul-2023 SAID31 WAOC 270130 METAR WAOC 270130Z AUTO VRB02G02KT 090V230 33/29 Q1013=
27-Jul-2023 SAID31 WAOC 270200 METAR WAOC 270200Z AUTO VRB03G04KT 120V230 39/35 Q1013=
27-Jul-2023 SAID31 WAOC 270230 METAR WAOC 270230Z AUTO 13004G03KT 100V190 50/48 Q1013=
27-Jul-2023 SAID31 WAOC 270300 METAR WAOC 270300Z AUTO VRB01G01KT 110V260 44/40 Q1012=
27-Jul-2023 SAID31 WAOC 270330 METAR WAOC 270330Z AUTO VRB02G02KT 120V220 35/27 Q1012=
27-Jul-2023 SAID31 WAOC 270400 METAR WAOC 270400Z AUTO VRB01G03KT 140V230 32/24 Q1012=
27-Jul-2023 SAID31 WAOC 270430 METAR WAOC 270430Z AUTO VRB03G03KT 100V180 31/22 Q1012=
27-Jul-2023 SAID31 WAOC 270500 METAR WAOC 270500Z AUTO 19006G06KT 130V220 31/21 Q1011=
27-Jul-2023 SAID31 WAOC 270530 METAR WAOC 270530Z AUTO VRB03G05KT 140V210 30/21 Q1011=
27-Jul-2023 SAID31 WAOC 270600 METAR WAOC 270600Z AUTO VRB02G02KT 130V220 31/21 Q1010=
27-Jul-2023 SAID31 WAOC 270630 METAR WAOC 270630Z AUTO VRB02G04KT 110V210 30/21 Q1010=
27-Jul-2023 SAID31 WAOC 270700 METAR WAOC 270700Z AUTO 18004G04KT 110V210 31/21 Q1009=
27-Jul-2023 SAID31 WAOC 270730 METAR WAOC 270730Z AUTO 17004G04KT 120V210 31/22 Q1009=
27-Jul-2023 SAID31 WAOC 270800 METAR WAOC 270800Z AUTO 14004G04KT 100V210 30/22 Q1009=
27-Jul-2023 SAID31 WAOC 270830 METAR WAOC 270830Z AUTO 13004G04KT 110V200 40/34 Q1009=
27-Jul-2023 SAID31 WAOC 270900 METAR WAOC 270900Z AUTO VRB03G03KT 34/27 Q1010=
27-Jul-2023 SAID31 WAOC 270930 METAR WAOC 270930Z AUTO 14004G04KT 100V180 29/22 Q1010=
27-Jul-2023 SAID31 WAOC 271000 METAR WAOC 271000Z AUTO VRB03G03KT 100V180 29/21 Q1010=
27-Jul-2023 SAID31 WAOC 271030 METAR WAOC 271030Z AUTO VRB01G01KT 110V180 28/22 Q1011=
27-Jul-2023 SAID31 WAOC 271100 METAR WAOC 271100Z AUTO VRB02G02KT 110V180 28/23 Q1011=
27-Jul-2023 SAID31 WAOC 271130 METAR WAOC 271130Z AUTO VRB02G02KT 090V170 27/23 Q1011=
27-Jul-2023 SAID31 WAOC 271200 METAR WAOC 271200Z AUTO VRB03G04KT 100V200 27/23 Q1011=
27-Jul-2023 SAID31 WAOC 271230 METAR WAOC 271230Z AUTO VRB01G01KT 100V180 27/23 Q1012=
27-Jul-2023 SAID31 WAOC 271300 METAR WAOC 271300Z AUTO VRB02G02KT 26/23 Q1012=
27-Jul-2023 SAID31 WAOC 271330 METAR WAOC 271330Z AUTO VRB01G01KT 26/23 Q1012=
27-Jul-2023 SAID31 WAOC 271400 METAR WAOC 271400Z AUTO VRB01G01KT 110V220 26/23 Q1012=
27-Jul-2023 SAID31 WAOC 271430 METAR WAOC 271430Z AUTO 00000G00KT 140V300 26/23 Q1012=
27-Jul-2023 SAID31 WAOC 271500 METAR WAOC 271500Z AUTO VRB01G01KT 190V280 25/23 Q1013=
27-Jul-2023 SAID31 WAOC 271530 METAR WAOC 271530Z AUTO VRB01G01KT 25/23 Q1013=
27-Jul-2023 SAID31 WAOC 271600 METAR WAOC 271600Z AUTO VRB01G01KT 25/23 Q1013=
27-Jul-2023 SAID31 WAOC 271630 METAR WAOC 271630Z AUTO VRB01G01KT 25/23 Q1013=
27-Jul-2023 SAID31 WAOC 271700 METAR WAOC 271700Z AUTO 00000G00KT 230V320 25/23 Q1012=
27-Jul-2023 SAID31 WAOC 271730 METAR WAOC 271730Z AUTO VRB01G01KT 210V290 24/23 Q1012=
27-Jul-2023 SAID31 WAOC 271800 METAR WAOC 271800Z AUTO VRB01G01KT 24/23 Q1012=
27-Jul-2023 SAID31 WAOC 271900 METAR WAOC 271900Z AUTO VRB02G02KT 24/23 Q1012=
27-Jul-2023 SAID31 WAOC 271930 METAR WAOC 271930Z AUTO VRB02G02KT 23/22 Q1011=
27-Jul-2023 SAID31 WAOC 272000 METAR WAOC 272000Z AUTO VRB02G02KT 23/22 Q1011=
27-Jul-2023 SAID31 WAOC 272030 METAR WAOC 272030Z AUTO VRB03G03KT 23/23 Q1011=
27-Jul-2023 SAID31 WAOC 272100 METAR WAOC 272100Z AUTO VRB02G02KT 24/23 Q1011=
27-Jul-2023 SAID31 WAOC 272130 METAR WAOC 272130Z AUTO VRB02G02KT 24/23 Q1011=
27-Jul-2023 SAID31 WAOC 272200 METAR WAOC 272200Z AUTO VRB01G01KT 23/23 Q1011=
27-Jul-2023 SAID31 WAOC 272230 METAR WAOC 272230Z AUTO VRB01G01KT 210V290 24/23 Q1012=
27-Jul-2023 SAID31 WAOC 272300 METAR WAOC 272300Z AUTO VRB02G02KT 24/23 Q1012=
27-Jul-2023 SAID31 WAOC 272330 METAR WAOC 272330Z AUTO VRB01G01KT 150V310 30/30 Q1012=
28-Jul-2023 SAID31 WAOC 280000 METAR WAOC 280000Z AUTO VRB02G02KT 230V310 29/27 Q1013=
28-Jul-2023 SAID31 WAOC 280030 METAR WAOC 280030Z AUTO VRB02G02KT 200V320 29/27 Q1013=
28-Jul-2023 SAID31 WAOC 280100 METAR WAOC 280100Z AUTO VRB02G02KT 090V290 32/28 Q1012=
28-Jul-2023 SAID31 WAOC 280130 METAR WAOC 280130Z AUTO VRB02G02KT 110V220 34/30 Q1012=
28-Jul-2023 SAID31 WAOC 280200 METAR WAOC 280200Z AUTO 17007G07KT 100V190 31/25 Q1012=
28-Jul-2023 SAID31 WAOC 280230 METAR WAOC 280230Z AUTO 17004G04KT 140V210 31/26 Q1012=
28-Jul-2023 SAID31 WAOC 280300 METAR WAOC 280300Z AUTO VRB03G03KT 100V220 33/26 Q1011=
28-Jul-2023 SAID31 WAOC 280330 METAR WAOC 280330Z AUTO 18004G04KT 060V210 31/23 Q1011=
28-Jul-2023 SAID31 WAOC 280400 METAR WAOC 280400Z AUTO VRB03G03KT 31/22 Q1011=
28-Jul-2023 SAID31 WAOC 280430 METAR WAOC 280430Z AUTO VRB03G03KT 130V210 30/22 Q1010=
28-Jul-2023 SAID31 WAOC 280500 METAR WAOC 280500Z AUTO VRB02G02KT 080V180 32/22 Q1010=
28-Jul-2023 SAID31 WAOC 280530 METAR WAOC 280530Z AUTO 13004G04KT 070V160 31/22 Q1009=
28-Jul-2023 SAID31 WAOC 280600 METAR WAOC 280600Z AUTO VRB03G03KT 31/23 Q1009=
28-Jul-2023 SAID31 WAOC 280630 METAR WAOC 280630Z AUTO VRB02G02KT 31/24 Q1008=
28-Jul-2023 SAID31 WAOC 280700 METAR WAOC 280700Z AUTO 17004G04KT 120V210 32/23 Q1008=
28-Jul-2023 SAID31 WAOC 280730 METAR WAOC 280730Z AUTO 12005G06KT 110V220 31/22 Q1008=
28-Jul-2023 SAID31 WAOC 280800 METAR WAOC 280800Z AUTO 17005G05KT 110V180 31/22 Q1008=
28-Jul-2023 SAID31 WAOC 280830 METAR WAOC 280830Z AUTO 14004G04KT 30/22 Q1009=
28-Jul-2023 SAID31 WAOC 280900 METAR WAOC 280900Z AUTO VRB03G03KT 110V230 30/22 Q1009=
28-Jul-2023 SAID31 WAOC 280930 METAR WAOC 280930Z AUTO 16004G04KT 120V190 29/22 Q1010=
28-Jul-2023 SAID31 WAOC 281000 METAR WAOC 281000Z AUTO VRB03G03KT 120V220 28/22 Q1010=
28-Jul-2023 SAID31 WAOC 281030 METAR WAOC 281030Z AUTO VRB02G02KT 110V180 28/22 Q1010=
28-Jul-2023 SAID31 WAOC 281100 METAR WAOC 281100Z AUTO VRB03G03KT 110V210 27/22 Q1011=
28-Jul-2023 SAID31 WAOC 281130 METAR WAOC 281130Z AUTO VRB01G02KT 110V180 27/23 Q1011=
28-Jul-2023 SAID31 WAOC 281200 METAR WAOC 281200Z AUTO VRB02G02KT 100V170 27/23 Q1011=
28-Jul-2023 SAID31 WAOC 281230 METAR WAOC 281230Z AUTO VRB02G02KT 090V170 26/23 Q1012=
28-Jul-2023 SAID31 WAOC 281300 METAR WAOC 281300Z AUTO VRB03G04KT 110V200 27/23 Q1012=
28-Jul-2023 SAID31 WAOC 281330 METAR WAOC 281330Z AUTO VRB01G01KT 120V270 26/23 Q1013=
28-Jul-2023 SAID31 WAOC 281400 METAR WAOC 281400Z AUTO VRB02G02KT 26/23 Q1013=
28-Jul-2023 SAID31 WAOC 281430 METAR WAOC 281430Z AUTO VRB01G01KT 25/23 Q1013=
28-Jul-2023 SAID31 WAOC 281500 METAR WAOC 281500Z AUTO VRB01G01KT 25/23 Q1013=
28-Jul-2023 SAID31 WAOC 281530 METAR WAOC 281530Z AUTO VRB02G02KT 24/22 Q1013=
28-Jul-2023 SAID31 WAOC 281600 METAR WAOC 281600Z AUTO VRB01G01KT 220V290 24/22 Q1013=
28-Jul-2023 SAID31 WAOC 281630 METAR WAOC 281630Z AUTO VRB01G01KT 23/22 Q1013=
28-Jul-2023 SAID31 WAOC 281700 METAR WAOC 281700Z AUTO VRB01G01KT 23/22 Q1012=
28-Jul-2023 SAID31 WAOC 281730 METAR WAOC 281730Z AUTO VRB01G01KT 23/22 Q1012=
28-Jul-2023 SAID31 WAOC 281800 METAR WAOC 281800Z AUTO VRB01G01KT 23/22 Q1012=
28-Jul-2023 SAID31 WAOC 281830 METAR WAOC 281830Z AUTO VRB01G02KT 23/22 Q1012=
28-Jul-2023 SAID31 WAOC 281900 METAR WAOC 281900Z AUTO VRB01G01KT 23/22 Q1011=
28-Jul-2023 SAID31 WAOC 281930 METAR WAOC 281930Z AUTO VRB02G02KT 23/22 Q1011=
28-Jul-2023 SAID31 WAOC 282000 METAR WAOC 282000Z AUTO VRB01G01KT 23/22 Q1012=
28-Jul-2023 SAID31 WAOC 282030 METAR WAOC 282030Z AUTO VRB01G01KT 23/22 Q1012=
28-Jul-2023 SAID31 WAOC 282100 METAR WAOC 282100Z AUTO VRB01G01KT 23/22 Q1012=
28-Jul-2023 SAID31 WAOC 282130 METAR WAOC 282130Z AUTO VRB01G01KT 23/22 Q1012=
28-Jul-2023 SAID31 WAOC 282200 METAR WAOC 282200Z AUTO VRB01G01KT 23/22 Q1012=
28-Jul-2023 SAID31 WAOC 282230 METAR WAOC 282230Z AUTO VRB02G02KT 23/22 Q1012=
28-Jul-2023 SAID31 WAOC 282300 METAR WAOC 282300Z AUTO VRB02G02KT 24/23 Q1012=
28-Jul-2023 SAID31 WAOC 282330 METAR WAOC 282330Z AUTO VRB01G01KT 220V300 25/23 Q1012=
29-Jul-2023 SAID31 WAOC 290000 METAR WAOC 290000Z AUTO VRB01G01KT 230V310 27/25 Q1013=
29-Jul-2023 SAID31 WAOC 290030 METAR WAOC 290030Z AUTO VRB01G01KT 28/25 Q1013=
29-Jul-2023 SAID31 WAOC 290100 METAR WAOC 290100Z AUTO VRB02G02KT 180V250 30/26 Q1013=
29-Jul-2023 SAID31 WAOC 290130 METAR WAOC 290130Z AUTO VRB02G02KT 120V220 33/28 Q1013=
29-Jul-2023 SAID31 WAOC 290200 METAR WAOC 290200Z AUTO VRB03G03KT 130V210 34/28 Q1013=
29-Jul-2023 SAID31 WAOC 290230 METAR WAOC 290230Z AUTO VRB03G03KT 150V240 34/28 Q1012=
29-Jul-2023 SAID31 WAOC 290300 METAR WAOC 290300Z AUTO VRB03G03KT 130V220 34/27 Q1012=
29-Jul-2023 SAID31 WAOC 290330 METAR WAOC 290330Z AUTO VRB02G02KT 35/29 Q1012=
29-Jul-2023 SAID31 WAOC 290400 METAR WAOC 290400Z AUTO VRB03G02KT 110V230 38/32 Q1011=
29-Jul-2023 SAID31 WAOC 290430 METAR WAOC 290430Z AUTO 18004G04KT 100V220 38/31 Q1011=
29-Jul-2023 SAID31 WAOC 290500 METAR WAOC 290500Z AUTO VRB02G02KT 120V230 38/30 Q1010=
29-Jul-2023 SAID31 WAOC 290530 METAR WAOC 290530Z AUTO VRB03G03KT 090V230 34/26 Q1010=
29-Jul-2023 SAID31 WAOC 290600 METAR WAOC 290600Z AUTO 19004G04KT 120V220 35/26 Q1009=
29-Jul-2023 SAID31 WAOC 290630 METAR WAOC 290630Z AUTO 10004G04KT 090V180 33/24 Q1009=
29-Jul-2023 SAID31 WAOC 290700 METAR WAOC 290700Z AUTO 12005G05KT 120V200 44/35 Q1009=
29-Jul-2023 SAID31 WAOC 290730 METAR WAOC 290730Z AUTO 12005G04KT 42/34 Q1009=
29-Jul-2023 SAID31 WAOC 290800 METAR WAOC 290800Z AUTO 11005G05KT 060V130 36/27 Q1009=
29-Jul-2023 SAID31 WAOC 290830 METAR WAOC 290830Z AUTO 12004G04KT 37/30 Q1009=
29-Jul-2023 SAID31 WAOC 290900 METAR WAOC 290900Z AUTO 11005G04KT 31/22 Q1009=
29-Jul-2023 SAID31 WAOC 290930 METAR WAOC 290930Z AUTO 15004G03KT 090V160 31/23 Q1009=
29-Jul-2023 SAID31 WAOC 291000 METAR WAOC 291000Z AUTO VRB03G03KT 29/22 Q1010=
29-Jul-2023 SAID31 WAOC 291030 METAR WAOC 291030Z AUTO VRB02G02KT 28/23 Q1010=
29-Jul-2023 SAID31 WAOC 291100 METAR WAOC 291100Z AUTO VRB02G03KT 27/23 Q1010=
29-Jul-2023 SAID31 WAOC 291130 METAR WAOC 291130Z AUTO VRB02G02KT 100V170 27/23 Q1011=
29-Jul-2023 SAID31 WAOC 291200 METAR WAOC 291200Z AUTO VRB02G02KT 100V190 27/23 Q1011=
29-Jul-2023 SAID31 WAOC 291230 METAR WAOC 291230Z AUTO VRB01G01KT 120V200 27/23 Q1012=
29-Jul-2023 SAID31 WAOC 291300 METAR WAOC 291300Z AUTO VRB02G02KT 100V210 27/23 Q1012=
29-Jul-2023 SAID31 WAOC 291330 METAR WAOC 291330Z AUTO VRB01G01KT 110V180 27/23 Q1012=
29-Jul-2023 SAID31 WAOC 291400 METAR WAOC 291400Z AUTO VRB01G01KT 130V220 26/23 Q1012=
29-Jul-2023 SAID31 WAOC 291430 METAR WAOC 291430Z AUTO VRB01G01KT 25/23 Q1012=
29-Jul-2023 SAID31 WAOC 291500 METAR WAOC 291500Z AUTO VRB01G01KT 25/23 Q1012=
29-Jul-2023 SAID31 WAOC 291530 METAR WAOC 291530Z AUTO VRB01G01KT 25/23 Q1012=
29-Jul-2023 SAID31 WAOC 291600 METAR WAOC 291600Z AUTO VRB01G01KT 24/23 Q1012=
29-Jul-2023 SAID31 WAOC 291630 METAR WAOC 291630Z AUTO VRB01G01KT 220V300 24/23 Q1012=
29-Jul-2023 SAID31 WAOC 291700 METAR WAOC 291700Z AUTO VRB01G01KT 24/23 Q1012=
29-Jul-2023 SAID31 WAOC 291730 METAR WAOC 291730Z AUTO VRB01G01KT 190V260 23/22 Q1012=
29-Jul-2023 SAID31 WAOC 291800 METAR WAOC 291800Z AUTO VRB02G02KT 23/22 Q1011=
29-Jul-2023 SAID31 WAOC 291830 METAR WAOC 291830Z AUTO VRB02G02KT 23/22 Q1011=
29-Jul-2023 SAID31 WAOC 291900 METAR WAOC 291900Z AUTO VRB02G03KT 23/23 Q1011=
29-Jul-2023 SAID31 WAOC 291930 METAR WAOC 291930Z AUTO VRB03G03KT 25/24 Q1011=
29-Jul-2023 SAID31 WAOC 292000 METAR WAOC 292000Z AUTO VRB02G02KT 25/25 Q1011=
29-Jul-2023 SAID31 WAOC 292030 METAR WAOC 292030Z AUTO VRB02G02KT 27/27 Q1011=
29-Jul-2023 SAID31 WAOC 292100 METAR WAOC 292100Z AUTO VRB02G02KT 28/28 Q1011=
29-Jul-2023 SAID31 WAOC 292130 METAR WAOC 292130Z AUTO VRB02G02KT Q1011=
29-Jul-2023 SAID31 WAOC 292200 METAR WAOC 292200Z AUTO VRB02G02KT 220V310 Q1011=
29-Jul-2023 SAID31 WAOC 292230 METAR WAOC 292230Z AUTO VRB02G02KT 29/30 Q1011=
29-Jul-2023 SAID31 WAOC 292300 METAR WAOC 292300Z AUTO VRB02G02KT 26/26 Q1012=
29-Jul-2023 SAID31 WAOC 292330 METAR WAOC 292330Z AUTO VRB03G03KT 25/24 Q1012=
30-Jul-2023 SAID31 WAOC 300000 METAR WAOC 300000Z AUTO VRB03G03KT 190V320 31/29 Q1012=
30-Jul-2023 SAID31 WAOC 300030 METAR WAOC 300030Z AUTO VRB02G02KT 240V310 28/26 Q1013=
30-Jul-2023 SAID31 WAOC 300100 METAR WAOC 300100Z AUTO VRB02G02KT 170V250 29/26 Q1013=
30-Jul-2023 SAID31 WAOC 300130 METAR WAOC 300130Z AUTO VRB02G02KT 160V300 33/30 Q1013=
30-Jul-2023 SAID31 WAOC 300200 METAR WAOC 300200Z AUTO VRB03G03KT 140V230 34/29 Q1013=
30-Jul-2023 SAID31 WAOC 300230 METAR WAOC 300230Z AUTO 17004G04KT 130V220 32/26 Q1012=
30-Jul-2023 SAID31 WAOC 300300 METAR WAOC 300300Z AUTO 17004G04KT 110V220 32/26 Q1012=
30-Jul-2023 SAID31 WAOC 300330 METAR WAOC 300330Z AUTO VRB03G03KT 140V210 42/37 Q1012=
30-Jul-2023 SAID31 WAOC 300400 METAR WAOC 300400Z AUTO VRB02G02KT 110V180 37/30 Q1011=
30-Jul-2023 SAID31 WAOC 300430 METAR WAOC 300430Z AUTO VRB03G03KT 080V150 37/29 Q1011=
30-Jul-2023 SAID31 WAOC 300500 METAR WAOC 300500Z AUTO VRB03G03KT 090V170 33/23 Q1011=
30-Jul-2023 SAID31 WAOC 300530 METAR WAOC 300530Z AUTO 15005G05KT 090V170 32/22 Q1010=
30-Jul-2023 SAID31 WAOC 300600 METAR WAOC 300600Z AUTO VRB03G03KT 070V150 32/22 Q1010=
30-Jul-2023 SAID31 WAOC 300630 METAR WAOC 300630Z AUTO VRB02G02KT 32/22 Q1009=
30-Jul-2023 SAID31 WAOC 300700 METAR WAOC 300700Z AUTO VRB03G03KT 32/22 Q1009=
30-Jul-2023 SAID31 WAOC 300730 METAR WAOC 300730Z AUTO VRB03G03KT 070V160 33/24 Q1009=
30-Jul-2023 SAID31 WAOC 300800 METAR WAOC 300800Z AUTO VRB03G03KT 080V150 38/30 Q1009=
30-Jul-2023 SAID31 WAOC 300830 METAR WAOC 300830Z AUTO 13004G04KT 41/35 Q1009=
30-Jul-2023 SAID31 WAOC 300900 METAR WAOC 300900Z AUTO VRB03G03KT 30/23 Q1009=
30-Jul-2023 SAID31 WAOC 300930 METAR WAOC 300930Z AUTO VRB02G03KT 30/24 Q1009=
30-Jul-2023 SAID31 WAOC 301000 METAR WAOC 301000Z AUTO VRB03G03KT 29/24 Q1010=
30-Jul-2023 SAID31 WAOC 301030 METAR WAOC 301030Z AUTO VRB03G03KT 29/24 Q1010=
30-Jul-2023 SAID31 WAOC 301100 METAR WAOC 301100Z AUTO VRB01G01KT 110V200 28/24 Q1010=
30-Jul-2023 SAID31 WAOC 301130 METAR WAOC 301130Z AUTO VRB03G03KT 100V180 28/24 Q1010=
30-Jul-2023 SAID31 WAOC 301200 METAR WAOC 301200Z AUTO 14004G04KT 28/24 Q1011=
30-Jul-2023 SAID31 WAOC 301230 METAR WAOC 301230Z AUTO VRB03G03KT 110V190 28/24 Q1011=
30-Jul-2023 SAID31 WAOC 301300 METAR WAOC 301300Z AUTO VRB02G02KT 110V180 27/24 Q1012=
30-Jul-2023 SAID31 WAOC 301330 METAR WAOC 301330Z AUTO VRB01G01KT 110V200 27/24 Q1012=
30-Jul-2023 SAID31 WAOC 301400 METAR WAOC 301400Z AUTO VRB02G02KT 110V180 27/24 Q1012=
30-Jul-2023 SAID31 WAOC 301430 METAR WAOC 301430Z AUTO VRB03G03KT 100V190 27/24 Q1012=
30-Jul-2023 SAID31 WAOC 301500 METAR WAOC 301500Z AUTO VRB02G02KT 120V210 27/24 Q1012=
30-Jul-2023 SAID31 WAOC 301530 METAR WAOC 301530Z AUTO VRB03G03KT 110V200 27/24 Q1012=
30-Jul-2023 SAID31 WAOC 301600 METAR WAOC 301600Z AUTO VRB01G01KT 26/24 Q1012=
30-Jul-2023 SAID31 WAOC 301630 METAR WAOC 301630Z AUTO VRB01G02KT 25/24 Q1012=
30-Jul-2023 SAID31 WAOC 301700 METAR WAOC 301700Z AUTO VRB01G01KT 25/24 Q1011=
30-Jul-2023 SAID31 WAOC 301730 METAR WAOC 301730Z AUTO VRB02G02KT 25/24 Q1011=
30-Jul-2023 SAID31 WAOC 301800 METAR WAOC 301800Z AUTO VRB02G02KT 25/24 Q1011=
30-Jul-2023 SAID31 WAOC 301830 METAR WAOC 301830Z AUTO VRB02G02KT 220V290 24/24 Q1011=
30-Jul-2023 SAID31 WAOC 301900 METAR WAOC 301900Z AUTO VRB02G02KT 24/23 Q1011=
30-Jul-2023 SAID31 WAOC 301930 METAR WAOC 301930Z AUTO VRB03G03KT 24/24 Q1011=
30-Jul-2023 SAID31 WAOC 302000 METAR WAOC 302000Z AUTO VRB02G02KT 24/23 Q1011=
30-Jul-2023 SAID31 WAOC 302030 METAR WAOC 302030Z AUTO VRB02G02KT 24/24 Q1011=
30-Jul-2023 SAID31 WAOC 302100 METAR WAOC 302100Z AUTO VRB01G01KT 180V290 24/24 Q1011=
30-Jul-2023 SAID31 WAOC 302200 METAR WAOC 302200Z AUTO VRB02G02KT 24/24 Q1011=
30-Jul-2023 SAID31 WAOC 302230 METAR WAOC 302230Z AUTO VRB02G02KT 24/24 Q1011=
30-Jul-2023 SAID31 WAOC 302300 METAR WAOC 302300Z AUTO VRB02G02KT 25/24 Q1011=
30-Jul-2023 SAID31 WAOC 302330 METAR WAOC 302330Z AUTO VRB02G02KT 26/25 Q1012=
31-Jul-2023 SAID31 WAOC 310000 METAR WAOC 310000Z AUTO VRB02G02KT 27/26 Q1012=
31-Jul-2023 SAID31 WAOC 310030 METAR WAOC 310030Z AUTO VRB02G02KT 190V280 28/25 Q1012=
31-Jul-2023 SAID31 WAOC 310100 METAR WAOC 310100Z AUTO VRB02G02KT 160V240 32/29 Q1012=
31-Jul-2023 SAID31 WAOC 310130 METAR WAOC 310130Z AUTO VRB03G03KT 120V220 40/38 Q1012=
31-Jul-2023 SAID31 WAOC 310200 METAR WAOC 310200Z AUTO VRB01G01KT 120V240 37/34 Q1012=
31-Jul-2023 SAID31 WAOC 310230 METAR WAOC 310230Z AUTO 18004G04KT 120V200 32/28 Q1012=
31-Jul-2023 SAID31 WAOC 310300 METAR WAOC 310300Z AUTO VRB02G02KT 110V220 34/28 Q1011=
31-Jul-2023 SAID31 WAOC 310330 METAR WAOC 310330Z AUTO VRB02G02KT 110V220 34/29 Q1011=
31-Jul-2023 SAID31 WAOC 310400 METAR WAOC 310400Z AUTO VRB03G03KT 130V230 34/29 Q1011=
31-Jul-2023 SAID31 WAOC 310430 METAR WAOC 310430Z AUTO VRB02G02KT 110V210 32/25 Q1010=
31-Jul-2023 SAID31 WAOC 310500 METAR WAOC 310500Z AUTO 17004G04KT 120V220 32/23 Q1010=
31-Jul-2023 SAID31 WAOC 310530 METAR WAOC 310530Z AUTO 12004G04KT 080V190 31/23 Q1009=
31-Jul-2023 SAID31 WAOC 310600 METAR WAOC 310600Z AUTO 10004G04KT 080V150 32/22 Q1009=
31-Jul-2023 SAID31 WAOC 310630 METAR WAOC 310630Z AUTO 12004G03KT 31/23 Q1009=
31-Jul-2023 SAID31 WAOC 310700 METAR WAOC 310700Z AUTO VRB02G02KT 090V160 31/23 Q1008=
31-Jul-2023 SAID31 WAOC 310730 METAR WAOC 310730Z AUTO 11005G05KT 31/23 Q1008=
31-Jul-2023 SAID31 WAOC 310800 METAR WAOC 310800Z AUTO 12005G05KT 32/25 Q1008=
31-Jul-2023 SAID31 WAOC 310830 METAR WAOC 310830Z AUTO 12005G05KT 35/30 Q1008=
31-Jul-2023 SAID31 WAOC 310900 METAR WAOC 310900Z AUTO 12005G05KT 31/25 Q1008=
31-Jul-2023 SAID31 WAOC 311000 METAR WAOC 311000Z AUTO VRB03G03KT 29/24 Q1009=
31-Jul-2023 SAID31 WAOC 311030 METAR WAOC 311030Z AUTO VRB02G02KT 28/24 Q1009=
31-Jul-2023 SAID31 WAOC 311100 METAR WAOC 311100Z AUTO VRB02G02KT 100V170 28/25 Q1010=
31-Jul-2023 SAID31 WAOC 311200 METAR WAOC 311200Z AUTO VRB02G02KT 28/25 Q1010=
31-Jul-2023 SAID31 WAOC 311230 METAR WAOC 311230Z AUTO VRB02G02KT 28/25 Q1011=
31-Jul-2023 SAID31 WAOC 311300 METAR WAOC 311300Z AUTO VRB01G01KT 060V180 28/25 Q1011=
31-Jul-2023 SAID31 WAOC 311330 METAR WAOC 311330Z AUTO VRB02G02KT 130V210 27/25 Q1011=
31-Jul-2023 SAID31 WAOC 311400 METAR WAOC 311400Z AUTO 00000G00KT 27/25 Q1012=
31-Jul-2023 SAID31 WAOC 311430 METAR WAOC 311430Z AUTO VRB01G01KT 27/25 Q1011=
31-Jul-2023 SAID31 WAOC 311500 METAR WAOC 311500Z AUTO VRB01G01KT 26/25 Q1011=
31-Jul-2023 SAID31 WAOC 311530 METAR WAOC 311530Z AUTO VRB02G02KT 26/25 Q1012=
31-Jul-2023 SAID31 WAOC 311600 METAR WAOC 311600Z AUTO VRB02G02KT 26/25 Q1011=
31-Jul-2023 SAID31 WAOC 311630 METAR WAOC 311630Z AUTO VRB01G01KT 26/25 Q1011=
31-Jul-2023 SAID31 WAOC 311700 METAR WAOC 311700Z AUTO VRB02G02KT 25/25 Q1011=
31-Jul-2023 SAID31 WAOC 311730 METAR WAOC 311730Z AUTO VRB02G02KT 25/25 Q1011=
31-Jul-2023 SAID31 WAOC 311800 METAR WAOC 311800Z AUTO VRB02G02KT 25/25 Q1011=
31-Jul-2023 SAID31 WAOC 311830 METAR WAOC 311830Z AUTO VRB01G00KT 200V280 26/25 Q1011=
31-Jul-2023 SAID31 WAOC 311900 METAR WAOC 311900Z AUTO VRB01G01KT 25/25 Q1011=
31-Jul-2023 SAID31 WAOC 311930 METAR WAOC 311930Z AUTO VRB02G02KT 230V300 25/25 Q1011=
31-Jul-2023 SAID31 WAOC 312000 METAR WAOC 312000Z AUTO VRB02G02KT 26/25 Q1011=
31-Jul-2023 SAID31 WAOC 312030 METAR WAOC 312030Z AUTO VRB02G02KT 26/25 Q1011=
31-Jul-2023 SAID31 WAOC 312100 METAR WAOC 312100Z AUTO VRB02G02KT 26/26 Q1011=
31-Jul-2023 SAID31 WAOC 312130 METAR WAOC 312130Z AUTO VRB02G02KT 26/26 Q1011=
31-Jul-2023 SAID31 WAOC 312200 METAR WAOC 312200Z AUTO VRB02G02KT 25/24 Q1011=
31-Jul-2023 SAID31 WAOC 312230 METAR WAOC 312230Z AUTO VRB01G01KT 25/24 Q1011=
31-Jul-2023 SAID31 WAOC 312300 METAR WAOC 312300Z AUTO VRB01G01KT 26/25 Q1011=
31-Jul-2023 SAID31 WAOC 312330 METAR WAOC 312330Z AUTO VRB02G02KT 27/26 Q1012=
01-Aug-2023 SAID31 WAOC 010000 METAR WAOC 010000Z AUTO VRB02G02KT 170V270 28/26 Q1012=
01-Aug-2023 SAID31 WAOC 010030 METAR WAOC 010030Z AUTO 18004G04KT 120V220 32/28 Q1012=
01-Aug-2023 SAID31 WAOC 010100 METAR WAOC 010100Z AUTO VRB03G02KT 140V220 30/25 Q1012=
01-Aug-2023 SAID31 WAOC 010130 METAR WAOC 010130Z AUTO VRB01G01KT 110V210 30/25 Q1012=
01-Aug-2023 SAID31 WAOC 010200 METAR WAOC 010200Z AUTO VRB03G03KT 100V210 30/24 Q1012=
01-Aug-2023 SAID31 WAOC 010230 METAR WAOC 010230Z AUTO 00000G00KT 260V150 30/24 Q1012=
01-Aug-2023 SAID31 WAOC 010300 METAR WAOC 010300Z AUTO 11004G03KT 060V130 31/24 Q1012=
01-Aug-2023 SAID31 WAOC 010330 METAR WAOC 010330Z AUTO VRB03G02KT 080V200 31/23 Q1012=
01-Aug-2023 SAID31 WAOC 010400 METAR WAOC 010400Z AUTO VRB02G02KT 080V230 32/23 Q1011=
01-Aug-2023 SAID31 WAOC 010430 METAR WAOC 010430Z AUTO 16004G03KT 32/23 Q1010=
01-Aug-2023 SAID31 WAOC 010500 METAR WAOC 010500Z AUTO VRB03G03KT 070V170 32/23 Q1010=
01-Aug-2023 SAID31 WAOC 010530 METAR WAOC 010530Z AUTO VRB03G03KT 060V190 32/23 Q1009=
01-Aug-2023 SAID31 WAOC 010600 METAR WAOC 010600Z AUTO 12004G04KT 110V230 33/23 Q1009=
01-Aug-2023 SAID31 WAOC 010630 METAR WAOC 010630Z AUTO 16004G04KT 110V200 32/23 Q1008=
01-Aug-2023 SAID31 WAOC 010700 METAR WAOC 010700Z AUTO VRB02G02KT 32/23 Q1008=
01-Aug-2023 SAID31 WAOC 010730 METAR WAOC 010730Z AUTO VRB03G02KT 070V250 32/24 Q1008=
01-Aug-2023 SAID31 WAOC 010800 METAR WAOC 010800Z AUTO VRB03G03KT 34/27 Q1008=
01-Aug-2023 SAID31 WAOC 010830 METAR WAOC 010830Z AUTO 11005G04KT 33/26 Q1008=
01-Aug-2023 SAID31 WAOC 010900 METAR WAOC 010900Z AUTO VRB03G03KT 33/26 Q1008=
01-Aug-2023 SAID31 WAOC 010930 METAR WAOC 010930Z AUTO 12005G05KT 32/26 Q1008=
01-Aug-2023 SAID31 WAOC 011000 METAR WAOC 011000Z AUTO VRB02G02KT 29/24 Q1009=
01-Aug-2023 SAID31 WAOC 011030 METAR WAOC 011030Z AUTO VRB03G03KT 080V150 29/24 Q1009=
01-Aug-2023 SAID31 WAOC 011100 METAR WAOC 011100Z AUTO VRB03G03KT 28/24 Q1009=
01-Aug-2023 SAID31 WAOC 011130 METAR WAOC 011130Z AUTO 12004G04KT 090V160 28/24 Q1010=
01-Aug-2023 SAID31 WAOC 011200 METAR WAOC 011200Z AUTO VRB02G02KT 120V190 28/24 Q1010=
01-Aug-2023 SAID31 WAOC 011230 METAR WAOC 011230Z AUTO VRB01G01KT 100V210 28/24 Q1011=
01-Aug-2023 SAID31 WAOC 011300 METAR WAOC 011300Z AUTO VRB02G02KT 110V180 28/24 Q1011=
01-Aug-2023 SAID31 WAOC 011330 METAR WAOC 011330Z AUTO VRB02G02KT 110V180 28/24 Q1011=
01-Aug-2023 SAID31 WAOC 011400 METAR WAOC 011400Z AUTO VRB01G01KT 100V220 28/25 Q1012=
01-Aug-2023 SAID31 WAOC 011430 METAR WAOC 011430Z AUTO VRB01G01KT 27/25 Q1012=
01-Aug-2023 SAID31 WAOC 011500 METAR WAOC 011500Z AUTO VRB02G01KT 220V290 26/24 Q1012=
01-Aug-2023 SAID31 WAOC 011530 METAR WAOC 011530Z AUTO VRB01G01KT 26/24 Q1012=
01-Aug-2023 SAID31 WAOC 011600 METAR WAOC 011600Z AUTO VRB02G02KT 25/24 Q1012=
01-Aug-2023 SAID31 WAOC 011630 METAR WAOC 011630Z AUTO VRB01G01KT 25/24 Q1012=
01-Aug-2023 SAID31 WAOC 011700 METAR WAOC 011700Z AUTO VRB01G01KT 25/24 Q1012=
01-Aug-2023 SAID31 WAOC 011730 METAR WAOC 011730Z AUTO VRB01G01KT 150V270 26/24 Q1012=
01-Aug-2023 SAID31 WAOC 011800 METAR WAOC 011800Z AUTO VRB01G01KT 26/24 Q1012=
01-Aug-2023 SAID31 WAOC 011830 METAR WAOC 011830Z AUTO VRB01G01KT 200V270 25/24 Q1012=
01-Aug-2023 SAID31 WAOC 011900 METAR WAOC 011900Z AUTO VRB02G02KT 25/24 Q1012=
01-Aug-2023 SAID31 WAOC 011930 METAR WAOC 011930Z AUTO VRB02G02KT 25/24 Q1012=
01-Aug-2023 SAID31 WAOC 012000 METAR WAOC 012000Z AUTO VRB02G02KT 25/24 Q1012=
01-Aug-2023 SAID31 WAOC 012030 METAR WAOC 012030Z AUTO VRB01G01KT 25/24 Q1011=
01-Aug-2023 SAID31 WAOC 012100 METAR WAOC 012100Z AUTO 00000G00KT 220V340 25/24 Q1011=
01-Aug-2023 SAID31 WAOC 012130 METAR WAOC 012130Z AUTO VRB01G01KT 25/25 Q1012=
01-Aug-2023 SAID31 WAOC 012200 METAR WAOC 012200Z AUTO VRB01G01KT 25/25 Q1012=
01-Aug-2023 SAID31 WAOC 012230 METAR WAOC 012230Z AUTO VRB01G01KT 25/24 Q1012=
01-Aug-2023 SAID31 WAOC 012300 METAR WAOC 012300Z AUTO VRB01G02KT 27/27 Q1012=
01-Aug-2023 SAID31 WAOC 012330 METAR WAOC 012330Z AUTO VRB01G01KT 27/27 Q1013=
02-Aug-2023 SAID31 WAOC 020000 METAR WAOC 020000Z AUTO VRB02G02KT 160V250 33/32 Q1013=
02-Aug-2023 SAID31 WAOC 020030 METAR WAOC 020030Z AUTO VRB01G01KT 170V270 31/29 Q1013=
02-Aug-2023 SAID31 WAOC 020100 METAR WAOC 020100Z AUTO VRB02G03KT 100V220 31/27 Q1013=
02-Aug-2023 SAID31 WAOC 020130 METAR WAOC 020130Z AUTO 15004G04KT 100V170 32/27 Q1013=
02-Aug-2023 SAID31 WAOC 020200 METAR WAOC 020200Z AUTO 14004G04KT 100V180 34/29 Q1013=
02-Aug-2023 SAID31 WAOC 020230 METAR WAOC 020230Z AUTO 16004G03KT 120V240 33/27 Q1013=
02-Aug-2023 SAID31 WAOC 020300 METAR WAOC 020300Z AUTO VRB02G02KT 110V230 33/27 Q1012=
02-Aug-2023 SAID31 WAOC 020330 METAR WAOC 020330Z AUTO 13004G04KT 120V220 33/27 Q1012=
02-Aug-2023 SAID31 WAOC 020400 METAR WAOC 020400Z AUTO 21004G04KT 070V230 34/26 Q1012=
02-Aug-2023 SAID31 WAOC 020430 METAR WAOC 020430Z AUTO 00000G00KT 100V200 32/24 Q1012=
02-Aug-2023 SAID31 WAOC 020500 METAR WAOC 020500Z AUTO VRB01G01KT 080V190 32/22 Q1012=
02-Aug-2023 SAID31 WAOC 020530 METAR WAOC 020530Z AUTO VRB01G01KT 160V290 32/22 Q1011=
02-Aug-2023 SAID31 WAOC 020600 METAR WAOC 020600Z AUTO VRB03G03KT 080V190 32/22 Q1011=
02-Aug-2023 SAID31 WAOC 020630 METAR WAOC 020630Z AUTO VRB02G02KT 32/22 Q1010=
02-Aug-2023 SAID31 WAOC 020700 METAR WAOC 020700Z AUTO VRB03G03KT 120V230 32/23 Q1010=
02-Aug-2023 SAID31 WAOC 020730 METAR WAOC 020730Z AUTO VRB03G03KT 180V260 32/23 Q1009=
02-Aug-2023 SAID31 WAOC 020800 METAR WAOC 020800Z AUTO 23004G04KT 160V280 31/23 Q1009=
02-Aug-2023 SAID31 WAOC 020830 METAR WAOC 020830Z AUTO 18004G04KT 160V240 39/33 Q1010=
02-Aug-2023 SAID31 WAOC 020900 METAR WAOC 020900Z AUTO VRB03G03KT 38/33 Q1010=
02-Aug-2023 SAID31 WAOC 020930 METAR WAOC 020930Z AUTO VRB03G03KT 35/30 Q1010=
02-Aug-2023 SAID31 WAOC 021000 METAR WAOC 021000Z AUTO VRB01G01KT 170V250 33/29 Q1010=
02-Aug-2023 SAID31 WAOC 021030 METAR WAOC 021030Z AUTO VRB02G02KT 120V240 30/26 Q1011=
02-Aug-2023 SAID31 WAOC 021100 METAR WAOC 021100Z AUTO VRB02G02KT 120V220 29/26 Q1011=
02-Aug-2023 SAID31 WAOC 021130 METAR WAOC 021130Z AUTO VRB02G02KT 140V210 28/25 Q1012=
02-Aug-2023 SAID31 WAOC 021200 METAR WAOC 021200Z AUTO VRB02G02KT 28/25 Q1012=
02-Aug-2023 SAID31 WAOC 021230 METAR WAOC 021230Z AUTO VRB01G01KT 28/25 Q1012=
02-Aug-2023 SAID31 WAOC 021300 METAR WAOC 021300Z AUTO VRB02G02KT 120V210 28/25 Q1013=
02-Aug-2023 SAID31 WAOC 021330 METAR WAOC 021330Z AUTO VRB01G01KT 100V170 28/24 Q1013=
02-Aug-2023 SAID31 WAOC 021400 METAR WAOC 021400Z AUTO VRB02G02KT 27/25 Q1013=
02-Aug-2023 SAID31 WAOC 021430 METAR WAOC 021430Z AUTO VRB01G01KT 160V270 27/25 Q1013=
02-Aug-2023 SAID31 WAOC 021500 METAR WAOC 021500Z AUTO VRB02G02KT 26/24 Q1014=
02-Aug-2023 SAID31 WAOC 021530 METAR WAOC 021530Z AUTO VRB02G02KT 25/24 Q1014=
02-Aug-2023 SAID31 WAOC 021600 METAR WAOC 021600Z AUTO VRB03G03KT 25/24 Q1013=
02-Aug-2023 SAID31 WAOC 021630 METAR WAOC 021630Z AUTO VRB02G02KT 25/24 Q1013=
02-Aug-2023 SAID31 WAOC 021700 METAR WAOC 021700Z AUTO VRB01G01KT 25/24 Q1013=
02-Aug-2023 SAID31 WAOC 021730 METAR WAOC 021730Z AUTO VRB01G01KT 25/24 Q1013=
02-Aug-2023 SAID31 WAOC 021800 METAR WAOC 021800Z AUTO VRB01G01KT 25/24 Q1013=
02-Aug-2023 SAID31 WAOC 021830 METAR WAOC 021830Z AUTO VRB01G01KT 24/24 Q1012=
02-Aug-2023 SAID31 WAOC 021900 METAR WAOC 021900Z AUTO VRB01G01KT 25/24 Q1012=
02-Aug-2023 SAID31 WAOC 021930 METAR WAOC 021930Z AUTO VRB01G01KT 26/25 Q1012=
02-Aug-2023 SAID31 WAOC 022000 METAR WAOC 022000Z AUTO VRB01G01KT 27/27 Q1012=
02-Aug-2023 SAID31 WAOC 022030 METAR WAOC 022030Z AUTO VRB01G01KT 27/26 Q1012=
02-Aug-2023 SAID31 WAOC 022100 METAR WAOC 022100Z AUTO VRB01G01KT 220V320 26/26 Q1012=
02-Aug-2023 SAID31 WAOC 022130 METAR WAOC 022130Z AUTO VRB02G01KT 27/27 Q1013=
02-Aug-2023 SAID31 WAOC 022200 METAR WAOC 022200Z AUTO VRB01G01KT 28/28 Q1013=
02-Aug-2023 SAID31 WAOC 022230 METAR WAOC 022230Z AUTO VRB01G01KT 27/27 Q1013=
02-Aug-2023 SAID31 WAOC 022300 METAR WAOC 022300Z AUTO VRB02G02KT 32/31 Q1013=
02-Aug-2023 SAID31 WAOC 022330 METAR WAOC 022330Z AUTO VRB02G02KT 30/29 Q1014=
03-Aug-2023 SAID31 WAOC 030000 METAR WAOC 030000Z AUTO VRB02G02KT 29/28 Q1014=
03-Aug-2023 SAID31 WAOC 030030 METAR WAOC 030030Z AUTO VRB01G01KT 33/30 Q1014=
03-Aug-2023 SAID31 WAOC 030100 METAR WAOC 030100Z AUTO VRB02G02KT 090V230 31/27 Q1014=
03-Aug-2023 SAID31 WAOC 030130 METAR WAOC 030130Z AUTO VRB03G03KT 100V230 32/26 Q1014=
03-Aug-2023 SAID31 WAOC 030200 METAR WAOC 030200Z AUTO VRB01G01KT 130V220 37/33 Q1014=
03-Aug-2023 SAID31 WAOC 030230 METAR WAOC 030230Z AUTO VRB03G03KT 100V260 36/31 Q1014=
03-Aug-2023 SAID31 WAOC 030300 METAR WAOC 030300Z AUTO VRB01G01KT 030V270 38/32 Q1013=
03-Aug-2023 SAID31 WAOC 030330 METAR WAOC 030330Z AUTO VRB01G01KT 350V270 31/24 Q1013=
03-Aug-2023 SAID31 WAOC 030400 METAR WAOC 030400Z AUTO VRB02G02KT 080V220 32/24 Q1012=
03-Aug-2023 SAID31 WAOC 030430 METAR WAOC 030430Z AUTO VRB02G02KT 110V270 32/23 Q1012=
03-Aug-2023 SAID31 WAOC 030500 METAR WAOC 030500Z AUTO VRB03G03KT 090V190 31/22 Q1012=
03-Aug-2023 SAID31 WAOC 030530 METAR WAOC 030530Z AUTO VRB02G02KT 080V170 31/22 Q1011=
03-Aug-2023 SAID31 WAOC 030600 METAR WAOC 030600Z AUTO VRB01G01KT 080V160 31/22 Q1011=
03-Aug-2023 SAID31 WAOC 030630 METAR WAOC 030630Z AUTO VRB01G01KT 100V200 32/23 Q1010=
03-Aug-2023 SAID31 WAOC 030700 METAR WAOC 030700Z AUTO 17004G02KT 090V220 32/23 Q1010=
03-Aug-2023 SAID31 WAOC 030730 METAR WAOC 030730Z AUTO 13004G04KT 100V170 32/23 Q1010=
03-Aug-2023 SAID31 WAOC 030800 METAR WAOC 030800Z AUTO VRB03G02KT 120V190 32/24 Q1010=
03-Aug-2023 SAID31 WAOC 030830 METAR WAOC 030830Z AUTO VRB03G03KT 120V220 39/33 Q1010=
03-Aug-2023 SAID31 WAOC 030900 METAR WAOC 030900Z AUTO VRB02G02KT 120V210 33/28 Q1010=
03-Aug-2023 SAID31 WAOC 030930 METAR WAOC 030930Z AUTO VRB01G01KT 32/27 Q1011=
03-Aug-2023 SAID31 WAOC 031000 METAR WAOC 031000Z AUTO VRB02G02KT 110V180 32/26 Q1011=
03-Aug-2023 SAID31 WAOC 031030 METAR WAOC 031030Z AUTO VRB02G02KT 31/26 Q1011=
03-Aug-2023 SAID31 WAOC 031100 METAR WAOC 031100Z AUTO VRB01G01KT 100V170 30/26 Q1012=
03-Aug-2023 SAID31 WAOC 031130 METAR WAOC 031130Z AUTO VRB02G02KT 30/26 Q1012=
03-Aug-2023 SAID31 WAOC 031200 METAR WAOC 031200Z AUTO VRB01G01KT 29/26 Q1012=
03-Aug-2023 SAID31 WAOC 031230 METAR WAOC 031230Z AUTO VRB02G02KT 100V190 29/26 Q1013=
03-Aug-2023 SAID31 WAOC 031300 METAR WAOC 031300Z AUTO VRB02G02KT 090V220 29/26 Q1014=
03-Aug-2023 SAID31 WAOC 031330 METAR WAOC 031330Z AUTO VRB02G01KT 120V190 29/26 Q1014=
03-Aug-2023 SAID31 WAOC 031400 METAR WAOC 031400Z AUTO 15004G04KT 29/26 Q1014=
03-Aug-2023 SAID31 WAOC 031430 METAR WAOC 031430Z AUTO VRB02G02KT 090V210 29/26 Q1014=
03-Aug-2023 SAID31 WAOC 031500 METAR WAOC 031500Z AUTO VRB01G01KT 090V170 28/26 Q1014=
03-Aug-2023 SAID31 WAOC 031530 METAR WAOC 031530Z AUTO 15004G04KT 120V200 28/26 Q1014=
03-Aug-2023 SAID31 WAOC 031600 METAR WAOC 031600Z AUTO VRB01G01KT 130V210 29/26 Q1014=
03-Aug-2023 SAID31 WAOC 031630 METAR WAOC 031630Z AUTO 00000G00KT 090V020 28/26 Q1014=
03-Aug-2023 SAID31 WAOC 031700 METAR WAOC 031700Z AUTO 00000G00KT 120V220 28/26 Q1014=
03-Aug-2023 SAID31 WAOC 031730 METAR WAOC 031730Z AUTO VRB01G00KT 28/26 Q1014=
03-Aug-2023 SAID31 WAOC 031800 METAR WAOC 031800Z AUTO VRB01G01KT 240V310 27/26 Q1014=
03-Aug-2023 SAID31 WAOC 031830 METAR WAOC 031830Z AUTO VRB01G01KT 26/25 Q1014=
03-Aug-2023 SAID31 WAOC 031900 METAR WAOC 031900Z AUTO VRB02G01KT 26/25 Q1014=
03-Aug-2023 SAID31 WAOC 031930 METAR WAOC 031930Z AUTO VRB02G02KT 25/25 Q1013=
03-Aug-2023 SAID31 WAOC 032000 METAR WAOC 032000Z AUTO VRB02G02KT 25/25 Q1013=
03-Aug-2023 SAID31 WAOC 032030 METAR WAOC 032030Z AUTO VRB02G02KT 25/24 Q1014=
03-Aug-2023 SAID31 WAOC 032100 METAR WAOC 032100Z AUTO VRB02G02KT 25/24 Q1014=
03-Aug-2023 SAID31 WAOC 032130 METAR WAOC 032130Z AUTO VRB01G01KT 25/24 Q1014=
03-Aug-2023 SAID31 WAOC 032200 METAR WAOC 032200Z AUTO VRB02G02KT 25/24 Q1014=
03-Aug-2023 SAID31 WAOC 032230 METAR WAOC 032230Z AUTO VRB02G02KT 26/25 Q1015=
03-Aug-2023 SAID31 WAOC 032300 METAR WAOC 032300Z AUTO VRB02G02KT 26/26 Q1015=
03-Aug-2023 SAID31 WAOC 032330 METAR WAOC 032330Z AUTO VRB02G02KT Q1015=
04-Aug-2023 SAID31 WAOC 040000 METAR WAOC 040000Z AUTO VRB01G02KT 230V300 31/30 Q1016=
04-Aug-2023 SAID31 WAOC 040030 METAR WAOC 040030Z AUTO VRB03G03KT 30/28 Q1016=
04-Aug-2023 SAID31 WAOC 040100 METAR WAOC 040100Z AUTO VRB01G00KT 170V330 32/30 Q1016=
04-Aug-2023 SAID31 WAOC 040130 METAR WAOC 040130Z AUTO VRB02G02KT 37/34 Q1016=
04-Aug-2023 SAID31 WAOC 040200 METAR WAOC 040200Z AUTO VRB01G01KT 110V250 33/27 Q1015=
04-Aug-2023 SAID31 WAOC 040230 METAR WAOC 040230Z AUTO VRB03G03KT 140V270 32/25 Q1015=
04-Aug-2023 SAID31 WAOC 040300 METAR WAOC 040300Z AUTO VRB01G01KT 090V300 32/24 Q1015=
04-Aug-2023 SAID31 WAOC 040330 METAR WAOC 040330Z AUTO VRB03G03KT 32/25 Q1014=
04-Aug-2023 SAID31 WAOC 040400 METAR WAOC 040400Z AUTO 14004G04KT 31/24 Q1014=
04-Aug-2023 SAID31 WAOC 040430 METAR WAOC 040430Z AUTO 14004G04KT 31/23 Q1014=
04-Aug-2023 SAID31 WAOC 040500 METAR WAOC 040500Z AUTO VRB02G02KT 130V240 30/23 Q1013=
04-Aug-2023 SAID31 WAOC 040530 METAR WAOC 040530Z AUTO 20004G05KT 110V250 31/24 Q1013=
04-Aug-2023 SAID31 WAOC 040600 METAR WAOC 040600Z AUTO 23004G04KT 190V260 30/23 Q1012=
04-Aug-2023 SAID31 WAOC 040630 METAR WAOC 040630Z AUTO 20005G05KT 170V250 34/28 Q1012=
04-Aug-2023 SAID31 WAOC 040700 METAR WAOC 040700Z AUTO 23004G03KT 32/27 Q1012=
04-Aug-2023 SAID31 WAOC 040730 METAR WAOC 040730Z AUTO VRB02G02KT 220V300 31/27 Q1012=
04-Aug-2023 SAID31 WAOC 040800 METAR WAOC 040800Z AUTO VRB01G01KT 120V230 33/28 Q1012=
04-Aug-2023 SAID31 WAOC 040830 METAR WAOC 040830Z AUTO 14004G04KT 32/27 Q1012=
04-Aug-2023 SAID31 WAOC 040900 METAR WAOC 040900Z AUTO 11004G04KT 32/28 Q1012=
04-Aug-2023 SAID31 WAOC 040930 METAR WAOC 040930Z AUTO VRB03G04KT 32/28 Q1012=
04-Aug-2023 SAID31 WAOC 041000 METAR WAOC 041000Z AUTO VRB03G03KT 31/27 Q1012=
04-Aug-2023 SAID31 WAOC 041030 METAR WAOC 041030Z AUTO VRB02G02KT 100V170 31/27 Q1013=
04-Aug-2023 SAID31 WAOC 041100 METAR WAOC 041100Z AUTO VRB02G02KT 120V220 30/27 Q1013=
04-Aug-2023 SAID31 WAOC 041130 METAR WAOC 041130Z AUTO VRB02G02KT 30/27 Q1013=
04-Aug-2023 SAID31 WAOC 041200 METAR WAOC 041200Z AUTO VRB03G03KT 100V200 30/27 Q1014=
04-Aug-2023 SAID31 WAOC 041230 METAR WAOC 041230Z AUTO VRB01G01KT 060V150 29/26 Q1014=
04-Aug-2023 SAID31 WAOC 041300 METAR WAOC 041300Z AUTO VRB02G02KT 090V210 29/27 Q1014=
04-Aug-2023 SAID31 WAOC 041330 METAR WAOC 041330Z AUTO VRB03G03KT 120V200 29/26 Q1015=
04-Aug-2023 SAID31 WAOC 041400 METAR WAOC 041400Z AUTO VRB03G03KT 100V190 29/27 Q1015=
04-Aug-2023 SAID31 WAOC 041430 METAR WAOC 041430Z AUTO VRB01G01KT 120V230 29/27 Q1015=
04-Aug-2023 SAID31 WAOC 041500 METAR WAOC 041500Z AUTO VRB02G02KT 100V170 29/26 Q1015=
04-Aug-2023 SAID31 WAOC 041530 METAR WAOC 041530Z AUTO VRB01G01KT 110V190 29/26 Q1015=
04-Aug-2023 SAID31 WAOC 041600 METAR WAOC 041600Z AUTO VRB03G03KT 150V250 29/27 Q1015=
04-Aug-2023 SAID31 WAOC 041630 METAR WAOC 041630Z AUTO VRB02G02KT 120V190 29/27 Q1014=
04-Aug-2023 SAID31 WAOC 041700 METAR WAOC 041700Z AUTO VRB01G01KT 110V180 28/26 Q1014=
04-Aug-2023 SAID31 WAOC 041730 METAR WAOC 041730Z AUTO VRB03G03KT 100V190 28/26 Q1014=
04-Aug-2023 SAID31 WAOC 041800 METAR WAOC 041800Z AUTO VRB03G03KT 110V200 28/26 Q1014=
04-Aug-2023 SAID31 WAOC 041830 METAR WAOC 041830Z AUTO VRB02G02KT 28/26 Q1014=
04-Aug-2023 SAID31 WAOC 041900 METAR WAOC 041900Z AUTO 14005G05KT 120V220 28/26 Q1013=
04-Aug-2023 SAID31 WAOC 041930 METAR WAOC 041930Z AUTO VRB02G02KT 110V210 28/26 Q1013=
04-Aug-2023 SAID31 WAOC 042000 METAR WAOC 042000Z AUTO VRB01G01KT 120V190 28/26 Q1013=
04-Aug-2023 SAID31 WAOC 042030 METAR WAOC 042030Z AUTO VRB02G02KT 120V220 28/26 Q1014=
04-Aug-2023 SAID31 WAOC 042100 METAR WAOC 042100Z AUTO VRB01G01KT 220V300 28/26 Q1014=
04-Aug-2023 SAID31 WAOC 042130 METAR WAOC 042130Z AUTO VRB01G01KT 150V240 28/26 Q1013=
04-Aug-2023 SAID31 WAOC 042200 METAR WAOC 042200Z AUTO VRB01G01KT 170V310 28/26 Q1013=
04-Aug-2023 SAID31 WAOC 042230 METAR WAOC 042230Z AUTO VRB01G02KT 090V240 28/27 Q1014=
04-Aug-2023 SAID31 WAOC 042300 METAR WAOC 042300Z AUTO VRB03G03KT 100V240 29/26 Q1014=
04-Aug-2023 SAID31 WAOC 042330 METAR WAOC 042330Z AUTO VRB02G02KT 120V210 31/28 Q1014=
05-Aug-2023 SAID31 WAOC 050000 METAR WAOC 050000Z AUTO VRB02G02KT 100V190 31/28 Q1015=
05-Aug-2023 SAID31 WAOC 050030 METAR WAOC 050030Z AUTO VRB03G03KT 100V190 30/26 Q1015=
05-Aug-2023 SAID31 WAOC 050100 METAR WAOC 050100Z AUTO VRB03G03KT 100V200 30/27 Q1015=
05-Aug-2023 SAID31 WAOC 050130 METAR WAOC 050130Z AUTO VRB03G03KT 080V190 36/32 Q1015=
05-Aug-2023 SAID31 WAOC 050200 METAR WAOC 050200Z AUTO VRB03G03KT 32/26 Q1015=
05-Aug-2023 SAID31 WAOC 050230 METAR WAOC 050230Z AUTO VRB03G03KT 30/25 Q1014=
05-Aug-2023 SAID31 WAOC 050300 METAR WAOC 050300Z AUTO VRB02G02KT 100V210 33/27 Q1014=
05-Aug-2023 SAID31 WAOC 050330 METAR WAOC 050330Z AUTO 15004G04KT 090V160 33/27 Q1013=
05-Aug-2023 SAID31 WAOC 050400 METAR WAOC 050400Z AUTO 12006G06KT 100V180 31/24 Q1013=
05-Aug-2023 SAID31 WAOC 050430 METAR WAOC 050430Z AUTO 11006G06KT 30/25 Q1013=
05-Aug-2023 SAID31 WAOC 050500 METAR WAOC 050500Z AUTO VRB03G03KT 31/26 Q1012=
05-Aug-2023 SAID31 WAOC 050530 METAR WAOC 050530Z AUTO 10005G05KT 32/27 Q1012=
05-Aug-2023 SAID31 WAOC 050600 METAR WAOC 050600Z AUTO VRB02G02KT 32/30 Q1012=
05-Aug-2023 SAID31 WAOC 050630 METAR WAOC 050630Z AUTO 09004G04KT 060V130 32/28 Q1011=
05-Aug-2023 SAID31 WAOC 050700 METAR WAOC 050700Z AUTO VRB03G03KT 100V190 29/26 Q1011=
05-Aug-2023 SAID31 WAOC 050730 METAR WAOC 050730Z AUTO VRB02G02KT 080V180 31/29 Q1011=
05-Aug-2023 SAID31 WAOC 050800 METAR WAOC 050800Z AUTO VRB02G02KT 090V230 30/26 Q1011=
05-Aug-2023 SAID31 WAOC 050830 METAR WAOC 050830Z AUTO VRB03G03KT 27/26 Q1011=
05-Aug-2023 SAID31 WAOC 050900 METAR WAOC 050900Z AUTO VRB02G02KT 28/27 Q1011=
05-Aug-2023 SAID31 WAOC 050930 METAR WAOC 050930Z AUTO VRB02G01KT 270V110 27/26 Q1011=
05-Aug-2023 SAID31 WAOC 051000 METAR WAOC 051000Z AUTO VRB03G03KT 27/26 Q1011=
05-Aug-2023 SAID31 WAOC 051030 METAR WAOC 051030Z AUTO VRB02G02KT 27/26 Q1012=
05-Aug-2023 SAID31 WAOC 051100 METAR WAOC 051100Z AUTO VRB03G03KT 27/27 Q1012=
05-Aug-2023 SAID31 WAOC 051130 METAR WAOC 051130Z AUTO VRB03G03KT 26/26 Q1013=
05-Aug-2023 SAID31 WAOC 051200 METAR WAOC 051200Z AUTO VRB02G02KT 27/27 Q1013=
05-Aug-2023 SAID31 WAOC 051230 METAR WAOC 051230Z AUTO VRB02G02KT 27/27 Q1013=
05-Aug-2023 SAID31 WAOC 051300 METAR WAOC 051300Z AUTO VRB02G02KT 27/26 Q1013=
05-Aug-2023 SAID31 WAOC 051330 METAR WAOC 051330Z AUTO VRB01G01KT 170V300 27/26 Q1013=
05-Aug-2023 SAID31 WAOC 051400 METAR WAOC 051400Z AUTO VRB02G02KT 220V290 27/26 Q1014=
05-Aug-2023 SAID31 WAOC 051430 METAR WAOC 051430Z AUTO VRB03G03KT 27/27 Q1013=
05-Aug-2023 SAID31 WAOC 051500 METAR WAOC 051500Z AUTO VRB01G01KT 200V290 26/26 Q1013=
05-Aug-2023 SAID31 WAOC 051530 METAR WAOC 051530Z AUTO VRB03G03KT 27/26 Q1013=
05-Aug-2023 SAID31 WAOC 051600 METAR WAOC 051600Z AUTO VRB01G01KT 180V300 26/26 Q1013=
05-Aug-2023 SAID31 WAOC 051630 METAR WAOC 051630Z AUTO VRB01G01KT 220V290 26/26 Q1013=
05-Aug-2023 SAID31 WAOC 051700 METAR WAOC 051700Z AUTO VRB02G02KT 26/26 Q1013=
05-Aug-2023 SAID31 WAOC 051730 METAR WAOC 051730Z AUTO VRB02G02KT 27/27 Q1013=
05-Aug-2023 SAID31 WAOC 051800 METAR WAOC 051800Z AUTO VRB02G02KT 28/28 Q1013=
05-Aug-2023 SAID31 WAOC 051830 METAR WAOC 051830Z AUTO VRB02G02KT 230V300 28/28 Q1013=
05-Aug-2023 SAID31 WAOC 051900 METAR WAOC 051900Z AUTO VRB02G02KT 29/29 Q1012=
05-Aug-2023 SAID31 WAOC 051930 METAR WAOC 051930Z AUTO VRB02G02KT 28/28 Q1012=
05-Aug-2023 SAID31 WAOC 052000 METAR WAOC 052000Z AUTO VRB01G01KT 190V300 30/31 Q1012=
05-Aug-2023 SAID31 WAOC 052030 METAR WAOC 052030Z AUTO VRB02G02KT 210V290 29/29 Q1012=
05-Aug-2023 SAID31 WAOC 052100 METAR WAOC 052100Z AUTO VRB01G01KT 29/29 Q1012=
05-Aug-2023 SAID31 WAOC 052130 METAR WAOC 052130Z AUTO VRB01G01KT 29/29 Q1012=
05-Aug-2023 SAID31 WAOC 052200 METAR WAOC 052200Z AUTO VRB02G02KT 29/29 Q1013=
05-Aug-2023 SAID31 WAOC 052230 METAR WAOC 052230Z AUTO VRB03G03KT 30/30 Q1013=
05-Aug-2023 SAID31 WAOC 052330 METAR WAOC 052330Z AUTO VRB03G03KT 30/29 Q1013=
06-Aug-2023 SAID31 WAOC 060000 METAR WAOC 060000Z AUTO VRB02G02KT 32/32 Q1013=
06-Aug-2023 SAID31 WAOC 060030 METAR WAOC 060030Z AUTO VRB01G01KT 32/31 Q1014=
06-Aug-2023 SAID31 WAOC 060100 METAR WAOC 060100Z AUTO VRB01G01KT 160V230 30/27 Q1013=
06-Aug-2023 SAID31 WAOC 060130 METAR WAOC 060130Z AUTO VRB02G02KT 110V240 34/31 Q1013=
06-Aug-2023 SAID31 WAOC 060200 METAR WAOC 060200Z AUTO VRB01G01KT 080V220 36/32 Q1013=
06-Aug-2023 SAID31 WAOC 060230 METAR WAOC 060230Z AUTO VRB03G02KT 120V230 33/27 Q1013=
06-Aug-2023 SAID31 WAOC 060300 METAR WAOC 060300Z AUTO VRB01G02KT 180V090 31/25 Q1012=
06-Aug-2023 SAID31 WAOC 060330 METAR WAOC 060330Z AUTO VRB03G03KT 060V160 32/24 Q1012=
06-Aug-2023 SAID31 WAOC 060400 METAR WAOC 060400Z AUTO VRB02G03KT 040V170 33/25 Q1011=
06-Aug-2023 SAID31 WAOC 060430 METAR WAOC 060430Z AUTO VRB02G03KT 060V150 33/25 Q1011=
06-Aug-2023 SAID31 WAOC 060500 METAR WAOC 060500Z AUTO VRB03G03KT 33/24 Q1010=
06-Aug-2023 SAID31 WAOC 060530 METAR WAOC 060530Z AUTO VRB02G02KT 34/26 Q1010=
06-Aug-2023 SAID31 WAOC 060600 METAR WAOC 060600Z AUTO 12004G04KT 060V180 34/26 Q1009=
06-Aug-2023 SAID31 WAOC 060630 METAR WAOC 060630Z AUTO 14005G05KT 110V200 34/27 Q1009=
06-Aug-2023 SAID31 WAOC 060700 METAR WAOC 060700Z AUTO VRB02G02KT 090V180 37/33 Q1009=
06-Aug-2023 SAID31 WAOC 060730 METAR WAOC 060730Z AUTO VRB02G02KT 100V190 35/31 Q1009=
06-Aug-2023 SAID31 WAOC 060800 METAR WAOC 060800Z AUTO VRB03G03KT 100V290 36/32 Q1009=
06-Aug-2023 SAID31 WAOC 060830 METAR WAOC 060830Z AUTO VRB02G02KT 090V160 36/31 Q1009=
06-Aug-2023 SAID31 WAOC 060900 METAR WAOC 060900Z AUTO VRB02G02KT 210V330 37/36 Q1009=
06-Aug-2023 SAID31 WAOC 060930 METAR WAOC 060930Z AUTO VRB01G01KT 050V260 30/28 Q1009=
06-Aug-2023 SAID31 WAOC 061000 METAR WAOC 061000Z AUTO VRB03G03KT 110V190 39/36 Q1010=
06-Aug-2023 SAID31 WAOC 061030 METAR WAOC 061030Z AUTO VRB02G02KT 110V200 41/38 Q1010=
06-Aug-2023 SAID31 WAOC 061100 METAR WAOC 061100Z AUTO 16004G04KT 120V230 29/26 Q1011=
06-Aug-2023 SAID31 WAOC 061130 METAR WAOC 061130Z AUTO VRB03G03KT 140V230 29/26 Q1011=
06-Aug-2023 SAID31 WAOC 061200 METAR WAOC 061200Z AUTO VRB02G02KT 120V190 28/25 Q1011=
06-Aug-2023 SAID31 WAOC 061230 METAR WAOC 061230Z AUTO VRB02G03KT 28/25 Q1012=
06-Aug-2023 SAID31 WAOC 061300 METAR WAOC 061300Z AUTO VRB03G03KT 110V210 28/25 Q1011=
06-Aug-2023 SAID31 WAOC 061330 METAR WAOC 061330Z AUTO VRB03G03KT 28/25 Q1012=
06-Aug-2023 SAID31 WAOC 061400 METAR WAOC 061400Z AUTO VRB01G01KT 28/26 Q1012=
06-Aug-2023 SAID31 WAOC 061430 METAR WAOC 061430Z AUTO VRB01G01KT 040V230 28/26 Q1012=
06-Aug-2023 SAID31 WAOC 061500 METAR WAOC 061500Z AUTO VRB02G02KT 28/25 Q1012=
06-Aug-2023 SAID31 WAOC 061530 METAR WAOC 061530Z AUTO VRB01G01KT 110V230 28/25 Q1012=
06-Aug-2023 SAID31 WAOC 061600 METAR WAOC 061600Z AUTO VRB01G01KT 130V230 28/25 Q1012=
06-Aug-2023 SAID31 WAOC 061630 METAR WAOC 061630Z AUTO VRB02G02KT 110V220 27/24 Q1012=
06-Aug-2023 SAID31 WAOC 061700 METAR WAOC 061700Z AUTO VRB02G02KT 100V210 27/24 Q1012=
06-Aug-2023 SAID31 WAOC 061730 METAR WAOC 061730Z AUTO VRB01G01KT 100V230 27/24 Q1012=
06-Aug-2023 SAID31 WAOC 061800 METAR WAOC 061800Z AUTO VRB02G02KT 110V230 27/24 Q1012=
06-Aug-2023 SAID31 WAOC 061830 METAR WAOC 061830Z AUTO VRB02G02KT 100V210 27/25 Q1011=
06-Aug-2023 SAID31 WAOC 061900 METAR WAOC 061900Z AUTO VRB02G02KT 120V210 27/24 Q1011=
06-Aug-2023 SAID31 WAOC 061930 METAR WAOC 061930Z AUTO VRB02G02KT 27/25 Q1011=
06-Aug-2023 SAID31 WAOC 062000 METAR WAOC 062000Z AUTO VRB02G02KT 100V170 27/25 Q1012=
06-Aug-2023 SAID31 WAOC 062030 METAR WAOC 062030Z AUTO VRB01G01KT 090V230 27/25 Q1012=
06-Aug-2023 SAID31 WAOC 062100 METAR WAOC 062100Z AUTO VRB02G02KT 26/25 Q1012=
06-Aug-2023 SAID31 WAOC 062130 METAR WAOC 062130Z AUTO VRB01G01KT 230V300 25/25 Q1012=
06-Aug-2023 SAID31 WAOC 062200 METAR WAOC 062200Z AUTO VRB01G01KT 25/24 Q1012=
06-Aug-2023 SAID31 WAOC 062230 METAR WAOC 062230Z AUTO VRB02G02KT 25/24 Q1012=
06-Aug-2023 SAID31 WAOC 062300 METAR WAOC 062300Z AUTO VRB01G01KT 26/24 Q1013=
06-Aug-2023 SAID31 WAOC 062330 METAR WAOC 062330Z AUTO VRB02G02KT 200V280 30/28 Q1012=
07-Aug-2023 SAID31 WAOC 070000 METAR WAOC 070000Z AUTO 17004G04KT 160V260 32/28 Q1013=
07-Aug-2023 SAID31 WAOC 070030 METAR WAOC 070030Z AUTO VRB03G02KT 31/26 Q1013=
07-Aug-2023 SAID31 WAOC 070100 METAR WAOC 070100Z AUTO VRB03G03KT 080V250 36/32 Q1013=
07-Aug-2023 SAID31 WAOC 070130 METAR WAOC 070130Z AUTO VRB02G02KT 070V140 31/26 Q1013=
07-Aug-2023 SAID31 WAOC 070200 METAR WAOC 070200Z AUTO VRB03G03KT 32/26 Q1013=
07-Aug-2023 SAID31 WAOC 070230 METAR WAOC 070230Z AUTO 14004G04KT 33/25 Q1013=
07-Aug-2023 SAID31 WAOC 070300 METAR WAOC 070300Z AUTO VRB03G03KT 31/19 Q1013=
07-Aug-2023 SAID31 WAOC 070330 METAR WAOC 070330Z AUTO VRB02G02KT 090V160 32/19 Q1012=
07-Aug-2023 SAID31 WAOC 070400 METAR WAOC 070400Z AUTO 13004G05KT 32/18 Q1012=
07-Aug-2023 SAID31 WAOC 070430 METAR WAOC 070430Z AUTO 12005G05KT 32/19 Q1011=
07-Aug-2023 SAID31 WAOC 070500 METAR WAOC 070500Z AUTO VRB03G03KT 110V190 31/18 Q1011=
07-Aug-2023 SAID31 WAOC 070530 METAR WAOC 070530Z AUTO VRB03G02KT 110V190 30/19 Q1011=
07-Aug-2023 SAID31 WAOC 070600 METAR WAOC 070600Z AUTO 12006G04KT 090V180 32/19 Q1010=
07-Aug-2023 SAID31 WAOC 070630 METAR WAOC 070630Z AUTO VRB03G03KT 110V200 31/18 Q1009=
07-Aug-2023 SAID31 WAOC 070700 METAR WAOC 070700Z AUTO 14006G06KT 100V190 31/18 Q1009=
07-Aug-2023 SAID31 WAOC 070730 METAR WAOC 070730Z AUTO VRB03G03KT 110V200 30/18 Q1009=
07-Aug-2023 SAID31 WAOC 070800 METAR WAOC 070800Z AUTO VRB02G02KT 33/21 Q1009=
07-Aug-2023 SAID31 WAOC 070830 METAR WAOC 070830Z AUTO VRB02G04KT 090V160 35/23 Q1009=
07-Aug-2023 SAID31 WAOC 070900 METAR WAOC 070900Z AUTO 14005G05KT 120V220 31/19 Q1009=
07-Aug-2023 SAID31 WAOC 070930 METAR WAOC 070930Z AUTO VRB03G04KT 30/20 Q1010=
07-Aug-2023 SAID31 WAOC 071000 METAR WAOC 071000Z AUTO VRB03G03KT 100V190 33/24 Q1010=
07-Aug-2023 SAID31 WAOC 071030 METAR WAOC 071030Z AUTO VRB02G02KT 100V170 31/23 Q1010=
07-Aug-2023 SAID31 WAOC 071100 METAR WAOC 071100Z AUTO VRB02G02KT 110V180 31/24 Q1010=
07-Aug-2023 SAID31 WAOC 071130 METAR WAOC 071130Z AUTO VRB03G03KT 100V170 30/24 Q1011=
07-Aug-2023 SAID31 WAOC 071200 METAR WAOC 071200Z AUTO VRB02G02KT 110V210 30/25 Q1011=
07-Aug-2023 SAID31 WAOC 071230 METAR WAOC 071230Z AUTO VRB03G03KT 110V190 29/25 Q1011=
07-Aug-2023 SAID31 WAOC 071300 METAR WAOC 071300Z AUTO VRB01G01KT 30/26 Q1012=
07-Aug-2023 SAID31 WAOC 071330 METAR WAOC 071330Z AUTO VRB01G01KT 180V250 30/26 Q1012=
07-Aug-2023 SAID31 WAOC 071400 METAR WAOC 071400Z AUTO VRB02G02KT 28/26 Q1012=
07-Aug-2023 SAID31 WAOC 071430 METAR WAOC 071430Z AUTO VRB01G01KT 28/26 Q1012=
07-Aug-2023 SAID31 WAOC 071500 METAR WAOC 071500Z AUTO VRB01G01KT 28/26 Q1012=
07-Aug-2023 SAID31 WAOC 071530 METAR WAOC 071530Z AUTO VRB02G02KT 29/27 Q1012=
07-Aug-2023 SAID31 WAOC 071600 METAR WAOC 071600Z AUTO VRB03G03KT 29/27 Q1012=
07-Aug-2023 SAID31 WAOC 071630 METAR WAOC 071630Z AUTO VRB01G01KT 180V300 29/28 Q1012=
07-Aug-2023 SAID31 WAOC 071700 METAR WAOC 071700Z AUTO VRB02G02KT 31/31 Q1012=
07-Aug-2023 SAID31 WAOC 071730 METAR WAOC 071730Z AUTO VRB02G02KT 32/32 Q1012=
07-Aug-2023 SAID31 WAOC 071800 METAR WAOC 071800Z AUTO VRB01G01KT 31/30 Q1012=
07-Aug-2023 SAID31 WAOC 071830 METAR WAOC 071830Z AUTO VRB02G02KT 29/28 Q1012=
07-Aug-2023 SAID31 WAOC 071900 METAR WAOC 071900Z AUTO VRB01G01KT 210V320 31/31 Q1012=
07-Aug-2023 SAID31 WAOC 071930 METAR WAOC 071930Z AUTO VRB01G01KT 31/31 Q1012=
07-Aug-2023 SAID31 WAOC 072000 METAR WAOC 072000Z AUTO VRB01G01KT 210V280 31/30 Q1012=
07-Aug-2023 SAID31 WAOC 072030 METAR WAOC 072030Z AUTO VRB01G01KT 190V290 30/29 Q1012=
07-Aug-2023 SAID31 WAOC 072100 METAR WAOC 072100Z AUTO VRB01G01KT 29/29 Q1012=
07-Aug-2023 SAID31 WAOC 072130 METAR WAOC 072130Z AUTO VRB02G02KT 32/33 Q1012=
07-Aug-2023 SAID31 WAOC 072200 METAR WAOC 072200Z AUTO VRB03G03KT Q1012=
07-Aug-2023 SAID31 WAOC 072230 METAR WAOC 072230Z AUTO VRB02G02KT Q1013=
07-Aug-2023 SAID31 WAOC 072300 METAR WAOC 072300Z AUTO VRB02G02KT Q1013=
07-Aug-2023 SAID31 WAOC 072330 METAR WAOC 072330Z AUTO VRB02G02KT 150V290 28/25 Q1013=
08-Aug-2023 SAID31 WAOC 080000 METAR WAOC 080000Z AUTO VRB01G01KT 230V340 29/25 Q1013=
08-Aug-2023 SAID31 WAOC 080030 METAR WAOC 080030Z AUTO VRB02G02KT 220V310 28/23 Q1014=
08-Aug-2023 SAID31 WAOC 080100 METAR WAOC 080100Z AUTO VRB02G02KT 340V250 30/25 Q1014=
08-Aug-2023 SAID31 WAOC 080130 METAR WAOC 080130Z AUTO VRB02G02KT 090V210 32/27 Q1013=
08-Aug-2023 SAID31 WAOC 080200 METAR WAOC 080200Z AUTO VRB03G03KT 130V230 33/27 Q1013=
08-Aug-2023 SAID31 WAOC 080230 METAR WAOC 080230Z AUTO VRB03G03KT 100V220 34/29 Q1013=
08-Aug-2023 SAID31 WAOC 080300 METAR WAOC 080300Z AUTO VRB02G03KT 140V220 38/31 Q1013=
08-Aug-2023 SAID31 WAOC 080330 METAR WAOC 080330Z AUTO VRB03G03KT 080V240 38/31 Q1012=
08-Aug-2023 SAID31 WAOC 080400 METAR WAOC 080400Z AUTO VRB02G03KT 120V220 36/28 Q1012=
08-Aug-2023 SAID31 WAOC 080430 METAR WAOC 080430Z AUTO VRB01G01KT 090V160 42/35 Q1011=
08-Aug-2023 SAID31 WAOC 080500 METAR WAOC 080500Z AUTO 14004G04KT 080V220 33/23 Q1011=
08-Aug-2023 SAID31 WAOC 080530 METAR WAOC 080530Z AUTO 13004G04KT 110V180 35/25 Q1011=
08-Aug-2023 SAID31 WAOC 080600 METAR WAOC 080600Z AUTO VRB03G03KT 33/21 Q1010=
08-Aug-2023 SAID31 WAOC 080630 METAR WAOC 080630Z AUTO VRB03G03KT 120V210 32/21 Q1010=
08-Aug-2023 SAID31 WAOC 080700 METAR WAOC 080700Z AUTO 18006G06KT 120V220 36/26 Q1010=
08-Aug-2023 SAID31 WAOC 080730 METAR WAOC 080730Z AUTO 15004G04KT 120V210 35/25 Q1010=
08-Aug-2023 SAID31 WAOC 080800 METAR WAOC 080800Z AUTO 16005G05KT 130V210 35/27 Q1010=
08-Aug-2023 SAID31 WAOC 080830 METAR WAOC 080830Z AUTO VRB03G05KT 100V190 36/27 Q1010=
08-Aug-2023 SAID31 WAOC 080900 METAR WAOC 080900Z AUTO 13004G04KT 33/26 Q1010=
08-Aug-2023 SAID31 WAOC 080930 METAR WAOC 080930Z AUTO 13005G05KT 100V170 30/22 Q1010=
08-Aug-2023 SAID31 WAOC 081000 METAR WAOC 081000Z AUTO VRB01G01KT 29/23 Q1010=
08-Aug-2023 SAID31 WAOC 081030 METAR WAOC 081030Z AUTO VRB03G03KT 32/27 Q1010=
08-Aug-2023 SAID31 WAOC 081100 METAR WAOC 081100Z AUTO VRB02G02KT 35/31 Q1011=
08-Aug-2023 SAID31 WAOC 081130 METAR WAOC 081130Z AUTO VRB03G03KT 100V170 33/29 Q1011=
08-Aug-2023 SAID31 WAOC 081200 METAR WAOC 081200Z AUTO VRB02G02KT 110V190 32/29 Q1012=
08-Aug-2023 SAID31 WAOC 081230 METAR WAOC 081230Z AUTO VRB01G01KT 080V240 32/29 Q1012=
08-Aug-2023 SAID31 WAOC 081300 METAR WAOC 081300Z AUTO VRB01G01KT 120V220 32/29 Q1012=
08-Aug-2023 SAID31 WAOC 081330 METAR WAOC 081330Z AUTO VRB01G01KT 150V310 32/29 Q1013=
08-Aug-2023 SAID31 WAOC 081400 METAR WAOC 081400Z AUTO VRB01G01KT 32/30 Q1013=
08-Aug-2023 SAID31 WAOC 081430 METAR WAOC 081430Z AUTO VRB02G02KT 33/31 Q1013=
08-Aug-2023 SAID31 WAOC 081500 METAR WAOC 081500Z AUTO VRB01G01KT 140V250 32/31 Q1013=
08-Aug-2023 SAID31 WAOC 081530 METAR WAOC 081530Z AUTO VRB01G01KT 32/32 Q1013=
08-Aug-2023 SAID31 WAOC 081600 METAR WAOC 081600Z AUTO VRB01G01KT 33/33 Q1013=
08-Aug-2023 SAID31 WAOC 081630 METAR WAOC 081630Z AUTO VRB02G02KT 33/34 Q1012=
08-Aug-2023 SAID31 WAOC 081700 METAR WAOC 081700Z AUTO VRB02G02KT 33/33 Q1012=
08-Aug-2023 SAID31 WAOC 081730 METAR WAOC 081730Z AUTO VRB02G02KT 30/31 Q1012=
08-Aug-2023 SAID31 WAOC 081800 METAR WAOC 081800Z AUTO VRB02G02KT 30/30 Q1012=
08-Aug-2023 SAID31 WAOC 081830 METAR WAOC 081830Z AUTO VRB02G02KT 31/31 Q1012=
08-Aug-2023 SAID31 WAOC 081900 METAR WAOC 081900Z AUTO VRB02G02KT 31/31 Q1012=
08-Aug-2023 SAID31 WAOC 081930 METAR WAOC 081930Z AUTO VRB02G02KT 28/28 Q1012=
08-Aug-2023 SAID31 WAOC 082000 METAR WAOC 082000Z AUTO VRB02G02KT 28/28 Q1012=
08-Aug-2023 SAID31 WAOC 082030 METAR WAOC 082030Z AUTO VRB02G02KT 27/27 Q1012=
08-Aug-2023 SAID31 WAOC 082100 METAR WAOC 082100Z AUTO VRB02G02KT 210V300 28/27 Q1013=
08-Aug-2023 SAID31 WAOC 082130 METAR WAOC 082130Z AUTO VRB03G03KT 28/28 Q1013=
08-Aug-2023 SAID31 WAOC 082200 METAR WAOC 082200Z AUTO VRB02G02KT 27/27 Q1013=
08-Aug-2023 SAID31 WAOC 082230 METAR WAOC 082230Z AUTO VRB02G02KT 200V300 29/29 Q1013=
08-Aug-2023 SAID31 WAOC 082300 METAR WAOC 082300Z AUTO VRB01G01KT 26/25 Q1013=
08-Aug-2023 SAID31 WAOC 082330 METAR WAOC 082330Z AUTO VRB01G01KT 230V300 29/28 Q1014=
09-Aug-2023 SAID31 WAOC 090000 METAR WAOC 090000Z AUTO VRB02G02KT 230V300 27/25 Q1014=
09-Aug-2023 SAID31 WAOC 090030 METAR WAOC 090030Z AUTO VRB02G02KT 190V310 29/26 Q1014=
09-Aug-2023 SAID31 WAOC 090100 METAR WAOC 090100Z AUTO VRB02G01KT 170V280 30/25 Q1014=
09-Aug-2023 SAID31 WAOC 090130 METAR WAOC 090130Z AUTO VRB02G02KT 100V270 41/36 Q1014=
09-Aug-2023 SAID31 WAOC 090200 METAR WAOC 090200Z AUTO VRB02G02KT 100V180 39/36 Q1014=
09-Aug-2023 SAID31 WAOC 090230 METAR WAOC 090230Z AUTO VRB02G02KT 110V180 33/26 Q1014=
09-Aug-2023 SAID31 WAOC 090300 METAR WAOC 090300Z AUTO VRB03G03KT 110V220 36/29 Q1014=
09-Aug-2023 SAID31 WAOC 090330 METAR WAOC 090330Z AUTO 14005G05KT 100V170 35/26 Q1013=
09-Aug-2023 SAID31 WAOC 090400 METAR WAOC 090400Z AUTO VRB01G01KT 100V210 31/23 Q1013=
09-Aug-2023 SAID31 WAOC 090430 METAR WAOC 090430Z AUTO VRB03G03KT 130V220 31/22 Q1013=
09-Aug-2023 SAID31 WAOC 090500 METAR WAOC 090500Z AUTO VRB03G03KT 090V210 31/23 Q1012=
09-Aug-2023 SAID31 WAOC 090530 METAR WAOC 090530Z AUTO VRB03G03KT 160V260 30/24 Q1012=
09-Aug-2023 SAID31 WAOC 090600 METAR WAOC 090600Z AUTO VRB03G03KT 30/24 Q1012=
09-Aug-2023 SAID31 WAOC 090630 METAR WAOC 090630Z AUTO VRB03G03KT 180V270 36/30 Q1011=
09-Aug-2023 SAID31 WAOC 090700 METAR WAOC 090700Z AUTO 23004G03KT 160V230 31/24 Q1011=
09-Aug-2023 SAID31 WAOC 090730 METAR WAOC 090730Z AUTO VRB02G02KT 150V230 30/23 Q1011=
09-Aug-2023 SAID31 WAOC 090800 METAR WAOC 090800Z AUTO VRB02G02KT 140V220 31/25 Q1011=
09-Aug-2023 SAID31 WAOC 090830 METAR WAOC 090830Z AUTO VRB02G02KT 160V250 30/24 Q1011=
09-Aug-2023 SAID31 WAOC 090900 METAR WAOC 090900Z AUTO VRB02G02KT 130V230 31/24 Q1011=
09-Aug-2023 SAID31 WAOC 090930 METAR WAOC 090930Z AUTO VRB02G02KT 110V180 31/24 Q1011=
09-Aug-2023 SAID31 WAOC 091000 METAR WAOC 091000Z AUTO VRB01G01KT 120V220 36/30 Q1011=
09-Aug-2023 SAID31 WAOC 091030 METAR WAOC 091030Z AUTO VRB03G03KT 110V190 36/32 Q1011=
09-Aug-2023 SAID31 WAOC 091100 METAR WAOC 091100Z AUTO 15005G05KT 090V230 46/46 Q1012=
09-Aug-2023 SAID31 WAOC 091130 METAR WAOC 091130Z AUTO VRB03G03KT 110V180 29/25 Q1012=
09-Aug-2023 SAID31 WAOC 091200 METAR WAOC 091200Z AUTO VRB01G01KT 110V210 28/24 Q1013=
09-Aug-2023 SAID31 WAOC 091230 METAR WAOC 091230Z AUTO VRB01G01KT 130V210 28/24 Q1013=
09-Aug-2023 SAID31 WAOC 091300 METAR WAOC 091300Z AUTO VRB01G01KT 170V240 28/25 Q1013=
09-Aug-2023 SAID31 WAOC 091330 METAR WAOC 091330Z AUTO VRB01G01KT 170V250 28/25 Q1013=
09-Aug-2023 SAID31 WAOC 091400 METAR WAOC 091400Z AUTO VRB01G01KT 080V280 27/25 Q1014=
09-Aug-2023 SAID31 WAOC 091430 METAR WAOC 091430Z AUTO VRB01G01KT 27/25 Q1013=
09-Aug-2023 SAID31 WAOC 091500 METAR WAOC 091500Z AUTO VRB01G01KT 180V330 27/25 Q1013=
09-Aug-2023 SAID31 WAOC 091530 METAR WAOC 091530Z AUTO VRB01G01KT 26/25 Q1013=
09-Aug-2023 SAID31 WAOC 091600 METAR WAOC 091600Z AUTO VRB01G01KT 26/24 Q1013=
09-Aug-2023 SAID31 WAOC 091630 METAR WAOC 091630Z AUTO VRB01G02KT 25/24 Q1013=
09-Aug-2023 SAID31 WAOC 091700 METAR WAOC 091700Z AUTO VRB01G01KT 25/24 Q1013=
09-Aug-2023 SAID31 WAOC 091730 METAR WAOC 091730Z AUTO VRB01G01KT 25/24 Q1013=
09-Aug-2023 SAID31 WAOC 091800 METAR WAOC 091800Z AUTO VRB02G02KT 25/24 Q1012=
09-Aug-2023 SAID31 WAOC 091830 METAR WAOC 091830Z AUTO VRB02G02KT 25/24 Q1012=
09-Aug-2023 SAID31 WAOC 092000 METAR WAOC 092000Z AUTO VRB02G02KT 24/23 Q1012=
09-Aug-2023 SAID31 WAOC 092030 METAR WAOC 092030Z AUTO VRB01G01KT 200V300 24/23 Q1012=
09-Aug-2023 SAID31 WAOC 092100 METAR WAOC 092100Z AUTO VRB01G01KT 24/23 Q1012=
09-Aug-2023 SAID31 WAOC 092130 METAR WAOC 092130Z AUTO VRB02G02KT 23/23 Q1012=
09-Aug-2023 SAID31 WAOC 092200 METAR WAOC 092200Z AUTO VRB01G01KT 210V300 23/23 Q1012=
09-Aug-2023 SAID31 WAOC 092230 METAR WAOC 092230Z AUTO VRB01G01KT 210V310 24/24 Q1013=
09-Aug-2023 SAID31 WAOC 092300 METAR WAOC 092300Z AUTO VRB01G01KT 230V300 27/26 Q1013=
09-Aug-2023 SAID31 WAOC 092330 METAR WAOC 092330Z AUTO VRB02G02KT 210V300 28/26 Q1014=
10-Aug-2023 SAID31 WAOC 100000 METAR WAOC 100000Z AUTO VRB02G02KT 29/27 Q1014=
10-Aug-2023 SAID31 WAOC 100030 METAR WAOC 100030Z AUTO VRB02G02KT 200V270 30/27 Q1014=
10-Aug-2023 SAID31 WAOC 100100 METAR WAOC 100100Z AUTO VRB02G02KT 150V270 29/25 Q1014=
10-Aug-2023 SAID31 WAOC 100130 METAR WAOC 100130Z AUTO VRB02G02KT 110V240 31/25 Q1014=
10-Aug-2023 SAID31 WAOC 100200 METAR WAOC 100200Z AUTO VRB02G02KT 090V180 33/25 Q1014=
10-Aug-2023 SAID31 WAOC 100230 METAR WAOC 100230Z AUTO VRB03G03KT 120V220 36/28 Q1013=
10-Aug-2023 SAID31 WAOC 100300 METAR WAOC 100300Z AUTO VRB03G04KT 050V280 41/34 Q1013=
10-Aug-2023 SAID31 WAOC 100330 METAR WAOC 100330Z AUTO VRB02G02KT 130V250 46/41 Q1013=
10-Aug-2023 SAID31 WAOC 100400 METAR WAOC 100400Z AUTO VRB02G02KT 170V240 35/27 Q1012=
10-Aug-2023 SAID31 WAOC 100430 METAR WAOC 100430Z AUTO VRB02G02KT 080V240 35/25 Q1012=
10-Aug-2023 SAID31 WAOC 100500 METAR WAOC 100500Z AUTO VRB02G02KT 150V260 39/31 Q1011=
10-Aug-2023 SAID31 WAOC 100530 METAR WAOC 100530Z AUTO VRB03G03KT 130V330 31/22 Q1011=
10-Aug-2023 SAID31 WAOC 100600 METAR WAOC 100600Z AUTO VRB03G03KT 130V240 31/23 Q1010=
10-Aug-2023 SAID31 WAOC 100630 METAR WAOC 100630Z AUTO 19005G05KT 160V270 33/24 Q1010=
10-Aug-2023 SAID31 WAOC 100700 METAR WAOC 100700Z AUTO VRB03G03KT 190V260 33/26 Q1010=
10-Aug-2023 SAID31 WAOC 100730 METAR WAOC 100730Z AUTO 24005G05KT 190V260 32/25 Q1010=
10-Aug-2023 SAID31 WAOC 100800 METAR WAOC 100800Z AUTO 23004G04KT 160V260 33/26 Q1010=
10-Aug-2023 SAID31 WAOC 100830 METAR WAOC 100830Z AUTO 21006G06KT 180V280 30/23 Q1010=
10-Aug-2023 SAID31 WAOC 100900 METAR WAOC 100900Z AUTO VRB03G03KT 170V280 29/23 Q1010=
10-Aug-2023 SAID31 WAOC 100930 METAR WAOC 100930Z AUTO 20004G05KT 160V240 30/22 Q1010=
10-Aug-2023 SAID31 WAOC 101000 METAR WAOC 101000Z AUTO VRB02G02KT 120V200 29/22 Q1011=
10-Aug-2023 SAID31 WAOC 101030 METAR WAOC 101030Z AUTO 14004G04KT 110V190 28/22 Q1011=
10-Aug-2023 SAID31 WAOC 101100 METAR WAOC 101100Z AUTO VRB03G03KT 110V220 27/22 Q1011=
10-Aug-2023 SAID31 WAOC 101130 METAR WAOC 101130Z AUTO VRB03G02KT 27/22 Q1012=
10-Aug-2023 SAID31 WAOC 101200 METAR WAOC 101200Z AUTO VRB01G02KT 110V190 27/22 Q1012=
10-Aug-2023 SAID31 WAOC 101230 METAR WAOC 101230Z AUTO VRB03G03KT 100V210 27/22 Q1013=
10-Aug-2023 SAID31 WAOC 101300 METAR WAOC 101300Z AUTO 14004G04KT 120V220 26/22 Q1013=
10-Aug-2023 SAID31 WAOC 101330 METAR WAOC 101330Z AUTO VRB01G01KT 120V200 26/22 Q1013=
10-Aug-2023 SAID31 WAOC 101400 METAR WAOC 101400Z AUTO VRB02G02KT 140V220 26/22 Q1013=
10-Aug-2023 SAID31 WAOC 101430 METAR WAOC 101430Z AUTO VRB01G01KT 120V230 26/22 Q1013=
10-Aug-2023 SAID31 WAOC 101500 METAR WAOC 101500Z AUTO VRB03G03KT 150V230 26/22 Q1013=
10-Aug-2023 SAID31 WAOC 101530 METAR WAOC 101530Z AUTO VRB01G01KT 130V250 25/22 Q1013=
10-Aug-2023 SAID31 WAOC 101600 METAR WAOC 101600Z AUTO VRB01G01KT 25/22 Q1014=
10-Aug-2023 SAID31 WAOC 101630 METAR WAOC 101630Z AUTO VRB01G01KT 130V230 25/22 Q1013=
10-Aug-2023 SAID31 WAOC 101700 METAR WAOC 101700Z AUTO VRB02G02KT 25/22 Q1013=
10-Aug-2023 SAID31 WAOC 101730 METAR WAOC 101730Z AUTO VRB03G03KT 140V210 25/22 Q1013=
10-Aug-2023 SAID31 WAOC 101800 METAR WAOC 101800Z AUTO VRB02G02KT 120V220 25/22 Q1013=
10-Aug-2023 SAID31 WAOC 101830 METAR WAOC 101830Z AUTO VRB02G02KT 150V220 25/22 Q1012=
10-Aug-2023 SAID31 WAOC 101900 METAR WAOC 101900Z AUTO VRB01G01KT 180V290 24/22 Q1012=
10-Aug-2023 SAID31 WAOC 101930 METAR WAOC 101930Z AUTO VRB02G02KT 23/22 Q1012=
10-Aug-2023 SAID31 WAOC 102000 METAR WAOC 102000Z AUTO VRB02G02KT 23/22 Q1012=
10-Aug-2023 SAID31 WAOC 102030 METAR WAOC 102030Z AUTO VRB02G02KT 23/22 Q1012=
10-Aug-2023 SAID31 WAOC 102100 METAR WAOC 102100Z AUTO VRB01G01KT 23/22 Q1012=
10-Aug-2023 SAID31 WAOC 102130 METAR WAOC 102130Z AUTO VRB02G02KT 23/22 Q1013=
10-Aug-2023 SAID31 WAOC 102200 METAR WAOC 102200Z AUTO VRB02G02KT 22/21 Q1013=
10-Aug-2023 SAID31 WAOC 102230 METAR WAOC 102230Z AUTO VRB02G02KT 22/21 Q1013=
10-Aug-2023 SAID31 WAOC 102330 METAR WAOC 102330Z AUTO VRB02G02KT 24/22 Q1014=
11-Aug-2023 SAID31 WAOC 110000 METAR WAOC 110000Z AUTO VRB02G02KT 220V310 27/23 Q1014=
11-Aug-2023 SAID31 WAOC 110030 METAR WAOC 110030Z AUTO VRB01G01KT 140V260 28/25 Q1014=
11-Aug-2023 SAID31 WAOC 110100 METAR WAOC 110100Z AUTO VRB02G01KT 170V260 32/28 Q1014=
11-Aug-2023 SAID31 WAOC 110130 METAR WAOC 110130Z AUTO 15005G05KT 130V200 32/26 Q1013=
11-Aug-2023 SAID31 WAOC 110200 METAR WAOC 110200Z AUTO VRB03G03KT 120V220 34/27 Q1013=
11-Aug-2023 SAID31 WAOC 110230 METAR WAOC 110230Z AUTO VRB03G03KT 100V220 35/28 Q1013=
11-Aug-2023 SAID31 WAOC 110300 METAR WAOC 110300Z AUTO VRB02G01KT 120V260 35/28 Q1013=
11-Aug-2023 SAID31 WAOC 110330 METAR WAOC 110330Z AUTO VRB02G02KT 120V250 34/26 Q1013=
11-Aug-2023 SAID31 WAOC 110400 METAR WAOC 110400Z AUTO VRB03G02KT 120V250 34/23 Q1012=
11-Aug-2023 SAID31 WAOC 110430 METAR WAOC 110430Z AUTO 15004G04KT 130V240 34/25 Q1012=
11-Aug-2023 SAID31 WAOC 110500 METAR WAOC 110500Z AUTO VRB01G00KT 160V250 41/32 Q1011=
11-Aug-2023 SAID31 WAOC 110530 METAR WAOC 110530Z AUTO VRB02G02KT 130V270 37/27 Q1011=
11-Aug-2023 SAID31 WAOC 110600 METAR WAOC 110600Z AUTO VRB03G03KT 150V220 34/24 Q1010=
11-Aug-2023 SAID31 WAOC 110630 METAR WAOC 110630Z AUTO VRB02G02KT 130V250 39/31 Q1010=
11-Aug-2023 SAID31 WAOC 110700 METAR WAOC 110700Z AUTO VRB03G03KT 000V220 32/23 Q1009=
11-Aug-2023 SAID31 WAOC 110730 METAR WAOC 110730Z AUTO VRB03G03KT 130V220 29/21 Q1010=
11-Aug-2023 SAID31 WAOC 110800 METAR WAOC 110800Z AUTO VRB03G03KT 160V240 28/21 Q1010=
11-Aug-2023 SAID31 WAOC 110830 METAR WAOC 110830Z AUTO 21004G04KT 28/21 Q1010=
11-Aug-2023 SAID31 WAOC 110900 METAR WAOC 110900Z AUTO VRB02G02KT 28/21 Q1010=
11-Aug-2023 SAID31 WAOC 110930 METAR WAOC 110930Z AUTO VRB03G03KT 180V250 28/22 Q1010=
11-Aug-2023 SAID31 WAOC 111000 METAR WAOC 111000Z AUTO VRB02G02KT 170V250 27/22 Q1010=
11-Aug-2023 SAID31 WAOC 111030 METAR WAOC 111030Z AUTO VRB02G02KT 200V270 27/22 Q1011=
11-Aug-2023 SAID31 WAOC 111100 METAR WAOC 111100Z AUTO VRB01G01KT 170V250 26/22 Q1011=
11-Aug-2023 SAID31 WAOC 111130 METAR WAOC 111130Z AUTO VRB01G01KT 26/22 Q1011=
11-Aug-2023 SAID31 WAOC 111200 METAR WAOC 111200Z AUTO VRB01G02KT 26/21 Q1011=
11-Aug-2023 SAID31 WAOC 111230 METAR WAOC 111230Z AUTO VRB02G02KT 120V190 26/21 Q1012=
11-Aug-2023 SAID31 WAOC 111300 METAR WAOC 111300Z AUTO VRB01G01KT 150V220 26/22 Q1012=
11-Aug-2023 SAID31 WAOC 111330 METAR WAOC 111330Z AUTO VRB01G01KT 25/21 Q1012=
11-Aug-2023 SAID31 WAOC 111400 METAR WAOC 111400Z AUTO VRB02G02KT 25/22 Q1012=
11-Aug-2023 SAID31 WAOC 111430 METAR WAOC 111430Z AUTO VRB02G02KT 24/21 Q1012=
11-Aug-2023 SAID31 WAOC 111500 METAR WAOC 111500Z AUTO VRB01G01KT 150V300 23/22 Q1012=
11-Aug-2023 SAID31 WAOC 111530 METAR WAOC 111530Z AUTO VRB02G02KT 23/21 Q1012=
11-Aug-2023 SAID31 WAOC 111600 METAR WAOC 111600Z AUTO VRB02G02KT 23/21 Q1012=
11-Aug-2023 SAID31 WAOC 111630 METAR WAOC 111630Z AUTO VRB02G02KT 23/21 Q1012=
11-Aug-2023 SAID31 WAOC 111700 METAR WAOC 111700Z AUTO VRB03G01KT 23/21 Q1012=
11-Aug-2023 SAID31 WAOC 111730 METAR WAOC 111730Z AUTO VRB02G02KT 240V310 23/21 Q1012=
11-Aug-2023 SAID31 WAOC 111800 METAR WAOC 111800Z AUTO VRB01G01KT 23/21 Q1012=
11-Aug-2023 SAID31 WAOC 111830 METAR WAOC 111830Z AUTO VRB01G01KT 22/21 Q1011=
11-Aug-2023 SAID31 WAOC 111900 METAR WAOC 111900Z AUTO VRB02G02KT 22/21 Q1011=
11-Aug-2023 SAID31 WAOC 111930 METAR WAOC 111930Z AUTO VRB02G02KT 22/21 Q1011=
11-Aug-2023 SAID31 WAOC 112000 METAR WAOC 112000Z AUTO VRB02G02KT 22/21 Q1011=
11-Aug-2023 SAID31 WAOC 112030 METAR WAOC 112030Z AUTO VRB02G02KT 22/21 Q1011=
11-Aug-2023 SAID31 WAOC 112100 METAR WAOC 112100Z AUTO VRB02G02KT 22/21 Q1011=
11-Aug-2023 SAID31 WAOC 112130 METAR WAOC 112130Z AUTO VRB01G01KT 220V290 22/21 Q1011=
11-Aug-2023 SAID31 WAOC 112200 METAR WAOC 112200Z AUTO VRB01G01KT 22/21 Q1012=
11-Aug-2023 SAID31 WAOC 112230 METAR WAOC 112230Z AUTO VRB02G02KT 22/21 Q1012=
11-Aug-2023 SAID31 WAOC 112300 METAR WAOC 112300Z AUTO VRB02G02KT 24/22 Q1012=
11-Aug-2023 SAID31 WAOC 112330 METAR WAOC 112330Z AUTO VRB02G02KT 24/23 Q1012=
12-Aug-2023 SAID31 WAOC 120000 METAR WAOC 120000Z AUTO VRB01G01KT 240V310 30/28 Q1012=
12-Aug-2023 SAID31 WAOC 120030 METAR WAOC 120030Z AUTO VRB03G03KT 26/22 Q1013=
12-Aug-2023 SAID31 WAOC 120100 METAR WAOC 120100Z AUTO VRB01G01KT 140V280 28/23 Q1013=
12-Aug-2023 SAID31 WAOC 120130 METAR WAOC 120130Z AUTO VRB01G02KT 140V230 29/24 Q1013=
12-Aug-2023 SAID31 WAOC 120200 METAR WAOC 120200Z AUTO VRB03G02KT 110V180 35/29 Q1012=
13-Aug-2023 SAID31 WAOC 130300 METAR WAOC 130300Z AUTO 12004G04KT 110V260 31/23 Q1012=
13-Aug-2023 SAID31 WAOC 130330 METAR WAOC 130330Z AUTO VRB03G03KT 080V310 33/25 Q1012=
13-Aug-2023 SAID31 WAOC 130400 METAR WAOC 130400Z AUTO VRB01G01KT 070V160 33/23 Q1011=
13-Aug-2023 SAID31 WAOC 130430 METAR WAOC 130430Z AUTO VRB03G02KT 120V250 32/22 Q1011=
13-Aug-2023 SAID31 WAOC 130500 METAR WAOC 130500Z AUTO VRB03G03KT 32/21 Q1010=
13-Aug-2023 SAID31 WAOC 130530 METAR WAOC 130530Z AUTO VRB02G02KT 110V230 32/22 Q1010=
13-Aug-2023 SAID31 WAOC 130600 METAR WAOC 130600Z AUTO VRB03G03KT 090V170 31/22 Q1009=
13-Aug-2023 SAID31 WAOC 130630 METAR WAOC 130630Z AUTO VRB02G02KT 100V200 32/24 Q1009=
13-Aug-2023 SAID31 WAOC 130700 METAR WAOC 130700Z AUTO VRB02G02KT 100V210 31/24 Q1009=
13-Aug-2023 SAID31 WAOC 130730 METAR WAOC 130730Z AUTO 19004G04KT 110V230 34/27 Q1009=
13-Aug-2023 SAID31 WAOC 130800 METAR WAOC 130800Z AUTO 19005G05KT 130V210 31/24 Q1009=
13-Aug-2023 SAID31 WAOC 130830 METAR WAOC 130830Z AUTO VRB03G03KT 120V240 31/23 Q1009=
13-Aug-2023 SAID31 WAOC 130900 METAR WAOC 130900Z AUTO 15004G03KT 130V220 29/23 Q1009=
13-Aug-2023 SAID31 WAOC 130930 METAR WAOC 130930Z AUTO 17004G04KT 120V220 29/22 Q1009=
13-Aug-2023 SAID31 WAOC 131000 METAR WAOC 131000Z AUTO VRB01G01KT 28/21 Q1009=
13-Aug-2023 SAID31 WAOC 131030 METAR WAOC 131030Z AUTO 00000G00KT 110V220 28/21 Q1010=
13-Aug-2023 SAID31 WAOC 131100 METAR WAOC 131100Z AUTO VRB02G02KT 27/21 Q1010=
13-Aug-2023 SAID31 WAOC 131130 METAR WAOC 131130Z AUTO VRB03G03KT 27/22 Q1011=
13-Aug-2023 SAID31 WAOC 131200 METAR WAOC 131200Z AUTO VRB02G02KT 110V180 27/22 Q1011=
13-Aug-2023 SAID31 WAOC 131230 METAR WAOC 131230Z AUTO VRB02G02KT 120V190 27/23 Q1011=
13-Aug-2023 SAID31 WAOC 131300 METAR WAOC 131300Z AUTO VRB03G02KT 110V200 27/23 Q1012=
13-Aug-2023 SAID31 WAOC 131330 METAR WAOC 131330Z AUTO VRB01G01KT 130V210 27/23 Q1012=
13-Aug-2023 SAID31 WAOC 131400 METAR WAOC 131400Z AUTO VRB01G01KT 150V240 27/24 Q1012=
13-Aug-2023 SAID31 WAOC 131430 METAR WAOC 131430Z AUTO VRB01G01KT 210V280 26/23 Q1013=
13-Aug-2023 SAID31 WAOC 131500 METAR WAOC 131500Z AUTO VRB02G02KT 25/23 Q1013=
13-Aug-2023 SAID31 WAOC 131530 METAR WAOC 131530Z AUTO 00000G00KT 170V280 25/23 Q1013=
13-Aug-2023 SAID31 WAOC 131600 METAR WAOC 131600Z AUTO VRB02G01KT 25/23 Q1012=
13-Aug-2023 SAID31 WAOC 131630 METAR WAOC 131630Z AUTO VRB01G01KT 25/23 Q1012=
13-Aug-2023 SAID31 WAOC 131700 METAR WAOC 131700Z AUTO VRB02G02KT 24/23 Q1012=
13-Aug-2023 SAID31 WAOC 131730 METAR WAOC 131730Z AUTO VRB01G01KT 24/23 Q1012=
13-Aug-2023 SAID31 WAOC 131800 METAR WAOC 131800Z AUTO VRB01G01KT 210V310 24/23 Q1012=
13-Aug-2023 SAID31 WAOC 131830 METAR WAOC 131830Z AUTO VRB01G01KT 24/23 Q1011=
13-Aug-2023 SAID31 WAOC 131900 METAR WAOC 131900Z AUTO VRB01G01KT 24/23 Q1011=
13-Aug-2023 SAID31 WAOC 131930 METAR WAOC 131930Z AUTO VRB01G01KT 24/23 Q1011=
13-Aug-2023 SAID31 WAOC 132000 METAR WAOC 132000Z AUTO VRB01G01KT 24/23 Q1011=
13-Aug-2023 SAID31 WAOC 132030 METAR WAOC 132030Z AUTO VRB01G01KT 23/22 Q1011=
13-Aug-2023 SAID31 WAOC 132100 METAR WAOC 132100Z AUTO VRB01G01KT 23/22 Q1011=
13-Aug-2023 SAID31 WAOC 132130 METAR WAOC 132130Z AUTO VRB01G01KT 23/22 Q1011=
13-Aug-2023 SAID31 WAOC 132200 METAR WAOC 132200Z AUTO VRB02G02KT 23/23 Q1011=
13-Aug-2023 SAID31 WAOC 132230 METAR WAOC 132230Z AUTO VRB03G03KT 24/23 Q1012=
13-Aug-2023 SAID31 WAOC 132300 METAR WAOC 132300Z AUTO VRB03G03KT 24/23 Q1012=
13-Aug-2023 SAID31 WAOC 132330 METAR WAOC 132330Z AUTO VRB03G03KT 25/24 Q1012=
14-Aug-2023 SAID31 WAOC 140000 METAR WAOC 140000Z AUTO VRB03G03KT 29/27 Q1012=
14-Aug-2023 SAID31 WAOC 140030 METAR WAOC 140030Z AUTO VRB02G02KT 250V330 30/28 Q1013=
14-Aug-2023 SAID31 WAOC 140100 METAR WAOC 140100Z AUTO VRB02G02KT 180V280 33/30 Q1013=
14-Aug-2023 SAID31 WAOC 140130 METAR WAOC 140130Z AUTO VRB02G02KT 110V210 30/25 Q1013=
14-Aug-2023 SAID31 WAOC 140200 METAR WAOC 140200Z AUTO VRB03G03KT 30/24 Q1013=
14-Aug-2023 SAID31 WAOC 140230 METAR WAOC 140230Z AUTO VRB02G02KT 100V240 32/25 Q1013=
14-Aug-2023 SAID31 WAOC 140300 METAR WAOC 140300Z AUTO 13004G04KT 090V160 33/25 Q1012=
14-Aug-2023 SAID31 WAOC 140330 METAR WAOC 140330Z AUTO 14004G04KT 100V170 34/26 Q1012=
14-Aug-2023 SAID31 WAOC 140400 METAR WAOC 140400Z AUTO VRB01G01KT 100V210 35/27 Q1011=
14-Aug-2023 SAID31 WAOC 140430 METAR WAOC 140430Z AUTO VRB03G03KT 110V220 34/26 Q1011=
14-Aug-2023 SAID31 WAOC 140500 METAR WAOC 140500Z AUTO VRB01G01KT 110V230 36/29 Q1010=
14-Aug-2023 SAID31 WAOC 140530 METAR WAOC 140530Z AUTO 14004G04KT 100V190 35/27 Q1010=
14-Aug-2023 SAID31 WAOC 140600 METAR WAOC 140600Z AUTO VRB02G02KT 130V220 35/29 Q1009=
14-Aug-2023 SAID31 WAOC 140630 METAR WAOC 140630Z AUTO 17004G04KT 110V210 34/27 Q1009=
14-Aug-2023 SAID31 WAOC 140700 METAR WAOC 140700Z AUTO VRB03G03KT 38/32 Q1008=
14-Aug-2023 SAID31 WAOC 140730 METAR WAOC 140730Z AUTO VRB02G02KT 30/22 Q1008=
14-Aug-2023 SAID31 WAOC 140800 METAR WAOC 140800Z AUTO VRB03G03KT 100V190 32/23 Q1008=
14-Aug-2023 SAID31 WAOC 140830 METAR WAOC 140830Z AUTO VRB03G03KT 100V170 31/23 Q1008=
14-Aug-2023 SAID31 WAOC 140900 METAR WAOC 140900Z AUTO VRB03G03KT 29/22 Q1009=
14-Aug-2023 SAID31 WAOC 140930 METAR WAOC 140930Z AUTO VRB03G03KT 090V180 29/22 Q1009=
14-Aug-2023 SAID31 WAOC 141000 METAR WAOC 141000Z AUTO VRB02G02KT 110V190 28/21 Q1009=
14-Aug-2023 SAID31 WAOC 141030 METAR WAOC 141030Z AUTO VRB01G01KT 100V170 28/21 Q1009=
14-Aug-2023 SAID31 WAOC 141100 METAR WAOC 141100Z AUTO VRB02G02KT 27/21 Q1010=
14-Aug-2023 SAID31 WAOC 141130 METAR WAOC 141130Z AUTO VRB01G01KT 100V170 27/22 Q1010=
14-Aug-2023 SAID31 WAOC 141200 METAR WAOC 141200Z AUTO VRB03G03KT 110V180 27/22 Q1011=
14-Aug-2023 SAID31 WAOC 141230 METAR WAOC 141230Z AUTO VRB01G01KT 110V200 26/23 Q1011=
14-Aug-2023 SAID31 WAOC 141300 METAR WAOC 141300Z AUTO VRB03G03KT 140V210 26/22 Q1012=
14-Aug-2023 SAID31 WAOC 141330 METAR WAOC 141330Z AUTO VRB01G01KT 26/23 Q1012=
14-Aug-2023 SAID31 WAOC 141400 METAR WAOC 141400Z AUTO VRB01G01KT 25/22 Q1012=
14-Aug-2023 SAID31 WAOC 141430 METAR WAOC 141430Z AUTO VRB02G02KT 24/22 Q1012=
14-Aug-2023 SAID31 WAOC 141500 METAR WAOC 141500Z AUTO VRB01G01KT 24/22 Q1013=
14-Aug-2023 SAID31 WAOC 141530 METAR WAOC 141530Z AUTO VRB02G02KT 24/22 Q1013=
14-Aug-2023 SAID31 WAOC 141600 METAR WAOC 141600Z AUTO VRB02G02KT 24/22 Q1012=
14-Aug-2023 SAID31 WAOC 141630 METAR WAOC 141630Z AUTO VRB02G02KT 24/22 Q1012=
14-Aug-2023 SAID31 WAOC 141700 METAR WAOC 141700Z AUTO VRB02G02KT 24/22 Q1012=
14-Aug-2023 SAID31 WAOC 141730 METAR WAOC 141730Z AUTO VRB01G01KT 24/22 Q1012=
14-Aug-2023 SAID31 WAOC 141800 METAR WAOC 141800Z AUTO VRB01G02KT 24/22 Q1011=
14-Aug-2023 SAID31 WAOC 141830 METAR WAOC 141830Z AUTO VRB02G02KT 23/22 Q1011=
14-Aug-2023 SAID31 WAOC 141900 METAR WAOC 141900Z AUTO VRB01G01KT 220V290 23/22 Q1011=
14-Aug-2023 SAID31 WAOC 141930 METAR WAOC 141930Z AUTO VRB02G02KT 23/22 Q1011=
14-Aug-2023 SAID31 WAOC 142000 METAR WAOC 142000Z AUTO VRB02G02KT 23/22 Q1011=
14-Aug-2023 SAID31 WAOC 142030 METAR WAOC 142030Z AUTO VRB02G02KT 23/22 Q1012=
14-Aug-2023 SAID31 WAOC 142100 METAR WAOC 142100Z AUTO VRB02G02KT 23/22 Q1012=
14-Aug-2023 SAID31 WAOC 142130 METAR WAOC 142130Z AUTO VRB02G02KT 23/22 Q1012=
14-Aug-2023 SAID31 WAOC 142200 METAR WAOC 142200Z AUTO VRB03G03KT 23/22 Q1012=
14-Aug-2023 SAID31 WAOC 142230 METAR WAOC 142230Z AUTO VRB03G03KT 23/22 Q1012=
14-Aug-2023 SAID31 WAOC 142330 METAR WAOC 142330Z AUTO VRB03G03KT 25/23 Q1013=
15-Aug-2023 SAID31 WAOC 150000 METAR WAOC 150000Z AUTO VRB02G02KT 240V310 29/26 Q1013=
15-Aug-2023 SAID31 WAOC 150030 METAR WAOC 150030Z AUTO VRB01G01KT 190V310 30/27 Q1014=
15-Aug-2023 SAID31 WAOC 150100 METAR WAOC 150100Z AUTO VRB02G02KT 160V280 31/28 Q1014=
15-Aug-2023 SAID31 WAOC 150130 METAR WAOC 150130Z AUTO VRB02G02KT 120V230 36/31 Q1013=
15-Aug-2023 SAID31 WAOC 150200 METAR WAOC 150200Z AUTO 20004G04KT 160V240 39/34 Q1013=
15-Aug-2023 SAID31 WAOC 150230 METAR WAOC 150230Z AUTO 18005G05KT 100V230 36/28 Q1013=
15-Aug-2023 SAID31 WAOC 150300 METAR WAOC 150300Z AUTO VRB03G03KT 170V240 38/30 Q1013=
15-Aug-2023 SAID31 WAOC 150330 METAR WAOC 150330Z AUTO 16004G04KT 140V220 38/31 Q1013=
15-Aug-2023 SAID31 WAOC 150400 METAR WAOC 150400Z AUTO VRB03G02KT 150V240 33/25 Q1012=
15-Aug-2023 SAID31 WAOC 150430 METAR WAOC 150430Z AUTO VRB02G02KT 170V240 33/26 Q1012=
15-Aug-2023 SAID31 WAOC 150500 METAR WAOC 150500Z AUTO 22004G04KT 180V270 32/24 Q1011=
15-Aug-2023 SAID31 WAOC 150530 METAR WAOC 150530Z AUTO VRB03G03KT 170V250 38/32 Q1011=
15-Aug-2023 SAID31 WAOC 150600 METAR WAOC 150600Z AUTO 20004G04KT 150V250 37/31 Q1010=
15-Aug-2023 SAID31 WAOC 150630 METAR WAOC 150630Z AUTO 18005G05KT 170V260 31/23 Q1010=
15-Aug-2023 SAID31 WAOC 150700 METAR WAOC 150700Z AUTO 20004G04KT 160V230 32/25 Q1010=
15-Aug-2023 SAID31 WAOC 150730 METAR WAOC 150730Z AUTO 20005G05KT 190V260 29/23 Q1010=
15-Aug-2023 SAID31 WAOC 150800 METAR WAOC 150800Z AUTO 23005G05KT 190V270 29/23 Q1010=
15-Aug-2023 SAID31 WAOC 150830 METAR WAOC 150830Z AUTO 21007G07KT 29/23 Q1010=
15-Aug-2023 SAID31 WAOC 150900 METAR WAOC 150900Z AUTO VRB03G02KT 170V250 29/23 Q1010=
15-Aug-2023 SAID31 WAOC 150930 METAR WAOC 150930Z AUTO 21004G04KT 160V250 29/22 Q1010=
15-Aug-2023 SAID31 WAOC 151000 METAR WAOC 151000Z AUTO VRB03G03KT 28/22 Q1010=
15-Aug-2023 SAID31 WAOC 151030 METAR WAOC 151030Z AUTO VRB03G03KT 120V200 27/21 Q1011=
15-Aug-2023 SAID31 WAOC 151100 METAR WAOC 151100Z AUTO VRB03G03KT 110V190 27/22 Q1011=
15-Aug-2023 SAID31 WAOC 151130 METAR WAOC 151130Z AUTO VRB02G02KT 120V210 27/22 Q1011=
15-Aug-2023 SAID31 WAOC 151200 METAR WAOC 151200Z AUTO VRB03G03KT 100V200 26/22 Q1012=
15-Aug-2023 SAID31 WAOC 151230 METAR WAOC 151230Z AUTO 17005G04KT 130V220 26/22 Q1012=
15-Aug-2023 SAID31 WAOC 151300 METAR WAOC 151300Z AUTO VRB02G02KT 120V190 26/22 Q1013=
15-Aug-2023 SAID31 WAOC 151330 METAR WAOC 151330Z AUTO VRB01G01KT 140V270 25/22 Q1013=
15-Aug-2023 SAID31 WAOC 151400 METAR WAOC 151400Z AUTO VRB02G02KT 24/22 Q1013=
15-Aug-2023 SAID31 WAOC 151430 METAR WAOC 151430Z AUTO VRB02G02KT 24/22 Q1013=
15-Aug-2023 SAID31 WAOC 151500 METAR WAOC 151500Z AUTO VRB02G02KT 23/22 Q1013=
15-Aug-2023 SAID31 WAOC 151530 METAR WAOC 151530Z AUTO VRB02G02KT 23/22 Q1013=
15-Aug-2023 SAID31 WAOC 151600 METAR WAOC 151600Z AUTO VRB02G02KT 23/22 Q1013=
15-Aug-2023 SAID31 WAOC 151630 METAR WAOC 151630Z AUTO VRB02G02KT 23/22 Q1013=
15-Aug-2023 SAID31 WAOC 151700 METAR WAOC 151700Z AUTO VRB02G02KT 23/22 Q1013=
15-Aug-2023 SAID31 WAOC 151730 METAR WAOC 151730Z AUTO VRB03G03KT 24/22 Q1013=
15-Aug-2023 SAID31 WAOC 151800 METAR WAOC 151800Z AUTO VRB02G02KT 23/22 Q1012=
15-Aug-2023 SAID31 WAOC 151830 METAR WAOC 151830Z AUTO VRB02G02KT 23/22 Q1012=
15-Aug-2023 SAID31 WAOC 151900 METAR WAOC 151900Z AUTO VRB02G02KT 23/22 Q1012=
15-Aug-2023 SAID31 WAOC 151930 METAR WAOC 151930Z AUTO VRB02G02KT 23/22 Q1012=
15-Aug-2023 SAID31 WAOC 152000 METAR WAOC 152000Z AUTO VRB02G02KT 23/21 Q1012=
15-Aug-2023 SAID31 WAOC 152030 METAR WAOC 152030Z AUTO VRB01G01KT 23/21 Q1012=
15-Aug-2023 SAID31 WAOC 152100 METAR WAOC 152100Z AUTO VRB02G02KT 22/21 Q1013=
15-Aug-2023 SAID31 WAOC 152200 METAR WAOC 152200Z AUTO VRB01G01KT 22/21 Q1013=
15-Aug-2023 SAID31 WAOC 152230 METAR WAOC 152230Z AUTO VRB02G02KT 22/21 Q1013=
15-Aug-2023 SAID31 WAOC 152300 METAR WAOC 152300Z AUTO VRB03G03KT 23/22 Q1013=
15-Aug-2023 SAID31 WAOC 152330 METAR WAOC 152330Z AUTO VRB03G03KT 25/22 Q1014=
16-Aug-2023 SAID31 WAOC 160000 METAR WAOC 160000Z AUTO 30004G04KT 26/23 Q1014=
16-Aug-2023 SAID31 WAOC 160030 METAR WAOC 160030Z AUTO VRB03G03KT 29/26 Q1014=
16-Aug-2023 SAID31 WAOC 160100 METAR WAOC 160100Z AUTO VRB02G02KT 160V300 30/26 Q1014=
16-Aug-2023 SAID31 WAOC 160130 METAR WAOC 160130Z AUTO VRB01G01KT 170V270 33/29 Q1014=
16-Aug-2023 SAID31 WAOC 160200 METAR WAOC 160200Z AUTO 18004G03KT 130V210 33/25 Q1014=
16-Aug-2023 SAID31 WAOC 160230 METAR WAOC 160230Z AUTO 13004G04KT 080V210 32/25 Q1014=
16-Aug-2023 SAID31 WAOC 160300 METAR WAOC 160300Z AUTO 21006G06KT 130V220 32/24 Q1014=
16-Aug-2023 SAID31 WAOC 160330 METAR WAOC 160330Z AUTO VRB03G04KT 130V220 34/27 Q1013=
16-Aug-2023 SAID31 WAOC 160400 METAR WAOC 160400Z AUTO VRB03G03KT 090V190 38/31 Q1013=
16-Aug-2023 SAID31 WAOC 160430 METAR WAOC 160430Z AUTO 21004G04KT 39/33 Q1012=
16-Aug-2023 SAID31 WAOC 160500 METAR WAOC 160500Z AUTO VRB03G03KT 090V230 39/31 Q1012=
16-Aug-2023 SAID31 WAOC 160530 METAR WAOC 160530Z AUTO VRB03G03KT 130V230 40/34 Q1011=
16-Aug-2023 SAID31 WAOC 160600 METAR WAOC 160600Z AUTO 19004G04KT 36/29 Q1011=
16-Aug-2023 SAID31 WAOC 160630 METAR WAOC 160630Z AUTO VRB02G02KT 140V250 35/27 Q1010=
16-Aug-2023 SAID31 WAOC 160700 METAR WAOC 160700Z AUTO VRB02G02KT 120V220 33/24 Q1010=
16-Aug-2023 SAID31 WAOC 160730 METAR WAOC 160730Z AUTO VRB01G02KT 060V140 31/24 Q1010=
16-Aug-2023 SAID31 WAOC 160800 METAR WAOC 160800Z AUTO VRB03G03KT 36/28 Q1009=
16-Aug-2023 SAID31 WAOC 160830 METAR WAOC 160830Z AUTO VRB02G02KT 120V200 31/23 Q1009=
16-Aug-2023 SAID31 WAOC 160900 METAR WAOC 160900Z AUTO VRB02G02KT 120V210 30/22 Q1010=
16-Aug-2023 SAID31 WAOC 160930 METAR WAOC 160930Z AUTO VRB02G02KT 30/22 Q1010=
16-Aug-2023 SAID31 WAOC 161000 METAR WAOC 161000Z AUTO VRB02G02KT 130V240 31/24 Q1010=
16-Aug-2023 SAID31 WAOC 161030 METAR WAOC 161030Z AUTO VRB02G02KT 29/22 Q1011=
16-Aug-2023 SAID31 WAOC 161100 METAR WAOC 161100Z AUTO VRB02G02KT 28/23 Q1011=
16-Aug-2023 SAID31 WAOC 161130 METAR WAOC 161130Z AUTO VRB02G02KT 28/23 Q1011=
16-Aug-2023 SAID31 WAOC 161200 METAR WAOC 161200Z AUTO VRB02G02KT 28/24 Q1012=
16-Aug-2023 SAID31 WAOC 161230 METAR WAOC 161230Z AUTO VRB02G02KT 27/23 Q1012=
16-Aug-2023 SAID31 WAOC 161300 METAR WAOC 161300Z AUTO VRB01G01KT 110V180 27/23 Q1013=
16-Aug-2023 SAID31 WAOC 161330 METAR WAOC 161330Z AUTO VRB01G01KT 120V270 27/24 Q1013=
16-Aug-2023 SAID31 WAOC 161400 METAR WAOC 161400Z AUTO VRB02G02KT 26/23 Q1013=
16-Aug-2023 SAID31 WAOC 161430 METAR WAOC 161430Z AUTO VRB02G02KT 26/24 Q1013=
16-Aug-2023 SAID31 WAOC 161500 METAR WAOC 161500Z AUTO VRB02G02KT 25/24 Q1013=
16-Aug-2023 SAID31 WAOC 161530 METAR WAOC 161530Z AUTO VRB02G02KT 25/23 Q1013=
16-Aug-2023 SAID31 WAOC 161600 METAR WAOC 161600Z AUTO VRB02G02KT 25/24 Q1013=
16-Aug-2023 SAID31 WAOC 161630 METAR WAOC 161630Z AUTO VRB02G02KT 25/24 Q1012=
16-Aug-2023 SAID31 WAOC 161700 METAR WAOC 161700Z AUTO VRB02G02KT 25/24 Q1012=
16-Aug-2023 SAID31 WAOC 161730 METAR WAOC 161730Z AUTO VRB02G02KT 25/24 Q1012=
16-Aug-2023 SAID31 WAOC 161800 METAR WAOC 161800Z AUTO VRB01G01KT 25/24 Q1012=
16-Aug-2023 SAID31 WAOC 161830 METAR WAOC 161830Z AUTO VRB01G01KT 180V290 25/25 Q1012=
16-Aug-2023 SAID31 WAOC 161900 METAR WAOC 161900Z AUTO VRB02G02KT 27/26 Q1011=
16-Aug-2023 SAID31 WAOC 161930 METAR WAOC 161930Z AUTO VRB02G02KT 26/25 Q1011=
16-Aug-2023 SAID31 WAOC 162000 METAR WAOC 162000Z AUTO VRB02G02KT 25/24 Q1012=
16-Aug-2023 SAID31 WAOC 162030 METAR WAOC 162030Z AUTO VRB02G02KT 24/23 Q1011=
16-Aug-2023 SAID31 WAOC 162100 METAR WAOC 162100Z AUTO VRB02G02KT 24/24 Q1012=
16-Aug-2023 SAID31 WAOC 162130 METAR WAOC 162130Z AUTO VRB02G02KT 25/24 Q1012=
16-Aug-2023 SAID31 WAOC 162200 METAR WAOC 162200Z AUTO VRB02G02KT 230V310 24/23 Q1012=
16-Aug-2023 SAID31 WAOC 162230 METAR WAOC 162230Z AUTO VRB02G02KT 24/23 Q1012=
16-Aug-2023 SAID31 WAOC 162330 METAR WAOC 162330Z AUTO VRB02G02KT 26/24 Q1012=
17-Aug-2023 SAID31 WAOC 170000 METAR WAOC 170000Z AUTO VRB02G02KT 250V320 30/28 Q1013=
17-Aug-2023 SAID31 WAOC 170030 METAR WAOC 170030Z AUTO VRB02G02KT 210V310 31/29 Q1013=
17-Aug-2023 SAID31 WAOC 170100 METAR WAOC 170100Z AUTO VRB02G02KT 190V320 33/30 Q1013=
17-Aug-2023 SAID31 WAOC 170130 METAR WAOC 170130Z AUTO VRB01G01KT 100V190 34/30 Q1013=
17-Aug-2023 SAID31 WAOC 170200 METAR WAOC 170200Z AUTO VRB03G03KT 100V170 33/27 Q1013=
17-Aug-2023 SAID31 WAOC 170230 METAR WAOC 170230Z AUTO VRB03G03KT 090V210 35/29 Q1013=
17-Aug-2023 SAID31 WAOC 170300 METAR WAOC 170300Z AUTO 18006G06KT 120V260 38/31 Q1012=
17-Aug-2023 SAID31 WAOC 170330 METAR WAOC 170330Z AUTO 14005G05KT 130V250 37/29 Q1012=
17-Aug-2023 SAID31 WAOC 170400 METAR WAOC 170400Z AUTO 14004G04KT 130V210 32/24 Q1011=
17-Aug-2023 SAID31 WAOC 170430 METAR WAOC 170430Z AUTO VRB03G03KT 110V220 35/28 Q1011=
17-Aug-2023 SAID31 WAOC 170500 METAR WAOC 170500Z AUTO VRB03G03KT 110V220 33/24 Q1010=
17-Aug-2023 SAID31 WAOC 170530 METAR WAOC 170530Z AUTO VRB03G03KT 080V180 32/23 Q1010=
17-Aug-2023 SAID31 WAOC 170600 METAR WAOC 170600Z AUTO 14004G05KT 120V200 36/28 Q1010=
17-Aug-2023 SAID31 WAOC 170630 METAR WAOC 170630Z AUTO 19004G04KT 110V220 35/27 Q1009=
17-Aug-2023 SAID31 WAOC 170700 METAR WAOC 170700Z AUTO 16004G04KT 040V200 30/23 Q1009=
17-Aug-2023 SAID31 WAOC 170730 METAR WAOC 170730Z AUTO 13005G05KT 110V210 30/23 Q1009=
17-Aug-2023 SAID31 WAOC 170800 METAR WAOC 170800Z AUTO VRB03G03KT 100V200 30/22 Q1009=
17-Aug-2023 SAID31 WAOC 170830 METAR WAOC 170830Z AUTO VRB02G02KT 100V170 30/22 Q1009=
17-Aug-2023 SAID31 WAOC 170900 METAR WAOC 170900Z AUTO VRB03G03KT 29/22 Q1009=
17-Aug-2023 SAID31 WAOC 170930 METAR WAOC 170930Z AUTO VRB02G02KT 100V170 29/22 Q1009=
17-Aug-2023 SAID31 WAOC 171000 METAR WAOC 171000Z AUTO VRB03G03KT 27/21 Q1009=
17-Aug-2023 SAID31 WAOC 171030 METAR WAOC 171030Z AUTO VRB02G02KT 100V170 27/22 Q1010=
17-Aug-2023 SAID31 WAOC 171100 METAR WAOC 171100Z AUTO VRB03G03KT 27/22 Q1010=
17-Aug-2023 SAID31 WAOC 171130 METAR WAOC 171130Z AUTO VRB02G02KT 110V180 27/22 Q1010=
17-Aug-2023 SAID31 WAOC 171200 METAR WAOC 171200Z AUTO VRB02G02KT 100V170 27/22 Q1011=
17-Aug-2023 SAID31 WAOC 171230 METAR WAOC 171230Z AUTO 14004G04KT 100V180 27/22 Q1011=
17-Aug-2023 SAID31 WAOC 171300 METAR WAOC 171300Z AUTO VRB03G03KT 110V190 27/22 Q1011=
17-Aug-2023 SAID31 WAOC 171330 METAR WAOC 171330Z AUTO VRB02G02KT 120V240 27/23 Q1012=
17-Aug-2023 SAID31 WAOC 171400 METAR WAOC 171400Z AUTO VRB01G01KT 090V200 27/23 Q1012=
17-Aug-2023 SAID31 WAOC 171430 METAR WAOC 171430Z AUTO VRB01G01KT 27/22 Q1012=
17-Aug-2023 SAID31 WAOC 171500 METAR WAOC 171500Z AUTO VRB03G03KT 27/22 Q1012=
17-Aug-2023 SAID31 WAOC 171530 METAR WAOC 171530Z AUTO VRB01G01KT 26/23 Q1012=
17-Aug-2023 SAID31 WAOC 171600 METAR WAOC 171600Z AUTO VRB01G01KT 190V290 26/23 Q1012=
17-Aug-2023 SAID31 WAOC 171630 METAR WAOC 171630Z AUTO VRB01G01KT 110V270 26/23 Q1012=
17-Aug-2023 SAID31 WAOC 171700 METAR WAOC 171700Z AUTO VRB01G01KT 110V200 26/22 Q1012=
17-Aug-2023 SAID31 WAOC 171730 METAR WAOC 171730Z AUTO VRB01G01KT 130V220 26/22 Q1012=
17-Aug-2023 SAID31 WAOC 171800 METAR WAOC 171800Z AUTO VRB01G01KT 170V280 25/22 Q1012=
17-Aug-2023 SAID31 WAOC 171830 METAR WAOC 171830Z AUTO VRB01G01KT 25/22 Q1011=
17-Aug-2023 SAID31 WAOC 171900 METAR WAOC 171900Z AUTO VRB01G01KT 24/23 Q1011=
17-Aug-2023 SAID31 WAOC 171930 METAR WAOC 171930Z AUTO VRB01G01KT 24/23 Q1011=
17-Aug-2023 SAID31 WAOC 172000 METAR WAOC 172000Z AUTO VRB02G02KT 24/22 Q1011=
17-Aug-2023 SAID31 WAOC 172030 METAR WAOC 172030Z AUTO VRB02G02KT 24/22 Q1011=
17-Aug-2023 SAID31 WAOC 172100 METAR WAOC 172100Z AUTO VRB01G01KT 24/22 Q1011=
17-Aug-2023 SAID31 WAOC 172130 METAR WAOC 172130Z AUTO VRB02G02KT 23/22 Q1011=
17-Aug-2023 SAID31 WAOC 172200 METAR WAOC 172200Z AUTO VRB01G01KT 23/22 Q1012=
17-Aug-2023 SAID31 WAOC 172230 METAR WAOC 172230Z AUTO VRB01G01KT 24/22 Q1012=
17-Aug-2023 SAID31 WAOC 172300 METAR WAOC 172300Z AUTO VRB01G01KT 24/22 Q1012=
17-Aug-2023 SAID31 WAOC 172330 METAR WAOC 172330Z AUTO VRB02G02KT 25/23 Q1012=
18-Aug-2023 SAID31 WAOC 180000 METAR WAOC 180000Z AUTO VRB02G02KT 230V320 26/24 Q1012=
18-Aug-2023 SAID31 WAOC 180030 METAR WAOC 180030Z AUTO VRB01G01KT 160V310 27/24 Q1012=
18-Aug-2023 SAID31 WAOC 180100 METAR WAOC 180100Z AUTO VRB03G03KT 140V210 33/28 Q1012=
18-Aug-2023 SAID31 WAOC 180130 METAR WAOC 180130Z AUTO 14004G04KT 120V200 33/27 Q1012=
18-Aug-2023 SAID31 WAOC 180200 METAR WAOC 180200Z AUTO 15005G05KT 120V210 30/24 Q1012=
18-Aug-2023 SAID31 WAOC 180230 METAR WAOC 180230Z AUTO VRB02G03KT 090V200 34/28 Q1012=
18-Aug-2023 SAID31 WAOC 180300 METAR WAOC 180300Z AUTO VRB02G02KT 090V220 32/24 Q1011=
18-Aug-2023 SAID31 WAOC 180330 METAR WAOC 180330Z AUTO VRB02G03KT 110V210 36/28 Q1011=
18-Aug-2023 SAID31 WAOC 180400 METAR WAOC 180400Z AUTO VRB03G03KT 110V200 44/35 Q1010=
18-Aug-2023 SAID31 WAOC 180430 METAR WAOC 180430Z AUTO 17004G04KT 100V220 38/29 Q1010=
18-Aug-2023 SAID31 WAOC 180500 METAR WAOC 180500Z AUTO VRB03G04KT 100V200 34/25 Q1009=
18-Aug-2023 SAID31 WAOC 180530 METAR WAOC 180530Z AUTO VRB03G03KT 100V200 34/26 Q1009=
18-Aug-2023 SAID31 WAOC 180600 METAR WAOC 180600Z AUTO 21004G04KT 110V190 38/29 Q1008=
18-Aug-2023 SAID31 WAOC 180630 METAR WAOC 180630Z AUTO 12005G05KT 36/28 Q1008=
18-Aug-2023 SAID31 WAOC 180700 METAR WAOC 180700Z AUTO 14005G05KT 31/23 Q1008=
18-Aug-2023 SAID31 WAOC 180730 METAR WAOC 180730Z AUTO VRB02G02KT 37/29 Q1008=
18-Aug-2023 SAID31 WAOC 180800 METAR WAOC 180800Z AUTO 15004G06KT 110V220 31/22 Q1008=
18-Aug-2023 SAID31 WAOC 180830 METAR WAOC 180830Z AUTO VRB02G02KT 130V010 31/21 Q1008=
18-Aug-2023 SAID31 WAOC 180900 METAR WAOC 180900Z AUTO 12005G05KT 30/22 Q1008=
18-Aug-2023 SAID31 WAOC 180930 METAR WAOC 180930Z AUTO VRB03G03KT 110V180 29/22 Q1009=
18-Aug-2023 SAID31 WAOC 181000 METAR WAOC 181000Z AUTO VRB03G04KT 110V180 28/21 Q1009=
18-Aug-2023 SAID31 WAOC 181030 METAR WAOC 181030Z AUTO VRB03G03KT 100V180 27/21 Q1009=
18-Aug-2023 SAID31 WAOC 181100 METAR WAOC 181100Z AUTO VRB03G03KT 27/21 Q1009=
18-Aug-2023 SAID31 WAOC 181130 METAR WAOC 181130Z AUTO 14004G03KT 110V180 27/22 Q1010=
18-Aug-2023 SAID31 WAOC 181200 METAR WAOC 181200Z AUTO VRB03G03KT 120V200 27/22 Q1010=
18-Aug-2023 SAID31 WAOC 181230 METAR WAOC 181230Z AUTO VRB01G02KT 110V190 27/22 Q1011=
18-Aug-2023 SAID31 WAOC 181300 METAR WAOC 181300Z AUTO VRB02G02KT 150V220 26/22 Q1011=
18-Aug-2023 SAID31 WAOC 181330 METAR WAOC 181330Z AUTO 00000G00KT 26/22 Q1012=
18-Aug-2023 SAID31 WAOC 181400 METAR WAOC 181400Z AUTO VRB02G02KT 220V290 25/22 Q1012=
18-Aug-2023 SAID31 WAOC 181430 METAR WAOC 181430Z AUTO VRB02G02KT 25/22 Q1012=
18-Aug-2023 SAID31 WAOC 181500 METAR WAOC 181500Z AUTO VRB02G02KT 25/22 Q1012=
18-Aug-2023 SAID31 WAOC 181530 METAR WAOC 181530Z AUTO VRB01G01KT 25/22 Q1012=
18-Aug-2023 SAID31 WAOC 181600 METAR WAOC 181600Z AUTO VRB01G01KT 24/22 Q1012=
18-Aug-2023 SAID31 WAOC 181630 METAR WAOC 181630Z AUTO VRB01G01KT 24/22 Q1012=
18-Aug-2023 SAID31 WAOC 181700 METAR WAOC 181700Z AUTO VRB01G01KT 24/22 Q1012=
18-Aug-2023 SAID31 WAOC 181730 METAR WAOC 181730Z AUTO VRB02G02KT 24/22 Q1012=
18-Aug-2023 SAID31 WAOC 181800 METAR WAOC 181800Z AUTO VRB02G02KT 24/22 Q1012=
18-Aug-2023 SAID31 WAOC 181830 METAR WAOC 181830Z AUTO VRB02G02KT 230V300 23/22 Q1012=
18-Aug-2023 SAID31 WAOC 181900 METAR WAOC 181900Z AUTO VRB02G02KT 23/22 Q1012=
18-Aug-2023 SAID31 WAOC 181930 METAR WAOC 181930Z AUTO VRB02G02KT 190V280 23/22 Q1011=
18-Aug-2023 SAID31 WAOC 182000 METAR WAOC 182000Z AUTO VRB02G02KT 23/22 Q1011=
18-Aug-2023 SAID31 WAOC 182030 METAR WAOC 182030Z AUTO VRB01G01KT 23/22 Q1012=
18-Aug-2023 SAID31 WAOC 182100 METAR WAOC 182100Z AUTO VRB02G02KT 23/22 Q1012=
18-Aug-2023 SAID31 WAOC 182130 METAR WAOC 182130Z AUTO VRB02G02KT 24/22 Q1012=
18-Aug-2023 SAID31 WAOC 182200 METAR WAOC 182200Z AUTO VRB02G02KT 23/22 Q1012=
18-Aug-2023 SAID31 WAOC 182230 METAR WAOC 182230Z AUTO VRB02G02KT 24/22 Q1012=
18-Aug-2023 SAID31 WAOC 182300 METAR WAOC 182300Z AUTO VRB02G02KT 240V310 24/22 Q1012=
18-Aug-2023 SAID31 WAOC 182330 METAR WAOC 182330Z AUTO VRB02G01KT 25/23 Q1012=
19-Aug-2023 SAID31 WAOC 190000 METAR WAOC 190000Z AUTO VRB02G02KT 25/23 Q1012=
19-Aug-2023 SAID31 WAOC 190030 METAR WAOC 190030Z AUTO VRB03G03KT 26/23 Q1013=
19-Aug-2023 SAID31 WAOC 190100 METAR WAOC 190100Z AUTO VRB03G03KT 28/25 Q1013=
19-Aug-2023 SAID31 WAOC 190130 METAR WAOC 190130Z AUTO VRB01G01KT 150V250 30/26 Q1012=
19-Aug-2023 SAID31 WAOC 190200 METAR WAOC 190200Z AUTO VRB02G02KT 090V180 41/38 Q1012=
19-Aug-2023 SAID31 WAOC 190230 METAR WAOC 190230Z AUTO 17005G05KT 080V220 34/28 Q1012=
19-Aug-2023 SAID31 WAOC 190300 METAR WAOC 190300Z AUTO VRB03G03KT 100V260 34/27 Q1012=
19-Aug-2023 SAID31 WAOC 190330 METAR WAOC 190330Z AUTO VRB02G02KT 120V200 34/27 Q1011=
19-Aug-2023 SAID31 WAOC 190400 METAR WAOC 190400Z AUTO VRB03G03KT 100V210 39/31 Q1011=
19-Aug-2023 SAID31 WAOC 190430 METAR WAOC 190430Z AUTO VRB03G03KT 110V220 39/30 Q1010=
19-Aug-2023 SAID31 WAOC 190500 METAR WAOC 190500Z AUTO 12004G03KT 070V170 37/25 Q1010=
19-Aug-2023 SAID31 WAOC 190530 METAR WAOC 190530Z AUTO 14004G04KT 100V210 40/30 Q1009=
19-Aug-2023 SAID31 WAOC 190600 METAR WAOC 190600Z AUTO VRB03G03KT 140V230 40/29 Q1009=
19-Aug-2023 SAID31 WAOC 190630 METAR WAOC 190630Z AUTO 09005G05KT 45/36 Q1008=
19-Aug-2023 SAID31 WAOC 190700 METAR WAOC 190700Z AUTO VRB03G03KT 34/23 Q1008=
19-Aug-2023 SAID31 WAOC 190730 METAR WAOC 190730Z AUTO VRB02G02KT 33/23 Q1008=
19-Aug-2023 SAID31 WAOC 190800 METAR WAOC 190800Z AUTO 11004G04KT 35/27 Q1007=
19-Aug-2023 SAID31 WAOC 190830 METAR WAOC 190830Z AUTO 10005G05KT 31/21 Q1007=
19-Aug-2023 SAID31 WAOC 190900 METAR WAOC 190900Z AUTO VRB03G03KT 30/22 Q1008=
19-Aug-2023 SAID31 WAOC 190930 METAR WAOC 190930Z AUTO 12004G04KT 29/23 Q1008=
19-Aug-2023 SAID31 WAOC 191000 METAR WAOC 191000Z AUTO 13005G05KT 28/22 Q1008=
19-Aug-2023 SAID31 WAOC 191030 METAR WAOC 191030Z AUTO VRB03G03KT 27/22 Q1009=
19-Aug-2023 SAID31 WAOC 191100 METAR WAOC 191100Z AUTO 13005G05KT 100V170 27/22 Q1009=
19-Aug-2023 SAID31 WAOC 191130 METAR WAOC 191130Z AUTO VRB02G03KT 27/23 Q1009=
19-Aug-2023 SAID31 WAOC 191200 METAR WAOC 191200Z AUTO VRB03G03KT 100V190 27/23 Q1010=
19-Aug-2023 SAID31 WAOC 191230 METAR WAOC 191230Z AUTO VRB02G02KT 110V180 27/23 Q1010=
19-Aug-2023 SAID31 WAOC 191300 METAR WAOC 191300Z AUTO 14004G04KT 26/23 Q1010=
19-Aug-2023 SAID31 WAOC 191330 METAR WAOC 191330Z AUTO VRB01G01KT 110V180 26/23 Q1011=
19-Aug-2023 SAID31 WAOC 191400 METAR WAOC 191400Z AUTO VRB01G01KT 090V190 26/23 Q1011=
19-Aug-2023 SAID31 WAOC 191430 METAR WAOC 191430Z AUTO VRB01G01KT 110V210 26/23 Q1011=
19-Aug-2023 SAID31 WAOC 191500 METAR WAOC 191500Z AUTO VRB01G01KT 140V290 25/23 Q1011=
19-Aug-2023 SAID31 WAOC 191530 METAR WAOC 191530Z AUTO VRB02G02KT 24/22 Q1011=
19-Aug-2023 SAID31 WAOC 191600 METAR WAOC 191600Z AUTO VRB03G03KT 24/22 Q1011=
19-Aug-2023 SAID31 WAOC 191630 METAR WAOC 191630Z AUTO VRB02G02KT 23/22 Q1011=
19-Aug-2023 SAID31 WAOC 191700 METAR WAOC 191700Z AUTO VRB01G01KT 23/22 Q1011=
19-Aug-2023 SAID31 WAOC 191730 METAR WAOC 191730Z AUTO VRB02G02KT 23/22 Q1011=
19-Aug-2023 SAID31 WAOC 191800 METAR WAOC 191800Z AUTO VRB02G02KT 23/22 Q1011=
19-Aug-2023 SAID31 WAOC 191830 METAR WAOC 191830Z AUTO VRB02G02KT 24/22 Q1011=
19-Aug-2023 SAID31 WAOC 191900 METAR WAOC 191900Z AUTO VRB02G02KT 240V330 24/22 Q1011=
19-Aug-2023 SAID31 WAOC 191930 METAR WAOC 191930Z AUTO VRB02G02KT 23/22 Q1010=
19-Aug-2023 SAID31 WAOC 192000 METAR WAOC 192000Z AUTO VRB02G02KT 23/22 Q1011=
19-Aug-2023 SAID31 WAOC 192030 METAR WAOC 192030Z AUTO VRB01G01KT 23/22 Q1011=
19-Aug-2023 SAID31 WAOC 192100 METAR WAOC 192100Z AUTO VRB01G01KT 220V300 23/22 Q1011=
19-Aug-2023 SAID31 WAOC 192130 METAR WAOC 192130Z AUTO VRB01G01KT 23/22 Q1011=
19-Aug-2023 SAID31 WAOC 192200 METAR WAOC 192200Z AUTO VRB01G01KT 230V310 23/21 Q1011=
19-Aug-2023 SAID31 WAOC 192230 METAR WAOC 192230Z AUTO VRB02G02KT 23/22 Q1011=
19-Aug-2023 SAID31 WAOC 192330 METAR WAOC 192330Z AUTO VRB02G02KT 240V310 25/23 Q1012=
20-Aug-2023 SAID31 WAOC 200000 METAR WAOC 200000Z AUTO VRB02G01KT 220V320 27/24 Q1012=
20-Aug-2023 SAID31 WAOC 200030 METAR WAOC 200030Z AUTO VRB01G01KT 200V340 28/25 Q1012=
20-Aug-2023 SAID31 WAOC 200100 METAR WAOC 200100Z AUTO VRB01G02KT 200V310 29/25 Q1012=
20-Aug-2023 SAID31 WAOC 200130 METAR WAOC 200130Z AUTO VRB02G02KT 160V320 30/25 Q1012=
20-Aug-2023 SAID31 WAOC 200200 METAR WAOC 200200Z AUTO VRB02G02KT 220V310 30/25 Q1012=
20-Aug-2023 SAID31 WAOC 200230 METAR WAOC 200230Z AUTO VRB01G01KT 360V110 31/22 Q1012=
20-Aug-2023 SAID31 WAOC 200300 METAR WAOC 200300Z AUTO VRB02G02KT 130V210 31/22 Q1012=
20-Aug-2023 SAID31 WAOC 200330 METAR WAOC 200330Z AUTO VRB02G02KT 050V130 32/22 Q1011=
20-Aug-2023 SAID31 WAOC 200400 METAR WAOC 200400Z AUTO VRB02G02KT 070V280 32/22 Q1011=
20-Aug-2023 SAID31 WAOC 200430 METAR WAOC 200430Z AUTO 12004G04KT 32/22 Q1010=
20-Aug-2023 SAID31 WAOC 200500 METAR WAOC 200500Z AUTO VRB03G03KT 080V190 32/23 Q1010=
20-Aug-2023 SAID31 WAOC 200530 METAR WAOC 200530Z AUTO 00000G00KT 130V270 33/23 Q1009=
20-Aug-2023 SAID31 WAOC 200600 METAR WAOC 200600Z AUTO 19005G05KT 150V230 32/24 Q1009=
20-Aug-2023 SAID31 WAOC 200630 METAR WAOC 200630Z AUTO 19005G04KT 150V230 32/25 Q1009=
20-Aug-2023 SAID31 WAOC 200700 METAR WAOC 200700Z AUTO VRB03G02KT 140V220 33/25 Q1008=
20-Aug-2023 SAID31 WAOC 200730 METAR WAOC 200730Z AUTO VRB02G02KT 120V220 33/24 Q1008=
20-Aug-2023 SAID31 WAOC 200800 METAR WAOC 200800Z AUTO VRB02G02KT 130V220 35/26 Q1008=
20-Aug-2023 SAID31 WAOC 200830 METAR WAOC 200830Z AUTO VRB02G02KT 150V220 34/26 Q1008=
20-Aug-2023 SAID31 WAOC 200900 METAR WAOC 200900Z AUTO VRB02G02KT 130V210 30/22 Q1008=
20-Aug-2023 SAID31 WAOC 200930 METAR WAOC 200930Z AUTO VRB03G03KT 100V180 30/20 Q1008=
20-Aug-2023 SAID31 WAOC 201000 METAR WAOC 201000Z AUTO VRB02G02KT 120V190 30/22 Q1008=
20-Aug-2023 SAID31 WAOC 201030 METAR WAOC 201030Z AUTO VRB03G03KT 110V180 28/22 Q1009=
20-Aug-2023 SAID31 WAOC 201100 METAR WAOC 201100Z AUTO 16004G04KT 130V210 27/22 Q1009=
20-Aug-2023 SAID31 WAOC 201130 METAR WAOC 201130Z AUTO 15004G04KT 110V210 27/22 Q1010=
20-Aug-2023 SAID31 WAOC 201200 METAR WAOC 201200Z AUTO VRB03G03KT 120V230 27/22 Q1010=
20-Aug-2023 SAID31 WAOC 201230 METAR WAOC 201230Z AUTO VRB03G03KT 120V230 26/22 Q1010=
20-Aug-2023 SAID31 WAOC 201300 METAR WAOC 201300Z AUTO VRB01G01KT 170V270 26/22 Q1011=
20-Aug-2023 SAID31 WAOC 201330 METAR WAOC 201330Z AUTO VRB01G01KT 26/22 Q1011=
20-Aug-2023 SAID31 WAOC 201400 METAR WAOC 201400Z AUTO VRB01G01KT 25/22 Q1011=
20-Aug-2023 SAID31 WAOC 201430 METAR WAOC 201430Z AUTO VRB02G02KT 25/22 Q1011=
20-Aug-2023 SAID31 WAOC 201500 METAR WAOC 201500Z AUTO VRB02G02KT 210V290 24/22 Q1012=
20-Aug-2023 SAID31 WAOC 201530 METAR WAOC 201530Z AUTO VRB01G01KT 24/22 Q1012=
20-Aug-2023 SAID31 WAOC 201600 METAR WAOC 201600Z AUTO VRB01G01KT 24/22 Q1012=
20-Aug-2023 SAID31 WAOC 201630 METAR WAOC 201630Z AUTO VRB02G02KT 24/22 Q1012=
20-Aug-2023 SAID31 WAOC 201700 METAR WAOC 201700Z AUTO VRB01G01KT 24/22 Q1011=
20-Aug-2023 SAID31 WAOC 201730 METAR WAOC 201730Z AUTO VRB02G02KT 23/22 Q1011=
20-Aug-2023 SAID31 WAOC 201800 METAR WAOC 201800Z AUTO VRB03G03KT 24/22 Q1011=
20-Aug-2023 SAID31 WAOC 201830 METAR WAOC 201830Z AUTO VRB02G02KT 23/22 Q1010=
20-Aug-2023 SAID31 WAOC 201900 METAR WAOC 201900Z AUTO VRB02G02KT 23/22 Q1010=
20-Aug-2023 SAID31 WAOC 201930 METAR WAOC 201930Z AUTO VRB02G02KT 23/22 Q1010=
20-Aug-2023 SAID31 WAOC 202000 METAR WAOC 202000Z AUTO VRB01G01KT 23/22 Q1010=
20-Aug-2023 SAID31 WAOC 202030 METAR WAOC 202030Z AUTO VRB03G03KT 22/21 Q1010=
20-Aug-2023 SAID31 WAOC 202100 METAR WAOC 202100Z AUTO 31004G04KT 23/22 Q1010=
20-Aug-2023 SAID31 WAOC 202130 METAR WAOC 202130Z AUTO VRB02G02KT 23/21 Q1010=
20-Aug-2023 SAID31 WAOC 202200 METAR WAOC 202200Z AUTO VRB02G02KT 240V320 23/22 Q1010=
20-Aug-2023 SAID31 WAOC 202230 METAR WAOC 202230Z AUTO VRB02G02KT 23/22 Q1010=
20-Aug-2023 SAID31 WAOC 202300 METAR WAOC 202300Z AUTO VRB02G02KT 24/22 Q1010=
20-Aug-2023 SAID31 WAOC 202330 METAR WAOC 202330Z AUTO VRB03G03KT 24/22 Q1011=
21-Aug-2023 SAID31 WAOC 210000 METAR WAOC 210000Z AUTO VRB02G03KT 25/22 Q1011=
21-Aug-2023 SAID31 WAOC 210030 METAR WAOC 210030Z AUTO VRB03G03KT 26/22 Q1011=
21-Aug-2023 SAID31 WAOC 210100 METAR WAOC 210100Z AUTO VRB01G01KT 29/26 Q1012=
21-Aug-2023 SAID31 WAOC 210130 METAR WAOC 210130Z AUTO VRB02G02KT 100V170 29/23 Q1012=
21-Aug-2023 SAID31 WAOC 210200 METAR WAOC 210200Z AUTO VRB03G03KT 020V110 31/24 Q1011=
21-Aug-2023 SAID31 WAOC 210230 METAR WAOC 210230Z AUTO VRB02G02KT 31/25 Q1011=
21-Aug-2023 SAID31 WAOC 210300 METAR WAOC 210300Z AUTO 11006G06KT 32/24 Q1011=
21-Aug-2023 SAID31 WAOC 210330 METAR WAOC 210330Z AUTO 13004G03KT 31/23 Q1011=
21-Aug-2023 SAID31 WAOC 210400 METAR WAOC 210400Z AUTO 11005G05KT 080V150 32/23 Q1010=
21-Aug-2023 SAID31 WAOC 210430 METAR WAOC 210430Z AUTO 13006G06KT 32/23 Q1010=
21-Aug-2023 SAID31 WAOC 210500 METAR WAOC 210500Z AUTO VRB02G02KT 070V150 33/24 Q1009=
21-Aug-2023 SAID31 WAOC 210530 METAR WAOC 210530Z AUTO 07005G06KT 39/31 Q1009=
21-Aug-2023 SAID31 WAOC 210600 METAR WAOC 210600Z AUTO 11004G04KT 030V130 34/25 Q1008=
21-Aug-2023 SAID31 WAOC 210630 METAR WAOC 210630Z AUTO 08005G05KT 080V150 33/24 Q1008=
21-Aug-2023 SAID31 WAOC 210700 METAR WAOC 210700Z AUTO 10007G07KT 32/22 Q1008=
21-Aug-2023 SAID31 WAOC 210730 METAR WAOC 210730Z AUTO 13004G04KT 31/21 Q1008=
21-Aug-2023 SAID31 WAOC 210800 METAR WAOC 210800Z AUTO 13006G06KT 31/22 Q1008=
21-Aug-2023 SAID31 WAOC 210830 METAR WAOC 210830Z AUTO 11005G05KT 090V160 30/21 Q1008=
21-Aug-2023 SAID31 WAOC 210900 METAR WAOC 210900Z AUTO 14004G04KT 30/20 Q1008=
21-Aug-2023 SAID31 WAOC 210930 METAR WAOC 210930Z AUTO 13004G04KT 100V170 29/20 Q1008=
21-Aug-2023 SAID31 WAOC 211000 METAR WAOC 211000Z AUTO VRB03G03KT 28/20 Q1009=
21-Aug-2023 SAID31 WAOC 211030 METAR WAOC 211030Z AUTO VRB02G03KT 28/21 Q1009=
21-Aug-2023 SAID31 WAOC 211100 METAR WAOC 211100Z AUTO VRB02G02KT 27/21 Q1009=
21-Aug-2023 SAID31 WAOC 211130 METAR WAOC 211130Z AUTO VRB02G02KT 27/22 Q1010=
21-Aug-2023 SAID31 WAOC 211200 METAR WAOC 211200Z AUTO VRB02G02KT 110V180 27/22 Q1010=
21-Aug-2023 SAID31 WAOC 211230 METAR WAOC 211230Z AUTO VRB02G02KT 27/22 Q1011=
21-Aug-2023 SAID31 WAOC 211300 METAR WAOC 211300Z AUTO VRB03G03KT 110V180 27/23 Q1011=
21-Aug-2023 SAID31 WAOC 211330 METAR WAOC 211330Z AUTO VRB02G02KT 27/23 Q1011=
21-Aug-2023 SAID31 WAOC 211400 METAR WAOC 211400Z AUTO VRB02G02KT 130V210 27/23 Q1012=
21-Aug-2023 SAID31 WAOC 211430 METAR WAOC 211430Z AUTO VRB02G02KT 120V220 27/23 Q1012=
21-Aug-2023 SAID31 WAOC 211500 METAR WAOC 211500Z AUTO VRB02G02KT 100V230 27/23 Q1012=
21-Aug-2023 SAID31 WAOC 211530 METAR WAOC 211530Z AUTO VRB01G01KT 26/22 Q1012=
21-Aug-2023 SAID31 WAOC 211600 METAR WAOC 211600Z AUTO 00000G00KT 160V300 26/22 Q1012=
21-Aug-2023 SAID31 WAOC 211630 METAR WAOC 211630Z AUTO VRB01G01KT 220V290 26/22 Q1011=
21-Aug-2023 SAID31 WAOC 211700 METAR WAOC 211700Z AUTO VRB02G02KT 25/22 Q1011=
21-Aug-2023 SAID31 WAOC 211730 METAR WAOC 211730Z AUTO VRB02G02KT 24/22 Q1011=
21-Aug-2023 SAID31 WAOC 211800 METAR WAOC 211800Z AUTO VRB02G02KT 210V290 24/23 Q1010=
21-Aug-2023 SAID31 WAOC 211830 METAR WAOC 211830Z AUTO VRB01G01KT 210V310 24/23 Q1010=
21-Aug-2023 SAID31 WAOC 211900 METAR WAOC 211900Z AUTO VRB01G01KT 170V270 25/23 Q1010=
21-Aug-2023 SAID31 WAOC 211930 METAR WAOC 211930Z AUTO VRB02G02KT 24/23 Q1010=
21-Aug-2023 SAID31 WAOC 212000 METAR WAOC 212000Z AUTO VRB02G02KT 24/22 Q1010=
21-Aug-2023 SAID31 WAOC 212030 METAR WAOC 212030Z AUTO VRB03G02KT 23/22 Q1010=
21-Aug-2023 SAID31 WAOC 212100 METAR WAOC 212100Z AUTO VRB03G03KT 24/22 Q1010=
21-Aug-2023 SAID31 WAOC 212130 METAR WAOC 212130Z AUTO VRB03G03KT 24/22 Q1010=
21-Aug-2023 SAID31 WAOC 212200 METAR WAOC 212200Z AUTO VRB02G02KT 23/22 Q1010=
21-Aug-2023 SAID31 WAOC 212230 METAR WAOC 212230Z AUTO VRB02G02KT 23/22 Q1011=
21-Aug-2023 SAID31 WAOC 212300 METAR WAOC 212300Z AUTO VRB03G03KT 25/23 Q1011=
21-Aug-2023 SAID31 WAOC 212330 METAR WAOC 212330Z AUTO VRB02G02KT 25/23 Q1011=
22-Aug-2023 SAID31 WAOC 220000 METAR WAOC 220000Z AUTO VRB02G03KT 26/23 Q1012=
22-Aug-2023 SAID31 WAOC 220030 METAR WAOC 220030Z AUTO VRB02G02KT 240V310 28/24 Q1012=
22-Aug-2023 SAID31 WAOC 220100 METAR WAOC 220100Z AUTO VRB03G03KT 28/24 Q1012=
22-Aug-2023 SAID31 WAOC 220130 METAR WAOC 220130Z AUTO VRB02G02KT 170V290 33/29 Q1012=
22-Aug-2023 SAID31 WAOC 220200 METAR WAOC 220200Z AUTO VRB03G03KT 060V140 33/26 Q1012=
22-Aug-2023 SAID31 WAOC 220230 METAR WAOC 220230Z AUTO VRB02G02KT 38/30 Q1011=
22-Aug-2023 SAID31 WAOC 220300 METAR WAOC 220300Z AUTO VRB03G03KT 130V240 37/21 Q1011=
22-Aug-2023 SAID31 WAOC 220330 METAR WAOC 220330Z AUTO VRB02G02KT 090V240 32/23 Q1010=
22-Aug-2023 SAID31 WAOC 220400 METAR WAOC 220400Z AUTO VRB02G02KT 330V160 32/22 Q1010=
22-Aug-2023 SAID31 WAOC 220430 METAR WAOC 220430Z AUTO VRB02G02KT 090V210 32/22 Q1010=
22-Aug-2023 SAID31 WAOC 220500 METAR WAOC 220500Z AUTO VRB03G03KT 050V210 32/22 Q1009=
22-Aug-2023 SAID31 WAOC 220530 METAR WAOC 220530Z AUTO 22004G04KT 110V240 32/23 Q1009=
22-Aug-2023 SAID31 WAOC 220600 METAR WAOC 220600Z AUTO VRB02G02KT 100V200 32/23 Q1008=
22-Aug-2023 SAID31 WAOC 220630 METAR WAOC 220630Z AUTO 16004G04KT 110V230 31/23 Q1008=
22-Aug-2023 SAID31 WAOC 220700 METAR WAOC 220700Z AUTO VRB03G05KT 140V220 31/23 Q1008=
22-Aug-2023 SAID31 WAOC 220730 METAR WAOC 220730Z AUTO VRB03G03KT 140V210 31/23 Q1008=
22-Aug-2023 SAID31 WAOC 220800 METAR WAOC 220800Z AUTO VRB03G03KT 080V170 30/23 Q1008=
22-Aug-2023 SAID31 WAOC 220830 METAR WAOC 220830Z AUTO 18004G04KT 100V220 30/24 Q1008=
22-Aug-2023 SAID31 WAOC 220900 METAR WAOC 220900Z AUTO VRB03G03KT 110V200 30/24 Q1008=
22-Aug-2023 SAID31 WAOC 220930 METAR WAOC 220930Z AUTO 16004G04KT 090V160 29/23 Q1008=
22-Aug-2023 SAID31 WAOC 221000 METAR WAOC 221000Z AUTO 14004G04KT 29/23 Q1008=
22-Aug-2023 SAID31 WAOC 221030 METAR WAOC 221030Z AUTO VRB02G02KT 29/23 Q1009=
22-Aug-2023 SAID31 WAOC 221100 METAR WAOC 221100Z AUTO VRB02G03KT 28/23 Q1009=
22-Aug-2023 SAID31 WAOC 221130 METAR WAOC 221130Z AUTO VRB03G03KT 110V200 28/23 Q1010=
22-Aug-2023 SAID31 WAOC 221200 METAR WAOC 221200Z AUTO VRB03G03KT 110V220 28/23 Q1010=
22-Aug-2023 SAID31 WAOC 221230 METAR WAOC 221230Z AUTO VRB02G02KT 120V210 28/23 Q1010=
22-Aug-2023 SAID31 WAOC 221300 METAR WAOC 221300Z AUTO VRB03G03KT 130V200 27/23 Q1011=
22-Aug-2023 SAID31 WAOC 221330 METAR WAOC 221330Z AUTO 18005G05KT 110V200 27/23 Q1011=
22-Aug-2023 SAID31 WAOC 221400 METAR WAOC 221400Z AUTO 16004G04KT 27/23 Q1011=
22-Aug-2023 SAID31 WAOC 221430 METAR WAOC 221430Z AUTO VRB03G03KT 27/23 Q1011=
22-Aug-2023 SAID31 WAOC 221500 METAR WAOC 221500Z AUTO VRB01G01KT 120V220 27/23 Q1011=
22-Aug-2023 SAID31 WAOC 221530 METAR WAOC 221530Z AUTO VRB03G03KT 110V180 27/23 Q1011=
22-Aug-2023 SAID31 WAOC 221600 METAR WAOC 221600Z AUTO VRB02G02KT 27/23 Q1011=
22-Aug-2023 SAID31 WAOC 221630 METAR WAOC 221630Z AUTO VRB02G02KT 27/23 Q1011=
22-Aug-2023 SAID31 WAOC 221700 METAR WAOC 221700Z AUTO VRB02G02KT 110V210 27/24 Q1011=
22-Aug-2023 SAID31 WAOC 221830 METAR WAOC 221830Z AUTO VRB01G01KT 250V330 26/24 Q1010=
22-Aug-2023 SAID31 WAOC 221900 METAR WAOC 221900Z AUTO VRB01G01KT 130V290 26/24 Q1010=
22-Aug-2023 SAID31 WAOC 222000 METAR WAOC 222000Z AUTO VRB02G02KT 25/24 Q1010=
22-Aug-2023 SAID31 WAOC 222030 METAR WAOC 222030Z AUTO VRB02G02KT 25/23 Q1010=
22-Aug-2023 SAID31 WAOC 222100 METAR WAOC 222100Z AUTO VRB02G02KT 25/24 Q1010=
22-Aug-2023 SAID31 WAOC 222130 METAR WAOC 222130Z AUTO VRB01G01KT 25/23 Q1010=
22-Aug-2023 SAID31 WAOC 222200 METAR WAOC 222200Z AUTO VRB03G03KT 25/23 Q1011=
22-Aug-2023 SAID31 WAOC 222230 METAR WAOC 222230Z AUTO VRB02G02KT 25/23 Q1011=
22-Aug-2023 SAID31 WAOC 222300 METAR WAOC 222300Z AUTO VRB02G02KT 25/24 Q1011=
22-Aug-2023 SAID31 WAOC 222330 METAR WAOC 222330Z AUTO VRB02G02KT 240V340 26/24 Q1012=
23-Aug-2023 SAID31 WAOC 230000 METAR WAOC 230000Z AUTO VRB03G03KT 27/24 Q1012=
23-Aug-2023 SAID31 WAOC 230030 METAR WAOC 230030Z AUTO VRB01G01KT 200V330 28/24 Q1012=
23-Aug-2023 SAID31 WAOC 230100 METAR WAOC 230100Z AUTO VRB01G01KT 150V300 29/24 Q1013=
23-Aug-2023 SAID31 WAOC 230130 METAR WAOC 230130Z AUTO VRB01G00KT 050V230 29/24 Q1013=
23-Aug-2023 SAID31 WAOC 230200 METAR WAOC 230200Z AUTO VRB02G02KT 130V220 30/24 Q1012=
23-Aug-2023 SAID31 WAOC 230230 METAR WAOC 230230Z AUTO VRB01G01KT 080V190 30/23 Q1012=
23-Aug-2023 SAID31 WAOC 230300 METAR WAOC 230300Z AUTO VRB02G02KT 090V180 31/23 Q1012=
23-Aug-2023 SAID31 WAOC 230330 METAR WAOC 230330Z AUTO VRB01G01KT 120V230 32/23 Q1011=
23-Aug-2023 SAID31 WAOC 230400 METAR WAOC 230400Z AUTO VRB02G02KT 100V210 31/23 Q1011=
23-Aug-2023 SAID31 WAOC 230430 METAR WAOC 230430Z AUTO 14004G04KT 31/24 Q1010=
23-Aug-2023 SAID31 WAOC 230500 METAR WAOC 230500Z AUTO VRB03G03KT 30/25 Q1010=
23-Aug-2023 SAID31 WAOC 230530 METAR WAOC 230530Z AUTO VRB03G03KT 130V220 29/25 Q1010=
23-Aug-2023 SAID31 WAOC 230600 METAR WAOC 230600Z AUTO VRB02G02KT 220V100 30/24 Q1009=
23-Aug-2023 SAID31 WAOC 230630 METAR WAOC 230630Z AUTO VRB02G01KT 070V260 31/23 Q1009=
23-Aug-2023 SAID31 WAOC 230700 METAR WAOC 230700Z AUTO VRB02G02KT 30/24 Q1008=
23-Aug-2023 SAID31 WAOC 230730 METAR WAOC 230730Z AUTO VRB01G01KT 110V230 28/25 Q1009=
23-Aug-2023 SAID31 WAOC 230800 METAR WAOC 230800Z AUTO VRB03G03KT 100V190 28/24 Q1009=
23-Aug-2023 SAID31 WAOC 230830 METAR WAOC 230830Z AUTO 14004G04KT 130V220 28/25 Q1009=
23-Aug-2023 SAID31 WAOC 230900 METAR WAOC 230900Z AUTO VRB02G02KT 140V220 28/24 Q1009=
23-Aug-2023 SAID31 WAOC 230930 METAR WAOC 230930Z AUTO VRB03G03KT 130V220 28/25 Q1009=
23-Aug-2023 SAID31 WAOC 231000 METAR WAOC 231000Z AUTO VRB03G03KT 130V220 27/24 Q1009=
23-Aug-2023 SAID31 WAOC 231030 METAR WAOC 231030Z AUTO VRB01G01KT 27/25 Q1009=
23-Aug-2023 SAID31 WAOC 231100 METAR WAOC 231100Z AUTO VRB02G02KT 120V230 27/25 Q1010=
23-Aug-2023 SAID31 WAOC 231130 METAR WAOC 231130Z AUTO VRB01G01KT 28/24 Q1010=
23-Aug-2023 SAID31 WAOC 231200 METAR WAOC 231200Z AUTO VRB02G02KT 080V220 27/24 Q1010=
23-Aug-2023 SAID31 WAOC 231230 METAR WAOC 231230Z AUTO VRB02G02KT 140V210 27/24 Q1010=
23-Aug-2023 SAID31 WAOC 231300 METAR WAOC 231300Z AUTO VRB01G01KT 27/24 Q1011=
23-Aug-2023 SAID31 WAOC 231330 METAR WAOC 231330Z AUTO VRB02G02KT 100V180 27/24 Q1011=
23-Aug-2023 SAID31 WAOC 231400 METAR WAOC 231400Z AUTO VRB01G01KT 27/24 Q1011=
23-Aug-2023 SAID31 WAOC 231430 METAR WAOC 231430Z AUTO VRB01G01KT 180V250 27/24 Q1011=
23-Aug-2023 SAID31 WAOC 231500 METAR WAOC 231500Z AUTO VRB01G01KT 27/24 Q1011=
23-Aug-2023 SAID31 WAOC 231530 METAR WAOC 231530Z AUTO VRB01G01KT 26/24 Q1012=
23-Aug-2023 SAID31 WAOC 231600 METAR WAOC 231600Z AUTO VRB01G01KT 26/24 Q1011=
23-Aug-2023 SAID31 WAOC 231630 METAR WAOC 231630Z AUTO VRB02G02KT 26/24 Q1011=
23-Aug-2023 SAID31 WAOC 231700 METAR WAOC 231700Z AUTO VRB02G02KT 25/24 Q1011=
23-Aug-2023 SAID31 WAOC 231730 METAR WAOC 231730Z AUTO VRB01G01KT 25/24 Q1011=
23-Aug-2023 SAID31 WAOC 231800 METAR WAOC 231800Z AUTO VRB01G01KT 26/24 Q1011=
23-Aug-2023 SAID31 WAOC 231830 METAR WAOC 231830Z AUTO VRB02G02KT 26/24 Q1011=
23-Aug-2023 SAID31 WAOC 231900 METAR WAOC 231900Z AUTO VRB02G02KT 26/24 Q1010=
23-Aug-2023 SAID31 WAOC 231930 METAR WAOC 231930Z AUTO VRB02G02KT 26/24 Q1010=
23-Aug-2023 SAID31 WAOC 232000 METAR WAOC 232000Z AUTO VRB02G02KT 25/24 Q1010=
23-Aug-2023 SAID31 WAOC 232030 METAR WAOC 232030Z AUTO VRB01G01KT 210V300 25/24 Q1010=
23-Aug-2023 SAID31 WAOC 232100 METAR WAOC 232100Z AUTO VRB02G02KT 25/24 Q1010=
23-Aug-2023 SAID31 WAOC 232130 METAR WAOC 232130Z AUTO VRB02G02KT 25/24 Q1011=
23-Aug-2023 SAID31 WAOC 232200 METAR WAOC 232200Z AUTO VRB02G02KT 25/24 Q1011=
23-Aug-2023 SAID31 WAOC 232230 METAR WAOC 232230Z AUTO VRB01G01KT 230V330 25/24 Q1011=
23-Aug-2023 SAID31 WAOC 232300 METAR WAOC 232300Z AUTO VRB01G01KT 26/24 Q1012=
23-Aug-2023 SAID31 WAOC 232330 METAR WAOC 232330Z AUTO VRB01G01KT 190V270 27/24 Q1012=
24-Aug-2023 SAID31 WAOC 240000 METAR WAOC 240000Z AUTO VRB01G01KT 150V260 28/25 Q1012=
24-Aug-2023 SAID31 WAOC 240030 METAR WAOC 240030Z AUTO VRB03G03KT 110V190 29/25 Q1012=
24-Aug-2023 SAID31 WAOC 240100 METAR WAOC 240100Z AUTO VRB03G03KT 130V240 30/25 Q1012=
24-Aug-2023 SAID31 WAOC 240130 METAR WAOC 240130Z AUTO 15004G05KT 110V230 30/25 Q1012=
24-Aug-2023 SAID31 WAOC 240200 METAR WAOC 240200Z AUTO VRB02G02KT 090V240 31/24 Q1012=
24-Aug-2023 SAID31 WAOC 240230 METAR WAOC 240230Z AUTO VRB01G02KT 120V280 31/24 Q1011=
24-Aug-2023 SAID31 WAOC 240300 METAR WAOC 240300Z AUTO 17004G04KT 090V180 32/24 Q1011=
24-Aug-2023 SAID31 WAOC 240330 METAR WAOC 240330Z AUTO VRB03G03KT 110V190 31/24 Q1011=
24-Aug-2023 SAID31 WAOC 240400 METAR WAOC 240400Z AUTO VRB02G02KT 30/24 Q1010=
24-Aug-2023 SAID31 WAOC 240430 METAR WAOC 240430Z AUTO VRB02G02KT 100V200 30/25 Q1010=
24-Aug-2023 SAID31 WAOC 240500 METAR WAOC 240500Z AUTO VRB02G02KT 140V230 30/25 Q1009=
24-Aug-2023 SAID31 WAOC 240530 METAR WAOC 240530Z AUTO VRB02G02KT 180V270 29/25 Q1009=
24-Aug-2023 SAID31 WAOC 240600 METAR WAOC 240600Z AUTO VRB02G02KT 180V260 28/25 Q1009=
24-Aug-2023 SAID31 WAOC 240630 METAR WAOC 240630Z AUTO VRB03G03KT 180V260 27/26 Q1008=
24-Aug-2023 SAID31 WAOC 240700 METAR WAOC 240700Z AUTO VRB03G03KT 26/25 Q1008=
24-Aug-2023 SAID31 WAOC 240730 METAR WAOC 240730Z AUTO VRB01G01KT 200V280 26/25 Q1008=
24-Aug-2023 SAID31 WAOC 240800 METAR WAOC 240800Z AUTO VRB02G02KT 26/25 Q1008=
24-Aug-2023 SAID31 WAOC 240830 METAR WAOC 240830Z AUTO VRB02G02KT 26/26 Q1008=
24-Aug-2023 SAID31 WAOC 240900 METAR WAOC 240900Z AUTO VRB01G01KT 230V300 27/25 Q1008=
24-Aug-2023 SAID31 WAOC 240930 METAR WAOC 240930Z AUTO VRB01G01KT 190V290 27/26 Q1008=
24-Aug-2023 SAID31 WAOC 241000 METAR WAOC 241000Z AUTO VRB01G01KT 230V310 27/26 Q1008=
24-Aug-2023 SAID31 WAOC 241030 METAR WAOC 241030Z AUTO VRB01G01KT 170V280 27/26 Q1009=
24-Aug-2023 SAID31 WAOC 241100 METAR WAOC 241100Z AUTO VRB01G01KT 26/25 Q1009=
24-Aug-2023 SAID31 WAOC 241130 METAR WAOC 241130Z AUTO VRB01G01KT 26/25 Q1010=
24-Aug-2023 SAID31 WAOC 241200 METAR WAOC 241200Z AUTO VRB01G01KT 26/26 Q1010=
24-Aug-2023 SAID31 WAOC 241230 METAR WAOC 241230Z AUTO VRB01G01KT 26/25 Q1011=
24-Aug-2023 SAID31 WAOC 241300 METAR WAOC 241300Z AUTO VRB01G01KT 26/25 Q1011=
24-Aug-2023 SAID31 WAOC 241330 METAR WAOC 241330Z AUTO VRB01G01KT 26/25 Q1011=
24-Aug-2023 SAID31 WAOC 241400 METAR WAOC 241400Z AUTO VRB02G02KT 26/25 Q1011=
24-Aug-2023 SAID31 WAOC 241430 METAR WAOC 241430Z AUTO VRB02G02KT 25/25 Q1011=
24-Aug-2023 SAID31 WAOC 241500 METAR WAOC 241500Z AUTO VRB01G01KT 120V000 25/25 Q1011=
24-Aug-2023 SAID31 WAOC 241530 METAR WAOC 241530Z AUTO VRB02G02KT 220V290 25/25 Q1011=
24-Aug-2023 SAID31 WAOC 241600 METAR WAOC 241600Z AUTO VRB02G02KT 25/25 Q1011=
24-Aug-2023 SAID31 WAOC 241630 METAR WAOC 241630Z AUTO VRB02G02KT 25/25 Q1011=
24-Aug-2023 SAID31 WAOC 241700 METAR WAOC 241700Z AUTO VRB01G01KT 25/24 Q1010=
24-Aug-2023 SAID31 WAOC 241730 METAR WAOC 241730Z AUTO VRB01G01KT 230V300 25/24 Q1010=
24-Aug-2023 SAID31 WAOC 241800 METAR WAOC 241800Z AUTO VRB02G01KT 25/24 Q1010=
24-Aug-2023 SAID31 WAOC 241830 METAR WAOC 241830Z AUTO VRB01G01KT 25/24 Q1010=
24-Aug-2023 SAID31 WAOC 241900 METAR WAOC 241900Z AUTO VRB02G02KT 230V310 25/24 Q1009=
24-Aug-2023 SAID31 WAOC 241930 METAR WAOC 241930Z AUTO VRB02G02KT 25/24 Q1010=
24-Aug-2023 SAID31 WAOC 242000 METAR WAOC 242000Z AUTO VRB01G01KT 110V330 25/24 Q1010=
24-Aug-2023 SAID31 WAOC 242030 METAR WAOC 242030Z AUTO VRB02G02KT 25/24 Q1010=
24-Aug-2023 SAID31 WAOC 242100 METAR WAOC 242100Z AUTO VRB02G02KT 25/24 Q1010=
24-Aug-2023 SAID31 WAOC 242130 METAR WAOC 242130Z AUTO VRB02G02KT 25/24 Q1010=
24-Aug-2023 SAID31 WAOC 242200 METAR WAOC 242200Z AUTO VRB01G01KT 25/24 Q1010=
24-Aug-2023 SAID31 WAOC 242230 METAR WAOC 242230Z AUTO VRB02G02KT 210V310 25/24 Q1011=
24-Aug-2023 SAID31 WAOC 242300 METAR WAOC 242300Z AUTO VRB02G02KT 25/24 Q1011=
24-Aug-2023 SAID31 WAOC 242330 METAR WAOC 242330Z AUTO VRB02G02KT 26/25 Q1011=
25-Aug-2023 SAID31 WAOC 250000 METAR WAOC 250000Z AUTO VRB02G02KT 240V310 27/25 Q1011=
25-Aug-2023 SAID31 WAOC 250030 METAR WAOC 250030Z AUTO VRB02G02KT 220V300 27/25 Q1012=
25-Aug-2023 SAID31 WAOC 250100 METAR WAOC 250100Z AUTO 00000G00KT 190V300 28/25 Q1012=
25-Aug-2023 SAID31 WAOC 250130 METAR WAOC 250130Z AUTO VRB02G02KT 140V210 28/24 Q1012=
25-Aug-2023 SAID31 WAOC 250200 METAR WAOC 250200Z AUTO VRB02G02KT 120V190 29/25 Q1011=
25-Aug-2023 SAID31 WAOC 250230 METAR WAOC 250230Z AUTO VRB02G02KT 100V200 30/24 Q1011=
25-Aug-2023 SAID31 WAOC 250300 METAR WAOC 250300Z AUTO VRB02G02KT 29/24 Q1011=
25-Aug-2023 SAID31 WAOC 250330 METAR WAOC 250330Z AUTO VRB02G02KT 120V300 29/24 Q1010=
25-Aug-2023 SAID31 WAOC 250400 METAR WAOC 250400Z AUTO VRB01G01KT 250V040 31/24 Q1010=
25-Aug-2023 SAID31 WAOC 250430 METAR WAOC 250430Z AUTO 14005G04KT 26/25 Q1010=
25-Aug-2023 SAID31 WAOC 250500 METAR WAOC 250500Z AUTO VRB01G01KT 26/25 Q1009=
25-Aug-2023 SAID31 WAOC 250530 METAR WAOC 250530Z AUTO VRB02G02KT 140V250 29/25 Q1009=
25-Aug-2023 SAID31 WAOC 250600 METAR WAOC 250600Z AUTO 18007G07KT 130V220 29/25 Q1009=
25-Aug-2023 SAID31 WAOC 250630 METAR WAOC 250630Z AUTO VRB02G02KT 26/25 Q1008=
25-Aug-2023 SAID31 WAOC 250700 METAR WAOC 250700Z AUTO VRB01G01KT 260V340 27/24 Q1008=
25-Aug-2023 SAID31 WAOC 250730 METAR WAOC 250730Z AUTO VRB01G01KT 210V310 29/26 Q1008=
25-Aug-2023 SAID31 WAOC 250800 METAR WAOC 250800Z AUTO VRB01G01KT 210V310 29/26 Q1008=
25-Aug-2023 SAID31 WAOC 250830 METAR WAOC 250830Z AUTO VRB01G01KT 29/25 Q1008=
25-Aug-2023 SAID31 WAOC 250900 METAR WAOC 250900Z AUTO VRB01G01KT 120V230 26/25 Q1008=
25-Aug-2023 SAID31 WAOC 250930 METAR WAOC 250930Z AUTO VRB01G01KT 120V220 27/25 Q1009=
25-Aug-2023 SAID31 WAOC 251000 METAR WAOC 251000Z AUTO VRB01G01KT 100V220 27/25 Q1009=
25-Aug-2023 SAID31 WAOC 251030 METAR WAOC 251030Z AUTO VRB01G01KT 100V190 27/25 Q1009=
25-Aug-2023 SAID31 WAOC 251100 METAR WAOC 251100Z AUTO VRB01G01KT 27/25 Q1010=
25-Aug-2023 SAID31 WAOC 251130 METAR WAOC 251130Z AUTO VRB03G02KT 27/24 Q1010=
25-Aug-2023 SAID31 WAOC 251200 METAR WAOC 251200Z AUTO VRB01G01KT 110V180 27/25 Q1010=
25-Aug-2023 SAID31 WAOC 251230 METAR WAOC 251230Z AUTO VRB02G02KT 120V200 27/24 Q1010=
25-Aug-2023 SAID31 WAOC 251300 METAR WAOC 251300Z AUTO VRB01G01KT 120V230 27/24 Q1011=
25-Aug-2023 SAID31 WAOC 251330 METAR WAOC 251330Z AUTO VRB01G01KT 140V230 27/24 Q1011=
25-Aug-2023 SAID31 WAOC 251400 METAR WAOC 251400Z AUTO VRB01G01KT 150V220 27/24 Q1011=
25-Aug-2023 SAID31 WAOC 251430 METAR WAOC 251430Z AUTO VRB02G02KT 25/25 Q1012=
25-Aug-2023 SAID31 WAOC 251500 METAR WAOC 251500Z AUTO VRB01G01KT 25/24 Q1012=
25-Aug-2023 SAID31 WAOC 251530 METAR WAOC 251530Z AUTO VRB01G01KT 25/24 Q1011=
25-Aug-2023 SAID31 WAOC 251600 METAR WAOC 251600Z AUTO VRB01G01KT 25/24 Q1011=
25-Aug-2023 SAID31 WAOC 251700 METAR WAOC 251700Z AUTO VRB01G01KT 25/24 Q1010=
25-Aug-2023 SAID31 WAOC 251730 METAR WAOC 251730Z AUTO VRB02G02KT 25/24 Q1010=
25-Aug-2023 SAID31 WAOC 251800 METAR WAOC 251800Z AUTO VRB02G02KT 24/24 Q1010=
25-Aug-2023 SAID31 WAOC 251830 METAR WAOC 251830Z AUTO VRB01G01KT 180V250 24/24 Q1009=
25-Aug-2023 SAID31 WAOC 251900 METAR WAOC 251900Z AUTO VRB02G02KT 24/24 Q1009=
25-Aug-2023 SAID31 WAOC 251930 METAR WAOC 251930Z AUTO VRB01G01KT 24/23 Q1010=
25-Aug-2023 SAID31 WAOC 252000 METAR WAOC 252000Z AUTO VRB01G01KT 220V290 24/24 Q1010=
25-Aug-2023 SAID31 WAOC 252030 METAR WAOC 252030Z AUTO VRB02G02KT 24/23 Q1010=
25-Aug-2023 SAID31 WAOC 252100 METAR WAOC 252100Z AUTO VRB02G02KT 24/24 Q1010=
25-Aug-2023 SAID31 WAOC 252130 METAR WAOC 252130Z AUTO VRB02G02KT 24/23 Q1010=
25-Aug-2023 SAID31 WAOC 252200 METAR WAOC 252200Z AUTO VRB03G03KT 24/23 Q1011=
25-Aug-2023 SAID31 WAOC 252230 METAR WAOC 252230Z AUTO VRB02G03KT 24/23 Q1011=
25-Aug-2023 SAID31 WAOC 252300 METAR WAOC 252300Z AUTO VRB02G02KT 24/23 Q1011=
25-Aug-2023 SAID31 WAOC 252330 METAR WAOC 252330Z AUTO VRB02G02KT 26/24 Q1012=
26-Aug-2023 SAID31 WAOC 260000 METAR WAOC 260000Z AUTO VRB02G02KT 27/25 Q1012=
26-Aug-2023 SAID31 WAOC 260030 METAR WAOC 260030Z AUTO VRB02G02KT 28/25 Q1012=
26-Aug-2023 SAID31 WAOC 260100 METAR WAOC 260100Z AUTO VRB03G03KT 150V260 28/25 Q1012=
26-Aug-2023 SAID31 WAOC 260130 METAR WAOC 260130Z AUTO VRB03G03KT 150V240 29/25 Q1012=
26-Aug-2023 SAID31 WAOC 260200 METAR WAOC 260200Z AUTO VRB03G03KT 110V200 30/24 Q1012=
26-Aug-2023 SAID31 WAOC 260230 METAR WAOC 260230Z AUTO 18004G04KT 120V240 30/23 Q1011=
26-Aug-2023 SAID31 WAOC 260300 METAR WAOC 260300Z AUTO VRB02G02KT 130V220 31/24 Q1011=
26-Aug-2023 SAID31 WAOC 260330 METAR WAOC 260330Z AUTO 18004G04KT 140V250 31/23 Q1011=
26-Aug-2023 SAID31 WAOC 260400 METAR WAOC 260400Z AUTO VRB02G02KT 170V240 30/23 Q1010=
26-Aug-2023 SAID31 WAOC 260430 METAR WAOC 260430Z AUTO 17004G04KT 170V260 30/24 Q1009=
26-Aug-2023 SAID31 WAOC 260500 METAR WAOC 260500Z AUTO VRB03G03KT 160V250 31/24 Q1009=
26-Aug-2023 SAID31 WAOC 260530 METAR WAOC 260530Z AUTO 19004G04KT 130V250 31/24 Q1008=
26-Aug-2023 SAID31 WAOC 260600 METAR WAOC 260600Z AUTO VRB03G03KT 110V240 31/24 Q1008=
26-Aug-2023 SAID31 WAOC 260630 METAR WAOC 260630Z AUTO 17004G04KT 120V230 31/24 Q1008=
26-Aug-2023 SAID31 WAOC 260700 METAR WAOC 260700Z AUTO VRB03G02KT 160V230 32/23 Q1007=
26-Aug-2023 SAID31 WAOC 260730 METAR WAOC 260730Z AUTO 16004G04KT 180V250 31/23 Q1007=
26-Aug-2023 SAID31 WAOC 260800 METAR WAOC 260800Z AUTO VRB03G02KT 200V350 31/24 Q1007=
26-Aug-2023 SAID31 WAOC 260830 METAR WAOC 260830Z AUTO 20004G04KT 30/24 Q1007=
26-Aug-2023 SAID31 WAOC 260900 METAR WAOC 260900Z AUTO 18004G03KT 170V240 30/24 Q1008=
26-Aug-2023 SAID31 WAOC 260930 METAR WAOC 260930Z AUTO VRB02G02KT 180V260 30/25 Q1008=
26-Aug-2023 SAID31 WAOC 261000 METAR WAOC 261000Z AUTO VRB02G02KT 180V250 29/25 Q1008=
26-Aug-2023 SAID31 WAOC 261030 METAR WAOC 261030Z AUTO VRB03G03KT 130V220 29/23 Q1008=
26-Aug-2023 SAID31 WAOC 261100 METAR WAOC 261100Z AUTO VRB02G02KT 130V200 29/23 Q1009=
26-Aug-2023 SAID31 WAOC 261130 METAR WAOC 261130Z AUTO 15004G04KT 110V180 28/24 Q1009=
26-Aug-2023 SAID31 WAOC 261200 METAR WAOC 261200Z AUTO VRB02G02KT 110V180 28/24 Q1009=
26-Aug-2023 SAID31 WAOC 261230 METAR WAOC 261230Z AUTO VRB03G02KT 28/24 Q1010=
26-Aug-2023 SAID31 WAOC 261300 METAR WAOC 261300Z AUTO VRB03G03KT 130V210 28/24 Q1010=
26-Aug-2023 SAID31 WAOC 261330 METAR WAOC 261330Z AUTO VRB01G01KT 110V190 27/24 Q1010=
26-Aug-2023 SAID31 WAOC 261400 METAR WAOC 261400Z AUTO VRB03G03KT 130V230 27/24 Q1011=
26-Aug-2023 SAID31 WAOC 261430 METAR WAOC 261430Z AUTO 00000G00KT 200V290 27/24 Q1011=
26-Aug-2023 SAID31 WAOC 261500 METAR WAOC 261500Z AUTO VRB01G01KT 26/24 Q1011=
26-Aug-2023 SAID31 WAOC 261530 METAR WAOC 261530Z AUTO VRB01G01KT 26/24 Q1011=
26-Aug-2023 SAID31 WAOC 261600 METAR WAOC 261600Z AUTO VRB02G02KT 26/24 Q1011=
26-Aug-2023 SAID31 WAOC 261630 METAR WAOC 261630Z AUTO VRB01G01KT 25/24 Q1011=
26-Aug-2023 SAID31 WAOC 261700 METAR WAOC 261700Z AUTO VRB01G01KT 25/24 Q1010=
26-Aug-2023 SAID31 WAOC 261730 METAR WAOC 261730Z AUTO VRB02G02KT 25/24 Q1010=
26-Aug-2023 SAID31 WAOC 261800 METAR WAOC 261800Z AUTO VRB02G02KT 25/24 Q1009=
26-Aug-2023 SAID31 WAOC 261830 METAR WAOC 261830Z AUTO VRB02G02KT 25/24 Q1009=
26-Aug-2023 SAID31 WAOC 261900 METAR WAOC 261900Z AUTO VRB02G02KT 25/24 Q1009=
26-Aug-2023 SAID31 WAOC 261930 METAR WAOC 261930Z AUTO VRB02G02KT 24/24 Q1009=
26-Aug-2023 SAID31 WAOC 262000 METAR WAOC 262000Z AUTO VRB02G02KT 24/23 Q1009=
26-Aug-2023 SAID31 WAOC 262030 METAR WAOC 262030Z AUTO VRB01G01KT 220V290 24/23 Q1010=
26-Aug-2023 SAID31 WAOC 262100 METAR WAOC 262100Z AUTO VRB02G02KT 24/23 Q1010=
26-Aug-2023 SAID31 WAOC 262130 METAR WAOC 262130Z AUTO VRB03G03KT 24/24 Q1010=
26-Aug-2023 SAID31 WAOC 262200 METAR WAOC 262200Z AUTO VRB02G02KT 240V310 24/23 Q1010=
26-Aug-2023 SAID31 WAOC 262230 METAR WAOC 262230Z AUTO VRB01G01KT 24/23 Q1011=
26-Aug-2023 SAID31 WAOC 262300 METAR WAOC 262300Z AUTO VRB01G01KT 230V320 25/24 Q1011=
26-Aug-2023 SAID31 WAOC 262330 METAR WAOC 262330Z AUTO VRB02G02KT 26/24 Q1012=
27-Aug-2023 SAID31 WAOC 270000 METAR WAOC 270000Z AUTO VRB02G02KT 230V310 27/24 Q1012=
27-Aug-2023 SAID31 WAOC 270030 METAR WAOC 270030Z AUTO VRB03G03KT 230V310 28/25 Q1012=
27-Aug-2023 SAID31 WAOC 270100 METAR WAOC 270100Z AUTO VRB02G02KT 180V270 29/25 Q1012=
27-Aug-2023 SAID31 WAOC 270130 METAR WAOC 270130Z AUTO VRB02G02KT 130V200 29/23 Q1012=
27-Aug-2023 SAID31 WAOC 270200 METAR WAOC 270200Z AUTO 17004G04KT 110V220 30/23 Q1012=
27-Aug-2023 SAID31 WAOC 270230 METAR WAOC 270230Z AUTO VRB02G02KT 100V180 31/23 Q1012=
27-Aug-2023 SAID31 WAOC 270300 METAR WAOC 270300Z AUTO VRB01G01KT 140V230 31/23 Q1011=
27-Aug-2023 SAID31 WAOC 270330 METAR WAOC 270330Z AUTO VRB03G03KT 100V220 31/23 Q1011=
27-Aug-2023 SAID31 WAOC 270400 METAR WAOC 270400Z AUTO 13004G04KT 110V180 32/22 Q1010=
27-Aug-2023 SAID31 WAOC 270430 METAR WAOC 270430Z AUTO VRB02G02KT 170V260 32/24 Q1010=
27-Aug-2023 SAID31 WAOC 270500 METAR WAOC 270500Z AUTO VRB03G03KT 130V210 32/24 Q1009=
27-Aug-2023 SAID31 WAOC 270530 METAR WAOC 270530Z AUTO 21004G04KT 140V250 32/23 Q1009=
27-Aug-2023 SAID31 WAOC 270600 METAR WAOC 270600Z AUTO 18004G04KT 150V220 32/23 Q1008=
27-Aug-2023 SAID31 WAOC 270630 METAR WAOC 270630Z AUTO VRB02G02KT 150V260 32/23 Q1008=
27-Aug-2023 SAID31 WAOC 270700 METAR WAOC 270700Z AUTO VRB03G03KT 140V230 31/24 Q1008=
27-Aug-2023 SAID31 WAOC 270730 METAR WAOC 270730Z AUTO VRB03G03KT 31/24 Q1007=
27-Aug-2023 SAID31 WAOC 270800 METAR WAOC 270800Z AUTO 23004G04KT 160V250 31/24 Q1007=
27-Aug-2023 SAID31 WAOC 270830 METAR WAOC 270830Z AUTO 19005G05KT 30/24 Q1007=
27-Aug-2023 SAID31 WAOC 270900 METAR WAOC 270900Z AUTO 20005G05KT 170V250 30/24 Q1007=
27-Aug-2023 SAID31 WAOC 270930 METAR WAOC 270930Z AUTO 21005G05KT 30/25 Q1007=
27-Aug-2023 SAID31 WAOC 271000 METAR WAOC 271000Z AUTO 15005G05KT 29/24 Q1008=
27-Aug-2023 SAID31 WAOC 271030 METAR WAOC 271030Z AUTO VRB03G03KT 120V200 28/24 Q1008=
27-Aug-2023 SAID31 WAOC 271100 METAR WAOC 271100Z AUTO 14004G04KT 130V200 28/23 Q1009=
27-Aug-2023 SAID31 WAOC 271130 METAR WAOC 271130Z AUTO VRB02G02KT 120V190 28/24 Q1009=
27-Aug-2023 SAID31 WAOC 271200 METAR WAOC 271200Z AUTO VRB02G02KT 120V200 28/24 Q1010=
27-Aug-2023 SAID31 WAOC 271230 METAR WAOC 271230Z AUTO VRB02G02KT 110V180 27/24 Q1010=
27-Aug-2023 SAID31 WAOC 271300 METAR WAOC 271300Z AUTO VRB03G03KT 120V200 27/24 Q1010=
27-Aug-2023 SAID31 WAOC 271330 METAR WAOC 271330Z AUTO VRB02G02KT 170V250 27/24 Q1011=
27-Aug-2023 SAID31 WAOC 271400 METAR WAOC 271400Z AUTO VRB02G02KT 180V250 27/24 Q1011=
27-Aug-2023 SAID31 WAOC 271430 METAR WAOC 271430Z AUTO VRB03G03KT 27/24 Q1011=
27-Aug-2023 SAID31 WAOC 271500 METAR WAOC 271500Z AUTO VRB01G01KT 130V230 27/24 Q1011=
27-Aug-2023 SAID31 WAOC 271530 METAR WAOC 271530Z AUTO VRB03G03KT 140V220 27/24 Q1011=
27-Aug-2023 SAID31 WAOC 271600 METAR WAOC 271600Z AUTO VRB02G02KT 26/24 Q1011=
27-Aug-2023 SAID31 WAOC 271630 METAR WAOC 271630Z AUTO VRB01G01KT 25/24 Q1011=
27-Aug-2023 SAID31 WAOC 271700 METAR WAOC 271700Z AUTO VRB01G01KT 25/24 Q1010=
27-Aug-2023 SAID31 WAOC 271730 METAR WAOC 271730Z AUTO VRB01G01KT 25/24 Q1010=
27-Aug-2023 SAID31 WAOC 271800 METAR WAOC 271800Z AUTO VRB01G01KT 25/24 Q1010=
27-Aug-2023 SAID31 WAOC 271830 METAR WAOC 271830Z AUTO VRB01G01KT 25/24 Q1010=
27-Aug-2023 SAID31 WAOC 271900 METAR WAOC 271900Z AUTO VRB02G02KT 24/23 Q1009=
27-Aug-2023 SAID31 WAOC 271930 METAR WAOC 271930Z AUTO VRB01G01KT 25/24 Q1009=
27-Aug-2023 SAID31 WAOC 272000 METAR WAOC 272000Z AUTO VRB01G01KT 24/23 Q1009=
27-Aug-2023 SAID31 WAOC 272030 METAR WAOC 272030Z AUTO VRB01G01KT 150V250 24/23 Q1009=
27-Aug-2023 SAID31 WAOC 272100 METAR WAOC 272100Z AUTO VRB02G02KT 24/23 Q1009=
27-Aug-2023 SAID31 WAOC 272130 METAR WAOC 272130Z AUTO VRB01G01KT 190V300 24/23 Q1010=
27-Aug-2023 SAID31 WAOC 272200 METAR WAOC 272200Z AUTO VRB02G02KT 24/23 Q1010=
27-Aug-2023 SAID31 WAOC 272230 METAR WAOC 272230Z AUTO VRB02G02KT 24/23 Q1010=
27-Aug-2023 SAID31 WAOC 272300 METAR WAOC 272300Z AUTO VRB02G02KT 25/24 Q1011=
27-Aug-2023 SAID31 WAOC 272330 METAR WAOC 272330Z AUTO VRB01G01KT 26/24 Q1011=
28-Aug-2023 SAID31 WAOC 280000 METAR WAOC 280000Z AUTO VRB03G02KT 27/24 Q1011=
28-Aug-2023 SAID31 WAOC 280030 METAR WAOC 280030Z AUTO VRB02G02KT 180V310 28/24 Q1011=
28-Aug-2023 SAID31 WAOC 280100 METAR WAOC 280100Z AUTO VRB03G03KT 110V180 29/24 Q1011=
28-Aug-2023 SAID31 WAOC 280130 METAR WAOC 280130Z AUTO VRB02G02KT 140V230 30/24 Q1011=
28-Aug-2023 SAID31 WAOC 280200 METAR WAOC 280200Z AUTO VRB03G03KT 120V210 30/24 Q1011=
28-Aug-2023 SAID31 WAOC 280230 METAR WAOC 280230Z AUTO 20004G04KT 130V240 31/23 Q1011=
28-Aug-2023 SAID31 WAOC 280300 METAR WAOC 280300Z AUTO VRB02G02KT 140V240 31/24 Q1011=
28-Aug-2023 SAID31 WAOC 280330 METAR WAOC 280330Z AUTO 19004G04KT 130V230 30/23 Q1010=
28-Aug-2023 SAID31 WAOC 280400 METAR WAOC 280400Z AUTO VRB02G02KT 140V260 30/24 Q1010=
28-Aug-2023 SAID31 WAOC 280430 METAR WAOC 280430Z AUTO VRB03G03KT 130V250 30/24 Q1010=
28-Aug-2023 SAID31 WAOC 280500 METAR WAOC 280500Z AUTO 21004G04KT 170V260 31/24 Q1009=
28-Aug-2023 SAID31 WAOC 280530 METAR WAOC 280530Z AUTO 21004G04KT 31/24 Q1008=
28-Aug-2023 SAID31 WAOC 280600 METAR WAOC 280600Z AUTO VRB01G01KT 140V260 31/23 Q1008=
28-Aug-2023 SAID31 WAOC 280630 METAR WAOC 280630Z AUTO 20004G04KT 140V220 31/24 Q1008=
28-Aug-2023 SAID31 WAOC 280700 METAR WAOC 280700Z AUTO VRB03G03KT 160V250 31/24 Q1007=
28-Aug-2023 SAID31 WAOC 280730 METAR WAOC 280730Z AUTO VRB02G02KT 31/22 Q1007=
28-Aug-2023 SAID31 WAOC 280800 METAR WAOC 280800Z AUTO VRB02G02KT 31/23 Q1007=
28-Aug-2023 SAID31 WAOC 280830 METAR WAOC 280830Z AUTO 15005G05KT 100V170 30/23 Q1008=
28-Aug-2023 SAID31 WAOC 280900 METAR WAOC 280900Z AUTO VRB03G03KT 30/23 Q1008=
28-Aug-2023 SAID31 WAOC 280930 METAR WAOC 280930Z AUTO 13005G05KT 100V190 30/22 Q1008=
28-Aug-2023 SAID31 WAOC 281000 METAR WAOC 281000Z AUTO VRB02G03KT 29/22 Q1009=
28-Aug-2023 SAID31 WAOC 281030 METAR WAOC 281030Z AUTO VRB02G02KT 110V210 28/23 Q1009=
28-Aug-2023 SAID31 WAOC 281100 METAR WAOC 281100Z AUTO VRB03G03KT 120V190 28/23 Q1010=
28-Aug-2023 SAID31 WAOC 281130 METAR WAOC 281130Z AUTO VRB02G02KT 100V190 28/23 Q1010=
28-Aug-2023 SAID31 WAOC 281200 METAR WAOC 281200Z AUTO VRB02G02KT 27/23 Q1010=
28-Aug-2023 SAID31 WAOC 281230 METAR WAOC 281230Z AUTO VRB01G01KT 110V200 27/24 Q1011=
28-Aug-2023 SAID31 WAOC 281300 METAR WAOC 281300Z AUTO VRB01G01KT 100V180 27/24 Q1011=
28-Aug-2023 SAID31 WAOC 281330 METAR WAOC 281330Z AUTO VRB02G02KT 120V200 27/23 Q1011=
28-Aug-2023 SAID31 WAOC 281400 METAR WAOC 281400Z AUTO VRB01G01KT 110V200 26/24 Q1011=
28-Aug-2023 SAID31 WAOC 281430 METAR WAOC 281430Z AUTO VRB01G01KT 110V190 26/23 Q1011=
28-Aug-2023 SAID31 WAOC 281500 METAR WAOC 281500Z AUTO VRB01G01KT 120V210 26/23 Q1011=
28-Aug-2023 SAID31 WAOC 281530 METAR WAOC 281530Z AUTO 00000G00KT 160V250 26/23 Q1011=
28-Aug-2023 SAID31 WAOC 281600 METAR WAOC 281600Z AUTO VRB02G02KT 210V320 25/23 Q1011=
28-Aug-2023 SAID31 WAOC 281630 METAR WAOC 281630Z AUTO VRB02G02KT 230V300 24/23 Q1011=
28-Aug-2023 SAID31 WAOC 281700 METAR WAOC 281700Z AUTO VRB02G02KT 24/23 Q1010=
28-Aug-2023 SAID31 WAOC 281730 METAR WAOC 281730Z AUTO VRB02G02KT 24/23 Q1010=
28-Aug-2023 SAID31 WAOC 281800 METAR WAOC 281800Z AUTO VRB02G02KT 24/23 Q1010=
28-Aug-2023 SAID31 WAOC 281830 METAR WAOC 281830Z AUTO 31004G04KT 24/23 Q1010=
28-Aug-2023 SAID31 WAOC 281900 METAR WAOC 281900Z AUTO VRB03G03KT 24/23 Q1010=
28-Aug-2023 SAID31 WAOC 281930 METAR WAOC 281930Z AUTO VRB02G02KT 230V300 24/23 Q1010=
28-Aug-2023 SAID31 WAOC 282000 METAR WAOC 282000Z AUTO VRB02G02KT 24/23 Q1009=
28-Aug-2023 SAID31 WAOC 282030 METAR WAOC 282030Z AUTO VRB02G02KT 24/23 Q1010=
28-Aug-2023 SAID31 WAOC 282100 METAR WAOC 282100Z AUTO VRB03G03KT 24/23 Q1010=
28-Aug-2023 SAID31 WAOC 282130 METAR WAOC 282130Z AUTO VRB01G01KT 24/23 Q1010=
28-Aug-2023 SAID31 WAOC 282200 METAR WAOC 282200Z AUTO VRB02G02KT 24/23 Q1010=
28-Aug-2023 SAID31 WAOC 282230 METAR WAOC 282230Z AUTO VRB02G02KT 24/23 Q1010=
28-Aug-2023 SAID31 WAOC 282300 METAR WAOC 282300Z AUTO VRB02G02KT 25/23 Q1010=
28-Aug-2023 SAID31 WAOC 282330 METAR WAOC 282330Z AUTO VRB02G02KT 26/24 Q1011=
29-Aug-2023 SAID31 WAOC 290000 METAR WAOC 290000Z AUTO VRB03G03KT 230V300 27/24 Q1011=
29-Aug-2023 SAID31 WAOC 290030 METAR WAOC 290030Z AUTO VRB02G02KT 210V330 27/24 Q1011=
29-Aug-2023 SAID31 WAOC 290100 METAR WAOC 290100Z AUTO 17004G04KT 110V210 29/24 Q1011=
29-Aug-2023 SAID31 WAOC 290130 METAR WAOC 290130Z AUTO VRB03G03KT 140V220 29/24 Q1011=
29-Aug-2023 SAID31 WAOC 290200 METAR WAOC 290200Z AUTO VRB01G01KT 100V240 30/24 Q1011=
29-Aug-2023 SAID31 WAOC 290230 METAR WAOC 290230Z AUTO VRB03G02KT 060V220 31/24 Q1011=
29-Aug-2023 SAID31 WAOC 290300 METAR WAOC 290300Z AUTO VRB01G01KT 140V320 31/22 Q1011=
29-Aug-2023 SAID31 WAOC 290330 METAR WAOC 290330Z AUTO VRB03G03KT 070V170 31/22 Q1010=
29-Aug-2023 SAID31 WAOC 290400 METAR WAOC 290400Z AUTO VRB01G01KT 130V250 31/22 Q1010=
29-Aug-2023 SAID31 WAOC 290430 METAR WAOC 290430Z AUTO 23005G05KT 170V270 31/22 Q1010=
29-Aug-2023 SAID31 WAOC 290500 METAR WAOC 290500Z AUTO VRB03G03KT 170V240 31/23 Q1009=
29-Aug-2023 SAID31 WAOC 290530 METAR WAOC 290530Z AUTO VRB03G03KT 120V280 31/23 Q1009=
29-Aug-2023 SAID31 WAOC 290600 METAR WAOC 290600Z AUTO 17004G04KT 140V210 32/23 Q1008=
29-Aug-2023 SAID31 WAOC 290630 METAR WAOC 290630Z AUTO VRB02G02KT 130V250 31/23 Q1008=
29-Aug-2023 SAID31 WAOC 290700 METAR WAOC 290700Z AUTO VRB02G02KT 120V210 31/23 Q1008=
29-Aug-2023 SAID31 WAOC 290730 METAR WAOC 290730Z AUTO VRB03G03KT 120V190 30/23 Q1007=
29-Aug-2023 SAID31 WAOC 290800 METAR WAOC 290800Z AUTO 16004G04KT 130V220 31/23 Q1007=
29-Aug-2023 SAID31 WAOC 290830 METAR WAOC 290830Z AUTO VRB03G03KT 120V220 31/24 Q1007=
29-Aug-2023 SAID31 WAOC 290900 METAR WAOC 290900Z AUTO VRB02G03KT 150V240 30/23 Q1007=
29-Aug-2023 SAID31 WAOC 290930 METAR WAOC 290930Z AUTO VRB02G02KT 30/24 Q1007=
29-Aug-2023 SAID31 WAOC 291000 METAR WAOC 291000Z AUTO 19005G05KT 060V240 29/24 Q1008=
29-Aug-2023 SAID31 WAOC 291330 METAR WAOC 291330Z AUTO VRB02G02KT 130V250 27/24 Q1010=
29-Aug-2023 SAID31 WAOC 291400 METAR WAOC 291400Z AUTO VRB01G01KT 110V220 27/24 Q1011=
29-Aug-2023 SAID31 WAOC 291430 METAR WAOC 291430Z AUTO VRB02G02KT 110V240 27/24 Q1011=
29-Aug-2023 SAID31 WAOC 291500 METAR WAOC 291500Z AUTO VRB02G02KT 140V220 27/24 Q1010=
29-Aug-2023 SAID31 WAOC 291530 METAR WAOC 291530Z AUTO VRB01G01KT 190V300 26/24 Q1010=
29-Aug-2023 SAID31 WAOC 291600 METAR WAOC 291600Z AUTO VRB01G01KT 25/24 Q1010=
29-Aug-2023 SAID31 WAOC 291630 METAR WAOC 291630Z AUTO VRB01G01KT 25/24 Q1010=
29-Aug-2023 SAID31 WAOC 291700 METAR WAOC 291700Z AUTO VRB02G02KT 25/24 Q1010=
29-Aug-2023 SAID31 WAOC 291730 METAR WAOC 291730Z AUTO VRB01G01KT 25/24 Q1010=
29-Aug-2023 SAID31 WAOC 291800 METAR WAOC 291800Z AUTO 00000G00KT 210V290 25/24 Q1010=
29-Aug-2023 SAID31 WAOC 291830 METAR WAOC 291830Z AUTO VRB02G02KT 25/23 Q1010=
29-Aug-2023 SAID31 WAOC 291900 METAR WAOC 291900Z AUTO VRB01G01KT 25/23 Q1010=
29-Aug-2023 SAID31 WAOC 291930 METAR WAOC 291930Z AUTO VRB02G02KT 24/23 Q1010=
29-Aug-2023 SAID31 WAOC 292000 METAR WAOC 292000Z AUTO VRB02G02KT 24/23 Q1009=
29-Aug-2023 SAID31 WAOC 292030 METAR WAOC 292030Z AUTO VRB02G02KT 24/23 Q1009=
29-Aug-2023 SAID31 WAOC 292100 METAR WAOC 292100Z AUTO VRB02G02KT 24/23 Q1009=
29-Aug-2023 SAID31 WAOC 292130 METAR WAOC 292130Z AUTO VRB02G02KT 24/23 Q1010=
29-Aug-2023 SAID31 WAOC 292200 METAR WAOC 292200Z AUTO VRB01G01KT 24/23 Q1010=
29-Aug-2023 SAID31 WAOC 292230 METAR WAOC 292230Z AUTO VRB02G02KT 23/23 Q1010=
29-Aug-2023 SAID31 WAOC 292300 METAR WAOC 292300Z AUTO VRB02G02KT 24/23 Q1011=
29-Aug-2023 SAID31 WAOC 292330 METAR WAOC 292330Z AUTO VRB02G02KT 090V320 25/24 Q1011=
30-Aug-2023 SAID31 WAOC 300000 METAR WAOC 300000Z AUTO VRB02G02KT 26/24 Q1011=
30-Aug-2023 SAID31 WAOC 300030 METAR WAOC 300030Z AUTO VRB03G03KT 27/25 Q1011=
30-Aug-2023 SAID31 WAOC 300100 METAR WAOC 300100Z AUTO VRB01G01KT 190V310 29/25 Q1012=
30-Aug-2023 SAID31 WAOC 300130 METAR WAOC 300130Z AUTO 00000G01KT 080V220 29/25 Q1012=
30-Aug-2023 SAID31 WAOC 300200 METAR WAOC 300200Z AUTO VRB02G02KT 050V170 30/24 Q1011=
30-Aug-2023 SAID31 WAOC 300330 METAR WAOC 300330Z AUTO VRB01G01KT 280V170 30/24 Q1011=
30-Aug-2023 SAID31 WAOC 300730 METAR WAOC 300730Z AUTO VRB02G02KT 090V180 31/23 Q1008=
30-Aug-2023 SAID31 WAOC 300800 METAR WAOC 300800Z AUTO VRB03G03KT 31/23 Q1008=
30-Aug-2023 SAID31 WAOC 300830 METAR WAOC 300830Z AUTO VRB03G03KT 31/23 Q1008=
30-Aug-2023 SAID31 WAOC 300900 METAR WAOC 300900Z AUTO 12005G05KT 090V170 30/23 Q1008=
30-Aug-2023 SAID31 WAOC 300930 METAR WAOC 300930Z AUTO 12004G04KT 29/23 Q1008=
30-Aug-2023 SAID31 WAOC 301000 METAR WAOC 301000Z AUTO VRB03G03KT 090V160 29/24 Q1009=
30-Aug-2023 SAID31 WAOC 301030 METAR WAOC 301030Z AUTO VRB02G02KT 090V170 28/23 Q1009=
30-Aug-2023 SAID31 WAOC 301100 METAR WAOC 301100Z AUTO VRB01G01KT 28/23 Q1009=
30-Aug-2023 SAID31 WAOC 301130 METAR WAOC 301130Z AUTO VRB01G01KT 28/23 Q1009=
30-Aug-2023 SAID31 WAOC 301200 METAR WAOC 301200Z AUTO VRB01G01KT 28/23 Q1010=
30-Aug-2023 SAID31 WAOC 301230 METAR WAOC 301230Z AUTO VRB01G01KT 080V180 28/23 Q1010=
30-Aug-2023 SAID31 WAOC 301300 METAR WAOC 301300Z AUTO VRB01G01KT 120V260 27/23 Q1011=
30-Aug-2023 SAID31 WAOC 301330 METAR WAOC 301330Z AUTO VRB01G01KT 26/23 Q1011=
30-Aug-2023 SAID31 WAOC 301400 METAR WAOC 301400Z AUTO VRB01G01KT 26/23 Q1011=
30-Aug-2023 SAID31 WAOC 301430 METAR WAOC 301430Z AUTO VRB01G01KT 25/23 Q1011=
30-Aug-2023 SAID31 WAOC 301500 METAR WAOC 301500Z AUTO VRB02G02KT 25/23 Q1011=
30-Aug-2023 SAID31 WAOC 301530 METAR WAOC 301530Z AUTO VRB02G02KT 25/23 Q1011=
30-Aug-2023 SAID31 WAOC 301600 METAR WAOC 301600Z AUTO VRB01G01KT 25/23 Q1011=
30-Aug-2023 SAID31 WAOC 301630 METAR WAOC 301630Z AUTO VRB02G02KT 25/23 Q1011=
30-Aug-2023 SAID31 WAOC 301700 METAR WAOC 301700Z AUTO VRB02G02KT 24/23 Q1011=
30-Aug-2023 SAID31 WAOC 301730 METAR WAOC 301730Z AUTO VRB02G02KT 24/23 Q1011=
30-Aug-2023 SAID31 WAOC 301800 METAR WAOC 301800Z AUTO VRB02G02KT 24/23 Q1010=
30-Aug-2023 SAID31 WAOC 301830 METAR WAOC 301830Z AUTO VRB01G01KT 24/23 Q1010=
30-Aug-2023 SAID31 WAOC 301900 METAR WAOC 301900Z AUTO VRB02G02KT 190V310 24/23 Q1010=
30-Aug-2023 SAID31 WAOC 301930 METAR WAOC 301930Z AUTO VRB02G02KT 24/23 Q1010=
30-Aug-2023 SAID31 WAOC 302000 METAR WAOC 302000Z AUTO VRB01G01KT 24/23 Q1010=
30-Aug-2023 SAID31 WAOC 302030 METAR WAOC 302030Z AUTO VRB02G02KT 24/23 Q1010=
30-Aug-2023 SAID31 WAOC 302100 METAR WAOC 302100Z AUTO VRB03G03KT 24/23 Q1010=
30-Aug-2023 SAID31 WAOC 302130 METAR WAOC 302130Z AUTO VRB03G03KT 24/23 Q1011=
30-Aug-2023 SAID31 WAOC 302200 METAR WAOC 302200Z AUTO VRB02G02KT 24/23 Q1011=
30-Aug-2023 SAID31 WAOC 302230 METAR WAOC 302230Z AUTO VRB02G02KT 250V320 24/23 Q1011=
30-Aug-2023 SAID31 WAOC 302300 METAR WAOC 302300Z AUTO VRB03G03KT 25/23 Q1012=
30-Aug-2023 SAID31 WAOC 302330 METAR WAOC 302330Z AUTO VRB03G03KT 26/24 Q1012=
31-Aug-2023 SAID31 WAOC 310000 METAR WAOC 310000Z AUTO VRB03G03KT 26/24 Q1012=
31-Aug-2023 SAID31 WAOC 310030 METAR WAOC 310030Z AUTO VRB03G03KT 27/24 Q1013=
31-Aug-2023 SAID31 WAOC 310100 METAR WAOC 310100Z AUTO VRB02G02KT 180V270 28/25 Q1013=
31-Aug-2023 SAID31 WAOC 310130 METAR WAOC 310130Z AUTO VRB03G03KT 110V230 29/24 Q1013=
31-Aug-2023 SAID31 WAOC 310200 METAR WAOC 310200Z AUTO VRB02G02KT 130V230 30/24 Q1012=
31-Aug-2023 SAID31 WAOC 310230 METAR WAOC 310230Z AUTO VRB03G03KT 100V280 32/24 Q1012=
31-Aug-2023 SAID31 WAOC 310300 METAR WAOC 310300Z AUTO VRB03G03KT 110V220 32/22 Q1012=
31-Aug-2023 SAID31 WAOC 310330 METAR WAOC 310330Z AUTO VRB03G03KT 130V210 32/23 Q1011=
31-Aug-2023 SAID31 WAOC 310400 METAR WAOC 310400Z AUTO VRB02G02KT 180V270 31/24 Q1011=
31-Aug-2023 SAID31 WAOC 310430 METAR WAOC 310430Z AUTO VRB03G03KT 120V250 32/24 Q1010=
31-Aug-2023 SAID31 WAOC 310500 METAR WAOC 310500Z AUTO 19006G06KT 150V230 32/24 Q1010=
31-Aug-2023 SAID31 WAOC 310530 METAR WAOC 310530Z AUTO 23004G03KT 140V250 31/25 Q1009=
31-Aug-2023 SAID31 WAOC 310600 METAR WAOC 310600Z AUTO VRB03G03KT 160V250 31/25 Q1009=
31-Aug-2023 SAID31 WAOC 310630 METAR WAOC 310630Z AUTO VRB03G03KT 160V240 31/25 Q1008=
31-Aug-2023 SAID31 WAOC 310700 METAR WAOC 310700Z AUTO 20004G04KT 150V220 31/25 Q1008=
31-Aug-2023 SAID31 WAOC 310730 METAR WAOC 310730Z AUTO 11005G05KT 110V190 31/24 Q1008=
31-Aug-2023 SAID31 WAOC 310800 METAR WAOC 310800Z AUTO VRB02G02KT 110V210 31/24 Q1008=
31-Aug-2023 SAID31 WAOC 310830 METAR WAOC 310830Z AUTO VRB02G02KT 130V200 31/23 Q1008=
31-Aug-2023 SAID31 WAOC 310900 METAR WAOC 310900Z AUTO 14005G04KT 120V190 30/23 Q1008=
31-Aug-2023 SAID31 WAOC 310930 METAR WAOC 310930Z AUTO VRB02G02KT 30/23 Q1009=
31-Aug-2023 SAID31 WAOC 311000 METAR WAOC 311000Z AUTO 15004G04KT 100V200 29/23 Q1009=
31-Aug-2023 SAID31 WAOC 311030 METAR WAOC 311030Z AUTO VRB02G02KT 28/23 Q1009=
31-Aug-2023 SAID31 WAOC 311100 METAR WAOC 311100Z AUTO 13004G04KT 100V180 28/24 Q1010=
31-Aug-2023 SAID31 WAOC 311130 METAR WAOC 311130Z AUTO VRB01G01KT 130V210 28/24 Q1010=
31-Aug-2023 SAID31 WAOC 311200 METAR WAOC 311200Z AUTO VRB02G02KT 110V200 28/24 Q1010=
31-Aug-2023 SAID31 WAOC 311230 METAR WAOC 311230Z AUTO VRB02G02KT 140V220 27/23 Q1011=
31-Aug-2023 SAID31 WAOC 311300 METAR WAOC 311300Z AUTO VRB01G01KT 130V210 27/23 Q1011=
31-Aug-2023 SAID31 WAOC 311330 METAR WAOC 311330Z AUTO VRB02G02KT 27/23 Q1012=
31-Aug-2023 SAID31 WAOC 311400 METAR WAOC 311400Z AUTO VRB01G01KT 140V230 27/23 Q1012=
31-Aug-2023 SAID31 WAOC 311430 METAR WAOC 311430Z AUTO VRB02G02KT 25/23 Q1012=
31-Aug-2023 SAID31 WAOC 311500 METAR WAOC 311500Z AUTO VRB02G02KT 25/23 Q1012=
31-Aug-2023 SAID31 WAOC 311530 METAR WAOC 311530Z AUTO VRB02G02KT 25/23 Q1012=
31-Aug-2023 SAID31 WAOC 311600 METAR WAOC 311600Z AUTO VRB01G01KT 200V310 25/23 Q1012=
31-Aug-2023 SAID31 WAOC 311630 METAR WAOC 311630Z AUTO VRB01G01KT 25/23 Q1011=
31-Aug-2023 SAID31 WAOC 311700 METAR WAOC 311700Z AUTO VRB02G02KT 25/23 Q1011=
31-Aug-2023 SAID31 WAOC 311730 METAR WAOC 311730Z AUTO VRB02G02KT 24/23 Q1011=
31-Aug-2023 SAID31 WAOC 311800 METAR WAOC 311800Z AUTO VRB02G02KT 220V300 24/23 Q1011=
31-Aug-2023 SAID31 WAOC 311830 METAR WAOC 311830Z AUTO VRB01G01KT 210V280 24/23 Q1011=
31-Aug-2023 SAID31 WAOC 311900 METAR WAOC 311900Z AUTO 00000G00KT 190V270 24/23 Q1010=
31-Aug-2023 SAID31 WAOC 311930 METAR WAOC 311930Z AUTO VRB02G02KT 24/23 Q1010=
31-Aug-2023 SAID31 WAOC 312000 METAR WAOC 312000Z AUTO VRB02G02KT 24/23 Q1011=
31-Aug-2023 SAID31 WAOC 312030 METAR WAOC 312030Z AUTO VRB02G02KT 24/23 Q1011=
31-Aug-2023 SAID31 WAOC 312100 METAR WAOC 312100Z AUTO VRB02G02KT 240V310 24/23 Q1011=
31-Aug-2023 SAID31 WAOC 312130 METAR WAOC 312130Z AUTO VRB02G02KT 24/23 Q1011=
31-Aug-2023 SAID31 WAOC 312200 METAR WAOC 312200Z AUTO VRB02G02KT 24/23 Q1012=
31-Aug-2023 SAID31 WAOC 312230 METAR WAOC 312230Z AUTO VRB02G02KT 230V300 24/23 Q1012=
31-Aug-2023 SAID31 WAOC 312300 METAR WAOC 312300Z AUTO VRB01G01KT 25/23 Q1012=
31-Aug-2023 SAID31 WAOC 312330 METAR WAOC 312330Z AUTO VRB01G01KT 26/24 Q1013=
01-Sep-2023 SAID31 WAOC 010000 METAR WAOC 010000Z AUTO VRB01G01KT 180V250 27/23 Q1013=
01-Sep-2023 SAID31 WAOC 010030 METAR WAOC 010030Z AUTO 17004G04KT 140V220 28/23 Q1013=
01-Sep-2023 SAID31 WAOC 010100 METAR WAOC 010100Z AUTO 13004G04KT 090V240 29/22 Q1013=
01-Sep-2023 SAID31 WAOC 010130 METAR WAOC 010130Z AUTO 20004G04KT 110V210 30/21 Q1013=
01-Sep-2023 SAID31 WAOC 010200 METAR WAOC 010200Z AUTO 14004G04KT 110V190 29/21 Q1013=
01-Sep-2023 SAID31 WAOC 010230 METAR WAOC 010230Z AUTO VRB03G03KT 150V220 30/20 Q1013=
01-Sep-2023 SAID31 WAOC 010300 METAR WAOC 010300Z AUTO 23004G04KT 150V250 31/19 Q1012=
01-Sep-2023 SAID31 WAOC 010330 METAR WAOC 010330Z AUTO VRB02G02KT 140V220 31/18 Q1012=
01-Sep-2023 SAID31 WAOC 010400 METAR WAOC 010400Z AUTO VRB03G03KT 180V270 32/17 Q1011=
01-Sep-2023 SAID31 WAOC 010430 METAR WAOC 010430Z AUTO VRB02G02KT 170V270 31/16 Q1011=
01-Sep-2023 SAID31 WAOC 010500 METAR WAOC 010500Z AUTO 17004G04KT 150V250 32/17 Q1010=
01-Sep-2023 SAID31 WAOC 010530 METAR WAOC 010530Z AUTO VRB03G03KT 160V260 32/19 Q1010=
01-Sep-2023 SAID31 WAOC 010600 METAR WAOC 010600Z AUTO VRB03G02KT 160V230 32/19 Q1009=
01-Sep-2023 SAID31 WAOC 010630 METAR WAOC 010630Z AUTO 21007G05KT 150V220 32/20 Q1009=
01-Sep-2023 SAID31 WAOC 010700 METAR WAOC 010700Z AUTO 22004G03KT 31/20 Q1009=
01-Sep-2023 SAID31 WAOC 010730 METAR WAOC 010730Z AUTO 22006G06KT 31/20 Q1008=
01-Sep-2023 SAID31 WAOC 010800 METAR WAOC 010800Z AUTO 24007G07KT 180V280 31/20 Q1008=
01-Sep-2023 SAID31 WAOC 010830 METAR WAOC 010830Z AUTO 20004G05KT 30/21 Q1008=
01-Sep-2023 SAID31 WAOC 010900 METAR WAOC 010900Z AUTO 23005G05KT 190V290 30/21 Q1008=
01-Sep-2023 SAID31 WAOC 010930 METAR WAOC 010930Z AUTO 20004G04KT 30/21 Q1008=
01-Sep-2023 SAID31 WAOC 011000 METAR WAOC 011000Z AUTO VRB03G03KT 190V260 29/21 Q1009=
01-Sep-2023 SAID31 WAOC 011030 METAR WAOC 011030Z AUTO 16004G04KT 120V230 28/20 Q1009=
01-Sep-2023 SAID31 WAOC 011100 METAR WAOC 011100Z AUTO 13004G04KT 100V190 28/20 Q1009=
01-Sep-2023 SAID31 WAOC 011130 METAR WAOC 011130Z AUTO VRB03G02KT 120V210 27/21 Q1010=
01-Sep-2023 SAID31 WAOC 011200 METAR WAOC 011200Z AUTO VRB03G03KT 130V200 27/21 Q1010=
01-Sep-2023 SAID31 WAOC 011830 METAR WAOC 011830Z AUTO VRB02G02KT 23/21 Q1010=
01-Sep-2023 SAID31 WAOC 011900 METAR WAOC 011900Z AUTO VRB02G02KT 23/21 Q1010=
01-Sep-2023 SAID31 WAOC 011930 METAR WAOC 011930Z AUTO VRB01G01KT 180V350 23/21 Q1010=
01-Sep-2023 SAID31 WAOC 012000 METAR WAOC 012000Z AUTO VRB02G03KT 23/21 Q1010=
01-Sep-2023 SAID31 WAOC 012030 METAR WAOC 012030Z AUTO VRB02G02KT 23/21 Q1010=
01-Sep-2023 SAID31 WAOC 012100 METAR WAOC 012100Z AUTO VRB01G01KT 23/21 Q1010=
01-Sep-2023 SAID31 WAOC 012130 METAR WAOC 012130Z AUTO VRB01G01KT 23/21 Q1010=
01-Sep-2023 SAID31 WAOC 012200 METAR WAOC 012200Z AUTO VRB02G02KT 23/21 Q1011=
01-Sep-2023 SAID31 WAOC 012230 METAR WAOC 012230Z AUTO VRB02G02KT 22/21 Q1011=
01-Sep-2023 SAID31 WAOC 012300 METAR WAOC 012300Z AUTO VRB01G01KT 23/21 Q1011=
01-Sep-2023 SAID31 WAOC 012330 METAR WAOC 012330Z AUTO VRB03G03KT 250V320 25/22 Q1011=
02-Sep-2023 SAID31 WAOC 020000 METAR WAOC 020000Z AUTO VRB03G03KT 26/22 Q1012=
02-Sep-2023 SAID31 WAOC 020030 METAR WAOC 020030Z AUTO VRB03G03KT 240V310 27/22 Q1012=
02-Sep-2023 SAID31 WAOC 020100 METAR WAOC 020100Z AUTO VRB03G03KT 190V300 28/23 Q1012=
02-Sep-2023 SAID31 WAOC 020130 METAR WAOC 020130Z AUTO VRB02G02KT 140V300 29/23 Q1012=
02-Sep-2023 SAID31 WAOC 020200 METAR WAOC 020200Z AUTO VRB03G03KT 160V230 30/23 Q1011=
02-Sep-2023 SAID31 WAOC 020230 METAR WAOC 020230Z AUTO VRB02G02KT 110V220 31/22 Q1011=
02-Sep-2023 SAID31 WAOC 020300 METAR WAOC 020300Z AUTO VRB02G02KT 100V190 31/23 Q1011=
02-Sep-2023 SAID31 WAOC 020330 METAR WAOC 020330Z AUTO VRB03G03KT 090V220 31/22 Q1010=
02-Sep-2023 SAID31 WAOC 020400 METAR WAOC 020400Z AUTO 23004G04KT 110V200 31/22 Q1010=
02-Sep-2023 SAID31 WAOC 020430 METAR WAOC 020430Z AUTO 20005G05KT 110V220 31/23 Q1009=
02-Sep-2023 SAID31 WAOC 020500 METAR WAOC 020500Z AUTO VRB02G02KT 140V250 31/22 Q1009=
02-Sep-2023 SAID31 WAOC 020530 METAR WAOC 020530Z AUTO 18005G05KT 150V220 30/23 Q1009=
02-Sep-2023 SAID31 WAOC 020600 METAR WAOC 020600Z AUTO 20004G04KT 150V250 31/23 Q1008=
02-Sep-2023 SAID31 WAOC 020630 METAR WAOC 020630Z AUTO 18005G05KT 160V240 32/23 Q1008=
02-Sep-2023 SAID31 WAOC 020700 METAR WAOC 020700Z AUTO 21004G04KT 160V280 31/23 Q1007=
02-Sep-2023 SAID31 WAOC 020730 METAR WAOC 020730Z AUTO VRB01G02KT 110V220 31/23 Q1007=
02-Sep-2023 SAID31 WAOC 020800 METAR WAOC 020800Z AUTO VRB02G02KT 130V280 31/23 Q1007=
02-Sep-2023 SAID31 WAOC 020830 METAR WAOC 020830Z AUTO 22005G05KT 160V230 30/23 Q1007=
02-Sep-2023 SAID31 WAOC 020900 METAR WAOC 020900Z AUTO 19004G05KT 140V210 30/23 Q1007=
02-Sep-2023 SAID31 WAOC 020930 METAR WAOC 020930Z AUTO VRB03G03KT 30/23 Q1007=
02-Sep-2023 SAID31 WAOC 021000 METAR WAOC 021000Z AUTO 15004G04KT 120V210 29/23 Q1008=
02-Sep-2023 SAID31 WAOC 021030 METAR WAOC 021030Z AUTO VRB03G03KT 110V200 28/23 Q1008=
02-Sep-2023 SAID31 WAOC 021100 METAR WAOC 021100Z AUTO VRB02G02KT 100V220 28/23 Q1008=
02-Sep-2023 SAID31 WAOC 021130 METAR WAOC 021130Z AUTO VRB02G02KT 110V210 28/23 Q1009=
02-Sep-2023 SAID31 WAOC 021200 METAR WAOC 021200Z AUTO VRB03G03KT 110V180 27/23 Q1009=
02-Sep-2023 SAID31 WAOC 021230 METAR WAOC 021230Z AUTO 14004G04KT 110V190 27/23 Q1010=
02-Sep-2023 SAID31 WAOC 021300 METAR WAOC 021300Z AUTO VRB03G03KT 27/23 Q1010=
02-Sep-2023 SAID31 WAOC 021330 METAR WAOC 021330Z AUTO VRB02G02KT 120V230 27/23 Q1010=
02-Sep-2023 SAID31 WAOC 021400 METAR WAOC 021400Z AUTO VRB03G03KT 100V250 27/23 Q1011=
02-Sep-2023 SAID31 WAOC 021430 METAR WAOC 021430Z AUTO VRB02G02KT 130V200 27/23 Q1011=
02-Sep-2023 SAID31 WAOC 021500 METAR WAOC 021500Z AUTO VRB01G01KT 140V250 27/23 Q1011=
02-Sep-2023 SAID31 WAOC 021530 METAR WAOC 021530Z AUTO VRB03G03KT 130V210 26/23 Q1011=
02-Sep-2023 SAID31 WAOC 021600 METAR WAOC 021600Z AUTO VRB01G01KT 25/23 Q1011=
02-Sep-2023 SAID31 WAOC 021630 METAR WAOC 021630Z AUTO VRB01G01KT 25/23 Q1010=
02-Sep-2023 SAID31 WAOC 021700 METAR WAOC 021700Z AUTO VRB01G01KT 24/23 Q1010=
02-Sep-2023 SAID31 WAOC 021730 METAR WAOC 021730Z AUTO VRB01G01KT 24/23 Q1010=
02-Sep-2023 SAID31 WAOC 021800 METAR WAOC 021800Z AUTO VRB01G01KT 24/23 Q1010=
02-Sep-2023 SAID31 WAOC 021830 METAR WAOC 021830Z AUTO VRB02G02KT 24/23 Q1010=
02-Sep-2023 SAID31 WAOC 021900 METAR WAOC 021900Z AUTO VRB01G01KT 24/22 Q1010=
02-Sep-2023 SAID31 WAOC 021930 METAR WAOC 021930Z AUTO VRB01G01KT 210V280 24/22 Q1010=
02-Sep-2023 SAID31 WAOC 022000 METAR WAOC 022000Z AUTO VRB01G01KT 24/22 Q1010=
02-Sep-2023 SAID31 WAOC 022030 METAR WAOC 022030Z AUTO VRB01G01KT 23/22 Q1010=
02-Sep-2023 SAID31 WAOC 022100 METAR WAOC 022100Z AUTO VRB02G02KT 23/22 Q1010=
02-Sep-2023 SAID31 WAOC 022130 METAR WAOC 022130Z AUTO VRB01G01KT 23/22 Q1011=
02-Sep-2023 SAID31 WAOC 022200 METAR WAOC 022200Z AUTO 00000G00KT 180V290 23/22 Q1011=
02-Sep-2023 SAID31 WAOC 022230 METAR WAOC 022230Z AUTO VRB01G01KT 23/22 Q1011=
02-Sep-2023 SAID31 WAOC 022300 METAR WAOC 022300Z AUTO VRB01G01KT 240V320 24/23 Q1012=
02-Sep-2023 SAID31 WAOC 022330 METAR WAOC 022330Z AUTO VRB02G02KT 25/23 Q1012=
03-Sep-2023 SAID31 WAOC 030000 METAR WAOC 030000Z AUTO VRB02G02KT 26/23 Q1012=
03-Sep-2023 SAID31 WAOC 030030 METAR WAOC 030030Z AUTO VRB03G03KT 170V300 27/23 Q1012=
03-Sep-2023 SAID31 WAOC 030100 METAR WAOC 030100Z AUTO VRB02G02KT 110V240 29/24 Q1012=
03-Sep-2023 SAID31 WAOC 030130 METAR WAOC 030130Z AUTO VRB03G02KT 100V220 29/22 Q1012=
03-Sep-2023 SAID31 WAOC 030200 METAR WAOC 030200Z AUTO VRB03G03KT 30/21 Q1012=
03-Sep-2023 SAID31 WAOC 030230 METAR WAOC 030230Z AUTO VRB02G02KT 150V240 30/21 Q1012=
03-Sep-2023 SAID31 WAOC 030300 METAR WAOC 030300Z AUTO VRB03G03KT 140V290 31/21 Q1011=
03-Sep-2023 SAID31 WAOC 030330 METAR WAOC 030330Z AUTO VRB02G02KT 140V250 32/19 Q1011=
03-Sep-2023 SAID31 WAOC 030400 METAR WAOC 030400Z AUTO VRB02G02KT 090V220 32/20 Q1010=
03-Sep-2023 SAID31 WAOC 030430 METAR WAOC 030430Z AUTO 19005G05KT 090V280 32/19 Q1010=
03-Sep-2023 SAID31 WAOC 030500 METAR WAOC 030500Z AUTO 21004G04KT 150V240 32/20 Q1009=
03-Sep-2023 SAID31 WAOC 030530 METAR WAOC 030530Z AUTO VRB03G03KT 090V200 32/21 Q1009=
03-Sep-2023 SAID31 WAOC 030600 METAR WAOC 030600Z AUTO VRB01G01KT 120V230 32/21 Q1008=
03-Sep-2023 SAID31 WAOC 030630 METAR WAOC 030630Z AUTO 18004G04KT 130V220 32/21 Q1008=
03-Sep-2023 SAID31 WAOC 030700 METAR WAOC 030700Z AUTO VRB02G02KT 100V230 32/22 Q1008=
03-Sep-2023 SAID31 WAOC 030730 METAR WAOC 030730Z AUTO VRB02G02KT 140V230 31/21 Q1008=
03-Sep-2023 SAID31 WAOC 030800 METAR WAOC 030800Z AUTO VRB02G02KT 100V170 30/20 Q1008=
03-Sep-2023 SAID31 WAOC 030830 METAR WAOC 030830Z AUTO 13004G04KT 30/20 Q1008=
03-Sep-2023 SAID31 WAOC 030900 METAR WAOC 030900Z AUTO VRB01G01KT 110V210 30/20 Q1008=
03-Sep-2023 SAID31 WAOC 031100 METAR WAOC 031100Z AUTO VRB03G03KT 100V180 27/22 Q1009=
03-Sep-2023 SAID31 WAOC 031130 METAR WAOC 031130Z AUTO VRB02G02KT 110V190 27/22 Q1009=
03-Sep-2023 SAID31 WAOC 031200 METAR WAOC 031200Z AUTO VRB03G03KT 110V210 27/23 Q1009=
03-Sep-2023 SAID31 WAOC 031230 METAR WAOC 031230Z AUTO 16004G04KT 110V210 27/22 Q1009=
03-Sep-2023 SAID31 WAOC 031300 METAR WAOC 031300Z AUTO VRB01G01KT 120V210 27/23 Q1010=
03-Sep-2023 SAID31 WAOC 031330 METAR WAOC 031330Z AUTO VRB02G02KT 120V200 27/23 Q1010=
03-Sep-2023 SAID31 WAOC 031400 METAR WAOC 031400Z AUTO VRB02G02KT 120V220 27/23 Q1010=
03-Sep-2023 SAID31 WAOC 031500 METAR WAOC 031500Z AUTO VRB01G01KT 190V260 26/23 Q1010=
03-Sep-2023 SAID31 WAOC 031530 METAR WAOC 031530Z AUTO VRB03G03KT 24/22 Q1011=
03-Sep-2023 SAID31 WAOC 031600 METAR WAOC 031600Z AUTO VRB02G02KT 24/22 Q1010=
03-Sep-2023 SAID31 WAOC 031630 METAR WAOC 031630Z AUTO VRB03G03KT 24/22 Q1010=
03-Sep-2023 SAID31 WAOC 031700 METAR WAOC 031700Z AUTO VRB02G02KT 24/22 Q1010=
03-Sep-2023 SAID31 WAOC 031730 METAR WAOC 031730Z AUTO VRB02G02KT 24/22 Q1010=
03-Sep-2023 SAID31 WAOC 031800 METAR WAOC 031800Z AUTO VRB02G02KT 24/22 Q1010=
03-Sep-2023 SAID31 WAOC 031830 METAR WAOC 031830Z AUTO VRB01G01KT 24/22 Q1009=
03-Sep-2023 SAID31 WAOC 031900 METAR WAOC 031900Z AUTO VRB02G02KT 24/22 Q1009=
03-Sep-2023 SAID31 WAOC 031930 METAR WAOC 031930Z AUTO VRB03G03KT 23/22 Q1009=
03-Sep-2023 SAID31 WAOC 032000 METAR WAOC 032000Z AUTO VRB02G02KT 23/22 Q1009=
03-Sep-2023 SAID31 WAOC 032030 METAR WAOC 032030Z AUTO VRB03G03KT 24/22 Q1009=
03-Sep-2023 SAID31 WAOC 032100 METAR WAOC 032100Z AUTO VRB02G02KT 23/22 Q1009=
03-Sep-2023 SAID31 WAOC 032130 METAR WAOC 032130Z AUTO VRB03G03KT 23/22 Q1009=
03-Sep-2023 SAID31 WAOC 032200 METAR WAOC 032200Z AUTO VRB02G02KT 23/22 Q1010=
03-Sep-2023 SAID31 WAOC 032230 METAR WAOC 032230Z AUTO VRB02G02KT 24/22 Q1010=
03-Sep-2023 SAID31 WAOC 032300 METAR WAOC 032300Z AUTO VRB03G03KT 24/23 Q1010=
03-Sep-2023 SAID31 WAOC 032330 METAR WAOC 032330Z AUTO VRB02G02KT 25/23 Q1010=
04-Sep-2023 SAID31 WAOC 040000 METAR WAOC 040000Z AUTO VRB03G03KT 26/23 Q1011=
04-Sep-2023 SAID31 WAOC 040030 METAR WAOC 040030Z AUTO VRB02G02KT 230V300 27/23 Q1011=
04-Sep-2023 SAID31 WAOC 040100 METAR WAOC 040100Z AUTO VRB01G01KT 140V270 28/24 Q1011=
04-Sep-2023 SAID31 WAOC 040130 METAR WAOC 040130Z AUTO VRB03G03KT 150V250 29/23 Q1011=
04-Sep-2023 SAID31 WAOC 040200 METAR WAOC 040200Z AUTO VRB02G03KT 120V190 30/23 Q1010=
04-Sep-2023 SAID31 WAOC 040230 METAR WAOC 040230Z AUTO 20004G03KT 130V230 31/22 Q1010=
04-Sep-2023 SAID31 WAOC 040300 METAR WAOC 040300Z AUTO 20004G04KT 170V240 31/22 Q1010=
04-Sep-2023 SAID31 WAOC 040330 METAR WAOC 040330Z AUTO 24004G04KT 160V260 31/22 Q1009=
04-Sep-2023 SAID31 WAOC 040400 METAR WAOC 040400Z AUTO VRB03G03KT 070V250 31/22 Q1009=
04-Sep-2023 SAID31 WAOC 040430 METAR WAOC 040430Z AUTO VRB03G03KT 120V210 31/23 Q1009=
04-Sep-2023 SAID31 WAOC 040500 METAR WAOC 040500Z AUTO VRB03G03KT 140V250 30/23 Q1008=
04-Sep-2023 SAID31 WAOC 040530 METAR WAOC 040530Z AUTO 21004G04KT 30/23 Q1008=
04-Sep-2023 SAID31 WAOC 040600 METAR WAOC 040600Z AUTO 18004G04KT 150V240 30/23 Q1007=
04-Sep-2023 SAID31 WAOC 040630 METAR WAOC 040630Z AUTO VRB03G03KT 160V230 30/24 Q1007=
04-Sep-2023 SAID31 WAOC 040700 METAR WAOC 040700Z AUTO 21005G05KT 150V250 29/24 Q1007=
04-Sep-2023 SAID31 WAOC 040730 METAR WAOC 040730Z AUTO VRB03G03KT 160V250 28/24 Q1007=
04-Sep-2023 SAID31 WAOC 040800 METAR WAOC 040800Z AUTO VRB01G01KT 160V250 28/24 Q1007=
04-Sep-2023 SAID31 WAOC 040830 METAR WAOC 040830Z AUTO VRB03G03KT 28/24 Q1007=
04-Sep-2023 SAID31 WAOC 040900 METAR WAOC 040900Z AUTO VRB03G03KT 28/23 Q1007=
04-Sep-2023 SAID31 WAOC 040930 METAR WAOC 040930Z AUTO VRB02G02KT 100V220 28/23 Q1008=
04-Sep-2023 SAID31 WAOC 041000 METAR WAOC 041000Z AUTO VRB02G03KT 120V210 28/23 Q1008=
04-Sep-2023 SAID31 WAOC 041030 METAR WAOC 041030Z AUTO 15004G04KT 110V190 28/23 Q1008=
04-Sep-2023 SAID31 WAOC 041100 METAR WAOC 041100Z AUTO VRB02G02KT 100V200 28/23 Q1009=
04-Sep-2023 SAID31 WAOC 041130 METAR WAOC 041130Z AUTO VRB02G02KT 120V210 28/23 Q1009=
04-Sep-2023 SAID31 WAOC 041200 METAR WAOC 041200Z AUTO VRB02G02KT 130V220 27/23 Q1009=
04-Sep-2023 SAID31 WAOC 041230 METAR WAOC 041230Z AUTO VRB03G03KT 070V230 27/23 Q1009=
04-Sep-2023 SAID31 WAOC 041300 METAR WAOC 041300Z AUTO VRB02G02KT 27/23 Q1010=
04-Sep-2023 SAID31 WAOC 041330 METAR WAOC 041330Z AUTO VRB01G01KT 130V230 27/23 Q1010=
04-Sep-2023 SAID31 WAOC 041400 METAR WAOC 041400Z AUTO VRB01G01KT 150V220 27/23 Q1010=
04-Sep-2023 SAID31 WAOC 041430 METAR WAOC 041430Z AUTO VRB01G01KT 120V230 27/23 Q1010=
04-Sep-2023 SAID31 WAOC 041500 METAR WAOC 041500Z AUTO VRB01G01KT 170V280 26/23 Q1010=
04-Sep-2023 SAID31 WAOC 041530 METAR WAOC 041530Z AUTO VRB02G02KT 25/23 Q1010=
04-Sep-2023 SAID31 WAOC 041600 METAR WAOC 041600Z AUTO VRB01G01KT 220V290 25/23 Q1010=
04-Sep-2023 SAID31 WAOC 041630 METAR WAOC 041630Z AUTO VRB02G02KT 26/23 Q1010=
04-Sep-2023 SAID31 WAOC 041700 METAR WAOC 041700Z AUTO VRB02G02KT 25/23 Q1010=
04-Sep-2023 SAID31 WAOC 041730 METAR WAOC 041730Z AUTO VRB02G02KT 25/23 Q1010=
04-Sep-2023 SAID31 WAOC 041800 METAR WAOC 041800Z AUTO VRB02G02KT 25/23 Q1009=
04-Sep-2023 SAID31 WAOC 041830 METAR WAOC 041830Z AUTO VRB02G02KT 24/23 Q1009=
04-Sep-2023 SAID31 WAOC 041900 METAR WAOC 041900Z AUTO VRB02G02KT 24/23 Q1009=
04-Sep-2023 SAID31 WAOC 041930 METAR WAOC 041930Z AUTO VRB02G02KT 24/23 Q1009=
04-Sep-2023 SAID31 WAOC 042000 METAR WAOC 042000Z AUTO VRB02G02KT 24/23 Q1009=
04-Sep-2023 SAID31 WAOC 042030 METAR WAOC 042030Z AUTO VRB02G02KT 24/23 Q1009=
04-Sep-2023 SAID31 WAOC 042100 METAR WAOC 042100Z AUTO VRB02G02KT 24/23 Q1010=
04-Sep-2023 SAID31 WAOC 042130 METAR WAOC 042130Z AUTO VRB01G01KT 24/23 Q1010=
04-Sep-2023 SAID31 WAOC 042200 METAR WAOC 042200Z AUTO VRB01G01KT 24/23 Q1010=
04-Sep-2023 SAID31 WAOC 042230 METAR WAOC 042230Z AUTO VRB02G02KT 24/24 Q1010=
04-Sep-2023 SAID31 WAOC 042300 METAR WAOC 042300Z AUTO VRB01G01KT 25/24 Q1011=
04-Sep-2023 SAID31 WAOC 042330 METAR WAOC 042330Z AUTO VRB02G02KT 26/24 Q1011=
05-Sep-2023 SAID31 WAOC 050000 METAR WAOC 050000Z AUTO VRB01G01KT 220V310 27/24 Q1011=
05-Sep-2023 SAID31 WAOC 050030 METAR WAOC 050030Z AUTO 00000G00KT 150V250 28/25 Q1011=
05-Sep-2023 SAID31 WAOC 050100 METAR WAOC 050100Z AUTO VRB02G02KT 130V210 29/25 Q1012=
05-Sep-2023 SAID31 WAOC 050130 METAR WAOC 050130Z AUTO VRB03G03KT 120V210 29/25 Q1011=
05-Sep-2023 SAID31 WAOC 050200 METAR WAOC 050200Z AUTO VRB03G03KT 090V220 30/24 Q1011=
05-Sep-2023 SAID31 WAOC 050230 METAR WAOC 050230Z AUTO VRB02G02KT 110V220 32/24 Q1011=
05-Sep-2023 SAID31 WAOC 050300 METAR WAOC 050300Z AUTO VRB03G03KT 30/25 Q1011=
05-Sep-2023 SAID31 WAOC 050330 METAR WAOC 050330Z AUTO 15004G04KT 110V200 31/25 Q1011=
05-Sep-2023 SAID31 WAOC 050400 METAR WAOC 050400Z AUTO 14004G04KT 100V230 31/23 Q1010=
05-Sep-2023 SAID31 WAOC 050430 METAR WAOC 050430Z AUTO VRB02G02KT 110V180 32/23 Q1010=
05-Sep-2023 SAID31 WAOC 050500 METAR WAOC 050500Z AUTO 15006G06KT 120V210 31/24 Q1009=
05-Sep-2023 SAID31 WAOC 050530 METAR WAOC 050530Z AUTO VRB03G03KT 140V220 32/24 Q1009=
05-Sep-2023 SAID31 WAOC 050600 METAR WAOC 050600Z AUTO VRB03G03KT 130V200 31/24 Q1009=
05-Sep-2023 SAID31 WAOC 050630 METAR WAOC 050630Z AUTO 17004G04KT 130V230 31/24 Q1008=
05-Sep-2023 SAID31 WAOC 050700 METAR WAOC 050700Z AUTO VRB02G02KT 120V210 28/25 Q1008=
05-Sep-2023 SAID31 WAOC 050730 METAR WAOC 050730Z AUTO VRB02G02KT 120V200 29/26 Q1008=
05-Sep-2023 SAID31 WAOC 050800 METAR WAOC 050800Z AUTO VRB02G02KT 110V210 30/25 Q1008=
05-Sep-2023 SAID31 WAOC 050830 METAR WAOC 050830Z AUTO 17004G04KT 110V200 30/25 Q1008=
06-Sep-2023 SAID31 WAOC 060330 METAR WAOC 060330Z AUTO VRB01G01KT 090V240 31/24 Q1011=
06-Sep-2023 SAID31 WAOC 060400 METAR WAOC 060400Z AUTO VRB02G02KT 140V250 32/24 Q1011=
06-Sep-2023 SAID31 WAOC 060430 METAR WAOC 060430Z AUTO 19004G04KT 150V320 32/24 Q1010=
06-Sep-2023 SAID31 WAOC 060500 METAR WAOC 060500Z AUTO 22004G04KT 160V260 31/25 Q1010=
06-Sep-2023 SAID31 WAOC 060530 METAR WAOC 060530Z AUTO VRB02G02KT 060V230 32/25 Q1009=
06-Sep-2023 SAID31 WAOC 060600 METAR WAOC 060600Z AUTO VRB03G03KT 120V230 29/25 Q1009=
06-Sep-2023 SAID31 WAOC 060630 METAR WAOC 060630Z AUTO 20004G04KT 110V260 29/26 Q1009=
06-Sep-2023 SAID31 WAOC 060700 METAR WAOC 060700Z AUTO VRB03G03KT 110V190 28/26 Q1009=
06-Sep-2023 SAID31 WAOC 060730 METAR WAOC 060730Z AUTO 19004G04KT 160V250 28/26 Q1008=
06-Sep-2023 SAID31 WAOC 060800 METAR WAOC 060800Z AUTO VRB03G03KT 190V270 27/26 Q1008=
06-Sep-2023 SAID31 WAOC 060830 METAR WAOC 060830Z AUTO VRB01G01KT 150V220 28/26 Q1008=
06-Sep-2023 SAID31 WAOC 060900 METAR WAOC 060900Z AUTO VRB02G02KT 110V190 28/24 Q1009=
06-Sep-2023 SAID31 WAOC 060930 METAR WAOC 060930Z AUTO VRB02G02KT 29/24 Q1009=
06-Sep-2023 SAID31 WAOC 061000 METAR WAOC 061000Z AUTO VRB03G03KT 28/24 Q1009=
06-Sep-2023 SAID31 WAOC 061030 METAR WAOC 061030Z AUTO VRB03G03KT 28/24 Q1010=
06-Sep-2023 SAID31 WAOC 061100 METAR WAOC 061100Z AUTO VRB02G02KT 100V180 27/24 Q1010=
06-Sep-2023 SAID31 WAOC 061130 METAR WAOC 061130Z AUTO VRB02G02KT 090V180 27/24 Q1011=
06-Sep-2023 SAID31 WAOC 061200 METAR WAOC 061200Z AUTO VRB02G02KT 27/24 Q1011=
06-Sep-2023 SAID31 WAOC 061230 METAR WAOC 061230Z AUTO 14005G05KT 120V190 27/24 Q1011=
06-Sep-2023 SAID31 WAOC 061300 METAR WAOC 061300Z AUTO VRB01G01KT 27/24 Q1012=
06-Sep-2023 SAID31 WAOC 061330 METAR WAOC 061330Z AUTO VRB02G02KT 120V190 27/24 Q1012=
06-Sep-2023 SAID31 WAOC 061400 METAR WAOC 061400Z AUTO VRB01G01KT 26/24 Q1012=
06-Sep-2023 SAID31 WAOC 061430 METAR WAOC 061430Z AUTO VRB02G02KT 26/24 Q1012=
06-Sep-2023 SAID31 WAOC 061500 METAR WAOC 061500Z AUTO VRB02G02KT 25/24 Q1012=
06-Sep-2023 SAID31 WAOC 061530 METAR WAOC 061530Z AUTO VRB02G02KT 24/24 Q1012=
06-Sep-2023 SAID31 WAOC 061600 METAR WAOC 061600Z AUTO VRB02G02KT 24/24 Q1012=
06-Sep-2023 SAID31 WAOC 061630 METAR WAOC 061630Z AUTO VRB02G02KT 24/24 Q1012=
06-Sep-2023 SAID31 WAOC 061700 METAR WAOC 061700Z AUTO VRB02G02KT 24/24 Q1011=
06-Sep-2023 SAID31 WAOC 061730 METAR WAOC 061730Z AUTO VRB02G02KT 24/23 Q1011=
06-Sep-2023 SAID31 WAOC 061800 METAR WAOC 061800Z AUTO VRB02G02KT 24/23 Q1011=
06-Sep-2023 SAID31 WAOC 061830 METAR WAOC 061830Z AUTO VRB02G02KT 24/23 Q1011=
06-Sep-2023 SAID31 WAOC 061900 METAR WAOC 061900Z AUTO VRB02G02KT 24/23 Q1011=
06-Sep-2023 SAID31 WAOC 061930 METAR WAOC 061930Z AUTO VRB03G03KT 24/23 Q1010=
06-Sep-2023 SAID31 WAOC 062000 METAR WAOC 062000Z AUTO VRB02G02KT 24/23 Q1010=
06-Sep-2023 SAID31 WAOC 062030 METAR WAOC 062030Z AUTO VRB03G03KT 24/23 Q1011=
06-Sep-2023 SAID31 WAOC 062100 METAR WAOC 062100Z AUTO VRB03G03KT 24/23 Q1011=
06-Sep-2023 SAID31 WAOC 062130 METAR WAOC 062130Z AUTO VRB01G01KT 240V310 24/23 Q1011=
06-Sep-2023 SAID31 WAOC 062200 METAR WAOC 062200Z AUTO VRB03G03KT 24/23 Q1011=
06-Sep-2023 SAID31 WAOC 062230 METAR WAOC 062230Z AUTO VRB02G03KT 24/23 Q1012=
06-Sep-2023 SAID31 WAOC 062300 METAR WAOC 062300Z AUTO VRB02G02KT 25/23 Q1012=
06-Sep-2023 SAID31 WAOC 062330 METAR WAOC 062330Z AUTO VRB03G03KT 26/24 Q1012=
07-Sep-2023 SAID31 WAOC 070000 METAR WAOC 070000Z AUTO VRB03G03KT 27/24 Q1013=
07-Sep-2023 SAID31 WAOC 070030 METAR WAOC 070030Z AUTO VRB03G03KT 27/25 Q1013=
07-Sep-2023 SAID31 WAOC 070100 METAR WAOC 070100Z AUTO VRB03G02KT 28/25 Q1013=
07-Sep-2023 SAID31 WAOC 070130 METAR WAOC 070130Z AUTO VRB01G01KT 210V300 28/25 Q1013=
07-Sep-2023 SAID31 WAOC 070200 METAR WAOC 070200Z AUTO VRB02G02KT 190V280 29/25 Q1013=
07-Sep-2023 SAID31 WAOC 070230 METAR WAOC 070230Z AUTO VRB01G01KT 110V250 30/24 Q1013=
07-Sep-2023 SAID31 WAOC 070300 METAR WAOC 070300Z AUTO VRB03G03KT 120V250 31/24 Q1012=
07-Sep-2023 SAID31 WAOC 070330 METAR WAOC 070330Z AUTO VRB02G02KT 180V260 30/24 Q1012=
07-Sep-2023 SAID31 WAOC 070400 METAR WAOC 070400Z AUTO 23004G02KT 180V270 30/24 Q1012=
07-Sep-2023 SAID31 WAOC 070430 METAR WAOC 070430Z AUTO 21006G06KT 160V280 32/24 Q1011=
07-Sep-2023 SAID31 WAOC 070500 METAR WAOC 070500Z AUTO 18004G04KT 150V250 31/24 Q1011=
07-Sep-2023 SAID31 WAOC 070530 METAR WAOC 070530Z AUTO VRB03G03KT 170V280 32/24 Q1010=
07-Sep-2023 SAID31 WAOC 070600 METAR WAOC 070600Z AUTO 22005G05KT 140V260 31/24 Q1010=
07-Sep-2023 SAID31 WAOC 070630 METAR WAOC 070630Z AUTO VRB03G03KT 150V230 32/24 Q1009=
07-Sep-2023 SAID31 WAOC 070700 METAR WAOC 070700Z AUTO 20004G04KT 160V250 31/24 Q1009=
07-Sep-2023 SAID31 WAOC 070730 METAR WAOC 070730Z AUTO 20004G04KT 140V240 32/23 Q1009=
07-Sep-2023 SAID31 WAOC 070800 METAR WAOC 070800Z AUTO VRB03G03KT 160V230 31/24 Q1009=
07-Sep-2023 SAID31 WAOC 070830 METAR WAOC 070830Z AUTO VRB03G03KT 110V220 31/24 Q1009=
07-Sep-2023 SAID31 WAOC 070900 METAR WAOC 070900Z AUTO VRB03G03KT 130V310 31/23 Q1009=
07-Sep-2023 SAID31 WAOC 070930 METAR WAOC 070930Z AUTO 13004G04KT 110V210 30/23 Q1009=
07-Sep-2023 SAID31 WAOC 071000 METAR WAOC 071000Z AUTO 14004G04KT 29/22 Q1010=
07-Sep-2023 SAID31 WAOC 071030 METAR WAOC 071030Z AUTO 17005G05KT 130V210 29/23 Q1010=
07-Sep-2023 SAID31 WAOC 071100 METAR WAOC 071100Z AUTO VRB03G03KT 110V180 28/23 Q1010=
07-Sep-2023 SAID31 WAOC 071130 METAR WAOC 071130Z AUTO 16004G04KT 110V180 28/23 Q1011=
07-Sep-2023 SAID31 WAOC 071200 METAR WAOC 071200Z AUTO VRB03G02KT 140V230 28/23 Q1011=
07-Sep-2023 SAID31 WAOC 071230 METAR WAOC 071230Z AUTO VRB02G02KT 140V220 27/23 Q1012=
07-Sep-2023 SAID31 WAOC 071300 METAR WAOC 071300Z AUTO VRB01G01KT 150V230 27/23 Q1012=
07-Sep-2023 SAID31 WAOC 071330 METAR WAOC 071330Z AUTO VRB01G01KT 26/23 Q1012=
07-Sep-2023 SAID31 WAOC 071400 METAR WAOC 071400Z AUTO VRB01G01KT 26/23 Q1013=
07-Sep-2023 SAID31 WAOC 071430 METAR WAOC 071430Z AUTO VRB01G01KT 25/23 Q1013=
07-Sep-2023 SAID31 WAOC 071500 METAR WAOC 071500Z AUTO VRB03G03KT 25/23 Q1013=
07-Sep-2023 SAID31 WAOC 071530 METAR WAOC 071530Z AUTO VRB02G02KT 25/23 Q1013=
07-Sep-2023 SAID31 WAOC 071600 METAR WAOC 071600Z AUTO VRB01G01KT 25/23 Q1013=
07-Sep-2023 SAID31 WAOC 071630 METAR WAOC 071630Z AUTO VRB02G02KT 25/23 Q1013=
07-Sep-2023 SAID31 WAOC 071700 METAR WAOC 071700Z AUTO VRB02G02KT 25/23 Q1012=
07-Sep-2023 SAID31 WAOC 071730 METAR WAOC 071730Z AUTO VRB03G03KT 24/23 Q1012=
07-Sep-2023 SAID31 WAOC 071800 METAR WAOC 071800Z AUTO VRB02G02KT 24/23 Q1012=
07-Sep-2023 SAID31 WAOC 071830 METAR WAOC 071830Z AUTO VRB02G02KT 24/23 Q1012=
07-Sep-2023 SAID31 WAOC 071900 METAR WAOC 071900Z AUTO VRB02G02KT 24/23 Q1012=
07-Sep-2023 SAID31 WAOC 071930 METAR WAOC 071930Z AUTO VRB01G01KT 24/23 Q1011=
07-Sep-2023 SAID31 WAOC 072000 METAR WAOC 072000Z AUTO VRB01G01KT 24/23 Q1011=
07-Sep-2023 SAID31 WAOC 072030 METAR WAOC 072030Z AUTO VRB02G02KT 24/23 Q1011=
07-Sep-2023 SAID31 WAOC 072100 METAR WAOC 072100Z AUTO VRB02G02KT 24/23 Q1011=
07-Sep-2023 SAID31 WAOC 072130 METAR WAOC 072130Z AUTO VRB02G02KT 24/23 Q1012=
07-Sep-2023 SAID31 WAOC 072200 METAR WAOC 072200Z AUTO VRB02G02KT 24/23 Q1012=
07-Sep-2023 SAID31 WAOC 072230 METAR WAOC 072230Z AUTO 29004G04KT 24/23 Q1012=
07-Sep-2023 SAID31 WAOC 072300 METAR WAOC 072300Z AUTO VRB02G02KT 24/23 Q1012=
07-Sep-2023 SAID31 WAOC 072330 METAR WAOC 072330Z AUTO VRB02G02KT 26/24 Q1013=
08-Sep-2023 SAID31 WAOC 080000 METAR WAOC 080000Z AUTO VRB01G01KT 27/24 Q1013=
08-Sep-2023 SAID31 WAOC 080030 METAR WAOC 080030Z AUTO VRB02G02KT 180V260 27/24 Q1013=
08-Sep-2023 SAID31 WAOC 080100 METAR WAOC 080100Z AUTO VRB02G02KT 190V280 28/24 Q1013=
08-Sep-2023 SAID31 WAOC 080130 METAR WAOC 080130Z AUTO VRB03G03KT 090V220 30/24 Q1013=
08-Sep-2023 SAID31 WAOC 080200 METAR WAOC 080200Z AUTO 16004G04KT 090V210 30/23 Q1013=
08-Sep-2023 SAID31 WAOC 080230 METAR WAOC 080230Z AUTO VRB03G03KT 110V180 30/23 Q1013=
08-Sep-2023 SAID31 WAOC 080300 METAR WAOC 080300Z AUTO 14004G04KT 110V210 31/23 Q1012=
08-Sep-2023 SAID31 WAOC 080330 METAR WAOC 080330Z AUTO 20004G04KT 120V240 32/22 Q1012=
08-Sep-2023 SAID31 WAOC 080400 METAR WAOC 080400Z AUTO 15004G04KT 110V200 32/21 Q1011=
08-Sep-2023 SAID31 WAOC 080430 METAR WAOC 080430Z AUTO 17004G04KT 120V200 32/21 Q1011=
08-Sep-2023 SAID31 WAOC 080500 METAR WAOC 080500Z AUTO VRB03G03KT 080V190 32/21 Q1010=
08-Sep-2023 SAID31 WAOC 080530 METAR WAOC 080530Z AUTO VRB02G02KT 120V210 32/22 Q1010=
08-Sep-2023 SAID31 WAOC 080600 METAR WAOC 080600Z AUTO VRB01G01KT 100V190 33/23 Q1009=
08-Sep-2023 SAID31 WAOC 080630 METAR WAOC 080630Z AUTO VRB02G02KT 100V190 32/21 Q1009=
08-Sep-2023 SAID31 WAOC 080700 METAR WAOC 080700Z AUTO 17005G05KT 140V240 32/23 Q1009=
08-Sep-2023 SAID31 WAOC 080730 METAR WAOC 080730Z AUTO 17005G05KT 140V230 32/23 Q1009=
08-Sep-2023 SAID31 WAOC 080800 METAR WAOC 080800Z AUTO 16005G03KT 130V210 32/22 Q1009=
08-Sep-2023 SAID31 WAOC 080830 METAR WAOC 080830Z AUTO 16004G04KT 31/22 Q1009=
08-Sep-2023 SAID31 WAOC 080900 METAR WAOC 080900Z AUTO 12004G04KT 30/22 Q1009=
08-Sep-2023 SAID31 WAOC 080930 METAR WAOC 080930Z AUTO 12004G04KT 30/22 Q1009=
08-Sep-2023 SAID31 WAOC 081000 METAR WAOC 081000Z AUTO 15004G04KT 29/21 Q1010=
08-Sep-2023 SAID31 WAOC 081030 METAR WAOC 081030Z AUTO VRB02G02KT 29/22 Q1010=
08-Sep-2023 SAID31 WAOC 081100 METAR WAOC 081100Z AUTO VRB03G03KT 100V180 28/22 Q1010=
08-Sep-2023 SAID31 WAOC 081130 METAR WAOC 081130Z AUTO VRB02G02KT 28/23 Q1011=
08-Sep-2023 SAID31 WAOC 081200 METAR WAOC 081200Z AUTO VRB03G03KT 100V220 28/23 Q1011=
08-Sep-2023 SAID31 WAOC 081230 METAR WAOC 081230Z AUTO VRB01G01KT 120V220 27/23 Q1012=
08-Sep-2023 SAID31 WAOC 081300 METAR WAOC 081300Z AUTO VRB02G02KT 160V240 27/23 Q1012=
08-Sep-2023 SAID31 WAOC 081330 METAR WAOC 081330Z AUTO 00000G00KT 190V280 27/23 Q1012=
08-Sep-2023 SAID31 WAOC 081400 METAR WAOC 081400Z AUTO VRB01G01KT 26/23 Q1012=
08-Sep-2023 SAID31 WAOC 081430 METAR WAOC 081430Z AUTO VRB02G02KT 25/23 Q1012=
08-Sep-2023 SAID31 WAOC 081500 METAR WAOC 081500Z AUTO VRB01G01KT 25/23 Q1012=
08-Sep-2023 SAID31 WAOC 081530 METAR WAOC 081530Z AUTO VRB02G02KT 25/23 Q1012=
08-Sep-2023 SAID31 WAOC 081600 METAR WAOC 081600Z AUTO VRB02G02KT 24/23 Q1012=
08-Sep-2023 SAID31 WAOC 081630 METAR WAOC 081630Z AUTO VRB01G01KT 170V320 24/23 Q1011=
08-Sep-2023 SAID31 WAOC 081700 METAR WAOC 081700Z AUTO VRB01G01KT 25/23 Q1011=
08-Sep-2023 SAID31 WAOC 081730 METAR WAOC 081730Z AUTO VRB02G02KT 25/23 Q1011=
08-Sep-2023 SAID31 WAOC 081800 METAR WAOC 081800Z AUTO VRB01G01KT 24/23 Q1011=
08-Sep-2023 SAID31 WAOC 081830 METAR WAOC 081830Z AUTO VRB01G01KT 24/23 Q1011=
08-Sep-2023 SAID31 WAOC 081900 METAR WAOC 081900Z AUTO VRB01G01KT 24/23 Q1010=
08-Sep-2023 SAID31 WAOC 081930 METAR WAOC 081930Z AUTO VRB02G02KT 23/22 Q1011=
08-Sep-2023 SAID31 WAOC 082000 METAR WAOC 082000Z AUTO 00000G00KT 24/23 Q1011=
08-Sep-2023 SAID31 WAOC 082030 METAR WAOC 082030Z AUTO VRB01G01KT 24/23 Q1011=
08-Sep-2023 SAID31 WAOC 082100 METAR WAOC 082100Z AUTO VRB01G01KT 24/23 Q1011=
08-Sep-2023 SAID31 WAOC 082130 METAR WAOC 082130Z AUTO VRB02G02KT 24/23 Q1011=
08-Sep-2023 SAID31 WAOC 082200 METAR WAOC 082200Z AUTO VRB01G01KT 24/23 Q1011=
08-Sep-2023 SAID31 WAOC 082230 METAR WAOC 082230Z AUTO VRB02G02KT 24/23 Q1012=
08-Sep-2023 SAID31 WAOC 082300 METAR WAOC 082300Z AUTO VRB02G02KT 25/24 Q1012=
08-Sep-2023 SAID31 WAOC 082330 METAR WAOC 082330Z AUTO VRB02G02KT 26/24 Q1012=
09-Sep-2023 SAID31 WAOC 090000 METAR WAOC 090000Z AUTO VRB02G02KT 230V300 26/24 Q1012=
09-Sep-2023 SAID31 WAOC 090030 METAR WAOC 090030Z AUTO VRB01G01KT 200V320 27/24 Q1012=
09-Sep-2023 SAID31 WAOC 090100 METAR WAOC 090100Z AUTO VRB01G01KT 250V180 29/25 Q1013=
09-Sep-2023 SAID31 WAOC 090130 METAR WAOC 090130Z AUTO 14005G05KT 100V240 29/23 Q1012=
09-Sep-2023 SAID31 WAOC 090200 METAR WAOC 090200Z AUTO VRB02G02KT 100V210 30/23 Q1012=
09-Sep-2023 SAID31 WAOC 090230 METAR WAOC 090230Z AUTO VRB02G02KT 120V240 31/23 Q1012=
09-Sep-2023 SAID31 WAOC 090300 METAR WAOC 090300Z AUTO VRB03G03KT 120V230 31/22 Q1011=
09-Sep-2023 SAID31 WAOC 090330 METAR WAOC 090330Z AUTO 19005G03KT 31/22 Q1011=
09-Sep-2023 SAID31 WAOC 090400 METAR WAOC 090400Z AUTO VRB03G03KT 090V190 32/20 Q1010=
09-Sep-2023 SAID31 WAOC 090430 METAR WAOC 090430Z AUTO VRB02G02KT 120V200 32/20 Q1010=
09-Sep-2023 SAID31 WAOC 090500 METAR WAOC 090500Z AUTO VRB02G02KT 110V210 32/21 Q1010=
09-Sep-2023 SAID31 WAOC 090530 METAR WAOC 090530Z AUTO 18004G04KT 150V220 32/22 Q1009=
09-Sep-2023 SAID31 WAOC 090600 METAR WAOC 090600Z AUTO VRB03G03KT 160V280 31/23 Q1009=
09-Sep-2023 SAID31 WAOC 090630 METAR WAOC 090630Z AUTO 21006G06KT 31/23 Q1008=
09-Sep-2023 SAID31 WAOC 090700 METAR WAOC 090700Z AUTO VRB03G04KT 040V290 31/23 Q1008=
09-Sep-2023 SAID31 WAOC 090730 METAR WAOC 090730Z AUTO 19005G05KT 150V230 30/23 Q1008=
09-Sep-2023 SAID31 WAOC 090800 METAR WAOC 090800Z AUTO VRB02G02KT 30/23 Q1008=
09-Sep-2023 SAID31 WAOC 090830 METAR WAOC 090830Z AUTO VRB03G03KT 130V220 30/23 Q1008=
09-Sep-2023 SAID31 WAOC 090900 METAR WAOC 090900Z AUTO VRB03G03KT 130V200 30/22 Q1009=
09-Sep-2023 SAID31 WAOC 090930 METAR WAOC 090930Z AUTO 15004G04KT 30/22 Q1009=
09-Sep-2023 SAID31 WAOC 091000 METAR WAOC 091000Z AUTO VRB03G03KT 090V180 29/22 Q1009=
09-Sep-2023 SAID31 WAOC 091030 METAR WAOC 091030Z AUTO VRB03G03KT 28/22 Q1010=
09-Sep-2023 SAID31 WAOC 091100 METAR WAOC 091100Z AUTO VRB03G03KT 100V170 28/23 Q1010=
09-Sep-2023 SAID31 WAOC 091130 METAR WAOC 091130Z AUTO VRB02G02KT 110V200 28/23 Q1010=
09-Sep-2023 SAID31 WAOC 091200 METAR WAOC 091200Z AUTO VRB01G01KT 110V180 27/23 Q1011=
09-Sep-2023 SAID31 WAOC 091230 METAR WAOC 091230Z AUTO 16004G04KT 110V180 27/23 Q1011=
09-Sep-2023 SAID31 WAOC 091300 METAR WAOC 091300Z AUTO VRB03G03KT 110V180 27/23 Q1011=
09-Sep-2023 SAID31 WAOC 091330 METAR WAOC 091330Z AUTO VRB01G01KT 110V220 27/23 Q1012=
09-Sep-2023 SAID31 WAOC 091400 METAR WAOC 091400Z AUTO VRB02G02KT 100V180 27/23 Q1012=
09-Sep-2023 SAID31 WAOC 091430 METAR WAOC 091430Z AUTO 00000G00KT 170V280 27/23 Q1012=
09-Sep-2023 SAID31 WAOC 091500 METAR WAOC 091500Z AUTO VRB01G01KT 26/23 Q1012=
09-Sep-2023 SAID31 WAOC 091530 METAR WAOC 091530Z AUTO VRB02G02KT 26/23 Q1012=
09-Sep-2023 SAID31 WAOC 091600 METAR WAOC 091600Z AUTO VRB01G01KT 25/23 Q1012=
09-Sep-2023 SAID31 WAOC 091630 METAR WAOC 091630Z AUTO VRB01G01KT 25/23 Q1011=
09-Sep-2023 SAID31 WAOC 091700 METAR WAOC 091700Z AUTO VRB02G02KT 25/23 Q1011=
09-Sep-2023 SAID31 WAOC 091730 METAR WAOC 091730Z AUTO VRB02G02KT 25/23 Q1011=
09-Sep-2023 SAID31 WAOC 091800 METAR WAOC 091800Z AUTO VRB02G02KT 25/23 Q1010=
09-Sep-2023 SAID31 WAOC 091830 METAR WAOC 091830Z AUTO VRB02G02KT 25/23 Q1010=
09-Sep-2023 SAID31 WAOC 091900 METAR WAOC 091900Z AUTO VRB01G01KT 25/23 Q1010=
09-Sep-2023 SAID31 WAOC 091930 METAR WAOC 091930Z AUTO VRB01G01KT 25/23 Q1010=
09-Sep-2023 SAID31 WAOC 092000 METAR WAOC 092000Z AUTO VRB01G01KT 25/23 Q1010=
09-Sep-2023 SAID31 WAOC 092030 METAR WAOC 092030Z AUTO VRB02G02KT 25/23 Q1010=
09-Sep-2023 SAID31 WAOC 092100 METAR WAOC 092100Z AUTO VRB02G02KT 24/23 Q1010=
09-Sep-2023 SAID31 WAOC 092130 METAR WAOC 092130Z AUTO VRB02G02KT 24/23 Q1010=
09-Sep-2023 SAID31 WAOC 092200 METAR WAOC 092200Z AUTO VRB02G02KT 25/23 Q1011=
09-Sep-2023 SAID31 WAOC 092230 METAR WAOC 092230Z AUTO VRB03G03KT 25/23 Q1011=
09-Sep-2023 SAID31 WAOC 092300 METAR WAOC 092300Z AUTO VRB02G02KT 230V300 25/24 Q1012=
09-Sep-2023 SAID31 WAOC 092330 METAR WAOC 092330Z AUTO VRB01G01KT 26/24 Q1012=
10-Sep-2023 SAID31 WAOC 100000 METAR WAOC 100000Z AUTO VRB02G02KT 27/24 Q1012=
10-Sep-2023 SAID31 WAOC 100030 METAR WAOC 100030Z AUTO VRB02G02KT 27/24 Q1013=
10-Sep-2023 SAID31 WAOC 100100 METAR WAOC 100100Z AUTO VRB02G02KT 220V290 28/24 Q1013=
10-Sep-2023 SAID31 WAOC 100130 METAR WAOC 100130Z AUTO VRB01G01KT 160V310 29/25 Q1013=
10-Sep-2023 SAID31 WAOC 100200 METAR WAOC 100200Z AUTO VRB02G02KT 100V210 31/24 Q1013=
10-Sep-2023 SAID31 WAOC 100230 METAR WAOC 100230Z AUTO VRB01G01KT 110V210 31/24 Q1012=
10-Sep-2023 SAID31 WAOC 100300 METAR WAOC 100300Z AUTO VRB02G02KT 110V210 31/23 Q1012=
10-Sep-2023 SAID31 WAOC 100330 METAR WAOC 100330Z AUTO VRB02G02KT 100V280 32/23 Q1011=
10-Sep-2023 SAID31 WAOC 100400 METAR WAOC 100400Z AUTO 14004G02KT 090V160 33/23 Q1010=
10-Sep-2023 SAID31 WAOC 100430 METAR WAOC 100430Z AUTO 17005G05KT 110V220 32/24 Q1010=
10-Sep-2023 SAID31 WAOC 100500 METAR WAOC 100500Z AUTO VRB01G01KT 130V250 33/24 Q1010=
10-Sep-2023 SAID31 WAOC 100530 METAR WAOC 100530Z AUTO VRB02G02KT 120V280 33/25 Q1009=
10-Sep-2023 SAID31 WAOC 100600 METAR WAOC 100600Z AUTO 21004G04KT 160V230 32/24 Q1009=
10-Sep-2023 SAID31 WAOC 100630 METAR WAOC 100630Z AUTO 19004G03KT 130V240 31/25 Q1009=
10-Sep-2023 SAID31 WAOC 100700 METAR WAOC 100700Z AUTO 18005G05KT 160V230 31/25 Q1008=
10-Sep-2023 SAID31 WAOC 100730 METAR WAOC 100730Z AUTO 23005G05KT 31/25 Q1008=
10-Sep-2023 SAID31 WAOC 100800 METAR WAOC 100800Z AUTO VRB03G03KT 31/25 Q1008=
10-Sep-2023 SAID31 WAOC 100830 METAR WAOC 100830Z AUTO VRB03G03KT 120V220 31/25 Q1008=
10-Sep-2023 SAID31 WAOC 100900 METAR WAOC 100900Z AUTO VRB03G03KT 150V230 31/25 Q1008=
10-Sep-2023 SAID31 WAOC 100930 METAR WAOC 100930Z AUTO VRB03G03KT 30/25 Q1008=
10-Sep-2023 SAID31 WAOC 101000 METAR WAOC 101000Z AUTO VRB03G03KT 140V240 30/24 Q1009=
10-Sep-2023 SAID31 WAOC 101030 METAR WAOC 101030Z AUTO VRB02G02KT 150V230 29/25 Q1009=
10-Sep-2023 SAID31 WAOC 101100 METAR WAOC 101100Z AUTO VRB03G03KT 110V210 29/24 Q1010=
10-Sep-2023 SAID31 WAOC 101130 METAR WAOC 101130Z AUTO 14004G04KT 120V190 28/24 Q1010=
10-Sep-2023 SAID31 WAOC 101200 METAR WAOC 101200Z AUTO VRB03G03KT 28/24 Q1010=
10-Sep-2023 SAID31 WAOC 101230 METAR WAOC 101230Z AUTO VRB03G03KT 110V240 28/25 Q1011=
10-Sep-2023 SAID31 WAOC 101300 METAR WAOC 101300Z AUTO VRB03G03KT 110V210 27/25 Q1011=
10-Sep-2023 SAID31 WAOC 101330 METAR WAOC 101330Z AUTO VRB02G02KT 170V300 27/25 Q1011=
10-Sep-2023 SAID31 WAOC 101400 METAR WAOC 101400Z AUTO VRB01G01KT 110V340 27/25 Q1012=
10-Sep-2023 SAID31 WAOC 101430 METAR WAOC 101430Z AUTO VRB02G02KT 26/25 Q1012=
10-Sep-2023 SAID31 WAOC 101500 METAR WAOC 101500Z AUTO VRB02G02KT 26/25 Q1012=
10-Sep-2023 SAID31 WAOC 101530 METAR WAOC 101530Z AUTO VRB01G01KT 26/24 Q1012=
10-Sep-2023 SAID31 WAOC 101600 METAR WAOC 101600Z AUTO VRB02G02KT 26/24 Q1012=
10-Sep-2023 SAID31 WAOC 101630 METAR WAOC 101630Z AUTO VRB01G01KT 190V260 26/24 Q1011=
10-Sep-2023 SAID31 WAOC 101700 METAR WAOC 101700Z AUTO VRB02G02KT 26/24 Q1011=
10-Sep-2023 SAID31 WAOC 101730 METAR WAOC 101730Z AUTO VRB01G01KT 26/24 Q1011=
10-Sep-2023 SAID31 WAOC 101800 METAR WAOC 101800Z AUTO VRB01G01KT 26/25 Q1010=
10-Sep-2023 SAID31 WAOC 101830 METAR WAOC 101830Z AUTO VRB02G02KT 26/24 Q1010=
10-Sep-2023 SAID31 WAOC 101900 METAR WAOC 101900Z AUTO VRB02G02KT 26/25 Q1010=
10-Sep-2023 SAID31 WAOC 101930 METAR WAOC 101930Z AUTO VRB02G02KT 25/24 Q1010=
10-Sep-2023 SAID31 WAOC 102000 METAR WAOC 102000Z AUTO VRB01G01KT 25/24 Q1010=
10-Sep-2023 SAID31 WAOC 102030 METAR WAOC 102030Z AUTO VRB01G01KT 230V300 25/24 Q1010=
10-Sep-2023 SAID31 WAOC 102100 METAR WAOC 102100Z AUTO VRB01G01KT 25/24 Q1010=
10-Sep-2023 SAID31 WAOC 102130 METAR WAOC 102130Z AUTO VRB02G02KT 24/24 Q1010=
10-Sep-2023 SAID31 WAOC 102200 METAR WAOC 102200Z AUTO VRB01G01KT 200V300 25/24 Q1010=
10-Sep-2023 SAID31 WAOC 102230 METAR WAOC 102230Z AUTO VRB01G01KT 220V300 25/24 Q1011=
10-Sep-2023 SAID31 WAOC 102300 METAR WAOC 102300Z AUTO VRB01G01KT 230V300 26/25 Q1011=
10-Sep-2023 SAID31 WAOC 102330 METAR WAOC 102330Z AUTO VRB02G02KT 27/25 Q1011=
11-Sep-2023 SAID31 WAOC 110000 METAR WAOC 110000Z AUTO VRB02G02KT 28/25 Q1012=
11-Sep-2023 SAID31 WAOC 110030 METAR WAOC 110030Z AUTO VRB03G03KT 28/26 Q1012=
11-Sep-2023 SAID31 WAOC 110100 METAR WAOC 110100Z AUTO VRB01G01KT 160V350 29/26 Q1012=
11-Sep-2023 SAID31 WAOC 110130 METAR WAOC 110130Z AUTO VRB01G01KT 080V240 29/25 Q1012=
11-Sep-2023 SAID31 WAOC 110200 METAR WAOC 110200Z AUTO VRB03G02KT 120V220 30/25 Q1012=
11-Sep-2023 SAID31 WAOC 110230 METAR WAOC 110230Z AUTO VRB01G01KT 27/25 Q1012=
11-Sep-2023 SAID31 WAOC 110300 METAR WAOC 110300Z AUTO VRB02G02KT 150V270 29/25 Q1011=
11-Sep-2023 SAID31 WAOC 110330 METAR WAOC 110330Z AUTO 00000G00KT 31/25 Q1011=
11-Sep-2023 SAID31 WAOC 110400 METAR WAOC 110400Z AUTO 05006G06KT 29/25 Q1011=
11-Sep-2023 SAID31 WAOC 110430 METAR WAOC 110430Z AUTO VRB01G01KT 330V200 27/26 Q1011=
11-Sep-2023 SAID31 WAOC 110500 METAR WAOC 110500Z AUTO VRB01G01KT 340V090 27/26 Q1010=
11-Sep-2023 SAID31 WAOC 110530 METAR WAOC 110530Z AUTO VRB01G01KT 220V340 28/26 Q1010=
11-Sep-2023 SAID31 WAOC 110600 METAR WAOC 110600Z AUTO 29004G04KT 240V310 29/26 Q1010=
11-Sep-2023 SAID31 WAOC 110630 METAR WAOC 110630Z AUTO VRB01G01KT 210V360 30/26 Q1009=
11-Sep-2023 SAID31 WAOC 110700 METAR WAOC 110700Z AUTO VRB02G02KT 280V050 31/26 Q1008=
11-Sep-2023 SAID31 WAOC 110730 METAR WAOC 110730Z AUTO VRB02G02KT 070V160 31/24 Q1008=
11-Sep-2023 SAID31 WAOC 110800 METAR WAOC 110800Z AUTO VRB03G03KT 090V190 32/23 Q1008=
11-Sep-2023 SAID31 WAOC 110830 METAR WAOC 110830Z AUTO 14004G04KT 32/23 Q1008=
11-Sep-2023 SAID31 WAOC 110900 METAR WAOC 110900Z AUTO 11004G04KT 31/22 Q1008=
11-Sep-2023 SAID31 WAOC 110930 METAR WAOC 110930Z AUTO VRB03G03KT 110V200 31/23 Q1008=
11-Sep-2023 SAID31 WAOC 111000 METAR WAOC 111000Z AUTO VRB01G01KT 30/23 Q1008=
11-Sep-2023 SAID31 WAOC 111030 METAR WAOC 111030Z AUTO VRB01G01KT 110V180 29/23 Q1009=
11-Sep-2023 SAID31 WAOC 111100 METAR WAOC 111100Z AUTO VRB01G01KT 29/24 Q1009=
11-Sep-2023 SAID31 WAOC 111130 METAR WAOC 111130Z AUTO VRB02G02KT 28/24 Q1010=
11-Sep-2023 SAID31 WAOC 111200 METAR WAOC 111200Z AUTO VRB03G03KT 28/25 Q1011=
11-Sep-2023 SAID31 WAOC 111230 METAR WAOC 111230Z AUTO VRB03G03KT 110V180 28/25 Q1011=
11-Sep-2023 SAID31 WAOC 111300 METAR WAOC 111300Z AUTO VRB01G01KT 120V230 27/25 Q1011=
11-Sep-2023 SAID31 WAOC 111330 METAR WAOC 111330Z AUTO VRB01G01KT 100V220 28/25 Q1011=
11-Sep-2023 SAID31 WAOC 111400 METAR WAOC 111400Z AUTO VRB03G03KT 120V190 28/25 Q1011=
11-Sep-2023 SAID31 WAOC 111430 METAR WAOC 111430Z AUTO VRB03G03KT 100V180 27/25 Q1012=
11-Sep-2023 SAID31 WAOC 111500 METAR WAOC 111500Z AUTO 18004G03KT 27/25 Q1011=
11-Sep-2023 SAID31 WAOC 111530 METAR WAOC 111530Z AUTO VRB03G03KT 120V210 27/25 Q1011=
11-Sep-2023 SAID31 WAOC 111600 METAR WAOC 111600Z AUTO VRB03G03KT 120V230 27/25 Q1011=
11-Sep-2023 SAID31 WAOC 111630 METAR WAOC 111630Z AUTO VRB01G01KT 26/25 Q1011=
11-Sep-2023 SAID31 WAOC 111700 METAR WAOC 111700Z AUTO VRB01G01KT 26/25 Q1011=
11-Sep-2023 SAID31 WAOC 111730 METAR WAOC 111730Z AUTO VRB02G02KT 26/25 Q1011=
11-Sep-2023 SAID31 WAOC 111800 METAR WAOC 111800Z AUTO VRB01G01KT 26/25 Q1011=
11-Sep-2023 SAID31 WAOC 111830 METAR WAOC 111830Z AUTO VRB02G02KT 26/25 Q1010=
11-Sep-2023 SAID31 WAOC 111900 METAR WAOC 111900Z AUTO VRB02G02KT 25/25 Q1010=
11-Sep-2023 SAID31 WAOC 111930 METAR WAOC 111930Z AUTO VRB01G01KT 25/24 Q1010=
11-Sep-2023 SAID31 WAOC 112000 METAR WAOC 112000Z AUTO VRB02G02KT 25/25 Q1010=
11-Sep-2023 SAID31 WAOC 112030 METAR WAOC 112030Z AUTO VRB02G02KT 26/25 Q1010=
11-Sep-2023 SAID31 WAOC 112100 METAR WAOC 112100Z AUTO VRB02G02KT 25/24 Q1010=
11-Sep-2023 SAID31 WAOC 112130 METAR WAOC 112130Z AUTO VRB02G02KT 26/25 Q1011=
11-Sep-2023 SAID31 WAOC 112200 METAR WAOC 112200Z AUTO VRB02G02KT 26/25 Q1011=
11-Sep-2023 SAID31 WAOC 112230 METAR WAOC 112230Z AUTO VRB01G01KT 220V300 25/25 Q1012=
11-Sep-2023 SAID31 WAOC 112300 METAR WAOC 112300Z AUTO VRB02G02KT 26/25 Q1012=
11-Sep-2023 SAID31 WAOC 112330 METAR WAOC 112330Z AUTO VRB02G02KT 26/25 Q1012=
12-Sep-2023 SAID31 WAOC 120000 METAR WAOC 120000Z AUTO VRB01G01KT 060V270 27/25 Q1012=
12-Sep-2023 SAID31 WAOC 120030 METAR WAOC 120030Z AUTO VRB02G02KT 27/26 Q1013=
12-Sep-2023 SAID31 WAOC 120100 METAR WAOC 120100Z AUTO VRB01G01KT 310V010 27/26 Q1013=
12-Sep-2023 SAID31 WAOC 120130 METAR WAOC 120130Z AUTO VRB03G03KT 330V070 25/23 Q1014=
12-Sep-2023 SAID31 WAOC 120200 METAR WAOC 120200Z AUTO VRB02G02KT 24/23 Q1014=
12-Sep-2023 SAID31 WAOC 120230 METAR WAOC 120230Z AUTO VRB02G02KT 25/24 Q1013=
12-Sep-2023 SAID31 WAOC 120300 METAR WAOC 120300Z AUTO VRB02G02KT 26/24 Q1013=
12-Sep-2023 SAID31 WAOC 120330 METAR WAOC 120330Z AUTO VRB02G02KT 24/23 Q1014=
12-Sep-2023 SAID31 WAOC 120400 METAR WAOC 120400Z AUTO VRB03G03KT 25/24 Q1013=
12-Sep-2023 SAID31 WAOC 120430 METAR WAOC 120430Z AUTO VRB01G01KT 130V300 26/24 Q1012=
12-Sep-2023 SAID31 WAOC 120500 METAR WAOC 120500Z AUTO 00000G00KT 220V330 27/24 Q1012=
12-Sep-2023 SAID31 WAOC 120530 METAR WAOC 120530Z AUTO VRB01G01KT 290V120 29/24 Q1011=
12-Sep-2023 SAID31 WAOC 120600 METAR WAOC 120600Z AUTO VRB03G03KT 060V150 31/25 Q1010=
12-Sep-2023 SAID31 WAOC 120630 METAR WAOC 120630Z AUTO 14006G06KT 31/24 Q1010=
12-Sep-2023 SAID31 WAOC 120700 METAR WAOC 120700Z AUTO VRB01G01KT 110V190 32/24 Q1009=
12-Sep-2023 SAID31 WAOC 120730 METAR WAOC 120730Z AUTO VRB02G02KT 100V220 31/22 Q1009=
12-Sep-2023 SAID31 WAOC 120800 METAR WAOC 120800Z AUTO 11004G04KT 080V160 31/22 Q1009=
12-Sep-2023 SAID31 WAOC 120830 METAR WAOC 120830Z AUTO VRB02G02KT 30/22 Q1009=
12-Sep-2023 SAID31 WAOC 120900 METAR WAOC 120900Z AUTO VRB01G01KT 30/22 Q1009=
12-Sep-2023 SAID31 WAOC 120930 METAR WAOC 120930Z AUTO VRB02G02KT 29/22 Q1009=
12-Sep-2023 SAID31 WAOC 121000 METAR WAOC 121000Z AUTO VRB02G02KT 29/22 Q1010=
12-Sep-2023 SAID31 WAOC 121030 METAR WAOC 121030Z AUTO VRB01G01KT 28/23 Q1010=
12-Sep-2023 SAID31 WAOC 121100 METAR WAOC 121100Z AUTO VRB01G01KT 27/23 Q1010=
12-Sep-2023 SAID31 WAOC 121130 METAR WAOC 121130Z AUTO VRB01G01KT 27/24 Q1011=
12-Sep-2023 SAID31 WAOC 121200 METAR WAOC 121200Z AUTO VRB01G01KT 110V190 27/24 Q1011=
12-Sep-2023 SAID31 WAOC 121230 METAR WAOC 121230Z AUTO VRB01G01KT 090V180 27/25 Q1012=
12-Sep-2023 SAID31 WAOC 121300 METAR WAOC 121300Z AUTO 00000G00KT 090V200 27/25 Q1012=
12-Sep-2023 SAID31 WAOC 121330 METAR WAOC 121330Z AUTO VRB02G02KT 26/25 Q1013=
12-Sep-2023 SAID31 WAOC 121400 METAR WAOC 121400Z AUTO VRB01G01KT 27/25 Q1013=
12-Sep-2023 SAID31 WAOC 121430 METAR WAOC 121430Z AUTO VRB01G01KT 26/25 Q1013=
12-Sep-2023 SAID31 WAOC 121500 METAR WAOC 121500Z AUTO VRB02G02KT 26/24 Q1013=
12-Sep-2023 SAID31 WAOC 121530 METAR WAOC 121530Z AUTO VRB01G01KT 26/25 Q1013=
12-Sep-2023 SAID31 WAOC 121600 METAR WAOC 121600Z AUTO VRB01G01KT 26/25 Q1013=
12-Sep-2023 SAID31 WAOC 121630 METAR WAOC 121630Z AUTO VRB02G02KT 26/25 Q1013=
12-Sep-2023 SAID31 WAOC 121700 METAR WAOC 121700Z AUTO VRB01G01KT 25/24 Q1012=
12-Sep-2023 SAID31 WAOC 121730 METAR WAOC 121730Z AUTO VRB01G01KT 25/24 Q1012=
12-Sep-2023 SAID31 WAOC 121800 METAR WAOC 121800Z AUTO VRB01G01KT 25/24 Q1012=
12-Sep-2023 SAID31 WAOC 121830 METAR WAOC 121830Z AUTO 00000G00KT 25/24 Q1012=
12-Sep-2023 SAID31 WAOC 121900 METAR WAOC 121900Z AUTO 00000G00KT 170V280 25/24 Q1011=
12-Sep-2023 SAID31 WAOC 121930 METAR WAOC 121930Z AUTO VRB01G01KT 220V300 25/24 Q1011=
12-Sep-2023 SAID31 WAOC 122000 METAR WAOC 122000Z AUTO VRB01G01KT 25/24 Q1011=
12-Sep-2023 SAID31 WAOC 122030 METAR WAOC 122030Z AUTO 00000G00KT 290V040 25/24 Q1011=
12-Sep-2023 SAID31 WAOC 122100 METAR WAOC 122100Z AUTO VRB02G02KT 25/24 Q1011=
12-Sep-2023 SAID31 WAOC 122130 METAR WAOC 122130Z AUTO VRB02G02KT 24/24 Q1011=
12-Sep-2023 SAID31 WAOC 122200 METAR WAOC 122200Z AUTO VRB02G02KT 24/24 Q1012=
12-Sep-2023 SAID31 WAOC 122230 METAR WAOC 122230Z AUTO VRB02G02KT 25/24 Q1012=
12-Sep-2023 SAID31 WAOC 122300 METAR WAOC 122300Z AUTO VRB02G02KT 25/24 Q1012=
12-Sep-2023 SAID31 WAOC 122330 METAR WAOC 122330Z AUTO VRB02G02KT 26/25 Q1012=
13-Sep-2023 SAID31 WAOC 130000 METAR WAOC 130000Z AUTO VRB01G01KT 220V310 26/25 Q1012=
13-Sep-2023 SAID31 WAOC 130030 METAR WAOC 130030Z AUTO VRB01G01KT 230V300 27/25 Q1013=
13-Sep-2023 SAID31 WAOC 130100 METAR WAOC 130100Z AUTO VRB01G01KT 200V330 27/25 Q1013=
13-Sep-2023 SAID31 WAOC 130130 METAR WAOC 130130Z AUTO VRB01G01KT 160V340 27/25 Q1013=
13-Sep-2023 SAID31 WAOC 130200 METAR WAOC 130200Z AUTO VRB01G01KT 180V270 29/26 Q1013=
13-Sep-2023 SAID31 WAOC 130230 METAR WAOC 130230Z AUTO VRB03G03KT 060V150 30/25 Q1013=
13-Sep-2023 SAID31 WAOC 130300 METAR WAOC 130300Z AUTO 08004G04KT 050V120 31/23 Q1012=
13-Sep-2023 SAID31 WAOC 130330 METAR WAOC 130330Z AUTO 12004G04KT 070V160 31/23 Q1012=
13-Sep-2023 SAID31 WAOC 130400 METAR WAOC 130400Z AUTO 11004G04KT 32/19 Q1011=
13-Sep-2023 SAID31 WAOC 130430 METAR WAOC 130430Z AUTO 11005G05KT 32/19 Q1011=
13-Sep-2023 SAID31 WAOC 130500 METAR WAOC 130500Z AUTO 10005G05KT 32/19 Q1011=
13-Sep-2023 SAID31 WAOC 130530 METAR WAOC 130530Z AUTO 13004G04KT 080V150 32/19 Q1010=
13-Sep-2023 SAID31 WAOC 130600 METAR WAOC 130600Z AUTO 11006G06KT 080V150 33/18 Q1010=
13-Sep-2023 SAID31 WAOC 130630 METAR WAOC 130630Z AUTO 13007G07KT 32/18 Q1009=
13-Sep-2023 SAID31 WAOC 130700 METAR WAOC 130700Z AUTO 12005G05KT 090V160 32/19 Q1009=
13-Sep-2023 SAID31 WAOC 130730 METAR WAOC 130730Z AUTO 12005G05KT 080V150 32/18 Q1009=
13-Sep-2023 SAID31 WAOC 130800 METAR WAOC 130800Z AUTO 08004G05KT 070V150 32/17 Q1009=
13-Sep-2023 SAID31 WAOC 130830 METAR WAOC 130830Z AUTO 12005G05KT 080V150 32/19 Q1009=
13-Sep-2023 SAID31 WAOC 130900 METAR WAOC 130900Z AUTO 10004G04KT 31/19 Q1009=
13-Sep-2023 SAID31 WAOC 130930 METAR WAOC 130930Z AUTO VRB03G03KT 30/20 Q1009=
13-Sep-2023 SAID31 WAOC 131000 METAR WAOC 131000Z AUTO VRB02G02KT 29/21 Q1009=
13-Sep-2023 SAID31 WAOC 131030 METAR WAOC 131030Z AUTO VRB02G02KT 29/21 Q1009=
13-Sep-2023 SAID31 WAOC 131100 METAR WAOC 131100Z AUTO VRB02G02KT 28/22 Q1010=
13-Sep-2023 SAID31 WAOC 131130 METAR WAOC 131130Z AUTO VRB02G02KT 100V200 28/22 Q1010=
13-Sep-2023 SAID31 WAOC 131200 METAR WAOC 131200Z AUTO VRB03G03KT 100V170 28/23 Q1011=
13-Sep-2023 SAID31 WAOC 131230 METAR WAOC 131230Z AUTO VRB02G02KT 110V230 28/23 Q1011=
13-Sep-2023 SAID31 WAOC 131300 METAR WAOC 131300Z AUTO VRB01G01KT 130V230 27/24 Q1011=
13-Sep-2023 SAID31 WAOC 131330 METAR WAOC 131330Z AUTO VRB03G03KT 27/24 Q1011=
13-Sep-2023 SAID31 WAOC 131400 METAR WAOC 131400Z AUTO VRB01G01KT 130V210 27/24 Q1012=
13-Sep-2023 SAID31 WAOC 131430 METAR WAOC 131430Z AUTO VRB01G01KT 26/24 Q1012=
13-Sep-2023 SAID31 WAOC 131500 METAR WAOC 131500Z AUTO VRB01G01KT 25/24 Q1011=
13-Sep-2023 SAID31 WAOC 131530 METAR WAOC 131530Z AUTO VRB02G02KT 25/23 Q1012=
13-Sep-2023 SAID31 WAOC 131600 METAR WAOC 131600Z AUTO VRB02G02KT 25/23 Q1011=
13-Sep-2023 SAID31 WAOC 131630 METAR WAOC 131630Z AUTO VRB02G02KT 25/23 Q1011=
13-Sep-2023 SAID31 WAOC 131700 METAR WAOC 131700Z AUTO VRB02G02KT 24/23 Q1011=
13-Sep-2023 SAID31 WAOC 131730 METAR WAOC 131730Z AUTO VRB03G02KT 24/23 Q1011=
13-Sep-2023 SAID31 WAOC 131800 METAR WAOC 131800Z AUTO VRB02G02KT 24/23 Q1010=
13-Sep-2023 SAID31 WAOC 131830 METAR WAOC 131830Z AUTO VRB02G02KT 24/23 Q1010=
13-Sep-2023 SAID31 WAOC 131900 METAR WAOC 131900Z AUTO VRB03G03KT 25/23 Q1010=
13-Sep-2023 SAID31 WAOC 131930 METAR WAOC 131930Z AUTO VRB02G02KT 220V310 24/23 Q1010=
13-Sep-2023 SAID31 WAOC 132000 METAR WAOC 132000Z AUTO VRB03G03KT 220V290 24/23 Q1011=
13-Sep-2023 SAID31 WAOC 132030 METAR WAOC 132030Z AUTO VRB03G03KT 24/23 Q1010=
13-Sep-2023 SAID31 WAOC 132100 METAR WAOC 132100Z AUTO VRB02G02KT 24/23 Q1011=
13-Sep-2023 SAID31 WAOC 132130 METAR WAOC 132130Z AUTO VRB02G02KT 24/23 Q1011=
13-Sep-2023 SAID31 WAOC 132200 METAR WAOC 132200Z AUTO VRB02G02KT 23/22 Q1011=
13-Sep-2023 SAID31 WAOC 132230 METAR WAOC 132230Z AUTO VRB02G02KT 240V310 24/23 Q1011=
13-Sep-2023 SAID31 WAOC 132300 METAR WAOC 132300Z AUTO VRB03G03KT 25/24 Q1012=
13-Sep-2023 SAID31 WAOC 132330 METAR WAOC 132330Z AUTO VRB03G03KT 25/24 Q1012=
14-Sep-2023 SAID31 WAOC 140000 METAR WAOC 140000Z AUTO VRB03G03KT 27/24 Q1012=
14-Sep-2023 SAID31 WAOC 140030 METAR WAOC 140030Z AUTO VRB03G03KT 28/25 Q1013=
14-Sep-2023 SAID31 WAOC 140100 METAR WAOC 140100Z AUTO 00000G00KT 140V310 29/25 Q1013=
14-Sep-2023 SAID31 WAOC 140130 METAR WAOC 140130Z AUTO VRB02G02KT 30/24 Q1013=
14-Sep-2023 SAID31 WAOC 140200 METAR WAOC 140200Z AUTO VRB02G02KT 020V210 30/24 Q1013=
14-Sep-2023 SAID31 WAOC 140230 METAR WAOC 140230Z AUTO VRB02G02KT 030V170 31/24 Q1013=
14-Sep-2023 SAID31 WAOC 140300 METAR WAOC 140300Z AUTO VRB03G03KT 040V140 31/24 Q1013=
14-Sep-2023 SAID31 WAOC 140330 METAR WAOC 140330Z AUTO VRB03G03KT 070V140 31/23 Q1012=
14-Sep-2023 SAID31 WAOC 140400 METAR WAOC 140400Z AUTO VRB02G02KT 060V170 32/23 Q1012=
14-Sep-2023 SAID31 WAOC 140430 METAR WAOC 140430Z AUTO 08005G04KT 060V140 33/23 Q1011=
14-Sep-2023 SAID31 WAOC 140500 METAR WAOC 140500Z AUTO 08007G07KT 32/23 Q1011=
14-Sep-2023 SAID31 WAOC 140530 METAR WAOC 140530Z AUTO 08005G05KT 33/23 Q1010=
14-Sep-2023 SAID31 WAOC 140600 METAR WAOC 140600Z AUTO 09006G06KT 33/23 Q1010=
14-Sep-2023 SAID31 WAOC 140630 METAR WAOC 140630Z AUTO 07006G06KT 050V120 33/23 Q1009=
14-Sep-2023 SAID31 WAOC 140700 METAR WAOC 140700Z AUTO VRB03G03KT 360V070 31/23 Q1009=
14-Sep-2023 SAID31 WAOC 140730 METAR WAOC 140730Z AUTO 11006G06KT 060V150 32/22 Q1009=
14-Sep-2023 SAID31 WAOC 140800 METAR WAOC 140800Z AUTO VRB03G03KT 31/23 Q1009=
14-Sep-2023 SAID31 WAOC 140830 METAR WAOC 140830Z AUTO 13005G05KT 30/23 Q1009=
14-Sep-2023 SAID31 WAOC 140900 METAR WAOC 140900Z AUTO 12005G06KT 070V160 30/23 Q1009=
14-Sep-2023 SAID31 WAOC 140930 METAR WAOC 140930Z AUTO 12004G04KT 100V170 29/23 Q1009=
14-Sep-2023 SAID31 WAOC 141000 METAR WAOC 141000Z AUTO VRB03G03KT 110V180 29/24 Q1010=
14-Sep-2023 SAID31 WAOC 141030 METAR WAOC 141030Z AUTO 12004G04KT 29/24 Q1010=
14-Sep-2023 SAID31 WAOC 141100 METAR WAOC 141100Z AUTO VRB03G03KT 080V170 28/24 Q1010=
14-Sep-2023 SAID31 WAOC 141130 METAR WAOC 141130Z AUTO VRB03G03KT 28/24 Q1011=
14-Sep-2023 SAID31 WAOC 141200 METAR WAOC 141200Z AUTO VRB02G02KT 110V200 28/24 Q1011=
14-Sep-2023 SAID31 WAOC 141230 METAR WAOC 141230Z AUTO VRB02G02KT 28/24 Q1011=
14-Sep-2023 SAID31 WAOC 141300 METAR WAOC 141300Z AUTO VRB02G02KT 070V170 28/24 Q1012=
14-Sep-2023 SAID31 WAOC 141330 METAR WAOC 141330Z AUTO VRB01G01KT 110V230 28/24 Q1012=
14-Sep-2023 SAID31 WAOC 141400 METAR WAOC 141400Z AUTO VRB01G01KT 120V200 27/24 Q1012=
14-Sep-2023 SAID31 WAOC 141430 METAR WAOC 141430Z AUTO VRB01G01KT 27/24 Q1012=
14-Sep-2023 SAID31 WAOC 141500 METAR WAOC 141500Z AUTO VRB01G01KT 26/24 Q1012=
14-Sep-2023 SAID31 WAOC 141530 METAR WAOC 141530Z AUTO VRB01G01KT 26/24 Q1012=
14-Sep-2023 SAID31 WAOC 141600 METAR WAOC 141600Z AUTO VRB01G01KT 210V290 25/24 Q1012=
14-Sep-2023 SAID31 WAOC 141630 METAR WAOC 141630Z AUTO VRB01G01KT 25/24 Q1012=
14-Sep-2023 SAID31 WAOC 141700 METAR WAOC 141700Z AUTO VRB02G02KT 25/24 Q1011=
14-Sep-2023 SAID31 WAOC 141730 METAR WAOC 141730Z AUTO VRB01G01KT 25/24 Q1011=
14-Sep-2023 SAID31 WAOC 141800 METAR WAOC 141800Z AUTO VRB02G02KT 25/24 Q1011=
14-Sep-2023 SAID31 WAOC 141830 METAR WAOC 141830Z AUTO VRB02G02KT 25/24 Q1011=
14-Sep-2023 SAID31 WAOC 141900 METAR WAOC 141900Z AUTO VRB03G03KT 25/24 Q1011=
14-Sep-2023 SAID31 WAOC 141930 METAR WAOC 141930Z AUTO VRB02G02KT 25/24 Q1011=
14-Sep-2023 SAID31 WAOC 142000 METAR WAOC 142000Z AUTO VRB03G03KT 25/24 Q1011=
14-Sep-2023 SAID31 WAOC 142030 METAR WAOC 142030Z AUTO VRB02G02KT 25/24 Q1011=
14-Sep-2023 SAID31 WAOC 142100 METAR WAOC 142100Z AUTO VRB03G03KT 24/24 Q1011=
14-Sep-2023 SAID31 WAOC 142130 METAR WAOC 142130Z AUTO VRB02G02KT 24/23 Q1011=
14-Sep-2023 SAID31 WAOC 142200 METAR WAOC 142200Z AUTO VRB02G02KT 24/23 Q1011=
14-Sep-2023 SAID31 WAOC 142230 METAR WAOC 142230Z AUTO VRB02G02KT 220V310 24/23 Q1011=
14-Sep-2023 SAID31 WAOC 142300 METAR WAOC 142300Z AUTO VRB01G02KT 25/24 Q1012=
14-Sep-2023 SAID31 WAOC 142330 METAR WAOC 142330Z AUTO VRB01G01KT 220V290 27/25 Q1012=
15-Sep-2023 SAID31 WAOC 150000 METAR WAOC 150000Z AUTO VRB01G01KT 180V270 27/25 Q1012=
15-Sep-2023 SAID31 WAOC 150030 METAR WAOC 150030Z AUTO VRB02G02KT 160V240 29/25 Q1013=
15-Sep-2023 SAID31 WAOC 150100 METAR WAOC 150100Z AUTO VRB03G03KT 110V230 30/25 Q1013=
15-Sep-2023 SAID31 WAOC 150130 METAR WAOC 150130Z AUTO VRB03G03KT 130V220 29/25 Q1013=
15-Sep-2023 SAID31 WAOC 150200 METAR WAOC 150200Z AUTO VRB02G02KT 050V150 27/25 Q1013=
15-Sep-2023 SAID31 WAOC 150230 METAR WAOC 150230Z AUTO VRB02G02KT 28/24 Q1012=
15-Sep-2023 SAID31 WAOC 150300 METAR WAOC 150300Z AUTO VRB02G02KT 100V210 29/25 Q1012=
15-Sep-2023 SAID31 WAOC 150330 METAR WAOC 150330Z AUTO VRB01G01KT 090V190 29/25 Q1012=
15-Sep-2023 SAID31 WAOC 150400 METAR WAOC 150400Z AUTO VRB03G03KT 050V130 30/25 Q1011=
15-Sep-2023 SAID31 WAOC 150430 METAR WAOC 150430Z AUTO VRB01G01KT 070V220 31/24 Q1011=
15-Sep-2023 SAID31 WAOC 150500 METAR WAOC 150500Z AUTO VRB02G02KT 000V120 31/25 Q1011=
15-Sep-2023 SAID31 WAOC 150530 METAR WAOC 150530Z AUTO VRB01G01KT 150V220 31/24 Q1010=
15-Sep-2023 SAID31 WAOC 150600 METAR WAOC 150600Z AUTO VRB01G01KT 030V200 31/23 Q1010=
15-Sep-2023 SAID31 WAOC 150630 METAR WAOC 150630Z AUTO VRB03G03KT 080V180 32/23 Q1009=
15-Sep-2023 SAID31 WAOC 150700 METAR WAOC 150700Z AUTO VRB03G03KT 080V240 32/23 Q1009=
15-Sep-2023 SAID31 WAOC 150730 METAR WAOC 150730Z AUTO VRB03G04KT 060V130 33/20 Q1009=
15-Sep-2023 SAID31 WAOC 150800 METAR WAOC 150800Z AUTO VRB03G03KT 100V220 32/22 Q1008=
15-Sep-2023 SAID31 WAOC 150830 METAR WAOC 150830Z AUTO VRB03G03KT 090V200 32/22 Q1008=
15-Sep-2023 SAID31 WAOC 150900 METAR WAOC 150900Z AUTO VRB03G03KT 060V150 32/22 Q1009=
15-Sep-2023 SAID31 WAOC 150930 METAR WAOC 150930Z AUTO VRB02G02KT 080V320 30/22 Q1010=
15-Sep-2023 SAID31 WAOC 151000 METAR WAOC 151000Z AUTO VRB02G02KT 100V260 29/23 Q1010=
15-Sep-2023 SAID31 WAOC 151030 METAR WAOC 151030Z AUTO VRB01G01KT 120V250 29/23 Q1010=
15-Sep-2023 SAID31 WAOC 151100 METAR WAOC 151100Z AUTO 00000G00KT 340V220 28/23 Q1010=
15-Sep-2023 SAID31 WAOC 151130 METAR WAOC 151130Z AUTO VRB01G01KT 27/25 Q1011=
15-Sep-2023 SAID31 WAOC 151200 METAR WAOC 151200Z AUTO VRB01G01KT 27/24 Q1011=
15-Sep-2023 SAID31 WAOC 151230 METAR WAOC 151230Z AUTO VRB01G01KT 090V210 27/25 Q1012=
15-Sep-2023 SAID31 WAOC 151300 METAR WAOC 151300Z AUTO VRB01G01KT 26/25 Q1012=
15-Sep-2023 SAID31 WAOC 151330 METAR WAOC 151330Z AUTO VRB02G02KT 26/24 Q1012=
15-Sep-2023 SAID31 WAOC 151400 METAR WAOC 151400Z AUTO VRB03G03KT 25/24 Q1012=
15-Sep-2023 SAID31 WAOC 151430 METAR WAOC 151430Z AUTO VRB02G02KT 25/24 Q1013=
15-Sep-2023 SAID31 WAOC 151500 METAR WAOC 151500Z AUTO VRB01G01KT 25/24 Q1013=
15-Sep-2023 SAID31 WAOC 151530 METAR WAOC 151530Z AUTO VRB02G02KT 25/24 Q1013=
15-Sep-2023 SAID31 WAOC 151600 METAR WAOC 151600Z AUTO VRB01G01KT 25/24 Q1012=
15-Sep-2023 SAID31 WAOC 151630 METAR WAOC 151630Z AUTO VRB02G02KT 210V300 25/24 Q1012=
15-Sep-2023 SAID31 WAOC 151700 METAR WAOC 151700Z AUTO VRB02G02KT 24/24 Q1012=
15-Sep-2023 SAID31 WAOC 151730 METAR WAOC 151730Z AUTO VRB03G03KT 24/23 Q1011=
15-Sep-2023 SAID31 WAOC 151800 METAR WAOC 151800Z AUTO VRB03G03KT 24/23 Q1011=
15-Sep-2023 SAID31 WAOC 151830 METAR WAOC 151830Z AUTO VRB03G03KT 24/23 Q1011=
15-Sep-2023 SAID31 WAOC 151900 METAR WAOC 151900Z AUTO VRB03G03KT 24/24 Q1011=
15-Sep-2023 SAID31 WAOC 151930 METAR WAOC 151930Z AUTO VRB02G02KT 24/24 Q1011=
15-Sep-2023 SAID31 WAOC 152000 METAR WAOC 152000Z AUTO VRB02G02KT 24/23 Q1011=
15-Sep-2023 SAID31 WAOC 152030 METAR WAOC 152030Z AUTO VRB02G02KT 25/24 Q1010=
15-Sep-2023 SAID31 WAOC 152100 METAR WAOC 152100Z AUTO VRB02G02KT 24/23 Q1011=
15-Sep-2023 SAID31 WAOC 152130 METAR WAOC 152130Z AUTO VRB02G02KT 25/24 Q1011=
15-Sep-2023 SAID31 WAOC 152200 METAR WAOC 152200Z AUTO VRB03G03KT 25/24 Q1011=
15-Sep-2023 SAID31 WAOC 152230 METAR WAOC 152230Z AUTO VRB03G03KT 25/24 Q1011=
15-Sep-2023 SAID31 WAOC 152300 METAR WAOC 152300Z AUTO VRB02G02KT 25/24 Q1011=
15-Sep-2023 SAID31 WAOC 152330 METAR WAOC 152330Z AUTO VRB03G03KT 26/25 Q1012=
16-Sep-2023 SAID31 WAOC 160000 METAR WAOC 160000Z AUTO VRB02G02KT 28/25 Q1012=
16-Sep-2023 SAID31 WAOC 160030 METAR WAOC 160030Z AUTO VRB02G02KT 170V270 28/25 Q1012=
16-Sep-2023 SAID31 WAOC 160100 METAR WAOC 160100Z AUTO VRB01G01KT 160V260 29/25 Q1012=
16-Sep-2023 SAID31 WAOC 160130 METAR WAOC 160130Z AUTO VRB02G02KT 29/25 Q1012=
16-Sep-2023 SAID31 WAOC 160200 METAR WAOC 160200Z AUTO 00000G00KT 310V210 31/23 Q1012=
16-Sep-2023 SAID31 WAOC 160230 METAR WAOC 160230Z AUTO 00000G00KT 050V150 31/24 Q1012=
16-Sep-2023 SAID31 WAOC 160300 METAR WAOC 160300Z AUTO VRB02G02KT 110V220 32/23 Q1012=
16-Sep-2023 SAID31 WAOC 160330 METAR WAOC 160330Z AUTO VRB03G03KT 33/24 Q1011=
16-Sep-2023 SAID31 WAOC 160400 METAR WAOC 160400Z AUTO 08004G04KT 050V120 32/23 Q1011=
16-Sep-2023 SAID31 WAOC 160430 METAR WAOC 160430Z AUTO 10004G04KT 090V160 32/24 Q1010=
16-Sep-2023 SAID31 WAOC 160500 METAR WAOC 160500Z AUTO 10005G05KT 040V130 33/23 Q1010=
16-Sep-2023 SAID31 WAOC 160530 METAR WAOC 160530Z AUTO 10004G04KT 33/22 Q1009=
16-Sep-2023 SAID31 WAOC 160600 METAR WAOC 160600Z AUTO VRB03G03KT 080V160 32/22 Q1008=
16-Sep-2023 SAID31 WAOC 160630 METAR WAOC 160630Z AUTO VRB02G02KT 030V220 33/24 Q1008=
16-Sep-2023 SAID31 WAOC 160700 METAR WAOC 160700Z AUTO VRB03G03KT 33/23 Q1007=
16-Sep-2023 SAID31 WAOC 160730 METAR WAOC 160730Z AUTO VRB02G02KT 33/23 Q1007=
16-Sep-2023 SAID31 WAOC 160800 METAR WAOC 160800Z AUTO 09005G05KT 080V150 32/23 Q1007=
16-Sep-2023 SAID31 WAOC 160830 METAR WAOC 160830Z AUTO 12005G04KT 32/23 Q1007=
16-Sep-2023 SAID31 WAOC 160900 METAR WAOC 160900Z AUTO 12005G05KT 31/23 Q1007=
16-Sep-2023 SAID31 WAOC 160930 METAR WAOC 160930Z AUTO 11004G04KT 30/23 Q1008=
16-Sep-2023 SAID31 WAOC 161000 METAR WAOC 161000Z AUTO VRB03G03KT 080V150 30/23 Q1008=
16-Sep-2023 SAID31 WAOC 161030 METAR WAOC 161030Z AUTO VRB03G03KT 110V180 29/23 Q1009=
16-Sep-2023 SAID31 WAOC 161100 METAR WAOC 161100Z AUTO VRB03G03KT 29/23 Q1009=
16-Sep-2023 SAID31 WAOC 161130 METAR WAOC 161130Z AUTO 12004G04KT 080V160 29/24 Q1010=
16-Sep-2023 SAID31 WAOC 161200 METAR WAOC 161200Z AUTO VRB02G02KT 110V190 28/24 Q1010=
16-Sep-2023 SAID31 WAOC 161230 METAR WAOC 161230Z AUTO VRB01G01KT 100V180 28/24 Q1011=
16-Sep-2023 SAID31 WAOC 161300 METAR WAOC 161300Z AUTO VRB02G02KT 050V190 28/24 Q1011=
16-Sep-2023 SAID31 WAOC 161330 METAR WAOC 161330Z AUTO 00000G00KT 090V230 28/25 Q1011=
16-Sep-2023 SAID31 WAOC 161400 METAR WAOC 161400Z AUTO VRB03G03KT 090V210 28/25 Q1011=
16-Sep-2023 SAID31 WAOC 161430 METAR WAOC 161430Z AUTO VRB02G02KT 170V070 28/25 Q1012=
16-Sep-2023 SAID31 WAOC 161500 METAR WAOC 161500Z AUTO VRB01G01KT 27/25 Q1011=
16-Sep-2023 SAID31 WAOC 161530 METAR WAOC 161530Z AUTO VRB01G01KT 27/25 Q1011=
16-Sep-2023 SAID31 WAOC 161600 METAR WAOC 161600Z AUTO VRB01G01KT 27/25 Q1011=
16-Sep-2023 SAID31 WAOC 161630 METAR WAOC 161630Z AUTO VRB01G01KT 27/25 Q1011=
16-Sep-2023 SAID31 WAOC 161700 METAR WAOC 161700Z AUTO VRB01G01KT 26/25 Q1011=
16-Sep-2023 SAID31 WAOC 161730 METAR WAOC 161730Z AUTO VRB01G01KT 200V290 26/25 Q1011=
16-Sep-2023 SAID31 WAOC 161800 METAR WAOC 161800Z AUTO VRB01G01KT 200V300 27/25 Q1010=
16-Sep-2023 SAID31 WAOC 161830 METAR WAOC 161830Z AUTO VRB01G01KT 230V300 27/25 Q1010=
16-Sep-2023 SAID31 WAOC 161900 METAR WAOC 161900Z AUTO VRB01G01KT 27/25 Q1010=
16-Sep-2023 SAID31 WAOC 161930 METAR WAOC 161930Z AUTO VRB01G01KT 210V280 26/25 Q1010=
16-Sep-2023 SAID31 WAOC 162000 METAR WAOC 162000Z AUTO VRB02G02KT 26/25 Q1010=
16-Sep-2023 SAID31 WAOC 162030 METAR WAOC 162030Z AUTO VRB01G01KT 25/25 Q1010=
16-Sep-2023 SAID31 WAOC 162100 METAR WAOC 162100Z AUTO VRB01G01KT 230V300 26/25 Q1010=
16-Sep-2023 SAID31 WAOC 162130 METAR WAOC 162130Z AUTO VRB02G02KT 26/25 Q1010=
16-Sep-2023 SAID31 WAOC 162200 METAR WAOC 162200Z AUTO VRB01G01KT 210V290 26/25 Q1010=
16-Sep-2023 SAID31 WAOC 162230 METAR WAOC 162230Z AUTO VRB01G01KT 26/25 Q1010=
16-Sep-2023 SAID31 WAOC 162300 METAR WAOC 162300Z AUTO VRB01G01KT 26/25 Q1011=
16-Sep-2023 SAID31 WAOC 162330 METAR WAOC 162330Z AUTO VRB01G01KT 220V310 27/25 Q1011=
17-Sep-2023 SAID31 WAOC 170000 METAR WAOC 170000Z AUTO VRB01G01KT 220V310 27/25 Q1011=
17-Sep-2023 SAID31 WAOC 170030 METAR WAOC 170030Z AUTO 00000G00KT 200V300 27/25 Q1012=
17-Sep-2023 SAID31 WAOC 170100 METAR WAOC 170100Z AUTO 11004G04KT 26/25 Q1012=
17-Sep-2023 SAID31 WAOC 170130 METAR WAOC 170130Z AUTO VRB02G02KT 26/24 Q1012=
17-Sep-2023 SAID31 WAOC 170200 METAR WAOC 170200Z AUTO VRB01G01KT 330V030 26/25 Q1012=
17-Sep-2023 SAID31 WAOC 170230 METAR WAOC 170230Z AUTO VRB01G01KT 27/25 Q1012=
17-Sep-2023 SAID31 WAOC 170300 METAR WAOC 170300Z AUTO VRB02G02KT 280V350 28/25 Q1011=
17-Sep-2023 SAID31 WAOC 170330 METAR WAOC 170330Z AUTO 08005G05KT 070V140 27/24 Q1011=
17-Sep-2023 SAID31 WAOC 170400 METAR WAOC 170400Z AUTO 06004G04KT 27/25 Q1011=
17-Sep-2023 SAID31 WAOC 170430 METAR WAOC 170430Z AUTO VRB02G02KT 27/25 Q1010=
17-Sep-2023 SAID31 WAOC 170500 METAR WAOC 170500Z AUTO VRB02G02KT 27/24 Q1010=
17-Sep-2023 SAID31 WAOC 170530 METAR WAOC 170530Z AUTO VRB02G02KT 230V010 28/24 Q1009=
17-Sep-2023 SAID31 WAOC 170600 METAR WAOC 170600Z AUTO VRB02G02KT 28/25 Q1009=
17-Sep-2023 SAID31 WAOC 170630 METAR WAOC 170630Z AUTO VRB02G02KT 190V270 28/25 Q1008=
17-Sep-2023 SAID31 WAOC 170700 METAR WAOC 170700Z AUTO VRB02G02KT 130V230 28/25 Q1008=
17-Sep-2023 SAID31 WAOC 170730 METAR WAOC 170730Z AUTO VRB02G02KT 090V230 29/25 Q1008=
17-Sep-2023 SAID31 WAOC 170800 METAR WAOC 170800Z AUTO VRB01G01KT 160V260 30/23 Q1008=
17-Sep-2023 SAID31 WAOC 170830 METAR WAOC 170830Z AUTO VRB01G01KT 070V230 29/24 Q1008=
17-Sep-2023 SAID31 WAOC 170900 METAR WAOC 170900Z AUTO VRB01G01KT 130V240 29/24 Q1008=
17-Sep-2023 SAID31 WAOC 170930 METAR WAOC 170930Z AUTO VRB01G01KT 140V240 28/25 Q1008=
17-Sep-2023 SAID31 WAOC 171000 METAR WAOC 171000Z AUTO VRB02G02KT 200V290 28/25 Q1009=
17-Sep-2023 SAID31 WAOC 171030 METAR WAOC 171030Z AUTO VRB02G02KT 190V280 28/25 Q1009=
17-Sep-2023 SAID31 WAOC 171100 METAR WAOC 171100Z AUTO VRB01G01KT 180V250 27/25 Q1009=
17-Sep-2023 SAID31 WAOC 171130 METAR WAOC 171130Z AUTO VRB01G01KT 27/25 Q1010=
17-Sep-2023 SAID31 WAOC 171200 METAR WAOC 171200Z AUTO VRB01G01KT 27/25 Q1010=
17-Sep-2023 SAID31 WAOC 171230 METAR WAOC 171230Z AUTO VRB02G02KT 210V280 27/25 Q1010=
17-Sep-2023 SAID31 WAOC 171300 METAR WAOC 171300Z AUTO VRB01G01KT 200V280 27/25 Q1011=
17-Sep-2023 SAID31 WAOC 171330 METAR WAOC 171330Z AUTO VRB01G01KT 26/25 Q1011=
17-Sep-2023 SAID31 WAOC 171400 METAR WAOC 171400Z AUTO VRB02G02KT 26/25 Q1011=
17-Sep-2023 SAID31 WAOC 171430 METAR WAOC 171430Z AUTO VRB03G03KT 26/25 Q1011=
17-Sep-2023 SAID31 WAOC 171500 METAR WAOC 171500Z AUTO VRB03G03KT 25/25 Q1011=
17-Sep-2023 SAID31 WAOC 171530 METAR WAOC 171530Z AUTO VRB02G02KT 25/24 Q1011=
17-Sep-2023 SAID31 WAOC 171600 METAR WAOC 171600Z AUTO VRB02G02KT 25/24 Q1011=
17-Sep-2023 SAID31 WAOC 171630 METAR WAOC 171630Z AUTO VRB02G02KT 25/24 Q1010=
17-Sep-2023 SAID31 WAOC 171700 METAR WAOC 171700Z AUTO VRB01G01KT 25/24 Q1010=
17-Sep-2023 SAID31 WAOC 171730 METAR WAOC 171730Z AUTO VRB02G02KT 230V300 25/24 Q1010=
17-Sep-2023 SAID31 WAOC 171800 METAR WAOC 171800Z AUTO VRB02G02KT 25/24 Q1010=
17-Sep-2023 SAID31 WAOC 171830 METAR WAOC 171830Z AUTO VRB02G02KT 25/24 Q1009=
17-Sep-2023 SAID31 WAOC 171900 METAR WAOC 171900Z AUTO VRB02G02KT 25/24 Q1009=
17-Sep-2023 SAID31 WAOC 171930 METAR WAOC 171930Z AUTO VRB02G02KT 25/24 Q1009=
17-Sep-2023 SAID31 WAOC 172000 METAR WAOC 172000Z AUTO VRB03G03KT 25/24 Q1009=
17-Sep-2023 SAID31 WAOC 172030 METAR WAOC 172030Z AUTO VRB02G02KT 25/24 Q1009=
17-Sep-2023 SAID31 WAOC 172100 METAR WAOC 172100Z AUTO VRB02G02KT 25/24 Q1009=
17-Sep-2023 SAID31 WAOC 172130 METAR WAOC 172130Z AUTO VRB02G02KT 25/24 Q1010=
17-Sep-2023 SAID31 WAOC 172200 METAR WAOC 172200Z AUTO VRB02G02KT 25/24 Q1010=
17-Sep-2023 SAID31 WAOC 172230 METAR WAOC 172230Z AUTO VRB01G01KT 25/24 Q1010=
17-Sep-2023 SAID31 WAOC 172300 METAR WAOC 172300Z AUTO VRB03G03KT 26/25 Q1010=
17-Sep-2023 SAID31 WAOC 172330 METAR WAOC 172330Z AUTO VRB03G03KT 27/25 Q1011=
18-Sep-2023 SAID31 WAOC 180000 METAR WAOC 180000Z AUTO VRB02G02KT 28/25 Q1011=
18-Sep-2023 SAID31 WAOC 180030 METAR WAOC 180030Z AUTO VRB02G02KT 160V350 29/25 Q1011=
18-Sep-2023 SAID31 WAOC 180100 METAR WAOC 180100Z AUTO VRB02G02KT 160V280 29/25 Q1011=
18-Sep-2023 SAID31 WAOC 180130 METAR WAOC 180130Z AUTO VRB02G02KT 080V190 30/25 Q1011=
18-Sep-2023 SAID31 WAOC 180200 METAR WAOC 180200Z AUTO VRB02G02KT 130V220 30/25 Q1011=
18-Sep-2023 SAID31 WAOC 180230 METAR WAOC 180230Z AUTO VRB03G03KT 31/24 Q1011=
18-Sep-2023 SAID31 WAOC 180300 METAR WAOC 180300Z AUTO VRB02G02KT 100V260 32/24 Q1010=
18-Sep-2023 SAID31 WAOC 180330 METAR WAOC 180330Z AUTO VRB03G03KT 100V210 31/24 Q1010=
18-Sep-2023 SAID31 WAOC 180400 METAR WAOC 180400Z AUTO VRB02G03KT 130V230 31/24 Q1010=
18-Sep-2023 SAID31 WAOC 180430 METAR WAOC 180430Z AUTO 16005G05KT 110V190 31/25 Q1009=
18-Sep-2023 SAID31 WAOC 180500 METAR WAOC 180500Z AUTO 15004G04KT 090V190 31/24 Q1009=
18-Sep-2023 SAID31 WAOC 180530 METAR WAOC 180530Z AUTO 13004G03KT 31/25 Q1009=
18-Sep-2023 SAID31 WAOC 180600 METAR WAOC 180600Z AUTO 15005G05KT 31/25 Q1008=
18-Sep-2023 SAID31 WAOC 180630 METAR WAOC 180630Z AUTO VRB02G02KT 30/25 Q1008=
18-Sep-2023 SAID31 WAOC 180700 METAR WAOC 180700Z AUTO 15005G05KT 110V190 28/25 Q1008=
18-Sep-2023 SAID31 WAOC 180730 METAR WAOC 180730Z AUTO 14004G04KT 28/25 Q1008=
18-Sep-2023 SAID31 WAOC 180800 METAR WAOC 180800Z AUTO 17005G05KT 130V210 28/25 Q1008=
18-Sep-2023 SAID31 WAOC 180830 METAR WAOC 180830Z AUTO 20004G04KT 130V220 28/25 Q1008=
18-Sep-2023 SAID31 WAOC 180900 METAR WAOC 180900Z AUTO VRB02G03KT 150V220 26/25 Q1008=
18-Sep-2023 SAID31 WAOC 180930 METAR WAOC 180930Z AUTO VRB03G03KT 170V240 26/25 Q1008=
18-Sep-2023 SAID31 WAOC 181000 METAR WAOC 181000Z AUTO VRB01G01KT 26/25 Q1008=
18-Sep-2023 SAID31 WAOC 181030 METAR WAOC 181030Z AUTO VRB01G01KT 180V280 26/25 Q1009=
18-Sep-2023 SAID31 WAOC 181100 METAR WAOC 181100Z AUTO VRB01G01KT 26/25 Q1009=
18-Sep-2023 SAID31 WAOC 181130 METAR WAOC 181130Z AUTO VRB01G01KT 110V220 27/25 Q1009=
18-Sep-2023 SAID31 WAOC 181200 METAR WAOC 181200Z AUTO VRB01G01KT 110V230 27/25 Q1010=
18-Sep-2023 SAID31 WAOC 181230 METAR WAOC 181230Z AUTO VRB01G01KT 110V230 27/25 Q1010=
18-Sep-2023 SAID31 WAOC 181300 METAR WAOC 181300Z AUTO VRB02G02KT 090V230 27/25 Q1010=
18-Sep-2023 SAID31 WAOC 181330 METAR WAOC 181330Z AUTO VRB02G02KT 27/25 Q1011=
18-Sep-2023 SAID31 WAOC 181400 METAR WAOC 181400Z AUTO 00000G00KT 120V200 27/25 Q1011=
18-Sep-2023 SAID31 WAOC 181430 METAR WAOC 181430Z AUTO VRB01G01KT 180V270 26/25 Q1011=
18-Sep-2023 SAID31 WAOC 181500 METAR WAOC 181500Z AUTO VRB01G01KT 26/25 Q1011=
18-Sep-2023 SAID31 WAOC 181530 METAR WAOC 181530Z AUTO VRB01G01KT 26/25 Q1011=
18-Sep-2023 SAID31 WAOC 181600 METAR WAOC 181600Z AUTO VRB01G01KT 25/25 Q1011=
18-Sep-2023 SAID31 WAOC 181630 METAR WAOC 181630Z AUTO VRB01G01KT 200V270 25/25 Q1010=
18-Sep-2023 SAID31 WAOC 181700 METAR WAOC 181700Z AUTO VRB02G02KT 25/24 Q1010=
18-Sep-2023 SAID31 WAOC 181730 METAR WAOC 181730Z AUTO VRB02G02KT 25/24 Q1010=
18-Sep-2023 SAID31 WAOC 181800 METAR WAOC 181800Z AUTO VRB02G02KT 25/24 Q1010=
18-Sep-2023 SAID31 WAOC 181830 METAR WAOC 181830Z AUTO VRB02G02KT 25/24 Q1010=
18-Sep-2023 SAID31 WAOC 181900 METAR WAOC 181900Z AUTO VRB03G03KT 25/24 Q1010=
18-Sep-2023 SAID31 WAOC 181930 METAR WAOC 181930Z AUTO VRB02G02KT 25/24 Q1010=
18-Sep-2023 SAID31 WAOC 182000 METAR WAOC 182000Z AUTO VRB02G02KT 24/24 Q1010=
18-Sep-2023 SAID31 WAOC 182030 METAR WAOC 182030Z AUTO VRB02G02KT 220V310 24/23 Q1010=
18-Sep-2023 SAID31 WAOC 182100 METAR WAOC 182100Z AUTO VRB01G01KT 220V310 24/23 Q1010=
18-Sep-2023 SAID31 WAOC 182130 METAR WAOC 182130Z AUTO VRB01G01KT 24/23 Q1010=
18-Sep-2023 SAID31 WAOC 182200 METAR WAOC 182200Z AUTO VRB01G01KT 220V290 24/23 Q1010=
18-Sep-2023 SAID31 WAOC 182230 METAR WAOC 182230Z AUTO VRB01G01KT 24/23 Q1011=
18-Sep-2023 SAID31 WAOC 182300 METAR WAOC 182300Z AUTO VRB02G02KT 25/24 Q1011=
18-Sep-2023 SAID31 WAOC 182330 METAR WAOC 182330Z AUTO VRB03G03KT 26/24 Q1011=
19-Sep-2023 SAID31 WAOC 190000 METAR WAOC 190000Z AUTO VRB02G02KT 27/24 Q1012=
19-Sep-2023 SAID31 WAOC 190030 METAR WAOC 190030Z AUTO VRB02G02KT 280V350 28/25 Q1012=
19-Sep-2023 SAID31 WAOC 190100 METAR WAOC 190100Z AUTO VRB02G02KT 160V280 29/25 Q1012=
19-Sep-2023 SAID31 WAOC 190130 METAR WAOC 190130Z AUTO 20005G05KT 160V230 30/23 Q1012=
19-Sep-2023 SAID31 WAOC 190200 METAR WAOC 190200Z AUTO VRB02G02KT 080V260 31/24 Q1012=
19-Sep-2023 SAID31 WAOC 190230 METAR WAOC 190230Z AUTO VRB02G02KT 100V220 32/24 Q1012=
19-Sep-2023 SAID31 WAOC 190300 METAR WAOC 190300Z AUTO VRB03G03KT 130V270 31/24 Q1011=
19-Sep-2023 SAID31 WAOC 190330 METAR WAOC 190330Z AUTO VRB03G03KT 31/24 Q1011=
19-Sep-2023 SAID31 WAOC 190400 METAR WAOC 190400Z AUTO VRB03G03KT 130V220 31/24 Q1010=
19-Sep-2023 SAID31 WAOC 190430 METAR WAOC 190430Z AUTO 22004G04KT 150V350 31/24 Q1010=
19-Sep-2023 SAID31 WAOC 190500 METAR WAOC 190500Z AUTO VRB02G02KT 110V220 31/24 Q1010=
19-Sep-2023 SAID31 WAOC 190530 METAR WAOC 190530Z AUTO 11004G04KT 070V170 28/24 Q1009=
19-Sep-2023 SAID31 WAOC 190600 METAR WAOC 190600Z AUTO 13005G05KT 28/24 Q1009=
19-Sep-2023 SAID31 WAOC 190630 METAR WAOC 190630Z AUTO VRB03G03KT 29/24 Q1009=
19-Sep-2023 SAID31 WAOC 190700 METAR WAOC 190700Z AUTO VRB02G02KT 090V180 30/24 Q1009=
19-Sep-2023 SAID31 WAOC 190800 METAR WAOC 190800Z AUTO VRB02G02KT 29/25 Q1008=
19-Sep-2023 SAID31 WAOC 190830 METAR WAOC 190830Z AUTO VRB01G01KT 220V300 30/25 Q1008=
19-Sep-2023 SAID31 WAOC 190900 METAR WAOC 190900Z AUTO VRB02G03KT 29/25 Q1008=
19-Sep-2023 SAID31 WAOC 190930 METAR WAOC 190930Z AUTO VRB01G01KT 220V300 29/25 Q1008=
19-Sep-2023 SAID31 WAOC 191000 METAR WAOC 191000Z AUTO VRB01G01KT 29/25 Q1009=
19-Sep-2023 SAID31 WAOC 191030 METAR WAOC 191030Z AUTO VRB02G02KT 100V180 29/24 Q1009=
19-Sep-2023 SAID31 WAOC 191100 METAR WAOC 191100Z AUTO 12006G06KT 100V170 28/24 Q1009=
19-Sep-2023 SAID31 WAOC 191130 METAR WAOC 191130Z AUTO 14004G04KT 28/24 Q1010=
19-Sep-2023 SAID31 WAOC 191200 METAR WAOC 191200Z AUTO VRB01G01KT 120V200 28/24 Q1010=
19-Sep-2023 SAID31 WAOC 191230 METAR WAOC 191230Z AUTO VRB02G02KT 140V210 28/24 Q1010=
19-Sep-2023 SAID31 WAOC 191300 METAR WAOC 191300Z AUTO VRB01G01KT 120V220 28/24 Q1011=
19-Sep-2023 SAID31 WAOC 191330 METAR WAOC 191330Z AUTO VRB01G01KT 100V230 27/24 Q1011=
19-Sep-2023 SAID31 WAOC 191400 METAR WAOC 191400Z AUTO VRB01G01KT 27/24 Q1011=
19-Sep-2023 SAID31 WAOC 191430 METAR WAOC 191430Z AUTO VRB01G01KT 170V250 27/24 Q1011=
19-Sep-2023 SAID31 WAOC 191500 METAR WAOC 191500Z AUTO VRB01G01KT 210V280 26/24 Q1012=
19-Sep-2023 SAID31 WAOC 191530 METAR WAOC 191530Z AUTO VRB01G01KT 26/24 Q1011=
19-Sep-2023 SAID31 WAOC 191600 METAR WAOC 191600Z AUTO VRB02G02KT 25/24 Q1011=
19-Sep-2023 SAID31 WAOC 191630 METAR WAOC 191630Z AUTO VRB02G02KT 25/24 Q1011=
19-Sep-2023 SAID31 WAOC 191700 METAR WAOC 191700Z AUTO VRB02G02KT 220V290 25/24 Q1011=
19-Sep-2023 SAID31 WAOC 191730 METAR WAOC 191730Z AUTO VRB02G02KT 25/24 Q1011=
19-Sep-2023 SAID31 WAOC 191800 METAR WAOC 191800Z AUTO VRB02G02KT 25/24 Q1011=
19-Sep-2023 SAID31 WAOC 191830 METAR WAOC 191830Z AUTO VRB02G02KT 25/24 Q1010=
19-Sep-2023 SAID31 WAOC 191900 METAR WAOC 191900Z AUTO VRB01G01KT 25/24 Q1010=
19-Sep-2023 SAID31 WAOC 191930 METAR WAOC 191930Z AUTO VRB02G02KT 25/24 Q1010=
19-Sep-2023 SAID31 WAOC 192000 METAR WAOC 192000Z AUTO VRB01G01KT 25/24 Q1010=
19-Sep-2023 SAID31 WAOC 192030 METAR WAOC 192030Z AUTO VRB01G01KT 26/24 Q1010=
19-Sep-2023 SAID31 WAOC 192100 METAR WAOC 192100Z AUTO VRB01G01KT 25/24 Q1010=
19-Sep-2023 SAID31 WAOC 192130 METAR WAOC 192130Z AUTO VRB02G02KT 25/24 Q1010=
19-Sep-2023 SAID31 WAOC 192200 METAR WAOC 192200Z AUTO VRB02G02KT 25/24 Q1011=
19-Sep-2023 SAID31 WAOC 192230 METAR WAOC 192230Z AUTO VRB01G01KT 25/24 Q1011=
19-Sep-2023 SAID31 WAOC 192300 METAR WAOC 192300Z AUTO VRB01G01KT 26/25 Q1011=
19-Sep-2023 SAID31 WAOC 192330 METAR WAOC 192330Z AUTO VRB01G01KT 180V270 26/25 Q1012=
20-Sep-2023 SAID31 WAOC 200000 METAR WAOC 200000Z AUTO VRB01G01KT 200V300 27/25 Q1012=
20-Sep-2023 SAID31 WAOC 200030 METAR WAOC 200030Z AUTO VRB03G03KT 090V220 29/25 Q1012=
20-Sep-2023 SAID31 WAOC 200100 METAR WAOC 200100Z AUTO 14005G05KT 120V210 29/24 Q1012=
20-Sep-2023 SAID31 WAOC 200130 METAR WAOC 200130Z AUTO VRB02G02KT 110V220 31/24 Q1012=
20-Sep-2023 SAID31 WAOC 200200 METAR WAOC 200200Z AUTO VRB02G02KT 31/24 Q1012=
20-Sep-2023 SAID31 WAOC 200230 METAR WAOC 200230Z AUTO VRB03G03KT 050V240 31/23 Q1011=
20-Sep-2023 SAID31 WAOC 200400 METAR WAOC 200400Z AUTO VRB02G02KT 150V240 32/23 Q1010=
20-Sep-2023 SAID31 WAOC 200430 METAR WAOC 200430Z AUTO VRB01G01KT 120V220 32/23 Q1010=
20-Sep-2023 SAID31 WAOC 200500 METAR WAOC 200500Z AUTO 14004G04KT 110V180 31/23 Q1009=
20-Sep-2023 SAID31 WAOC 200530 METAR WAOC 200530Z AUTO VRB02G02KT 130V220 32/22 Q1009=
20-Sep-2023 SAID31 WAOC 200600 METAR WAOC 200600Z AUTO 16004G04KT 130V210 31/23 Q1008=
20-Sep-2023 SAID31 WAOC 200630 METAR WAOC 200630Z AUTO VRB03G04KT 140V220 31/23 Q1008=
20-Sep-2023 SAID31 WAOC 200700 METAR WAOC 200700Z AUTO 15005G05KT 31/22 Q1008=
20-Sep-2023 SAID31 WAOC 200730 METAR WAOC 200730Z AUTO 12004G04KT 090V160 31/23 Q1007=
20-Sep-2023 SAID31 WAOC 200800 METAR WAOC 200800Z AUTO VRB03G03KT 32/22 Q1007=
20-Sep-2023 SAID31 WAOC 200830 METAR WAOC 200830Z AUTO 16005G05KT 080V300 31/22 Q1007=
20-Sep-2023 SAID31 WAOC 200900 METAR WAOC 200900Z AUTO VRB03G03KT 120V240 31/23 Q1007=
20-Sep-2023 SAID31 WAOC 200930 METAR WAOC 200930Z AUTO VRB03G03KT 30/22 Q1008=
20-Sep-2023 SAID31 WAOC 201000 METAR WAOC 201000Z AUTO VRB03G03KT 29/22 Q1008=
20-Sep-2023 SAID31 WAOC 201030 METAR WAOC 201030Z AUTO VRB02G02KT 090V170 29/23 Q1008=
20-Sep-2023 SAID31 WAOC 201100 METAR WAOC 201100Z AUTO VRB03G03KT 110V180 28/23 Q1009=
20-Sep-2023 SAID31 WAOC 201130 METAR WAOC 201130Z AUTO 14004G04KT 100V190 28/23 Q1009=
20-Sep-2023 SAID31 WAOC 201200 METAR WAOC 201200Z AUTO 15004G04KT 120V230 28/24 Q1009=
20-Sep-2023 SAID31 WAOC 201230 METAR WAOC 201230Z AUTO VRB02G02KT 100V230 27/24 Q1010=
20-Sep-2023 SAID31 WAOC 201300 METAR WAOC 201300Z AUTO VRB01G01KT 080V220 27/24 Q1010=
20-Sep-2023 SAID31 WAOC 201330 METAR WAOC 201330Z AUTO VRB01G01KT 130V260 27/24 Q1010=
20-Sep-2023 SAID31 WAOC 201400 METAR WAOC 201400Z AUTO VRB01G01KT 26/24 Q1011=
20-Sep-2023 SAID31 WAOC 201430 METAR WAOC 201430Z AUTO VRB02G02KT 25/24 Q1011=
20-Sep-2023 SAID31 WAOC 201500 METAR WAOC 201500Z AUTO VRB02G02KT 25/23 Q1011=
20-Sep-2023 SAID31 WAOC 201530 METAR WAOC 201530Z AUTO VRB02G02KT 25/23 Q1011=
20-Sep-2023 SAID31 WAOC 201600 METAR WAOC 201600Z AUTO VRB02G02KT 25/23 Q1011=
20-Sep-2023 SAID31 WAOC 201630 METAR WAOC 201630Z AUTO VRB02G02KT 25/23 Q1011=
20-Sep-2023 SAID31 WAOC 201700 METAR WAOC 201700Z AUTO VRB02G02KT 24/23 Q1011=
20-Sep-2023 SAID31 WAOC 201730 METAR WAOC 201730Z AUTO VRB02G02KT 24/23 Q1010=
20-Sep-2023 SAID31 WAOC 201800 METAR WAOC 201800Z AUTO VRB02G02KT 24/23 Q1010=
20-Sep-2023 SAID31 WAOC 201830 METAR WAOC 201830Z AUTO VRB02G02KT 24/23 Q1010=
20-Sep-2023 SAID31 WAOC 201900 METAR WAOC 201900Z AUTO VRB02G02KT 24/23 Q1010=
20-Sep-2023 SAID31 WAOC 201930 METAR WAOC 201930Z AUTO VRB02G02KT 24/23 Q1010=
20-Sep-2023 SAID31 WAOC 202000 METAR WAOC 202000Z AUTO VRB02G02KT 23/22 Q1010=
20-Sep-2023 SAID31 WAOC 202030 METAR WAOC 202030Z AUTO VRB02G02KT 190V260 23/23 Q1010=
20-Sep-2023 SAID31 WAOC 202100 METAR WAOC 202100Z AUTO VRB02G02KT 24/23 Q1011=
20-Sep-2023 SAID31 WAOC 202130 METAR WAOC 202130Z AUTO VRB02G02KT 24/23 Q1011=
20-Sep-2023 SAID31 WAOC 202200 METAR WAOC 202200Z AUTO VRB02G02KT 24/23 Q1011=
20-Sep-2023 SAID31 WAOC 202230 METAR WAOC 202230Z AUTO VRB02G02KT 24/23 Q1011=
20-Sep-2023 SAID31 WAOC 202300 METAR WAOC 202300Z AUTO VRB02G02KT 25/24 Q1012=
20-Sep-2023 SAID31 WAOC 202330 METAR WAOC 202330Z AUTO VRB02G02KT 26/24 Q1012=
21-Sep-2023 SAID31 WAOC 210000 METAR WAOC 210000Z AUTO VRB02G02KT 27/24 Q1012=
21-Sep-2023 SAID31 WAOC 210030 METAR WAOC 210030Z AUTO VRB01G01KT 140V290 28/25 Q1012=
21-Sep-2023 SAID31 WAOC 210100 METAR WAOC 210100Z AUTO VRB02G02KT 090V240 29/25 Q1012=
21-Sep-2023 SAID31 WAOC 210130 METAR WAOC 210130Z AUTO 16004G04KT 110V210 30/24 Q1012=
21-Sep-2023 SAID31 WAOC 210200 METAR WAOC 210200Z AUTO VRB02G02KT 110V250 30/24 Q1012=
21-Sep-2023 SAID31 WAOC 210230 METAR WAOC 210230Z AUTO VRB03G03KT 080V170 31/23 Q1012=
21-Sep-2023 SAID31 WAOC 210300 METAR WAOC 210300Z AUTO VRB03G03KT 110V210 31/22 Q1011=
21-Sep-2023 SAID31 WAOC 210330 METAR WAOC 210330Z AUTO VRB01G01KT 050V220 33/21 Q1011=
21-Sep-2023 SAID31 WAOC 210400 METAR WAOC 210400Z AUTO 16004G03KT 110V190 33/20 Q1010=
21-Sep-2023 SAID31 WAOC 210430 METAR WAOC 210430Z AUTO 16004G04KT 110V230 33/20 Q1010=
21-Sep-2023 SAID31 WAOC 210500 METAR WAOC 210500Z AUTO 13005G05KT 120V210 34/20 Q1009=
21-Sep-2023 SAID31 WAOC 210530 METAR WAOC 210530Z AUTO VRB03G03KT 120V210 34/19 Q1009=
21-Sep-2023 SAID31 WAOC 210600 METAR WAOC 210600Z AUTO 17005G05KT 130V200 32/19 Q1008=
21-Sep-2023 SAID31 WAOC 210630 METAR WAOC 210630Z AUTO 18004G04KT 110V230 34/19 Q1008=
21-Sep-2023 SAID31 WAOC 210700 METAR WAOC 210700Z AUTO VRB02G02KT 140V230 33/20 Q1008=
21-Sep-2023 SAID31 WAOC 210730 METAR WAOC 210730Z AUTO 16005G05KT 100V200 33/20 Q1008=
21-Sep-2023 SAID31 WAOC 210800 METAR WAOC 210800Z AUTO VRB03G03KT 130V200 33/20 Q1008=
21-Sep-2023 SAID31 WAOC 210830 METAR WAOC 210830Z AUTO VRB03G03KT 120V200 31/20 Q1008=
21-Sep-2023 SAID31 WAOC 210900 METAR WAOC 210900Z AUTO VRB02G02KT 100V220 31/21 Q1008=
21-Sep-2023 SAID31 WAOC 210930 METAR WAOC 210930Z AUTO VRB02G02KT 110V210 30/21 Q1008=
21-Sep-2023 SAID31 WAOC 211000 METAR WAOC 211000Z AUTO 15004G04KT 30/21 Q1009=
21-Sep-2023 SAID31 WAOC 211030 METAR WAOC 211030Z AUTO VRB03G03KT 29/22 Q1009=
21-Sep-2023 SAID31 WAOC 211100 METAR WAOC 211100Z AUTO VRB03G03KT 100V170 28/23 Q1010=
21-Sep-2023 SAID31 WAOC 211130 METAR WAOC 211130Z AUTO VRB02G02KT 110V190 28/23 Q1010=
21-Sep-2023 SAID31 WAOC 211200 METAR WAOC 211200Z AUTO VRB03G03KT 100V170 28/23 Q1011=
21-Sep-2023 SAID31 WAOC 211230 METAR WAOC 211230Z AUTO VRB03G03KT 110V180 28/23 Q1011=
21-Sep-2023 SAID31 WAOC 211300 METAR WAOC 211300Z AUTO VRB01G01KT 100V200 27/23 Q1011=
21-Sep-2023 SAID31 WAOC 211330 METAR WAOC 211330Z AUTO VRB02G02KT 110V190 27/23 Q1011=
21-Sep-2023 SAID31 WAOC 211400 METAR WAOC 211400Z AUTO VRB01G01KT 110V190 27/24 Q1011=
21-Sep-2023 SAID31 WAOC 211430 METAR WAOC 211430Z AUTO VRB01G01KT 26/23 Q1011=
21-Sep-2023 SAID31 WAOC 211500 METAR WAOC 211500Z AUTO VRB02G02KT 25/23 Q1011=
21-Sep-2023 SAID31 WAOC 211530 METAR WAOC 211530Z AUTO VRB02G02KT 25/23 Q1011=
21-Sep-2023 SAID31 WAOC 211600 METAR WAOC 211600Z AUTO VRB02G02KT 24/23 Q1011=
21-Sep-2023 SAID31 WAOC 211630 METAR WAOC 211630Z AUTO VRB03G03KT 24/23 Q1011=
21-Sep-2023 SAID31 WAOC 211700 METAR WAOC 211700Z AUTO VRB02G02KT 24/23 Q1010=
21-Sep-2023 SAID31 WAOC 211730 METAR WAOC 211730Z AUTO VRB02G02KT 24/23 Q1010=
21-Sep-2023 SAID31 WAOC 211800 METAR WAOC 211800Z AUTO VRB03G03KT 24/23 Q1010=
21-Sep-2023 SAID31 WAOC 211830 METAR WAOC 211830Z AUTO VRB02G02KT 23/22 Q1009=
21-Sep-2023 SAID31 WAOC 211900 METAR WAOC 211900Z AUTO VRB03G03KT 24/23 Q1010=
21-Sep-2023 SAID31 WAOC 211930 METAR WAOC 211930Z AUTO VRB02G02KT 24/23 Q1010=
21-Sep-2023 SAID31 WAOC 212000 METAR WAOC 212000Z AUTO VRB02G02KT 23/23 Q1010=
21-Sep-2023 SAID31 WAOC 212030 METAR WAOC 212030Z AUTO VRB02G02KT 23/22 Q1010=
21-Sep-2023 SAID31 WAOC 212100 METAR WAOC 212100Z AUTO VRB01G01KT 23/22 Q1010=
21-Sep-2023 SAID31 WAOC 212130 METAR WAOC 212130Z AUTO VRB02G02KT 220V290 22/22 Q1010=
21-Sep-2023 SAID31 WAOC 212200 METAR WAOC 212200Z AUTO VRB01G01KT 22/21 Q1011=
21-Sep-2023 SAID31 WAOC 212230 METAR WAOC 212230Z AUTO VRB01G01KT 22/22 Q1011=
21-Sep-2023 SAID31 WAOC 212300 METAR WAOC 212300Z AUTO VRB02G02KT 220V300 23/22 Q1011=
21-Sep-2023 SAID31 WAOC 212330 METAR WAOC 212330Z AUTO VRB02G02KT 25/23 Q1012=
22-Sep-2023 SAID31 WAOC 220000 METAR WAOC 220000Z AUTO VRB02G02KT 190V300 26/24 Q1012=
22-Sep-2023 SAID31 WAOC 220030 METAR WAOC 220030Z AUTO VRB01G01KT 170V270 27/24 Q1012=
22-Sep-2023 SAID31 WAOC 220100 METAR WAOC 220100Z AUTO VRB02G02KT 150V220 29/22 Q1012=
22-Sep-2023 SAID31 WAOC 220130 METAR WAOC 220130Z AUTO VRB02G02KT 120V220 30/23 Q1012=
22-Sep-2023 SAID31 WAOC 220200 METAR WAOC 220200Z AUTO 18004G04KT 120V230 31/23 Q1012=
22-Sep-2023 SAID31 WAOC 220230 METAR WAOC 220230Z AUTO 19004G04KT 100V210 31/23 Q1012=
22-Sep-2023 SAID31 WAOC 220300 METAR WAOC 220300Z AUTO VRB02G02KT 110V230 31/21 Q1011=
22-Sep-2023 SAID31 WAOC 220330 METAR WAOC 220330Z AUTO VRB02G03KT 070V210 32/21 Q1010=
22-Sep-2023 SAID31 WAOC 220400 METAR WAOC 220400Z AUTO VRB01G01KT 110V240 31/20 Q1010=
22-Sep-2023 SAID31 WAOC 220430 METAR WAOC 220430Z AUTO VRB03G03KT 150V220 31/21 Q1009=
22-Sep-2023 SAID31 WAOC 220500 METAR WAOC 220500Z AUTO VRB02G02KT 150V250 31/22 Q1009=
22-Sep-2023 SAID31 WAOC 220530 METAR WAOC 220530Z AUTO VRB03G03KT 130V210 31/20 Q1009=
22-Sep-2023 SAID31 WAOC 220600 METAR WAOC 220600Z AUTO 19004G04KT 080V220 31/20 Q1008=
22-Sep-2023 SAID31 WAOC 220630 METAR WAOC 220630Z AUTO VRB02G02KT 030V220 31/20 Q1008=
22-Sep-2023 SAID31 WAOC 220700 METAR WAOC 220700Z AUTO 21004G04KT 110V240 31/21 Q1008=
22-Sep-2023 SAID31 WAOC 220730 METAR WAOC 220730Z AUTO 21004G04KT 140V240 31/21 Q1008=
22-Sep-2023 SAID31 WAOC 220800 METAR WAOC 220800Z AUTO 19006G07KT 160V240 31/22 Q1008=
22-Sep-2023 SAID31 WAOC 220830 METAR WAOC 220830Z AUTO 20005G05KT 130V230 31/22 Q1008=
22-Sep-2023 SAID31 WAOC 220900 METAR WAOC 220900Z AUTO 20004G04KT 150V230 30/23 Q1008=
22-Sep-2023 SAID31 WAOC 220930 METAR WAOC 220930Z AUTO 19004G04KT 160V240 30/22 Q1008=
22-Sep-2023 SAID31 WAOC 221000 METAR WAOC 221000Z AUTO VRB01G01KT 110V220 29/21 Q1009=
22-Sep-2023 SAID31 WAOC 221030 METAR WAOC 221030Z AUTO VRB02G02KT 120V210 29/21 Q1009=
22-Sep-2023 SAID31 WAOC 221100 METAR WAOC 221100Z AUTO VRB03G03KT 110V190 28/22 Q1009=
22-Sep-2023 SAID31 WAOC 221130 METAR WAOC 221130Z AUTO VRB03G03KT 28/23 Q1010=
22-Sep-2023 SAID31 WAOC 221200 METAR WAOC 221200Z AUTO VRB02G02KT 090V180 28/23 Q1010=
22-Sep-2023 SAID31 WAOC 221230 METAR WAOC 221230Z AUTO VRB01G01KT 130V220 28/23 Q1011=
22-Sep-2023 SAID31 WAOC 221300 METAR WAOC 221300Z AUTO VRB01G01KT 170V240 27/23 Q1011=
22-Sep-2023 SAID31 WAOC 221330 METAR WAOC 221330Z AUTO VRB01G01KT 230V310 27/23 Q1011=
22-Sep-2023 SAID31 WAOC 221400 METAR WAOC 221400Z AUTO VRB01G01KT 26/24 Q1012=
22-Sep-2023 SAID31 WAOC 221430 METAR WAOC 221430Z AUTO VRB01G01KT 26/23 Q1012=
22-Sep-2023 SAID31 WAOC 221500 METAR WAOC 221500Z AUTO VRB01G01KT 200V280 25/23 Q1012=
22-Sep-2023 SAID31 WAOC 221530 METAR WAOC 221530Z AUTO VRB01G01KT 25/23 Q1012=
22-Sep-2023 SAID31 WAOC 221600 METAR WAOC 221600Z AUTO VRB01G01KT 25/23 Q1011=
22-Sep-2023 SAID31 WAOC 221630 METAR WAOC 221630Z AUTO VRB02G02KT 25/23 Q1011=
22-Sep-2023 SAID31 WAOC 221700 METAR WAOC 221700Z AUTO VRB01G01KT 25/23 Q1011=
22-Sep-2023 SAID31 WAOC 221730 METAR WAOC 221730Z AUTO VRB01G01KT 24/23 Q1010=
22-Sep-2023 SAID31 WAOC 221800 METAR WAOC 221800Z AUTO VRB02G02KT 25/23 Q1010=
22-Sep-2023 SAID31 WAOC 221830 METAR WAOC 221830Z AUTO VRB01G01KT 24/23 Q1010=
22-Sep-2023 SAID31 WAOC 221900 METAR WAOC 221900Z AUTO VRB01G01KT 24/23 Q1010=
22-Sep-2023 SAID31 WAOC 221930 METAR WAOC 221930Z AUTO VRB02G02KT 24/23 Q1010=
22-Sep-2023 SAID31 WAOC 222000 METAR WAOC 222000Z AUTO VRB01G01KT 24/23 Q1010=
22-Sep-2023 SAID31 WAOC 222030 METAR WAOC 222030Z AUTO VRB02G02KT 24/23 Q1010=
22-Sep-2023 SAID31 WAOC 222100 METAR WAOC 222100Z AUTO VRB01G01KT 24/23 Q1011=
22-Sep-2023 SAID31 WAOC 222130 METAR WAOC 222130Z AUTO VRB01G01KT 24/23 Q1011=
22-Sep-2023 SAID31 WAOC 222200 METAR WAOC 222200Z AUTO VRB02G02KT 24/23 Q1011=
22-Sep-2023 SAID31 WAOC 222230 METAR WAOC 222230Z AUTO VRB01G01KT 23/23 Q1011=
22-Sep-2023 SAID31 WAOC 222300 METAR WAOC 222300Z AUTO VRB01G01KT 240V310 25/23 Q1012=
22-Sep-2023 SAID31 WAOC 222330 METAR WAOC 222330Z AUTO VRB01G01KT 26/23 Q1012=
23-Sep-2023 SAID31 WAOC 230000 METAR WAOC 230000Z AUTO VRB01G01KT 310V210 28/23 Q1012=
23-Sep-2023 SAID31 WAOC 230030 METAR WAOC 230030Z AUTO VRB02G02KT 100V300 28/23 Q1012=
23-Sep-2023 SAID31 WAOC 230100 METAR WAOC 230100Z AUTO VRB01G01KT 120V230 29/23 Q1012=
23-Sep-2023 SAID31 WAOC 230130 METAR WAOC 230130Z AUTO VRB02G02KT 110V190 29/22 Q1012=
23-Sep-2023 SAID31 WAOC 230200 METAR WAOC 230200Z AUTO 16004G04KT 120V250 30/22 Q1012=
23-Sep-2023 SAID31 WAOC 230230 METAR WAOC 230230Z AUTO VRB03G03KT 30/21 Q1011=
23-Sep-2023 SAID31 WAOC 230300 METAR WAOC 230300Z AUTO VRB02G02KT 150V280 31/20 Q1011=
23-Sep-2023 SAID31 WAOC 230330 METAR WAOC 230330Z AUTO VRB03G03KT 160V260 32/22 Q1010=
23-Sep-2023 SAID31 WAOC 230400 METAR WAOC 230400Z AUTO VRB01G01KT 150V300 32/22 Q1010=
23-Sep-2023 SAID31 WAOC 230430 METAR WAOC 230430Z AUTO VRB03G03KT 090V160 31/23 Q1009=
23-Sep-2023 SAID31 WAOC 230500 METAR WAOC 230500Z AUTO VRB02G02KT 100V210 32/24 Q1009=
23-Sep-2023 SAID31 WAOC 230530 METAR WAOC 230530Z AUTO 21005G05KT 150V270 32/24 Q1008=
23-Sep-2023 SAID31 WAOC 230600 METAR WAOC 230600Z AUTO 18005G05KT 150V220 32/24 Q1008=
23-Sep-2023 SAID31 WAOC 230630 METAR WAOC 230630Z AUTO VRB03G03KT 150V220 31/24 Q1008=
23-Sep-2023 SAID31 WAOC 230700 METAR WAOC 230700Z AUTO VRB03G03KT 150V240 31/24 Q1008=
23-Sep-2023 SAID31 WAOC 230730 METAR WAOC 230730Z AUTO 21004G04KT 140V230 31/24 Q1008=
23-Sep-2023 SAID31 WAOC 230800 METAR WAOC 230800Z AUTO 21007G07KT 30/24 Q1008=
23-Sep-2023 SAID31 WAOC 230830 METAR WAOC 230830Z AUTO 19004G04KT 110V230 30/24 Q1008=
23-Sep-2023 SAID31 WAOC 230900 METAR WAOC 230900Z AUTO 21005G04KT 170V250 30/24 Q1008=
23-Sep-2023 SAID31 WAOC 230930 METAR WAOC 230930Z AUTO VRB03G03KT 140V240 29/24 Q1008=
23-Sep-2023 SAID31 WAOC 231000 METAR WAOC 231000Z AUTO VRB02G03KT 110V220 29/24 Q1008=
23-Sep-2023 SAID31 WAOC 231030 METAR WAOC 231030Z AUTO VRB03G03KT 120V210 29/23 Q1009=
23-Sep-2023 SAID31 WAOC 231100 METAR WAOC 231100Z AUTO VRB03G03KT 110V220 28/23 Q1009=
23-Sep-2023 SAID31 WAOC 231130 METAR WAOC 231130Z AUTO VRB03G03KT 28/24 Q1010=
23-Sep-2023 SAID31 WAOC 231200 METAR WAOC 231200Z AUTO 14004G04KT 110V190 28/24 Q1010=
23-Sep-2023 SAID31 WAOC 231230 METAR WAOC 231230Z AUTO VRB02G02KT 28/24 Q1010=
23-Sep-2023 SAID31 WAOC 231300 METAR WAOC 231300Z AUTO VRB01G01KT 190V260 27/24 Q1011=
23-Sep-2023 SAID31 WAOC 231330 METAR WAOC 231330Z AUTO VRB02G02KT 120V240 27/24 Q1011=
23-Sep-2023 SAID31 WAOC 231400 METAR WAOC 231400Z AUTO VRB01G01KT 26/24 Q1011=
23-Sep-2023 SAID31 WAOC 231430 METAR WAOC 231430Z AUTO 00000G01KT 27/24 Q1011=
23-Sep-2023 SAID31 WAOC 231500 METAR WAOC 231500Z AUTO VRB01G01KT 210V280 26/24 Q1011=
23-Sep-2023 SAID31 WAOC 231530 METAR WAOC 231530Z AUTO VRB02G02KT 26/24 Q1011=
23-Sep-2023 SAID31 WAOC 231600 METAR WAOC 231600Z AUTO 00000G00KT 26/24 Q1011=
23-Sep-2023 SAID31 WAOC 231630 METAR WAOC 231630Z AUTO VRB02G02KT 25/24 Q1011=
23-Sep-2023 SAID31 WAOC 231700 METAR WAOC 231700Z AUTO VRB02G02KT 25/24 Q1010=
23-Sep-2023 SAID31 WAOC 231730 METAR WAOC 231730Z AUTO VRB01G01KT 210V280 25/24 Q1010=
23-Sep-2023 SAID31 WAOC 231800 METAR WAOC 231800Z AUTO VRB01G01KT 25/24 Q1010=
23-Sep-2023 SAID31 WAOC 231830 METAR WAOC 231830Z AUTO VRB01G01KT 210V290 25/24 Q1010=
23-Sep-2023 SAID31 WAOC 231900 METAR WAOC 231900Z AUTO VRB01G01KT 25/24 Q1010=
23-Sep-2023 SAID31 WAOC 231930 METAR WAOC 231930Z AUTO VRB01G01KT 210V290 25/24 Q1010=
23-Sep-2023 SAID31 WAOC 232000 METAR WAOC 232000Z AUTO VRB01G01KT 160V250 25/24 Q1009=
23-Sep-2023 SAID31 WAOC 232030 METAR WAOC 232030Z AUTO VRB02G02KT 25/24 Q1010=
23-Sep-2023 SAID31 WAOC 232100 METAR WAOC 232100Z AUTO VRB01G01KT 24/23 Q1010=
23-Sep-2023 SAID31 WAOC 232130 METAR WAOC 232130Z AUTO VRB02G02KT 23/23 Q1010=
23-Sep-2023 SAID31 WAOC 232200 METAR WAOC 232200Z AUTO VRB01G01KT 220V310 24/23 Q1010=
23-Sep-2023 SAID31 WAOC 232230 METAR WAOC 232230Z AUTO VRB02G02KT 230V320 24/24 Q1011=
23-Sep-2023 SAID31 WAOC 232300 METAR WAOC 232300Z AUTO VRB02G02KT 25/24 Q1011=
23-Sep-2023 SAID31 WAOC 232330 METAR WAOC 232330Z AUTO VRB02G02KT 27/24 Q1012=
24-Sep-2023 SAID31 WAOC 240000 METAR WAOC 240000Z AUTO VRB02G02KT 27/24 Q1012=
24-Sep-2023 SAID31 WAOC 240030 METAR WAOC 240030Z AUTO VRB02G02KT 130V320 29/24 Q1012=
24-Sep-2023 SAID31 WAOC 240100 METAR WAOC 240100Z AUTO 17004G04KT 100V210 30/24 Q1012=
24-Sep-2023 SAID31 WAOC 240130 METAR WAOC 240130Z AUTO VRB02G02KT 090V220 30/24 Q1012=
24-Sep-2023 SAID31 WAOC 240200 METAR WAOC 240200Z AUTO VRB02G02KT 110V250 31/23 Q1011=
24-Sep-2023 SAID31 WAOC 240230 METAR WAOC 240230Z AUTO VRB03G03KT 060V230 31/23 Q1011=
24-Sep-2023 SAID31 WAOC 240300 METAR WAOC 240300Z AUTO VRB01G01KT 110V260 32/23 Q1010=
24-Sep-2023 SAID31 WAOC 240330 METAR WAOC 240330Z AUTO VRB03G03KT 110V250 32/23 Q1010=
24-Sep-2023 SAID31 WAOC 240400 METAR WAOC 240400Z AUTO VRB02G02KT 130V210 32/23 Q1009=
24-Sep-2023 SAID31 WAOC 240430 METAR WAOC 240430Z AUTO VRB01G01KT 130V220 33/22 Q1009=
24-Sep-2023 SAID31 WAOC 240500 METAR WAOC 240500Z AUTO VRB03G03KT 32/23 Q1008=
24-Sep-2023 SAID31 WAOC 240530 METAR WAOC 240530Z AUTO 17005G05KT 130V200 33/23 Q1008=
24-Sep-2023 SAID31 WAOC 240600 METAR WAOC 240600Z AUTO VRB02G02KT 110V220 32/23 Q1007=
24-Sep-2023 SAID31 WAOC 240630 METAR WAOC 240630Z AUTO VRB03G03KT 080V190 33/23 Q1007=
24-Sep-2023 SAID31 WAOC 240700 METAR WAOC 240700Z AUTO 12004G04KT 33/22 Q1006=
24-Sep-2023 SAID31 WAOC 240730 METAR WAOC 240730Z AUTO VRB03G02KT 33/23 Q1006=
24-Sep-2023 SAID31 WAOC 240800 METAR WAOC 240800Z AUTO VRB03G03KT 32/23 Q1006=
24-Sep-2023 SAID31 WAOC 240830 METAR WAOC 240830Z AUTO 12004G04KT 090V170 32/23 Q1007=
24-Sep-2023 SAID31 WAOC 240900 METAR WAOC 240900Z AUTO 14004G04KT 31/23 Q1007=
24-Sep-2023 SAID31 WAOC 240930 METAR WAOC 240930Z AUTO 12006G06KT 31/23 Q1007=
24-Sep-2023 SAID31 WAOC 241000 METAR WAOC 241000Z AUTO VRB03G03KT 29/23 Q1008=
24-Sep-2023 SAID31 WAOC 241030 METAR WAOC 241030Z AUTO VRB02G02KT 29/23 Q1008=
24-Sep-2023 SAID31 WAOC 241100 METAR WAOC 241100Z AUTO VRB03G03KT 28/23 Q1008=
24-Sep-2023 SAID31 WAOC 241130 METAR WAOC 241130Z AUTO VRB02G02KT 110V210 28/23 Q1009=
24-Sep-2023 SAID31 WAOC 241200 METAR WAOC 241200Z AUTO VRB01G01KT 28/23 Q1009=
24-Sep-2023 SAID31 WAOC 241230 METAR WAOC 241230Z AUTO VRB01G01KT 27/24 Q1010=
24-Sep-2023 SAID31 WAOC 241300 METAR WAOC 241300Z AUTO VRB01G01KT 210V280 27/24 Q1010=
24-Sep-2023 SAID31 WAOC 241330 METAR WAOC 241330Z AUTO VRB02G02KT 26/24 Q1010=
24-Sep-2023 SAID31 WAOC 241400 METAR WAOC 241400Z AUTO VRB01G01KT 26/24 Q1010=
24-Sep-2023 SAID31 WAOC 241430 METAR WAOC 241430Z AUTO VRB01G01KT 26/24 Q1010=
24-Sep-2023 SAID31 WAOC 241500 METAR WAOC 241500Z AUTO VRB02G02KT 25/23 Q1010=
24-Sep-2023 SAID31 WAOC 241530 METAR WAOC 241530Z AUTO VRB02G02KT 25/24 Q1010=
24-Sep-2023 SAID31 WAOC 241600 METAR WAOC 241600Z AUTO VRB02G02KT 25/24 Q1010=
24-Sep-2023 SAID31 WAOC 241630 METAR WAOC 241630Z AUTO VRB01G01KT 25/24 Q1010=
24-Sep-2023 SAID31 WAOC 241700 METAR WAOC 241700Z AUTO VRB01G01KT 25/24 Q1010=
24-Sep-2023 SAID31 WAOC 241730 METAR WAOC 241730Z AUTO VRB02G02KT 25/24 Q1009=
24-Sep-2023 SAID31 WAOC 241800 METAR WAOC 241800Z AUTO VRB02G02KT 25/24 Q1009=
24-Sep-2023 SAID31 WAOC 241830 METAR WAOC 241830Z AUTO VRB01G01KT 25/24 Q1009=
24-Sep-2023 SAID31 WAOC 241900 METAR WAOC 241900Z AUTO VRB01G01KT 24/24 Q1009=
24-Sep-2023 SAID31 WAOC 241930 METAR WAOC 241930Z AUTO VRB01G01KT 24/23 Q1010=
24-Sep-2023 SAID31 WAOC 242000 METAR WAOC 242000Z AUTO VRB02G02KT 24/23 Q1010=
24-Sep-2023 SAID31 WAOC 242030 METAR WAOC 242030Z AUTO VRB02G02KT 23/23 Q1010=
24-Sep-2023 SAID31 WAOC 242100 METAR WAOC 242100Z AUTO VRB02G02KT 23/23 Q1010=
24-Sep-2023 SAID31 WAOC 242130 METAR WAOC 242130Z AUTO VRB01G01KT 24/23 Q1010=
24-Sep-2023 SAID31 WAOC 242200 METAR WAOC 242200Z AUTO VRB01G01KT 24/23 Q1011=
24-Sep-2023 SAID31 WAOC 242230 METAR WAOC 242230Z AUTO VRB01G01KT 24/23 Q1011=
24-Sep-2023 SAID31 WAOC 242300 METAR WAOC 242300Z AUTO VRB02G02KT 25/23 Q1011=
24-Sep-2023 SAID31 WAOC 242330 METAR WAOC 242330Z AUTO VRB02G02KT 230V310 26/24 Q1011=
25-Sep-2023 SAID31 WAOC 250000 METAR WAOC 250000Z AUTO VRB02G02KT 230V300 27/24 Q1011=
25-Sep-2023 SAID31 WAOC 250030 METAR WAOC 250030Z AUTO VRB01G01KT 180V310 28/25 Q1012=
25-Sep-2023 SAID31 WAOC 250100 METAR WAOC 250100Z AUTO VRB02G02KT 090V250 30/24 Q1012=
25-Sep-2023 SAID31 WAOC 250130 METAR WAOC 250130Z AUTO 20005G05KT 120V210 30/23 Q1012=
25-Sep-2023 SAID31 WAOC 250200 METAR WAOC 250200Z AUTO 19004G04KT 150V220 31/23 Q1012=
25-Sep-2023 SAID31 WAOC 250230 METAR WAOC 250230Z AUTO 18004G04KT 140V250 31/23 Q1012=
25-Sep-2023 SAID31 WAOC 250300 METAR WAOC 250300Z AUTO VRB02G02KT 130V250 31/22 Q1011=
25-Sep-2023 SAID31 WAOC 250330 METAR WAOC 250330Z AUTO 16004G03KT 080V340 32/23 Q1011=
25-Sep-2023 SAID31 WAOC 250400 METAR WAOC 250400Z AUTO VRB02G02KT 170V240 32/22 Q1010=
25-Sep-2023 SAID31 WAOC 250430 METAR WAOC 250430Z AUTO 23004G04KT 170V240 31/23 Q1010=
25-Sep-2023 SAID31 WAOC 250500 METAR WAOC 250500Z AUTO 15004G04KT 130V230 31/23 Q1009=
25-Sep-2023 SAID31 WAOC 250530 METAR WAOC 250530Z AUTO 18006G06KT 130V210 32/24 Q1009=
25-Sep-2023 SAID31 WAOC 250600 METAR WAOC 250600Z AUTO 21004G04KT 160V250 32/24 Q1009=
25-Sep-2023 SAID31 WAOC 250630 METAR WAOC 250630Z AUTO 22007G07KT 160V240 31/23 Q1008=
25-Sep-2023 SAID31 WAOC 250700 METAR WAOC 250700Z AUTO VRB02G02KT 160V240 31/24 Q1008=
25-Sep-2023 SAID31 WAOC 250730 METAR WAOC 250730Z AUTO 19007G07KT 150V250 31/24 Q1008=
25-Sep-2023 SAID31 WAOC 250800 METAR WAOC 250800Z AUTO 16005G05KT 120V250 32/23 Q1008=
25-Sep-2023 SAID31 WAOC 250830 METAR WAOC 250830Z AUTO 20006G06KT 31/23 Q1008=
25-Sep-2023 SAID31 WAOC 250900 METAR WAOC 250900Z AUTO 15004G04KT 31/23 Q1008=
25-Sep-2023 SAID31 WAOC 250930 METAR WAOC 250930Z AUTO VRB03G03KT 120V190 30/23 Q1008=
25-Sep-2023 SAID31 WAOC 251000 METAR WAOC 251000Z AUTO 13004G04KT 110V180 30/23 Q1009=
25-Sep-2023 SAID31 WAOC 251030 METAR WAOC 251030Z AUTO VRB03G03KT 29/23 Q1009=
25-Sep-2023 SAID31 WAOC 251100 METAR WAOC 251100Z AUTO VRB02G02KT 29/23 Q1010=
25-Sep-2023 SAID31 WAOC 251130 METAR WAOC 251130Z AUTO VRB02G02KT 28/24 Q1010=
25-Sep-2023 SAID31 WAOC 251200 METAR WAOC 251200Z AUTO VRB02G02KT 120V190 28/24 Q1010=
25-Sep-2023 SAID31 WAOC 251230 METAR WAOC 251230Z AUTO VRB02G02KT 120V210 28/24 Q1010=
25-Sep-2023 SAID31 WAOC 251300 METAR WAOC 251300Z AUTO VRB01G01KT 100V210 27/24 Q1011=
25-Sep-2023 SAID31 WAOC 251330 METAR WAOC 251330Z AUTO VRB01G01KT 220V320 27/24 Q1011=
25-Sep-2023 SAID31 WAOC 251400 METAR WAOC 251400Z AUTO VRB01G01KT 26/24 Q1011=
25-Sep-2023 SAID31 WAOC 251430 METAR WAOC 251430Z AUTO VRB02G01KT 25/24 Q1011=
25-Sep-2023 SAID31 WAOC 251500 METAR WAOC 251500Z AUTO VRB02G02KT 25/24 Q1011=
25-Sep-2023 SAID31 WAOC 251530 METAR WAOC 251530Z AUTO VRB02G02KT 25/24 Q1011=
25-Sep-2023 SAID31 WAOC 251600 METAR WAOC 251600Z AUTO VRB02G02KT 25/24 Q1010=
25-Sep-2023 SAID31 WAOC 251630 METAR WAOC 251630Z AUTO VRB02G02KT 25/24 Q1010=
25-Sep-2023 SAID31 WAOC 251700 METAR WAOC 251700Z AUTO VRB02G02KT 24/23 Q1010=
25-Sep-2023 SAID31 WAOC 251730 METAR WAOC 251730Z AUTO VRB02G02KT 24/23 Q1010=
25-Sep-2023 SAID31 WAOC 251800 METAR WAOC 251800Z AUTO VRB03G03KT 24/23 Q1010=
25-Sep-2023 SAID31 WAOC 251830 METAR WAOC 251830Z AUTO VRB02G02KT 24/23 Q1010=
25-Sep-2023 SAID31 WAOC 251900 METAR WAOC 251900Z AUTO VRB02G02KT 24/23 Q1010=
25-Sep-2023 SAID31 WAOC 251930 METAR WAOC 251930Z AUTO VRB01G01KT 230V300 24/23 Q1010=
25-Sep-2023 SAID31 WAOC 252000 METAR WAOC 252000Z AUTO VRB02G02KT 24/23 Q1010=
25-Sep-2023 SAID31 WAOC 252030 METAR WAOC 252030Z AUTO VRB03G03KT 220V320 24/23 Q1010=
25-Sep-2023 SAID31 WAOC 252100 METAR WAOC 252100Z AUTO VRB03G03KT 24/23 Q1010=
25-Sep-2023 SAID31 WAOC 252130 METAR WAOC 252130Z AUTO VRB03G03KT 24/23 Q1010=
25-Sep-2023 SAID31 WAOC 252200 METAR WAOC 252200Z AUTO VRB03G03KT 24/23 Q1011=
25-Sep-2023 SAID31 WAOC 252230 METAR WAOC 252230Z AUTO VRB02G02KT 230V300 24/23 Q1011=
25-Sep-2023 SAID31 WAOC 252300 METAR WAOC 252300Z AUTO VRB02G02KT 25/23 Q1011=
25-Sep-2023 SAID31 WAOC 252330 METAR WAOC 252330Z AUTO VRB01G01KT 240V310 26/24 Q1012=
26-Sep-2023 SAID31 WAOC 260000 METAR WAOC 260000Z AUTO VRB02G02KT 220V300 27/24 Q1012=
26-Sep-2023 SAID31 WAOC 260030 METAR WAOC 260030Z AUTO VRB03G03KT 170V260 28/24 Q1012=
26-Sep-2023 SAID31 WAOC 260100 METAR WAOC 260100Z AUTO 17004G04KT 100V230 30/23 Q1012=
26-Sep-2023 SAID31 WAOC 260130 METAR WAOC 260130Z AUTO VRB03G02KT 100V200 30/24 Q1012=
26-Sep-2023 SAID31 WAOC 260200 METAR WAOC 260200Z AUTO VRB03G03KT 110V210 31/23 Q1011=
26-Sep-2023 SAID31 WAOC 260230 METAR WAOC 260230Z AUTO 22004G04KT 110V220 32/23 Q1011=
26-Sep-2023 SAID31 WAOC 260300 METAR WAOC 260300Z AUTO VRB01G01KT 110V250 32/22 Q1010=
26-Sep-2023 SAID31 WAOC 260330 METAR WAOC 260330Z AUTO VRB03G03KT 090V220 33/21 Q1010=
26-Sep-2023 SAID31 WAOC 260400 METAR WAOC 260400Z AUTO 14005G05KT 090V180 32/20 Q1010=
26-Sep-2023 SAID31 WAOC 260430 METAR WAOC 260430Z AUTO VRB03G03KT 100V230 33/19 Q1009=
26-Sep-2023 SAID31 WAOC 260500 METAR WAOC 260500Z AUTO VRB03G03KT 34/19 Q1009=
26-Sep-2023 SAID31 WAOC 260530 METAR WAOC 260530Z AUTO VRB03G03KT 110V220 33/17 Q1008=
26-Sep-2023 SAID31 WAOC 260600 METAR WAOC 260600Z AUTO VRB02G02KT 090V270 34/18 Q1008=
26-Sep-2023 SAID31 WAOC 260630 METAR WAOC 260630Z AUTO VRB01G01KT 120V240 33/18 Q1008=
26-Sep-2023 SAID31 WAOC 260700 METAR WAOC 260700Z AUTO 22004G04KT 100V220 33/21 Q1007=
26-Sep-2023 SAID31 WAOC 260730 METAR WAOC 260730Z AUTO 21004G04KT 120V260 33/21 Q1007=
26-Sep-2023 SAID31 WAOC 260800 METAR WAOC 260800Z AUTO VRB01G01KT 110V230 33/19 Q1007=
26-Sep-2023 SAID31 WAOC 260830 METAR WAOC 260830Z AUTO VRB03G03KT 110V210 33/18 Q1007=
26-Sep-2023 SAID31 WAOC 260900 METAR WAOC 260900Z AUTO 13004G04KT 110V190 32/18 Q1007=
26-Sep-2023 SAID31 WAOC 260930 METAR WAOC 260930Z AUTO VRB02G02KT 110V180 31/19 Q1008=
26-Sep-2023 SAID31 WAOC 261000 METAR WAOC 261000Z AUTO VRB02G02KT 30/22 Q1008=
26-Sep-2023 SAID31 WAOC 261030 METAR WAOC 261030Z AUTO VRB02G02KT 29/22 Q1009=
26-Sep-2023 SAID31 WAOC 261100 METAR WAOC 261100Z AUTO VRB03G04KT 28/22 Q1009=
26-Sep-2023 SAID31 WAOC 261130 METAR WAOC 261130Z AUTO VRB02G02KT 28/23 Q1010=
26-Sep-2023 SAID31 WAOC 261200 METAR WAOC 261200Z AUTO VRB01G01KT 100V170 28/23 Q1010=
26-Sep-2023 SAID31 WAOC 261230 METAR WAOC 261230Z AUTO VRB01G01KT 28/24 Q1010=
26-Sep-2023 SAID31 WAOC 261300 METAR WAOC 261300Z AUTO VRB01G01KT 120V190 27/24 Q1011=
26-Sep-2023 SAID31 WAOC 261330 METAR WAOC 261330Z AUTO VRB01G01KT 130V200 27/24 Q1011=
26-Sep-2023 SAID31 WAOC 261400 METAR WAOC 261400Z AUTO VRB01G01KT 110V230 27/24 Q1011=
26-Sep-2023 SAID31 WAOC 261430 METAR WAOC 261430Z AUTO VRB01G01KT 150V220 27/24 Q1011=
26-Sep-2023 SAID31 WAOC 261500 METAR WAOC 261500Z AUTO VRB01G01KT 25/23 Q1011=
26-Sep-2023 SAID31 WAOC 261530 METAR WAOC 261530Z AUTO VRB02G02KT 25/23 Q1011=
26-Sep-2023 SAID31 WAOC 261600 METAR WAOC 261600Z AUTO VRB02G02KT 24/23 Q1011=
26-Sep-2023 SAID31 WAOC 261630 METAR WAOC 261630Z AUTO VRB02G02KT 24/23 Q1011=
26-Sep-2023 SAID31 WAOC 261700 METAR WAOC 261700Z AUTO VRB01G01KT 24/23 Q1010=
26-Sep-2023 SAID31 WAOC 261730 METAR WAOC 261730Z AUTO VRB01G01KT 24/23 Q1010=
26-Sep-2023 SAID31 WAOC 261800 METAR WAOC 261800Z AUTO VRB02G02KT 24/23 Q1010=
26-Sep-2023 SAID31 WAOC 261830 METAR WAOC 261830Z AUTO VRB01G01KT 23/22 Q1010=
26-Sep-2023 SAID31 WAOC 261900 METAR WAOC 261900Z AUTO VRB02G02KT 24/23 Q1010=
26-Sep-2023 SAID31 WAOC 261930 METAR WAOC 261930Z AUTO VRB02G02KT 24/23 Q1010=
26-Sep-2023 SAID31 WAOC 262000 METAR WAOC 262000Z AUTO VRB03G03KT 24/23 Q1010=
26-Sep-2023 SAID31 WAOC 262030 METAR WAOC 262030Z AUTO VRB02G02KT 24/23 Q1010=
26-Sep-2023 SAID31 WAOC 262100 METAR WAOC 262100Z AUTO 30004G04KT 24/23 Q1010=
26-Sep-2023 SAID31 WAOC 262130 METAR WAOC 262130Z AUTO VRB02G02KT 24/23 Q1011=
26-Sep-2023 SAID31 WAOC 262200 METAR WAOC 262200Z AUTO VRB03G03KT 24/23 Q1011=
26-Sep-2023 SAID31 WAOC 262230 METAR WAOC 262230Z AUTO VRB03G03KT 24/23 Q1011=
26-Sep-2023 SAID31 WAOC 262300 METAR WAOC 262300Z AUTO VRB01G01KT 220V310 25/24 Q1011=
26-Sep-2023 SAID31 WAOC 262330 METAR WAOC 262330Z AUTO VRB03G03KT 26/24 Q1012=
27-Sep-2023 SAID31 WAOC 270000 METAR WAOC 270000Z AUTO VRB01G01KT 230V310 27/24 Q1012=
27-Sep-2023 SAID31 WAOC 270030 METAR WAOC 270030Z AUTO VRB02G02KT 170V290 27/24 Q1012=
27-Sep-2023 SAID31 WAOC 270100 METAR WAOC 270100Z AUTO VRB01G01KT 180V290 29/24 Q1012=
27-Sep-2023 SAID31 WAOC 270130 METAR WAOC 270130Z AUTO VRB02G02KT 120V220 30/24 Q1012=
27-Sep-2023 SAID31 WAOC 270200 METAR WAOC 270200Z AUTO VRB01G01KT 070V210 30/24 Q1012=
27-Sep-2023 SAID31 WAOC 270230 METAR WAOC 270230Z AUTO 13004G03KT 080V200 32/24 Q1012=
27-Sep-2023 SAID31 WAOC 270300 METAR WAOC 270300Z AUTO VRB01G01KT 140V260 32/24 Q1011=
27-Sep-2023 SAID31 WAOC 270330 METAR WAOC 270330Z AUTO VRB01G01KT 040V210 32/23 Q1011=
27-Sep-2023 SAID31 WAOC 270400 METAR WAOC 270400Z AUTO VRB02G02KT 080V160 33/21 Q1010=
27-Sep-2023 SAID31 WAOC 270430 METAR WAOC 270430Z AUTO VRB03G03KT 070V200 33/21 Q1009=
27-Sep-2023 SAID31 WAOC 270500 METAR WAOC 270500Z AUTO 14004G04KT 080V190 33/20 Q1009=
27-Sep-2023 SAID31 WAOC 270530 METAR WAOC 270530Z AUTO 10006G04KT 35/20 Q1009=
27-Sep-2023 SAID31 WAOC 270600 METAR WAOC 270600Z AUTO VRB03G03KT 070V140 34/20 Q1008=
27-Sep-2023 SAID31 WAOC 270630 METAR WAOC 270630Z AUTO 10005G05KT 090V160 33/21 Q1008=
27-Sep-2023 SAID31 WAOC 270700 METAR WAOC 270700Z AUTO 08004G05KT 070V140 33/20 Q1008=
27-Sep-2023 SAID31 WAOC 270730 METAR WAOC 270730Z AUTO 12005G05KT 080V150 33/20 Q1008=
27-Sep-2023 SAID31 WAOC 270800 METAR WAOC 270800Z AUTO 11006G06KT 080V150 33/19 Q1007=
27-Sep-2023 SAID31 WAOC 270830 METAR WAOC 270830Z AUTO 11005G05KT 32/20 Q1007=
27-Sep-2023 SAID31 WAOC 270900 METAR WAOC 270900Z AUTO VRB02G02KT 070V140 31/21 Q1008=
27-Sep-2023 SAID31 WAOC 270930 METAR WAOC 270930Z AUTO 11004G05KT 31/22 Q1008=
27-Sep-2023 SAID31 WAOC 271000 METAR WAOC 271000Z AUTO VRB03G03KT 30/22 Q1008=
27-Sep-2023 SAID31 WAOC 271030 METAR WAOC 271030Z AUTO VRB03G03KT 29/23 Q1009=
27-Sep-2023 SAID31 WAOC 271100 METAR WAOC 271100Z AUTO VRB02G02KT 29/23 Q1009=
27-Sep-2023 SAID31 WAOC 271130 METAR WAOC 271130Z AUTO VRB03G03KT 28/23 Q1010=
27-Sep-2023 SAID31 WAOC 271200 METAR WAOC 271200Z AUTO VRB02G02KT 28/23 Q1010=
27-Sep-2023 SAID31 WAOC 271230 METAR WAOC 271230Z AUTO VRB02G02KT 100V170 28/24 Q1011=
27-Sep-2023 SAID31 WAOC 271300 METAR WAOC 271300Z AUTO VRB02G01KT 130V220 27/24 Q1011=
27-Sep-2023 SAID31 WAOC 271330 METAR WAOC 271330Z AUTO 00000G00KT 160V260 27/24 Q1011=
27-Sep-2023 SAID31 WAOC 271400 METAR WAOC 271400Z AUTO VRB02G02KT 26/23 Q1011=
27-Sep-2023 SAID31 WAOC 271430 METAR WAOC 271430Z AUTO VRB01G01KT 26/23 Q1011=
27-Sep-2023 SAID31 WAOC 271500 METAR WAOC 271500Z AUTO VRB01G01KT 26/24 Q1011=
27-Sep-2023 SAID31 WAOC 271530 METAR WAOC 271530Z AUTO VRB01G01KT 26/24 Q1011=
27-Sep-2023 SAID31 WAOC 271600 METAR WAOC 271600Z AUTO VRB01G01KT 26/24 Q1011=
27-Sep-2023 SAID31 WAOC 271630 METAR WAOC 271630Z AUTO VRB01G01KT 25/24 Q1011=
27-Sep-2023 SAID31 WAOC 271700 METAR WAOC 271700Z AUTO VRB01G01KT 25/24 Q1011=
27-Sep-2023 SAID31 WAOC 271730 METAR WAOC 271730Z AUTO VRB01G01KT 220V300 25/23 Q1011=
27-Sep-2023 SAID31 WAOC 271800 METAR WAOC 271800Z AUTO VRB01G01KT 24/23 Q1010=
27-Sep-2023 SAID31 WAOC 271830 METAR WAOC 271830Z AUTO VRB02G02KT 240V310 24/23 Q1010=
27-Sep-2023 SAID31 WAOC 271900 METAR WAOC 271900Z AUTO VRB02G02KT 24/23 Q1010=
27-Sep-2023 SAID31 WAOC 271930 METAR WAOC 271930Z AUTO VRB03G03KT 24/23 Q1010=
27-Sep-2023 SAID31 WAOC 272000 METAR WAOC 272000Z AUTO VRB02G03KT 24/23 Q1010=
27-Sep-2023 SAID31 WAOC 272030 METAR WAOC 272030Z AUTO VRB02G02KT 230V300 24/23 Q1010=
27-Sep-2023 SAID31 WAOC 272100 METAR WAOC 272100Z AUTO VRB02G02KT 24/23 Q1011=
27-Sep-2023 SAID31 WAOC 272130 METAR WAOC 272130Z AUTO VRB01G01KT 220V290 24/23 Q1011=
27-Sep-2023 SAID31 WAOC 272200 METAR WAOC 272200Z AUTO VRB01G01KT 23/23 Q1011=
27-Sep-2023 SAID31 WAOC 272230 METAR WAOC 272230Z AUTO VRB01G02KT 23/23 Q1011=
27-Sep-2023 SAID31 WAOC 272300 METAR WAOC 272300Z AUTO VRB02G02KT 25/24 Q1012=
27-Sep-2023 SAID31 WAOC 272330 METAR WAOC 272330Z AUTO VRB02G02KT 220V300 26/24 Q1012=
28-Sep-2023 SAID31 WAOC 280000 METAR WAOC 280000Z AUTO VRB02G02KT 190V320 27/24 Q1012=
28-Sep-2023 SAID31 WAOC 280030 METAR WAOC 280030Z AUTO VRB03G03KT 160V290 28/25 Q1012=
28-Sep-2023 SAID31 WAOC 280100 METAR WAOC 280100Z AUTO VRB03G03KT 110V190 29/24 Q1012=
28-Sep-2023 SAID31 WAOC 280130 METAR WAOC 280130Z AUTO VRB03G03KT 110V210 30/24 Q1012=
28-Sep-2023 SAID31 WAOC 280200 METAR WAOC 280200Z AUTO VRB01G01KT 110V250 30/23 Q1012=
28-Sep-2023 SAID31 WAOC 280230 METAR WAOC 280230Z AUTO VRB02G02KT 130V230 31/24 Q1012=
28-Sep-2023 SAID31 WAOC 280300 METAR WAOC 280300Z AUTO VRB03G03KT 120V220 32/23 Q1011=
28-Sep-2023 SAID31 WAOC 280330 METAR WAOC 280330Z AUTO VRB02G02KT 110V210 32/22 Q1011=
28-Sep-2023 SAID31 WAOC 280400 METAR WAOC 280400Z AUTO 11004G04KT 060V150 35/20 Q1010=
28-Sep-2023 SAID31 WAOC 280430 METAR WAOC 280430Z AUTO 16004G04KT 080V240 34/20 Q1010=
28-Sep-2023 SAID31 WAOC 280500 METAR WAOC 280500Z AUTO VRB03G03KT 33/20 Q1009=
28-Sep-2023 SAID31 WAOC 280530 METAR WAOC 280530Z AUTO 10004G04KT 34/18 Q1009=
28-Sep-2023 SAID31 WAOC 280600 METAR WAOC 280600Z AUTO 09004G04KT 070V140 35/17 Q1009=
28-Sep-2023 SAID31 WAOC 280630 METAR WAOC 280630Z AUTO 10006G06KT 34/18 Q1008=
28-Sep-2023 SAID31 WAOC 280700 METAR WAOC 280700Z AUTO 09004G04KT 080V160 33/17 Q1008=
28-Sep-2023 SAID31 WAOC 280730 METAR WAOC 280730Z AUTO 13005G06KT 080V150 33/17 Q1008=
28-Sep-2023 SAID31 WAOC 280800 METAR WAOC 280800Z AUTO 11005G03KT 33/19 Q1008=
28-Sep-2023 SAID31 WAOC 280830 METAR WAOC 280830Z AUTO 12005G05KT 33/19 Q1008=
28-Sep-2023 SAID31 WAOC 280900 METAR WAOC 280900Z AUTO 11004G04KT 32/18 Q1008=
28-Sep-2023 SAID31 WAOC 280930 METAR WAOC 280930Z AUTO 11005G04KT 070V150 31/19 Q1008=
28-Sep-2023 SAID31 WAOC 281000 METAR WAOC 281000Z AUTO VRB03G03KT 30/20 Q1008=
28-Sep-2023 SAID31 WAOC 281030 METAR WAOC 281030Z AUTO VRB02G02KT 30/21 Q1009=
28-Sep-2023 SAID31 WAOC 281100 METAR WAOC 281100Z AUTO VRB03G03KT 29/22 Q1009=
28-Sep-2023 SAID31 WAOC 281130 METAR WAOC 281130Z AUTO VRB02G02KT 28/22 Q1010=
28-Sep-2023 SAID31 WAOC 281200 METAR WAOC 281200Z AUTO VRB03G03KT 100V180 28/23 Q1011=
28-Sep-2023 SAID31 WAOC 281230 METAR WAOC 281230Z AUTO VRB01G01KT 120V190 27/23 Q1011=
28-Sep-2023 SAID31 WAOC 281300 METAR WAOC 281300Z AUTO VRB01G01KT 150V240 27/23 Q1011=
28-Sep-2023 SAID31 WAOC 281330 METAR WAOC 281330Z AUTO VRB01G01KT 160V240 27/23 Q1011=
28-Sep-2023 SAID31 WAOC 281400 METAR WAOC 281400Z AUTO VRB01G01KT 170V290 26/23 Q1011=
28-Sep-2023 SAID31 WAOC 281430 METAR WAOC 281430Z AUTO VRB01G01KT 26/23 Q1011=
28-Sep-2023 SAID31 WAOC 281500 METAR WAOC 281500Z AUTO VRB01G01KT 26/23 Q1011=
28-Sep-2023 SAID31 WAOC 281530 METAR WAOC 281530Z AUTO VRB01G01KT 170V280 26/24 Q1012=
28-Sep-2023 SAID31 WAOC 281600 METAR WAOC 281600Z AUTO VRB01G01KT 25/23 Q1011=
28-Sep-2023 SAID31 WAOC 281630 METAR WAOC 281630Z AUTO VRB02G02KT 24/23 Q1011=
28-Sep-2023 SAID31 WAOC 281700 METAR WAOC 281700Z AUTO VRB01G01KT 24/23 Q1011=
28-Sep-2023 SAID31 WAOC 281730 METAR WAOC 281730Z AUTO 00000G00KT 200V330 24/23 Q1011=
28-Sep-2023 SAID31 WAOC 281800 METAR WAOC 281800Z AUTO VRB01G01KT 24/23 Q1011=
28-Sep-2023 SAID31 WAOC 281830 METAR WAOC 281830Z AUTO VRB01G01KT 24/23 Q1011=
28-Sep-2023 SAID31 WAOC 281900 METAR WAOC 281900Z AUTO VRB02G02KT 23/22 Q1011=
28-Sep-2023 SAID31 WAOC 281930 METAR WAOC 281930Z AUTO VRB02G02KT 23/23 Q1011=
28-Sep-2023 SAID31 WAOC 282000 METAR WAOC 282000Z AUTO VRB03G03KT 23/22 Q1011=
28-Sep-2023 SAID31 WAOC 282030 METAR WAOC 282030Z AUTO VRB03G03KT 23/22 Q1011=
28-Sep-2023 SAID31 WAOC 282100 METAR WAOC 282100Z AUTO VRB02G02KT 23/23 Q1011=
28-Sep-2023 SAID31 WAOC 282130 METAR WAOC 282130Z AUTO VRB02G02KT 23/23 Q1011=
28-Sep-2023 SAID31 WAOC 282200 METAR WAOC 282200Z AUTO VRB02G02KT 23/22 Q1012=
28-Sep-2023 SAID31 WAOC 282230 METAR WAOC 282230Z AUTO VRB01G01KT 24/23 Q1012=
28-Sep-2023 SAID31 WAOC 282300 METAR WAOC 282300Z AUTO VRB02G02KT 200V280 25/24 Q1012=
28-Sep-2023 SAID31 WAOC 282330 METAR WAOC 282330Z AUTO VRB02G02KT 230V310 27/24 Q1013=
29-Sep-2023 SAID31 WAOC 290000 METAR WAOC 290000Z AUTO VRB02G02KT 28/24 Q1013=
29-Sep-2023 SAID31 WAOC 290030 METAR WAOC 290030Z AUTO VRB01G01KT 160V320 28/25 Q1013=
29-Sep-2023 SAID31 WAOC 290100 METAR WAOC 290100Z AUTO VRB02G02KT 170V350 29/25 Q1013=
29-Sep-2023 SAID31 WAOC 290130 METAR WAOC 290130Z AUTO VRB03G03KT 120V280 30/24 Q1013=
29-Sep-2023 SAID31 WAOC 290200 METAR WAOC 290200Z AUTO VRB02G02KT 120V220 31/22 Q1013=
29-Sep-2023 SAID31 WAOC 290230 METAR WAOC 290230Z AUTO VRB01G01KT 040V220 32/23 Q1012=
29-Sep-2023 SAID31 WAOC 290300 METAR WAOC 290300Z AUTO VRB03G03KT 100V300 32/23 Q1012=
29-Sep-2023 SAID31 WAOC 290330 METAR WAOC 290330Z AUTO VRB03G03KT 330V150 33/22 Q1012=
29-Sep-2023 SAID31 WAOC 290400 METAR WAOC 290400Z AUTO 10005G05KT 060V130 34/21 Q1011=
29-Sep-2023 SAID31 WAOC 290430 METAR WAOC 290430Z AUTO 10004G04KT 34/20 Q1011=
29-Sep-2023 SAID31 WAOC 290500 METAR WAOC 290500Z AUTO VRB03G03KT 090V170 34/20 Q1010=
29-Sep-2023 SAID31 WAOC 290530 METAR WAOC 290530Z AUTO 11004G04KT 34/20 Q1010=
29-Sep-2023 SAID31 WAOC 290600 METAR WAOC 290600Z AUTO 13005G05KT 040V170 34/20 Q1010=
29-Sep-2023 SAID31 WAOC 290630 METAR WAOC 290630Z AUTO 09004G04KT 070V140 34/19 Q1009=
29-Sep-2023 SAID31 WAOC 290700 METAR WAOC 290700Z AUTO 13004G04KT 060V130 34/19 Q1009=
29-Sep-2023 SAID31 WAOC 290730 METAR WAOC 290730Z AUTO 12005G05KT 090V180 33/19 Q1009=
29-Sep-2023 SAID31 WAOC 290800 METAR WAOC 290800Z AUTO 08004G04KT 080V150 33/19 Q1009=
29-Sep-2023 SAID31 WAOC 290830 METAR WAOC 290830Z AUTO VRB03G03KT 33/19 Q1009=
29-Sep-2023 SAID31 WAOC 290900 METAR WAOC 290900Z AUTO 12005G05KT 32/20 Q1009=
29-Sep-2023 SAID31 WAOC 290930 METAR WAOC 290930Z AUTO 13005G05KT 31/21 Q1010=
29-Sep-2023 SAID31 WAOC 291000 METAR WAOC 291000Z AUTO VRB03G03KT 30/21 Q1010=
29-Sep-2023 SAID31 WAOC 291030 METAR WAOC 291030Z AUTO 12004G04KT 29/23 Q1010=
29-Sep-2023 SAID31 WAOC 291100 METAR WAOC 291100Z AUTO 12004G04KT 100V170 28/24 Q1011=
29-Sep-2023 SAID31 WAOC 291130 METAR WAOC 291130Z AUTO 16004G04KT 28/23 Q1011=
29-Sep-2023 SAID31 WAOC 291200 METAR WAOC 291200Z AUTO VRB02G01KT 120V210 28/24 Q1011=
29-Sep-2023 SAID31 WAOC 291230 METAR WAOC 291230Z AUTO VRB01G01KT 130V230 28/24 Q1012=
29-Sep-2023 SAID31 WAOC 291300 METAR WAOC 291300Z AUTO VRB02G02KT 140V240 27/24 Q1012=
29-Sep-2023 SAID31 WAOC 291330 METAR WAOC 291330Z AUTO VRB01G01KT 27/24 Q1012=
29-Sep-2023 SAID31 WAOC 291400 METAR WAOC 291400Z AUTO VRB02G02KT 26/24 Q1012=
29-Sep-2023 SAID31 WAOC 291430 METAR WAOC 291430Z AUTO VRB02G02KT 25/23 Q1012=
29-Sep-2023 SAID31 WAOC 291500 METAR WAOC 291500Z AUTO VRB02G02KT 25/23 Q1012=
29-Sep-2023 SAID31 WAOC 291530 METAR WAOC 291530Z AUTO VRB01G01KT 220V300 25/24 Q1012=
29-Sep-2023 SAID31 WAOC 291600 METAR WAOC 291600Z AUTO VRB01G01KT 25/24 Q1012=
29-Sep-2023 SAID31 WAOC 291630 METAR WAOC 291630Z AUTO VRB02G02KT 24/23 Q1012=
29-Sep-2023 SAID31 WAOC 291700 METAR WAOC 291700Z AUTO VRB01G01KT 24/23 Q1012=
29-Sep-2023 SAID31 WAOC 291730 METAR WAOC 291730Z AUTO VRB01G01KT 24/23 Q1012=
29-Sep-2023 SAID31 WAOC 291800 METAR WAOC 291800Z AUTO VRB01G01KT 24/23 Q1012=
29-Sep-2023 SAID31 WAOC 291830 METAR WAOC 291830Z AUTO VRB02G02KT 24/23 Q1012=
29-Sep-2023 SAID31 WAOC 291900 METAR WAOC 291900Z AUTO VRB01G02KT 24/23 Q1012=
29-Sep-2023 SAID31 WAOC 291930 METAR WAOC 291930Z AUTO VRB01G01KT 24/23 Q1012=
29-Sep-2023 SAID31 WAOC 292000 METAR WAOC 292000Z AUTO VRB02G02KT 24/23 Q1012=
29-Sep-2023 SAID31 WAOC 292030 METAR WAOC 292030Z AUTO VRB02G02KT 24/23 Q1012=
29-Sep-2023 SAID31 WAOC 292100 METAR WAOC 292100Z AUTO VRB02G02KT 190V300 24/23 Q1012=
29-Sep-2023 SAID31 WAOC 292130 METAR WAOC 292130Z AUTO VRB03G03KT 23/23 Q1012=
29-Sep-2023 SAID31 WAOC 292200 METAR WAOC 292200Z AUTO VRB02G02KT 240V310 24/23 Q1012=
29-Sep-2023 SAID31 WAOC 292230 METAR WAOC 292230Z AUTO VRB02G02KT 23/22 Q1012=
29-Sep-2023 SAID31 WAOC 292300 METAR WAOC 292300Z AUTO VRB03G03KT 24/23 Q1013=
29-Sep-2023 SAID31 WAOC 292330 METAR WAOC 292330Z AUTO VRB02G02KT 25/23 Q1013=
30-Sep-2023 SAID31 WAOC 300000 METAR WAOC 300000Z AUTO VRB03G03KT 240V310 27/24 Q1013=
30-Sep-2023 SAID31 WAOC 300030 METAR WAOC 300030Z AUTO VRB01G01KT 160V000 28/24 Q1013=
30-Sep-2023 SAID31 WAOC 300100 METAR WAOC 300100Z AUTO VRB02G02KT 160V250 29/23 Q1013=
30-Sep-2023 SAID31 WAOC 300130 METAR WAOC 300130Z AUTO 19004G03KT 130V230 29/22 Q1013=
30-Sep-2023 SAID31 WAOC 300200 METAR WAOC 300200Z AUTO 14004G04KT 110V230 30/21 Q1013=
30-Sep-2023 SAID31 WAOC 300230 METAR WAOC 300230Z AUTO VRB03G04KT 30/21 Q1013=
30-Sep-2023 SAID31 WAOC 300300 METAR WAOC 300300Z AUTO VRB03G04KT 080V190 31/22 Q1012=
30-Sep-2023 SAID31 WAOC 300330 METAR WAOC 300330Z AUTO 17004G04KT 120V220 32/21 Q1012=
30-Sep-2023 SAID31 WAOC 300400 METAR WAOC 300400Z AUTO VRB03G03KT 160V270 32/22 Q1011=
30-Sep-2023 SAID31 WAOC 300430 METAR WAOC 300430Z AUTO 21005G05KT 160V260 32/22 Q1011=
30-Sep-2023 SAID31 WAOC 300500 METAR WAOC 300500Z AUTO VRB03G03KT 140V280 32/22 Q1010=
30-Sep-2023 SAID31 WAOC 300530 METAR WAOC 300530Z AUTO 19005G05KT 140V230 32/22 Q1010=
30-Sep-2023 SAID31 WAOC 300600 METAR WAOC 300600Z AUTO 20006G06KT 140V240 32/23 Q1009=
30-Sep-2023 SAID31 WAOC 300630 METAR WAOC 300630Z AUTO VRB01G01KT 130V230 31/23 Q1009=
30-Sep-2023 SAID31 WAOC 300700 METAR WAOC 300700Z AUTO VRB03G03KT 150V260 31/23 Q1009=
30-Sep-2023 SAID31 WAOC 300730 METAR WAOC 300730Z AUTO VRB02G02KT 160V240 32/23 Q1009=
30-Sep-2023 SAID31 WAOC 300800 METAR WAOC 300800Z AUTO VRB02G02KT 140V220 31/22 Q1009=
30-Sep-2023 SAID31 WAOC 300830 METAR WAOC 300830Z AUTO VRB03G03KT 130V240 31/23 Q1009=
30-Sep-2023 SAID31 WAOC 300900 METAR WAOC 300900Z AUTO 23004G04KT 30/23 Q1009=
30-Sep-2023 SAID31 WAOC 300930 METAR WAOC 300930Z AUTO 21004G04KT 180V250 29/24 Q1009=
30-Sep-2023 SAID31 WAOC 301000 METAR WAOC 301000Z AUTO 20004G04KT 28/24 Q1009=
30-Sep-2023 SAID31 WAOC 301030 METAR WAOC 301030Z AUTO VRB03G03KT 160V230 28/24 Q1009=
30-Sep-2023 SAID31 WAOC 301100 METAR WAOC 301100Z AUTO VRB03G03KT 110V200 28/23 Q1009=
30-Sep-2023 SAID31 WAOC 301130 METAR WAOC 301130Z AUTO VRB02G02KT 110V180 28/23 Q1010=
30-Sep-2023 SAID31 WAOC 301200 METAR WAOC 301200Z AUTO VRB03G03KT 110V180 27/23 Q1010=
30-Sep-2023 SAID31 WAOC 301230 METAR WAOC 301230Z AUTO VRB01G01KT 130V210 27/23 Q1010=
30-Sep-2023 SAID31 WAOC 301300 METAR WAOC 301300Z AUTO VRB03G03KT 140V220 27/24 Q1011=
30-Sep-2023 SAID31 WAOC 301330 METAR WAOC 301330Z AUTO VRB01G01KT 130V220 27/23 Q1011=
30-Sep-2023 SAID31 WAOC 301400 METAR WAOC 301400Z AUTO VRB02G01KT 140V230 27/24 Q1011=
30-Sep-2023 SAID31 WAOC 301430 METAR WAOC 301430Z AUTO VRB01G01KT 150V240 27/24 Q1011=
30-Sep-2023 SAID31 WAOC 301500 METAR WAOC 301500Z AUTO VRB01G01KT 180V280 26/24 Q1011=
30-Sep-2023 SAID31 WAOC 301530 METAR WAOC 301530Z AUTO VRB02G02KT 25/23 Q1011=
30-Sep-2023 SAID31 WAOC 301600 METAR WAOC 301600Z AUTO VRB02G02KT 24/23 Q1011=
30-Sep-2023 SAID31 WAOC 301630 METAR WAOC 301630Z AUTO VRB02G02KT 24/23 Q1011=
30-Sep-2023 SAID31 WAOC 301700 METAR WAOC 301700Z AUTO VRB02G02KT 240V310 24/23 Q1011=
30-Sep-2023 SAID31 WAOC 301730 METAR WAOC 301730Z AUTO VRB02G02KT 24/23 Q1011=
30-Sep-2023 SAID31 WAOC 301800 METAR WAOC 301800Z AUTO VRB02G02KT 24/23 Q1011=
30-Sep-2023 SAID31 WAOC 301830 METAR WAOC 301830Z AUTO VRB02G02KT 220V290 24/23 Q1010=
30-Sep-2023 SAID31 WAOC 301900 METAR WAOC 301900Z AUTO VRB01G01KT 24/23 Q1010=
30-Sep-2023 SAID31 WAOC 301930 METAR WAOC 301930Z AUTO VRB02G02KT 24/23 Q1011=
30-Sep-2023 SAID31 WAOC 302000 METAR WAOC 302000Z AUTO VRB02G02KT 24/23 Q1011=
30-Sep-2023 SAID31 WAOC 302030 METAR WAOC 302030Z AUTO VRB02G02KT 24/23 Q1011=
30-Sep-2023 SAID31 WAOC 302100 METAR WAOC 302100Z AUTO VRB01G01KT 24/23 Q1011=
30-Sep-2023 SAID31 WAOC 302130 METAR WAOC 302130Z AUTO VRB02G02KT 23/23 Q1011=
30-Sep-2023 SAID31 WAOC 302200 METAR WAOC 302200Z AUTO VRB02G02KT 23/22 Q1012=
30-Sep-2023 SAID31 WAOC 302230 METAR WAOC 302230Z AUTO VRB02G02KT 24/23 Q1012=
30-Sep-2023 SAID31 WAOC 302300 METAR WAOC 302300Z AUTO VRB03G02KT 25/23 Q1012=
30-Sep-2023 SAID31 WAOC 302330 METAR WAOC 302330Z AUTO VRB03G03KT 26/24 Q1012=
01-Oct-2023 SAID31 WAOC 010030 METAR WAOC 010030Z AUTO VRB01G01KT 180V350 28/24 Q1013=
01-Oct-2023 SAID31 WAOC 010100 METAR WAOC 010100Z AUTO VRB03G03KT 150V250 29/24 Q1013=
01-Oct-2023 SAID31 WAOC 010130 METAR WAOC 010130Z AUTO VRB02G02KT 130V220 30/22 Q1013=
01-Oct-2023 SAID31 WAOC 010200 METAR WAOC 010200Z AUTO 20004G04KT 100V210 31/22 Q1013=
01-Oct-2023 SAID31 WAOC 010230 METAR WAOC 010230Z AUTO 19005G05KT 170V270 31/22 Q1012=
01-Oct-2023 SAID31 WAOC 010300 METAR WAOC 010300Z AUTO VRB03G03KT 160V240 31/22 Q1012=
01-Oct-2023 SAID31 WAOC 010330 METAR WAOC 010330Z AUTO 17005G05KT 090V260 32/22 Q1012=
01-Oct-2023 SAID31 WAOC 010400 METAR WAOC 010400Z AUTO VRB03G03KT 140V240 31/22 Q1011=
01-Oct-2023 SAID31 WAOC 010430 METAR WAOC 010430Z AUTO VRB02G02KT 130V250 32/22 Q1011=
01-Oct-2023 SAID31 WAOC 010500 METAR WAOC 010500Z AUTO 21006G06KT 160V240 32/22 Q1010=
01-Oct-2023 SAID31 WAOC 010530 METAR WAOC 010530Z AUTO VRB02G02KT 130V230 32/21 Q1010=
01-Oct-2023 SAID31 WAOC 010600 METAR WAOC 010600Z AUTO 18005G05KT 130V230 33/20 Q1009=
01-Oct-2023 SAID31 WAOC 010630 METAR WAOC 010630Z AUTO VRB03G04KT 150V240 33/20 Q1009=
01-Oct-2023 SAID31 WAOC 010700 METAR WAOC 010700Z AUTO 20004G04KT 150V220 32/21 Q1009=
01-Oct-2023 SAID31 WAOC 010730 METAR WAOC 010730Z AUTO VRB03G03KT 150V240 32/22 Q1009=
01-Oct-2023 SAID31 WAOC 010800 METAR WAOC 010800Z AUTO VRB03G03KT 160V240 31/20 Q1009=
01-Oct-2023 SAID31 WAOC 010830 METAR WAOC 010830Z AUTO 20004G04KT 31/21 Q1009=
01-Oct-2023 SAID31 WAOC 010900 METAR WAOC 010900Z AUTO VRB02G02KT 160V230 30/21 Q1009=
01-Oct-2023 SAID31 WAOC 010930 METAR WAOC 010930Z AUTO 19005G05KT 30/22 Q1009=
01-Oct-2023 SAID31 WAOC 011000 METAR WAOC 011000Z AUTO VRB03G03KT 110V180 29/18 Q1010=
01-Oct-2023 SAID31 WAOC 011030 METAR WAOC 011030Z AUTO VRB02G02KT 110V180 29/19 Q1010=
01-Oct-2023 SAID31 WAOC 011100 METAR WAOC 011100Z AUTO 14004G04KT 100V180 28/20 Q1010=
01-Oct-2023 SAID31 WAOC 011130 METAR WAOC 011130Z AUTO VRB01G01KT 110V190 28/20 Q1010=
01-Oct-2023 SAID31 WAOC 011200 METAR WAOC 011200Z AUTO 13004G04KT 27/21 Q1011=
01-Oct-2023 SAID31 WAOC 011230 METAR WAOC 011230Z AUTO VRB02G02KT 070V180 27/22 Q1011=
01-Oct-2023 SAID31 WAOC 011300 METAR WAOC 011300Z AUTO VRB02G02KT 090V220 27/23 Q1011=
01-Oct-2023 SAID31 WAOC 011330 METAR WAOC 011330Z AUTO 00000G00KT 120V190 27/23 Q1012=
01-Oct-2023 SAID31 WAOC 011400 METAR WAOC 011400Z AUTO VRB02G02KT 25/22 Q1012=
01-Oct-2023 SAID31 WAOC 011430 METAR WAOC 011430Z AUTO VRB02G02KT 25/22 Q1012=
01-Oct-2023 SAID31 WAOC 011500 METAR WAOC 011500Z AUTO VRB02G02KT 25/22 Q1012=
01-Oct-2023 SAID31 WAOC 011530 METAR WAOC 011530Z AUTO VRB01G01KT 24/22 Q1012=
01-Oct-2023 SAID31 WAOC 011600 METAR WAOC 011600Z AUTO VRB02G02KT 24/22 Q1012=
01-Oct-2023 SAID31 WAOC 011630 METAR WAOC 011630Z AUTO VRB01G01KT 24/22 Q1012=
01-Oct-2023 SAID31 WAOC 011700 METAR WAOC 011700Z AUTO VRB02G02KT 24/22 Q1012=
01-Oct-2023 SAID31 WAOC 011730 METAR WAOC 011730Z AUTO VRB02G02KT 24/22 Q1011=
01-Oct-2023 SAID31 WAOC 011800 METAR WAOC 011800Z AUTO VRB02G02KT 24/22 Q1011=
01-Oct-2023 SAID31 WAOC 011830 METAR WAOC 011830Z AUTO VRB02G02KT 24/22 Q1011=
01-Oct-2023 SAID31 WAOC 011900 METAR WAOC 011900Z AUTO VRB02G02KT 24/22 Q1011=
01-Oct-2023 SAID31 WAOC 011930 METAR WAOC 011930Z AUTO VRB02G02KT 24/22 Q1011=
01-Oct-2023 SAID31 WAOC 012000 METAR WAOC 012000Z AUTO VRB03G03KT 24/22 Q1011=
01-Oct-2023 SAID31 WAOC 012030 METAR WAOC 012030Z AUTO VRB02G02KT 23/22 Q1012=
01-Oct-2023 SAID31 WAOC 012100 METAR WAOC 012100Z AUTO VRB02G02KT 23/22 Q1012=
01-Oct-2023 SAID31 WAOC 012130 METAR WAOC 012130Z AUTO VRB01G01KT 23/22 Q1012=
01-Oct-2023 SAID31 WAOC 012200 METAR WAOC 012200Z AUTO VRB01G01KT 23/21 Q1012=
01-Oct-2023 SAID31 WAOC 012230 METAR WAOC 012230Z AUTO VRB02G02KT 23/21 Q1012=
01-Oct-2023 SAID31 WAOC 012300 METAR WAOC 012300Z AUTO VRB02G02KT 24/22 Q1012=
01-Oct-2023 SAID31 WAOC 012330 METAR WAOC 012330Z AUTO VRB03G03KT 26/23 Q1013=
02-Oct-2023 SAID31 WAOC 021500 METAR WAOC 021500Z AUTO VRB02G02KT 110V210 27/24 Q1013=
02-Oct-2023 SAID31 WAOC 021530 METAR WAOC 021530Z AUTO VRB01G01KT 140V220 27/24 Q1013=
02-Oct-2023 SAID31 WAOC 021600 METAR WAOC 021600Z AUTO 00000G00KT 27/24 Q1013=
02-Oct-2023 SAID31 WAOC 021630 METAR WAOC 021630Z AUTO 00000G00KT 120V330 26/24 Q1013=
02-Oct-2023 SAID31 WAOC 021700 METAR WAOC 021700Z AUTO 00000G00KT 110V220 26/24 Q1012=
02-Oct-2023 SAID31 WAOC 021730 METAR WAOC 021730Z AUTO VRB02G02KT 25/24 Q1012=
02-Oct-2023 SAID31 WAOC 021800 METAR WAOC 021800Z AUTO VRB01G01KT 25/24 Q1012=
02-Oct-2023 SAID31 WAOC 021830 METAR WAOC 021830Z AUTO 00000G00KT 050V160 25/24 Q1012=
02-Oct-2023 SAID31 WAOC 021900 METAR WAOC 021900Z AUTO VRB01G01KT 000V260 26/24 Q1012=
02-Oct-2023 SAID31 WAOC 021930 METAR WAOC 021930Z AUTO VRB01G01KT 25/23 Q1011=
02-Oct-2023 SAID31 WAOC 022000 METAR WAOC 022000Z AUTO VRB01G01KT 24/23 Q1011=
02-Oct-2023 SAID31 WAOC 022030 METAR WAOC 022030Z AUTO VRB02G02KT 200V300 24/23 Q1012=
02-Oct-2023 SAID31 WAOC 022100 METAR WAOC 022100Z AUTO VRB02G02KT 220V300 24/23 Q1012=
02-Oct-2023 SAID31 WAOC 022130 METAR WAOC 022130Z AUTO VRB01G01KT 24/23 Q1012=
02-Oct-2023 SAID31 WAOC 022200 METAR WAOC 022200Z AUTO VRB01G01KT 24/23 Q1012=
02-Oct-2023 SAID31 WAOC 022230 METAR WAOC 022230Z AUTO VRB01G01KT 25/24 Q1012=
02-Oct-2023 SAID31 WAOC 022300 METAR WAOC 022300Z AUTO VRB01G01KT 220V300 25/24 Q1013=
02-Oct-2023 SAID31 WAOC 022330 METAR WAOC 022330Z AUTO VRB02G02KT 26/24 Q1013=
03-Oct-2023 SAID31 WAOC 030000 METAR WAOC 030000Z AUTO VRB02G02KT 26/24 Q1014=
03-Oct-2023 SAID31 WAOC 030030 METAR WAOC 030030Z AUTO VRB02G02KT 27/24 Q1014=
03-Oct-2023 SAID31 WAOC 030100 METAR WAOC 030100Z AUTO VRB01G01KT 110V240 29/24 Q1014=
03-Oct-2023 SAID31 WAOC 030130 METAR WAOC 030130Z AUTO VRB02G02KT 080V240 30/24 Q1014=
03-Oct-2023 SAID31 WAOC 030200 METAR WAOC 030200Z AUTO VRB03G03KT 100V170 30/24 Q1013=
03-Oct-2023 SAID31 WAOC 030230 METAR WAOC 030230Z AUTO VRB03G04KT 090V160 30/22 Q1013=
03-Oct-2023 SAID31 WAOC 030300 METAR WAOC 030300Z AUTO VRB02G02KT 110V220 31/23 Q1013=
03-Oct-2023 SAID31 WAOC 030330 METAR WAOC 030330Z AUTO VRB02G02KT 120V210 30/22 Q1013=
03-Oct-2023 SAID31 WAOC 030400 METAR WAOC 030400Z AUTO VRB03G03KT 100V240 31/23 Q1013=
03-Oct-2023 SAID31 WAOC 030430 METAR WAOC 030430Z AUTO VRB03G03KT 140V220 32/24 Q1012=
03-Oct-2023 SAID31 WAOC 030500 METAR WAOC 030500Z AUTO VRB03G03KT 160V270 31/24 Q1011=
03-Oct-2023 SAID31 WAOC 030530 METAR WAOC 030530Z AUTO VRB03G03KT 110V180 31/24 Q1011=
03-Oct-2023 SAID31 WAOC 030600 METAR WAOC 030600Z AUTO 16006G06KT 110V210 33/24 Q1011=
03-Oct-2023 SAID31 WAOC 030630 METAR WAOC 030630Z AUTO VRB03G03KT 100V190 32/24 Q1010=
03-Oct-2023 SAID31 WAOC 030700 METAR WAOC 030700Z AUTO VRB03G03KT 32/24 Q1010=
03-Oct-2023 SAID31 WAOC 030730 METAR WAOC 030730Z AUTO VRB03G03KT 120V190 31/23 Q1010=
03-Oct-2023 SAID31 WAOC 030800 METAR WAOC 030800Z AUTO VRB03G03KT 31/23 Q1010=
03-Oct-2023 SAID31 WAOC 030830 METAR WAOC 030830Z AUTO VRB02G03KT 31/23 Q1009=
03-Oct-2023 SAID31 WAOC 030900 METAR WAOC 030900Z AUTO 12006G06KT 30/23 Q1010=
03-Oct-2023 SAID31 WAOC 030930 METAR WAOC 030930Z AUTO VRB03G03KT 100V170 30/23 Q1010=
03-Oct-2023 SAID31 WAOC 031000 METAR WAOC 031000Z AUTO 11005G05KT 29/23 Q1010=
03-Oct-2023 SAID31 WAOC 031030 METAR WAOC 031030Z AUTO VRB03G03KT 110V190 29/24 Q1011=
03-Oct-2023 SAID31 WAOC 031100 METAR WAOC 031100Z AUTO VRB03G03KT 28/24 Q1011=
03-Oct-2023 SAID31 WAOC 031130 METAR WAOC 031130Z AUTO VRB02G02KT 28/24 Q1012=
03-Oct-2023 SAID31 WAOC 031200 METAR WAOC 031200Z AUTO VRB02G02KT 120V190 28/24 Q1012=
03-Oct-2023 SAID31 WAOC 031230 METAR WAOC 031230Z AUTO VRB02G02KT 28/24 Q1013=
03-Oct-2023 SAID31 WAOC 031300 METAR WAOC 031300Z AUTO VRB02G02KT 110V190 27/24 Q1013=
03-Oct-2023 SAID31 WAOC 031330 METAR WAOC 031330Z AUTO VRB01G01KT 120V220 27/24 Q1013=
03-Oct-2023 SAID31 WAOC 031400 METAR WAOC 031400Z AUTO VRB01G01KT 27/25 Q1013=
03-Oct-2023 SAID31 WAOC 031430 METAR WAOC 031430Z AUTO VRB02G02KT 110V190 27/25 Q1013=
03-Oct-2023 SAID31 WAOC 031500 METAR WAOC 031500Z AUTO 00000G00KT 27/25 Q1013=
03-Oct-2023 SAID31 WAOC 031530 METAR WAOC 031530Z AUTO VRB02G02KT 230V300 26/25 Q1013=
03-Oct-2023 SAID31 WAOC 031600 METAR WAOC 031600Z AUTO VRB02G02KT 25/24 Q1013=
03-Oct-2023 SAID31 WAOC 031630 METAR WAOC 031630Z AUTO VRB02G02KT 25/24 Q1012=
03-Oct-2023 SAID31 WAOC 031700 METAR WAOC 031700Z AUTO VRB02G02KT 25/24 Q1012=
03-Oct-2023 SAID31 WAOC 031730 METAR WAOC 031730Z AUTO VRB02G02KT 25/24 Q1012=
03-Oct-2023 SAID31 WAOC 031800 METAR WAOC 031800Z AUTO VRB01G01KT 230V310 25/24 Q1012=
03-Oct-2023 SAID31 WAOC 031830 METAR WAOC 031830Z AUTO VRB01G01KT 25/24 Q1012=
03-Oct-2023 SAID31 WAOC 031900 METAR WAOC 031900Z AUTO VRB01G01KT 220V290 25/24 Q1011=
03-Oct-2023 SAID31 WAOC 031930 METAR WAOC 031930Z AUTO VRB01G01KT 25/24 Q1011=
03-Oct-2023 SAID31 WAOC 032000 METAR WAOC 032000Z AUTO 00000G00KT 180V280 25/24 Q1011=
03-Oct-2023 SAID31 WAOC 032030 METAR WAOC 032030Z AUTO VRB01G01KT 25/24 Q1012=
03-Oct-2023 SAID31 WAOC 032100 METAR WAOC 032100Z AUTO VRB01G01KT 220V310 24/24 Q1012=
03-Oct-2023 SAID31 WAOC 032130 METAR WAOC 032130Z AUTO VRB01G01KT 24/24 Q1012=
03-Oct-2023 SAID31 WAOC 032200 METAR WAOC 032200Z AUTO VRB02G02KT 24/24 Q1012=
03-Oct-2023 SAID31 WAOC 032230 METAR WAOC 032230Z AUTO VRB02G02KT 25/24 Q1013=
03-Oct-2023 SAID31 WAOC 032300 METAR WAOC 032300Z AUTO VRB02G02KT 25/25 Q1013=
03-Oct-2023 SAID31 WAOC 032330 METAR WAOC 032330Z AUTO VRB02G02KT 27/25 Q1013=
04-Oct-2023 SAID31 WAOC 040000 METAR WAOC 040000Z AUTO VRB02G01KT 190V060 28/25 Q1014=
04-Oct-2023 SAID31 WAOC 040030 METAR WAOC 040030Z AUTO VRB02G02KT 090V000 29/25 Q1014=
04-Oct-2023 SAID31 WAOC 040100 METAR WAOC 040100Z AUTO VRB03G03KT 070V200 30/24 Q1014=
04-Oct-2023 SAID31 WAOC 040130 METAR WAOC 040130Z AUTO VRB02G02KT 110V180 30/25 Q1014=
04-Oct-2023 SAID31 WAOC 040200 METAR WAOC 040200Z AUTO VRB01G01KT 090V210 31/24 Q1013=
04-Oct-2023 SAID31 WAOC 040230 METAR WAOC 040230Z AUTO VRB01G01KT 31/24 Q1013=
04-Oct-2023 SAID31 WAOC 040300 METAR WAOC 040300Z AUTO VRB03G04KT 050V240 32/23 Q1013=
04-Oct-2023 SAID31 WAOC 040330 METAR WAOC 040330Z AUTO VRB02G02KT 090V180 32/22 Q1012=
04-Oct-2023 SAID31 WAOC 040400 METAR WAOC 040400Z AUTO VRB01G01KT 290V150 32/23 Q1012=
04-Oct-2023 SAID31 WAOC 040430 METAR WAOC 040430Z AUTO VRB02G02KT 290V140 33/23 Q1011=
04-Oct-2023 SAID31 WAOC 040500 METAR WAOC 040500Z AUTO VRB03G03KT 33/24 Q1010=
04-Oct-2023 SAID31 WAOC 040530 METAR WAOC 040530Z AUTO 15006G06KT 130V210 33/25 Q1010=
04-Oct-2023 SAID31 WAOC 040600 METAR WAOC 040600Z AUTO 16005G05KT 120V200 32/25 Q1010=
04-Oct-2023 SAID31 WAOC 040630 METAR WAOC 040630Z AUTO 17006G06KT 120V210 32/25 Q1010=
04-Oct-2023 SAID31 WAOC 040700 METAR WAOC 040700Z AUTO VRB03G03KT 110V220 32/25 Q1009=
04-Oct-2023 SAID31 WAOC 040730 METAR WAOC 040730Z AUTO VRB02G02KT 100V200 31/25 Q1009=
04-Oct-2023 SAID31 WAOC 040800 METAR WAOC 040800Z AUTO VRB03G03KT 110V220 31/25 Q1009=
04-Oct-2023 SAID31 WAOC 040830 METAR WAOC 040830Z AUTO 14005G05KT 31/25 Q1009=
04-Oct-2023 SAID31 WAOC 040900 METAR WAOC 040900Z AUTO VRB01G01KT 060V300 31/25 Q1009=
04-Oct-2023 SAID31 WAOC 040930 METAR WAOC 040930Z AUTO VRB02G02KT 31/24 Q1009=
04-Oct-2023 SAID31 WAOC 041000 METAR WAOC 041000Z AUTO VRB03G03KT 30/23 Q1009=
04-Oct-2023 SAID31 WAOC 041030 METAR WAOC 041030Z AUTO VRB03G03KT 29/24 Q1010=
04-Oct-2023 SAID31 WAOC 041100 METAR WAOC 041100Z AUTO 14004G04KT 29/25 Q1010=
04-Oct-2023 SAID31 WAOC 041130 METAR WAOC 041130Z AUTO VRB03G03KT 100V170 28/25 Q1011=
04-Oct-2023 SAID31 WAOC 041200 METAR WAOC 041200Z AUTO VRB03G03KT 110V190 28/25 Q1011=
04-Oct-2023 SAID31 WAOC 041230 METAR WAOC 041230Z AUTO VRB01G01KT 110V180 28/25 Q1011=
04-Oct-2023 SAID31 WAOC 041300 METAR WAOC 041300Z AUTO VRB01G01KT 110V230 28/25 Q1011=
04-Oct-2023 SAID31 WAOC 041330 METAR WAOC 041330Z AUTO VRB01G01KT 130V220 28/25 Q1012=
04-Oct-2023 SAID31 WAOC 041400 METAR WAOC 041400Z AUTO VRB02G02KT 110V210 28/25 Q1012=
04-Oct-2023 SAID31 WAOC 041430 METAR WAOC 041430Z AUTO VRB02G02KT 110V220 28/25 Q1012=
04-Oct-2023 SAID31 WAOC 041500 METAR WAOC 041500Z AUTO VRB01G01KT 130V210 28/25 Q1012=
04-Oct-2023 SAID31 WAOC 041530 METAR WAOC 041530Z AUTO VRB01G01KT 27/25 Q1012=
04-Oct-2023 SAID31 WAOC 041600 METAR WAOC 041600Z AUTO VRB01G01KT 26/25 Q1012=
04-Oct-2023 SAID31 WAOC 041630 METAR WAOC 041630Z AUTO VRB01G01KT 26/25 Q1011=
04-Oct-2023 SAID31 WAOC 041700 METAR WAOC 041700Z AUTO VRB01G01KT 26/25 Q1011=
04-Oct-2023 SAID31 WAOC 041730 METAR WAOC 041730Z AUTO VRB01G01KT 26/25 Q1011=
04-Oct-2023 SAID31 WAOC 041800 METAR WAOC 041800Z AUTO VRB01G01KT 26/25 Q1011=
04-Oct-2023 SAID31 WAOC 041830 METAR WAOC 041830Z AUTO VRB01G01KT 25/24 Q1011=
04-Oct-2023 SAID31 WAOC 041900 METAR WAOC 041900Z AUTO VRB01G01KT 25/24 Q1011=
04-Oct-2023 SAID31 WAOC 041930 METAR WAOC 041930Z AUTO VRB01G01KT 25/24 Q1011=
04-Oct-2023 SAID31 WAOC 042000 METAR WAOC 042000Z AUTO VRB01G01KT 130V270 25/24 Q1011=
04-Oct-2023 SAID31 WAOC 042030 METAR WAOC 042030Z AUTO VRB01G01KT 25/24 Q1011=
04-Oct-2023 SAID31 WAOC 042100 METAR WAOC 042100Z AUTO VRB01G01KT 24/24 Q1011=
04-Oct-2023 SAID31 WAOC 042130 METAR WAOC 042130Z AUTO VRB01G01KT 24/23 Q1011=
04-Oct-2023 SAID31 WAOC 042200 METAR WAOC 042200Z AUTO VRB02G02KT 24/23 Q1012=
04-Oct-2023 SAID31 WAOC 042230 METAR WAOC 042230Z AUTO VRB02G02KT 24/24 Q1012=
04-Oct-2023 SAID31 WAOC 042300 METAR WAOC 042300Z AUTO VRB02G02KT 26/25 Q1012=
04-Oct-2023 SAID31 WAOC 042330 METAR WAOC 042330Z AUTO VRB02G02KT 27/25 Q1013=
05-Oct-2023 SAID31 WAOC 050000 METAR WAOC 050000Z AUTO VRB01G01KT 28/25 Q1013=
05-Oct-2023 SAID31 WAOC 050030 METAR WAOC 050030Z AUTO VRB01G01KT 180V320 29/25 Q1013=
05-Oct-2023 SAID31 WAOC 050100 METAR WAOC 050100Z AUTO 17004G04KT 110V220 30/25 Q1013=
05-Oct-2023 SAID31 WAOC 050130 METAR WAOC 050130Z AUTO VRB02G02KT 070V190 31/25 Q1013=
05-Oct-2023 SAID31 WAOC 050200 METAR WAOC 050200Z AUTO VRB01G01KT 350V180 31/24 Q1013=
05-Oct-2023 SAID31 WAOC 050230 METAR WAOC 050230Z AUTO VRB01G01KT 100V200 32/24 Q1012=
05-Oct-2023 SAID31 WAOC 050300 METAR WAOC 050300Z AUTO VRB02G02KT 110V240 32/24 Q1012=
05-Oct-2023 SAID31 WAOC 050330 METAR WAOC 050330Z AUTO VRB02G02KT 300V070 33/23 Q1011=
05-Oct-2023 SAID31 WAOC 050400 METAR WAOC 050400Z AUTO VRB01G01KT 010V100 33/23 Q1011=
05-Oct-2023 SAID31 WAOC 050430 METAR WAOC 050430Z AUTO VRB02G02KT 070V170 34/22 Q1010=
05-Oct-2023 SAID31 WAOC 050500 METAR WAOC 050500Z AUTO VRB03G03KT 020V130 35/21 Q1009=
05-Oct-2023 SAID31 WAOC 050530 METAR WAOC 050530Z AUTO VRB02G02KT 100V190 33/23 Q1009=
05-Oct-2023 SAID31 WAOC 050600 METAR WAOC 050600Z AUTO 14004G04KT 100V220 34/24 Q1008=
05-Oct-2023 SAID31 WAOC 050630 METAR WAOC 050630Z AUTO 16005G05KT 120V190 33/24 Q1008=
05-Oct-2023 SAID31 WAOC 050700 METAR WAOC 050700Z AUTO 15006G06KT 110V210 33/24 Q1008=
05-Oct-2023 SAID31 WAOC 050730 METAR WAOC 050730Z AUTO VRB03G03KT 110V230 33/23 Q1008=
05-Oct-2023 SAID31 WAOC 050800 METAR WAOC 050800Z AUTO VRB03G03KT 120V200 33/24 Q1008=
05-Oct-2023 SAID31 WAOC 050830 METAR WAOC 050830Z AUTO 14004G04KT 120V220 32/25 Q1008=
05-Oct-2023 SAID31 WAOC 050900 METAR WAOC 050900Z AUTO 12004G04KT 100V170 31/24 Q1008=
05-Oct-2023 SAID31 WAOC 050930 METAR WAOC 050930Z AUTO VRB02G02KT 31/24 Q1008=
05-Oct-2023 SAID31 WAOC 051000 METAR WAOC 051000Z AUTO 13004G04KT 30/25 Q1008=
05-Oct-2023 SAID31 WAOC 051030 METAR WAOC 051030Z AUTO VRB03G03KT 29/25 Q1008=
05-Oct-2023 SAID31 WAOC 051100 METAR WAOC 051100Z AUTO VRB03G03KT 29/25 Q1009=
05-Oct-2023 SAID31 WAOC 051130 METAR WAOC 051130Z AUTO VRB02G02KT 29/25 Q1009=
05-Oct-2023 SAID31 WAOC 051200 METAR WAOC 051200Z AUTO VRB03G03KT 28/25 Q1010=
