03-Feb-2010 SAID?? WAPI 030300 METAR WAPI 030300Z 29012KT 9999 SCT 018 32/26 Q1011NSC=  
23-Feb-2010 SAID?? WAPI 230000 METAR WAPI 230000Z 00000KT 9999 FEW018 27/25 Q1014 NSC=  
28-Feb-2010 SAID?? WAPI 282300 METAR WAPI 282300Z 30003KT 9999 SCT018 28/26 Q1011=  
01-Mar-2010 SAID?? WAPI 010000 METAR WAPI 010000Z 28008KT 9999 SCT018 30/26 Q1011=  
01-Mar-2010 SAID?? WAPI 010100 METAR WAPI 010100Z 29006KT 9999 SCT018 37/26 Q1011=  
01-Mar-2010 SAID?? WAPI 010300 METAR WAPI 010300Z 26012KT 9999 BKN018 32/26 Q 1011=  
01-Mar-2010 SAID?? WAPI 010400 METAR WAPI 010400Z 28011KT 9999 FEW018 33/26 Q1011NSC=  
01-Mar-2010 SAID?? WAPI 010500 METAR WAPI 010500Z 25010KT 9999 BKN018 32/26 Q1011 NSC=  
01-Mar-2010 SAID?? WAPI 012300 METAR WAPI 012300Z 27006 KT 9999 BKN 018 29/26 Q 1010 NSC=  
02-Mar-2010 SAID?? WAPI 020100 METAR WAPI 020100Z 30012KT 9999 SCT 018 31/26 Q1011=  
02-Mar-2010 SAID?? WAPI 020100 METAR WAPI 020100Z 30012KT 9999 018 31/26 Q 1011 NSC=  
02-Mar-2010 SAID?? WAPI 020200 METAR WAPI 020200Z 30010KT 9999 SCT 018 32/26 Q1011 NSC=  
02-Mar-2010 SAID?? WAPI 020400 METAR WAPI 020400Z 29014KT 9999 SCT 32/26 Q1011 NSC=  
02-Mar-2010 SAID?? WAPI 020500 METAR WAPI 020500Z 29015KT 9999 BKN 018 33/25 Q1010 NSC=  
04-Mar-2010 SAID?? WAPI 040000 METAR WAPI 040000Z 30006KT 9999 OVC014 26/25 Q1012 NSC=  
04-Mar-2010 SAID?? WAPI 040100 METAR WAPI 040100Z 28007KT 9999 BKN015 27/26 Q1012 NSC=  
04-Mar-2010 SAID?? WAPI 040200 METAR WAPI 040200Z 28008KT 9999 SCT014 29/25 Q1011 NSC=  
04-Mar-2010 SAID?? WAPI 040300 METAR WAPI 040300Z 27008KT 9999 BKN015 30/26 Q1011 NSC=  
04-Mar-2010 SAID?? WAPI 080400 METAR WAPI 040400Z 15003KT 9999 SCT016 32/26 Q1012 NSC=  
04-Mar-2010 SAID?? WAPI 050600 METAR WAPI 040500Z 29008 KT 9999 BKN 015 29/26 Q1010 NSC=  
04-Mar-2010 SAID?? WAPI 040500 METAR WAPI 040500Z 26010KT 9999 OVC015 31/26 Q1011 NSC=  
04-Mar-2010 SAID?? WAPI 042300 METAR WAPI 042300Z 00000KT 9999 BKN018 26/25 Q1012 NSC=  
05-Mar-2010 SAID?? WAPI 050000 METAR WAPI 050000Z 00000KT 9999 SCT018 28/26 Q1013 NSC=  
05-Mar-2010 SAID?? WAPI 050100 METAR WAPI 050100Z 25002KT 9999 BKN018 30/26 Q1012 NSC=  
05-Mar-2010 SAID?? WAPI 050200 METAR WAPI 050200Z 27005KT 9999 BKN018 31/26 Q1012 NSC=  
05-Mar-2010 SAID?? WAPI 050300 METAR WAPI 050300Z 29006KT 9999 BKN018 32/27 Q1012 NSC=  
05-Mar-2010 SAID?? WAPI 050400 METAR WAPI 050400Z 26005KT 9999 BKN016 32/26 Q1011 NSC=  
05-Mar-2010 SAID?? WAPI 050500 METAR WAPI 050500Z 25007KT 9999 BKN018 33/26 Q1011 NSC=  
05-Mar-2010 SAID?? WAPI 050600 METAR WAPI 050600Z 27008KT 9999 SCT015 32/24 Q1011 NSC=  
07-Mar-2010 SAID?? WAPI 072300 METAR WAPI 072300Z 00000KT 9999 BKN017 26/25 Q1012 NSC=  
08-Mar-2010 SAID?? WAPI 080000 METAR WAPI 080000Z 00000KT 9999 BKN017 28/26 Q1013 NSC=  
08-Mar-2010 SAID?? WAPI 080100 METAR WAPI 080100Z 18002KT 9999 SCT016 30/27 Q1012 NSC=  
08-Mar-2010 SAID?? WAPI 080200 METAR WAPI 080200Z 00000KT 9999 SCT016 31/26 Q1012 NSC=  
08-Mar-2010 SAID?? WAPI 080300 METAR WAPI 080300Z 18004KT 9999 SCT018 31/26 Q1012 NSC=  
08-Mar-2010 SAID?? WAPI 080600 METAR WAPI 080600Z 28005KT 9999 BKN014 32/25 Q1012 NSC=  
08-Mar-2010 SAID?? WAPI 082300 METAR WAPI 082300Z 00000KT 9999 FEW018 26/24 Q1013 NSC=  
09-Mar-2010 SAID?? WAPI 090000 METAR WAPI 090000Z 05003 9999 SCT018 28/25 Q1012 NSC=  
09-Mar-2010 SAID?? WAPI 090000 METAR WAPI 090000Z 00000KT 9999 FEW018 28/26 Q1013 NSC=  
09-Mar-2010 SAID?? WAPI 090100 METAR WAPI 090100Z 26005KT 9999 FEW018 30/26 Q1013 NSC=  
09-Mar-2010 SAID?? WAPI 090200 METAR WAPI 090200Z 27004KT 9999 FEW018 31/26 Q1013 NSC=  
09-Mar-2010 SAID?? WAPI 090300 METAR WAPI 090300Z 34006KT 9999 SCT018 32/26 Q1013 NSC 0000008800 915 SAID35 WAPI 090300 METAR WAPI 090300Z 34006KT 9999 SCT018 32/26 Q1013 NSC 0000008700 916 SPAU32 YBBN 090302 SPECI YMHB 090300Z 32026G38KT CAVOK 19/04 Q0999=  
09-Mar-2010 SAID?? WAPI 090400 METAR WAPI 090400Z 29005KT 9999 SCT018 32/26 Q1012 NSC=  
09-Mar-2010 SAID?? WAPI 090500 METAR WAPI 090500Z 21003KT 9999 FEW018 33/25 Q1012 NSC=  
09-Mar-2010 SAID?? WAPI 090600 METAR WAPI 090600Z 15004KT 9999 FEW018 32/25 Q1012 NSC=  
10-Mar-2010 SAID?? WAPI 100000 METAR WAPI 100000Z 32002KT 9999 SCT018 29/26 Q1014 NSC=  
10-Mar-2010 SAID?? WAPI 100100 METAR WAPI 100100Z 32004KT 9999 SCT018 30/26 Q1014 NSC=  
10-Mar-2010 SAID?? WAPI 100200 METAR WAPI 100200Z 24005KT 9999 SCT018 30/25 Q1014 NSC=  
10-Mar-2010 SAID?? WAPI 100300 METAR WAPI 100300Z 13005KT 9999 SCT018 32/25 Q1013NSC=  
10-Mar-2010 SAID?? WAPI 100400 METAR WAPI 100400Z 16006KT 9999 SCT018 33/25 Q1013 NSC=  
10-Mar-2010 SAID?? WAPI 100500 METAR WAPI 100500Z 26005KT 9999 SCT018 32/26 Q1013 NSC=  
10-Mar-2010 SAID?? WAPI 100600 METAR WAPI 100600Z 20005KT 9999 FEW018 32/25 Q1013 NSC=  
11-Mar-2010 SAID?? WAPI 110000 METAR WAPI 110000Z 25002KT 9999 FEW018 29/26 Q1014 NSC=  
11-Mar-2010 SAID?? WAPI 110100 METAR WAPI 110100Z 20005KT 9999 SCT018 30/26 Q1014 NSC=  
11-Mar-2010 SAID?? WAPI 110200 METAR WAPI 110200Z 20005KT 9999 SCT018 31/26 Q1014 NSC=  
11-Mar-2010 SAID?? WAPI 110300 METAR WAPI 110300Z 19005KT 9999 SCT018 32/25 Q1013=  
11-Mar-2010 SAID?? WAPI 110300 METAR WAPI 110300Z 19005KT 9999 SCT010 32/25 Q1013 NSC=  
11-Mar-2010 SAID?? WAPI 110400 METAR WAPI 110400Z 12006KT 9999 SCT018 32/25 Q1013=  
11-Mar-2010 SAID?? WAPI 110400 METAR WAPI 110400Z 12006KT 9999 SCT010 32/25 Q1013 NSC=  
11-Mar-2010 SAID?? WAPI 110500 METAR WAPI 110500Z 16007KT 9999 SCT018 32/25 Q1013 NSC=  
11-Mar-2010 SAID?? WAPI 112300 METAR WAPI 112300Z 25003 9999 BKN017 28/26 Q1014 NSC=  
12-Mar-2010 SAID?? WAPI 120000 METAR WAPI 120000Z 17003 9999 SCT017 30/25 Q1015 NSC=  
12-Mar-2010 SAID?? WAPI 120100 METAR WAPI 120100Z 20003KT 9999 SCT017 31/25 Q1015 NSC=  
12-Mar-2010 SAID?? WAPI 120200 METAR WAPI 120200Z 20004KT 9999 FEW018 32/26 Q1015 NSC=  
12-Mar-2010 SAID?? WAPI 120300 METAR WAPI 120300Z 18005KT 9999 SCT018 32/26 Q1014 NSC=  
12-Mar-2010 SAID?? WAPI 120400 METAR WAPI 120400Z 16007KT 9999 BKN018 32/25 Q1013 NSC=  
12-Mar-2010 SAID?? WAPI 120500 METAR WAPI 120500Z 19005KT 9999 BKN018 31/25 Q1013 NSC=  
12-Mar-2010 SAID?? WAPI 120600 METAR WAPI 120600Z 18005KT 9999 BKN018 30/24 Q1013 NSC=  
12-Mar-2010 SAID?? WAPI 122300 METAR WAPI 122300Z 00000KT 9999 SCT018 27/25 Q1013 NSC=  
13-Mar-2010 SAID?? WAPI 130000 METAR WAPI 130000Z 28003KT 9999 SCT018 29/26 Q1014 NSC=  
13-Mar-2010 SAID?? WAPI 130100 METAR WAPI 130100Z 17003KT 9999 SCT018 30/25 Q1013 NSC=  
13-Mar-2010 SAID?? WAPI 130200 METAR WAPI 130200Z 25005KT 9999 BKN018 32/25 Q1013 NSC=  
13-Mar-2010 SAID?? WAPI 130300 METAR WAPI 130300Z 26005KT 9999 BKN018 32/25 Q1013 NSC=  
13-Mar-2010 SAID?? WAPI 130400 METAR WAPI 130400Z 28004KT 9999 BKN018 32/25 Q1013 NSC=  
13-Mar-2010 SAID?? WAPI 130500 METAR WAPI 130500Z 15004KT 9999 SCT018 32/24 Q1012 NSC=  
13-Mar-2010 SAID?? WAPI 130600 METAR WAPI 130600Z 14005KT 9999 SCT 32/24 Q1012 NSC=  
14-Mar-2010 SAID?? WAPI 142300 METAR WAPI 142300Z 00000KT 9999 SCT017 27/25 Q1011 NSC=  
15-Mar-2010 SAID?? WAPI 150000 METAR WAPI 150000Z 00000KT 9999 SCT017 28/26 Q1011 NSC=  
15-Mar-2010 SAID?? WAPI 150100 METAR WAPI 150100Z 15003KT 9999 BKN017 30/26 Q1011 NOSIG=  
15-Mar-2010 SAID?? WAPI 150200 METAR WAPI 150200Z 34003KT 9999 BKN018 30/26 Q1011 NSC=  
15-Mar-2010 SAID?? WAPI 150300 METAR WAPI 150300Z 11004KT 9999 BKN018 31/26 Q1011 NSC=  
15-Mar-2010 SAID?? WAPI 150600 METAR WAPI 150600Z 18003KT 9999 BKN010 30/26 Q1011 NSC=  
15-Mar-2010 SAID?? WAPI 152300 METAR WAPI 152300Z 00000KT 9999 SCT017 27/25 Q1011 NSC=  
16-Mar-2010 SAID?? WAPI 160000 METAR WAPI 160000Z 12004KT 9999 SCT017 30/24 Q1011 NSC=  
16-Mar-2010 SAID?? WAPI 160100 METAR WAPI 160100Z 12006KT 9999 SCT017 32/26 Q1011 NSC=  
16-Mar-2010 SAID?? WAPI 160200 METAR WAPI 160200Z 10006KT 9999 BKN018 32/26 Q1011 NSC=  
16-Mar-2010 SAID?? WAPI 160300 METAR WAPI 160300Z 11007KT 9999 BKN018 32/25 Q1010 NSC=  
16-Mar-2010 SAID?? WAPI 160400 METAR WAPI 160400Z 09006KT 9999 SET018 32/26 Q 1010 NSC=  
16-Mar-2010 SAID?? WAPI 160500 METAR WAPI 160500Z 10008KT 9999 SCT018 33/25 Q1010 NSC=  
16-Mar-2010 SAID?? WAPI 160600 METAR WAPI 160600Z 09006KT 9999 SCT018 33/25 Q1010 NSC=  
16-Mar-2010 SAID?? WAPI 162300 METAR WAPI 162300Z 00000KT 9999 FEW018 27/25 Q1011 NSC=  
17-Mar-2010 SAID?? WAPI 170000 METAR WAPI 170000Z 25002KT 9999 SCT018 30/26 Q1012 NSC=  
17-Mar-2010 SAID?? WAPI 170200 METAR WAPI 170100Z 17003KT 9999 SCT018 31/26 Q1012 NSC=  
17-Mar-2010 SAID?? WAPI 170200 METAR WAPI 170200Z 07005KT 9999 SCT018 32/26 Q1012 NSC=  
17-Mar-2010 SAID?? WAPI 170300 METAR WAPI 170300Z 10006KT 9999 SCT018 33/26 Q1012 NSC=  
17-Mar-2010 SAID?? WAPI 170400 METAR WAPI 170400Z 09008KT 9999 BKN018 33/26 Q1012 NSC=  
17-Mar-2010 SAID?? WAPI 170500 METAR WAPI 170500Z 11006KT 9999 BKN018 33/25 Q1011 NSC=  
17-Mar-2010 SAID?? WAPI 170600 METAR WAPI 170600Z 07008KT 9999 FEW018 33/24 Q1010 NSC=  
17-Mar-2010 SAID?? WAPI 172300 METAR WAPI 172300Z 00000KT 9999 FEW018 27/25 Q1012NSC=  
18-Mar-2010 SAID?? WAPI 180000 METAR WAPI 180000Z 28002KT 9999 FEW018 30/26 Q1013NSC=  
18-Mar-2010 SAID?? WAPI 180000 METAR WAPI 180000Z 25002KT 9999 FEW018 29/26 Q1012NSC=  
18-Mar-2010 SAID?? WAPI 180200 METAR WAPI 180200Z 28004KT 9999 SCT018 31/26 Q1012NSC=  
18-Mar-2010 SAID?? WAPI 180400 METAR WAPI 180400Z 25004KT 9999 SCT018 32/25 Q1012NSC=  
18-Mar-2010 SAID?? WAPI 180600 METAR WAPI 180600Z 10005KT 9999 BKN010 28/25 Q1011NSC=  
18-Mar-2010 SAID?? WAPI 182300 METAR WAPI 182300Z 00000KT 9999 BKN018 27/26 Q1011 NSC=  
19-Mar-2010 SAID?? WAPI 190000 METAR WAPI 190000Z 00000KT 9999 SCT018 30/24 Q1010 NSC=  
19-Mar-2010 SAID?? WAPI 190600 METAR WAPI 190600Z 10006KT 9999 BKN018 32/25 NSC=  
19-Mar-2010 SAID?? WAPI 192300 METAR WAPI 192300Z 00000KT 9999 BKN018 28/24 Q1010 NSC=  
20-Mar-2010 SAID?? WAPI 200100 METAR WAPI 200100Z 11004KT 9999 BKN018 31/24 Q1010 NSC=  
20-Mar-2010 SAID?? WAPI 200200 METAR WAPI 200200Z 08004KT 9999 BKN018 32/24 Q1010 NSC=  
20-Mar-2010 SAID?? WAPI 200300 METAR WAPI 200300Z 10006KT 9999 BKN018 32/24 Q1010 NSC=  
20-Mar-2010 SAID?? WAPI 200400 METAR WAPI 200400Z 13006KT 9999 BKN018 33/23 Q1009 NSC=  
20-Mar-2010 SAID?? WAPI 200500 METAR WAPI 200500Z 11004KT 9999 BKN018 33/24 Q1009 NSC=  
20-Mar-2010 SAID?? WAPI 200600 METAR WAPI 200600Z 10005KT 9999 BKN018 33/25 Q1009 NSC=  
20-Mar-2010 SAID?? WAPI 202300 METAR WAPI 202300Z 00000KT 9999 BKN017 26/25 Q1010 NSC=  
21-Mar-2010 SAID?? WAPI 210000 METAR WAPI 210000Z 00000KT 9999 BKN017 28/26 Q1010 NSC=  
21-Mar-2010 SAID?? WAPI 210100 METAR WAPI 210100Z 00000KT 9999 BKN017 30/25 Q1010 NSC=  
21-Mar-2010 SAID?? WAPI 210200 METAR WAPI 210200Z 10005KT 9999 BKN017 31/26 Q1010 NSC=  
21-Mar-2010 SAID?? WAPI 210300 METAR WAPI 210300Z 11005KT 9999 SCT018 33/25 Q1009 NSC=  
21-Mar-2010 SAID?? WAPI 210400 METAR WAPI 210400Z 08006KT 9999 SCT018 33/25 Q1009 NSC=  
21-Mar-2010 SAID?? WAPI 210500 METAR WAPI 210500Z 07007KT 9999 FEW018 32/25 Q1009 NSC=  
21-Mar-2010 SAID?? WAPI 210600 METAR WAPI 210600Z 10005KT 9999 FEW018 32/24 Q1009 NSC=  
22-Mar-2010 SAID?? WAPI 220100 METAR WAPI 220100Z 15008 KT 9999 BKN018 31/25 Q1009NSC=  
22-Mar-2010 SAID?? WAPI 220200 METAR WAPI 220200Z 18005KT 9999 SCT018 32/25 Q1009NSC=  
22-Mar-2010 SAID?? WAPI 220300 METAR WAPI 220300Z 10006KT 9999 SCT018 33/26 Q1009NSC=  
22-Mar-2010 SAID?? WAPI 220600 METAR WAPI 220600Z 10004 9999 SCT018 33/25 Q1008NSC=  
22-Mar-2010 SAID?? WAPI 222300 METAR WAPI 222300Z 00000KT 9999 BKN017 26/25 Q1009 NSC=  
23-Mar-2010 SAID?? WAPI 230500 METAR WAPI 230300Z 11007 9999 BKN018 33/24 Q1008 NSC=  
23-Mar-2010 SAID?? WAPI 230500 METAR WAPI 230500Z 11007 9999 BKN018 33/24 Q1008 NSC=  
23-Mar-2010 SAID?? WAPI 230600 METAR WAPI 230600Z 10007KT 9999 BKN018 33/25 Q1008 NSC=  
23-Mar-2010 SAID?? WAPI 232300 METAR WAPI 232300Z 07002 9999 BKN018 28/25 Q1009 NSC=  
24-Mar-2010 SAID?? WAPI 240000 METAR WAPI 240000Z 08003 9999 BKN018 31/25 Q1009 NCS=  
24-Mar-2010 SAID?? WAPI 240100 METAR WAPI 240100Z 09004KT 9999 SCT018 32/25 Q1009 NSC=  
24-Mar-2010 SAID?? WAPI 240100 METAR WAPI 240100Z 10005 9999 BKN018 31/25 Q1009 NSC=  
24-Mar-2010 SAID?? WAPI 240300 METAR WAPI 240300Z 11004KT 9999 BKN018 32/24 NSC=  
24-Mar-2010 SAID?? WAPI 240500 METAR WAPI 240500Z 08005KT 9999 BKN018 32/24 Q1008 NSC=  
24-Mar-2010 SAID?? WAPI 240600 METAR WAPI 240600Z 10006KT 9999 BKN018 32/25 Q1008 NSC=  
24-Mar-2010 SAID?? WAPI 242300 METAR WAPI 242300Z 10005KT 8000 RA BKN010 26/25 Q1009=  
25-Mar-2010 SAID?? WAPI 250000 METAR WAPI 250000Z 00000KT 9000 RA BKN015 26/25 Q1009=  
25-Mar-2010 SAID?? WAPI 250100 METAR WAPI 250100Z 11003KT 8000 RA BKN014 28/26 Q1010=  
25-Mar-2010 SAID?? WAPI 250200 METAR WAPI 250200Z 10003KT 10000 RA BKN014 27/26 Q1009=  
25-Mar-2010 SAID?? WAPI 250300 METAR WAPI 250300Z 07003KT 6000 RA BKN014 27/25 Q1009=  
25-Mar-2010 SAID?? WAPI 250400 METAR WAPI 250400Z 09004KT 10000 RA BKN014 27/26 Q1009=  
25-Mar-2010 SAID?? WAPI 250500 METAR WAPI 250500Z 10005KT 9999 BKN014 29/26 Q1009=  
25-Mar-2010 SAID?? WAPI 250600 METAR WAPI 250600Z 11003KT 9999 SCT014 29/26 Q1008=  
25-Mar-2010 SAID?? WAPI 252300 METAR WAPI 252300Z 00000 9999 SCT018 28/26 Q1008NSC=  
26-Mar-2010 SAID?? WAPI 260000 METAR WAPI 260000Z 26005KT 9999 BKN018 29/26 Q1009NSC=  
26-Mar-2010 SAID?? WAPI 260100 METAR WAPI 260100Z 27005 99999 BKN018 30/26 Q1009NSC=  
26-Mar-2010 SAID?? WAPI 260400 METAR WAPI 260400Z 27006 9999 BKN014 31/26 Q1008NSC=  
26-Mar-2010 SAID?? WAPI 260500 METAR WAPI 260500Z 25005KT 9999 SCT018 31/25 Q1008NSC=  
26-Mar-2010 SAID?? WAPI 260600 METAR WAPI 260600Z 25004 9999 SCT018 31/25 Q1008NSC=  
26-Mar-2010 SAID?? WAPI 262300 METAR WAPI 262300Z 25003 9999 BKN014 27/25 Q1009 NSC=  
27-Mar-2010 SAID?? WAPI 270400 METAR WAPI 270400Z 26005KT 9999 BKN014 30/27 Q1009 NSC=  
27-Mar-2010 SAID?? WAPI 270500 METAR WAPI 270500Z 25007 9999 BKN014 30/26 Q1009 NSC=  
27-Mar-2010 SAID?? WAPI 270600 METAR WAPI 270600Z 27005KT 9999 BKN016 30/26 Q1008 NSC=  
27-Mar-2010 SAID?? WAPI 272300 METAR WAPI 272300Z 00000KT 9999 BKN018 28/27 Q1009 NSC=  
28-Mar-2010 SAID?? WAPI 280000 METAR WAPI 280000Z 26002KT 9999 BKN018 29/26 Q1009 NSC=  
28-Mar-2010 SAID?? WAPI 280100 METAR WAPI 280100Z 28005KT 9999 BKN018 31/26 Q1009 NSC=  
28-Mar-2010 SAID?? WAPI 280200 METAR WAPI 280200Z 24006KT 9999 BKN018 32/26 NSC=  
28-Mar-2010 SAID?? WAPI 280300 METAR WAPI 280300Z 27007KT 9999 BKN018 32/26 Q1008 NSC=  
28-Mar-2010 SAID?? WAPI 280400 METAR WAPI 280400Z 27010 9999 BKN018 33/26 Q1008 NSC=  
28-Mar-2010 SAID?? WAPI 280500 METAR WAPI 280500Z 25009KT 9999 BKN018 33/26 Q1008 NSC=  
28-Mar-2010 SAID?? WAPI 280600 METAR WAPI 280600Z 26004KT 9999 BKN018 31/26 Q1008 NSC=  
28-Mar-2010 SAID?? WAPI 282300 METAR WAPI 282300Z 25002KT 9999 BKN 28/26 Q1009 NSC=  
29-Mar-2010 SAID?? WAPI 290000 METAR WAPI 290000Z 27006KT 9999 BKN018 30/27 Q1010 NSC=  
29-Mar-2010 SAID?? WAPI 290100 METAR WAPI 290100Z 28005KT 9999 FEW018 31/26 Q1010 NSC=  
29-Mar-2010 SAID?? WAPI 290200 METAR WAPI 290200Z 26007KT 9999 FEW018 32/26 Q1009 NSC=  
29-Mar-2010 SAID?? WAPI 290300 METAR WAPI 290300Z 28005KT 9999 FEW018 32/26 Q1009 NSC=  
29-Mar-2010 SAID?? WAPI 290400 METAR WAPI 290400Z 26005KT 9999 FEW018 33/27 Q1009 NSC=  
29-Mar-2010 SAID?? WAPI 290500 METAR WAPI 290500Z 27007 9999 BKN018 33/26 Q1009 NSC=  
30-Mar-2010 SAID?? WAPI 300000 METAR WAPI 300000Z 28008KT 9999 BKN018 30/26 Q1009NSC=  
30-Mar-2010 SAID?? WAPI 300600 METAR WAPI 300600Z 28010KT 9999 SCT018 32/26 Q1009NSC=  
30-Mar-2010 SAID?? WAPI 302300 METAR WAPI 302300Z 27004KT 9999 OVC010 29/26 Q1009 NSC=  
31-Mar-2010 SAID?? WAPI 310500 METAR WAPI 310500Z 26011 9999 BKN010 32/27 Q1008 NSC=  
31-Mar-2010 SAID?? WAPI 310600 METAR WAPI 310600Z 28010KT 9999 BKN010 32/26 Q1008 NSC=  
31-Mar-2010 SAID?? WAPI 312300 METAR WAPI 312300Z 27004KT 9999 OVC014 25/25 Q1010 NSC=  
01-Apr-2010 SAID?? WAPI 010000 METAR WAPI 010000Z 00000KT 9999 BKN014 26/25 Q1010 NSC=  
01-Apr-2010 SAID?? WAPI 010200 METAR WAPI 010200Z 27006KT 9999 BKN 018 30/27 Q1009 NSC=  
01-Apr-2010 SAID?? WAPI 010300 METAR WAPI 010300Z 26010 9999 BKN018 31/26 Q10094 NSC=  
01-Apr-2010 SAID?? WAPI 010400 METAR WAPI 010400Z 24002KT 9999 BKN018 32/27 Q1008 NSC=  
01-Apr-2010 SAID?? WAPI 010500 METAR WAPI 010500Z 26014 9999 BKN018 32/27 Q1008 NSC=  
01-Apr-2010 SAID?? WAPI 010600 METAR WAPI 010600Z 28009KT 9999 BKN018 31/26 Q1008 NSC=  
01-Apr-2010 SAID?? WAPI 012300 METAR WAPI 012300Z 00000KT 9999 FEW018 28/26 Q1009 NSC=  
02-Apr-2010 SAID?? WAPI 020000 METAR WAPI 020000Z 25004KT 9999 SCT018 30/27 Q1010 NSC=  
02-Apr-2010 SAID?? WAPI 020100 METAR WAPI 020100Z 26005KT 9999 SCT018 31/26 Q1010 NSG=  
02-Apr-2010 SAID?? WAPI 020200 METAR WAPI 020200Z 25004KT 9999 FEW018 32/27 Q1009 NSG=  
02-Apr-2010 SAID?? WAPI 020300 METAR WAPI 020300Z 26005KT 9999 FEW018 32/26 Q1009 NSC=  
02-Apr-2010 SAID?? WAPI 020400 METAR WAPI 020400Z 29006KT 9999 FEW018 33/27 Q1009 NSC=  
02-Apr-2010 SAID?? WAPI 020500 METAR WAPI 020500Z 27004KT 9999 FEW018 33/26 Q1009 NSC=  
02-Apr-2010 SAID?? WAPI 022300 METAR WAPI 022300Z 00000KT 9999 BKN018 28/25 Q1010 NSC=  
03-Apr-2010 SAID?? WAPI 030325 METAR WAPI 030325Z 26003KT 9999 SCT018 33/26 Q1009 NSC=  
03-Apr-2010 SAID?? WAPI 030400 METAR WAPI 030400Z 27005KT 9999 BKN018 33/24 Q1009 NSC=  
03-Apr-2010 SAID?? WAPI 030500 METAR WAPI 030500Z 28006KT 9999 BKN018 33/26 Q1009 NSC=  
03-Apr-2010 SAID?? WAPI 030600 METAR WAPI 030600Z 27005KT 9999 BKN018 33/25 Q1009 NSC=  
04-Apr-2010 SAID?? WAPI 040300 METAR WAPI 040300Z 25006 9999 BKN018 32/26 Q1010 NSC=  
04-Apr-2010 SAID?? WAPI 040500 METAR WAPI 040500Z 28007KT 9999 BKN018 33/26 Q1009 NSC=  
04-Apr-2010 SAID?? WAPI 040600 METAR WAPI 040600Z 27006KT 9999 BKN018 33/26 Q1009 NSC=  
04-Apr-2010 SAID?? WAPI 042300 METAR WAPI 042300Z 27002KT 9999 SCT018 28/25 Q1010 NSC=  
05-Apr-2010 SAID?? WAPI 050000 METAR WAPI 050000Z 27004 9999 SCT018 30/26 Q1010 NSC=  
05-Apr-2010 SAID?? WAPI 050100 METAR WAPI 050100Z 28005KT 9999 SCT018 31/26 1010 NSC=  
05-Apr-2010 SAID?? WAPI 050200 METAR WAPI 050200Z 26004KT 9999 SCT018 32/26 Q1009 NSC=  
05-Apr-2010 SAID?? WAPI 050300 METAR WAPI 050300Z 26006KT 9999 SCT018 33/26 Q1009 NSC=  
05-Apr-2010 SAID?? WAPI 050400 METAR WAPI 050400Z 22005KT 9999 SCT018 33/26 Q1009 NSC=  
05-Apr-2010 SAID?? WAPI 050500 METAR WAPI 050500Z 23007KT 9999 SCT018 33/27 Q1009 NSC=  
05-Apr-2010 SAID?? WAPI 050600 METAR WAPI 050600Z 23007KT 9999 SCT018 33/27 Q1008 NSC=  
05-Apr-2010 SAID?? WAPI 052300 METAR WAPI 052300Z 00000 KT 9999 FEW018 28/26 Q1010 NSG=  
06-Apr-2010 SAID?? WAPI 060200 METAR WAPI 060200Z 28005KT 9999 SCT018 32/25 Q1010NSC=  
06-Apr-2010 SAID?? WAPI 060600 METAR WAPI 060600Z 28006 9999 FEW018 34/25 Q1009NSC=  
06-Apr-2010 SAID?? WAPI 062300 METAR WAPI 062300Z 25005KT 9999 BKN018 28/25 Q1011 NSC=  
08-Apr-2010 SAID?? WAPI 080600 METAR WAPI 080600Z 10006KT 9999 BKN014 32/25 Q1010 NSC=  
08-Apr-2010 SAID?? WAPI 082300 METAR WAPI 082300Z 00000KT 9999 SCT018 27/24 Q10121 NSC=  
09-Apr-2010 SAID?? WAPI 090000 METAR WAPI 090000Z 05003KT 9999 SCT018 28/25 Q1012 NSC=  
09-Apr-2010 SAID?? WAPI 090100 METAR WAPI 090100Z 05004KT 9999 SCT018 29/25 Q1011 NSC=  
09-Apr-2010 SAID?? WAPI 090200 METAR WAPI 090200Z 35006KT 9999 SCT018 31/25 Q1011 NSC=  
09-Apr-2010 SAID?? WAPI 090300 METAR WAPI 090300Z 06006KT 9999 SCT018 32/24 Q1000 NSC=  
09-Apr-2010 SAID?? WAPI 090400 METAR WAPI 090400Z 07005KT 9999 SCT018 32/24 Q1011 NSC=  
09-Apr-2010 SAID?? WAMM 090500 METAR WAPI 090510Z 08005KT 9999 BKN018 32/24 Q1010 NOSIG=  
09-Apr-2010 SAID?? WAPI 092300 METAR WAPI 092300Z 07003KT 9999 2FEW016 28/25 Q101 NSG=  
10-Apr-2010 SAID?? WAPI 100000 METAR WAPI 100000Z 10004KT 9999 3SCT016 30/25 Q1011 NSG=  
10-Apr-2010 SAID?? WAPI 100100 METAR WAPI 100100Z 09004KT 9999 3SCT016 30/25 Q1011 NSG=  
10-Apr-2010 SAID?? WAPI 100200 METAR WAPI 100200Z 10005KT 9999 4SCT016 30/26 Q1011 NSG=  
10-Apr-2010 SAID?? WAPI 100300 METAR WAPI 100300Z 08006KT 8000 RA SCT014 32/26 Q1010 NSG=  
10-Apr-2010 SAID?? WAPI 100400 METAR WAPI 100400Z 10004KT 9999 5SET014 32/26 Q1010 NSC=  
10-Apr-2010 SAID?? WAPI 100500 METAR WAPI 100500Z 09005KT 9999 SET014 31/26 Q1010 NSE=  
10-Apr-2010 SAID?? WAPI 100600 METAR WAPI 100600Z 07004KT 9999 BKN014 32/25 Q1009 NSC=  
10-Apr-2010 SAID?? WAPI 102300 METAR WAPI 102300Z 00000KT 9999 BKN018 27/23 NSC=  
11-Apr-2010 SAID?? WAPI 110000 METAR WAPI 110000Z 29003KT 9999 BKN018 29/24 Q1010 NSC=  
11-Apr-2010 SAID?? WAPI 110100 METAR WAPI 110100Z 00000KT 9999 SCT018 32/24 Q1010 NSC=  
11-Apr-2010 SAID?? WAPI 110200 METAR WAPI 110200Z 35002KT 9999 SCT018 32/23 Q1010 NSC=  
11-Apr-2010 SAID?? WAPI 112300 METAR WAPI 112300Z 00000KT 9999 FEW018 28/25 Q1011 NSC=  
12-Apr-2010 SAID?? WAPI 120000 METAR WAPI 120000Z 00000KT 9999 FEW018 30/24 Q1010 NSC=  
12-Apr-2010 SAID?? WAPI 122300 METAR WAPI 122300Z 00000KT 9999 FEW018 28/25 Q1011 NSC=  
13-Apr-2010 SAID?? WAPI 130000 METAR WAPI 130000Z 12003KT 9999 FEW018 30/26 Q1011 NSC=  
13-Apr-2010 SAID?? WAPI 130100 METAR WAPI 130100Z 00000KT 9999 FEW018 32/25 Q1012 NSC=  
13-Apr-2010 SAID?? WAPI 130200 METAR WAPI 130200Z 11003KT 9999 SCT018 32/26 Q1011 NSC=  
13-Apr-2010 SAID?? WAPI 130300 METAR WAPI 130300Z 10004 9999 SCT018 32/26 Q1011 NSC=  
13-Apr-2010 SAID?? WAPI 130400 METAR WAPI 130400Z 11006KT 9999 SCT018 32/26 Q1011 NSC=  
13-Apr-2010 SAID?? WAPI 130500 METAR WAPI 130500Z 09008KT 9999 BKN018 32/26 Q1011 NSC=  
13-Apr-2010 SAID?? WAPI 130600 METAR WAPI 130600Z 28009KT 9999 BKN018 32/25 Q1010 NSC=  
15-Apr-2010 SAID?? WAPI 150200 METAR WAPI 150200Z 07002KT 9999 SCT017 31/25 Q1011 NSC=  
15-Apr-2010 SAID?? WAPI 151000 METAR WAPI 151000Z 06002KT 2000 9999 CU/SC BKN017 30/26 O1012 NSC=  
16-Apr-2010 SAID?? WAPI 160300 METAR WAPI 160300Z 13006KT 9999 BKN010 31/26 Q1011 NSC=  
17-Apr-2010 SAID?? WAPI 172300 METAR WAPI 172300Z 10008KT 9999 BKN017 29/26 Q1010 NSC=  
18-Apr-2010 SAID?? WAPI 180600 METAR WAPI 180600Z 16005KT 1000 SCT014 29/26 Q1009 NSC=  
21-Apr-2010 SAID?? WAPI 210000 METAR WAPI 210000Z 00000KT 9999 OFC 010 25/25 Q1011NIL=  
21-Apr-2010 SAID?? WAPI 210300 METAR WAPI 210300Z 00000KT 9999 RERA OFC010 26/25 Q1011 NSG=  
21-Apr-2010 SAID?? WAPI 210600 METAR WAPI 210600Z 26005KT 9999 SCT010 28/25 Q1010 NOSIG=  
22-Apr-2010 SAID?? WAPI 220030 METAR WAPI 220000Z 31004KT 9999 FEW018 28/26 Q1012 NSC=  
22-Apr-2010 SAID?? WAPI 220100 METAR WAPI 220100Z 15004KT 9999 BKN014 29/26 Q1013 NSG=  
22-Apr-2010 SAID?? WAPI 220200 METAR WAPI 220200Z 14010KT 80000 RA BKN014 29/26 Q1013=  
22-Apr-2010 SAID?? WAPI 220300 METAR WAPI 220300Z 12006KT 10000 RA SCT016 28/26 Q1012=  
22-Apr-2010 SAID?? WAPI 220400 METAR WAPI 220400Z 13007KT 9999 SCT016 29/24 Q1012 NSG=  
22-Apr-2010 SAID?? WAPI 220500 METAR WAPI 220500Z 11008KT 9999 FEW018 31/25 Q1011 NSG=  
22-Apr-2010 SAID?? WAPI 220600 METAR WAPI 220600Z 12005KT 9999 FEW018 31/25 Q1011 NSG=  
22-Apr-2010 SAID?? WAPI 222300 METAR WAPI 222300Z 09003KT 9999 SCT018 29/25 NSC=  
23-Apr-2010 SAID?? WAPI 232300 METAR WAPI 232300Z 00000KT 9999 SCT018 27/25 NSC=  
24-Apr-2010 SAID?? WAPI 240400 METAR WAPI 240400Z 11007KT 9999 SCT018 32/24 Q1011 NSC=  
24-Apr-2010 SAID?? WAPI 240500 METAR WAPI 240500Z 10008KT 9999 SCT018 NSC=  
24-Apr-2010 SAID?? WAPI 240600 METAR WAPI 240600Z 10006KT 9999 BKN018 31/24 Q1011 NSC=  
24-Apr-2010 SAID?? WAPI 240600 METAR WAPI 240600Z 10006KT 9999 BKN018 31/24 Q1010 NSC=  
24-Apr-2010 SAID?? WAPI 242300 METAR WAPI 242300Z 00000KT 9999 SCT018 27/22 Q1012 NSC=  
25-Apr-2010 SAID?? WAPI 250000 METAR WAPI 250000Z 00000KT 9999 FEW018 29/24 Q1012 NSC=  
25-Apr-2010 SAID?? WAPI 250100 METAR WAPI 250100Z 13003KT 9999 FEW018 31/24 Q1012 NSC=  
25-Apr-2010 SAID?? WAPI 250200 METAR WAPI 250200Z 13005KT 9999 FEW018 31/24 Q1012 NSC=  
25-Apr-2010 SAID?? WAPI 250300 METAR WAPI 250300Z 11005KT 9999 FEW018 32/23 Q1012 NSC=  
25-Apr-2010 SAID?? WAPI 250400 METAR WAPI 250400Z 07005KT 9999 FEW018 32/23 Q1012 NSC=  
25-Apr-2010 SAID?? WAPI 250500 METAR WAPI 250500Z 08005KT 9999 SCT018 30/24 Q1012 NSC=  
25-Apr-2010 SAID?? WAPI 250600 METAR WAPI 250600Z 10004KT 9999 SCT018 NSC=  
25-Apr-2010 SAID?? WAPI 252200 METAR WAPI 252200Z 00000KT 9999 FEW018 27/24 Q1012 NSC=  
26-Apr-2010 SAID?? WAPI 260000 METAR WAPI 260000Z 00000KT 9999 FEW018 29/24 Q1013 NSC=  
26-Apr-2010 SAID?? WAPI 260100 METAR WAPI 260100Z 07003KT 9999 FEW018 31/24 Q1013 NSC=  
26-Apr-2010 SAID?? WAPI 260200 METAR WAPI 260200Z 07005KT 9999 SCT018 32/23 Q1013 NSC=  
26-Apr-2010 SAID?? WAPI 260300 METAR WAPI 260300Z 09003KT 9999 SCT018 32/23 Q1013 NSC=  
26-Apr-2010 SAID?? WAPI 260400 METAR WAPI 260400Z 08005KT 9999 SCT018 31/23 Q1013 NSC=  
26-Apr-2010 SAID?? WAPI 260500 METAR WAPI 260500Z 09005KT 9999 SCT018 30/23 Q1013 NSC=  
26-Apr-2010 SAID?? WAPI 260600 METAR WAPI 260600Z 10005KT 9999 SCT018 31/23 Q1013 NSC=  
26-Apr-2010 SAID?? WAPI 262300 METAR WAPI 262300Z 00000KT 9999 SCT018 26/24 Q1014 NSC=  
27-Apr-2010 SAID?? WAPI 270000 METAR WAPI 270000Z 00000KT 9999 FEW018 29/25 Q1014 NSC=  
27-Apr-2010 SAID?? WAPI 270100 METAR WAPI 270100Z 00000KT 9999 FEW018 31/25 Q1014 NSC=  
27-Apr-2010 SAID?? WAPI 270200 METAR WAPI 270200Z 00000KT 9999 FEW018 32/24 Q1014 NSC=  
27-Apr-2010 SAID?? WAPI 270300 METAR WAPI 270300Z 00000KT 9999 FEW018 32/24 Q1014 NSC=  
27-Apr-2010 SAID?? WAPI 270400 METAR WAPI 270400Z 05008KT 9999 FEW018 32/25 Q1013 NSC=  
27-Apr-2010 SAID?? WAPI 270500 METAR WAPI 270500Z 10006KT 9999 FEW018 32/25 Q1012 NSC=  
27-Apr-2010 SAID?? WAPI 270600 METAR WAPI 270600Z 10008KT 9999 FEW018 31/25 Q1012 NSC=  
27-Apr-2010 SAID?? WAPI 272300 METAR WAPI 272300Z 10002KT 9999 BKN016 27/26 Q1013 NSC=  
28-Apr-2010 SAID?? WAPI 280000 METAR WAPI 280000Z 00000KT 9999 BKN016 27/26 Q1013 NSC=  
28-Apr-2010 SAID?? WAPI 280100 METAR WAPI 280100Z 00000KT 9999 BKN016 29/26 NSC=  
28-Apr-2010 SAID?? WAPI 280200 METAR WAPI 280200Z 00000KT 9999 30/27 Q1013 NSC=  
28-Apr-2010 SAID?? WAPI 280300 METAR WAPI 280300Z 08004KT 9999 BKN016 30/26 Q1013 NSC=  
28-Apr-2010 SAID?? WAPI 280400 METAR WAPI 280400Z 09005KT 9999 BKN016 31/27 Q1013 NSC=  
28-Apr-2010 SAID?? WAPI 280500 METAR WAPI 280500Z 09005KT 9999 BKN016 31/27 Q1013 NSC=  
28-Apr-2010 SAID?? WAPI 280600 METAR WAPI 280600Z 00000KT 9999 BKN016 30/27 Q1013 NSC=  
28-Apr-2010 SAID?? WAPI 282300 METAR WAPI 282300Z 00000KT 9999 BKN016 27/26 Q1012 NSC=  
28-Apr-2010 SAID?? WAPI 282300 METAR WAPI 282300Z 08013KT 20000 RA BKN010 25/25 Q1014=  
29-Apr-2010 SAID?? WAPI 290000 METAR WAPI 290000Z 07005KT 50000 +TSRA OVC010 CB SCT013 25/24 Q1014=  
29-Apr-2010 SAID?? WAPI 290100 METAR WAPI 290100Z 06006KT 50000 OVC 010 25/24 Q1014=  
29-Apr-2010 SAID?? WAPI 290200 METAR WAPI 290200Z 13005KT 50000 OVC010 25/25 Q1014=  
29-Apr-2010 SAID?? WAPI 290300 METAR WAPI 290300Z 14007KT 20000 OVC010 25/25 Q1014=  
29-Apr-2010 SAID?? WAPI 290400 METAR WAPI 290400Z 20000KT 0VC010 25/24 Q1014=  
29-Apr-2010 SAID?? WAPI 290400 METAR WAPI 290400Z 20000KT 0VC010 24/24 Q1014=  
29-Apr-2010 SAID?? WAPI 290500 METAR WAPI 290500Z 15005KT 40000 OVC010 25/24 Q1014=  
29-Apr-2010 SAID?? WAPI 290600 METAR WAPI 290600Z 00000KT 30000 OVC010 25/24 Q1014=  
29-Apr-2010 SAID?? WAPI 292300 METAR WAPI 292300Z 10002KT 9999 BKN015 27/26 Q1014 NSC=  
30-Apr-2010 SAID?? WAPI 300000 METAR WAPI 300000Z 10005KT 9999 SCT018 29/26 Q1013 NSC=  
30-Apr-2010 SAID?? WAPI 300100 METAR WAPI 300100Z 10008KT 9999 BKN016 29/26 Q1013 NSC=  
30-Apr-2010 SAID?? WAPI 300200 METAR WAPI 300200Z 13008KT 9999 SCT018 28/26 Q1013 NSC=  
30-Apr-2010 SAID?? WAPI 300300 METAR WAPI 300300Z 10007KT 9999 BKN016 29/25 Q1014 NSC=  
30-Apr-2010 SAID?? WAPI 300400 METAR WAPI 300400Z 10010KT 9999 BKN016 29/25 Q1013 NSC=  
30-Apr-2010 SAID?? WAPI 300500 METAR WAPI 300500Z 10007KT 9999 SCT018 28/25 Q1013 NSC=  
30-Apr-2010 SAID?? WAPI 300600 METAR WAPI 300600Z 10007KT 9999 SCT018 28/24 Q1013 NSC=  
30-Apr-2010 SAID?? WAPI 302300 METAR WAPI 302300Z 10002KT 9999 BKN014 26/25 Q1013 NSC=  
01-May-2010 SAID?? WAPI 010000 METAR WAPI 010000Z 07003KT 9999 SCT018 28/25 Q1013 NSC=  
01-May-2010 SAID?? WAPI 010100 METAR WAPI 010100Z 08004KT 9999 SCT018 30/25 Q1013 NSC=  
01-May-2010 SAID?? WAPI 010200 METAR WAPI 010200Z 08004KT 9999 SCT018 31/25 Q1013 NSC=  
01-May-2010 SAID?? WAPI 010300 METAR WAPI 010300Z 07005KT 9999 SCT018 31/25 Q1013 NSC=  
01-May-2010 SAID?? WAPI 010400 METAR WAPI 010400Z 08006KT 9999 SCT018 32/25 Q1013 NSC=  
01-May-2010 SAID?? WAPI 010500 METAR WAPI 010500Z 09006KT 9999 SCT018 32/25 Q1013 NSC=  
01-May-2010 SAID?? WAPI 010600 METAR WAPI 010600Z 10008 KT 20000 9999 SCT081 31/24 Q 1012 NSC=  
01-May-2010 SAID?? WAPI 012300 METAR WAPI 012300Z 08006KT 9999 SCT018 29/26 Q1012 NSC=  
02-May-2010 SAID?? WAPI 020000 METAR WAPI 020000Z 08006KT 9999 SCT018 29/25 Q1012 NSC=  
02-May-2010 SAID?? WAPI 020100 METAR WAPI 020100Z 09006KT 9999 BKN018 30/26 Q1012 NSC=  
02-May-2010 SAID?? WAPI 020200 METAR WAPI 020200Z 08007 KT 9999 BKN015 29/26 Q1012 NSC 0000008900 802 SAID35 WAPI 020200 METAR WAPI 020200Z 08007 KT 9999 BKN015 29/26 Q1012 NSC 0000008500 803 SAID35 WAMT 020200 METAR WAMT 020200Z 16005KT 9999 SCT018 30/25 Q1010=  
02-May-2010 SAID?? WAPI 020300 METAR WAPI 020300Z 10004KT 9999 FEW018 30/26 Q1013 NSC=  
02-May-2010 SAID?? WAPI 020400 METAR WAPI 020400Z 10012KT 9999 BKN016 CB 32/26 Q1012=  
02-May-2010 SAID?? WAPI 020500 METAR WAPI 020500Z 10008KT 9999 BKN016 31/26 Q1011 NSC=  
02-May-2010 SAID?? WAPI 020600 METAR WAPI 020600Z 08010KT 9999 BKN018 31/25 Q1011 NSC=  
02-May-2010 SAID?? WAPI 022300 METAR WAPI 022300Z 09005KT 9999 BKN017 29/26 Q1011 NSC=  
03-May-2010 SAID?? WAPI 030000 METAR WAPI 030000Z 09005KT 9999 BKN016 30/26 Q1010 NSC=  
03-May-2010 SAID?? WAPI 030100 METAR WAPI 030100Z 09004KT 9999 SCT018 31/26 Q1010 NSC=  
03-May-2010 SAID?? WAPI 030200 METAR WAPI 030200Z 12005KT SCT018 31/26 Q1010 NSC=  
03-May-2010 SAID?? WAPI 030300 METAR WAPI 030300Z 10006KT 9999 SCT018 31/26 Q1010 NSC=  
03-May-2010 SAID?? WAPI 030400 METAR WAPI 030400Z 11006KT 9999 SCT018 31/26 Q1010 NSC=  
03-May-2010 SAID?? WAPI 030500 METAR WAPI 030500Z 10010KT 9999 FEW018 30/23 Q1012 NSC=  
03-May-2010 SAID?? WAPI 030500 METAR WAPI 030500Z 10006KT 9999 SCT018 31/26 Q1010 NSC=  
03-May-2010 SAID?? WAPI 030600 METAR WAPI 030600Z 11006KT 9999 SCT018 31/25 Q1010 NSC=  
03-May-2010 SAID?? WAPI 032300 METAR WAPI 032300Z 10002KT 9999 BKN018 27/25 Q1010 NSC=  
04-May-2010 SAID?? WAPI 040000 METAR WAPI 040000Z 10008KT 9999 SCT016 29/25 Q1010 NSC=  
04-May-2010 SAID?? WAPI 042300 METAR WAPI 042300Z 10012KT 9999 BKN017 29/25 Q1009 NSC=  
05-May-2010 SAID?? WAPI 050000 METAR WAPI 050000Z 09010KT 9999 SCT018 30/24 Q1009 NSC=  
05-May-2010 SAID?? WAPI 050100 METAR WAPI 050100Z 08010KT 9999 BKN016 31/25 Q1010 NSC=  
05-May-2010 SAID?? WAPI 050200 METAR WAPI 050200Z 12010KT 9999 SCT016 31/25 Q1010 NSC=  
05-May-2010 SAID?? WAPI 050300 METAR WAPI 050300Z 11010KT 9999 BKN018 31/26 Q1010 NSC=  
05-May-2010 SAID?? WAPI 050400 METAR WAPI 050400Z 11014KT 9999 BKN018 31/25 Q1009 NSC=  
05-May-2010 SAID?? WAPI 050500 METAR WAPI 050500Z 110016KT 9999 BKN018 31/25 Q1009 NSC=  
05-May-2010 SAID?? WAPI 050600 METAR WAPI 050600Z 97900 10015KT 9999 BKN016 31/26 Q1009 NSC=  
05-May-2010 SAID?? WAPI 052300 METAR WAPI 052300Z 11008KT 6000 RA BKN015 26/25 Q1011 NSC=  
06-May-2010 SAID?? WAPI 060000 METAR WAPI 060000Z 10008KT 40000 RA BKN015 26/25 Q1011 NSC=  
06-May-2010 SAID?? WAPI 060100 METAR WAPI 060100Z 40000 RA BKN015 26/25 Q1011 NSC=  
06-May-2010 SAID?? WAPI 060200 METAR WAPI 060200Z 09014KT 20000 RA BKN016 Q1011=  
06-May-2010 SAID?? WAPI 060200 METAR WAPI 060200Z 09014KT 20000 RA BKN015 26/25 Q1011 NSC=  
06-May-2010 SAID?? WAPI 060300 METAR WAPI 060300Z 10006KT 40000 RA BKN015 26/25 Q1011=  
06-May-2010 SAID?? WAPI 060400 METAR WAPI 060400Z 10012KT 9999 BKN015 28/27 Q1010=  
06-May-2010 SAID?? WAPI 060500 METAR WAPI 060500Z 08008KT 9999 SCT016 28/26 Q1009 NSC=  
06-May-2010 SAID?? WAPI 060600 METAR WAPI 060600Z 11006KT 8000 RA BKN015 27/26 Q1009 NSC=  
07-May-2010 SAID?? WAPI 070000 METAR WAPI 070000Z 09013KT 9999 SCT018 28/25 Q1009 NSC=  
07-May-2010 SAID?? WAPI 070100 METAR WAPI 070100Z 10014KT 9999 SCT016 29/24 Q1010 NSC=  
07-May-2010 SAID?? WAPI 070200 METAR WAPI 070200Z 11012KT 9999 SCT016 30/27 Q1010 NSC=  
07-May-2010 SAID?? WAPI 070300 METAR WAPI 070300Z 11010KT 9999 SCT016 30/25 Q1009 NSC=  
07-May-2010 SAID?? WAPI 070400 METAR WAPI 070400Z 10012KT 9999 SCT016 30/25 NSC=  
07-May-2010 SAID?? WAPI 070500 METAR WAPI 070500Z 10010KT 9999 SCT016 30/25 Q1009 NSC=  
07-May-2010 SAID?? WAPI 070600 METAR WAPI 070600Z 08011KT 9999 27/25 Q1009=  
07-May-2010 SAID?? WAPI 072300 METAR WAPI 072300Z 10010KT 9999 SCT015 28/23 Q1008NSC=  
08-May-2010 SAID?? WAPI 080500 METAR WAPI 080500Z 10013KT 9999 SCT015 30/24 Q1008NSC=  
08-May-2010 SAID?? WAPI 080600 METAR WAPI 080600Z 10012 9999 SCT015 29/24 Q1008NSC=  
08-May-2010 SAID?? WAPI 082300 METAR WAPI 082300Z 10014KT 9999 BKN018 28/24 NSC=  
09-May-2010 SAID?? WAPI 090000 METAR WAPI 090000Z 10008KT 9999 BKN016 28/24 Q1008 NSC=  
09-May-2010 SAID?? WAPI 090100 METAR WAPI 090100Z 07010KT 9999 SCT018 29/25 Q1008 NSC=  
09-May-2010 SAID?? WAPI 090200 METAR WAPI 090200Z 08012KT 9999 SCT018 30/25 Q1008 NSC=  
09-May-2010 SAID?? WAPI 090300 METAR WAPI 090300Z 07008KT 9999 BKN016 30/25 Q1008 NSC=  
09-May-2010 SAID?? WAPI 090400 METAR WAPI 090400Z 09010KT 9999 BKN018 30/24 Q1008 NSC=  
09-May-2010 SAID?? WAPI 092300 METAR WAPI 092300Z 07006KT 9999 SCT018 28/25 Q1009 NSC=  
10-May-2010 SAID?? WAPI 100000 METAR WAPI 100000Z 07005KT 9999 SCT015 29/25 Q1009 NSC=  
10-May-2010 SAID?? WAPI 100100 METAR WAPI 100100Z 08005KT 9999 FEW018 29/25 Q1009 NSC=  
10-May-2010 SAID?? WAPI 100200 METAR WAPI 100200Z 11008KT 9999 FEW018 30/26 Q1009 NSC=  
10-May-2010 SAID?? WAPI 100300 METAR WAPI 100300Z 10010KT 9999 BKN015 31/26 Q1009 NSC=  
10-May-2010 SAID?? WAPI 100400 METAR WAPI 100400Z 09011KT 9999 FEW016 30/25 Q1009 NSC=  
10-May-2010 SAID?? WAPI 100500 METAR WAPI 100500Z 07011KT 9999 SCT015 30/26 Q1008 NSC=  
10-May-2010 SAID?? WAPI 100600 METAR WAPI 100600Z 10012KT 9999 FEW018 30/25 Q1008 NSC=  
10-May-2010 SAID?? WAPI 102300 METAR WAPI 102300Z 11006KT 20000 RAIN OVC010 25/24 Q1008=  
11-May-2010 SAID?? WAPI 110000 METAR WAPI 110000Z 10005KT 2000 RA OVC010 26/25 Q1009=  
11-May-2010 SAID?? WAPI 110100 METAR WAPI 110100Z 10007KT 4000 RA BKN010 26/25 Q1009=  
11-May-2010 SAID?? WAPI 110200 METAR WAPI 110200Z 10008KT 5000 RA BKN010 26/25 Q1009=  
11-May-2010 SAID?? WAPI 110300 METAR WAPI 110300Z 11006KT 5000 RA 26/27 Q1010=  
11-May-2010 SAID?? WAPI 110400 METAR WAPI 110400Z 10009KT 5000 RA BKN010 26/25 Q1010=  
11-May-2010 SAID?? WAPI 110600 METAR WAPI 110600Z 09011KT 8000 RA BKN010 27/26 Q1009=  
11-May-2010 SAID?? WAPI 112300 METAR WAPI 112300Z 00000KT 9999 BKN016 25/24 Q1010 NSC=  
12-May-2010 SAID?? WAPI 120000 METAR WAPI 120000Z 00000 9999 FEW018 27/25 Q1010 NSC=  
12-May-2010 SAID?? WAPI 120100 METAR WAPI 120100Z 06004KT 9999 SCT012 27/26 Q1010 NSC=  
12-May-2010 SAID?? WAPI 120200 METAR WAPI 120200Z 09004KT 9999 BKN010 29/27 Q1010NSC=  
12-May-2010 SAID?? WAPI 120300 METAR WAPI 120300Z 12310KT 9999 BKN010 28/25 Q1010NSC=  
12-May-2010 SAID?? WAPI 120400 METAR WAPI 120400Z 10004KT 8000 RA BKN010 28/25 Q1010=  
12-May-2010 SAID?? WAPI 120500 METAR WAPI 120500Z 10003KT 10.000 RA BKN010 28/25 Q1010=  
12-May-2010 SAID?? WAPI 120600 METAR WAPI 120600Z 10003KT 10000 RA BKN010 27/25 Q1010=  
12-May-2010 SAID?? WAPI 122300 METAR WAPI 122300Z 11008KT 9999 SCT018 28/25 Q1011 NSC=  
13-May-2010 SAID?? WAPI 130000 METAR WAPI 130000Z 07010KT 9999 SCT018 29/26 Q1011 NSC=  
13-May-2010 SAID?? WAPI 130100 METAR WAPI 130100Z 08012KT 9999 SCT018 30/26 Q1010 NSC=  
13-May-2010 SAID?? WAPI 130200 METAR WAPI 130200Z 11006KT 9999 SCT018 31/26 Q1010 NSC=  
13-May-2010 SAID?? WAPI 130300 METAR WAPI 130300Z 09012KT 9999 SCT0018 31/27 Q1010 NSC=  
13-May-2010 SAID?? WAPI 130400 METAR WAPI 130400Z 08008KT 9999 BKN018 31/26 Q1010 NSC=  
13-May-2010 SAID?? WAPI 130500 METAR WAPI 130500Z 10010KT 9999 BKN018 30/26 Q1009 NSC=  
13-May-2010 SAID?? WAPI 130600 METAR WAPI 130600Z 10008KT 9999 BKN018 30/25 Q1008 NSC=  
13-May-2010 SAID?? WAPI 132300 METAR WAPI 132300Z 09007KT 9999 BKN016 28/25 Q1009 NSC=  
14-May-2010 SAID?? WAPI 140000 METAR WAPI 140000Z 08010KT BKN016 30/26 Q1009 NSC=  
14-May-2010 SAID?? WAPI 140100 METAR WAPI 140100Z 10006KT 9999 BKN016 29/26 Q1009 NSC=  
14-May-2010 SAID?? WAPI 140200 METAR WAPI 140200Z 09008KT 9999 SCT015 30/26 Q1009 NSC=  
14-May-2010 SAID?? WAPI 140300 METAR WAPI 140300Z 11006KT 9999 FEW018 31/27 Q1009 NSC=  
14-May-2010 SAID?? WAPI 140400 METAR WAPI 140400Z 10011KT 9999 BKN018 310/26 Q1009 NSC=  
14-May-2010 SAID?? WAPI 142300 METAR WAPI 142300Z 10005KT 9999 BKN016 27/25 Q1008 NSC=  
15-May-2010 SAID?? WAPI 150000 METAR WAPI 150000Z 10009KT 9999 SCT018 28/25 Q1008 NSC=  
15-May-2010 SAID?? WAPI 150100 METAR WAPI 150100Z 10011KT 9999 SCT018 30/25 Q1008 NSC=  
15-May-2010 SAID?? WAPI 150200 METAR WAPI 150200Z 06005KT 9999 SCT018 31/26 Q1008 NSC=  
15-May-2010 SAID?? WAPI 150300 METAR WAPI 150300Z 10009KT 9999 SCT018 31/26 Q1008 NSC=  
15-May-2010 SAID?? WAPI 150400 METAR WAPI 150400Z 11011KT 9999 BKN016 31/27 Q1008 NSC=  
15-May-2010 SAID?? WAPI 150500 METAR WAPI 150500Z 10012KT 9999 BKN016 31/26 Q10086 NSC=  
15-May-2010 SAID?? WAPI 150600 METAR WAPI 150600Z 11010KT 9999 BKN016 31/26 Q1008 NSC=  
15-May-2010 SAID?? WAPI 152300 METAR WAPI 152300Z 10012KT 9999 BKN 015 27/26 Q1009NSC=  
16-May-2010 SAID?? WAPI 160000 METAR WAPI 160000Z 10004KT 9999 SCT015 27/26 Q1009NSC=  
16-May-2010 SAID?? WAPI 160100 METAR WAPI 160100Z 09004KT 9999 SCT018 29/26 Q1010NSC=  
16-May-2010 SAID?? WAPI 160200 METAR WAPI 160200Z 08010KT 9999 BKN017 30/26 Q1009NSC=  
17-May-2010 SAID?? WAPI 170000 METAR WAPI 170000Z 07005KT 9000 RA BKN018 29/26 Q1010=  
17-May-2010 SAID?? WAPI 170100 METAR WAPI 170100Z 11008KT 9999 SCT018 29/27 Q1010 NSC=  
17-May-2010 SAID?? WAPI 170400 METAR WAPI 170400Z 10012KT 9999 BKN017 31/27 Q1010 NSC=  
17-May-2010 SAID?? WAPI 170500 METAR WAPI 170500Z 09010 9000 BKN015 30/27 Q1010=  
17-May-2010 SAID?? WAPI 170600 METAR WAPI 170600Z 97900 08004KT 9999 BKN015 29/27 Q1010=  
17-May-2010 SAID?? WAPI 172300 METAR WAPI 172300Z 10006KT 9999 BKN018 25/26 Q1010 NSC=  
18-May-2010 SAID?? WAPI 180000 METAR WAPI 180000Z 08007KT 9999 SCT018 30/26 Q1010 NSC=  
18-May-2010 SAID?? WAPI 180100 METAR WAPI 180100Z 09006KT 9999 SCT018 31/26 Q1011 NSC=  
18-May-2010 SAID?? WAPI 180200 METAR WAPI 180200Z 10006KT 9999 BKN015 31/26 Q1011 NSC=  
18-May-2010 SAID?? WAPI 180300 METAR WAPI 180300Z 11007KT 9999 BKN015 31/26 Q1010 NSC=  
18-May-2010 SAID?? WAPI 180600 METAR WAPI 180600Z 10009KT 9999 SCT918 31/25 Q1010 NSC=  
18-May-2010 SAID?? WAPI 182300 METAR WAPI 182300Z 10004 9999 BKN017 28/25 Q1011 NSC=  
19-May-2010 SAID?? WAPI 190000 METAR WAPI 190000Z 11008KT 9999 BKN017 29/25 Q1011 NSC=  
19-May-2010 SAID?? WAPI 190100 METAR WAPI 190100Z 10008KT 9999 BKN016 30/26 Q1011 NSC=  
19-May-2010 SAID?? WAPI 190200 METAR WAPI 190200Z 10010KT 9999 BKN016 30/26 Q1011 NSC=  
19-May-2010 SAID?? WAPI 190300 METAR WAPI 190300Z 11012KT 9999 BKN016 30/25 Q1011 NSC=  
19-May-2010 SAID?? WAPI 190400 METAR WAPI 190400Z 10010KT 9999 BKN016 30/26 Q1011 NSC=  
19-May-2010 SAID?? WAPI 190500 METAR WAPI 190500Z 190500Z 9999 BKN016 30/26 Q1010 NSC=  
19-May-2010 SAID?? WAPI 190600 METAR WAPI 190600Z 11010KT 9999 BKN016 30/26 Q1010 NSC=  
19-May-2010 SAID?? WAPI 192300 METAR WAPI 192300Z 09004KT 9999 BKN016 29/26 Q1011NSC=  
20-May-2010 SAID?? WAPI 200000 METAR WAPI 200000Z 11003KT 10000 RA BKN 014 29/26 Q1012=  
20-May-2010 SAID?? WAPI 200100 METAR WAPI 200100Z 08006KT 9999 BKN018 30/26 O1012 NSG=  
20-May-2010 SAID?? WAPI 200500 METAR WAPI 200500Z 08012KT 9999 BKN016 31/25 Q1011 NSG=  
20-May-2010 SAID?? WAPI 202300 METAR WAPI 202300Z 08007KT 9999 BKN017 28/26 Q1012 NSC=  
21-May-2010 SAID?? WAPI 210000 METAR WAPI 210000Z 07010 KT 180000 99999 CU5 BKN 018 30/26 Q1013 NSC=  
21-May-2010 SAID?? WAPI 210100 METAR WAPI 210100Z 07007KT 9999 BKN018 Q1012 NSC=  
21-May-2010 SAID?? WAPI 210200 METAR WAPI 210200Z 08008KT 9999 SCT018 30/25 Q1012 NSC=  
21-May-2010 SAID?? WAPI 210400 METAR WAPI 210400Z 07010 KT 18000 9999 31/26 Q1011 NSC=  
21-May-2010 SAID?? WAPI 210500 METAR WAPI 210500Z 9999 BKN015 32/26 Q1011 NSC=  
21-May-2010 SAID?? WAPI 210600 METAR WAPI 210600Z 11006KT 9999 BKN015 30/26 Q1011 NSC=  
21-May-2010 SAID?? WAPI 212300 METAR WAPI 212300Z 10008KT 9999 BKN015 29/27 Q1011 NSC=  
22-May-2010 SAID?? WAPI 220000 METAR WAPI 220000Z 10005KT 9999 SCT018 30/26 Q1011 NSC=  
22-May-2010 SAID?? WAPI 220100 METAR WAPI 220100Z 10012KT 9999 SCT018 31/26 Q1010 NSC=  
22-May-2010 SAID?? WAPI 220200 METAR WAPI 220200Z 11010KT 9999 SCT018 31/25 Q1011 NSC=  
22-May-2010 SAID?? WAPI 220300 METAR WAPI 220300Z 11009KT 9999 SCT018 31/26 Q1011 NSC=  
22-May-2010 SAID?? WAPI 220400 METAR WAPI 220400Z 10007KT 9999 SCT018 30/25 Q1011 NSC=  
22-May-2010 SAID?? WAPI 220600 METAR WAPI 220600Z 10009KT 9999 BKN018 31/26 Q1010 NSC=  
22-May-2010 SAID?? WAPI 222300 METAR WAPI 222300Z 11004KT 9999 BKN018 28/25 Q1010 NSC=  
23-May-2010 SAID?? WAPI 230000 METAR WAPI 230000Z 10005KT 9999 FEW018 29/26 Q1011 NSC=  
23-May-2010 SAID?? WAPI 230100 METAR WAPI 230100Z 12006KT 9999 FEW018 30/26 Q1011 NSC=  
23-May-2010 SAID?? WAPI 230200 METAR WAPI 230200Z 12008KT 9999 FEW018 30/25 Q1011 NSC=  
23-May-2010 SAID?? WAPI 230300 METAR WAPI 230300Z 11006KT 9999 SCT018 30/26 Q1011 NSC=  
23-May-2010 SAID?? WAPI 230400 METAR WAPI 230400Z 11007KT 9999 FEW018 31/26 Q1010=  
23-May-2010 SAID?? WAPI 230500 METAR WAPI 230500Z 10010KT 9999 BKN018 31/25 Q1010 NSC=  
23-May-2010 SAID?? WAPI 230600 METAR WAPI 230600Z 10011KT 9999 BKN018 31/25 Q1010 NSC=  
23-May-2010 SAID?? WAPI 232300 METAR WAPI 232300Z 08010KT 9999 BKN016 28/26 Q1010 NSC=  
24-May-2010 SAID?? WAPI 242300 METAR WAPI 242300Z 10005KT 9999 BKN016 27/25 Q1012 NSC=  
25-May-2010 SAID?? WAPI 250000 METAR WAPI 250000Z 10002KT 9999 BKN016 27/25 Q1012 NSC=  
25-May-2010 SAID?? WAPI 250100 METAR WAPI 250100Z 10003KT 9999 BKN016 28/26 Q1012 NSC=  
25-May-2010 SAID?? WAPI 250200 METAR WAPI 250200Z 09004KT 9999 BKN016 29/26 Q1012 NSC=  
25-May-2010 SAID?? WAPI 250300 METAR WAPI 250300Z 11004KT 9999 SCT018 29/26 Q1012 NSC=  
25-May-2010 SAID?? WAPI 250400 METAR WAPI 250400Z 09004KT 9999 BKN016 30/26 Q1011 NSC=  
25-May-2010 SAID?? WAPI 250500 METAR WAPI 250500Z 08010KT 9999 BKN018 30/26 Q1011 NSC=  
25-May-2010 SAID?? WAPI 250600 METAR WAPI 250600Z 08007KT 9999 SCT018 29/26 Q1011 NSC=  
25-May-2010 SAID?? WAPI 252300 METAR WAPI 252300Z 09004KT 9999 BKN018 28/25 Q1012 NSC=  
26-May-2010 SAID?? WAPI 260000 METAR WAPI 260000Z 08006KT 9999 SCT018 30/25 Q1012 NSC=  
26-May-2010 SAID?? WAPI 260100 METAR WAPI 260100Z 09008KT 9999 FEW018 30/25 Q1012 NSC=  
26-May-2010 SAID?? WAPI 260200 METAR WAPI 260200Z 11010KT 9999 SCT018 31/25 Q1012 NSC=  
26-May-2010 SAID?? WAPI 260300 METAR WAPI 260300Z 11010KT 9999 SCT018 31/25 Q1012 NSC=  
26-May-2010 SAID?? WAPI 260400 METAR WAPI 260400Z 10009KT 9999 BKN018 31/25 Q1011 NSC=  
26-May-2010 SAID?? WAPI 260500 METAR WAPI 260500Z 09008KT 9999 BKN018 30/26 Q1011 NSC=  
26-May-2010 SAID?? WAPI 262300 METAR WAPI 262300Z 10002KT 9999 BKN018 28/24 Q1011 NSC=  
27-May-2010 SAID?? WAPI 270000 METAR WAPI 270000Z 08003KT 9999 SCT018 28/24 Q1011 NSC=  
27-May-2010 SAID?? WAPI 270100 METAR WAPI 270100Z 07004KT 999 SCT018 30/25 Q1011 NSC=  
27-May-2010 SAID?? WAPI 270200 METAR WAPI 270200Z 10004KT 9999 SCT018 31/25 Q1012 NSC=  
27-May-2010 SAID?? WAPI 270300 METAR WAPI 270300Z 10006KT 9999 BKN018 32/25 Q1012 NSC=  
27-May-2010 SAID?? WAPI 270400 METAR WAPI 270400Z 11005KT 9999 BKN018 31/25 Q1012 NSC=  
27-May-2010 SAID?? WAPI 270500 METAR WAPI 270500Z 09005KT 9999 BKN018 31/24 Q1012 NSC=  
27-May-2010 SAID?? WAPI 270600 METAR WAPI 270600Z 10009KT 9999 SCT018 31/25 Q1011=  
28-May-2010 SAID?? WAPI 280400 METAR WAPI 280400Z 07011KT 9999 SCT018 31/25 Q1013 NSG=  
28-May-2010 SAID?? WAPI 282310 METAR WAPI 282300Z 10002KT 9999 BKN016 27/25 Q1013 NSC=  
29-May-2010 SAID?? WAPI 290000 METAR WAPI 290000Z 07008KT 9999 SCT016 27/26 Q1013=  
29-May-2010 SAID?? WAPI 290100 METAR WAPI 290100Z 09008KT 9999 RA BKN015 27/27 Q1013=  
29-May-2010 SAID?? WAPI 290200 METAR WAPI 290200Z 00000KT 9999 SCT018 27/26 Q1013 NSC=  
29-May-2010 SAID?? WAPI 290300 METAR WAPI 290300Z 09002KT 9999 SCT015 28/25 Q1013 NSC=  
29-May-2010 SAID?? WAPI 290400 METAR WAPI 290400Z 10003KT 9999 SCT015 27/24 Q1012 NSC=  
29-May-2010 SAID?? WAPI 290500 METAR WAPI 290500Z 09006 9999 SCT015 27/25 Q1013 NSC=  
29-May-2010 SAID?? WAPI 290600 METAR WAPI 290600Z 08012 9999 BKN016 27/25 Q1012 NSC=  
29-May-2010 SAID?? WAPI 292300 METAR WAPI 292300Z 10005KT 9999 BKN018 28/25 Q1013 NSC=  
30-May-2010 SAID?? WAPI 300000 METAR WAPI 300000Z 10008KT 9999 SCT018 29/25 Q1014 NSC=  
30-May-2010 SAID?? WAPI 300100 METAR WAPI 300100Z 10010KT 9999 SCT018 30/24 Q1013 NSC=  
30-May-2010 SAID?? WAPI 300200 METAR WAPI 300200Z 11008KT 9999 SCT018 30/25 Q1013 NSC=  
30-May-2010 SAID?? WAPI 300300 METAR WAPI 300300Z 09010KT 9999 FEW018 31/25 Q1013 NSC=  
30-May-2010 SAID?? WAPI 300400 METAR WAPI 300400Z 10012KT 9999 BKN018 31/25 Q1012 NSC=  
30-May-2010 SAID?? WAPI 300500 METAR WAPI 300500Z 09013 9999 BKN018 31/25 Q1012 NSC=  
30-May-2010 SAID?? WAPI 300600 METAR WAPI 300600Z 10010KT 9999 BKN018 31/25 Q1012 NSC=  
30-May-2010 SAID?? WAPI 302300 METAR WAPI 302300Z 09010KT 9999 BKN018 28/24 Q1012 NSC=  
31-May-2010 SAID?? WAPI 310000 METAR WAPI 310000Z 11012KT 9999 SCT018 29/24 Q1013 NSC=  
31-May-2010 SAID?? WAPI 310200 METAR WAPI 310200Z 10015KT 9999 BKN018 30/24 Q1013 NSC=  
31-May-2010 SAID?? WAPI 310200 METAR WAPI 310200Z 10012KT 9999 SCT018 30/24 Q1013 NSC=  
31-May-2010 SAID?? WAPI 310300 METAR WAPI 310300Z 10012KT 9999 BKN018 31/25 Q1013 NSC=  
31-May-2010 SAID?? WAPI 310400 METAR WAPI 310400Z 11010KT 9999 SCT018 31/25 Q1012 NSC=  
31-May-2010 SAID?? WAPI 310500 METAR WAPI 310500Z 10012KT 9999 BKN018 30/25 Q1012 NSC=  
31-May-2010 SAID?? WAPI 310600 METAR WAPI 310600Z 09012KT 9999 SCT018 30/25 Q1012 NSC=  
31-May-2010 SAID?? WAPI 312300 METAR WAPI 312300Z 09008KT 9999 SCT018 28/24 Q1012 NSC=  
01-Jun-2010 SAID?? WAPI 010000 METAR WAPI 010000Z 08010 9999 BKN018 28/23 Q1012 NSC=  
01-Jun-2010 SAID?? WAPI 010100 METAR WAPI 010100Z 10008KT 9999 FEW018 30/25 Q1012 NSC=  
01-Jun-2010 SAID?? WAPI 010200 METAR WAPI 010200Z 10006KT 9999 BKN018 30/24 Q1012 NSC=  
01-Jun-2010 SAID?? WAPI 010300 METAR WAPI 010300Z 09008KT 9999 BKN018 30/24 Q1012 NSC=  
01-Jun-2010 SAID?? WAPI 010400 METAR WAPI 010400Z 10010KT 9999 SCT018 30/24 Q1011 NSC=  
01-Jun-2010 SAID?? WAPI 010500 METAR WAPI 010500Z 11012KT 9999 SCT018 31/24 Q1011 NSC=  
01-Jun-2010 SAID?? WAPI 010600 METAR WAPI 010600Z 10010KT 9999 BKN018 30/23 Q1011 NSC=  
01-Jun-2010 SAID?? WAPI 012300 METAR WAPI 012300Z 09005KT 9999 BKN018 27/24 Q1013 NSC=  
02-Jun-2010 SAID?? WAPI 020000 METAR WAPI 020000Z 10007KT 9999 SCT018 29/23 Q1013 NSC=  
02-Jun-2010 SAID?? WAPI 020100 METAR WAPI 020100Z 11010KT 9999 BKN018 30/23 Q1013 NSC=  
02-Jun-2010 SAID?? WAPI 020100 METAR WAPI 020100Z 10008KT 9999 FEW018 29/23 Q1013 NSC=  
02-Jun-2010 SAID?? WAPI 020300 METAR WAPI 020300Z 11008KT 9999 SCT018 30/23 Q1012 NSC=  
02-Jun-2010 SAID?? WAPI 020400 METAR WAPI 020400Z 09010KT 9999 FEW018 30/23 Q1013 NSC=  
02-Jun-2010 SAID?? WAPI 020600 METAR WAPI 020600Z 10008KT 9999 SCT018 30/23 Q 1012 NSC=  
02-Jun-2010 SAID?? WAPI 022300 METAR WAPI 022300Z 10006KT 9999 SCT018 28/22 Q1014 NSC=  
03-Jun-2010 SAID?? WAPI 030000 METAR WAPI 030000Z 12002KT 9999 FEW018 30/22 Q1013 NSC=  
03-Jun-2010 SAID?? WAPI 030200 METAR WAPI 030200Z 13012KT 9999 FEW018 30/22 Q1014 NSC=  
03-Jun-2010 SAID?? WAPI 030300 METAR WAPI 030300Z 13015KT 9999 SCT018 30/21 Q1014 NSC=  
03-Jun-2010 SAID?? WAPI 030400 METAR WAPI 030400Z 13012KT 9999 SCT018 31/22 Q1013 NSC=  
03-Jun-2010 SAID?? WAPI 030500 METAR WAPI 030500Z 10010KT 9999 FEW018 30/21 Q1013 NSC=  
03-Jun-2010 SAID?? WAPI 030600 METAR WAPI 030600Z 11007KT 9999 SCT018 30/26 Q1013 NSC=  
03-Jun-2010 SAID?? WAPI 032300 METAR WAPI 032300Z 10006KT 9999 FEW018 28/22 Q1014 NSG=  
04-Jun-2010 SAID?? WAPI 040000 METAR WAPI 040000Z 13008KT 9999 SCT018 29/22 Q1013 NSG=  
04-Jun-2010 SAID?? WAPI 040100 METAR WAPI 040100Z 13006KT 9999 SCT018 29/22 Q1013 NSG=  
04-Jun-2010 SAID?? WAPI 040200 METAR WAPI 040200Z 12005KT 9999 SCT018 30/22 Q1013 NSG=  
04-Jun-2010 SAID?? WAPI 040300 METAR WAPI 040300Z 12007KT 9999 SCT018 30/23 Q1013 NSG=  
04-Jun-2010 SAID?? WAPI 040400 METAR WAPI 040400Z 13009KT 9999 SCT018 30/23 Q1013 NSG=  
04-Jun-2010 SAID?? WAPI 040500 METAR WAPI 040500Z 14011KT 9999 BKN018 30/23 Q1013 NSG=  
04-Jun-2010 SAID?? WAPI 040600 METAR WAPI 040600Z 12012KT 9999 BKN016 29/22 Q1012 NSG=  
04-Jun-2010 SAID?? WAPI 042300 METAR WAPI 042300Z 10005KT 9999 FEW018 27/21 Q1012 NSC=  
05-Jun-2010 SAID?? WAPI 050000 METAR WAPI 050000Z 11009KT 9999 FEW018 28/21 Q1013 NSC=  
05-Jun-2010 SAID?? WAPI 050100 METAR WAPI 050100Z 10006KT 9999 BKN018 29/21 Q1013 NSC=  
05-Jun-2010 SAID?? WAPI 050200 METAR WAPI 050200Z 12005KT 9999 SCT018 29/22 Q1013 NSC=  
05-Jun-2010 SAID?? WAPI 050300 METAR WAPI 050300Z 10008KT 9999 BKN018 30/22 Q1012 NSC=  
05-Jun-2010 SAID?? WAPI 050400 METAR WAPI 050400Z 10008KT 9999 BKN018 30/23 Q1012 NSC=  
05-Jun-2010 SAID?? WAPI 050500 METAR WAPI 050500Z 11011KT 9999 BKN018 30/33 Q1012 NSC=  
05-Jun-2010 SAID?? WAPI 052300 METAR WAPI 052300Z 12007KT 9999 SCT018 27/22 Q1013 NSC=  
06-Jun-2010 SAID?? WAPI 060000 METAR WAPI 060000Z 11008KT 9999 SCT018 29/23 Q1012 NSC=  
06-Jun-2010 SAID?? WAPI 060100 METAR WAPI 060100Z 10009KT 9999 SCT018 29/22 Q1013 NSC=  
06-Jun-2010 SAID?? WAPI 060200 METAR WAPI 060200Z 08008KT 9999 FEW018 30/23 Q1013 NSC=  
06-Jun-2010 SAID?? WAPI 060300 METAR WAPI 060300Z 10010KT 9999 BKN018 30/23 Q1013 NSC=  
06-Jun-2010 SAID?? WAPI 060400 METAR WAPI 060500Z 11010KT 9999 BKN018 30/23 Q1013 NSC=  
06-Jun-2010 SAID?? WAPI 060500 METAR WAPI 060500Z 10009KT 9999 BKN018 29/23 Q1011 NSC=  
06-Jun-2010 SAID?? WAPI 060600 METAR WAPI 060600Z 10010KT 9999 BKN018 29/23 Q1011 NSC=  
06-Jun-2010 SAID?? WAPI 062300 METAR WAPI 062300Z 08010KT 9999 BKN016 27/23 Q1014 NSC=  
07-Jun-2010 SAID?? WAPI 070000 METAR WAPI 070000Z 12009KT 9999 SCT015 25/24 Q1013=  
07-Jun-2010 SAID?? WAPI 070100 METAR WAPI 070100Z 10008KT 9999 SCT015 29/24 Q1013=  
07-Jun-2010 SAID?? WAPI 070200 METAR WAPI 070200Z 11010KT 9999 BKN018 30/24 Q1013 NSC=  
07-Jun-2010 SAID?? WAPI 070300 METAR WAPI 070300Z 12008KT 9999 BKN015 31/24 Q1013 NSC=  
07-Jun-2010 SAID?? WAPI 070400 METAR WAPI 070400Z 10008KT 9999 BKN015 31/24 Q1013 NSC=  
07-Jun-2010 SAID?? WAPI 072300 METAR WAPI 072300Z 11008KT 9999 BKN018 27/24 Q1013 NSG=  
08-Jun-2010 SAID?? WAPI 080000 METAR WAPI 080000Z 13010KT 9999 BKN016 28/24 Q1013 NSG=  
08-Jun-2010 SAID?? WAPI 080100 METAR WAPI 080100Z 14008KT 9999 SCT018 29/24 Q1013 NSG=  
08-Jun-2010 SAID?? WAPI 080200 METAR WAPI 080200Z 12006KT 9999 FEW019 29/25 Q1013 NSG=  
08-Jun-2010 SAID?? WAPI 080300 METAR WAPI 080300Z 13012KT 9999 BKN016 31/25 Q1013 NSG=  
08-Jun-2010 SAID?? WAPI 082300 METAR WAPI 082300Z 12009 7000 RAIN OVC010 Q1013=  
09-Jun-2010 SAID?? WAPI 090000 METAR WAPI 090000Z 11008KT 9999 RA OVC010 25/24 Q1013=  
09-Jun-2010 SAID?? WAPI 090100 METAR WAPI 090100Z 10005KT 9999 BKN012 26/25 Q1013=  
09-Jun-2010 SAID?? WAPI 090200 METAR WAPI 090200Z 10007KT 9999 SCT015 27/25 Q1012=  
09-Jun-2010 SAID?? WAPI 090300 METAR WAPI 090300Z 10009KT 9999 SCT018 29/25 Q1012=  
09-Jun-2010 SAID?? WAPI 090400 METAR WAPI 090400Z 11010KT 9999 OVC015 29/25 Q1012=  
09-Jun-2010 SAID?? WAPI 090500 METAR WAPI 090500Z 09010KT 9999 SCT015 29/25 Q1012=  
09-Jun-2010 SAID?? WAPI 092300 METAR WAPI 092300Z 12007KT 9999 BKN016 27/24 Q1012=  
10-Jun-2010 SAID?? WAPI 100000 METAR WAPI 100000Z 11010 9999 BKN016 27/25 Q1013 NSC=  
10-Jun-2010 SAID?? WAPI 100100 METAR WAPI 100100Z 11012KT 9999 SCT015 28/25 Q1013 NSC=  
10-Jun-2010 SAID?? WAPI 100200 METAR WAPI 100200Z 10012KT 9999 BKN015 28/25 Q1013=  
10-Jun-2010 SAID?? WAPI 100400 METAR WAPI 100400Z 10006KT 9999 BKN015 28/25 Q1012=  
10-Jun-2010 SAID?? WAPI 100500 METAR WAPI 100500Z 12010KT 9999 SCT018 30/24 Q1013=  
10-Jun-2010 SAID?? WAPI 100500 METAR WAPI 100500Z 11008KT 9999 SCT013 27/25 Q1012=  
10-Jun-2010 SAID?? WAPI 100600 METAR WAPI 100600Z 10006KT 9999 BKN015 28/24 Q1012=  
10-Jun-2010 SAID?? WAPI 102300 METAR WAPI 102300Z 10012KT 9999 BKN016 27/24 Q1013=  
11-Jun-2010 SAID?? WAPI 110000 METAR WAPI 110000Z 15016KT 9999 BKN015 27/24 Q1013=  
11-Jun-2010 SAID?? WAPI 110100 METAR WAPI 110100Z 13015KT 9999 BKN015 29/25 Q1013=  
11-Jun-2010 SAID?? WAPI 110200 METAR WAPI 110200Z 12008KT 9999 SCT018 29/25 Q1014=  
11-Jun-2010 SAID?? WAPI 110300 METAR WAPI 110300Z 13020KT 9999 SCT018 30/25 Q1013=  
11-Jun-2010 SAID?? WAPI 110600 METAR WAPI 110600Z 12012KT 9999 SCT018 29/24 Q1012=  
11-Jun-2010 SAID?? WAPI 112300 METAR WAPI 112300Z 09011KT 60000 RA BKN014 25/24 Q1013=  
12-Jun-2010 SAID?? WAPI 120000 METAR WAPI 120000Z 13010KT 12000 60 INTERSLRA BKN014 25/24 Q1013=  
12-Jun-2010 SAID?? WAPI 120100 METAR WAPI 120100Z 12012KT 8000 60 INTERSLRA BKN014 25/24 Q1014=  
12-Jun-2010 SAID?? WAPI 120200 METAR WAPI 120200Z 12010KT 10000 60 INTERSLRA BKN014 25/24 Q1013=  
12-Jun-2010 SAID?? WAPI 120300 METAR WAPI 120300Z 14006KT 10000 60INTERSLRA BKN014 25/24 Q1013=  
12-Jun-2010 SAID?? WAPI 120400 METAR WAPI 120400Z 14004KT 8000 63 CNSMODRA BKN014 25/24 Q1013=  
12-Jun-2010 SAID?? WAPI 120500 METAR WAPI 120500Z 13006KT 8000 RA BKN014 25/25 Q1013=  
12-Jun-2010 SAID?? WAPI 120600 METAR WAPI 120600Z 12005 4000 63 CNSMODRA BKN014 26/25 Q1012=  
12-Jun-2010 SAID?? WAPI 122300 METAR WAPI 122300Z 11006 8000 RAIN OVC010 26/25 Q1013=  
13-Jun-2010 SAID?? WAPI 130000 METAR WAPI 130000Z 10009KT 9000 RAIN OVC010 26/25 Q1014=  
13-Jun-2010 SAID?? WAPI 130100 METAR WAPI 130100Z 11010KT 9999 BKN016 27/25 Q1014 NSC=  
13-Jun-2010 SAID?? WAPI 130600 METAR WAPI 130600Z 11006KT 9999 BKN015 27/24 Q1013 NSC=  
13-Jun-2010 SAID?? WAPI 132300 METAR WAPI 132300Z 09011KT 9999 SCT015 27/25 Q1013=  
14-Jun-2010 SAID?? WAPI 140000 METAR WAPI 140000Z 7.000 RA OVE010 26/25 Q1013=  
14-Jun-2010 SAID?? WAPI 140100 METAR WAPI 140100Z 9999 BKN016 26/25 Q1013 NSC=  
14-Jun-2010 SAID?? WAPI 140200 METAR WAPI 140200Z 11012KT 9999 OVE016 27/25 Q1013 NSC=  
14-Jun-2010 SAID?? WAPI 140300 METAR WAPI 140300Z 10008KT RA OVE010 26/25 1013 NSC=  
14-Jun-2010 SAID?? WAPI 140400 METAR WAPI 140400Z 11010KT 10.000 RA 0VE010 25/24 Q1014 NSC=  
14-Jun-2010 SAID?? WAPI 140600 METAR WAPI 140600Z 11010KT 9999 BKN015 27/25 Q1012 NSC=  
15-Jun-2010 SAID?? WAPI 150300 METAR WAPI 150300Z 10012KT 9999 BKN010 29/24 Q10128 NSC=  
15-Jun-2010 SAID?? WAPI 150500 METAR WAPI 150500Z 10014 9999 BKN016 29/24 Q1012 NSC=  
15-Jun-2010 SAID?? WAPI 150600 METAR WAPI 150600Z 09013KT 9999 BKN016 28/24 Q1012 NSC=  
15-Jun-2010 SAID?? WAPI 152300 METAR WAPI 152300Z 12014KTS 8000 RA BKN014 27/24 Q1013=  
16-Jun-2010 SAID?? WAPI 160000 METAR WAPI 160000Z 13014 KTS 9999 SCT 018 28/26 Q 1013 NSC=  
16-Jun-2010 SAID?? WAPI 160200 METAR WAPI 160200Z 10018 KTS 9999 CU/SC BKN 015 28/24 Q1013 NSC=  
16-Jun-2010 SAID?? WAPI 160400 METAR WAPI 160400Z 13013KTS 9999 BKN018 29/24 Q1013=  
16-Jun-2010 SAID?? WAPI 160500 METAR WAPI 160500Z 12011KTS 9999 BKN018 29/24 Q1013 NSG=  
16-Jun-2010 SAID?? WAPI 160600 METAR WAPI 160600Z 13010KTS 9999 BKN018 29/24 Q1013 NSG=  
16-Jun-2010 SAID?? WAPI 162300 METAR WAPI 162300Z 10006KT 9999 BKN018 27/24 Q1013 NSC=  
17-Jun-2010 SAID?? WAPI 170000 METAR WAPI 170000Z 13007KT 9999 BKN015 28/24 Q1013=  
17-Jun-2010 SAID?? WAPI 170100 METAR WAPI 170100Z 11006KT 9999 BKN015 29/25 Q1013=  
17-Jun-2010 SAID?? WAPI 170200 METAR WAPI 170200Z 12010KT 9999 SCT018 29/25 Q1013 NSC=  
17-Jun-2010 SAID?? WAPI 170300 METAR WAPI 170300Z 10008KT 9999 BKN015 29/25 Q1013=  
17-Jun-2010 SAID?? WAPI 170400 METAR WAPI 170400Z 11008KT 9999 BKN018 30/26 Q1013=  
17-Jun-2010 SAID?? WAPI 170400 METAR WAPI 170500Z 12010KT 9999 BKN018 30/25 Q1013=  
17-Jun-2010 SAID?? WAPI 170600 METAR WAPI 170600Z 09012KT 9999 BKN015 29/24 Q1012=  
17-Jun-2010 SAID?? WAPI 172300 METAR WAPI 172300Z 10012KT 9999 BKN017 27/23 1014 NSC=  
18-Jun-2010 SAID?? WAPI 180000 METAR WAPI 180000Z 19013KT 9999 BKN018 29/23 Q1014 NSC=  
18-Jun-2010 SAID?? WAPI 180100 METAR WAPI 180100Z 08006KT 9999 FEW018 29/24 Q1013 NSC=  
18-Jun-2010 SAID?? WAPI 180200 METAR WAPI 180200Z 10012KT 9999 FEW018 29/24 Q1013 NSC=  
18-Jun-2010 SAID?? WAPI 180300 METAR WAPI 180300Z 09010KT 9999 BKN018 30/24 Q1013 NSC=  
18-Jun-2010 SAID?? WAPI 180500 METAR WAPI 180500Z 11013KT 9999 FEW018 30/24 Q1013 NSC=  
18-Jun-2010 SAID?? WAPI 180400 METAR WAPI 180600Z 10013KT 9999 BKN018 30/23 Q 1013 NSC=  
18-Jun-2010 SAID?? WAPI 180600 METAR WAPI 180600Z 10014KT 9999 SCT018 29/23 Q1012 NSC=  
18-Jun-2010 SAID?? WAPI 182300 METAR WAPI 182300Z 09012KT 9999 BKN017 28/21 Q1014 NSC=  
19-Jun-2010 SAID?? WAPI 190000 METAR WAPI 190000Z 10013KT 9999 SCT018 29/21 Q1015 NSC=  
19-Jun-2010 SAID?? WAPI 190100 METAR WAPI 190100Z 11015KT 9999 SCT018 29/22 Q1013 NSC=  
19-Jun-2010 SAID?? WAPI 190200 METAR WAPI 190200Z 10012KT 9999 SCT018 29/23 Q1013 NSC=  
19-Jun-2010 SAID?? WAPI 190300 METAR WAPI 190300Z 10013KT 9999 SCT0018 30/23 Q1013 NSC=  
19-Jun-2010 SAID?? WAPI 190400 METAR WAPI 190400Z 09013KT 9999 BKN018 29/23 Q1013 NSC=  
19-Jun-2010 SAID?? WAPI 190500 METAR WAPI 190500Z 10012KT 9999 BKN015 29/22 Q1013 NSC=  
19-Jun-2010 SAID?? WAPI 190600 METAR WAPI 190600Z 11010KT 9999 SCT015 30/22 Q1013 NSC=  
19-Jun-2010 SAID?? WAPI 192300 METAR WAPI 192300Z 10014 9999 BKN018 27/24 Q1013 NSC=  
20-Jun-2010 SAID?? WAPI 200000 METAR WAPI 200000Z 11014KTS 8000 RA BKN016 26/25 Q1014=  
20-Jun-2010 SAID?? WAPI 200000 METAR WAPI 200100Z 11012KTS 10000 RA BKN016 26/24 Q1014=  
20-Jun-2010 SAID?? WAPI 200200 METAR WAPI 200200Z 07010KTS 9999 SCT016 28/24 Q1013 NSG=  
20-Jun-2010 SAID?? WAPI 200300 METAR WAPI 200300Z 09013KTS 10000 RA BKN016 29/25 Q1013=  
20-Jun-2010 SAID?? WAPI 200400 METAR WAPI 200400Z 10015KTS 8000 RA BKN016 28/24 Q1013=  
20-Jun-2010 SAID?? WAPI 200500 METAR WAPI 200500Z 10018KTS 8000 RA BKN016 28/24 Q1012=  
20-Jun-2010 SAID?? WAPI 200600 METAR WAPI 200600Z 11020KTS 8000 RA BKN016 27/24 Q1012=  
20-Jun-2010 SAID?? WAPI 202300 METAR WAPI 202300Z 11020KT 9999 BKN016 27/23 Q1013 NSC=  
21-Jun-2010 SAID?? WAPI 210000 METAR WAPI 210000Z 10019KT 9999 BKN018 28/23 Q1014=  
21-Jun-2010 SAID?? WAPI 210100 METAR WAPI 210100Z 11020KT 9999 SCT018 28/23 Q1013=  
21-Jun-2010 SAID?? WAPI 250100 METAR WAPI 210100Z 10010KT 9999 BKN018 29/25 Q1010 NSC=  
21-Jun-2010 SAID?? WAPI 200200 METAR WAPI 210200Z 10020KT 9999 BKN018 29/24 Q1013=  
21-Jun-2010 SAID?? WAPI 210300 METAR WAPI 210300Z 10010KT 9999 BKN018 29/24 Q1013 NSC=  
21-Jun-2010 SAID?? WAPI 210600 METAR WAPI 210600Z 10013KT 9999 SCT018 29/23 Q1013 NSC=  
21-Jun-2010 SAID?? WAPI 212300 METAR WAPI 212300Z 11019KT 9999 BKN015 26/23 Q1013 NSC=  
22-Jun-2010 SAID?? WAPI 220000 METAR WAPI 220000Z 10023KT 9999 SCT015 27/23 Q104 NSC=  
22-Jun-2010 SAID?? WAPI 220100 METAR WAPI 220100Z 11020KT 9999 BKN015 28/23 Q1013 NSC=  
22-Jun-2010 SAID?? WAPI 220200 METAR WAPI 220200Z 10018KT 9999 SCT015 28/23 Q1013 NSC=  
22-Jun-2010 SAID?? WAPI 220300 METAR WAPI 220300Z 11018KT 9999 SCT015 Q1013=  
22-Jun-2010 SAID?? WAPI 220400 METAR WAPI 220400Z 09016KT 9999 SCT015 28/23 Q1013 NSC=  
22-Jun-2010 SAID?? WAPI 220500 METAR WAPI 220500Z 10014KT 9999 BKN015 28/23 Q1013 NSC=  
22-Jun-2010 SAID?? WAPI 220600 METAR WAPI 220600Z 10012KT 9999 BKN015 28/23 Q1012=  
22-Jun-2010 SAID?? WAPI 222300 METAR WAPI 222300Z 09011KT 9999 BKN016 27/25 Q1013 NSC=  
23-Jun-2010 SAID?? WAPI 230000 METAR WAPI 230000Z 11009KT 9999 SCT015 27/25 Q1014=  
23-Jun-2010 SAID?? WAPI 230100 METAR WAPI 230100Z 10008KT 9999 SCT015 29/24 Q1013=  
23-Jun-2010 SAID?? WAPI 230200 METAR WAPI 230200Z 09010KT 9999 BKN015 29/26 Q1013 NSC=  
23-Jun-2010 SAID?? WAPI 230300 METAR WAPI 230300Z 10010KT 9999 BKN015 29/26 Q1013=  
23-Jun-2010 SAID?? WAPI 230400 METAR WAPI 230400Z 08011KT 9999 BKN010 30/26 Q1013 NSC=  
23-Jun-2010 SAID?? WAPI 230500 METAR WAPI 230500Z 10010KT 9999 BKN015 Q1013 NSC=  
23-Jun-2010 SAID?? WAPI 230600 METAR WAPI 230600Z 11006KT 9999 SCT018 30/26 Q1002 NOSIG=  
23-Jun-2010 SAID?? WAPI 232300 METAR WAPI 232300Z 11014KTS 4000 RA BKN014 25/24 Q1012=  
24-Jun-2010 SAID?? WAPI 240200 METAR WAPI 240200Z 33006KTS 4000 RA BKN012 23/23 Q1012=  
24-Jun-2010 SAID?? WAPI 242300 METAR WAPI 242300Z 09010KT 9999 SCT018 27/24 Q1011 NSC=  
25-Jun-2010 SAID?? WAPI 250000 METAR WAPI 250000Z 08006KT 9999 28/25 BKN015 Q1010 NSC=  
25-Jun-2010 SAID?? WAPI 250200 METAR WAPI 250200Z 08013KT 9999 BKN018 29/26 Q1010 NSC=  
25-Jun-2010 SAID?? WAPI 250300 METAR WAPI 250300Z 09010KT 9999 BKN015 28/25 Q1011=  
25-Jun-2010 SAID?? WAPI 250400 METAR WAPI 250400Z 10015KT 9999 BKN018 29/25 Q1010 NSC=  
25-Jun-2010 SAID?? WAPI 250500 METAR WAPI 250500Z 09010KT 9999 SCT015 29/25 Q1010=  
25-Jun-2010 SAID?? WAPI 250600 METAR WAPI 250600Z 09011KT 9999 SCT015 29/25 Q1010=  
25-Jun-2010 SAID?? WAPI 252300 METAR WAPI 252300Z 10013KT 9999 SCT016 27/24 Q1011 NSC=  
26-Jun-2010 SAID?? WAPI 260000 METAR WAPI 260000Z 10012KT 9999 SCT018 29/23 Q1012 NSC=  
26-Jun-2010 SAID?? WAPI 260100 METAR WAPI 260100Z 09008KT 9999 BKN018 29/24 Q1012 NSC=  
26-Jun-2010 SAID?? WAPI 260200 METAR WAPI 260200Z 10012KT 9999 FEW018 29/24 Q1012 NSC=  
26-Jun-2010 SAID?? WAPI 260300 METAR WAPI 260300Z 11014KT 9999 FEW018 30/24 Q1012 NSC=  
26-Jun-2010 SAID?? WAPI 260400 METAR WAPI 260400Z 09014 9999 FEW018 30/23 Q1012 NSC=  
26-Jun-2010 SAID?? WAPI 260500 METAR WAPI 260500Z 10013KT 9999 SCT018 29/23 Q1012 NSC=  
26-Jun-2010 SAID?? WAPI 260600 METAR WAPI 260600Z 09012KT 9999 SCT18 29/23 Q1011 NSC=  
27-Jun-2010 SAID?? WAPI 270000 METAR WAPI 270000Z 09011KT 9999 BKN017 27/24 Q1012 NSC=  
27-Jun-2010 SAID?? WAPI 270100 METAR WAPI 270100Z 10010KT 9999 BKN015 28/24 Q1012 NSC=  
27-Jun-2010 SAID?? WAPI 270200 METAR WAPI 270200Z 11015KT 9999 BKN015 28/24 Q1012=  
27-Jun-2010 SAID?? WAPI 270300 METAR WAPI 270300Z 13015KT 9999 BKN015 28/24 Q1012=  
27-Jun-2010 SAID?? WAPI 270400 METAR WAPI 270400Z 10012KT 9999 BKN015 30/24 Q1012 NSC=  
27-Jun-2010 SAID?? WAPI 270500 METAR WAPI 270500Z 09010KT 9999 BKN018 29/24 Q1012 NSC=  
27-Jun-2010 SAID?? WAPI 270600 METAR WAPI 270600Z 10009KT 9999 BKN018 29/24 Q1011 NSC=  
28-Jun-2010 SAID?? WAPI 280000 METAR WAPI 280000Z 12006KTS 8000 RA 5BKN 014 26/24 Q1011=  
28-Jun-2010 SAID?? WAPI 280100 METAR WAPI 280100Z 13004KTS 10000 RA 4SCT014 26/25 Q1011=  
28-Jun-2010 SAID?? WAPI 280200 METAR WAPI 280200Z 12005 KTS 10000 RA BKN014 26/25 Q1011=  
28-Jun-2010 SAID?? WAPI 280300 METAR WAPI 280300Z 14004KTS 8000 RA BKN014 26/25 Q1011=  
28-Jun-2010 SAID?? WAPI 280400 METAR WAPI 280400Z 14009KTS 3000 RA BKN014 25/23 Q1011=  
28-Jun-2010 SAID?? WAPI 280500 METAR WAPI 280500Z 13008KTS 8000 RA BKN012 26/24 Q1011=  
28-Jun-2010 SAID?? WAPI 280600 METAR WAPI 280600Z 12008KTS 8000 RA BKN012 25/23 Q1010=  
28-Jun-2010 SAID?? WAPI 282300 METAR WAPI 282300Z 10013KT 9999 BKN015 26/24 Q1012 NSC=  
29-Jun-2010 SAID?? WAPI 290100 METAR WAPI 290100Z 09012KT 9999 BKN014 26/23 Q1011=  
29-Jun-2010 SAID?? WAPI 290200 METAR WAPI 290200Z 10013KT 9999 SCT015 27/24 Q1011=  
29-Jun-2010 SAID?? WAPI 290300 METAR WAPI 290300Z 08014KT 9999 SCT015 28/25 Q1011=  
29-Jun-2010 SAID?? WAPI 290400 METAR WAPI 290400Z 10010KT 9999 BKN015 25/24 Q1011=  
29-Jun-2010 SAID?? WAPI 290500 METAR WAPI 290500Z 09008KT 9999 BKN015 26/25 Q1011=  
29-Jun-2010 SAID?? WAPI 290600 METAR WAPI 290600Z 09013KT 9999 BKN015 27/25 Q1011=  
29-Jun-2010 SAID?? WAPI 292300 METAR WAPI 292300Z 10013KT 9999 BKN015 25/23 NSC=  
30-Jun-2010 SAID?? WAPI 300000 METAR WAPI 300000Z 10010KT 9999 BKN015 26/24 Q1013=  
30-Jun-2010 SAID?? WAPI 300100 METAR WAPI 300100Z 11012KT 9999 SCT015 26/24 Q1012=  
30-Jun-2010 SAID?? WAPI 300200 METAR WAPI 300200Z 6000 RA BKN015 26/25 Q1013 NSC=  
30-Jun-2010 SAID?? WAPI 300300 METAR WAPI 300300Z 07006KT 2000 RA BKN012 25/25 Q1013=  
30-Jun-2010 SAID?? WAPI 300400 METAR WAPI 300400Z 08008KT 9999 BKN015 25/24 Q1013=  
30-Jun-2010 SAID?? WAPI 300500 METAR WAPI 300500Z 07013KT 9999 BKN015 27/25 Q1013=  
30-Jun-2010 SAID?? WAPI 300600 METAR WAPI 300600Z 07011KT 9999 SCT015 27/24 Q1011=  
30-Jun-2010 SAID?? WAPI 302300 METAR WAPI 302300Z 10010KT 9999 BKN016 27/24 Q1012 NSC=  
01-Jul-2010 SAID?? WAPI 010000 METAR WAPI 010000Z 10006KT 9999 SCT015 27/24 Q1012 NSC=  
01-Jul-2010 SAID?? WAPI 010100 METAR WAPI 010100Z 10008KT 9999 BKN018 28/25 Q1012 NSC=  
01-Jul-2010 SAID?? WAPI 010200 METAR WAPI 010200Z 10012KT 9999 SCT018 29/24 Q1012 NSC=  
01-Jul-2010 SAID?? WAPI 010300 METAR WAPI 010300Z SCT018 29/24 Q1012 NSC=  
01-Jul-2010 SAID?? WAPI 010400 METAR WAPI 010400Z 09014KT 9999 SCT018 29/24 Q1012 NSC=  
01-Jul-2010 SAID?? WAPI 010500 METAR WAPI 010500Z 10016KT 9999 SCT018 29/24 Q1012 NSC=  
01-Jul-2010 SAID?? WAPI 012300 METAR WAPI 012300Z 10010KTS 8000 RA BKN016 27/25 Q1013=  
02-Jul-2010 SAID?? WAPI 020400 METAR WAPI 020400Z 12014KTS 9999 5BKN 29/25 Q1013 NSG=  
02-Jul-2010 SAID?? WAPI 020500 METAR WAPI 020500Z 13012KTS 9999 BKN016 29/25 Q1012=  
02-Jul-2010 SAID?? WAPI 020600 METAR WAPI 020600Z 10012KTS 9999 BKN018 28/25 Q1012 NSG=  
02-Jul-2010 SAID?? WAPI 022300 METAR WAPI 022300Z 10014KT 9999 BKN016 27/24 Q1013 NSC=  
03-Jul-2010 SAID?? WAPI 030400 METAR WAPI 030400Z 11017KT 9999 OCV010 28/25 Q1013 NSC=  
03-Jul-2010 SAID?? WAPI 030500 METAR WAPI 030500Z 10020KT 9999 OVC010 27/25 Q1012 NSC=  
03-Jul-2010 SAID?? WAPI 030600 METAR WAPI 030600Z 10017KT 9999 BKN015 28/25 Q10119 NSC=  
03-Jul-2010 SAID?? WAPI 032300 METAR WAPI 032300Z 10012KT 9999 BKN015 26/24 Q1012 NSC=  
04-Jul-2010 SAID?? WAPI 040600 METAR WAPI 040600Z 11014KT 9999 BKN015 28/25 Q1012 NSC=  
04-Jul-2010 SAID?? WAPI 042300 METAR WAPI 042300Z 11008KT 9999 BKN016 27/25 Q1012 NSC=  
05-Jul-2010 SAID?? WAPI 050000 METAR WAPI 050000Z 10010KT 9999SCT010 28/25 Q1012 NSC=  
05-Jul-2010 SAID?? WAPI 050100 METAR WAPI 050100Z 10012KT 9999 SCT018 29/25 Q1012 NSC=  
05-Jul-2010 SAID?? WAPI 050300 METAR WAPI 050200Z 09015KT 9999 SCT018 29/25 Q1011 NSC=  
05-Jul-2010 SAID?? WAPI 050300 METAR WAPI 050300Z 09012KT 9999 SCT018 29/25 Q1011 NSC=  
05-Jul-2010 SAID?? WAPI 050400 METAR WAPI 050400Z 11009KT 9999 BKN018 30/25 Q1011 NSC=  
05-Jul-2010 SAID?? WAPI 050600 METAR WAPI 050600Z 10007KT 9999 BKN018 29/25 Q1010 NSC=  
05-Jul-2010 SAID?? WAPI 050600 METAR WAPI 050600Z 10007KTS 9999 BKN018 29/25 Q1010 NSG=  
05-Jul-2010 SAID?? WAPI 052300 METAR WAPI 052300Z 08004KT 9999 SCT018 26/25 Q1012 NSC=  
06-Jul-2010 SAID?? WAPI 060000 METAR WAPI 060000Z 10008KT 9999 SCT018 28/25 Q1012 NSG=  
06-Jul-2010 SAID?? WAPI 060100 METAR WAPI 060100Z 11006KTS 9999 SCT018 28/25 Q1012 NSG=  
06-Jul-2010 SAID?? WAPI 060200 METAR WAPI 060200Z 08007KTS 9999 SCT018 29/24 Q1012 NSG=  
06-Jul-2010 SAID?? WAPI 060300 METAR WAPI 060300Z 09010KTS 9999 SCT018 30/25 Q1011 NSG=  
06-Jul-2010 SAID?? WAPI 060400 METAR WAPI 060400Z 10007KTS 9999 BKN018 30/25 Q1011 NSG=  
06-Jul-2010 SAID?? WAPI 060500 METAR WAPI 060500Z 11010KT 9999 SCT018 30/25 Q1011 NSC=  
06-Jul-2010 SAID?? WAPI 060600 METAR WAPI 060600Z 09008KT 9999 BKN015 28/24 Q1011 NSC=  
06-Jul-2010 SAID?? WAPI 062300 METAR WAPI 062300Z 10005KT 9999 BKN018 26/24 Q1012 NSC=  
07-Jul-2010 SAID?? WAPI 070100 METAR WAPI 070100Z 10012 KT 18000 9999 CU/SC BKN 017 28/25 Q1013NSC=  
07-Jul-2010 SAID?? WAPI 070300 METAR WAPI 070300Z 10018 KT 170000 9999 CU/SC 6 BKN 015 28/25 Q 1013 NSC=  
07-Jul-2010 SAID?? WAPI 070400 METAR WAPI 070400Z 10015 KT 170000 9999 CU/SC 7 BKN 015 28/25 Q1013 NSC=  
07-Jul-2010 SAID?? WAPI 070500 METAR WAPI 070500Z 10015 KT 15000 9999 CU/SC 6BKN 015 27/24 Q 1012.8=  
07-Jul-2010 SAID?? WAPI 070600 METAR WAPI 070600Z 10013KT 9999 BKN016 27/24 NSC=  
08-Jul-2010 SAID?? WAPI 080500 METAR WAPI 080500Z 10015KT 9999 OVC010 26/24 Q1012 NSC=  
08-Jul-2010 SAID?? WAPI 080600 METAR WAPI 080600Z 10012KT 3000 RA OVC010 25/24 Q1012=  
08-Jul-2010 SAID?? WAPI 082300 METAR WAPI 082300Z 08008KT 3000 RAIN OVC010 24/23 Q1013=  
09-Jul-2010 SAID?? WAPI 090000 METAR WAPI 090000Z 08006KT 9999 RA OCV010 25/24 Q1013 NSC=  
09-Jul-2010 SAID?? WAPI 090225 METAR WAPI 090100Z 08008 KT 9999 OVC010 26/24 Q1013 NSC=  
09-Jul-2010 SAID?? WAPI 090225 METAR WAPI 090200Z 10008KT 9999 BKN018 27/24 Q1013 NSC=  
09-Jul-2010 SAID?? WAPI 090300 METAR WAPI 090300Z 10010KT 9999 BKN018 28/25 Q1013 NSC=  
09-Jul-2010 SAID?? WAPI 090400 METAR WAPI 090400Z 09007KT 9999 BKN018 28/24 Q1013 NSC=  
09-Jul-2010 SAID?? WAPI 090515 METAR WAPI 090500Z 10010KT 9999 BKN010 28/24 Q1013 NSC=  
09-Jul-2010 SAID?? WAPI 090600 METAR WAPI 090600Z 10010KT 9999 BKN010 28/25 Q1013 NSC=  
09-Jul-2010 SAID?? WAPI 092300 METAR WAPI 092300Z 10012KTS 9999 SCT016 27/23 Q1013 NSG=  
10-Jul-2010 SAID?? WAPI 100000 METAR WAPI 100000Z 09005KTS 10000 RA SCT016 26/24 Q1014=  
10-Jul-2010 SAID?? WAPI 100100 METAR WAPI 100100Z 07006KTS 9999 SCT016 28/24 Q1014 NSG=  
10-Jul-2010 SAID?? WAPI 100200 METAR WAPI 100200Z 08010KTS 9999 SCT018 28/24 Q1013 NSG=  
10-Jul-2010 SAID?? WAPI 100300 METAR WAPI 100300Z 10012KTS 9999 FEW018 29/24 Q1013 NSG=  
10-Jul-2010 SAID?? WAPI 100400 METAR WAPI 100400Z 11014KTS 9999 SCT018 29/24 Q1013 NSG=  
10-Jul-2010 SAID?? WAPI 100500 METAR WAPI 100500Z 08011KTS 9999 SCT018 29/24 Q1013 NSG=  
10-Jul-2010 SAID?? WAPI 100600 METAR WAPI 100600Z 10010KTS 9999 SCT018 28/23 Q1013 NSG=  
10-Jul-2010 SAID?? WAPI 102300 METAR WAPI 102300Z 100KT 17000 9999 CU5 BKN 018 27/23 Q1014.0 NSC=  
11-Jul-2010 SAID?? WAPI 110200 METAR WAPI 110200Z 10010KT 17000 9999 CU/SC6BKN 018 28/23 Q1014 NSC=  
11-Jul-2010 SAID?? WAPI 110300 METAR WAPI 110300Z 09015 KT 17000 9999 CU/SC5BKN 018 28/24 Q1013 NSC=  
11-Jul-2010 SAID?? WAPI 110500 METAR WAPI 110500Z 08010 KT 17000 9999 CU/SCBKN018 29/24 Q1013 NSC=  
11-Jul-2010 SAID?? WAPI 112300 METAR WAPI 112300Z 10010KT 9999 BKN018 27/24 Q1013 NSC=  
12-Jul-2010 SAID?? WAPI 122300 METAR WAPI 122300Z 10010KT 9999 BKN018 26/23 Q1012 Q1012 NSC=  
13-Jul-2010 SAID?? WAPI 130000 METAR WAPI 130000Z 11010KT 9999 BKN018 27/23 Q1012=  
13-Jul-2010 SAID?? WAPI 130100 METAR WAPI 130100Z 11012KT 9999 BKN018 29/23 Q1012=  
13-Jul-2010 SAID?? WAPI 130200 METAR WAPI 130200Z 10009KT 9999 BKN018 29/23 Q1012=  
13-Jul-2010 SAID?? WAPI 130300 METAR WAPI 130300Z 10016KT 9999 SCT018 29/22 Q1012=  
13-Jul-2010 SAID?? WAPI 130400 METAR WAPI 130400Z 13012KT 9999 BKN018 29/23 Q1013 NSC=  
13-Jul-2010 SAID?? WAPI 132300 METAR WAPI 132300Z 10004KT 9999 BKN016 26/23 Q1012 NSC=  
14-Jul-2010 SAID?? WAPI 140000 METAR WAPI 140000Z 10008KT 9999 BKN016 28/23 Q1012 NSG=  
14-Jul-2010 SAID?? WAPI 140100 METAR WAPI 140100Z 12006KTS 8000 RA SCT016 26/24 Q1013=  
14-Jul-2010 SAID?? WAPI 140200 METAR WAPI 140200Z 08008KTS 9999 BKN016 28/24 Q1013 NSG=  
14-Jul-2010 SAID?? WAPI 140300 METAR WAPI 140300Z 12013KTS 9999 BKN016 29/24 Q1012 NSG=  
14-Jul-2010 SAID?? WAPI 140400 METAR WAPI 140400Z 11015KTS 8000 RA BKN016 27/24 Q1013=  
14-Jul-2010 SAID?? WAPI 140500 METAR WAPI 140500Z 10010 KTS 8.888 RA BKN016 26/22 Q1012 NCS=  
14-Jul-2010 SAID?? WAPI 140600 METAR WAPI 140600Z 11006KT 9999 BKN016 26/23 Q1012=  
14-Jul-2010 SAID?? WAPI 142300 METAR WAPI 142300Z 10015KT 9999 BKN016 26/22 Q1012 NSC=  
15-Jul-2010 SAID?? WAPI 150000 METAR WAPI 150000Z 09012 KT 17000 9999 SCT 016 27/23 Q1012 NSC=  
15-Jul-2010 SAID?? WAPI 150200 METAR WAPI 150200Z 11013 KT 17000 9999 CU6BKN 017 29/26 Q1012 NSC=  
15-Jul-2010 SAID?? WAPI 150500 METAR WAPI 150500Z 09010KT 9999 BKN016 29/24 Q10117 Q1011 NSC=  
15-Jul-2010 SAID?? WAPI 150600 METAR WAPI 150600Z 09010KT 9999 BKN016 28/25 Q1010 NSC=  
16-Jul-2010 SAID?? WAPI 160500 METAR WAPI 160500Z 09020KT 9999 BKN018 29/23 Q1012 NSC=  
16-Jul-2010 SAID?? WAPI 162300 METAR WAPI 162300Z 10007KT 9999 BKN014 26/23 Q1012 NSC=  
17-Jul-2010 SAID?? WAPI 170000 METAR WAPI 170000Z 11010KT 9999 BKN014 26/24 Q1013=  
17-Jul-2010 SAID?? WAPI 170100 METAR WAPI 170100Z 11013KT 9999 BKN014 27/24 Q1013 NSC=  
17-Jul-2010 SAID?? WAMM 170400 METAR WAPI 170400Z 10012KT 9999 BKN014 28/24 Q1012 NSC=  
17-Jul-2010 SAID?? WAPI 170500 METAR WAPI 170500Z 09013KT 8000 RA BKN014 28/24 Q1012=  
17-Jul-2010 SAID?? WAPI 170600 METAR WAPI 170600Z 10010KT 9999 BKN014 27/24 Q1011 NSC=  
18-Jul-2010 SAID?? WAPI 180300 METAR WAPI 180300Z 13014KTS 9999 BKN016 28/25 Q1012 NSG=  
18-Jul-2010 SAID?? WAPI 180400 METAR WAPI 180400Z 14016KTS 9999 BKN016 29/25 Q1012 NSG=  
18-Jul-2010 SAID?? WAPI 180500 METAR WAPI 180500Z 15010KTS 8000 RA BKN014 27/25 Q1012=  
18-Jul-2010 SAID?? WAPI 180600 METAR WAPI 180600Z 12012KTS 9999 BKN016 28/24 Q1012 NSG=  
18-Jul-2010 SAID?? WAPI 182300 METAR WAPI 182300Z 10010KT 9999 BKN017 26/23 Q1012 NSC=  
19-Jul-2010 SAID?? WAPI 190000 METAR WAPI 190000Z 09012 KT 120000 9999 CU/5 BKN 018 27/23 Q1012 NSC=  
19-Jul-2010 SAID?? WAPI 190100 METAR WAPI 190100Z 13015 KT 17000 9999 CU SCT 018 29/23 Q1013 NSC=  
19-Jul-2010 SAID?? WAPI 190300 METAR WAPI 190300Z 11020 KT 17000 9999 CU/4 SCT 018 28/23 Q1013 NSC=  
19-Jul-2010 SAID?? WAPI 190500 METAR WAPI 190500Z 09017KT 9999 BKN017 28/24 Q1012 NSC=  
19-Jul-2010 SAID?? WAPI 190600 METAR WAPI 190600Z 10012KT 9999 BKN017 29/23 Q1011 NSC=  
19-Jul-2010 SAID?? WAPI 192300 METAR WAPI 192300Z 09012KT 9999 BKN017 26/22 Q1012 NSC=  
20-Jul-2010 SAID?? WAPI 200500 METAR WAPI 200500Z 11012KT 9999 BKN017 28/23 Q1012 NSC=  
21-Jul-2010 SAID?? WAMM 210100 METAR WAPI 210100Z 10019 KT 9999 BKN018 28/23 K1013 NOSIC=  
21-Jul-2010 SAID?? WAPP 210200 METAR WAPI 210200Z 03004KT 5000 BKN014 25/24 Q1011=  
21-Jul-2010 SAID?? WAPI 210300 METAR WAPI 210300Z 11019KTS 9999 SCT018 28/23 Q1012 NSG=  
21-Jul-2010 SAID?? WAPI 210400 METAR WAPI 210400Z 11017KT 9999 SCT018 29/23 Q1012 NSC=  
21-Jul-2010 SAID?? WAPI 210500 METAR WAPI 210500Z 11017KT 9999 BKN018 29/23 Q1012 NSC=  
21-Jul-2010 SAID?? WAPI 210600 METAR WAPI 210600Z 12013KT 9999 BKN018 28/22 Q1012 NSC=  
21-Jul-2010 SAID?? WAPI 210000 METAR WAPI 212300Z 10010KT 8000 HAZE BKN014 27/24 Q1011=  
22-Jul-2010 SAID?? WAPI 220000 METAR WAPI 220000Z 12010KT 9999 SCT016 26/23 Q1012 NSC=  
22-Jul-2010 SAID?? WAPI 220100 METAR WAPI 220100Z 13008KT 9999 SCT016 27/23 Q1013 NSC=  
22-Jul-2010 SAID?? WAPI 220200 METAR WAPI 220200Z 14011KTS 9999 BKN016 28/23 Q1012 NSG=  
22-Jul-2010 SAID?? WAPI 220300 METAR WAPI 220300Z 12013KTS 9999 BKN016 29/24 Q1012 NSG=  
22-Jul-2010 SAID?? WAPI 220400 METAR WAPI 220400Z 15011KT 9999 BKN016 29/24 Q1012 NSG=  
22-Jul-2010 SAID?? WAPI 220600 METAR WAPI 220600Z 12008KT 9999 SCT016 238/23 Q1012 NSC=  
22-Jul-2010 SAID?? WAPI 222300 METAR WAPI 222300Z 12012KT 9999 BKN015 26/24 Q1012 NSC=  
23-Jul-2010 SAID?? WAPI 230000 METAR WAPI 230000Z 11013KT 9999 BKN015 26/24 Q1012=  
23-Jul-2010 SAID?? WAPI 230200 METAR WAPI 230200Z 10015 KT 10000 9999 CU/SC BKN 013 27/25 Q1012 NSC=  
23-Jul-2010 SAID?? WAPI 230300 METAR WAPI 230300Z 13013 KT CU/SC 5 BKN 015 28/25 Q1012 NSC=  
23-Jul-2010 SAID?? WAPI 230500 METAR WAPI 230500Z 11012KT RA OVC010 25/24 Q1012=  
23-Jul-2010 SAID?? WAPI 230600 METAR WAPI 230600Z 12012KT RA 9000 OVC010 25/23 1012=  
23-Jul-2010 SAID?? WAPI 232300 METAR WAPI 232300Z 12013KT RA 3000 OVC010 25/24 Q1012=  
24-Jul-2010 SAID?? WAPI 240500 METAR WAPI 240500Z 13015KT 9999 BKN010 28/25 Q1011 NSC=  
24-Jul-2010 SAID?? WAPI 240600 METAR WAPI 240600Z 10012KT RA 8000 BKN010 27/25 Q1011=  
24-Jul-2010 SAID?? WAPI 242300 METAR WAPI 242300Z 12008KT RA 8000 BKNOVC010 25/24 Q1011=  
25-Jul-2010 SAID?? WAPI 250400 METAR WAPI 250400Z 09017KT 9999 BKN015 29/25 Q1011 NSC=  
25-Jul-2010 SAID?? WAPI 250500 METAR WAPI 250500Z 10013KT 9999 BKN015 28/25 Q1011 NSC=  
25-Jul-2010 SAID?? WAPI 250600 METAR WAPI 250600Z 11012KT 9999 BKN015 28/25 Q1011 NSC=  
25-Jul-2010 SAID?? WAPI 252300 METAR WAPI 252300Z 11008KT 9999 SCT018 27/24 Q1012 NSG=  
26-Jul-2010 SAID?? WAPI 260000 METAR WAPI 260000Z 11014 9999 BKN 016 28/25 Q1012 NSC=  
26-Jul-2010 SAID?? WAPI 260100 METAR WAPI 260100Z 10012KT 9999 BKN 016 28/24 Q1012NSC=  
26-Jul-2010 SAID?? WAPI 260200 METAR WAPI 260200Z 09016KT 9999 BKN 016 28/25 Q1012NSC=  
26-Jul-2010 SAID?? WAPI 260300 METAR WAPI 260300Z 08014KT 9999 BKN 016 29/25 Q1012NSC=  
26-Jul-2010 SAID?? WAPI 260400 METAR WAPI 260400Z 07012KT 9999 BKN016 29/25 Q1011 NSG=  
26-Jul-2010 SAID?? WAPI 260500 METAR WAPI 260500Z 10010KT 9999 BKN 016 29/25 Q1011NSC=  
26-Jul-2010 SAID?? WAPI 260600 METAR WAPI 260600Z 11016KT 9999 BKN 016 29/25 Q1011NSC=  
26-Jul-2010 SAID?? WAPI 262300 METAR WAPI 262300Z 11008KT 9999 BKN016 27/24 Q1013 NSC=  
27-Jul-2010 SAID?? WAPI 270100 METAR WAPI 270100Z 11015 KT 17000 9999 BKN018 28/25 Q1013 NSC=  
28-Jul-2010 SAID?? WAPI 280100 METAR WAPI 280100Z 10013KT 9999 BKN012 27/25 Q1012 NSC=  
28-Jul-2010 SAID?? WAPI 280300 METAR WAPI 280300Z 11013KT 9999 BKN016 29/24 Q1012 NSC=  
28-Jul-2010 SAID?? WAPI 280400 METAR WAPI 280400Z 10011KT 9999 BKN016 29/24 Q1012 NSC=  
28-Jul-2010 SAID?? WAPI 280500 METAR WAPI 280500Z 09012KT 9999 BKN016 29/24 Q1012 NSC=  
28-Jul-2010 SAID?? WAPI 280600 METAR WAPI 280600Z 10013KT 9999 BKN016 29/24 Q1012 NSC=  
28-Jul-2010 SAID?? WAPI 282300 METAR WAPI 282300Z 11012KT 9999 BKN016 26/24 Q1012 NSC=  
29-Jul-2010 SAID?? WAPI 290000 METAR WAPI 290000Z 09010KT 9999 BKN016 27/25 Q1012=  
29-Jul-2010 SAID?? WAPI 290100 METAR WAPI 290100Z 10012KT 9999 BKN017 28/25 Q012 NSC=  
29-Jul-2010 SAID?? WAPI 290200 METAR WAPI 290200Z 10009KT 9999 BKN017 29/25 Q1012 NSC=  
29-Jul-2010 SAID?? WAPI 290300 METAR WAPI 290300Z 09015KT 9999 BKN017 28/25 Q1012 NSC=  
29-Jul-2010 SAID?? WAPI 290400 METAR WAPI 290400Z 09012KT 9999 BKN017 29/25 Q1012 NSC=  
29-Jul-2010 SAID?? WAPI 290500 METAR WAPI 290500Z 10010KT 9999 BKN017 29/25 Q1012 NSC=  
29-Jul-2010 SAID?? WAPI 290600 METAR WAPI 290600Z 10009KT 9999 BKN017 28/24 Q1012 NSC=  
29-Jul-2010 SAID?? WAPI 292300 METAR WAPI 292300Z 11004KT 9999 SCT016 27/25 Q1013 NSG=  
30-Jul-2010 SAID?? WAPI 300000 METAR WAPI 300000Z 10010KT 9999 SCT016 28/24 Q1013 NSG=  
30-Jul-2010 SAID?? WAPI 300100 METAR WAPI 300100Z 12008KT 9999 SCT016 28/25 Q1013 NSG=  
30-Jul-2010 SAID?? WAPI 300200 METAR WAPI 300200Z 13012KT 9999 BKN018 30/25 Q1013 NSG=  
30-Jul-2010 SAID?? WAPI 300300 METAR WAPI 300300Z 12014KT 9999 SCT018 29/25 Q1013 NSG=  
30-Jul-2010 SAID?? WAPI 300400 METAR WAPI 300400Z 14012KT 9999 SCT018 30/25 Q1013 NSC=  
30-Jul-2010 SAID?? WAPI 300500 METAR WAPI 300500Z 13015KT 9999 BKN016 29/25 Q1013 NSC=  
30-Jul-2010 SAID?? WAPI 300600 METAR WAPI 300600Z 12012KT 9999 BKN016 29/25 Q1012 NSC=  
30-Jul-2010 SAID?? WAPI 302300 METAR WAPI 302300Z 09008KT 9999 BKN016 26/25 Q1013 NSC=  
31-Jul-2010 SAID?? WAPI 310200 METAR WAPI 310200Z 11020 KT 17000 9999 SCT 017 29/25 Q1014 NSC=  
31-Jul-2010 SAID?? WAPI 310500 METAR WAPI 310500Z 10012KT 9999 BKN017 29/25 Q1012 NSC=  
31-Jul-2010 SAID?? WAPI 310600 METAR WAPI 310600Z 09010KT 9999 BKN017 29/25 Q1012 NSC=  
31-Jul-2010 SAID?? WAPI 312300 METAR WAPI 312300Z 10010KT 9999 BKN016 27/24 Q1013 NSC=  
01-Aug-2010 SAID?? WAPI 010000 METAR WAPI 010000Z 11012KT 9999 BKN016 27/25 Q1014 NSC=  
01-Aug-2010 SAID?? WAPI 010100 METAR WAPI 010100Z 10012KT 9999 BKN 016 29/24 Q1013 NSC=  
01-Aug-2010 SAID?? WAPI 010200 METAR WAPI 010200Z 10012KT 9999 BKN016 28/25 Q1014 NSC=  
01-Aug-2010 SAID?? WAPI 010300 METAR WAPI 010300Z 11010 9999 BKN016 28/25 Q1013 NSC=  
01-Aug-2010 SAID?? WAPI 010400 METAR WAPI 010400Z 09011KT 9999 BKN016 28/25 Q1013 NSC=  
01-Aug-2010 SAID?? WAPI 010500 METAR WAPI 010500Z 10010KT 9999 BKN016 28/25 Q1013 NSC=  
01-Aug-2010 SAID?? WAPI 010600 METAR WAPI 010600Z 10009KT 8000 RA BKN014 26/24 Q1013=  
02-Aug-2010 SAID?? WAPI 022300 METAR WAPI 022300Z 11018KT 9999 BKN014 26/22 Q1013 NSC=  
03-Aug-2010 SAID?? WAPI 030100 METAR WAPI 030100Z 11015KT 9999 BKN015 26/22 Q1013 NSC=  
03-Aug-2010 SAID?? WAPI 030600 METAR WAPI 030600Z 10012KT 9999 BKN016 27/22 Q1012 NSC=  
03-Aug-2010 SAID?? WAPI 032300 METAR WAPI 032300Z 10016KT 9999 BKN016 26/21 Q1012 NSC=  
04-Aug-2010 SAID?? WAPI 040000 METAR WAPI 040000Z 11013KT 99999 BKN016 27/21 Q1012 NSC=  
04-Aug-2010 SAID?? WAPI 040100 METAR WAPI 040100Z 10015KT 9999 BKN016 27/22 Q1012 NSC=  
04-Aug-2010 SAID?? WAPI 040200 METAR WAPI 040200Z 11014KT 9999 BKN016 27/22 Q1012 NSC=  
04-Aug-2010 SAID?? WAPI 040300 METAR WAPI 040300Z 10012KT 9999 BKN016 28/22 Q1012 NSC=  
04-Aug-2010 SAID?? WAPI 040400 METAR WAPI 040400Z 09010KT 9999 BKN016 28/22 Q1012 NSC=  
04-Aug-2010 SAID?? WAPI 040500 METAR WAPI 040500Z 10012KT 9999 OVE015 27/22 Q1012 NSC=  
04-Aug-2010 SAID?? WAPI 040600 METAR WAPI 040600Z 11010KT 9999 BKN016 27/22 Q1012 NSC=  
04-Aug-2010 SAID?? WAPI 042300 METAR WAPI 042300Z 12010KT 9999 BKN017 26/23 Q1013 NSC=  
05-Aug-2010 SAID?? WAPI 050000 METAR WAPI 050000Z 14011KT 9999 BKN017 27/22 Q1013 NSC=  
05-Aug-2010 SAID?? WAPI 050100 METAR WAPI 050100Z 13013KT 9999 BKN017 28/23 Q1013 NSC=  
05-Aug-2010 SAID?? WAPI 050200 METAR WAPI 050200Z 13010KT 9999 BKN017 28/23 Q1013 NSC=  
05-Aug-2010 SAID?? WAPI 050300 METAR WAPI 050300Z 12010KT 9999 BKN017 28/23 Q1013 NSC=  
05-Aug-2010 SAID?? WAPI 050400 METAR WAPI 050400Z 13012KT 9999 BKN017 28/24 Q1013 NSC=  
05-Aug-2010 SAID?? WAPI 050500 METAR WAPI 050500Z 13009KT 9999 BKN017 28/23 Q1012 NSC=  
05-Aug-2010 SAID?? WAPI 052300 METAR WAPI 052300Z 12011KT 9999 SCT016 26/22 Q1014NSC=  
06-Aug-2010 SAID?? WAPI 060100 METAR WAPI 060100Z 13014KT 9999 FEW018 28/23 Q1014NSC=  
06-Aug-2010 SAID?? WAPI 060200 METAR WAPI 060200Z 12016KT 9999 FEW018 29/23 Q1013 NSG=  
06-Aug-2010 SAID?? WAPI 060300 METAR WAPI 060300Z 13014KT 9999 SCT018 29/22 Q1013NSC=  
06-Aug-2010 SAID?? WAPI 060400 METAR WAPI 060400Z 14016KT 9999 BKN018 28/22 Q1013 NSG=  
06-Aug-2010 SAID?? WAPI 060500 METAR WAPI 060500Z 12016KT 9999 BKN018 29/22 Q1013NSC=  
06-Aug-2010 SAID?? WAPI 060600 METAR WAPI 060600Z 12012KT 9999 BKN018 28/23 Q1012 NSC=  
06-Aug-2010 SAID?? WAPI 062300 METAR WAPI 062300Z 12010KT 9999 BKN017 26/22 Q1014 NSC=  
07-Aug-2010 SAID?? WAPI 070000 METAR WAPI 070000Z 10011KT 9999 BKN017 27/22 Q1014 NSC=  
07-Aug-2010 SAID?? WAPI 070100 METAR WAPI 070100Z 09010KT 9999 BKN017 28/22 Q1014 NSC=  
07-Aug-2010 SAID?? WAPI 070600 METAR WAPI 070600Z 10009KT 9999 BKN018 28/22 Q1012 NSC=  
07-Aug-2010 SAID?? WAPI 072300 METAR WAPI 072300Z 12006KT 9999 BKN016 26/23 Q1012 NSC=  
08-Aug-2010 SAID?? WAPI 080000 METAR WAPI 080000Z 13008KT 9999 BKN016 27/23 Q1013 NSC=  
08-Aug-2010 SAID?? WAPI 080100 METAR WAPI 080100Z 13008KT 9999 SCT018 28/24 Q1012 NSC=  
08-Aug-2010 SAID?? WAPI 080200 METAR WAPI 080200Z 12006KT 9999 SCT018 29/23 Q10123 NCS=  
08-Aug-2010 SAID?? WAPI 080300 METAR WAPI 080300Z 13010KT 9999 FEW018 29/23 Q1012 NSC=  
08-Aug-2010 SAID?? WAPI 080400 METAR WAPI 080400Z 11012KT 9999 BKN018 29/23 Q1012 NSC=  
08-Aug-2010 SAID?? WAPI 080500 METAR WAPI 080500Z 10010KT 9999 BKN018 29/23 Q1012 NSC=  
08-Aug-2010 SAID?? WAPI 080600 METAR WAPI 080600Z 10008KT 9999 BKN018 29/23 Q1011 NSC=  
08-Aug-2010 SAID?? WAPI 082300 METAR WAPI 082300Z 120006KT 9999 BKN016 25/23 Q1012 NSC=  
09-Aug-2010 SAID?? WAPI 090000 METAR WAPI 090000Z 13007KT RAIN 2000 OVC010 24/23 Q1013=  
09-Aug-2010 SAID?? WAPI 090100 METAR WAPI 090100Z 12009KT RAIN 2000 OVC010 24/24 Q1013=  
09-Aug-2010 SAID?? WAPI 090200 METAR WAPI 090200Z 12006KT RAIN 2000 OVC010 24/24 Q1013=  
09-Aug-2010 SAID?? WAPI 090300 METAR WAPI 090300Z 07005KT RAIN 9000 OVC010 24/23 Q1013=  
09-Aug-2010 SAID?? WAPI 090400 METAR WAPI 090400Z 08005KT RA 9000 OVC010 24/23 Q1012=  
09-Aug-2010 SAID?? WAPI 090500 METAR WAPI 090500Z 08008KT RA 9000 OVC010 24/23 Q1013=  
09-Aug-2010 SAID?? WAPI 090500 METAR WAPI 090500Z 08008KT RA 9000 OVC010 24/24 Q1013=  
09-Aug-2010 SAID?? WAPI 090600 METAR WAPI 090600Z 13006KT BKN016 25/24 Q1013 NSC=  
10-Aug-2010 SAID?? WAPI 100100 METAR WAPI 100100Z 10007KT 9999 SCT018 28/25 Q1013NSC=  
10-Aug-2010 SAID?? WAPI 100200 METAR WAPI 100200Z 10006KT 9999 SCT018 28/25 Q1013NSC=  
10-Aug-2010 SAID?? WAPI 100300 METAR WAPI 100300Z 10007KT 9999 SCT018 27/25 Q1013NSC=  
10-Aug-2010 SAID?? WAPI 100400 METAR WAPI 100400Z 10008KT 9999 SCT018 28/26 Q1013NSC=  
10-Aug-2010 SAID?? WAPI 102300 METAR WAPI 102300Z 08003KT 9999 BKN018 26/24 Q1014 NSC=  
11-Aug-2010 SAID?? WAPI 110000 METAR WAPI 110000Z 09005KT 9999 BKN018 27/24 Q1015 NSC=  
11-Aug-2010 SAID?? WAPI 112300 METAR WAPI 112300Z 11012KT 9999 BKN016 26/22 Q1014 NSC=  
12-Aug-2010 SAID?? WAPI 120000 METAR WAPI 120000Z 11013KT 9999 BKN017 26/22 Q1015 NSC=  
12-Aug-2010 SAID?? WAPI 120100 METAR WAPI 120100Z 10012KT 9999 BKN017 27/22 Q1015 NSC=  
12-Aug-2010 SAID?? WAPI 120200 METAR WAPI 120200Z 11014KT 9999 SCT017 27/21 Q1014 NCT=  
12-Aug-2010 SAID?? WAPI 120300 METAR WAPI 120300Z 10016KT 9999 SCT017 28/20 Q1014 NSC=  
12-Aug-2010 SAID?? WAPI 120400 METAR WAPI 120400Z 08014KT 9999 FEW018 28/20 Q1014 NCT=  
12-Aug-2010 SAID?? WAPI 120500 METAR WAPI 120500Z 10011KT 9999 BKN018 29/20 Q1013 NSC=  
12-Aug-2010 SAID?? WAPI 120600 METAR WAPI 120600Z 09010KT 9999 BKN018 28/20 Q1014 NSC=  
12-Aug-2010 SAID?? WAPI 122300 METAR WAPI 122300Z 09005KT 9999 SCT016 25/21 Q1014 NSC=  
13-Aug-2010 SAID?? WAPI 130000 METAR WAPI 130000Z 10007KT 9999 SCT018 26/21 Q1014 NSC=  
13-Aug-2010 SAID?? WAPI 130015 METAR WAPI 130015Z 10007KT 9999 SCT018 26/21 Q1014 NSC=  
13-Aug-2010 SAID?? WAPI 130100 METAR WAPI 130100Z 11007KT 9999 SCT018 27/21 Q1014 NSC=  
13-Aug-2010 SAID?? WAPI 130200 METAR WAPI 130200Z 11010KT 9999 SCT018 28/21 Q1013 NSC=  
13-Aug-2010 SAID?? WAPI 130300 METAR WAPI 130300Z 09013KT 9999 SCT018 28/22 Q1013 NSC=  
13-Aug-2010 SAID?? WAPI 130400 METAR WAPI 130400Z 09011KT 9999 CSCT018 27/22 Q1012 NSC=  
13-Aug-2010 SAID?? WAPI 130500 METAR WAPI 130500Z 10010KT 9999 SCT018 28/22 Q1013 NSC=  
13-Aug-2010 SAID?? WAPI 130600 METAR WAPI 130600Z 10009KT 9999 BKN018 28/22 Q1013 NSC=  
13-Aug-2010 SAID?? WAPI 132300 METAR WAPI 132300Z 10003KT 9999 SCT018 25/22 Q1013NSC=  
14-Aug-2010 SAID?? WAPI 140100 METAR WAPI 140100Z 11004KT 9999 FEW018 28/23 Q1013NSC=  
14-Aug-2010 SAID?? WAPI 140200 METAR WAPI 140200Z 14004KT 9999 FEW018 29/23 Q1013NSC=  
14-Aug-2010 SAID?? WAPI 140300 METAR WAPI 140300Z 12006KT 9999 BKN018 29/24 Q1013NSC=  
14-Aug-2010 SAID?? WAPI 140400 METAR WAPI 140400Z 13007KT 5000 RA BKN014 29/24 Q1013=  
14-Aug-2010 SAID?? WAPI 140500 METAR WAPI 140500Z 14003KT 5000 RA SCT014 27/25 Q1013=  
14-Aug-2010 SAID?? WAPI 140600 METAR WAPI 140600Z 13005KT 9999 BKN018 28/24 Q1012 NSC=  
14-Aug-2010 SAID?? WAPI 142300 METAR WAPI 142300Z 09006KT 9999 BKN018 26/24 Q1013 NSC=  
15-Aug-2010 SAID?? WAPI 150500 METAR WAPI 150500Z 09012KT 9999 BKN017 29/25 Q1013 NSC=  
15-Aug-2010 SAID?? WAPI 150600 METAR WAPI 150600Z 10011KT 9999 BKN017 28/25 Q1013 NSC=  
15-Aug-2010 SAID?? WAPI 152300 METAR WAPI 152300Z 10004KT 9999KT BKN017 26/24 Q1013 NSC=  
16-Aug-2010 SAID?? WAPI 160000 METAR WAPI 160000Z 10008KT 9999 BKN018 27/24 Q1013 NCT=  
16-Aug-2010 SAID?? WAPI 160100 METAR WAPI 160100Z 11010KT 9999 BKN018 28/23 Q1013 NCT=  
16-Aug-2010 SAID?? WAPI 160200 METAR WAPI 160200Z 10006KT 9999 SCT018 28/23 Q1013 NSC=  
16-Aug-2010 SAID?? WAPI 160300 METAR WAPI 160300Z 11012KT 9999 BKN018 29/23 Q1013 NSC=  
16-Aug-2010 SAID?? WAPI 160400 METAR WAPI 160400Z 10014KT 9999 BKN018 29/23 Q1013 NSC=  
16-Aug-2010 SAID?? WAPI 160500 METAR WAPI 160500Z 09011KT 9999 BKN018 29/24 Q1013 NSC=  
16-Aug-2010 SAID?? WAPI 160600 METAR WAPI 160600Z 08010KT 9999 BKN018 28/24 Q1012 NSC=  
16-Aug-2010 SAID?? WAPI 162300 METAR WAPI 162300Z 09007KT 9999 SCT017 26/22 Q1012 NSC=  
17-Aug-2010 SAID?? WAPI 170000 METAR WAPI 170000Z 10009KT 9999 BKN018 27/23 Q1011 NSC=  
17-Aug-2010 SAID?? WAPI 170100 METAR WAPI 170100Z 10012KT 9999 BKN018 28/23 Q1012 NSC=  
17-Aug-2010 SAID?? WAPI 170200 METAR WAPI 170200Z 11010KT 9999 BKN018 29/23 Q1012 NSC=  
17-Aug-2010 SAID?? WAPI 170300 METAR WAPI 170300Z 10013KT 9999 SCT018 29/22 Q1011 NSC=  
17-Aug-2010 SAID?? WAPI 170400 METAR WAPI 170400Z 09010KT 9999 BKN018 28/23 Q1011 NSC=  
17-Aug-2010 SAID?? WAPI 170500 METAR WAPI 170500Z 09012KT 9999 BKN018 29/23 Q1011 NSC=  
17-Aug-2010 SAID?? WAPI 170600 METAR WAPI 170600Z 10009KT 9999 BKN018 29/24 Q1011 NSC=  
18-Aug-2010 SAID?? WAPI 180100 METAR WAPI 180111Z 10007KT 9999 BKN018 28/24 Q1012NSC=  
18-Aug-2010 SAID?? WAPI 180200 METAR WAPI 180200Z 09010 9999 BKN 018 Q1012NSC=  
18-Aug-2010 SAID?? WAPI 180300 METAR WAPI 180300Z 10011KT 9999 BKN 018 29/24 Q1012NSC=  
18-Aug-2010 SAID?? WAPI 180400 METAR WAPI 180400Z 09012KT 9999 BKN 018 29/24 Q1012NSC=  
19-Aug-2010 SAID?? WAPI 190600 METAR WAPI 190600Z 10010KT 9999 BKN018 29/25 Q1011 NSC=  
19-Aug-2010 SAID?? WAPI 192300 METAR WAPI 192300Z 11006KT 9999 BKN017 27/25 Q1011 NSC=  
20-Aug-2010 SAID?? WAPI 200000 METAR WAPI 200000Z 10008KT 9999 BKN017 27/25 Q1012 NSC=  
20-Aug-2010 SAID?? WAPI 200000 METAR WAPI 200000Z 10008KT 99999 BKN017 27/25 Q1012 NSC=  
20-Aug-2010 SAID?? WAPI 200100 METAR WAPI 200100Z 11010KT 9999 BKN017 29/26 Q1012 NSC=  
20-Aug-2010 SAID?? WAPI 200200 METAR WAPI 200200Z 11011KT 9999 BKN017 29/26 Q1012 NSC=  
20-Aug-2010 SAID?? WAPI 200300 METAR WAPI 200300Z 10010KT 9999 BKN017 29/25 Q1012 NSC=  
20-Aug-2010 SAID?? WAPI 200400 METAR WAPI 200400Z 09012KT 9999 BKN017 29/25 Q1011 NSC=  
20-Aug-2010 SAID?? WAPI 200500 METAR WAPI 200500Z 10005KT 9999 SCT018 30/25 Q1011 NSC=  
21-Aug-2010 SAID?? WAPI 210000 METAR WAPI 210000Z 10012KT 9999 BKN018 27/24 Q1011 NSC=  
21-Aug-2010 SAID?? WAPI 210110 METAR WAPI 210100Z 09014KT 9999 BKN016 29/24 Q1011 NSC=  
21-Aug-2010 SAID?? WAPI 210200 METAR WAPI 210200Z 09011KT 9999 SCT016 29/24 Q1011 NSC=  
21-Aug-2010 SAID?? WAPI 210300 METAR WAPI 210300Z 11009KT 9999 SCT016 29/24 Q1011 NSC=  
21-Aug-2010 SAID?? WAPI 210400 METAR WAPI 210400Z 10009KT 9999 BKN016 30/24 Q1011 NSC=  
21-Aug-2010 SAID?? WAPI 210500 METAR WAPI 210500Z 11007KT 9999 BKN018 29/24 Q1010 NSC=  
21-Aug-2010 SAID?? WAPI 210600 METAR WAPI 210600Z 10011KT 9999 BKN018 29/24 Q1011 NSC=  
22-Aug-2010 SAID?? WAPI 220300 METAR WAPI 220300Z 09013KT 9999 BKN016 29/25 Q1011 NSG=  
22-Aug-2010 SAID?? WAPI 220400 METAR WAPI 220400Z 12012KT 9999 BKN016 29/25 Q1010 NSG=  
22-Aug-2010 SAID?? WAPI 220500 METAR WAPI 220500Z 11010KT 9999 BKN016 29/25 Q1011 NSG=  
22-Aug-2010 SAID?? WAPI 220600 METAR WAPI 220600Z 10010KT 9999 BKN016 29/25 Q1010 NSG=  
23-Aug-2010 SAID?? WAPI 230000 METAR WAPI 230000Z 09003KT 9999 27/24 Q1012 NSC=  
23-Aug-2010 SAID?? WAPI 232300 METAR WAPI 232300Z 09005KT 9999 BKN018 26/23 Q1012 NSC=  
24-Aug-2010 SAID?? WAPI 240000 METAR WAPI 240000Z 11006KT 9999 BKN018 27/24 Q1012 NSC=  
24-Aug-2010 SAID?? WAPI 240100 METAR WAPI 240100Z 10008KT 9999 BKN016 27/23 Q1013 NSC=  
24-Aug-2010 SAID?? WAPI 240200 METAR WAPI 240200Z 11007KT 9999 BKN016 28/23 Q1012 NSC=  
24-Aug-2010 SAID?? WAPI 240300 METAR WAPI 240300Z 10010KT 9999 BKN016 29/24 Q1012 NSC=  
24-Aug-2010 SAID?? WAPI 240400 METAR WAPI 240400Z 10007KT 9000 RA OVC014 27/24 Q1012=  
24-Aug-2010 SAID?? WAPI 240500 METAR WAPI 240500Z 10009KT 9999 OVC014 27/24 Q1012 NSC=  
24-Aug-2010 SAID?? WAPI 240600 METAR WAPI 240600Z 10008KT 9999 BKN017 28/24 Q1012 NSC=  
24-Aug-2010 SAID?? WAPI 242300 METAR WAPI 242300Z 09004KT 9999 BKN017 27/24 Q1012 NSC=  
25-Aug-2010 SAID?? WAPI 250000 METAR WAPI 250000Z 07005KT 9999 BKN018 27/25 Q1013 NSC=  
25-Aug-2010 SAID?? WAPI 250100 METAR WAPI 250100Z 07007KT 9999 BKN017 28/25 Q1013 NSC=  
25-Aug-2010 SAID?? WAPI 250200 METAR WAPI 250200Z 06005KT 9999 BKN018 29/24 Q1013 NSC=  
25-Aug-2010 SAID?? WAPI 250300 METAR WAPI 250300Z 08005Z 9999 BKN018 30/24 Q1014 NSC=  
25-Aug-2010 SAID?? WAPI 250400 METAR WAPI 250400Z 08007KT 9999 BKN018 29/23 Q1013 NSC=  
25-Aug-2010 SAID?? WAPI 250500 METAR WAPI 250500Z 07004KT 9999 BKN018 29/25 Q1013 NSC=  
25-Aug-2010 SAID?? WAPI 250600 METAR WAPI 250600Z 07008KT 9999 BKN018 29/24 Q1012 NSC=  
27-Aug-2010 SAID?? WAPI 272300 METAR WAPI 272300Z 09004KT 9999 BKN018 27/23 Q1014 NSC=  
28-Aug-2010 SAID?? WAPI 280000 METAR WAPI 280000Z 11008KT 9999 BKN018 28/23 Q1014 NSC=  
28-Aug-2010 SAID?? WAPI 280100 METAR WAPI 280100Z 08010KT 9999 BKN018 29/23 Q1014 NSC=  
28-Aug-2010 SAID?? WAPI 280200 METAR WAPI 280200Z 10011KT 9999 SCT018 30/22 Q1014 NSC=  
28-Aug-2010 SAID?? WAPI 280300 METAR WAPI 280300Z 10009KT 9999 SCT018 30/23 Q1014 NSC=  
28-Aug-2010 SAID?? WAPI 280400 METAR WAPI 280400Z 11010KT 9999 BKN018 30/23 Q1013 NSC=  
28-Aug-2010 SAID?? WAPI 280500 METAR WAPI 280500Z 10013KT 9999 BKN018 29/23 Q1013 NSC=  
28-Aug-2010 SAID?? WAPI 280600 METAR WAPI 280600Z 09011KT 9999 BKN018 29/23 Q1013 NSC=  
28-Aug-2010 SAID?? WAPI 282300 METAR WAPI 282300Z 09006KT 9999 SCT018 27/23 Q1014 NSC=  
29-Aug-2010 SAID?? WAPI 290000 METAR WAPI 290000Z 09008KT 9999 BKN018 28/24 Q1014 NSC=  
29-Aug-2010 SAID?? WAPI 290100 METAR WAPI 290100Z 09011KT 9999 BKN018 29/24 Q1014 NSC=  
29-Aug-2010 SAID?? WAPI 290200 METAR WAPI 290200Z 11013KT 9999 BKN018 29/23 Q1014 NSC=  
29-Aug-2010 SAID?? WAPI 290300 METAR WAPI 290300Z 11015KT 9999 BKN018 29/23 Q1014 NSC=  
29-Aug-2010 SAID?? WAPI 290400 METAR WAPI 290400Z 09012KT 9999 BKN018 29/23 Q1013 NSC=  
29-Aug-2010 SAID?? WAPI 290500 METAR WAPI 290500Z 10010KT 9999 BKN018 29/23 Q1013 NSC=  
29-Aug-2010 SAID?? WAPI 290600 METAR WAPI 290600Z 10007KT 9999 BKN018 30/23 Q1013 NSC=  
29-Aug-2010 SAID?? WAPI 292300 METAR WAPI 292300Z 10008KT 9999 SCT018 26/23 Q1013 NSG=  
30-Aug-2010 SAID?? WAPI 300000 METAR WAPI 300000Z 10010KT 9999 SCT018 28/23 Q1013 NOSIG=  
30-Aug-2010 SAID?? WAPI 300100 METAR WAPI 300100Z 10013KT 9999 SCT018 29/23 Q1014 NOSIG=  
30-Aug-2010 SAID?? WAPI 300200 METAR WAPI 300200Z 12011KT 9999 SCT018 30/23 Q1013 NOSIG=  
30-Aug-2010 SAID?? WAPI 300500 METAR WAPI 300500Z 07013KT 9999 FEW018 30/19 Q1013 NOSIG=  
30-Aug-2010 SAID?? WAPI 302300 METAR WAPI 302300Z 10003KT 9999 BKN018 27/21 Q1012 NSC=  
31-Aug-2010 SAID?? WAPI 312300 METAR WAPI 312300Z 10011KT 9999 BKN016 27/24 Q1012 NSC=  
01-Sep-2010 SAID?? WAPI 010100 METAR WAPI 010100Z 08010KT 5000 RAIN OVC010 26/25 Q1013=  
01-Sep-2010 SAID?? WAPI 010200 METAR WAPI 010200Z 09012KT 8000 PREINSIGHT15 OVC010 27/25 Q1013=  
01-Sep-2010 SAID?? WAPI 010300 METAR WAPI 010300Z 10013KT 8000 PRECIN SIGHT15 OVC010 26/24 Q1013=  
01-Sep-2010 SAID?? WAPI 010400 METAR WAPI 010400Z 10014KT 9999 OVC010 26/24 Q1013 NSC=  
01-Sep-2010 SAID?? WAPI 010500 METAR WAPI 010500Z 08011KT 9999 BKN017 27/25 Q1012 NSC=  
01-Sep-2010 SAID?? WAPI 012300 METAR WAPI 012300Z 09005KT 9999 BKN017 27/25 Q1012 NSC=  
02-Sep-2010 SAID?? WAPI 020000 METAR WAPI 020000Z 10009KT 9999 BKN018 29/24 Q1011 NSC=  
02-Sep-2010 SAID?? WAPI 020000 METAR WAPI 020000Z 11005KT 9999 BKN017 27/25 Q1012 NSC=  
02-Sep-2010 SAID?? WAPI 020100 METAR WAPI 020100Z 08006KT 9999 BKN017 29/25 Q1013 NOSIG=  
02-Sep-2010 SAID?? WAPI 020200 METAR WAPI 020200Z 09010KT 9999 BKN016 30/25 Q1013 NOSIG=  
02-Sep-2010 SAID?? WAPI 020300 METAR WAPI 020300Z 10011KT 9999 BKN016 30/25 Q1013 NOSIG=  
02-Sep-2010 SAID?? WAPI 020400 METAR WAPI 020400Z 10010KT 9999 BKN016 29/25 Q1013 NSC=  
02-Sep-2010 SAID?? WAPI 020500 METAR WAPI 020500Z 11012KT 9999 BKN016 29/25 Q1011 NSC=  
02-Sep-2010 SAID?? WAPI 020600 METAR WAPI 020600Z 10010KT 9999 BKN016 29/25 Q1011 NSC=  
03-Sep-2010 SAID?? WAPI 030000 METAR WAPI 030000Z 10008KT 9999 BKN018 28/25 Q1011 NOSIG=  
03-Sep-2010 SAID?? WAPI 030100 METAR WAPI 030100Z 11008KT 9999 BKN018 29/25 Q1012 NOSIG=  
03-Sep-2010 SAID?? WAPI 030400 METAR WAPI 030400Z 09007KT 9999 BKN018 30/25 Q1011 NOSIG=  
03-Sep-2010 SAID?? WAPI 032300 METAR WAPI 032300Z 00000KT 9999 BKN018 26/25 Q1011 NSC=  
04-Sep-2010 SAID?? WAPI 040500 METAR WAPI 040500Z 10008KT 9999 BKN018 30/24 Q1011 NSC=  
04-Sep-2010 SAID?? WAPI 040600 METAR WAPI 040600Z 10011KT 9999 BKN018 29/25 Q1011 NSC=  
04-Sep-2010 SAID?? WAPI 042300 METAR WAPI 042300Z 09008KT 9999 SCT018 27/24 Q1011 NSC=  
05-Sep-2010 SAID?? WAPI 050000 METAR WAPI 050000Z 11007KT 9999 BKN018 29/25 Q1013 NSC=  
05-Sep-2010 SAID?? WAPI 050100 METAR WAPI 050100Z 10008KT 9999 BKN018 30/25 Q1013 NSC=  
05-Sep-2010 SAID?? WAPI 050200 METAR WAPI 050200Z 10010KT 9999 SCT018 30/25 Q1013 NSC=  
05-Sep-2010 SAID?? WAPI 050300 METAR WAPI 050300Z 10011KT 9999 SCT018 30/24 Q1015 NSC=  
05-Sep-2010 SAID?? WAPI 050400 METAR WAPI 050400Z 09010KT 9999 SCT018 30/25 Q1012 NSC=  
05-Sep-2010 SAID?? WAPI 050500 METAR WAPI 050500Z 09008KT 9999 BKN018 30/25 Q1012 NSC=  
05-Sep-2010 SAID?? WAPI 050600 METAR WAPI 050600Z 09008KT 9999 BKN018 30/25 Q1012 NSC=  
05-Sep-2010 SAID?? WAPI 052300 METAR WAPI 052300Z 10005KT 9999 SCT018 26/24 Q1012 NSC=  
06-Sep-2010 SAID?? WAPI 060000 METAR WAPI 060000Z 10011KT 9999 BKN018 28/25 Q1013 NSC=  
06-Sep-2010 SAID?? WAPI 060100 METAR WAPI 060100Z 10008KT 9999 BKN018 28/24 Q1013 NSC=  
06-Sep-2010 SAID?? WAPI 060200 METAR WAPI 060200Z 11006KT 80000 RAIN SCT016 28/25 Q1012=  
06-Sep-2010 SAID?? WAPI 060300 METAR WAPI 060300Z 07010KT 9999 SCT018 29/25 Q1012 NOSIG=  
06-Sep-2010 SAID?? WAPI 060400 METAR WAPI 060400Z 10010KT 9999 SCT018 30/25 Q1011 NSC=  
06-Sep-2010 SAID?? WAPI 060500 METAR WAPI 060500Z 09012KT 9999 BKN018 30/25 Q1011 NSC=  
06-Sep-2010 SAID?? WAPI 060600 METAR WAPI 060600Z 08010KT 9999 BKN018 30/25 Q10100 NSC=  
06-Sep-2010 SAID?? WAPI 070100 METAR WAPI 062300Z 10014KT 9999 BKN010 28/25 Q1011=  
07-Sep-2010 SAID?? WAPI 070100 METAR WAPI 070000Z 09010KT 9000 RA BKN010 28/25 Q1011=  
07-Sep-2010 SAID?? WAPI 070100 METAR WAPI 070100Z 10008KT 5000 RA BKN010 27/25 Q1012=  
07-Sep-2010 SAID?? WAPI 070500 METAR WAPI 070500Z 10014KT 3000 RA BKN010 24/24 Q1012=  
07-Sep-2010 SAID?? WAPI 070600 METAR WAPI 070600Z 08016KT 3000 RA BKN010 25/24 Q1012=  
07-Sep-2010 SAID?? WAPI 072300 METAR WAPI 072300Z 10011KT 9999 BKN014 27/24 Q1012 NSC=  
08-Sep-2010 SAID?? WAPI 080200 METAR WAPI 080200Z 11012 KT 9999 BKN 012 29/25 Q 1013 NSC=  
08-Sep-2010 SAID?? WAPI 080500 METAR WAPI 080500Z 10010KT 9999 BKN015 29/25 Q1013 NSC=  
08-Sep-2010 SAID?? WAPI 080600 METAR WAPI 080600Z 10012KT 9999 BKN015 29/25 Q1012 NSC=  
08-Sep-2010 SAID?? WAPI 082300 METAR WAPI 082300Z 10006KT 50000 RA OCV010 24/23 Q1014=  
09-Sep-2010 SAID?? WAPI 090000 METAR WAPI 090000Z 10006KT 9000 RA OVC010 24/24 Q1014=  
09-Sep-2010 SAID?? WAPI 090100 METAR WAPI 090100Z 11004KT 9000 RA BKN015 24/24 Q1014=  
09-Sep-2010 SAID?? WAPI 090200 METAR WAPI 090200Z 120005KT 9999 BKN015 25/24 Q1014=  
09-Sep-2010 SAID?? WAPI 090300 METAR WAPI 090300Z 10007KT 9999 SCT016 27/24 Q1013=  
09-Sep-2010 SAID?? WAPI 090400 METAR WAPI 090400Z 09005KT 9999 SCT018 27/23 Q1013=  
09-Sep-2010 SAID?? WAPI 090500 METAR WAPI 090500Z 06010KT 9999 BKN018 28/24 Q1013 NSC=  
09-Sep-2010 SAID?? WAPI 090600 METAR WAPI 090600Z 07009KT 9999 BKN018 27/24 Q1012 NSC=  
09-Sep-2010 SAID?? WAPI 092300 METAR WAPI 092300Z 09005KT 9999 BKN017 27/24 Q1012 NSC=  
10-Sep-2010 SAID?? WAPI 100100 METAR WAPI 100100Z 10008KT 9999 FEW018 29/24 Q1012 NSG=  
10-Sep-2010 SAID?? WAPI 100200 METAR WAPI 100200Z 10009KT 9999 BKN018 29/24 Q1012 NSC=  
10-Sep-2010 SAID?? WAPI 100300 METAR WAPI 100300Z 09010KT 9999 BKN018 29/24 Q1012 NSC=  
10-Sep-2010 SAID?? WAPI 100400 METAR WAPI 100400Z 10008KT 9999 BKN018 30/24 Q1012 NSC=  
10-Sep-2010 SAID?? WAPI 100500 METAR WAPI 100500Z 08009KT 10000 RA BKN016 29/25 Q1012=  
10-Sep-2010 SAID?? WAPI 100600 METAR WAPI 100600Z 11008KT 9999 FEW018 29/25 Q1011 NSC=  
11-Sep-2010 SAID?? WAPI 110000 METAR WAPI 110000Z 12010KT 9999 SCT018 28/22 Q1012 NSC=  
11-Sep-2010 SAID?? WAPI 110100 METAR WAPI 110100Z 10010KT 9999 SCT018 29/23 Q1013 NSC=  
11-Sep-2010 SAID?? WAPI 110200 METAR WAPI 110200Z 08011KT 9999 FEW018 29/22 Q1012 NSC=  
11-Sep-2010 SAID?? WAPI 110300 METAR WAPI 110300Z 09012KT 9999 FEW018 29/22 Q1012 NSC=  
11-Sep-2010 SAID?? WAPI 110400 METAR WAPI 110400Z 09011KT 9999 FEW018 29/21 Q1012 NSC=  
11-Sep-2010 SAID?? WAPI 110500 METAR WAPI 110500Z 10012KT 9999 SCT018 29/21 Q1012 NSC=  
11-Sep-2010 SAID?? WAPI 112300 METAR WAPI 112300Z 10004KT 9999 BKN018 28/25 Q1012 NSC=  
12-Sep-2010 SAID?? WAPI 120200 METAR WAPI 120200Z 10008KT 9999 BKN018 30/23 Q1012 NSC=  
12-Sep-2010 SAID?? WAPI 120500 METAR WAPI 120500Z 09008KT 9000 INTER SL RA BKN010 28/25 Q1012=  
12-Sep-2010 SAID?? WAPI 120600 METAR WAPI 120600Z 09006KT 9999 BKN018 29/25 Q1011 NSC=  
13-Sep-2010 SAID?? WAMM 130000 METAR WAPI 130000Z 10003KT 9999 BKN018 28/25 Q1012 NSC=  
13-Sep-2010 SAID?? WAPI 130500 METAR WAPI 130500Z 09008KT 9999 BKN018 30/25 Q1012 NSC=  
13-Sep-2010 SAID?? WAPI 130600 METAR WAPI 130600Z 10010KT 9999 BKN018 30/24 Q1012 NSC=  
13-Sep-2010 SAID?? WAPI 132300 METAR WAPI 132300Z 09004KT 9999 BKN017 26/24 Q1012 NSC=  
14-Sep-2010 SAID?? WAPI 140000 METAR WAPI 140000Z 09005KT 8000 BKN015 27/25 Q1011=  
14-Sep-2010 SAID?? WAPI 140100 METAR WAPI 140100Z 08007KT 9999 BKN016 27/24 Q1012=  
14-Sep-2010 SAID?? WAPI 140200 METAR WAPI 140200Z 10004KT 9999 SCT016 28/24 Q1012 NOSIG=  
14-Sep-2010 SAID?? WAPI 140300 METAR WAPI 140300Z 11006KT 7000 BKN016 27/25 Q1012=  
14-Sep-2010 SAID?? WAPI 140400 METAR WAPI 140400Z 11008KT 10000 RA BKN016 27/23 Q1012=  
14-Sep-2010 SAID?? WAPI 140500 METAR WAPI 140500Z 10010KT 9999 BKN016 26/24 Q1012=  
14-Sep-2010 SAID?? WAPI 140600 METAR WAPI 140600Z 09012KT 9999 BKN016 26/24 Q1012=  
14-Sep-2010 SAID?? WAPI 142300 METAR WAPI 142300Z 09004KT 9999 SCT018 27/24 Q1012 NSC=  
15-Sep-2010 SAID?? WAPI 150000 METAR WAPI 150000Z 06010KT 9999 BKN018 29/25 Q1012 NSC=  
15-Sep-2010 SAID?? WAPI 150500 METAR WAPI 150400Z 06010KT 9999 BKN018 29/25 Q1012 NSC=  
15-Sep-2010 SAID?? WAPI 150500 METAR WAPI 150500Z 07012KT 9999 SCT018 30/25 Q1011 NSC=  
15-Sep-2010 SAID?? WAPI 150600 METAR WAPI 150600Z 35013KT 5000 -RA BKN010 27/22 Q1011=  
15-Sep-2010 SAID?? WAPI 152300 METAR WAPI 152300Z 10004KT 9999 BKN018 2/25 Q1012 NSC=  
16-Sep-2010 SAID?? WAPI 160100 METAR WAPI 160100Z 10010KT 9999 SCT 018 29/25 Q1013 NSC=  
16-Sep-2010 SAID?? WAPI 160500 METAR WAPI 160500Z 09010KT 9999 BKN018 30/25 NSC=  
16-Sep-2010 SAID?? WAPI 160600 METAR WAPI 160600Z 10011KT 9999 BKN018 30/24 Q1012 NSC=  
16-Sep-2010 SAID?? WAPI 162300 METAR WAPI 162300Z 10006KT 9999 FEW018 27/23 Q1012=  
17-Sep-2010 SAID?? WAPI 170000 METAR WAPI 170000Z 10010KT 9999 SCT018 28/24 Q1012 NSC=  
17-Sep-2010 SAID?? WAPI 170100 METAR WAPI 170100Z 09013KT 9999 SCT018 29/24 NSC=  
17-Sep-2010 SAID?? WAPI 180400 METAR WAPI 170400Z 10008KT 9999 SCT018 29/24 Q1011 NSG=  
17-Sep-2010 SAID?? WAPI 170500 METAR WAPI 170500Z 10011KT 9999 BKN018 30/24 NSC=  
17-Sep-2010 SAID?? WAPI 172300 METAR WAPI 172300Z 10010KT 9999 BKN018 27/24 Q1011 NSC=  
18-Sep-2010 SAID?? WAPI 180000 METAR WAPI 180000Z 09011KT 9999 BKN018 29/24 Q1012 NSC=  
18-Sep-2010 SAID?? WAPI 180100 METAR WAPI 180100Z 10011KT 9999 SCT018 29/25 Q1011 NSC=  
18-Sep-2010 SAID?? WAPI 180200 METAR WAPI 180200Z 08008KT 80000 RAIN BKN016 29/25 Q1012=  
18-Sep-2010 SAID?? WAPI 180300 METAR WAPI 180300Z 11010KT 9999 BKN016 29/24 Q1011 NSG=  
18-Sep-2010 SAID?? WAPI 180500 METAR WAPI 180500Z 10010KT 9999 SCT018 30/23 Q1011 NSC=  
18-Sep-2010 SAID?? WAPI 180600 METAR WAPI 180600Z 08010KT 9999 SCT018 30/24 Q1010 NSC=  
19-Sep-2010 SAID?? WAPI 190200 METAR WAPI 190200Z 13004KT 9999 BKN018 30/24 Q1011 NSC=  
19-Sep-2010 SAID?? WAPI 190300 METAR WAPI 190300Z 13006KT 9999 SCT018 30/25 Q1011 NSC=  
19-Sep-2010 SAID?? WAPI 190500 METAR WAPI 190400Z 10006KT 9999 SCT018 30/24 Q1010 NSC=  
19-Sep-2010 SAID?? WAPI 190500 METAR WAPI 190500Z 09004KT 9999 SCT018 30/24 Q1010 NSC=  
19-Sep-2010 SAID?? WAPI 190600 METAR WAPI 190600Z 10004 9999 SCT018 30/24 Q1010 NSC=  
19-Sep-2010 SAID?? WAPI 192300 METAR WAPI 192300Z 09003KT 9000 RA BKN014 27/25 Q1012=  
20-Sep-2010 SAID?? WAPI 200000 METAR WAPI 200000Z 10004KT 9999 BKN017 28/25 Q1013 NSC=  
20-Sep-2010 SAID?? WAPI 200100 METAR WAPI 200100Z 09007KT 9999 BKN017 29/25 Q1013 NSC=  
20-Sep-2010 SAID?? WAPI 200200 METAR WAPI 200200Z 10009KT 8000 RAIN BKN010 26//24 Q1012=  
20-Sep-2010 SAID?? WAPI 200300 METAR WAPI 200300Z 09008KT 9000 RAIN BKN010 27/25=  
20-Sep-2010 SAID?? WAPI 200400 METAR WAPI 200400Z 10010KT 9999 BKN016 27/25 Q1012 NSC=  
20-Sep-2010 SAID?? WAPI 200500 METAR WAPI 200500Z 11011KT 9999 BKN016 27/25 Q1012 NSC=  
20-Sep-2010 SAID?? WAPI 200600 METAR WAPI 200600Z 07008KT 9999 BKN016 27/25 Q1011 NSC=  
20-Sep-2010 SAID?? WAPI 202300 METAR WAPI 202300Z 11011KT 9999 BKN016 27/24 Q1012 NSC=  
21-Sep-2010 SAID?? WAPI 210000 METAR WAPI 210000Z 09010KT 9999 BKN017 28/24 Q1012=  
21-Sep-2010 SAID?? WAPI 210100 METAR WAPI 210100Z 12014KT 9999 BKN016 28/24 Q1012=  
21-Sep-2010 SAID?? WAPI 210200 METAR WAPI 210200Z 12015KT 9999 BKN016 27/24 Q1012=  
21-Sep-2010 SAID?? WAPI 210300 METAR WAPI 210300Z 11013KT 9999 BKN016 28/24 Q1012 NSC=  
21-Sep-2010 SAID?? WAPI 210400 METAR WAPI 210400Z 10010KT 9999 BKN016 29/24 Q1012 NSC=  
21-Sep-2010 SAID?? WAPI 210500 METAR WAPI 210500Z 10015KT 9999 SCT016 29/24 Q1011 NSC=  
21-Sep-2010 SAID?? WAPI 210600 METAR WAPI 210600Z 11016KT 9999 SCT016 28/24 Q1011=  
21-Sep-2010 SAID?? WAPI 212300 METAR WAPI 212300Z 10005KT 9999 BKN017 28/24 Q1011 NSC=  
22-Sep-2010 SAID?? WAPI 220000 METAR WAPI 220000Z 10010KT 9999 SCT018 29/25 Q1013 NSC=  
22-Sep-2010 SAID?? WAPI 220100 METAR WAPI 220100Z 09006KT 9999 SCT018 30/25 Q1013 NSC=  
22-Sep-2010 SAID?? WAPI 220200 METAR WAPI 220200Z 10009KT 9999 SCT018 30/26 Q1012 NSG=  
22-Sep-2010 SAID?? WAPI 220300 METAR WAPI 220300Z 09010 9999 SCT018 30/25 Q1012 NSC=  
22-Sep-2010 SAID?? WAPI 220400 METAR WAPI 220400Z 11012KT 9999 SCT018 30/25 Q1012 NOSIG=  
22-Sep-2010 SAID?? WAPI 220500 METAR WAPI 220500Z 11011KT 9999 BKN018 30/25 Q1011 NSC=  
22-Sep-2010 SAID?? WAPI 220600 METAR WAPI 220600Z 10007KT 9999 BKN018 30/25 Q1011 NSC=  
22-Sep-2010 SAID?? WAPI 222300 METAR WAPI 222300Z 09008KT 9999 SCT018 28/24 Q1011=  
23-Sep-2010 SAID?? WAPI 230000 METAR WAPI 230000Z 10012KT 9999 SCT018 29/25 Q1011=  
23-Sep-2010 SAID?? WAPI 230100 METAR WAPI 230100Z 11010KT 9999 SCT018 29/25 Q1011 NSC=  
23-Sep-2010 SAID?? WAPI 230200 METAR WAPI 230200Z 10013KT 9999 BKN018 30/25 Q1011 NSC=  
23-Sep-2010 SAID?? WAPI 230500 METAR WAPI 230500Z 08012KT 9999 BKN018 30/25 Q1011 NSC=  
24-Sep-2010 SAID?? WAPI 240600 METAR WAPI 240600Z 10012KT 9999 BKN018 30/25 Q1010 NSC=  
24-Sep-2010 SAID?? WAPI 242300 METAR WAPI 242300Z 10009KT 9999 BKN017 28/24 Q1012 NSC=  
25-Sep-2010 SAID?? WAPI 250300 METAR WAPI 250300Z 10012KT 9999 BKN010 31/25 Q1011 NSC=  
25-Sep-2010 SAID?? WAPI 250400 METAR WAPI 250400Z 11010KT 9999 BKN010 30/25 Q1011 NSC=  
25-Sep-2010 SAID?? WAPI 250500 METAR WAPI 250500Z 10009KT 9999 BKN014 30/25 Q1011 NSC=  
25-Sep-2010 SAID?? WAPI 250600 METAR WAPI 250600Z 10012KT 9999 BKN014 30/25 Q1011 NSC=  
25-Sep-2010 SAID?? WAPI 252300 METAR WAPI 252300Z 10004KT 9999 BKN018 28/24 Q1012 NSC=  
26-Sep-2010 SAID?? WAPI 260000 METAR WAPI 260000Z 09006KT 9999 SCT018 30/24 Q1013 NSG=  
26-Sep-2010 SAID?? WAPI 260100 METAR WAPI 260100Z 10010KT 9999 SCT018 30/24 Q1013 NSG=  
26-Sep-2010 SAID?? WAPI 260200 METAR WAPI 260200Z 11008KT 9999 SCT018 30/24 Q1013 NSG=  
26-Sep-2010 SAID?? WAPI 260300 METAR WAPI 260300Z 12012KT 9999 BKN016 30/24 Q1012 NSG=  
26-Sep-2010 SAID?? WAPI 260400 METAR WAPI 260400Z 11010KT 9999 BKN018 30/24 Q1012 NSG=  
26-Sep-2010 SAID?? WAPI 260500 METAR WAPI 260500Z 10011KT 9999 BKN018 30/24 Q1012 NSC=  
26-Sep-2010 SAID?? WAPI 260600 METAR WAPI 260600Z 10010KT 9999 BKN018 30/24 Q1011 NSC=  
26-Sep-2010 SAID?? WAPI 280600 METAR WAPI 260600Z 11014KT 9000 RAIN014 29/25 Q1010=  
27-Sep-2010 SAID?? WAPI 270000 METAR WAPI 270000Z 08008KT 9999 -RA BKN010 26/24 Q1012 METAR WAPI 262300Z 03008KT 9999 SCT018 26/24 Q1012=  
27-Sep-2010 SAID?? WAPI 280500 METAR WAPI 270400Z 10010KT 9999 BKN018 31/25 Q1010 NSC=  
27-Sep-2010 SAID?? WAPI 272300 METAR WAPI 272300Z 10003KT 9999 SCT018 28/25 Q1011 NSC=  
28-Sep-2010 SAID?? WAPI 280500 METAR WAPI 280400Z 10010KT 9999 BKN018 31/25 Q1010 NSC=  
28-Sep-2010 SAID?? WAPI 280500 METAR WAPI 280500Z 11012KT 9999 BKN018 31/25 Q1010 NSC=  
28-Sep-2010 SAID?? WAPI 282300 METAR WAPI 282300Z 09007KT 9999 SCT017 28/25 Q1010 NSC=  
29-Sep-2010 SAID?? WAPI 290500 METAR WAPI 290500Z 09011KT 9999 SCT018 30/25 Q1010 NSC=  
29-Sep-2010 SAID?? WAPI 290600 METAR WAPI 290600Z 10010KT 9999 SCT018 29/25 Q1010 NSC=  
29-Sep-2010 SAID?? WAPI 292300 METAR WAPI 292300Z 10005KT 9999 BKN018 28/25 Q1010 NSC=  
30-Sep-2010 SAID?? WAPI 300000 METAR WAPI 300000Z 00000KT 9999 FEW018 26/24 Q1010 NSC=  
30-Sep-2010 SAID?? WAPI 300000 METAR WAPI 300000Z 10008KT 9999 SCT016 30/25 Q1010 NSG=  
30-Sep-2010 SAID?? WAPI 300100 METAR WAPI 300100Z 09007KT 9999 SCT016 30/25 Q1010 NSG=  
30-Sep-2010 SAID?? WAPI 300200 METAR WAPI 300200Z 08010KT 9999 BKN018 30/25 Q1010 NSG=  
30-Sep-2010 SAID?? WAPI 300300 METAR WAPI 300300Z 11008KT 9999 BKN018 31/25 Q1010 NSG=  
30-Sep-2010 SAID?? WAPI 300400 METAR WAPI 300400Z 10006KT 9999 BKN018 31/25 Q1010 NSG=  
30-Sep-2010 SAID?? WAPI 300500 METAR WAPI 300500Z 11007KT 9999 BKN018 30/25 Q1010 NSC=  
30-Sep-2010 SAID?? WAPI 300600 METAR WAPI 300600Z 10010KT 9999 BKN018 31/25 Q10109 NSC=  
30-Sep-2010 SAID?? WAPI 300600 METAR WAPI 300600Z 10010KT 9999KT BKN018 31/25 Q1009=  
30-Sep-2010 SAID?? WAPI 302300 METAR WAPI 302300Z 11008KT 9999 SCT018 28/25 Q1010 NSG=  
01-Oct-2010 SAID?? WAPI 010015 METAR WAPI 010015Z 11005KT 9999 BNN018 29/24 Q1011 NSC=  
01-Oct-2010 SAID?? WAPI 010100 METAR WAPI 010100Z 11007KT 9999 BKN018 30/24 Q1010 NSG=  
01-Oct-2010 SAID?? WAPI 010200 METAR WAPI 010200Z 10009KT 9999 BKN018 30/25 Q1010 NSG=  
01-Oct-2010 SAID?? WAPI 010300 METAR WAPI 010300Z 09009KT 9999 BKN018 30/25 Q1010 NSG=  
01-Oct-2010 SAID?? WAPI 010400 METAR WAPI 010400Z 11012KT 9999 BKN018 31/25 Q1010 NSG=  
01-Oct-2010 SAID?? WAPI 010500 METAR WAPI 010500Z 10008KT 9999 BKN016 29/25 Q1009 NSG=  
01-Oct-2010 SAID?? WAPI 010600 METAR WAPI 010600Z 11009KT 9999 BKN018 30/25 Q1009 NSG=  
01-Oct-2010 SAID?? WAPI 012300 METAR WAPI 012300Z 08010KT 9999 BKN018 28/24 Q1011 NSC=  
02-Oct-2010 SAID?? WAPI 020100 METAR WAPI 020100Z 10008KT 9999 BKN018 29/24 Q1011 NSC=  
02-Oct-2010 SAID?? WAPI 020200 METAR WAPI 020200Z 11015KT 9999 SCT018 29/25 Q1011 NSC=  
02-Oct-2010 SAID?? WAPI 020300 METAR WAPI 020300Z 10012KT 9999 FEW018 30/25 Q1010 NSC=  
02-Oct-2010 SAID?? WAPI 020400 METAR WAPI 020400Z 10014KT 9999 SCT018 30/25 Q1010 NSC=  
02-Oct-2010 SAID?? WAPI 020500 METAR WAPI 020500Z 08010KT 9999 SCT018 31/25 Q1010 NSC=  
02-Oct-2010 SAID?? WAPI 020600 METAR WAPI 020600Z 08011KT 9999 BKN018 31/25 Q1010 NSC=  
02-Oct-2010 SAID?? WAPI 022300 METAR WAPI 022300Z 10008KT 9999 BKN018 28/25 Q1010 NSC=  
03-Oct-2010 SAID?? WAPI 030000 METAR WAPI 030000Z 10012KT 9999 BKN016 29/25 Q1011 NSC=  
03-Oct-2010 SAID?? WAPI 030100 METAR WAPI 030100Z 08013KT 8000 RA BKN014 29/25 Q101=  
03-Oct-2010 SAID?? WAPI 030100 METAR WAPI 030100Z 08013KT 8000 RA BKN014 29/25 Q1011 NSC=  
03-Oct-2010 SAID?? WAPI 030200 METAR WAPI 030200Z 10014KT 9999 BKN016 30/26 Q1011 NSC=  
03-Oct-2010 SAID?? WAPI 032300 METAR WAPI 032300Z 09009KT 9999 BKN018 29/24 Q1010 NSC=  
04-Oct-2010 SAID?? WAPI 040400 METAR WAPI 040400Z 09012KT 9999 BKN018 31/26 Q1010 NSC=  
04-Oct-2010 SAID?? WAPI 040500 METAR WAPI 040500Z 10012KT 9999 BKN018 31/25 Q1009 NSC=  
04-Oct-2010 SAID?? WAPI 040600 METAR WAPI 040600Z 09013KT 9999 BKN018 31/25 Q1009 NSC=  
04-Oct-2010 SAID?? WAPI 042300 METAR WAPI 042300Z 10006KT 9999 BKN018 28/25 Q1010 NSG=  
05-Oct-2010 SAID?? WAPI 050000 METAR WAPI 050000Z 08008KT 9999 BKN016 29/25 Q1010 NSG=  
05-Oct-2010 SAID?? WAPI 050100 METAR WAPI 050100Z 09010KT 9999 BKN016 30/26 Q1010 NSG=  
05-Oct-2010 SAID?? WAPI 050200 METAR WAPI 050200Z 10005KT 10000 RA BKN016 30/26 Q1010=  
05-Oct-2010 SAID?? WAPI 050300 METAR WAPI 050300Z 10008KT 10000 RA BKN016 30/26 Q1010=  
05-Oct-2010 SAID?? WAPI 050400 METAR WAPI 050400Z 11011KT 9999 BKN016 30/25 Q1010 NSG=  
05-Oct-2010 SAID?? WAPI 050500 METAR WAPI 050500Z 10013KT 8000 RA BKN014 31/26 Q1009=  
05-Oct-2010 SAID?? WAPI 050600 METAR WAPI 050600Z 10004KT 6000 RA BKN014 27/25 Q1009=  
05-Oct-2010 SAID?? WAPI 052300 METAR WAPI 052300Z 09005KT 9999 BKN018 28/25 Q1010 NSC=  
06-Oct-2010 SAID?? WAPI 060000 METAR WAPI 060000Z 09008KT 9999 BKN017 29/25 Q1010 NSC=  
06-Oct-2010 SAID?? WAPI 060100 METAR WAPI 060100Z 10010KT 9999 SCT017 30/25 Q1010 NCS=  
06-Oct-2010 SAID?? WAPI 060200 METAR WAPI 060200Z 11008KT 9999 SCT017 30/25Q1010 NSC=  
06-Oct-2010 SAID?? WAPI 060300 METAR WAPI 060300Z 10008KT 9999 BKN017 31/25 Q1009 NSC=  
06-Oct-2010 SAID?? WAPI 060400 METAR WAPI 060400Z 10010KT 9999 BKN018 31/25 Q1009 NSC=  
06-Oct-2010 SAID?? WAPI 060500 METAR WAPI 060500Z 09009KT 9999 BKN017 31/25 Q1009 NSC=  
06-Oct-2010 SAID?? WAPI 060600 METAR WAPI 060600Z 10011KT 9999 BKN017 31/25 Q1009 NSC=  
06-Oct-2010 SAID?? WAPI 062300 METAR WAPI 062300Z 09004KT 9999 BKN017 28/25 Q1010 NSC=  
07-Oct-2010 SAID?? WAPI 070500 METAR WAPI 070500Z 10011KT 9999 BKN017 30/24 Q1009 NSC=  
07-Oct-2010 SAID?? WAPI 070600 METAR WAPI 070600Z 10009KT 9999 BKN017 29/25 Q1010 NSC=  
07-Oct-2010 SAID?? WAPI 072300 METAR WAPI 072300Z 10003KT 9999 BKN017 28/25 Q1010 NSC=  
08-Oct-2010 SAID?? WAPI 080100 METAR WAPI 080100Z 10003KT 9999 BKN017 29/26 Q1010 NSC=  
08-Oct-2010 SAID?? WAPI 080600 METAR WAPI 080600Z 10008KT 9999 BKN017 30/25 Q1009 NSC=  
08-Oct-2010 SAID?? WAPI 082300 METAR WAPI 082300Z 11006KT 12000 RA SCT014 26/23 Q1010=  
09-Oct-2010 SAID?? WAPI 090100 METAR WAPI 090100Z 11005KT 9999 BKN017 30/25 Q1010 NSG=  
09-Oct-2010 SAID?? WAPI 090200 METAR WAPI 090200Z 07006KT 8000 RA BKN014 28/24 Q1010=  
09-Oct-2010 SAID?? WAPI 090500 METAR WAPI 090500Z 08003KT 8000 RA BKN014 27/25 Q1009=  
09-Oct-2010 SAID?? WAPI 090600 METAR WAPI 090600Z 10004KT 9999 SCT016 29/26 Q1009 NSG=  
09-Oct-2010 SAID?? WAPI 092300 METAR WAPI 092300Z 09004KT 9999 BKN017 28/25 Q1009 NSC=  
10-Oct-2010 SAID?? WAPI 100000 METAR WAPI 100000Z 10005KT 9999 BKN018 29/25 Q1010 NSC=  
10-Oct-2010 SAID?? WAPI 100100 METAR WAPI 100100Z 11008KT 9999 SCT018 30/25 Q1010 NSC=  
10-Oct-2010 SAID?? WAPI 100200 METAR WAPI 100200Z 10006KT 9999 BKN018 31/25 Q1010 NSC=  
10-Oct-2010 SAID?? WAPI 100300 METAR WAPI 100300Z 08008KT 9999 BKN018 31/25 Q1010 NCS=  
10-Oct-2010 SAID?? WAPI 100400 METAR WAPI 100400Z 10010KT 9999 BKN018 30/25 Q1009 NSC=  
10-Oct-2010 SAID?? WAPI 100500 METAR WAPI 100500Z 09007KT 9999 BKN018 30/25 Q1009 NSC=  
10-Oct-2010 SAID?? WAPI 100600 METAR WAPI 100600Z 11008KT 9999 BKN018 30/25 Q1009 NSC=  
10-Oct-2010 SAID?? WAPI 102300 METAR WAPI 102300Z 11003KT 9999 BKN017 26/25 Q1011 NSC=  
11-Oct-2010 SAID?? WAPI 110000 METAR WAPI 110000Z 07003KT 9999 BKN018 27/25 Q1012=  
11-Oct-2010 SAID?? WAPI 110500 METAR WAPI 110500Z 07005KT 8000 RA OVC010 25/23 Q1012=  
11-Oct-2010 SAID?? WAPI 110600 METAR WAPI 110600Z 05006KT 9000 RA OVC010 25/23 Q1011=  
11-Oct-2010 SAID?? WAPI 112300 METAR WAPI 112300Z 00000KT 9999 SCT018 27/25 Q1012 NSG=  
11-Oct-2010 SAID?? WAPI 112300 METAR WAPI 112300Z 06002KT 9999 BKN017 26/24 Q1012 NSC=  
12-Oct-2010 SAID?? WAPI 120500 METAR WAPI 120500Z 09008KT 9999 BKN018 31/25 Q1011 NSC=  
12-Oct-2010 SAID?? WAPI 120600 METAR WAPI 120600Z 09005KT 9999 BKN018 31/25 Q1011 NSC=  
13-Oct-2010 SAID?? WAPI 130000 METAR WAPI 130000Z 33003KT 9999 FEW018 28/26 Q1012 NSG=  
13-Oct-2010 SAID?? WAPI 130100 METAR WAPI 130100Z 32004KT 7000 RERA BKN014 26/23 Q1012=  
13-Oct-2010 SAID?? WAPI 130200 METAR WAPI 130200Z 28004KT 9999 SCT016 29/24 Q1012 NSG=  
13-Oct-2010 SAID?? WAPI 130300 METAR WAPI 130300Z 05004KT 9999 SCT016 29/24 Q1012 NSG=  
13-Oct-2010 SAID?? WAPI 130400 METAR WAPI 130400Z 06003KT 9999 SCT016 29/23 Q1012 NSG=  
13-Oct-2010 SAID?? WAPI 132300 METAR WAPI 132300Z 00000KT 9999 SCT018 26/25 Q1010 NSC=  
14-Oct-2010 SAID?? WAPI 140000 METAR WAPI 140000Z 29004KT 9999 FEW018 28/26 Q1010 NSC=  
14-Oct-2010 SAID?? WAPI 140100 METAR WAPI 140100Z 34006KT 9999 FEW018 30/25 Q1010 NSC=  
14-Oct-2010 SAID?? WAPI 140200 METAR WAPI 140200Z 35005KT 9999 FEW018 31/25 Q1010 NSC=  
14-Oct-2010 SAID?? WAPI 140300 METAR WAPI 140300Z 34005KT 9999 SCT018 32/25 Q1009 NSC=  
14-Oct-2010 SAID?? WAPI 140500 METAR WAPI 140500Z 17010KT 9999 BKN018 31/26 Q1009 NSC=  
14-Oct-2010 SAID?? WAPI 140500 METAR WAPI 140500Z 11008KT 9999 SCT018 32/26 Q1009 NSC=  
14-Oct-2010 SAID?? WAPI 140600 METAR WAPI 140600Z 18011KT 2000 RAIN OVC010 Q1009=  
14-Oct-2010 SAID?? WAPI 142300 METAR WAPI 142300Z 35002KT 9999 BKN018 27/25 Q1010 NSC=  
15-Oct-2010 SAID?? WAPI 150500 METAR WAPI 150500Z 17008KT 9999 BKN018 32/26 Q1009 NSC=  
15-Oct-2010 SAID?? WAPI 150600 METAR WAPI 150600Z 11006KT 9999 BKN018 31/26 Q1008 NSC=  
15-Oct-2010 SAID?? WAPI 152300 METAR WAPI 152300Z 35002KT 9999 BKN018 27/25 Q1010 NSC=  
16-Oct-2010 SAID?? WAPI 160500 METAR WAPI 160500Z 00000KT 9999 BKN018 31/26 Q1009 NOSIG=  
16-Oct-2010 SAID?? WAPI 162300 METAR WAPI 162300Z 00000KT 9999 FEW018 27/25 Q1011 NSG=  
17-Oct-2010 SAID?? WAPI 170000 METAR WAPI 170000Z 10006KT 9999 SCT018 29/24 Q1011 NSG=  
17-Oct-2010 SAID?? WAPI 170100 METAR WAPI 170100Z 13005KT 9999 SCT018 30/25 Q1011 NSG=  
17-Oct-2010 SAID?? WAPI 170200 METAR WAPI 170200Z 13004KT 9999 SCT018 30/24 Q1011 NSG=  
17-Oct-2010 SAID?? WAPI 170300 METAR WAPI 170300Z 12006KT 9999 BKN018 31/26 Q1010 NSG=  
17-Oct-2010 SAID?? WAPI 170400 METAR WAPI 170400Z 11008KT 9999 SCT016CB BKN018 31/25 Q1010 NSG=  
17-Oct-2010 SAID?? WAPI 170500 METAR WAPI 170500Z 10010KT 9999 FEW016 BKN018 31/25 Q1010 NSG=  
17-Oct-2010 SAID?? WAPI 170600 METAR WAPI 170600Z 11006KT 9999 SCT016CB BKN018 30/25 Q1009 NSG=  
17-Oct-2010 SAID?? WAPI 172300 METAR WAPI 172300Z 10005KT 9999 BKN014 26/25 Q1011 NSC=  
18-Oct-2010 SAID?? WAPI 180000 METAR WAPI 180000Z 11005KT 9999 BKN 017 27/24 Q1012 NCS=  
18-Oct-2010 SAID?? WAPI 180300 METAR WAPI 180300Z 10010KT 9999 SCT018 30/25 Q1011 NSC=  
18-Oct-2010 SAID?? WAPI 180400 METAR WAPI 180400Z 09012KT 9999 BKN018 30/24 Q1011 NSC=  
18-Oct-2010 SAID?? WAPI 180500 METAR WAPI 180500Z 10013KT 9999 BKN018 30/25 Q 1011 NIL=  
18-Oct-2010 SAID?? WAPI 182300 METAR WAPI 182300Z 11008KT 9999 BKN018 29/24 Q1011 NSC=  
19-Oct-2010 SAID?? WAPI 190500 METAR WAPI 190500Z 08008KT 9999 BKN018 31/25 Q1010 NSC=  
19-Oct-2010 SAID?? WAPI 190600 METAR WAPI 190600Z 10009KT 9999 BKN018 31/25 Q1010 NSC=  
19-Oct-2010 SAID?? WAPI 192300 METAR WAPI 192300Z 09005KT 9999 BKN018 28/24 Q1011 NSC=  
20-Oct-2010 SAID?? WAPI 200100 METAR WAPI 200100Z 10008KT 9999 BKN018 31/25 Q1011 NSC=  
20-Oct-2010 SAID?? WAPI 202300 METAR WAPI 202300Z 00000KT 9999 SCT018 27/26 Q101 NSG=  
21-Oct-2010 SAID?? WAPI 210000 METAR WAPI 210000Z 08004KT 9999 SDCT016 28/26 Q1010 NSG=  
21-Oct-2010 SAID?? WAPI 210100 METAR WAPI 210200Z 07004KT 9999 FEW018 29/24 Q1011 NSG=  
21-Oct-2010 SAID?? WAPI 210200 METAR WAPI 210200Z 10003KT 9999 SCT018 30/24 Q101 NSG=  
21-Oct-2010 SAID?? WAPI 210300 METAR WAPI 210300Z 09003KT 9999 SCT018 31/25 Q1010 NSG=  
21-Oct-2010 SAID?? WAPI 210400 METAR WAPI 210400Z 08004KT 8000 RERA BKN014 27/24 Q1010=  
21-Oct-2010 SAID?? WAPI 210500 METAR WAPI 210500Z 08005KT 9999 BKN014 29/25 Q1010 NSG=  
21-Oct-2010 SAID?? WAPI 210600 METAR WAPI 210600Z 33005KT 10000 TS SCT014 BKN 016 28/24 Q1010=  
22-Oct-2010 SAID?? WAPI 220100 METAR WAPI 220100Z 10008KT 9999 BKN018 29/25 Q1011 NOSIG=  
22-Oct-2010 SAID?? WAPI 220200 METAR WAPI 220200Z 11006KT 9999 BKN018 29/25 Q1011 NOSIG=  
22-Oct-2010 SAID?? WAPI 220300 METAR WAPI 220300Z 10006KT 9999 OVC017 28/25 Q1010 NOSIG=  
22-Oct-2010 SAID?? WAMM 220400 METAR WAPI 220400Z 09005KT 9999 BKN018 30/25 Q1010 NOSIG=  
22-Oct-2010 SAID?? WAPI 222300 METAR WAPI 222300Z 11002KT 9999 SCT018 28/25 Q1011 NSC=  
23-Oct-2010 SAID?? WAPI 230500 METAR WAPI 230500Z 10006KT 9999 BKN018 30/25 Q1010 NSC=  
23-Oct-2010 SAID?? WAPI 230600 METAR WAPI 230600Z 10005KT 9999 BKN018 30/25 Q1010 NSC=  
23-Oct-2010 SAID?? WAPI 232300 METAR WAPI 232300Z 10005KT 9999 BKN018 29/25 Q1010 NSC=  
24-Oct-2010 SAID?? WAPI 240600 METAR WAPI 240600Z 10010KT 9000 RAIN BKN010 28/26 Q1010=  
24-Oct-2010 SAID?? WAPI 242300 METAR WAPI 242300Z 00000KT 9999 FEW018 28/26 Q1011 NSG=  
25-Oct-2010 SAID?? WAPI 250000 METAR WAPI 250000Z 11004KT 9999 SCT018 29/25 Q1010 NSG=  
25-Oct-2010 SAID?? WAPI 250100 METAR WAPI 250100Z 10004KT 9999 SCT018 30/25 Q1011 NSG=  
25-Oct-2010 SAID?? WAPI 250200 METAR WAPI 250200Z 09004KT 9999 SCT018 31/25 Q1010 NSG=  
25-Oct-2010 SAID?? WAPI 250500 METAR WAPI 250500Z 11003KT 9999 SCT018 31/25 Q1011 NSG=  
25-Oct-2010 SAID?? WAPI 250600 METAR WAPI 250600Z 09009KT 9999 FEW016CB 31/25 Q1010 NSG=  
25-Oct-2010 SAID?? WAPI 252300 METAR WAPI 252300Z 11005KT 9999 BKN018 29/26 Q1010 NSC=  
26-Oct-2010 SAID?? WAPI 260000 METAR WAPI 260000Z 09008KT 9999 SCT018 30/25 Q19010 NSC=  
26-Oct-2010 SAID?? WAPI 260100 METAR WAPI 260100Z 10010KT 9999 BKN018 30/26 Q1010 NOSIG=  
26-Oct-2010 SAID?? WAPI 260300 METAR WAPI 260300Z 11006KT 9999 SCT018 30/25 Q1010 NSC=  
26-Oct-2010 SAID?? WAPI 260400 METAR WAPI 260400Z 10010KT 9999 BKN018 31/26 Q1010 NSC=  
26-Oct-2010 SAID?? WAPI 260500 METAR WAPI 260500Z 09008KT 9999 SCT018 31/25 Q1010 NSC=  
26-Oct-2010 SAID?? WAPI 260600 METAR WAPI 260600Z 11005KT 9999 BKN018 31/25 Q1010 NSC=  
26-Oct-2010 SAID?? WAPI 262300 METAR WAPI 262300Z 10003KT 9999 BKN018 28/26 Q1010 NSC=  
27-Oct-2010 SAID?? WAPI 270000 METAR WAPI 270000Z 10006 KT 9999 SCT018 28/26 Q1010 NSC=  
27-Oct-2010 SAID?? WAPI 270500 METAR WAPI 270500Z 10010KT 9999 OVC014 27/25 Q1009 NSC=  
27-Oct-2010 SAID?? WAPI 270600 METAR WAPI 270600Z 10010KT 9999 OVC014 30/25 Q1009 NSC=  
27-Oct-2010 SAID?? WAPI 272300 METAR WAPI 272300Z 09002KT 9999 BKB014 27/26 Q1010 NSC=  
28-Oct-2010 SAID?? WAPI 280500 METAR WAPI 280500Z 11004KT 9999 BKN017 29/25 Q1010 NSC=  
28-Oct-2010 SAID?? WAPI 280600 METAR WAPI 280600Z 08006KT 9999 BKN017 30/25 Q1009 NSC=  
28-Oct-2010 SAID?? WAPI 282300 METAR WAPI 282300Z 00000KT 9999 FEW018 26/25 Q1010 NSG=  
29-Oct-2010 SAID?? WAPI 290000 METAR WAPI 290000Z 28003KT 9999 SCT018 29/25 Q1010 NSG=  
29-Oct-2010 SAID?? WAPI 290100 METAR WAPI 290100Z 10003KT 9999 BKN016 30/24 Q1010 NSG=  
29-Oct-2010 SAID?? WAPI 290200 METAR WAPI 290200Z 09004KT 8000 RERA SCT014CB BKN018 31/25 Q1010=  
29-Oct-2010 SAID?? WAPI 290200 METAR WAPI 290200Z 09004KT 8000 RERA SCTY014CB BKN018 31/25 Q1010=  
29-Oct-2010 SAID?? WAPI 290300 METAR WAPI 290300Z 34004KT 2000 INTERMODRA BKN012CB 26/23 Q1011=  
29-Oct-2010 SAID?? WAPI 290400 METAR WAPI 290400Z 33003KT 6000 RERA BKN014CB 25/24 Q1011=  
29-Oct-2010 SAID?? WAPI 290500 METAR WAPI 290500Z 34003KT 9999 SCT016CB 26/23 Q1010 NSG=  
29-Oct-2010 SAID?? WAPI 290600 METAR WAPI 290600Z 32004KT 9999 FEW016CB 28/24 Q1009 NSG=  
29-Oct-2010 SAID?? WAPI 292300 METAR WAPI 292300Z 00000KT 9999 FEW018 26/24 Q1010 NSC=  
30-Oct-2010 SAID?? WAPI 300000 METAR WAPI 300000Z 00000KT 9999 FEW018 26/24 Q1010 NSC=  
30-Oct-2010 SAID?? WAPI 300000 METAR WAPI 300000Z 34003KT 9999 FEW018 28/25 Q1010 NSC=  
30-Oct-2010 SAID?? WAPI 300100 METAR WAPI 300100Z 35004KT 9999 SCT018 30/24 Q1011 NSC=  
30-Oct-2010 SAID?? WAPI 300200 METAR WAPI 300200Z 35004KT 9999 SCT 30/26 Q1012 NSC=  
30-Oct-2010 SAID?? WAPI 300300 METAR WAPI 300300Z 34005KT 9999 SCT018 31/25 Q1010 NSC=  
30-Oct-2010 SAID?? WAPI 300400 METAR WAPI 300400Z 33003KT 9999 SCT018 31/25 Q1010 NSC=  
30-Oct-2010 SAID?? WAPI 300500 METAR WAPI 300500Z 13005KT 9999 SCT018 31/25 Q1010 NSC=  
30-Oct-2010 SAID?? WAPI 300600 METAR WAPI 300600Z 13005KT 9999 BKN018 32/25 Q1010 NSC=  
31-Oct-2010 SAID?? WAPI 310400 METAR WAPI 310400Z 11007KT 9999 SCT018 31/24 Q1009 NSC=  
31-Oct-2010 SAID?? WAPI 310500 METAR WAPI 310500Z 15008KT 9999 BKN018 31/24 Q1009 NSC=  
31-Oct-2010 SAID?? WAPI 310600 METAR WAPI 310600Z 15006KT 9999 SCT018 31/24 Q1009=  
01-Nov-2010 SAID?? WAPI 012300 METAR WAPI 012300Z 10010KT 9999 BKN017 26/25 Q1009 NSC=  
02-Nov-2010 SAID?? WAPI 020000 METAR WAPI 020000Z 08009KT 9999 BKN018 28/25 Q1010 NSG=  
02-Nov-2010 SAID?? WAPI 020100 METAR WAPI 020100Z 09011KT 9999 SCT018 29/25 Q1010 NSG=  
02-Nov-2010 SAID?? WAPI 020200 METAR WAPI 020200Z 10008KT 9999 SCT018 29/25 Q1010 NSG=  
02-Nov-2010 SAID?? WAPI 020300 METAR WAPI 020300Z 10010KT 8000 RA FEW014CB SCT016 29/25 Q1010=  
02-Nov-2010 SAID?? WAPI 020400 METAR WAPI 020400Z 08003KT 3000 SLRARETS BKN012CB 28/25 Q1009=  
02-Nov-2010 SAID?? WAPI 020500 METAR WAPI 020500Z 09004KT 9999 BKN014 26/25 Q010 NSC=  
02-Nov-2010 SAID?? WAPI 020500 METAR WAPI 020500Z 09004KT 9999 BKN014 26/25 Q010 NSC=  
03-Nov-2010 SAID?? WAPI 030500 METAR WAPI 030500Z 10011KT 9999 BKN016 30/25 Q1010 NSC=  
03-Nov-2010 SAID?? WAPI 030600 METAR WAPI 030600Z 09010KT 9999 BKN016 29/25 Q1010 NSC=  
03-Nov-2010 SAID?? WAPI 032300 METAR WAPI 032300Z 07003KT 4000 RA OVC010 24/24 Q1011=  
04-Nov-2010 SAID?? WAPI 040100 METAR WAPI 040100Z 09003KT 9000 RA OVC010 24/24 Q1012=  
04-Nov-2010 SAID?? WAPI 040600 METAR WAPI 040600Z 09004 KT 9999 BKN016 26/24 Q 1010 NSC=  
04-Nov-2010 SAID?? WAPI 042300 METAR WAPI 042300Z 10002KT 9999 FEW018 25/25 Q1010 NSC=  
05-Nov-2010 SAID?? WAPI 050000 METAR WAPI 050000Z 10004KT 9999 SCT018 28/25 Q1010 NSC=  
05-Nov-2010 SAID?? WAPI 050100 METAR WAPI 050100Z 11006KT 9999 SCT018 29/25 Q1010 NSC=  
05-Nov-2010 SAID?? WAPI 050200 METAR WAPI 050200Z 10005KT 9999 SCT018 31/25 Q1010 NSC=  
05-Nov-2010 SAID?? WAPI 050300 METAR WAPI 050300Z 10007KT 9999 SCT018 31/25 Q1010 NSC=  
05-Nov-2010 SAID?? WAPI 050400 METAR WAPI 050400Z 11007KT 9999 BKN018 31/25 Q1009 NSC=  
05-Nov-2010 SAID?? WAPI 050430 METAR WAPI 050430Z 11007KT 9999 BKN018 31/24 Q1009 NSC=  
05-Nov-2010 SAID?? WAPI 050500 METAR WAPI 050500Z 11007KT 9999 BKN018 31/25 Q1009 NSC=  
05-Nov-2010 SAID?? WAPI 050600 METAR WAPI 050600Z 10008KT 9999 BKN018 31/25 Q1008 NSC=  
05-Nov-2010 SAID?? WAPI 052300 METAR WAPI 052300Z 00000KT 9999 BKN018 26/25 Q1011 NSC=  
06-Nov-2010 SAID?? WAPI 060000 METAR WAPI 060000Z 07004KT 9999 BKN018 29/25 Q1011 NSG=  
06-Nov-2010 SAID?? WAPI 060100 METAR WAPI 060100Z 12004KT 9999 BKN018 30/25 Q1011 NSG=  
06-Nov-2010 SAID?? WAPI 060200 METAR WAPI 060200Z 14005KT 9999 BKN018 31/25 Q1011 NSG=  
06-Nov-2010 SAID?? WAPI 060300 METAR WAPI 060300Z 11007KT 9999 BKN018 32/24 Q1011 NSG=  
06-Nov-2010 SAID?? WAPI 060400 METAR WAPI 060400Z 12005KT 9999 BKN018 32/24 Q1011 NSG=  
06-Nov-2010 SAID?? WAPI 060500 METAR WAPI 060500Z 11007KT 9999 BKN018 32/25 Q1010 NSC=  
06-Nov-2010 SAID?? WAPI 060600 METAR WAPI 060600Z 11008KT 9999 SCT018 31/24 Q1010 NSC=  
06-Nov-2010 SAID?? WAPI 062300 METAR WAPI 062300Z 34002KT 9999 SCT018 26/24 Q1011 NSC=  
07-Nov-2010 SAID?? WAPI 070300 METAR WAPI 070300Z 12004KT 9999 SCT018 32/24 Q1009 NSC=  
07-Nov-2010 SAID?? WAPI 070500 METAR WAPI 070500Z 11005KT 9999 SCT018 32/23 Q1011 NSC=  
07-Nov-2010 SAID?? WAPI 070600 METAR WAPI 070600Z 11005KT 9999 SCT018 32/23 Q1011 NSC=  
07-Nov-2010 SAID?? WAPI 072300 METAR WAPI 072300Z 00000KT 9999 FEW018 27/24 Q1011 NSC=  
08-Nov-2010 SAID?? WAPI 080500 METAR WAPI 080500Z 10005KT 9999 SCT018 31/24 Q 1012 NSC=  
08-Nov-2010 SAID?? WAPI 080600 METAR WAPI 080600Z 09006KT 9999 SCT018 31/24 Q1011 NSC=  
08-Nov-2010 SAID?? WAPI 082300 METAR WAPI 082300Z 11003KT 9999 SCT018 28/24 Q1013 NSC=  
09-Nov-2010 SAID?? WIOG 090000 METAR WAPI 090000Z 10005KT 9999 BKN018 30/25 Q1013 NSC=  
09-Nov-2010 SAID?? WAPI 090100 METAR WAPI 090100Z 10007KT 9999 BKN018 31/25 Q1013 NSC=  
09-Nov-2010 SAID?? WAPI 090200 METAR WAPI 090200Z 11005KT 9999 31/25 Q1013 NSC=  
09-Nov-2010 SAID?? WAPI 090300 METAR WAPI 090300Z 11007KT 9999 31/24 Q1013 NSC=  
09-Nov-2010 SAID?? WAPI 090400 METAR WAPI 090400Z 10004KT 9999 31/24 Q1012 NSC=  
09-Nov-2010 SAID?? WAPI 090500 METAR WAPI 090500Z 10004KT 9999 31/24 Q1012 NSC=  
09-Nov-2010 SAID?? WAPI 090600 METAR WAPI 090600Z 10004KT 9999 32/24 Q1012 NSC=  
09-Nov-2010 SAID?? WAPI 092300 METAR WAPI 092300Z 09003KT 9999 BKN018 29/24 Q1013 NSC=  
10-Nov-2010 SAID?? WAPI 100000 METAR WAPI 100000Z 10006KT 9999 FEW018 30/24 Q1013 NSG=  
10-Nov-2010 SAID?? WAPI 100100 METAR WAPI 100100Z 11008KT 9999 FEW018 31/25 Q1013 NSG=  
10-Nov-2010 SAID?? WAPI 100200 METAR WAPI 100200Z 08010KT 9999 FEW018 31/24 Q1012 NSG=  
10-Nov-2010 SAID?? WAPI 100300 METAR WAPI 100300Z 09009KT 9999 FEW018 31/24 Q1012 NSG=  
10-Nov-2010 SAID?? WAPI 100400 METAR WAPI 100400Z 10010KT 9999 FEW018 32/25 Q1012 NSC=  
10-Nov-2010 SAID?? WAPI 100500 METAR WAPI 100500Z 09008KT 9999 BKN018 31/25 Q1011 NSC=  
10-Nov-2010 SAID?? WAPI 100600 METAR WAPI 100600Z 09010KT 9999 BKN018 31/25 Q1011 NSC=  
10-Nov-2010 SAID?? WAPI 102300 METAR WAPI 102300Z 34003KT 9999 BKN018 28/25 Q1011 NSC=  
11-Nov-2010 SAID?? WAPI 110500 METAR WAPI 110500Z 10008KT 9999 BKN018 33/25 Q1010 NSC=  
11-Nov-2010 SAID?? WAPI 110600 METAR WAPI 110600Z 09008KT 9999 BKN018 32/25 Q1010 NSC=  
11-Nov-2010 SAID?? WAPI 112300 METAR WAPI 112300Z 00000KT 9999 BKN018 27/25 Q1011 NSC=  
12-Nov-2010 SAID?? WAPI 120400 METAR WAPI 120400Z 10007KT 9999 BKN018 30/25 Q1010 NSC=  
12-Nov-2010 SAID?? WAPI 120500 METAR WAPI 120500Z 09010KT 9999 BKN018 31/25 Q1010 NSC=  
12-Nov-2010 SAID?? WAPI 120600 METAR WAPI 120600Z 29011KT 9999 BKN016 26/23 Q1010 NSC=  
13-Nov-2010 SAID?? WAPI 130000 METAR WAPI 130000Z 10003KT 9999 SCT018 29/26 Q1011 NSC=  
13-Nov-2010 SAID?? WAPI 130100 METAR WAPI 130100Z 11003KT 9999 SCT018 29/26 Q1011 NSC=  
13-Nov-2010 SAID?? WAPI 130200 METAR WAPI 130200Z 11005KT 9999 SCT018 31/26 Q1011 NSC=  
13-Nov-2010 SAID?? WAPI 130300 METAR WAPI 130300Z 10006KT 9999 SCT018 31/25 Q1011 NSC=  
13-Nov-2010 SAID?? WAPI 130400 METAR WAPI 130400Z 09004KT 9999 BKN018 31/25 Q1011 NSC=  
13-Nov-2010 SAID?? WAPI 130500 METAR WAPI 130500Z 11005KT 9999 BKN018 32/25 Q1011 NSC=  
13-Nov-2010 SAID?? WAPI 130600 METAR WAPI 130600Z 10004KT 9999 BKN018 31/25 Q1010 NSC=  
13-Nov-2010 SAID?? WAPI 132300 METAR WAPI 132300Z 00000KT 9999 SCT018 27/26 Q1012 NSC=  
14-Nov-2010 SAID?? WAPI 140000 METAR WAPI 140000Z 11005KT 9999 FEW018 31/24 Q1012 NSG=  
14-Nov-2010 SAID?? WAPI 140000 METAR WAPI 140000Z 10003KT 9999 SCT018 29/24 Q1012 NSG=  
14-Nov-2010 SAID?? WAPI 140200 METAR WAPI 140200Z 08004KT 9999 FEW018 32/24 Q1012 NSG=  
14-Nov-2010 SAID?? WAPI 140300 METAR WAPI 140300Z 09004KT 9999 FEW018 32/24 Q1012 NSG=  
14-Nov-2010 SAID?? WAPI 140400 METAR WAPI 140400Z 11005KT 9999 FEW018 33/25 Q1012 NSG=  
14-Nov-2010 SAID?? WAPI 140500 METAR WAPI 140500Z 10007KT 9999 FEW018 32/24 NSC=  
14-Nov-2010 SAID?? WAPI 140600 METAR WAPI 140600Z 11008KT 9999 FEW018 32/25 Q1011 NSC=  
14-Nov-2010 SAID?? WAPI 142300 METAR WAPI 142300Z 15003KT 9999 FEW018 28///25 Q1011 NSC=  
15-Nov-2010 SAID?? WAPI 150600 METAR WAPI 150600Z 11009KT 9999 SCT018 32/24 Q1010 NSC=  
15-Nov-2010 SAID?? WAPI 152300 METAR WAPI 152300Z 00000KT 9999 FEW018 27/23 Q1010 NSC=  
16-Nov-2010 SAID35 WAPI 160200 METAR WAPI 160200Z 27006KT RA 8.000 BKN015 26/25 Q1009 NSC=  
16-Nov-2010 SAID?? WAPI 160300 METAR WAPI 160300Z 12006KT 9999 FEW018 32/24 Q1009 NSC=  
16-Nov-2010 SAID?? WAPI 160400 METAR WAPI 160400Z 10008KT 9999 FEW018 32/23 Q1009 NSC=  
16-Nov-2010 SAID?? WAPI 160600 METAR WAPI 160600Z 10009KT 9999 FEW018 32/23 Q1009 NSC=  
16-Nov-2010 SAID?? WAPI 162300 METAR WAPI 162300Z 00000KT 9999 FEWO18 27/24 Q1010 NSC=  
17-Nov-2010 SAID?? WAPI 170000 METAR WAPI 170000Z 11003KT 9999 FEW018 29/25 Q1010 NSC=  
17-Nov-2010 SAID?? WAPI 170100 METAR WAPI 170100Z 10003KT 9999 FEW018 30/25 Q1010 NSC=  
17-Nov-2010 SAID?? WAPI 170200 METAR WAPI 170200Z 10004KT 9999 FEW018 32/25 Q1009 NSC=  
17-Nov-2010 SAID?? WAPI 170400 METAR WAPI 170400Z 11006KT 9999 FEW018 33/23 Q1009 NSC=  
17-Nov-2010 SAID?? WAPI 170400 METAR WAPI 170400Z 11006KT 9999 FEW018 Q1009 NSC=  
17-Nov-2010 SAID?? WAPI 170500 METAR WAPI 170500Z 10004KT 9999 FEW018 33/25 Q1009 NSC=  
17-Nov-2010 SAID?? WAPI 170600 METAR WAPI 170600Z 08005KT 9999 SCT018 33/24 Q1009 NSC=  
17-Nov-2010 SAID?? WAPI 172300 METAR WAPI 172300Z 00000KT 9999 SCT018 27/25 Q1010 NSC=  
18-Nov-2010 SAID?? WAPI 180000 METAR WAPI 180000Z 21006KT 9999 SCT018 29/25 Q1010 NSG=  
18-Nov-2010 SAID?? WAPI 180100 METAR WAPI 180100Z 21006KT 9999 SCT018 29/25 Q1010 NSG=  
18-Nov-2010 SAID?? WAPI 180200 METAR WAPI 180200Z 13004KT 9999 FEW018 32/25 Q1009 NSG=  
18-Nov-2010 SAID?? WAPI 180300 METAR WAPI 180300Z 12006KT 9999 SCT018 32/25 Q1009 NSG=  
18-Nov-2010 SAID?? WAPI 180400 METAR WAPI 180400Z 13005KT 9999 BKN018 32/25 Q1009 NSG=  
18-Nov-2010 SAID?? WAPI 180500 METAR WAPI 180500Z 10005KT 9999 FEW016CB SCT018 32/25 Q1009 NSG=  
18-Nov-2010 SAID?? WAPI 180600 METAR WAPI 180600Z 10005KT 9999 SCT018 32/25 Q1009 NSC=  
18-Nov-2010 SAID?? WAPI 182300 METAR WAPI 182300Z 35003KT 9999 SCT018 26/24 Q1010 NSC=  
19-Nov-2010 SAID?? WAPI 190400 METAR WAPI 190400Z 11003KT 9999 BKN018 33/25 Q1009 NSC=  
19-Nov-2010 SAID?? WAPI 190500 METAR WAPI 190500Z 10006KT 9999 SCT018 33/25 Q1009 NSC=  
19-Nov-2010 SAID?? WAPI 190600 METAR WAPI 190600Z 11007KT 9999 SCT018 32/25 Q1009 NSC=  
20-Nov-2010 SAID35 WAPI 200300 METAR WAPI 200300Z 19004KT 9999 BKN016 CB 31/26 Q1009 NSC=  
20-Nov-2010 SAID?? WAPI 200400 METAR WAPI 200400Z 09008KT 9999 SCT018 32/23 Q1010 NSC=  
20-Nov-2010 SAID?? WAPI 200500 METAR WAPI 200500Z 10007KT 9999 SCT018 33/22 Q1009 NSC=  
20-Nov-2010 SAID?? WAPI 200600 METAR WAPI 200600Z 10008KT 9999 FEW018 32/23 Q1008 NSC=  
20-Nov-2010 SAID?? WAPI 202300 METAR WAPI 202300Z 00000KT 9999 FEW018 27/25 Q1009 NSC=  
21-Nov-2010 SAID?? WAPI 210000 METAR WAPI 210000Z 10004KT 9999 SCT018 30/24 Q1009 NSC=  
21-Nov-2010 SAID?? WAPI 210100 METAR WAPI 210100Z 07004KT 9999 SCT018 32/25 Q1009 NSG=  
21-Nov-2010 SAID?? WAPI 210200 METAR WAPI 210200Z 10005KT 9999 SCT018 32/24 Q1008 NSC=  
21-Nov-2010 SAID?? WAPI 210300 METAR WAPI 210300Z 10007KT 9999 SCT018 33/24 Q1008 NSC=  
21-Nov-2010 SAID?? WAPI 210400 METAR WAPI 210400Z 11010KT 9999 FEW018 33/24 Q1008 NSC=  
21-Nov-2010 SAID?? WAPI 210500 METAR WAPI 210500Z 10006KT 9999 FEW018 33/24 Q1009 NSC=  
21-Nov-2010 SAID?? WAPI 210600 METAR WAPI 210600Z 09004KT 9999 FEW018 33/24 Q1008 NSC=  
21-Nov-2010 SAID?? WAPI 212300 METAR WAPI 212300Z 29003KT 9999 BKN018 28/26 Q1008 NSC=  
22-Nov-2010 SAID?? WAPI 220200 METAR WAPI 220200Z 10006KT 9999 SCT018 32/25 Q1008 NSG=  
22-Nov-2010 SAID?? WAPI 220300 METAR WAPI 220300Z 09005KT 9999 SCT018 32/26 Q1008 NSG=  
22-Nov-2010 SAID?? WAPI 220400 METAR WAPI 220400Z 11004KT 9999 FEW014CB SCT018 32/25 Q1008 NSG=  
22-Nov-2010 SAID?? WAPI 220500 METAR WAPI 220500Z 08006KT 9999 BKN014 33/25 Q1008 NSC=  
22-Nov-2010 SAID?? WAPI 220600 METAR WAPI 220600Z 34008KT 9999 BKN014 30/24 Q1008 NSC=  
22-Nov-2010 SAID?? WAPI 222300 METAR WAPI 222300Z 00000KT 9999 FEW018 28/26 Q1009 NSC=  
23-Nov-2010 SAID?? WAPI 230500 METAR WAPI 230500Z 21007KT 9999 BKN016 32/25 Q1008 NSC=  
23-Nov-2010 SAID?? WAPI 230600 METAR WAPI 230600Z 34006KT 9999 BKN018 30/24 Q1008 NSC=  
23-Nov-2010 SAID?? WAPI 232300 METAR WAPI 232300Z 00000KT 9999 BKN018 28/26 Q1010 NSC=  
24-Nov-2010 SAID?? WAPI 240500 METAR WAPI 240500Z 10006KT 9999 SCT018 3/25 Q1009 NSC=  
24-Nov-2010 SAID?? WAPI 240600 METAR WAPI 240600Z 10008KT 9999 SCT018 33/24 Q1009 NSC=  
24-Nov-2010 SAID?? WAPI 242300 METAR WAPI 242300Z 00000KT 9999 FEW018 28/25 Q1009 NSC=  
25-Nov-2010 SAID?? WAPI 250000 METAR WAPI 250000Z 10004KT 9999 SCT018 30/25 Q1009 NSC=  
25-Nov-2010 SAID?? WAPI 250200 METAR WAPI 250200Z 11006KT 9999 SCT018 33/25 Q1009 NSC=  
25-Nov-2010 SAID?? WAPI 250300 METAR WAPI 250300Z 11008KT 9999 FEW018 33/25 Q1008 NSC=  
25-Nov-2010 SAID?? WAPI 250400 METAR WAPI 250400Z 09908KT 9999 FEW018 33/24 Q1008 NSC=  
25-Nov-2010 SAID?? WAPI 250500 METAR WAPI 250500Z 09006KT 9999 FEW018 33/24 Q1008 NSC=  
25-Nov-2010 SAID?? WAPI 250600 METAR WAPI 250600Z 10006KT 9999 BKN018 33/24 Q1008 NSC=  
25-Nov-2010 SAID?? WAPI 252300 METAR WAPI 252300Z 34003KT 9999 FEW018 28/26 Q1009 NSC=  
26-Nov-2010 SAID?? WAPI 260000 METAR WAPI 260000Z 29003KT 9999 FEW018 30/26 Q1009 NSG=  
26-Nov-2010 SAID?? WAPI 260100 METAR WAPI 260100Z 11006KT 9999 SCT016 32/25 Q1009 NSG=  
26-Nov-2010 SAID?? WAPI 260200 METAR WAPI 260200Z 10005KT 9999 SCT016 33/25 Q1008 NSG=  
26-Nov-2010 SAID?? WAPI 260300 METAR WAPI 260300Z 09007KT 9999 SCT018 33/25 Q1008 NSG=  
26-Nov-2010 SAID?? WAPI 260400 METAR WAPI 260400Z 10006KT 9999 FEW014CB SCT018 33/25 Q1008 NSG=  
26-Nov-2010 SAID?? WAPI 260600 METAR WAPI 260600Z 09006KT 9999 BKN018 33/24 Q1007 NSC=  
26-Nov-2010 SAID?? WAPI 262300 METAR WAPI 262300Z 29003KT 9999 FEW018 28/24 Q1009 NSC=  
27-Nov-2010 SAID?? WAPI 270000 METAR WAPI 270000Z 27005KT 9999 FEW018 30/24 Q1009 NSC=  
27-Nov-2010 SAID?? WAPI 270400 METAR WAPI 270400Z 17005KT 9999 BKN018 33/25 Q1009 NSC=  
27-Nov-2010 SAID?? WAPI 270500 METAR WAPI 270500Z 18004KT 9999 BKN016 33/25 NSC=  
27-Nov-2010 SAID?? WAPI 270600 METAR WAPI 270600Z 10002KT 9999 BKN014 25/24 Q1008 NSC=  
28-Nov-2010 SAID?? WAPI 280100 METAR WAPI 280100Z 01005KT 9999 SCT018 27/24 Q1010 NSC=  
28-Nov-2010 SAID?? WAPI 280200 METAR WAPI 280200Z 34006KT 9999 SCT018 28/24 Q1010 NSC=  
28-Nov-2010 SAID?? WAPI 280600 METAR WAPI 280600Z 35008KT 9999 SCT018 31/23 Q1008 NSC=  
28-Nov-2010 SAID?? WAPI 282300 METAR WAPI 282300Z 03003KT 9999 FEW018 27/25 Q1008 NSC=  
29-Nov-2010 SAID?? WAPI 290000 METAR WAPI 290000Z 26004KT FEW018 29/25 Q1009 NSC=  
29-Nov-2010 SAID?? WAPI 290100 METAR WAPI 290100Z 24004KT 9999 FEW018 31/25 Q1008 NSC=  
29-Nov-2010 SAID?? WAPI 290200 METAR WAPI 290200Z 25006KT 9999 FEW018 32/25 Q1008 NSC=  
29-Nov-2010 SAID?? WAPI 290300 METAR WAPI 290300Z 25005KT 9999 FEW018 33/25 Q1007 NSC=  
29-Nov-2010 SAID?? WAPI 292300 METAR WAPI 292300Z 34003KT 9999 FEW018 28/25 Q1007 NSC=  
30-Nov-2010 SAID?? WAPI 300000 METAR WAPI 300000Z 21002 9999 FEW018 30/25 Q1007 NSG=  
30-Nov-2010 SAID?? WAPI 300100 METAR WAPI 300100Z 20004KT 9999 SCT018 31/26 Q1007 NSG=  
30-Nov-2010 SAID?? WAPI 300200 METAR WAPI 300200Z 15005KT 9999 SCT018 32/26 Q1007 NSG=  
30-Nov-2010 SAID?? WAPI 300300 METAR WAPI 300300Z 11006KT 9999 FEW014CB SCT018 33/25 Q1006=  
30-Nov-2010 SAID?? WAPI 300400 METAR WAPI 300400Z 14005KT 8000 PREC IN SIGHT15 FEW012CB BKN016 32/25 Q1007=  
30-Nov-2010 SAID?? WAPI 300500 METAR WAPI 300500Z 10006KT 9999 SCT018 33/25 Q1006 NSC=  
30-Nov-2010 SAID?? WAPI 300600 METAR WAPI 300600Z 11007KT 9999 SCT018 32/25 Q1005=  
30-Nov-2010 SAID?? WAPI 302300 METAR WAPI 302300Z 03002KT 9999 FEW018 27/25 Q1006 NSC=  
01-Dec-2010 SAID?? WAPI 010000 METAR WAPI 010000Z 03004KT 9999 FEW018 29/24 Q1006 NSC=  
01-Dec-2010 SAID?? WAPI 010100 METAR WAPI 010100Z 11005KT 9999 SCT018 31/24 Q1006 NSC=  
01-Dec-2010 SAID?? WAPI 010200 METAR WAPI 010200Z 10004KT 9999 SCT018 32/24 Q1006 NSC=  
01-Dec-2010 SAID?? WAPI 010300 METAR WAPI 010300Z 11001KT 9999 SCT018 32/25 Q1006 NSC=  
01-Dec-2010 SAID?? WAPI 010400 METAR WAPI 010400Z 18005KT 9999 BKN014 30/26 Q1007 NSC=  
01-Dec-2010 SAID?? WAPI 010500 METAR WAPI 010500Z 17005KT 9999 BKN014 30/26 Q1007 NSC=  
01-Dec-2010 SAID?? WAPI 010600 METAR WAPI 010600Z 35002KT 2000 RA BKN010 26/25 Q1005=  
02-Dec-2010 SAID?? WAPI 020300 METAR WAPI 020300Z 34003KT RE TS SCT018 26/24 Q1008 NSC=  
02-Dec-2010 SAID?? WAPI 020300 METAR WAPI 020300Z 02005KT5 900000=  
02-Dec-2010 SAID?? WAPI 020400 METAR WAPI 020400Z 35004KT 9000 RA OVC010 25/25 Q1008 NSC=  
02-Dec-2010 SAID?? WAPI 020500 METAR WAPI 020500Z 02003KT 9000 RA BKN010 25/24 Q1007=  
02-Dec-2010 SAID?? WAPI 022300 METAR WAPI 022300Z 29003KT 9999 BKN018 26/25 Q1008 NSC=  
03-Dec-2010 SAID?? WAPI 030600 METAR WAPI 030600Z 10005KT 9999 SCT016 30/25 Q1006 NSC=  
03-Dec-2010 SAID?? WAPI 032300 METAR WAPI 032300Z 00000KT 9999 FEW018 29/26 Q1006 NSC=  
04-Dec-2010 SAID?? WAPI 040000 METAR WAPI 040000Z 35002KT 9999 SCT018 30/26 Q1007 NSC=  
04-Dec-2010 SAID?? WAPI 040100 METAR WAPI 040100Z 34003KT 9999 SCT018 31/25 Q1007 NSC=  
04-Dec-2010 SAID?? WAPI 040200 METAR WAPI 040200Z 32004KT 9999 BKN018 33/26 1006 NSC=  
04-Dec-2010 SAID?? WAPI 040300 METAR WAPI 040300Z 33006KT 9999 BKN018 33/27 Q1006 NSC=  
04-Dec-2010 SAID?? WAPI 040400 METAR WAPI 040400Z 32005KT 9999 BKN018 31/27 Q1007 NSC=  
04-Dec-2010 SAID?? WAPI 040500 METAR WAPI 040500Z 34006KT 9999 BKN16 32/25 Q1006 NSC=  
04-Dec-2010 SAID?? WAPI 040600 METAR WAPI 040600Z 34005KT 9999 BKN016 30/26 Q1006 NSC=  
04-Dec-2010 SAID?? WAPI 042300 METAR WAPI 042300Z 00000KT 9999 BKN018 28/26 Q10062 Q1006 NSC=  
05-Dec-2010 SAID35 WAPI 050400 METAR WAPI 050400Z 27007KT 9999 BKN014 30/25 Q1006 NSG=  
06-Dec-2010 SAID35 WAPI 060100 METAR WAPI 060100 Z 28005 KT 9999 SCT 018 28/26 Q 1008 NSC=  
06-Dec-2010 SAID35 WAPI 060400 METAR WAPI 060400 Z 31010 KT 9999 SCT 018 32/25 Q 1006 NSC=  
06-Dec-2010 SAID35 WAPI 060500 METAR WAPI 060500 Z 31010 KT 9999 SCT 018 32/25 Q 1005 NSC=  
07-Dec-2010 SAID?? WAPI 072300 METAR WAPI 072300Z 25005KT 9999 FEW018 28/26 1007 NSC=  
08-Dec-2010 SAID?? WAPI 080000 METAR WAPI 080000Z 29006KT 9999 SCT018 30/26 Q1007 NSC=  
08-Dec-2010 SAID?? WAPI 080100 METAR WAPI 080100Z 20005KT 9999 SCT018 30/26 Q1007 NSC=  
08-Dec-2010 SAID?? WAPI 080200 METAR WAPI 080200Z 18004KT 9999 SCT018 30/26 Q1007 NSC=  
08-Dec-2010 SAID?? WAPI 080300 METAR WAPI 080300Z 11006KT 9999 SCT018 32/25 Q1007 NSC=  
08-Dec-2010 SAID?? WAPI 080400 METAR WAPI 080400Z 10008KT 9999 SCT018 32/25 Q1006 NSC=  
08-Dec-2010 SAID?? WAPI 080500 METAR WAPI 080500Z 08005KT 9999 SCT018 33/25 Q1007 NSC=  
08-Dec-2010 SAID?? WAPI 080600 METAR WAPI 080600Z 10005KT 9999 SCT018 31/25 Q1007 NSC=  
09-Dec-2010 SAID35 WAPI 090500 METAR WAPI 090500Z 27013KT 9999 BKN018 33/25 Q1004 NSC=  
11-Dec-2010 SAID35 WAPI 110400 METAR WAPI 110400 Z 30012 KT 9999 SCT 018 32/25 1003 NSC=  
11-Dec-2010 SAID?? WAPI 112300 METAR WAPI 112300Z 00000KT 9999 FEW018 26/25 Q1008 NSC=  
12-Dec-2010 SAID?? WAPI 120000 METAR WAPI 120000Z 34004KT 9999 FEW018 28/26 Q1010 NSC=  
12-Dec-2010 SAID?? WAPI 120100 METAR WAPI 120100Z 11006KT 9999 FEW018 29/26 Q1009 NSC=  
12-Dec-2010 SAID?? WAPI 120200 METAR WAPI 120200Z 34003KT RE TS SCT018 26/24 Q1008 NSC=  
12-Dec-2010 SAID35 WAPI 120300 METAR WAPI 120300 30018 KT 9999 SCT 016 32/24 Q 1004 NSC=  
12-Dec-2010 SAID?? WAPI 120400 METAR WAPI 120400Z 35004KT 9999 SCT018 29/25 Q1008 NSC=  
12-Dec-2010 SAID?? WAPI 120500 METAR WAPI 120500Z 36004KT 9999 BKN015 31/26 Q1008 NSC=  
12-Dec-2010 SAID?? WAPI 120600 METAR WAPI 120600Z 34006KT SL/MOD TS NO HA BKN015 26/23 Q1008 NSC=  
15-Dec-2010 SAID32 WAMM 150000 METAR WAPI 150000Z 29006KT 9999 SCT010 27/25 Q1008 NOSIG=  
15-Dec-2010 SAID35 WAPI 152300 METAR WAPI 152300Z 26006KT 9999 SCT018 25/24 Q1008 NSC=  
16-Dec-2010 SAID35 WAPI 160000 METAR WAPI 160000Z 28010KT 9999 SCT018 26/24 Q1009 NSC=  
16-Dec-2010 SAID35 WAPI 160100 METAR WAPI 160100Z 29008KT 9999 SCT018 26/24 Q1009 NSC=  
16-Dec-2010 SAID35 WAPI 160300 METAR WAPI 160300Z 28008KT 9999 SCT018 27/25 Q1008 NSC=  
16-Dec-2010 SAID35 WAPI 160500 METAR WAPI 160500Z 27005KT 9999 FEW018 30/25 Q1008 NSC=  
16-Dec-2010 SAID35 WAPI 160600 METAR WAPI 160600Z 29012KT 9999 FEW018 29/24 Q1007 NSC=  
17-Dec-2010 SAID35 WAPI 170300 METAR WAPI 170300 Z 30006 KT 9999 BKN 017 27/25 Q 1009 NSC=  
17-Dec-2010 SAID35 WAPI 170400 METAR WAPI 170400 Z 31009 KT 9999 BKN 017 27/25 Q 1009 NSC=  
17-Dec-2010 SAID35 WAPI 170500 METAR WAPI 170500 Z 30010 KT 9999 SCT 017 29/26 Q 1009 NSC=  
17-Dec-2010 SAID35 WAPI 170600 METAR WAPI 170600 Z 31012 KT 9999 SCT 017 30/24 Q 1007 NSC=  
17-Dec-2010 SAID35 WAPI 172300 METAR WAPI 172300 Z 35004 KT 9999 FEW 018 27/25 Q 1009 NSC=  
18-Dec-2010 SAID35 WAPI 180000 METAR WAPI 180000 Z 35010 KT 9999 FEW 018 29/25 Q 1009 NSC=  
18-Dec-2010 SAID35 WAPI 180200 METAR WAPI 180200 Z 34012 KT 8000 RA BKN 010 33/27 Q 1009=  
18-Dec-2010 SAID35 WAPI 180300 METAR WAPI 180300 Z 30009 KT 10000 RA BKN 010 28/25 Q 1009=  
18-Dec-2010 SAID35 WAPI 180400 METAR WAPI 180400 Z 34012 KT 6000 TS BKN 010 CB 28/25 Q 1009=  
20-Dec-2010 SAID35 WAPI 200000 METAR WAPI 200000Z 16003KT 9999 FEW018 29/26 Q1009 NSG=  
20-Dec-2010 SAID35 WAPI 200300 METAR WAPI 200300Z 18004KT TS NO PREC BKN016 CB 30/25 1009 NSC=  
20-Dec-2010 SAID35 WAPI 200400 METAR WAPI 200400Z 17008KT TS NO PREC BKN016 CB 31/25 Q1009 NSC=  
20-Dec-2010 SAID35 WAPI 200500 METAR WAPI 200500Z 16005KT RE TS SCT018 CB 30/25 Q1009 NSC=  
20-Dec-2010 SAID35 WAPI 200600 METAR WAPI 200600Z 18006KT 9999 SCT018 CB 31/25 Q1008 NSC=  
21-Dec-2010 SAID35 WAPI 210100 METAR WAPI 210100 Z 0000 KT 9999 SCT 017 27/26 Q 1008 NSC=  
21-Dec-2010 SAID35 WAPI 210200 METAR WAPI 210200 Z 31003 KT 9999 SCT 017 28/26 Q1007 NSC=  
21-Dec-2010 SAID35 WAPI 210300 METAR WAPI 210300Z 31005Z 9999 BKN017 25/23 Q1008 NSC=  
21-Dec-2010 SAID35 WAPI 210400 METAR WAPI 210400Z 27013KT 9999 BKN016 31/25 Q1006 NOSIG=  
21-Dec-2010 SAID35 WAPI 210500 METAR WAPI 210500 Z 30003 KT 9999 SCT 017 26/25 Q 1006 NSC=  
21-Dec-2010 SAID35 WAPI 210600 METAR WAPI 210600 Z 30003 KT 9999 SCT 017 28/26 Q1006=  
21-Dec-2010 SAID35 WAPI 212300 METAR WAPI 212300 Z 34003 KT 9999 SCT 016 26/24 Q 1005 NSC=  
22-Dec-2010 SAID35 WAPI 220100 METAR WAPI 220100 Z 34007 KT 9999 FEW 018 27/25 Q 1005 NSC=  
22-Dec-2010 SAID35 WAPI 220200 METAR WAPI 220200 Z 27013 KT 9999 SCT 016 29/25 Q 1005 NSC=  
22-Dec-2010 SAID35 WAPI 220300 METAR WAPI 220300 Z 27012 KT 9999 SCT 016 29/25 Q 1006 NSC=  
22-Dec-2010 SAID35 WAPI 220400 METAR WAPI 220400 Z 26006 KT 9999 BKN 010 27/25 Q 1007 NSC=  
22-Dec-2010 SAID35 WAPI 220500 METAR WAPI 220500 Z 27006 KT 9999 SCT 016 28/25 Q 1005 NSC=  
22-Dec-2010 SAID35 WAPI 220600 METAR WAPI 220600 Z 26012 KT 9999 SCT 018 28/24 Q 1005 NSC=  
23-Dec-2010 SAID35 WAPI 230000 METAR WAPI 230000 Z 29012 KT 9999 SCT 016 27/25 Q 1006 NSC=  
23-Dec-2010 SAID35 WAPI 230100 METAR WAPI 230100 Z 28008 KT 9999 SCT 016 28/24 Q 1006 NSC=  
23-Dec-2010 SAID35 WAPI 230200 METAR WAPI 230200 Z 26006 KT 9999 FEW 016 29/25 Q 1006 NSC=  
23-Dec-2010 SAID35 WAPI 230300 METAR WAPI 230300 Z 22005 KT 9999 SCT 016 30/25 Q 1006 NSC=  
23-Dec-2010 SAID35 WAPI 230400 METAR WAPI 230400 Z 21005 KT 9999 SCT 016 30/25 Q 1006 NSC=  
23-Dec-2010 SAID35 WAPI 230500 METAR WAPI 230500 Z 23007 KT 9999 SCT 010 30/25 Q 1006 NSC=  
23-Dec-2010 SAID35 WAPI 232300 METAR WAPI 232300 Z 00000 KT 9999 FEW 108 27/25 Q 1006 NSC=  
24-Dec-2010 SAID35 WAPI 240000 METAR WAPI 240000Z 00000KT 9999 SCT018 28/25 Q1006 NSC=  
24-Dec-2010 SAID35 WAPI 240100 METAR WAPI 240100Z 35006KT 9999 SCT018 29/26 Q1006 NSC=  
24-Dec-2010 SAID35 WAPI 240200 METAR WAPI 240200Z 10007KT 9000 RA SCT015 28/25 Q1006=  
24-Dec-2010 SAID35 WAPI 240300 METAR WAPI 240300Z 34003KT 8000 RE RA SCT015 28/25 Q1006=  
24-Dec-2010 SAID35 WAPI 240400 METAR WAPI 240400Z 35010KT 8000 RA BKN015 26/24 1007=  
24-Dec-2010 SAID35 WAPI 240500 METAR WAPI 240500Z 34006KT 10000 RA BKN015 26/25 Q1007=  
24-Dec-2010 SAID35 WAPI 242300 METAR WAPI 242300Z 35009KT 9999 BKN010 25/24 Q1005 NSC=  
25-Dec-2010 SAID35 WAPI 250000 METAR WAPI 250000 35008 KT 9999 BKN 010 25/24 Q1005 NSC=  
25-Dec-2010 SAID35 WAPI 250100 METAR WAPI 250100Z 34010KT 9999 SCT018 15/14 Q1005 NSC=  
25-Dec-2010 SAID35 WAPI 250200 METAR WAPI 250200Z 30010KT RE RA OVC010 25/24 Q1006 NSC=  
25-Dec-2010 SAID35 WAPI 250300 METAR WAPI 250300Z 30012KT 9999 BKN010 25/24 Q1005 NSC=  
25-Dec-2010 SAID35 WAPI 250400 METAR WAPI 250400Z 34013KT 9000 RA BKN010 25/23 Q 1005=  
25-Dec-2010 SAID35 WAPI 250500 METAR WAPI 250500 Z 31010 KT 9999 RA BKN 010 25/24 Q 1005 NSC=  
25-Dec-2010 SAID35 WAPI 252300 METAR WAPI 252300Z 28008KT 9000 RA OVC010 24/23 Q1006=  
26-Dec-2010 SAID35 WAPI 260000 METAR WAPI 260000 Z 34004 KT 9000 RA BKN 010 24/23 Q 1006=  
26-Dec-2010 SAID35 WAPI 260100 METAR WAPI 260100 Z 34010 KT 9999 BKN 010 25/24 Q 1006 NSC=  
26-Dec-2010 SAID35 WAPI 260200 METAR WAPI 260200 Z 34005 KT RA 10000 BKN 010 26/25 Q 1006=  
26-Dec-2010 SAID35 WAPI 260300 METAR WAPI 260300 Z 34008 KT 9999 SCT 010 26/25 Q 1006=  
26-Dec-2010 SAID35 WAPI 260400 METAR WAPI 260400 Z 30010 KT 9999 SCT 015 28/26 Q 1006 NSC=  
26-Dec-2010 SAID35 WAPI 260500 METAR WAPI 260500 Z 34008KT 9999 BKN015 29/26 Q1005 NSC=  
26-Dec-2010 SAID35 WAPI 260600 METAR WAPI 260600Z 35009KT 9999 SCT015 29/26 Q1005 NSC=  
26-Dec-2010 SAID35 WAPI 262300 METAR WAPI 262300Z 29007KT 9999 BKN010 27/25 Q1007 NSC=  
27-Dec-2010 SAID35 WAPI 270000 METAR WAPI 270000Z 30008KT 8000 RA BKN010 25/23 Q1007=  
27-Dec-2010 SAID35 WAPI 270100 METAR WAPI 270100Z 32010KT 9999 SCT010 26/24 Q1007 NSC=  
27-Dec-2010 SAID35 WAPI 270200 METAR WAPI 270200Z 30012KT 9999 SCT010 28/25 Q1007 NSC=  
27-Dec-2010 SAID35 WAPI 270300 METAR WAPI 270300Z 28017KT 9999 SCT010 29/25 Q1007 NSC=  
27-Dec-2010 SAID35 WAPI 270400 METAR WAPI 270400Z 29015KT 9999 SCT010 30/25 Q1007=  
27-Dec-2010 SAID35 WAPI 270500 METAR WAPI 270500Z 28014KT 9999 BKN015 30/25 Q1006 NSC=  
27-Dec-2010 SAID35 WAPI 272300 METAR WAPI 272300Z 30006KT 9000 RA BKN015 26/25 Q1007=  
28-Dec-2010 SAID35 WAPI 280000 METAR WAPI 280000Z 27010KT 9999 SCT016 27/25 Q1008 NSC=  
28-Dec-2010 SAID35 WAPI 280100 METAR WAPI 280100Z 28006KT 9999 SCT016 29/27 Q1007 NSC=  
28-Dec-2010 SAID35 WAPI 280200 METAR WAPI 280200Z 26010KT 9999 SCT016 30/26 Q1007 NSC=  
28-Dec-2010 SAID35 WAPI 280300 METAR WAPI 280300Z 29015KT 9999 SCT016 31/26 Q1007 NSC=  
28-Dec-2010 SAID35 WAPI 280400 METAR WAPI 280400Z 27018KT 9999 SCT016 31/25 Q1007 NSC=  
28-Dec-2010 SAID35 WAPI 280500 METAR WAPI 280500Z 29010KT 9999 SCT016 30/25 Q1006 NSC=  
28-Dec-2010 SAID35 WAPI 280600 METAR WAPI 280600Z 29012KT 9999 SCT016 31/25 Q1006 NSC=  
29-Dec-2010 SAID35 WAPI 290000 METAR WAPI 290000Z 29006KT 9999 SCT016 28/26 Q1009 NSC=  
29-Dec-2010 SAID35 WAPI 290100 METAR WAPI 290100Z 29009KT 9999 SCT016 30/26 Q1009 NSC=  
29-Dec-2010 SAID35 WAPI 290200 METAR WAPI 290200Z 28007KT 9999 SCT016 30/26 Q1009 NSC=  
29-Dec-2010 SAID35 WAPI 290300 METAR WAPI 290300Z 28005KT 9999 SCT016 32/26 Q1008 NSC=  
29-Dec-2010 SAID35 WAPI 290400 METAR WAPI 290400Z 27005KT 9999 SCTO16 31/25 Q1009 NSC=  
29-Dec-2010 SAID35 WAPI 290500 METAR WAPI 290500 Z 30008 KT 9999 SCT 018 31/25 Q 1008 NSC=  
29-Dec-2010 SAID35 WAPI 290600 METAR WAPI 290600Z 28009KT 9999 SCT018 32/25 Q1008 NSC=  
29-Dec-2010 SAID35 WAPI 292300 METAR WAPI 292300Z 30003KT 9999 SCT017C 28/26 Q1008 NSC=  
30-Dec-2010 SAID35 WAPI 300000 METAR WAPI 300000Z 30006KT 9999 SCT017 29/27 Q1008 NSC=  
30-Dec-2010 SAID35 WAPI 300100 METAR WAPI 300100Z 34010KT 9999 SCT018 30/26 Q1008 NSC=  
30-Dec-2010 SAID35 WAPI 300200 METAR WAPI 300200Z 34012KT 9999 SCT018 31/26 Q1008 NSC=  
30-Dec-2010 SAID35 WAPI 300300 METAR WAPI 300300 Z 34013 KT 9999 SCT 018 32/25 Q 1007 NSC=  
30-Dec-2010 SAID35 WAPI 300400 METAR WAPI 300400 Z 34012KT 9999 SCT 018 33/26 Q 1008 NSC=  
30-Dec-2010 SAID35 WAPI 300500 METAR WAPI 300500Z 30010KT 9999 SCT108 32/26 Q1007 NSC=  
30-Dec-2010 SAID35 WAPI 300600 METAR WAPI 300600Z 29008KT 9000 RA BKN014 27/24 Q1008=  
30-Dec-2010 SAID35 WAPI 302300 METAR WAPI 302300Z 35008KT 9999 SCT018 26/25 Q1007 NSC=  
31-Dec-2010 SAID35 WAPI 310000 METAR WAPI 310000Z 28003KT 9999 FEW018 28/26 Q1008 NSC=  
31-Dec-2010 SAID35 WAPI 310100 METAR WAPI 310100Z 28004KT 9999 FEW018 30/26 Q1008 NSC=  
31-Dec-2010 SAID35 WAPI 310300 METAR WAPI 310300 26008KT 9999 BKN 010 32/26 Q 1008 NSC=  
31-Dec-2010 SAID35 WAPI 310400 METAR WAPI 310400Z 29006KT 9000 RA BKN014 30/27 Q1008=  
31-Dec-2010 SAID35 WAPI 310500 METAR WAPI 310500Z 28005KT 9999 BKN010 32/27 Q1008 NSC=  
31-Dec-2010 SAID35 WAPI 310600 METAR WAPI 310600Z 29005KT 9000 RA BKN010 27/24 Q1008=  
31-Dec-2010 SAID35 WAPI 312300 METAR WAPI 312300Z 00000KT 9999 FEW010 26/24 Q1008 NSC=  
01-Jan-2011 SAID35 WAPI 010000 METAR WAPI 010000Z 34004KT 99999 FEW018 28/25 Q1007 NSC=  
01-Jan-2011 SAID35 WAPI 010100 METAR WAPI 010100Z 35005KT 9999 FEW018 29/26 Q1007 NSC=  
01-Jan-2011 SAID35 WAPI 010300 METAR WAPI 010300Z 31005KT 10000 PREC IN SIGHT FEW014CB BKN016 30/25 Q1007=  
01-Jan-2011 SAID35 WAPI 010400 METAR WAPI 010400Z 29005KT 8000 RA BKN010CB FEW014 29/26 Q1006=  
01-Jan-2011 SAID35 WAPI 010500 METAR WAPI 010500Z 30012KT 7000 RA BKN010CB 27/24 Q1006=  
01-Jan-2011 SAID35 WAPI 010600 METAR WAPI 010600Z 31004KT 9999 RA CST010CB FEW014 25/26 Q1005=  
02-Jan-2011 SAID35 WAPI 020100 METAR WAPI 020100Z 35002KT 9999 SCT017 28/25 Q1008 NSC=  
02-Jan-2011 SAID35 WAPI 020200 METAR WAPI 020200 Z 33003 KT 9999 SCT 018 29/25 Q 1007 NSC=  
02-Jan-2011 SAID35 WAPI 020300 METAR WAPI 020300 Z 26006 KT 9999 BKN 015 31/24 Q 1007 NSC=  
02-Jan-2011 SAID35 WAPI 020400 METAR WAPI 020400 Z 11006 KT RE TS BKN 012 31/24 Q 1006=  
02-Jan-2011 SAID35 WAPI 020600 METAR WAPI 020600 Z 00000 KT RE TS BKN 012 27/25 Q 05.0=  
02-Jan-2011 SAID35 WAPI 022300 METAR WAPI 022300Z 35003KT 9999 BKN018 25/24 Q1006 NSC=  
03-Jan-2011 SAID35 WAPI 030000 METAR WAPI 030000Z 34003KT 9999 SCT018 26/24 Q1007 NSC=  
03-Jan-2011 SAID53 WAPI 030100 METAR WAPI 030100Z 35006KT 9999 FEW018 28/25 Q1007 NSC=  
03-Jan-2011 SAID35 WAPI 030200 METAR WAPI 030200Z 20005KT 9999 SCT018 29/25 Q1007 NSC=  
03-Jan-2011 SAID35 WAPI 030300 METAR WAPI 030300Z 10004KT 9999 SCT018 30/24 Q1007 NSC=  
03-Jan-2011 SAID35 WAPI 030400 METAR WAPI 030400Z 11008KT 9999 FEW018 30/24 Q1006 NSW=  
03-Jan-2011 SAID35 WAPI 030500 METAR WAPI 030500Z 10010KT 10000 PREC IN SIGHT BKN015 31/25 Q1005=  
03-Jan-2011 SAID35 WAPI 030600 METAR WAPI 030600Z 06004KT 8000 RA SCT010CB FEW014 26/24 Q1005=  
04-Jan-2011 SAID35 WAPI 040000 METAR WAPI 040000Z 34005KT 9999 SCT015 28/26 Q1007 NSW=  
04-Jan-2011 SAID35 WAPI 040100 METAR WAPI 040100Z 31006KT 9999 FEW010CB SCT015 30/26 Q1007=  
04-Jan-2011 SAID35 WAPI 040200 METAR WAPI 040200Z 31007KT 9999 FEW010CB FEW015 30/26 Q1007 NSW=  
04-Jan-2011 SAID35 WAPI 040300 METAR WAPI 040300Z 27008KT 9999 RA SCT010CB FEW014 31/26 Q1007=  
04-Jan-2011 SAID35 WAPI 040400 METAR WAPI 040400Z 27012KT 9999 SCT010CB FEW014 32/27 Q1006=  
04-Jan-2011 SAID35 WAPI 040500 METAR WAPI 040500Z 26010KT 9999 BKN018 32/27 Q1005 NSC=  
04-Jan-2011 SAID35 WAPI 040600 METAR WAPI 040600Z 35006KT 9999 SCT010CB FEW014 32/25 Q1004 NSC=  
04-Jan-2011 SAID35 WAPI 042300 METAR WAPI 042300Z 00000KT 9999 FEW018 27/26 Q1007 NSC=  
05-Jan-2011 SAID35 WAPI 050000 METAR WAPI 050000Z 25008KT 9999 SCT018 29/27 Q1007 NSG=  
05-Jan-2011 SAID35 WAPI 050100 METAR WAPI 050100Z 27010KT 9999 BKN018 31/26 Q1007 NSC=  
05-Jan-2011 SAID35 WAPI 050200 METAR WAPI 050200Z 26008KT 8000 RA BKN014 30/27 Q1007=  
05-Jan-2011 SAID35 WAPI 050300 METAR WAPI 050300Z 30006KT 8000 RA BKN014 31/26 Q1006=  
05-Jan-2011 SAID35 WAPI 050500 METAR WAPI 050500Z 29009KT 9999 BKN016 33/26 Q1005 NSG=  
05-Jan-2011 SAID35 WAPI 050600 METAR WAPI 050600Z 07008KT 9999 BKN016 32/26 Q1005 NSC=  
05-Jan-2011 SAID35 WAPI 052300 METAR WAPI 052300Z 27003Z 9999 BKN016 27/26 Q1007 NSC=  
06-Jan-2011 SAID35 WAPI 060000 METAR WAPI 060000 Z 28003 KT 9999 SCT 018 29/26 Q 1008 NSC=  
06-Jan-2011 SAID35 WAPI 060100 METAR WAPI 060100 Z 28005 KT 9999 SCT 018 28/26 Q 1008 NSC=  
06-Jan-2011 SAID35 WAPI 060200 METAR WAPI 060200 Z 28005 KT 9999 SCT018 28/26 Q 1008 NSC=  
06-Jan-2011 SAID35 WAPI 060300 METAR WAPI 060300 Z 29009 KT 9999 SCT 018 31/25 Q 1007 NSC=  
06-Jan-2011 SAID35 WAPI 060600 METAR WAPI 060600Z 29011KT 9999 BKN018 33/26 Q1005 NSC=  
06-Jan-2011 SAID35 WAPI 062300 METAR WAPI 062300Z 28007KT 9999 RA BKN010 24/24 Q1007=  
07-Jan-2011 SAID35 WAPI 070000 METAR WAPI 070000Z 24006KT 8000 RA SCT010CB FEW014 25/24 Q1007=  
07-Jan-2011 SAID35 WAPI 070100 METAR WAPI 070100Z 23005KT 9999 BKN014 26/25 Q1007=  
07-Jan-2011 SAID35 WAPI 070200 METAR WAPI 070200Z 20107KT 9999 SCT014 28/26 Q1006=  
07-Jan-2011 SAID35 WAPI 070300 METAR WAPI 070300 28010KT 9999 SCT014 28/25 Q1006 NOSIG=  
07-Jan-2011 SAID35 WAPI 070400 METAR WAPI 070400Z 26005KT 9999 SCT015 29/26 Q1005=  
07-Jan-2011 SAID35 WAPI 070500 METAR WAPI 070500Z 29006KT 9999 SCT015 30/25 Q1004 NSC=  
07-Jan-2011 SAID35 WAPI 070600 METAR WAPI 070600Z 28010KT 9999 BKN015 30/25 Q1004 NSC=  
07-Jan-2011 SAID35 WAPI 072300 METAR WAPI 072300Z 29006KT 9999 SCT018 27/24 Q1005 NSC=  
08-Jan-2011 SAID35 WAPI 080000 METAR WAPI 080000 34012 KT 9999 SCT 018 29/26 Q1006 NSC=  
08-Jan-2011 SAID35 WAPI 080100 METAR WAPI 080100 32013 KT 9999 SCT 018 30/26 Q 1006 NSC=  
08-Jan-2011 SAID35 WAPI 080300 METAR WAPI 080300 32018 KT 9999 SCT 012 31/25 Q 1005 NSC=  
08-Jan-2011 SAID35 WAPI 080400 METAR WAPI 080400Z 25015KT 9999 BKN018 31/25 Q1004 NSC=  
08-Jan-2011 SAID35 WAPI 080500 METAR WAPI 080500Z 28019KT 9000 RA SCT010 28/26 Q1004=  
08-Jan-2011 SAID35 WAPI 080600 METAR WAPI 080600Z 28013KT 9999 SCT014 30/25 Q1003 NSC=  
08-Jan-2011 SAID35 WAPI 082300 METAR WAPI 082300Z 30002KT 9999 FEW018 27/25 Q1005 NSC=  
09-Jan-2011 SAID35 WAPI 090000 METAR WAPI 090000Z 28004KT 9999 FEW018 29/26 Q1006 NOSIG=  
09-Jan-2011 SAID35 WAPI 090100 METAR WAPI 090100Z 29008KT 9999 BKN018 31/25 Q1006 NOSIG=  
09-Jan-2011 SAID35 WAPI 090200 METAR WAPI 090200Z 27010KT 9999 BKN018 32/25 Q1005 NOSIG=  
09-Jan-2011 SAID35 WAPI 090300 METAR WAPI 090300Z 29008KT 9999 SCT018 32/25 Q1005 NOSIG=  
09-Jan-2011 SAID35 WAPI 090400 METAR WAPI 090400Z 26012KT 9999 BKN018 33/25 Q1005 NOSIG=  
09-Jan-2011 SAID35 WAPI 090500 METAR WAPI 090500Z 27013KT 9999 BKN018 33/25 Q1004 NSC=  
09-Jan-2011 SAID35 WAPI 090600 METAR WAPI 090600Z 29010KT 9999 BKN018 33/24 Q1003 NSC=  
09-Jan-2011 SAID35 WAPI 092300 METAR WAPI 092300Z 28006KT 9999 SCT018 29/26 Q1004 NSC=  
10-Jan-2011 SAID35 WAPI 100000 METAR WAPI 100000Z 25005KT 9999 BKN018 30/26 Q1004 NSC=  
10-Jan-2011 SAID35 WAPI 100100 METAR WAPI 100100Z 27009KT 9999 BKN018 31/25 Q1004 NSC=  
10-Jan-2011 SAID35 WAPI 100200 METAR WAPI 100200Z 26010KT 9999 BKN018 32/25 Q1003 NSC=  
10-Jan-2011 SAID35 WAPI 100300 METAR WAPI 100300Z 28011KT 9999 BKN018 32/26 Q1003 NSC=  
10-Jan-2011 SAID35 WAPI 100500 METAR WAPI 100500Z 29015 KT 9999 SCT 018 33/25 Q 1002 NSC=  
10-Jan-2011 SAID35 WAPI 100600 METAR WAPI 100600 Z 30015 KT 9999 SCT 018 .32/ 25 Q1001 NSC=  
10-Jan-2011 SAID35 WAPI 102300 METAR WAPI 102300Z 28012KT 9999 SCT014 28/26 Q1003=  
11-Jan-2011 SAID35 WAPI 110000 METAR WAPI 110000Z 28010KT 9999 SCT015 29/26 Q1004=  
11-Jan-2011 SAID35 WAPI 110100 METAR WAPI 110100Z 28015KT 9999 BKN015 31/26 Q1003=  
11-Jan-2011 SAID35 WAPI 110200 METAR WAPI 110200Z 28015KT 9999 BKN015 32/26 Q1003 NOSIG=  
11-Jan-2011 SAID35 WAPI 110400 METAR WAPI 110400Z 29017KT 9999 BKN015 32/25 Q1001=  
11-Jan-2011 SAID35 WAPI 110500 METAR WAPI 110500Z 27015KT 9999 BKN015 33/25 Q1000 NSC=  
11-Jan-2011 SAID35 WAPI 110600 METAR WAPI 110600Z 29018KT 9999 BKN015 33/25 Q1000=  
11-Jan-2011 SAID35 WAPI 112300 METAR WAPI 112300Z 29011KT 9999 BKN018 29/26 Q1004 NSC=  
12-Jan-2011 SAID35 WAPI 120000 METAR WAPI 120000 30012 KT 9999 FEW 17 30/26 10004 NSC=  
12-Jan-2011 SAID35 WAPI 120100 METAR WAPI 120100 28018 KT 9999 SCT 018 31/25 Q 1004 NSC=  
12-Jan-2011 SAID35 WAPI 120200 METAR WAPI 120200 29020 KT 9999 BKN 016 32/26 Q1004 NSC=  
12-Jan-2011 SAID35 WAPI 120400 METAR WAPI 120400Z 29016KT 9999 SCT016 33/25 Q1003 NSC=  
12-Jan-2011 SAID35 WAPI 120500 METAR WAPI 120500Z 28017KT 9999 SCT016 32/26 Q1002 NSC=  
12-Jan-2011 SAID35 WAPI 120600 METAR WAPI 120600Z 28018KT 9999 SCT016 32/25 Q1002 NSC=  
12-Jan-2011 SAID35 WAPI 122300 METAR WAPI 122300Z 29004KT 9999 SCT017 28/26 Q1006 NSC=  
13-Jan-2011 SAID35 WAPI 130000 METAR WAPI 130000Z 24005 KT 9999 SCT017 29/26 Q1006 NOSIG=  
13-Jan-2011 SAID35 WAPI 130100 METAR WAPI 130100Z 26007KT 8000 RA BKN014CB 28/26 Q1006=  
13-Jan-2011 SAID35 WAPI 130200 METAR WAPI 130200Z 21005KT 7000 RA BKN014CB 26/24 Q1006=  
13-Jan-2011 SAID35 WAPI 130300 METAR WAPI 130300Z 30005KT 7000 RA BKN014CB 26/24 Q1006=  
13-Jan-2011 SAID35 WAPI 130400 METAR WAPI 130400Z 29004KT 12000 RA SCT016 27/25 Q1005=  
13-Jan-2011 SAID35 WAPI 130500 METAR WAPI 130500Z 28005KT 9999 SCT016 27/24 Q1004 NSC=  
13-Jan-2011 SAID35 WAPI 130600 METAR WAPI 130600Z 30004KT 9999 SCT016 27/24 Q1004 NSC=  
13-Jan-2011 SAID35 WAPI 132300 METAR WAPI 132300Z 24005KT 9999 SCT017 28/26 Q1007 NSC=  
14-Jan-2011 SAID35 WAPI 140000 METAR WAPI 140000 Z 15005 KT 9999 BKN 017 29/26 Q 1007 NSC=  
14-Jan-2011 SAID35 WAPI 140100 METAR WAPI 140100Z 13007KT 9000 RA SCT014 26/25 Q1007 NSC=  
14-Jan-2011 SAID35 WAPI 140200 METAR WAPI 140200Z 24006KT 9999 BKN014 29/26 Q1007 NSC=  
14-Jan-2011 SAID35 WAPI 140300 METAR WAPI 140300Z 22008KT 9999 SCT014 30/25 Q1006 NSC=  
14-Jan-2011 SAID35 WAPI 140400 METAR WAPI 140400 Z 26022 KT RA OVC 010 30/24 Q 1007=  
14-Jan-2011 SAID35 WAPI 140500 METAR WAPI 140500 Z 24012 KT RE RA OVC 010 25/24 Q1006=  
14-Jan-2011 SAID35 WAPI 140600 METAR WAPI 140600 Z 25003 KT 9999 VOC 012 25/24 Q1005 NSC=  
14-Jan-2011 SAID35 WAPI 142300 METAR WAPI 142300Z 32003KT 9999 SCT014 26/25 Q1006=  
15-Jan-2011 SAID35 WAPI 150000 METAR WAPI 150000Z 29005KT 9999 SCT016 28/26 Q1006 NIOSIG=  
15-Jan-2011 SAID35 WAPI 150100 METAR WAPI 150100Z 30006KT 9999 SCT016 29/26 Q 1006 NOSIG=  
15-Jan-2011 SAID35 WAPI 150200 METAR WAPI 150200Z 27005KT 9999 SCT018 30/26 Q1006 NSW=  
15-Jan-2011 SAID35 WAPI 150300 METAR WAPI 150300Z 28006KT 9999 BKN018 32/27 Q1005=  
15-Jan-2011 SAID35 WAPI 150500 METAR WAPI 150500Z 28010KT 5000 RA SCT010CB FEW014 26/24 Q1004=  
15-Jan-2011 SAID35 WAPI 150600 METAR WAPI 150600Z 25012KT 9000 RERA BKN012 25/24 Q1004=  
16-Jan-2011 SAID32 WAMM 160000 METAR WAPI 160000Z 34007KT 2000RA OFS010 25/24 Q1006=  
16-Jan-2011 SAID32 WAMM 160600 WAPI 160600Z 26006KT 900 RA OFC010 24/24 Q1004=  
17-Jan-2011 SAID35 WAPI 170100 METAR WAPI 170100 Z 29012 KT 9999 SCT 017 29/25 Q1009 NSC=  
17-Jan-2011 SAID32 WAMM 170300 METAR WAPI 170300Z 29008KT 7000 RERA BKN022 27/26 Q1008=  
17-Jan-2011 SAID35 WAPI 170500 METAR WAPI 170500Z 30008KT 9999 BKN017 29/25 Q1007 NSC=  
17-Jan-2011 SAID32 WAMM 170600 METAR WAPI 170600Z 31007KT 8000 RA BKN012 25/23 Q1007=  
18-Jan-2011 SAID35 WAPI 180100 METAR WAPI 180100Z 29010KT 9999 SCT016 28/26 Q1008=  
18-Jan-2011 SAID35 WAPI 180205 METAR WAPI 180200Z 28012KT 9999 SCT016 29/26 Q1008=  
18-Jan-2011 SAID35 WAPI 180400 METAR WAPI 180400Z 27010KT 9999 SCT016 31/26 Q1006=  
18-Jan-2011 SAID35 WAPI 180500 METAR WAPI 180500Z 29009KT 9999 SCT017 30/26 Q1005 NSG=  
18-Jan-2011 SAID35 WAPI 180600 METAR WAPI 180600Z 28011KT 9999 SCT017 31/25 Q1004 NSC=  
18-Jan-2011 SAID35 WAPI 182300 METAR WAPI 182300Z 34006KT 9999 SCT017 27/25 Q1007 NSC=  
19-Jan-2011 SAID35 WAPI 190000 METAR WAPI 190000Z 30005KT 9999 SCT017 29/26 Q 1007=  
19-Jan-2011 SAID35 WAPI 190100 METAR WAPI 190100Z 29007KT 9999 SCT017 31/26 Q1007 NOSIG=  
19-Jan-2011 SAID35 WAPI 190200 METAR WAPI 190200Z 29010KT 9999 SCT017 32/26 Q1006 NOSIG=  
19-Jan-2011 SAID35 WAPI 190300 METAR WAPI 190300Z 228012KT 9999 SCT017 32/25 Q 1006=  
19-Jan-2011 SAID35 WAPI 190600 METAR WAPI 190600Z 29012KT 9999 BKN017 32/26 Q1004 NSC=  
19-Jan-2011 SAID35 WAPI 192300 METAR WAPI 192300Z 27005KT 9999 SCT017 27/26 Q1007 NSC=  
20-Jan-2011 SAID35 WAPI 200000 METAR WAPI 200000 28006 KT 9999 SCT 017 29/26 Q 1007=  
20-Jan-2011 SAID35 WAPI 200100 METAR WAPI 200100 25008KT 9999 SCT017 29/26 Q1007 NSC=  
20-Jan-2011 SAID35 WAPI 200200 METAR WAPI 200200 27008KT 9999 CST 010 28/26 Q 1007 NSC=  
20-Jan-2011 SAID35 WAPI 200300 METAR WAPI 200300 29012KT 6000 RA BKN 010 30/26 Q 1007=  
20-Jan-2011 SAID35 WAPI 200500 METAR WAPI 200500 27012KT 9999 SCT 010 30/25 Q 1006 NSC=  
20-Jan-2011 SAID35 WAPI 200600 METAR WAPI 200600Z 28010KT 9999 BKN010 31/25 Q1005 NSC=  
20-Jan-2011 SAID35 WAPI 202300 METAR WAPI 202300Z 29004KT 9999 SCT017 27/26 Q1008 NSC=  
21-Jan-2011 SAID35 WAPI 210000 METAR WAPI 210000Z 30005KT 9999 BKN018 28/26 Q1008 NOSIG=  
21-Jan-2011 SAID35 WAPI 210100 METAR WAPI 210100Z 29006KT 9999 BKN018 30/26 Q1008 NSC=  
21-Jan-2011 SAID35 WAPI 210200 METAR WAPI 210200Z 28007KT 9999 BKN018 30/26 Q1007 NSC=  
21-Jan-2011 SAID35 WAPI 210300 METAR WAPI 210300Z 29012KT 9999 BKN016 31/25 Q1006 NOSIG=  
21-Jan-2011 SAID35 WAPI 210500 METAR WAPI 210500Z 26015KT 9999 SCT016 30/25 Q1006 NOSIG=  
21-Jan-2011 SAID35 WAPI 210600 METAR WAPI 210600Z 29004KT 9999 SCT016 30/235 Q1006 NOSIG=  
21-Jan-2011 SAID35 WAPI 212300 METAR WAPI 212300Z 34006KT 9999 SCT016 27/25 Q1008 NSC=  
22-Jan-2011 SAID35 WAPI 220000 METAR WAPI 220000Z 30005KT 9999 SCT018 28/24 Q1009 NSC=  
22-Jan-2011 SAID35 WAPI 220100 METAR WAPI 220100 Z 30007 KT 9999 BKN 017 30/27=  
22-Jan-2011 SAID35 WAPI 220200 METAR WAPI 220200 Z 29006 KT 9999 BKN 018 31/26 Q1009 NSC=  
22-Jan-2011 SAID35 WAPI 220300 METAR WAPI 220300 Z 31008 KT 9999 SCT018 32/26 Q 1009 NSC=  
22-Jan-2011 SAID35 WAPI 220400 METAR WAPI 220400 Z 30020 KT 9999 SCT 015 32/26 Q 1008 NSC=  
22-Jan-2011 SAID35 WAPI 220500 METAR WAPI 220500Z 35014KT 9999 BKN014 28/24 Q1008 NSC=  
22-Jan-2011 SAID35 WAPI 220600 METAR WAPI 220600Z 35013KT 9999 BKN014 26/23 Q1007 NSC=  
22-Jan-2011 SAID35 WAPI 222300 METAR WAPI 222300Z 30006KT 8000 RA BKN010 26/25 Q1008=  
23-Jan-2011 SAID35 WAPI 230000 METAR WAPI 230000Z 27006KT 8000 RA BKN010 26/24 Q1008=  
23-Jan-2011 SAID35 WAPI 230100 METAR WAPI 230100Z 27008KT 9999 TS FEW010CB CST014 26/25 Q1009=  
23-Jan-2011 SAID35 WAPI 230200 METAR WAPI 230200Z 27018KT 4000 RA TS SCT010CB SCT014 24/24 Q1009=  
23-Jan-2011 SAID35 WAPI 230300 METAR WAPI 230300Z 27006KT 9999 RERA TS FEW010CB SCT014 24/24 Q1008=  
23-Jan-2011 SAID35 WAPI 230400 METAR WAPI 230400Z 29005KT 9999 BKN014 25/24 Q1007 NSC=  
23-Jan-2011 SAID35 WAPI 230500 METAR WAPI 230500Z 29005KT 9999 RA BKN14 26/24 Q1006=  
23-Jan-2011 SAID35 WAPI 230600 METAR WAPI 230600Z 30006KT 9999 RERA BKN015 27/25 Q1005=  
23-Jan-2011 SAID35 WAPI 232300 METAR WAPI 232300 33006KT 10000 RA BKN 010 24/23 Q 1007=  
24-Jan-2011 SAID35 WAPI 240000 METAR WAPI 240000 35007KT 9999 BKN 010 24/23 Q 1008=  
24-Jan-2011 SAID35 WAPI 240100 METAR WAPI 240100 34008KT 9999 FEW 016 26/24 Q 1008 NSC=  
24-Jan-2011 SAID35 WAPI 240200 METAR WAPI 240200 35008KT 9999 FEW 016 28/25 1008 NSC=  
24-Jan-2011 SAID35 WAPI 240300 METAR WAPI 240300 33014KT 9999 SCT 18 29/26 Q 1007 NSC=  
24-Jan-2011 SAID35 WAPI 240400 METAR WAPI 240400 32012KT 9999 SCT018 30/26 Q 1006 NSC=  
24-Jan-2011 SAID32 WAMM 240500 METAR WAPI 25015KT 8000 -TSRA BKN010 28/25 Q1006=  
24-Jan-2011 SAID32 WAMM 240600 METAR WAPI 240600Z 35508KT 9999 4SC017 28/25 Q1005 NOSIG=  
25-Jan-2011 SAID32 WAMM 250000 METAR WAPI 250000Z 29007KT 9999 SCT018 29/26 Q1009 NOSIG=  
25-Jan-2011 SAID32 WAMM 250100 METAR WAPI 250100Z 30010KT 9999 SCT018 30/26 Q1009=  
25-Jan-2011 SAID35 WAPI 250200 METAR WAPI 250200Z 31013KT 9999 SCT018 31/25 Q1009 NOSIG=  
25-Jan-2011 SAID35 WAPI 250300 METAR WAPI 250300Z 29015KT 9999 SCT018 31/25 Q1008 NOSIG=  
25-Jan-2011 SAID35 WAPI 250600 METAR WAPI 250600Z 29010KT 9999 BKN014 33/24 Q1007 NSC=  
25-Jan-2011 SAID35 WAPI 252300 METAR WAPI 252300Z 30002KT 9999 SCT018 27/25 Q1010 NSC=  
26-Jan-2011 SAID35 WAPI 260000 METAR WAPI 260000 Z 31007 KT 9999 SCT 018 29/25 Q 1011 NSC=  
26-Jan-2011 SAID35 WAPI 260100 METAR WAPI 260100 Z 30007 KT 9999 SCT 018 29/25 Q 1011 NSC=  
26-Jan-2011 SAID35 WAPI 260200 METAR WAPI 260200 Z 30005 KT 9999 SCT 018 31/25 Q 1011 NSC=  
26-Jan-2011 SAID35 WAPI 260300 METAR WAPI 260300 Z 24008 KT 9999 SCT 018 31/25 Q 1010 NSC=  
26-Jan-2011 SAID35 WAPI 260400 METAR WAPI 260400 Z 25005 KT 9999 SCT 018 33/25 Q 1009 NSC=  
26-Jan-2011 SAID35 WAPI 260500 METAR WAPI 260500Z 24007KT 9999 FEW018 31/24 Q1009 NSC=  
26-Jan-2011 SAID35 WAPI 260600 METAR WAPI 260600Z 16007KT 9999 SCT018 31/25 Q1008 NSC=  
26-Jan-2011 SAID35 WAPI 262300 METAR WAPI 262300Z 22005KT 9999 FEW014 27/26 Q1009=  
27-Jan-2011 SAID35 WAPI 270000 METAR WAPI 270000Z 22006KT 9999 SCT014 29/26 Q1009=  
27-Jan-2011 SAID35 WAPI 270100 METAR WAPI 270100Z 25008KT 9999 SCT014 30/25 Q1009=  
27-Jan-2011 SAID35 WAPI 270200 METAR WAPI 270200Z 25008KT 9999 BKN018 31/25 Q1008=  
27-Jan-2011 SAID35 WAPI 270300 METAR WAPI 270300Z 2508KT 9999 BKN018 31/25 Q1008 NOSIG=  
27-Jan-2011 SAID35 WAPI 270400 METAR WAPI 270400Z 25012KT 9999 BKN018 31/26 Q1007=  
27-Jan-2011 SAID35 WAPI 270500 METAR WAPI 270500Z 26018KT 6000 SL/MOD TS NO HAIL BKN015 30/26 Q1006=  
27-Jan-2011 SAID35 WAPI 270600 METAR WAPI 270600Z 20016KT 5000 RA RETS SCT010CB SCT014 24/23 Q1006=  
27-Jan-2011 SAID35 WAPI 272300 METAR WAPI 272300 30004KT 9999 SCT 016 25/23 Q 1006 NSC=  
28-Jan-2011 SAID35 WAPI 280000 METAR WAPI 280000 28006KT 9999 SCT 016 27/24 Q 1007 NSC=  
28-Jan-2011 SAID35 WAPI 280100 METAR WAPI 280100 29004KT 9999 FEW 16 27/24 Q1007 NSC=  
28-Jan-2011 SAID35 WAPI 280200 METAR WAPI 280200 34004KT 9999 SCT 018 30/25 Q 1007 NSC=  
28-Jan-2011 SAID35 WAPI 280300 METAR WAPI 280300 09005KT 9999 SCT 018 31/23 Q 1007 NSC=  
28-Jan-2011 SAID35 WAPI 280500 METAR WAPI 280500Z 36005KT 9999 SCT010 31/23 Q1005 NSC=  
28-Jan-2011 SAID35 WAPI 280600 METAR WAPI 280600Z 29008KT 9999 SCT016 30/24 Q1005 NSC=  
28-Jan-2011 SAID35 WAPI 282300 METAR WAPI 282300Z 35003KT 9999 FEW018 26/24 Q1008 NSC=  
29-Jan-2011 SAID35 WAPI 290000 METAR WAPI 290000Z 29003KT 9999 FEW018 28/26 Q1008=  
29-Jan-2011 SAID35 WAPI 290100 METAR WAPI 290100Z 11004KT 9999 BKN016 30/25 Q1008 NOSIG=  
29-Jan-2011 SAID35 WAPI 290200 METAR WAPI 290200Z 11004KT 9999 30/25 Q1008 NOSIG=  
29-Jan-2011 SAID35 WAPI 290300 METAR WAPI 290300Z 10006KT 5000 RA BKN012CB 31/25 Q1007=  
29-Jan-2011 SAID35 WAPI 290400 METAR WAPI 290400Z 08003KT 8000 RA SCT012CB 28/25 Q1006=  
29-Jan-2011 SAID35 WAPI 290500 METAR WAPI 290500Z 15005KT 9999 BKN018 30/26 Q1006 NSC=  
29-Jan-2011 SAID35 WAPI 290600 METAR WAPI 290600Z 30007KT 3000 RA OVC010 27/25 Q1005=  
30-Jan-2011 SAID35 WAPI 300000 METAR WAPI 300000 Z 34005 KT 9999 FEW 018 28/25 Q 1007 NSC=  
30-Jan-2011 SAID35 WAPI 300100 METAR WAPI 300100 Z 33503 KT 9999 FEW 018 29/25 1008 NSC=  
30-Jan-2011 SAID35 WAPI 300200 METAR WAPI 300200 Z 30005 KT 9999 SCT 015 30/25 Q 1007 NSC=  
30-Jan-2011 SAID35 WAPI 300300 METAR WAPI 300300 Z 29004 KT 9999 BKN 015 32/26 Q 1007 NSC=  
30-Jan-2011 SAID35 WAPI 300400 METAR WAPI 300400 Z 30005 KT 9999 BKN 015 33/27 Q 1006 NSC=  
30-Jan-2011 SAID35 WAPI 300500 METAR WAPI 300500Z 29007KT 9999 BKN014 31/26 Q1005 NSC=  
30-Jan-2011 SAID35 WAPI 300600 METAR WAPI 300600 20005KT 9999 BKN014 30/26 Q1004 NSC=  
30-Jan-2011 SAID35 WAPI 302300 METAR WAPI 302300Z 32003KT 9999 SCT O15 27/25=  
31-Jan-2011 SAID35 WAPI 310000 METAR WAPI 310000Z 30003KT 9999 SCT015 27/25 Q1007 NSC=  
31-Jan-2011 SAID35 WAPI 310100 METAR WAPI 310100Z 30003KT 9999 SCT015 29/27 Q1007=  
31-Jan-2011 SAID35 WAPI 310200 METAR WAPI 310200Z 27003KT 9999 SCT015 31/26 Q1007=  
31-Jan-2011 SAID35 WAPI 310300 METAR WAPI 310300Z 28005KT 9999 BKN015 31/26 Q1006=  
31-Jan-2011 SAID35 WAPI 310400 METAR WAPI 310400Z 310400Z 26004KT 15.000 RA BKN015 32/26 Q1006=  
31-Jan-2011 SAID35 WAPI 310500 METAR WAPI 310500Z 26008KT 9999 RERA FEW010CB SCT014 31/26 Q1005=  
31-Jan-2011 SAID35 WAPI 312300 METAR WAPI 312300Z 32003KT 9999 SCT O15 27/25=  
01-Feb-2011 SAID35 WAPI 010000 METAR WAPI 010000Z 35006KT 9999 BKN018 28/25 Q1007=  
01-Feb-2011 SAID35 WAPI 010200 METAR WAPI 010200Z 28013KT 2000 RA BKN010 29/26 Q1008=  
01-Feb-2011 SAID35 WAPI 010300 METAR WAPI 010300Z 29010KT 9999 BKN016 28/26 Q1007 NSC=  
01-Feb-2011 SAID35 WAPI 010400 METAR WAPI 010400 Z 28007 KT 9999 BKN 015 30/26 Q1007 NSC=  
01-Feb-2011 SAID35 WAPI 010500 METAR WAPI 010500 Z 24006 KT RA BKN 010 28/25 Q 1006=  
01-Feb-2011 SAID35 WAPI 010600 METAR WAPI 010600 Z 26002 KT RE TS BKN 010 27/25 Q 1006=  
01-Feb-2011 SAID35 WAPI 012300 METAR WAPI 012300Z 32005KT 9999 SCT015 26/25 Q1008=  
02-Feb-2011 SAID35 WAPI 020000 METAR WAPI 020000Z 30006KT 9999 FEW015 28/26 Q1008=  
02-Feb-2011 SAID35 WAPI 020100 METAR WAPI 020100Z 24005KT 9999 BKN 018 30/26 Q 1008 NOSIG=  
02-Feb-2011 SAID35 WAPI 020200 METAR WAPI 020200Z 24008KT 9999 BKN010 31/26 Q1007 NOSIG=  
02-Feb-2011 SAID35 WAPI 020300 METAR WAPI 020300Z 24008KT 9999 SCT018 32/26 Q1007 NOSIG=  
02-Feb-2011 SAID35 WAPI 020400 METAR WAPI 020400Z 26012KT 9999 BKN016 30/26 Q1006=  
02-Feb-2011 SAID35 WAPI 022300 METAR WAPI 022300Z 34005KT 9999 BKN017 27/26 Q1007 NSC=  
03-Feb-2011 SAID35 WAPI 030000 METAR WAPI 030000Z 34004KT 9999 SCT017 27/26 Q1008 NSC=  
03-Feb-2011 SAID35 WAPI 030100 METAR WAPI 030100Z 29006KT 9999 SCT017 29/26 Q1008 NSC=  
03-Feb-2011 SAID35 WAPI 030200 METAR WAPI 030200Z 28005KT 9999 SCT017 31/27 Q1007 NSC=  
03-Feb-2011 SAID35 WAPI 030300 METAR WAPI 030300Z 26006KT 9999 5BKN017 32/26 Q1006 NSC=  
03-Feb-2011 SAID35 WAPI 030400 METAR WAPI 030400Z 27010KT 10000 PREC IN SIGHT15 BKN017 32/26 Q1006=  
03-Feb-2011 SAID35 WAPI 030500 METAR WAPI 030500Z 34013KT TS 9999 SCT017 27/25 Q1006 NSC=  
03-Feb-2011 SAID35 WAPI 030600 METAR WAPI 030600Z 34013KT 9999 BKN010 27/25 Q1006 NSC=  
03-Feb-2011 SAID35 WAPI 032300 METAR WAPI 032300Z 00000KT 9999 BKN016 27/26 Q1008 NSC=  
04-Feb-2011 SAID35 WAPI 040000 METAR WAPI 040000Z 34008KT 9999 SCT018 28/26 Q1008=  
04-Feb-2011 SAID35 WAPI 040100 METAR WAPI 040100Z 31010KT 9999 SCT018 29/26 Q1008=  
04-Feb-2011 SAID35 WAPI 040200 METAR WAPI 040200Z 23005KT 9999 SCT018 31/26 Q1007 NOSIG=  
04-Feb-2011 SAID35 WAPI 040300 METAR WAPI 040300Z 28004KT 8000 RA BKN014 31/24 Q1007=  
04-Feb-2011 SAID35 WAPI 040400 METAR WAPI 040400Z 26008KT 10000 TSNOPREC BKN014CB 31/24 Q1007=  
04-Feb-2011 SAID35 WAPI 040500 METAR WAPI 040500Z 29007KT 10000 RETS SCT016CB 30/26 Q1005=  
04-Feb-2011 SAID35 WAPI 040600 METAR WAPI 040600Z 28009KT 9999 SCT016 32/26 Q1005 NSC=  
04-Feb-2011 SAID35 WAPI 042300 METAR WAPI 042300Z 30005KT 9999 FEW018 27/26 Q1007 NSC=  
05-Feb-2011 SAID35 WAPI 050000 METAR WAPI 050000 Z 34009 KT 9999 SCT 018 29/26 Q 1008 NSC=  
05-Feb-2011 SAID35 WAPI 050100 METAR WAPI 050100 Z 32006 KT 9999 SCT 017 30/26 Q 1008 NSC=  
05-Feb-2011 SAID35 WAPI 050200 METAR WAPI 050200Z 30009KT 9999 BKN016 31/24 Q1008 NSC=  
05-Feb-2011 SAID35 WAPI 050300 METAR WAPI 050300 Z 29006 KT 9999 SCT 017 30/24 Q 1007 NSC=  
05-Feb-2011 SAID35 WAPI 050400 METAR WAPI 050400 Z 28003 KT RA BKN 016 30/24 Q1006=  
05-Feb-2011 SAID35 WAPI 050500 METAR WAPI 050500Z 29012KT 9999 BKN016 31/24 Q1005 NSC=  
05-Feb-2011 SAID35 WAPI 050600 METAR WAPI 050600Z 28010KT 9999 KBN016 31825 Q1005 NSC=  
05-Feb-2011 SAID35 WAPI 052300 METAR WAPI 052300Z 30007KT 9999 SCT016 28/25 Q1008=  
06-Feb-2011 SAID35 WAPI 060000 METAR WAPI 060000Z 30010KT 9999 FEW018 29/26 Q1008 NSW=  
06-Feb-2011 SAID35 WAPI 060100 METAR WAPI 060100Z 33013KT 9999 SCT018 30/25 Q1009=  
06-Feb-2011 SAID35 WAPI 060200 METAR WAPI 060200Z 28012KT RERA 9999 BKN016 30/25 Q1008=  
06-Feb-2011 SAID35 WAPI 060300 METAR WAPI 060300Z 30004KT 9999 BKN016 27/25 Q1008=  
06-Feb-2011 SAID35 WAPI 060400 METAR WAPI 060400Z 30005KT 9999 BKN018 30/26 Q1007=  
06-Feb-2011 SAID35 WAPI 060500 METAR WAPI 060500Z 32005KT 8000 RERA BKN015 29/25 Q1007=  
06-Feb-2011 SAID35 WAPI 060600 METAR WAPI 060600Z 33012KT 9999 SCT016 30/26 Q1006=  
06-Feb-2011 SAID35 WAPI 062300 METAR WAPI 062300Z 29005KT 9999 SCT017 26/25 Q1008 NSE=  
07-Feb-2011 SAID35 WAPI 070000 METAR WAPI 070000Z 02006KT 9999 SCT018 28/26 Q1009 NSC=  
07-Feb-2011 SAID35 WAPI 070100 METAR WAPI 070100Z 29005KT 10.000 RERA BKN015 27/25 Q1010=  
07-Feb-2011 SAID35 WAPI 070200 METAR WAPI 070200Z 27006KT 9999 SCT015 27/25 1009 NSC=  
07-Feb-2011 SAID35 WAPI 070300 METAR WAPI 070300Z 28004KT 9999 SCT015 29/26 Q1008 NSC=  
07-Feb-2011 SAID35 WAPI 070400 METAR WAPI 070400Z 26004KT 9999 SCT017 31/26 Q1007 NSC=  
07-Feb-2011 SAID35 WAPI 070500 METAR WAPI 070500Z 27012KT 9999 SCT017 29/24 Q1007 NOSIG=  
07-Feb-2011 SAID35 WAPI 070600 METAR WAPI 070600Z 26010KT 9999 SCT017 28/24 Q1006 NSC=  
07-Feb-2011 SAID35 WAPI 072300 METAR WAPI 072300Z 25004KT 9999 BKN017 26/25 Q1007 NSC=  
08-Feb-2011 SAID35 WAPI 080000 METAR WAPI 080000Z 28007KT 8000 RA BKN016 25/23 Q1008=  
08-Feb-2011 SAID35 WAPI 080100 METAR WAPI 080100Z 27009KT 9999 SCT016 25/24 Q1008 NOSIG=  
08-Feb-2011 SAID35 WAPI 080200 METAR WAPI 080200Z 26006KT 9999 FEW018 25/24 Q1007 NOSIG=  
08-Feb-2011 SAID35 WAPI 080300 METAR WAPI 080300Z 29008KT 9999 SCT016 28/25 Q1006 NOSIG=  
08-Feb-2011 SAID35 WAPI 080600 METAR WAPI 080600Z 28005KT 9999 SCT017 29/24 Q1004 NOSIG=  
08-Feb-2011 SAID35 WAPI 082300 METAR WAPI 082300Z 00000KT 9999 SCT017 26/24 Q1007 NSC=  
09-Feb-2011 SAID35 WAPI 090000 METAR WAPI 090000 Z 30005 KT 9999 BKN 018 27/24 Q1009=  
09-Feb-2011 SAID35 WAPI 090100 METAR WAPI 090100 Z 28004 KT PREC IN SIGHT15 BKN 017 29/24 Q1009=  
09-Feb-2011 SAID35 WAPI 090200 METAR WAPI 090200 Z 30003 KT 9999 BKN 015 28/25 Q1009 NSC=  
09-Feb-2011 SAID35 WAPI 090300 METAR WAPI 090300 Z 29003 KT RA BKN 013 27/24 Q013=  
09-Feb-2011 SAID35 WAPI 090400 METAR WAPI 090400 Z 33306 KT 9999 BKN015 28/25 Q1009 NSC=  
09-Feb-2011 SAID35 WAPI 090500 METAR WAPI 090500Z 35007KT 9000 PRECC IN SIGHT 15 BKN010 27/24 Q1007=  
09-Feb-2011 SAID35 WAPI 090600 METAR WAPI 090600Z 30006KT 9999 BKN014 27/25 Q1006 NSC=  
10-Feb-2011 SAID35 WAPI 100000 METAR WAPI 100000Z 34005KT 9999 SCT018 27/26 Q1009 NOSIG=  
10-Feb-2011 SAID35 WAPI 100100 METAR WAPI 100100Z 27003KT 9999 SCT018 27/25 Q1008 NOSIG=  
10-Feb-2011 SAID35 WAPI 100200 METAR WAPI 100200Z 27005KT 9999 SCT018 30/24 Q1008 NOSIG=  
10-Feb-2011 SAID35 WAPI 100300 METAR WAPI 100300Z 10008KT 9999 FEW 30/25 Q1007 NOSIG=  
10-Feb-2011 SAID35 WAPI 100400 METAR WAPI 100400Z 10010KT 9999 SCT018 31/25 Q1006 NOSIG=  
10-Feb-2011 SAID32 WAMM 100600 METAR WAPI 9999 RERA SCT 010CB FEW 30/25 Q 10006=  
10-Feb-2011 SAID35 WAPI 102300 METAR WAPI 102300Z 00000KT 9999 FEW018 25/24 Q1008 NSC=  
11-Feb-2011 SAID35 WAPI 110000 METAR WAPI 110000Z 29002KT 9999 FEW018 27/25 Q1008 NSC=  
11-Feb-2011 SAID35 WAPI 110100 METAR WAPI 110100Z 30005KT 9999 BKN018 30/25 Q1008 NSC=  
11-Feb-2011 SAID35 WAPI 110200 METAR WAPI 110200Z 34006KT 9999 SCT018 30/24 Q1008 NSC=  
11-Feb-2011 SAID35 WAPI 110300 METAR WAPI 110300Z 20010KT 10.000 PREC IN SIGHT15 BKN015 31/25 Q1007=  
11-Feb-2011 SAID35 WAPI 110400 METAR WAPI 110400Z 11008KT 8.000 SL/MOD TS NO HA BKN015 27/24 Q1007=  
11-Feb-2011 SAID35 WAPI 110500 METAR WAPI 110500Z 02003 4000 RA/TS OVC010 26/25 Q1007=  
11-Feb-2011 SAID35 WAPI 110600 METAR WAPI 110600Z 13003KT 9000 RA/TS BKN010 25/24 Q1006=  
11-Feb-2011 SAID35 WAPI 112300 METAR WAPI 112300Z 24003KT 9999 BKN016 25/25 Q1007 NSC=  
12-Feb-2011 SAID35 WAPI 120000 METAR WAPI 120000Z 25005KT 9999 BKN017 26/25 Q1008 NOSIG=  
12-Feb-2011 SAID35 WAPI 120100 METAR WAPI 120100Z 31005KT 6000 PREC IN SIGHT 15 BKN016CB 28/25 Q1008=  
12-Feb-2011 SAID35 WAPI 120200 METAR WAPI 120200Z 29004KT 6000 RA SCT016CB 27/25 Q1008=  
12-Feb-2011 SAID35 WAPI 120300 METAR WAPI 120300Z 28003KT 9999 SCT016CB 28/26 Q1006 NOSIG=  
12-Feb-2011 SAID35 WAPI 120400 METAR WAPI 120400Z 27006KT 9999 SCT017 29/26 Q1006 NOSIG=  
12-Feb-2011 SAID35 WAPI 120500 METAR WAPI 120500Z 28009KT 9999 SCT017 30/226 Q1005 NSC=  
12-Feb-2011 SAID32 WAMM 120600 METAR WAPI 120600Z 28008KT 9999 SCT017 30/26 Q1005=  
12-Feb-2011 SAID35 WAPI 122300 METAR WAPI 122300Z 34003KT 9999 BKN016 26/24 Q1007 NSC=  
13-Feb-2011 SAID35 WAPI 130000 METAR WAPI 130000Z 33008KT 9999 SCT017 28/25 Q1008 NSC=  
13-Feb-2011 SAID35 WAPI 130100 METAR WAPI 130100Z 30006KT 9999 SCT017 30/26 A1008 NSC=  
13-Feb-2011 SAID35 WAPI 130200 METAR WAPI 130200Z 28007KT 9999 SCT017 32/26 Q1007 NSC=  
13-Feb-2011 SAID35 WAPI 130400 METAR WAPI 130400 Z 32025 KT RA BKN 010 29/24 Q1007=  
13-Feb-2011 SAID35 WAPI 130500 METAR WAPI 130500 Z 33015 KT 9999 BKN 103 29/24 Q1006 NSC=  
13-Feb-2011 SAID35 WAPI 130600 METAR WAPI 130600 Z 30008 KT 9999 SCT 017 28/24 Q1006 NSC=  
13-Feb-2011 SAID35 WAPI 132300 METAR WAPI 132300 Z 32006 KT 9999 SCT 016 26/25 Q 1007 NSC=  
14-Feb-2011 SAID35 WAPI 140000 METAR WAPI 140000Z 32015KT 2000 TS RA SCT010CB FEW014 28/25 Q1008=  
14-Feb-2011 SAID32 WAMM 140200 METAR WAPI 140200Z 29012KT 9999 BKN016 28/26 Q1008 NOSIG=  
14-Feb-2011 SAID32 WAMM 140300 WAPI 140300Z 27010KT 9999 SCT016 30/25 Q1008 NOSIG=  
14-Feb-2011 SAID32 WAMM 140500 METAR WAPI 140500Z 27008KT 9999 FEW018 30/26 Q1006=  
14-Feb-2011 SAID35 WAPI 142300 METAR WAPI 142300Z 02002KT 9999 SCT017 27/25 Q1009 NSC=  
15-Feb-2011 SAID35 WAPI 150000 METAR WAPI 150000Z 30005KT 9999 SCT018 28/26 Q009 NSC=  
15-Feb-2011 SAID35 WAPI 150100 METAR WAPI 150100Z 34006KT 9999 SCT018 29/26 Q1009 NSC=  
15-Feb-2011 SAID35 WAPI 150200 METAR WAPI 150200Z 35008KT 9999 SCT018 30/26 Q1009 NSC=  
15-Feb-2011 SAID35 WAPI 150300 METAR WAPI 150300Z 28010KT 9999 SCT018 31/26 Q1009 NSC=  
15-Feb-2011 SAID35 WAPI 150400 METAR WAPI 150400Z 27012KT 9999 SCT018 31/25 Q1008 NSC=  
15-Feb-2011 SAID35 WAPI 150500 METAR WAPI 150500Z 29010KT 9999 SCI018 31/25 Q1007 NSC=  
16-Feb-2011 SAID32 WAMM 160000 WAPI 160000Z 29006KT 9999 SC018 28/25 Q1009 NSG=  
16-Feb-2011 SAID35 WAPI 160100 METAR WAPI 160100Z 30008KT 9999 SCT018 29/26 Q1009 NOSIG=  
16-Feb-2011 SAID35 WAPI 160300 METAR WAPI 160300Z 31012KT 9999 SCT018 31/26 Q1009 NOSIG=  
16-Feb-2011 SAID35 WAPI 160400 METAR WAPI 160400Z 32015KT 9999 SCT018 30/25 Q1007 NOSIG=  
16-Feb-2011 SAID35 WAPI 160600 METAR WAPI 160600Z 29010KT 9999 SXCT018 30/25 Q1007 NSC=  
17-Feb-2011 SAID35 WAPI 170000 METAR WAPI 170000 Z 30008 KT 9999 SCT 017 29/25 Q1008 NSC=  
17-Feb-2011 SAID35 WAPI 170200 METAR WAPI 170200Z 28010KT 9999 SCT017 31/26 Q1008 NSC=  
17-Feb-2011 SAID35 WAPI 170300 METAR WAPI 170300 Z 30010 KT 9999 SCT 016 30/24 Q1008 NSC=  
17-Feb-2011 SAID35 WAPI 170400 METAR WAPI 170400Z 30008KT 9999 BKN017 29/25 Q1007 NSC=  
17-Feb-2011 SAID35 WAPI 170500 METAR WAPI 170500Z 28010KT 9999 BKN017 29/26 Q1005 NSC=  
17-Feb-2011 SAID35 WAPI 170600 METAR WAPI 170600Z 10006KT 8000 RA BKN010 27/25 Q1005=  
17-Feb-2011 SAID35 WAPI 172300 METAR WAPI 172300Z 26004KT 9999 FEW010CB FEW 014 26/23 Q1007=  
18-Feb-2011 SAID35 WAPI 180000 METAR WAPI 180000Z 34006KT 9999 SCT016 29/26 Q1007=  
18-Feb-2011 SAID35 WAPI 180200 METAR WAPI 180200Z 29010KT 9999 BKN016 31/26 Q1008=  
18-Feb-2011 SAID35 WAPI 180300 METAR WAPI 180300Z 28008KT 9999 RERA BKN016 29/26 Q1007=  
18-Feb-2011 SAID35 WAPI 180500 METAR WAPI 180500 Z 29008 KT 9999 FEW 017 31/26 Q 1005 NSC=  
18-Feb-2011 SAID35 WAPI 180600 METAR WAPI 180600Z 29012KT 9999 SCT016 32/26 Q1005=  
18-Feb-2011 SAID35 WAPI 182300 METAR WAPI 182300Z 30008KT 9999 SCT017 27/26 Q1008 NSC=  
19-Feb-2011 SAID35 WAPI 190000 METAR WAPI 190000Z 28010KT 9999 RE RA SCT015 278/25 1009=  
19-Feb-2011 SAID35 WAPI 190100 METAR WAPI 190100Z 29006KT 9999 SCT017 29/25 Q1009 NSC=  
19-Feb-2011 SAID35 WAPI 190200 METAR WAPI 190200Z 26010KT 9999 SCT017 30/25 Q1009 NSC=  
19-Feb-2011 SAID35 WAPI 190300 METAR WAPI 190300Z 27012KT 9999 SCT017 30/26 Q1008 NSC=  
19-Feb-2011 SAID35 WAPI 190400 METAR WAPI 190400Z 30014KT 9999 SCT017 28/24 Q1008 NSC=  
19-Feb-2011 SAID35 WAPI 190500 METAR WAPI 190500Z 29008KT 999 BKN017 28/25 Q1007 NSC=  
19-Feb-2011 SAID35 WAPI 190600 METAR WAPI 190600Z 30009KT 9999 BKN017 30/26 Q1006 NSC=  
19-Feb-2011 SAID35 WAPI 192300 METAR WAPI 192300Z 34005KT 9999 BKN018 28/25 Q1009 NSC=  
20-Feb-2011 SAID35 WAPI 200000 METAR WAPI 200000Z 29006KT 8000 RA SCT015 29/26 Q1010=  
20-Feb-2011 SAID35 WAPI 200100 METAR WAPI 200100Z 34008KT 10000 RA SCT015 27/24 Q1010=  
20-Feb-2011 SAID35 WAPI 200200 METAR WAPI 200200Z 35010KT 9999 TS SCT015 28/24 Q1010=  
20-Feb-2011 SAID35 WAPI 200300 METAR WAPI 200300Z 33010KT 10000 RA BKN015 26/25 Q1009=  
20-Feb-2011 SAID35 WAPI 200400 METAR WAPI 200400Z 02008KT 9999 SCT017 26/24 Q1009 NSC=  
20-Feb-2011 SAID35 WAPI 200500 METAR WAPI 200500Z 35009KT 9999 SCT017 27/24 Q1008 NSC=  
20-Feb-2011 SAID35 WAPI 200600 METAR WAPI 200600Z 29006KT 9999 SCT017 27/25 Q1008 NSC=  
20-Feb-2011 SAID35 WAPI 202300 METAR WAPI 202300Z 33005KT 9999 SCT017 27/25 Q1009 NSC=  
21-Feb-2011 SAID35 WAPI 210000 METAR WAPI 210000 27006 KT 9999 SCT 018 28/26 Q 1010 NSC=  
21-Feb-2011 SAID35 WAPI 210100 METAR WAPI 210100 30005KT 9999 SCT018 28/25 Q1010 NSC=  
21-Feb-2011 SAID35 WAPI 210200 METAR WAPI 210200 29008KT 9999 SCT018 29/25 Q1010 NSC=  
21-Feb-2011 SAID35 WAPI 210500 METAR WAPI 210500Z 28007KT 9999 SCT018 31/24 Q1006 NSC=  
21-Feb-2011 SAID35 WAPI 210600 METAR WAPI 210600Z 29007KT 9999 SCT018 31/25 Q1006 NSC=  
21-Feb-2011 SAID35 WAPI 212300 METAR WAPI 212300Z 27003KT 9999 SCT016 27/26 Q1008=  
22-Feb-2011 SAID35 WAPI 220000 METAR WAPI 220000Z 28007KT 9999 SCT018 28/25 Q1008=  
22-Feb-2011 SAID35 WAPI 220100 METAR WAPI 220100Z 27005KT 9999 FEW018 29/25 Q1008=  
22-Feb-2011 SAID35 WAPI 220200 METAR WAPI 220200Z 27005KT 9999 FEW018 30/24 Q1008 NOSIG=  
22-Feb-2011 SAID35 WAPI 220300 METAR WAPI 220300 Z 25008 KT 9999 FEW 018 30/24 Q 1008 NSC=  
22-Feb-2011 SAID35 WAPI 220400 METAR WAPI 220400 Z 26010 KT 9999 FEW 018 31/25 Q 1007 NSC=  
22-Feb-2011 SAID35 WAPI 220500 METAR WAPI 220500Z 26010KT 9999 FEW018 31/25 Q1006 NOSIG=  
22-Feb-2011 SAID35 WAPI 220600 METAR WAPI 220600Z 26008KT 9999 FEW018 32/25 Q1005 NOSIG=  
22-Feb-2011 SAID35 WAPI 222300 METAR WAPI 222300Z 30006KT 9999 SCT017 26/25 Q1007 NSC=  
23-Feb-2011 SAID35 WAPI 230000 METAR WAPI 230000Z 28009KT 9999 SCT017 28/26 Q1008 NSC=  
23-Feb-2011 SAID35 WAPI 230100 METAR WAPI 230100Z 26008KT 9999 SCT017 29/26 Q1008 NSC=  
23-Feb-2011 SAID35 WAPI 230200 METAR WAPI 230200Z 29010KT 9999 RE RA BKN015 27/24 Q1007=  
23-Feb-2011 SAID35 WAPI 230300 METAR WAPI 230300Z 27012KT 5000 INTER SL RA BKN010 29/26 Q1007=  
23-Feb-2011 SAID35 WAPI 230400 METAR WAPI 230400Z 29008KT 7000 CNS SL RA BKN010 26/25 Q1006=  
23-Feb-2011 SAID35 WAPI 230500 METAR WAPI 230500Z 27009KT 5000 RA OVC010 27/26 Q1005=  
23-Feb-2011 SAID35 WAPI 230600 METAR WAPI 230600Z 27015KT 8000 RA OVC010 25/24 Q1005=  
24-Feb-2011 SAID35 WAPI 240000 METAR WAPI 240000Z 25009KT 9999 SCT017 28/25 Q1006 NOSIG=  
24-Feb-2011 SAID35 WAPI 240100 METAR WAPI 240100Z 26007KT 9999 SCT018 29/25 Q1005 NOSIG=  
24-Feb-2011 SAID35 WAPI 240200 METAR WAPI 240200Z 28012KT 9999 SCT017 29/25 Q1006 NOSIG=  
24-Feb-2011 SAID35 WAPI 240300 METAR WAPI 240300Z 29010KT 5000 INTERSLRA BKN014CB 28/25 Q1005=  
24-Feb-2011 SAID35 WAPI 240400 METAR WAPI 240400Z 25011KT 7000 RERA BKN014CB 27/24 Q1004=  
24-Feb-2011 SAID35 WAPI 240500 METAR WAPI 240500Z 27013KT 9999 BKN016 27/25 Q1004 NSC=  
24-Feb-2011 SAID35 WAPI 240600 METAR WAPI 240600Z 27016KT 3000 CNS MOD RA OVC010 24/23 Q1004=  
24-Feb-2011 SAID35 WAPI 242300 METAR WAPI 242300Z 28012KT 9999 BKN017 26/24 Q1004 NSC=  
25-Feb-2011 SAID35 WAPI 250000 METAR WAPI 250000 Z 26011 KT 9999 BKN 017 28/26 Q1005 NSC=  
25-Feb-2011 SAID35 WAPI 250200 METAR WAPI 250200 Z 30010 KT RE RA BKN 013 29/26 Q1005=  
25-Feb-2011 SAID35 WAPI 250300 METAR WAPI 250300 Z 29020 KT 9999 SCT017 30/26 Q1005 NSC=  
25-Feb-2011 SAID35 WAPI 250400 METAR WAPI 250400 Z 31008 KT 9999 BKN 017 30/25 Q1004 NSC=  
25-Feb-2011 SAID35 WAPI 250500 METAR WAPI 250500Z 28016KT 9999 BKN017 30/24 Q1003 NSC=  
25-Feb-2011 SAID35 WAPI 250600 METAR WAPI 250600Z 27019KT 9999 BKN017 31/25 Q1002 NSC=  
25-Feb-2011 SAID35 WAPI 252300 METAR WAPI 252300 Z 30010 KT 9999 FEW 018 27/24 Q 1005 NSC=  
26-Feb-2011 SAID35 WAPI 260000 METAR WAPI 260000 Z 29014 KT 9999 FEW 018 29/25 Q 1005 NSC=  
26-Feb-2011 SAID35 WAPI 260200 METAR WAPI 260200 Z 33015 KT 9999 FEW 018 31/25 Q 1005 NSC=  
26-Feb-2011 SAID35 WAPI 260300 METAR WAPI 260300 Z 29014 KT 9999 FEW 018 31/24 Q 1004 NSC=  
26-Feb-2011 SAID35 WAPI 260400 METAR WAPI 260400 Z 29020 KT 9999 SCT 018 31/24 Q 1004 NSC=  
26-Feb-2011 SAID35 WAPI 260500 METAR WAPI 260500 Z 33018 KT 9999 SCT 018 31/24 Q 1004 NSC=  
26-Feb-2011 SAID35 WAPI 260600 METAR WAPI 260600 Z 34014 KT 9999 SCT 018 31/25 Q 1003 NSC=  
26-Feb-2011 SAID35 WAPI 262300 METAR WAPI 262300Z 29006KT 9999 SCT017 27/25 Q1005 NSC=  
27-Feb-2011 SAID35 WAPI 270000 METAR WAPI 270000Z 28008KT 9999 BKN017 29/26 Q1005 NSC=  
27-Feb-2011 SAID35 WAPI 270100 METAR WAPI 270100 29010KT 9999 SCT017 30/25 Q1006 NSC=  
27-Feb-2011 SAID35 WAPI 270200 METAR WAPI 270200Z 27014KT 9999 BKN017 31/25 Q1006 NSC=  
27-Feb-2011 SAID35 WAPI 270300 METAR WAPI 270300Z 28016KT 9999 BKN017 32/25 Q1005 NSC=  
27-Feb-2011 SAID35 WAPI 270400 METAR WAPI 270400Z 26015KT 9999 BKN017 31/25 Q1005 NSC=  
27-Feb-2011 SAID35 WAPI 270500 METAR WAPI 270500Z 28017KT 9999 BKN017 32/25 Q1004 NSC=  
27-Feb-2011 SAID35 WAPI 270600 METAR WAPI 270600Z 29014KT 9999 BKN017 30/25 Q1003 NSC=  
27-Feb-2011 SAID35 WAPI 272300 METAR WAPI 272300Z 29006KT 9999 BKN017 29/26 Q1006 NSC=  
28-Feb-2011 SAID35 WAPI 280000 METAR WAPI 280000Z 31012KT 9999 SCT018 30/26 Q1006 NOSIG=  
28-Feb-2011 SAID35 WAPI 280100 METAR WAPI 280100Z 33010KT 9999 FEW018 30/25 Q1006 NOSIG=  
28-Feb-2011 SAID35 WAPI 280200 METAR WAPI 280200Z 28015KT 9999 SCT018 32/25 Q1006 NOSIG=  
28-Feb-2011 SAID35 WAPI 280300 METAR WAPI 280300Z 29017KT 9999 SCT018 32/25 Q1006 NOSIG=  
28-Feb-2011 SAID35 WAPI 280400 METAR WAPI 280400 28015KT 9999 BKN018 32/25 Q1005 NSG=  
28-Feb-2011 SAID35 WAPI 280500 METAR WAPI 280500Z 29019KT 9999 BKN018 32/25 Q1005 NSC=  
28-Feb-2011 SAID35 WAPI 280600 METAR WAPI 280600Z 27016KT 9999 BKN018 33/25 Q1004 NSC=  
28-Feb-2011 SAID35 WAPI 282300 METAR WAPI 282300Z 28005KT 9999 BKN018 27/24 Q1007 NSC=  
01-Mar-2011 SAID35 WAPI 010000 METAR WAPI 010000Z 30006KT 9999 SCT018 28/24 Q1007 NSC=  
01-Mar-2011 SAID35 WAPI 010100 METAR WAPI 010100Z 28010KT 9999 SCT018 29/25 Q1007 NSC=  
01-Mar-2011 SAID35 WAPI 010200 METAR WAPI 010200Z 26008KT 9999 SCT018 30/25 Q1007 NSC=  
01-Mar-2011 SAID35 WAPI 010300 METAR WAPI 010300Z 27008KT 9999 SCT018 30/25 Q1006 NSC=  
01-Mar-2011 SAID35 WAPI 010400 METAR WAPI 010400Z 29008KT 9999 SCT018 33/26 Q1006 NSC=  
01-Mar-2011 SAID35 WAPI 010500 METAR WAPI 010500Z 29010KT 9999 SCT018 33/26 Q1005 NSC=  
01-Mar-2011 SAID35 WAPI 010600 METAR WAPI 010600Z 27007KT 9999 SCT018 33/26 Q1005 NSC=  
01-Mar-2011 SAID35 WAPI 012300 METAR WAPI 012300Z 34005KT 9999 RA FEW018 27/25 Q1007=  
02-Mar-2011 SAID35 WAPI 020000 METAR WAPI 020000 Z 33008 KT FEW 018 29/26 Q 1008 NSC=  
02-Mar-2011 SAID35 WAPI 020100 METAR WAPI 020100Z 34010KT 9999 SCT018 30/25 Q1008 NSC=  
02-Mar-2011 SAID35 WAPI 020200 METAR WAPI 020200 Z 33012 KT 9999 SCT 018 32/26 Q 1008 NSC=  
02-Mar-2011 SAID35 WAPI 020300 METAR WAPI 020300 Z 35012 KT 9999 SCT 018 31/26 Q 1007 NSC=  
02-Mar-2011 SAID35 WAPI 020400 METAR WAPI 020400Z 34008KT 9999 RA BKN012 30/26 Q1006=  
02-Mar-2011 SAID35 WAPI 020500 METAR WAPI 020500Z 29010KT 9999 BKN012 29/26 Q1006 NSC=  
02-Mar-2011 SAID35 WAPI 020600 METAR WAPI 020600Z 28006KT 9999 BKN012 28/25 Q1005 NSC=  
02-Mar-2011 SAID35 WAPI 022300 METAR WAPI 022300Z 28006KT 9999 SCT017 27/25 Q1007 NSC=  
03-Mar-2011 SAID35 WAPI 030000 METAR WAPI 030000 30010KT 9999 SCT 017 28/25 Q1007 NSC=  
03-Mar-2011 SAID35 WAPI 030100 METAR WAPI 030100 29012KT 9999 BKN 010 29/26 Q 1007 NSC=  
03-Mar-2011 SAID35 WAPI 030200 METAR WAPI 030200 30012KT 9999 BKN 010 30/24 Q1008 NSC=  
03-Mar-2011 SAID35 WAPI 030300 METAR WAPI 030300Z 27013KT 9999 BKN016 30/25 Q1007 NSC=  
03-Mar-2011 SAID35 WAPI 030400 METAR WAPI 030400Z 28010KT 9999 BKN017 30/25 Q1006 NSC=  
03-Mar-2011 SAID35 WAPI 030500 METAR WAPI 030500Z 27014KT 9999 BKN016 30/25 Q1006 NSC=  
03-Mar-2011 SAID35 WAPI 030600 METAR WAPI 030600Z 27015KT 6000 RA BKN010 26/24 Q1006=  
03-Mar-2011 SAID35 WAPI 032300 METAR WAPI 032300Z 27005KT 9999 BKN018 26/25 1007 NSC=  
04-Mar-2011 SAID35 WAPI 040000 METAR WAPI 040000Z 30005KT 9999 BKN017 27/26 Q1008 NOSIG=  
04-Mar-2011 SAID35 WAPI 040100 METAR WAPI 040100Z 29007KT 9999 SCT017 29/26 Q1009 NOSIG=  
04-Mar-2011 SAID35 WAPI 040200 METAR WAPI 040200Z 27008KT 9999 SCT017 29/26 Q1009 NOSIG=  
04-Mar-2011 SAID35 WAPI 040300 METAR WAPI 040300Z 28010KT 9999 SCT017 29/26 Q1009 NOSIG=  
04-Mar-2011 SAID35 WAPI 040400 METAR WAPI 040400Z 29009KT 8000 RA BKN016 29/26 Q1008=  
04-Mar-2011 SAID35 WAPI 040500 METAR WAPI 040500Z 28010KT 9999 BKN016 27/24 Q1007 NSC=  
04-Mar-2011 SAID35 WAPI 040600 METAR WAPI 040600Z 27011KT 9999 BKN016 27/25 Q1006 NSC=  
04-Mar-2011 SAID35 WAPI 042300 METAR WAPI 042300Z 34004KT 9999 SCT017 26/25 Q1009 NSC=  
05-Mar-2011 SAID35 WAPI 050100 METAR WAPI 050100Z 31008KT 9999 BKN018 28/25 Q1009 NSC=  
05-Mar-2011 SAID35 WAPI 050200 METAR WAPI 050200Z 30007KT 9999 SCT018 30/25 Q1009 NSC=  
05-Mar-2011 SAID35 WAPI 050300 METAR WAPI 050300Z 27008KT 9999 SCT018 32/25 Q10008 NSC=  
05-Mar-2011 SAID35 WAPI 050400 METAR WAPI 050400Z 25005KT 9999 SCT018 32/25 Q1008 NSC=  
05-Mar-2011 SAID35 WAPI 050500 METAR WAPI 050500Z 25003KT 9999 BKN018 32/25 Q1007 NSC=  
05-Mar-2011 SAID35 WAPI 050600 METAR WAPI 050600Z 27006KT 9999 SCT018 32/26 Q1006 NSC=  
05-Mar-2011 SAID35 WAPI 052230 METAR WAPI 052230 Z 02006 KT 9999 FEW 018 26/24 Q 1009 NSC=  
05-Mar-2011 SAID35 WAPI 052300 METAR WAPI 052300 Z 02007 KT 9999 FEW 018 26/25 Q 1009 NSC=  
06-Mar-2011 SAID35 WAPI 060000 METAR WAPI 060000 Z 34008 KT 9999 FEW 018 28/25 Q 1010 NSC=  
06-Mar-2011 SAID35 WAPI 060100 METAR WAPI 060100 Z 30005 KT 9999 SCT 018 29/25 Q 1010 NSC=  
06-Mar-2011 SAID35 WAPI 060200 METAR WAPI 060200 Z 32006 KT 9999 BKN 018 31/25 Q1010 NSC=  
06-Mar-2011 SAID35 WAPI 060300 METAR WAPI 060300 Z 30004 KT 9999 SCT 018 31/25 Q1010 NSC=  
06-Mar-2011 SAID35 WAPI 060400 METAR WAPI 060400 Z 30004 KT 9999 SCT 018 32/25 Q1008 NSC=  
06-Mar-2011 SAID35 WAPI 060500 METAR WAPI 060500 Z 28025 KT 9999 SCT 018 32/25 Q1008 NSC=  
06-Mar-2011 SAID35 WAPI 060600 METAR WAPI 060600 Z 26009 KT 9999 SCT 017 31/25 Q1007=  
06-Mar-2011 SAID35 WAPI 061500 METAR WAPI 061500 Z 29004 KT 9999 SCT 018 31/26 Q1007 NSC=  
06-Mar-2011 SAID35 WAPI 062300 METAR WAPI 062300 34004KT 9999 FEW 018 27/25 Q 1009 NSC=  
07-Mar-2011 SAID35 WAPI 070000 METAR WAPI 070000 30006KT 9999 FEW 018 29/26 Q 1010 NSC=  
07-Mar-2011 SAID35 WAPI 070125 METAR WAPI 070125 28008KT 9999 SCT018 31/25 Q 1010 NSC=  
07-Mar-2011 SAID35 WAPI 070200 METAR WAPI 070200 32010KT 9999 BKN 018 31/25 Q 1010 NSC=  
07-Mar-2011 SAID34 WAPI 070300 METAR WAPI 070300 29008KT 9999 SCT 018 32/25 Q 1009 NSC=  
07-Mar-2011 SAID35 WAPI 070400 METAR WAPI 070400Z 30010KT 9999 BKN018 33/25 1008 NSC=  
07-Mar-2011 SAID35 WAPI 070500 METAR WAPI 070500 28012KT 9999 SCT 018 33/25 Q 1008 NSC=  
07-Mar-2011 SAID35 WAPI 070600 METAR WAPI 070600Z 28013KT 9999 BKN018 33/24 Q1007 NSC=  
07-Mar-2011 SAID35 WAPI 072300 METAR WAPI 072300Z 34006KT 9999 SCT018 27/25 Q1009 NSC=  
08-Mar-2011 SAID35 WAPI 080000 METAR WAPI 080000Z 35005KT 9999 SCT018 29/26 Q1010 NOSIG=  
08-Mar-2011 SAID35 WAPI 080100 METAR WAPI 080100Z 32006KT 9999 SCT018 30/25 Q1010 NOSIG=  
08-Mar-2011 SAID35 WAPI 080200 METAR WAPI 080200Z 30010KT 9999 SCT018 31/25 Q1009 NOSIG=  
08-Mar-2011 SAID35 WAPI 080300 METAR WAPI 080300Z 31013KT 9999 BKN018 33/25 Q1009 NOSIG=  
08-Mar-2011 SAID35 WAPI 080400 METAR WAPI 080400Z 27015KT 9999 SCT018 33/26 Q1009 NOSIG=  
08-Mar-2011 SAID35 WAPI 080500 METAR WAPI 080500Z 27010KT 9999 BKN018 34/26 Q1008 NSC=  
08-Mar-2011 SAID35 WAPI 080600 METAR WAPI 080600Z 28012KT 9999 SCT018 33/25 Q1007 NSC=  
08-Mar-2011 SAID35 WAPI 082300 METAR WAPI 082300Z 27004KT 9999 SCT018 27/26 Q1009 NSC=  
09-Mar-2011 SAID35 WAPI 090000 METAR WAPI 090000Z 29006KT 9999 SCT018 29/26 Q10010 NSC=  
09-Mar-2011 SAID35 WAPI 090100 METAR WAPI 090100Z 27009KT 9999 SCT018 30/25 Q1010 NSC=  
09-Mar-2011 SAID35 WAPI 090200 METAR WAPI 090200Z 29009KT 9999 SCT018 31/25 Q1010 NSC=  
09-Mar-2011 SAID35 WAPI 090300 METAR WAPI 9999 SCT018 32/24 Q1010 NSC=  
09-Mar-2011 SAID35 WAPI 090500 METAR WAPI 090500Z 26010KT 9999 BKN018 34/25 Q1008 NSC=  
09-Mar-2011 SAID35 WAPI 090600 METAR WAPI 090600Z 29010KT 9999 SCT018 33/24 Q1007 NSC=  
09-Mar-2011 SAID35 WAPI 092300 METAR WAPI 092300Z 34006KT 9999 FEW 018 Q 1009 NSC=  
10-Mar-2011 SAID35 WAPI 100000 METAR WAPI 100000 Z 29010 KT 9999 BKN 018 29/26 Q 1009 NSC=  
10-Mar-2011 SAID35 WAPI 100200 METAR WAPI 100200 Z 33013 KT 9999 FEW 018 32/25 Q 1009 NSC=  
10-Mar-2011 SAID32 WAMM 100300 METAR WAPI 100300Z 34014KT 9999 FEW018 33/25 Q1008 NOSIG=  
10-Mar-2011 SAID35 WAPI 100400 METAR WAPI 100400Z 28015KT 9999 SCT018 34/25 Q1007 NSC=  
10-Mar-2011 SAID35 WAPI 100500 METAR WAPI 100500Z 26012KT 9999 SCT018 34/25 Q1006 NSC=  
10-Mar-2011 SAID35 WAPI 100600 METAR WAPI 100600Z 29016KT 9999 FEW018 33/24 Q1006 NSC=  
10-Mar-2011 SAID35 WAPI 102300 METAR WAPI 102300Z 30006KT 9999 EFW018 28/26 Q1007 NSC=  
11-Mar-2011 SAID35 WAPI 110020 METAR WAPI 110020 31010KT 9999 SCT018 30/26 Q1008 NSC=  
11-Mar-2011 SAID35 WAPI 110100 METAR WAPI 110100 30015KT 9999 SCT 018 31/26 Q 1008 NSC=  
11-Mar-2011 SAID35 WAPI 110200 METAR WAPI 110200 28016KT 9999 BKN 018 31/24 Q1008 NSC=  
11-Mar-2011 SAID35 WAPI 110300 METAR WAPI 110300 29018KT 9999 SCT 018 32/26 Q 1007 NSC=  
11-Mar-2011 SAID35 WAPI 110400 METAR WAPI 110400 27018KT 9999 BKN 018 33/26 Q 1006 NSC=  
11-Mar-2011 SAID35 WAPI 110500 METAR WAPI 110500Z 25016KT 9999 BKN018 33/25 Q1005 NSC=  
11-Mar-2011 SAID35 WAPI 110600 METAR WAPI 110600Z 28015KT 9999 BKN018 33/25 Q1004 NSC=  
11-Mar-2011 SAID35 WAPI 112300 METAR WAPI 112300Z 31006KT 9999 SCT018 28/25 Q1007 NSC=  
12-Mar-2011 SAID54 WAPI 120000 METAR WAPI 120000Z 28008KT 9999 SCT018 30/26 Q1008=  
12-Mar-2011 SAID35 WAPI 120100 METAR WAPI 120100Z 27013KT 9999 BKN017 31/26 Q1008 NOSIG=  
12-Mar-2011 SAID35 WAPI 120200 METAR WAPI 120200Z 29015KT 9999 BKN017 32/26 Q1008 NOSIG=  
12-Mar-2011 SAID35 WAPI 120300 METAR WAPI 120300Z 26013KT 9999 BKN017 33/25 Q1007 NOSIG=  
12-Mar-2011 SAID35 WAPI 120400 METAR WAPI 120400Z 29018KT 9999 BKN017 33/26 Q1007 NOSIG=  
12-Mar-2011 SAID35 WAPI 120500 METAR WAPI 120500Z 28016KT 9999 BKN017 34/26 Q1006 NSC=  
12-Mar-2011 SAID35 WAPI 120600 METAR WAPI 120600Z 25014KT 9999 SCT017 34/25 Q1005 NSC=  
12-Mar-2011 SAID35 WAPI 122300 METAR WAPI 122300Z 35003KT 9999 SCT017 28/26 Q1008 NSC=  
13-Mar-2011 SAID35 WAPI 130000 METAR WAPI 130000Z 30007KT 9999 SCT018 29/26 Q1008 NSC=  
13-Mar-2011 SAID35 WAPI 130100 METAR WAPI 130100Z 30009KT 9999 SCT018 32/26 Q1007 NSC=  
13-Mar-2011 SAID35 WAPI 130200 METAR WAPI 130200Z 31009KT 9999 SCT018 33/26 Q1008 NSC=  
13-Mar-2011 SAID35 WAPI 130300 METAR WAPI 130300Z 31008KT 9999 SCT018 33/25 Q1008 NSC=  
13-Mar-2011 SAID35 WAPI 130400 METAR WAPI 130400Z 30011KT 9999 SCT018 34/25 Q1006 NSC=  
13-Mar-2011 SAID35 WAPI 130500 METAR WAPI 130500Z 27010KT 9999 BKN018 34/25 Q1006 NSC=  
13-Mar-2011 SAID35 WAPI 130600 METAR WAPI 130600Z 25012KT 9999 BKN018 34/24 Q1005 NSC=  
13-Mar-2011 SAID35 WAPI 132300 METAR WAPI 132300 Z 35005 KT 9999 FEW 018 27/25 Q 1009 NSC=  
14-Mar-2011 SAID35 WAPI 140000 METAR WAPI 140000 35009 KT 9999 FEW 018 28/25 Q 1009 NSC=  
14-Mar-2011 SAID35 WAPI 140100 METAR WAPI 140100 Z 34010 KT 9999 FEW 018 29/26 Q 1009 NSC=  
14-Mar-2011 SAID35 WAPI 140200 METAR WAPI 140200 Z 35012 KT 9999 SCTC 018 30/25 Q1009 NSC=  
14-Mar-2011 SAID35 WAPI 140300 METAR WAPI 140300 Z 28010 KT 9999 BKN 018 32/26 Q1008 NCS=  
14-Mar-2011 SAID35 WAPI 140500 METAR WAPI 140500 Z 29013 KT 9999 BKN 018 33/25 Q 1006 NSC=  
14-Mar-2011 SAID35 WAPI 142300 METAR WAPI 142300Z 35002KT 9999 FEW018 27/25 Q1008 NSC=  
15-Mar-2011 SAID35 WAPI 150000 METAR WAPI 150000 02003KT 9999 FEW 018 29/26 Q 1009 NSC=  
15-Mar-2011 SAID35 WAPI 150100 METAR WAPI 150100 30005KT 9999 SCT 018 31/25 Q 1009 NSC=  
15-Mar-2011 SAID35 WAPI 150200 METAR WAPI 150200 31003KT 9999 BKN 017 32/26 Q 1008 NSC=  
15-Mar-2011 SAID35 WAPI 150300 METAR WAPI 150300 03005KT 9999 BKN 010 33/26 Q 1008 NSC=  
15-Mar-2011 SAID35 WAPI 150400 METAR WAPI 150400 27012KT 5000 RATS BKN 010 26/24 Q 1008=  
15-Mar-2011 SAID35 WAPI 150500 METAR WAPI 150500Z 26010 9999 BKN018 27/25 Q1006 NSC=  
15-Mar-2011 SAID33 WAPP 150600 METAR WAPI 9999 BKN014 28/25 Q1006=  
15-Mar-2011 SAID35 WAPI 152300 METAR WAPI 152300Z 00000KT 9999 SCT017 26/25 Q1008 NSC=  
16-Mar-2011 SAID35 WAPI 160000 METAR WAPI 160000Z 30004KT 9999 SCT018 28/25 Q1009 NOSIG=  
16-Mar-2011 SAID35 WAPI 160100 METAR WAPI 160100Z 32006KT 9999 SCT017 29/26 Q1009 NOSIG=  
16-Mar-2011 SAID35 WAPI 160200 METAR WAPI 160200Z 15005KT 9999 BKN017 30/26 Q1008 NOSIG=  
16-Mar-2011 SAID32 WAMM 160300 METAR WAPI 160300Z 02003KT 9999 SCT018 30/26 Q1008 NOSIG=  
16-Mar-2011 SAID32 WAMM 160600 METAR WAPI 160600Z WAPI 30009KT 9999 BKN014 28/23 Q1006NOSIG=  
16-Mar-2011 SAID35 WAPI 162300 METAR WAPI 162300Z 35002KT 9999 SCT018 27/26 Q1009 NSC=  
17-Mar-2011 SAID35 WAPI 170000 METAR WAPI 170000 30003KT 9999 SCT 018 28/26 Q 1010 NSC=  
18-Mar-2011 SAID35 WAPI 180000 METAR WAPI 180000 Z 35003 KT 9999 FEW 018 28/25 Q 1010 NSC=  
18-Mar-2011 SAID35 WAPI 180100 METAR WAPI 180100Z 29005KT 9999 FEW018 30/26 Q1009 NSC=  
18-Mar-2011 SAID35 WAPI 180200 METAR WAPI 180200 Z 30005 KT 12000 PRECINSIGHT 15 SCT 015 31/25 Q 1009=  
18-Mar-2011 SAID32 WAMM 180600 METAR WAPI 180600 35006KT 8000 ISR BKN015 26/24 Q1007=  
18-Mar-2011 SAID35 WAPI 182300 METAR WAPI 182300Z 34002KT 9999 SCT010 26/25 Q1007 NSC=  
19-Mar-2011 SAID35 WAPI 190000 METAR WAPI 190000Z 34003KT 9999 SCT018 27/25 Q1008 NSC=  
19-Mar-2011 SAID35 WAPI 190100 METAR WAPI 190100 35003KT 9999 SCT 010 29/26 Q 1009 NSC=  
19-Mar-2011 SAID35 WAPI 190200 METAR WAPI 190200 25006KT 8000 BKN 010 29/26 Q 1009 NSC=  
19-Mar-2011 SAID35 WAPI 190500 METAR WAPI 190500Z 23005KT 9999 BKN018 26/25 Q1007 NSC=  
19-Mar-2011 SAID35 WAPI 190600 METAR WAPI 190600Z 20005KT 9999 BKN018 27/25 Q1006 NSC=  
19-Mar-2011 SAID35 WAPI 192300 METAR WAPI 192300Z 00000KT 9999 SCT018 26/25 Q1008 NOSIG=  
20-Mar-2011 SAID35 WAPI 200000 METAR WAPI 200000Z 35002KT 9999 SCT018 28/25 Q1008 NSC=  
20-Mar-2011 SAID35 WAPI 200100 METAR WAPI 200100Z 22004KT 9999 FEW018 29/25 Q1008 NSC=  
20-Mar-2011 SAID35 WAPI 200400 METAR WAPI 200400Z 10005KT 8000 PRECIN SIGHT 15 BKN014CB 30/25 Q1007=  
20-Mar-2011 SAID35 WAPI 200500 METAR WAPI 200500Z 35003KT 2000 ENTER MOD RA BKN012 27/25 Q 1006=  
20-Mar-2011 SAID35 WAPI 200600 METAR WAPI 200600Z 12004KT 8000 RERA[NOTFR] BKN014CB 27/25 Q1005=  
21-Mar-2011 SAID35 WAPI 210000 METAR WAPI 210000Z 30005KT 9999 FEW018 29/25 Q1008 NSC=  
21-Mar-2011 SAID35 WAPI 210200 METAR WAPI 210200Z 31006KT 9999 SCT018 30/26 Q1008 NSC=  
21-Mar-2011 SAID35 WAPI 210300 METAR WAPI 210300Z 24007KT 9999 BKN018 31/26 Q1007 NSC=  
21-Mar-2011 SAID35 WAPI 210400 METAR WAPI 210400Z 35005KT 9999 SCT018 30/26 Q1006 NSC=  
21-Mar-2011 SAID35 WAPI 210500 METAR WAPI 210500Z 03006KT 9999 SCT018 30/26 Q1006 NSC=  
21-Mar-2011 SAID35 WAPI 210600 METAR WAPI 210600Z 07005KT 9999 BKN017 29/26 Q1006 NSC=  
21-Mar-2011 SAID35 WAPI 212300 METAR WAPI 212300Z 30003KT 9999 SCT018 26/25 Q1007 NSC=  
22-Mar-2011 SAID35 WAPI 220000 METAR WAPI 220000 Z 33008 KT 9999 SCT 018 29/25 Q1009 NSC=  
22-Mar-2011 SAID35 WAPI 220200 METAR WAPI 220200 Z 26010 KT 9999 SCT018 31/26 Q1008 NSC=  
22-Mar-2011 SAID35 WAPI 220400 METAR WAPI 220400 Z 28009 KT BKN 015 32/25 Q1007 NSC=  
22-Mar-2011 SAID35 WAPI 220500 METAR WAPI 220500 Z 05020 KT RA OFC 010 26/24 Q1007=  
22-Mar-2011 SAID35 WAPI 220600 METAR WAPI 220600 Z 05010 KT 9999 BKN 013 25/23 Q1006 NSC=  
22-Mar-2011 SAID35 WAPI 222300 METAR WAPI 222300Z 00000KT 9999 SCT018 27/25 Q1007 NSC=  
23-Mar-2011 SAID35 WAPI 230100 METAR WAPI 230100 33006KT 9999 SCT018 30/25 Q1008 NSC=  
23-Mar-2011 SAID35 WAPI 230200 METAR WAPI 230200 34005KT 9999 BKN 010 31/26 Q 1007 NSC=  
23-Mar-2011 SAID35 WAPI 230300 METAR WAPI 230300 23008KT 5000 BKN 010 30/25 Q1006 NSC=  
23-Mar-2011 SAID35 WAPI 230400 METAR WAPI 230400Z 07005KT 9999 BKN0018 30/26 Q1005 NSC=  
23-Mar-2011 SAID35 WAPI 230500 METAR WAPI 230500Z 25006KT 9999 BKN010 29/25 Q1004 NSC=  
23-Mar-2011 SAID35 WAPI 230600 METAR WAPI 230600Z 33010KT 2000 RAIN BKN010 25/24 Q1004=  
23-Mar-2011 SAID35 WAPI 232300 METAR WAPI 232300Z 00000KT 9999 SCT018 26/25 Q1007 NSC=  
24-Mar-2011 SAID35 WAPI 240000 METAR WAPI 240000 29003KT 9999 FEW018 28/25 Q1006 NSC=  
24-Mar-2011 SAID35 WAPI 240100 METAR WAPI 240100Z 29003KT 9999 SCT018 29/26 Q1007 NSC=  
24-Mar-2011 SAID35 WAPI 240200 METAR WAPI 240200Z 29004KT 9999 SCT018 31/26 Q1007 NSC=  
24-Mar-2011 SAID35 WAPI 240300 METAR WAPI 240300Z 27005KT 8000 PRECINSIGHT15 FEW014CB SCT018 30/26 Q1007=  
24-Mar-2011 SAID35 WAPI 240400 METAR WAPI 240400Z 31006KT 6000 PRECINSIGHT15 BKN013CB 28/25 Q1006=  
24-Mar-2011 SAID35 WAPI 240600 METAR WAPI 240600Z 33006KT 9999 SCT014CB 28/25 Q1005=  
24-Mar-2011 SAID35 WAPI 242300 METAR WAPI 242300Z 09007KT 9000 RA BKN010 26/25 Q1008 NSC=  
25-Mar-2011 SAID35 WAPI 250000 METAR WAPI 250000Z 16004KT 9999 BKN017 26/25 Q1008 NSC=  
25-Mar-2011 SAID35 WAPI 250100 METAR WAPI 250100Z 17005KT 9999 BKN018 27/25 Q1008 NSC=  
25-Mar-2011 SAID35 WAPI 250200 METAR WAPI 250200Z 17006KT 9999 SCT018 29/25 Q1007 NSC=  
25-Mar-2011 SAID32 WAMM 250300 WAPI 250300Z 15005KT 9999 SC018 29/26 Q1006 NOSIG=  
25-Mar-2011 SAID35 WAPI 250400 METAR WAPI 250400Z 14005KT 9999 SCT018 30/26 Q10006 NSC=  
25-Mar-2011 SAID35 WAPI 250500 METAR WAPI 250500Z 12005KT 9999 SCT018 30/26 Q1004 NSC=  
25-Mar-2011 SAID35 WAPI 250600 METAR WAPI 250600Z 10010KT 9999 BKN018 Q1005 NSC=  
25-Mar-2011 SAID35 WAPI 252300 METAR WAPI 252300Z 29003KT 9999 BKN017 25/24 Q1006 NSC=  
26-Mar-2011 SAID35 WAPI 260000 METAR WAPI 260000Z 29003KT 9999 SCT018 26/25 Q1006 NSC=  
26-Mar-2011 SAID35 WAPI 260100 METAR WAPI 260100Z 29004KT 5000 RA BKN010CB 27/25 Q1008=  
26-Mar-2011 SAID35 WAPI 260300 METAR WAPI 260300 Z 29008 KT 10000 RA BKN 010 26/24 Q 1007=  
26-Mar-2011 SAID35 WAPI 260400 METAR WAPI 260400Z 27006KT 9999 BKN015 28/26 Q1006 NSC=  
26-Mar-2011 SAID35 WAPI 260500 METAR WAPI 260500Z 28010KT 8000 RA BKN010 27/25 Q1006=  
26-Mar-2011 SAID35 WAPI 260600 METAR WAPI 260600Z 28012KT 3000 RA BKN010 25/24 Q1006=  
26-Mar-2011 SAID35 WAPI 262300 METAR WAPI 262300Z 31004KT 9999 SCT017 25/25 Q1006 NSC=  
27-Mar-2011 SAID35 WAPI 270000 METAR WAPI 270000Z 30005KT 9999 SCT017 27/25 Q1004 NSC=  
27-Mar-2011 SAID35 WAPI 270100 METAR WAPI 270100Z 25004KT 9999 SCT010 27/25 Q1005 NSC=  
27-Mar-2011 SAID35 WAPI 270200 METAR WAPI 270200Z 25003KT 9999 SCT017 29/26 Q1004 NSC=  
27-Mar-2011 SAID35 WAPI 270300 METAR WAPI 270300 32005KT 9999 SCT017 29/25 Q1005 NSC=  
27-Mar-2011 SAID35 WAPI 270400 METAR WAPI 270400 24003KT 9999 BKN 017 31/26 Q 1004 NSC=  
27-Mar-2011 SAID35 WAPI 270500 METAR WAPI 270500 27005KT 8000 RA BKN 010 30/26 Q 1004 NSC=  
27-Mar-2011 SAID35 WAPI 270600 METAR WAPI 270600Z 00000KT 9999 BKN017 31/26 Q1003 NSC=  
27-Mar-2011 SAID35 WAPI 272300 METAR WAPI 272300Z 29003KT 9999 SCT017 26/25 Q1006 NSC=  
28-Mar-2011 SAID35 WAPI 280000 METAR WAPI 280000Z 29004KT 9999 FEW018 28/26 Q1007 NOSIG=  
28-Mar-2011 SAID54 WAPI 280100 METAR WAPI 280100Z 27006KT 9999 SCT018 29/26 Q1007 NOSIG=  
28-Mar-2011 SAID35 WAPI 280200 METAR WAPI 280200Z 28008KT 9999 BKN018 31/25 Q1006 NOSIG=  
28-Mar-2011 SAID35 WAPI 280300 METAR WAPI 280300Z 29010KT 9999 SCT017 31/25 Q1005 NSC=  
28-Mar-2011 SAID35 WAPI 280400 METAR WAPI 280400Z 27009KT 9999 BKN016 30/25 Q1004 NSC=  
28-Mar-2011 SAID35 WAPI 282300 METAR WAPI 282300Z 25009KT 8000 RA BKN010 26/25 Q1006 NSC=  
29-Mar-2011 SAID35 WAPI 290000 METAR WAPI 290000Z 28009KT 8000 RA BKN010 25/24 Q1002=  
29-Mar-2011 SAID35 WAPI 290100 METAR WAPI 290100Z 29010KT 4000 RA BKN010 25/24 Q1007 NSC=  
29-Mar-2011 SAID35 WAPI 290200 METAR WAPI 290200Z 29008KT 1000 RA BKN010 26/25 Q1006=  
29-Mar-2011 SAID35 WAPI 290300 METAR WAPI 290300Z 28006KT 9999 BKN016 26/26 Q1005 NSC=  
29-Mar-2011 SAID35 WAPI 290400 METAR WAPI 290400Z 27004KT 9999 BKN016 27/26 Q1004 NSC=  
29-Mar-2011 SAID35 WAPI 290500 METAR WAPI 290500Z 29005KT 9999 BKN016 28/26 Q1003 NSC=  
29-Mar-2011 SAID35 WAPI 290600 METAR WAPI 290600Z 26008KT 9999 BKN016 28/26 Q1003 NSC=  
29-Mar-2011 SAID35 WAPI 292300 METAR WAPI 292300 Z 30010 KT 8000 RA BKN 010 26/25 Q 1005=  
30-Mar-2011 SAID35 WAPI 300000 METAR WAPI 300000 Z 30010 KT 50000 RA BKN 010 Q 1005=  
30-Mar-2011 SAID35 WAPI 300100 METAR WAPI 300100 Z 30012 KT 2000 BKN 010 26/26 Q 1005=  
30-Mar-2011 SAID34 WAML 300200 METAR WAPI 300200Z 28012KT 3000 BKN010 26/25 Q1005 RMK RERA=  
30-Mar-2011 SAID35 WAPI 300400 METAR WAPI 300400 Z 28008 KT 3000 RA OVC010 Q1004=  
30-Mar-2011 SAID35 WAPI 302300 METAR WAPI 302300Z 29004KT 9999 BKN010 25/24 Q1003 NSC=  
31-Mar-2011 SAID35 WAPI 310000 METAR WAPI 310000Z 29005KT 9999 SCT016 26/25 Q1003 NSC=  
31-Mar-2011 SAID35 WAPI 310100 METAR WAPI 310100Z 27008KT 9999 BKN016 28/26 Q1004 NSC=  
31-Mar-2011 SAID35 WAPI 310200 METAR WAPI 310200Z 29010KT 9999 SCT017 28/26 Q1005 NSC=  
31-Mar-2011 SAID35 WAPI 310300 METAR WAPI 310300Z 26009KT 9999 SCT017 28/25 Q1005 NSC=  
31-Mar-2011 SAID35 WAPI 310400 METAR WAPI 310400 31012KT 9999 BKN 010 28/26 Q 1004 NSC=  
31-Mar-2011 SAID35 WAPI 310500 METAR WAPI 310500 30012KT 9999 STC 010 28/25 Q 1004 NSC=  
31-Mar-2011 SAID35 WAPI 310600 METAR WAPI 310600Z 28012 5000 RA OVC010 26/25 Q1003=  
31-Mar-2011 SAID35 WAPI 312300 METAR WAPI 312300Z 28006KT 9999 BKN 014 26/25 Q1005 NSC=  
01-Apr-2011 SAID35 WAPI 010000 METAR WAPI 010000Z 30010KT 9999 BKN014 27/26 Q1006 NOSIG=  
01-Apr-2011 SAID35 WAPI 010200 METAR WAPI 010200Z 29011KT 9999 BKN014 27/26 Q1006 NOSIG=  
01-Apr-2011 SAID35 WAPI 010300 METAR WAPI 010300Z 28010KT 9999 SCT015 28/26 Q1006 NOSIG=  
01-Apr-2011 SAID35 WAPI 010400 METAR WAPI 010400Z 28010KT 9999 BKN014 28/25 Q1004 NSC=  
01-Apr-2011 SAID35 WAPI 010500 METAR WAPI 010500Z 29006KT 9999 SCT015 28/25 Q1003 NSC=  
01-Apr-2011 SAID35 WAPI 010600 METAR WAPI 010600Z 29006KT 9999 BKN014 28/25 Q1003 NSC=  
01-Apr-2011 SAID35 WAPI 012300 METAR WAPI 012300 Z 32003 9999 SCT018 27/26 Q1004=  
02-Apr-2011 SAID35 WAPI 020000 METAR WAPI 020000 Z 33015 KT 9999 BKN 017 29/26 Q 1007=  
02-Apr-2011 SAID35 WAPI 020100 METAR WAPI 020100 Z 30006C KT 900 RA BKN 012 28/26 Q1007=  
02-Apr-2011 SAID35 WAPI 020200 METAR WAPI 020200 34007KT 9999 BKN 010 29/26 Q 1007 NSC=  
02-Apr-2011 SAID35 WAPI 020400 METAR WAPI 020400 30011KT 9999 BKN 015 29/26 Q 1006 NSC=  
02-Apr-2011 SAID35 WAPI 020500 METAR WAPI 020500 30010KT 9999 BKN 012 29/26 Q 1005 NSC=  
02-Apr-2011 SAID35 WAPI 020600 METAR WAPI 020600 33010KT 9999 SCT 012 29/26 Q 1004 NSC=  
02-Apr-2011 SAID34 WAPI 020900 METAR WAPI 020900Z 30007KT 9999 FEW020 28/25 Q1005=  
02-Apr-2011 SAID35 WAPI 022300 METAR WAPI 022300Z 06003KT 9999 SCT017 27/25 Q1008 NSC=  
03-Apr-2011 SAID35 WAPI 030000 METAR WAPI 030000 Z 34010 KT 9999 SCT 018 27/25 Q 1009 NSC=  
03-Apr-2011 SAID35 WAPI 030100 METAR WAPI 030100Z 33004KT 9999 FEW018 28/24 Q1003 NSC=  
03-Apr-2011 SAID35 WAPI 030200 METAR WAPI 030200Z 36005KT 9999 FEW018 30/26 Q1003 NSC=  
03-Apr-2011 SAID35 WAPI 030300 METAR WAPI 030300Z 34012KT 9999 SCT018 30/26 Q1008 NSC=  
03-Apr-2011 SAID35 WAPI 030400 METAR WAPI 030400 Z 34012 KT 9999 FEW 018 31/25 Q 1008 NSC=  
03-Apr-2011 SAID35 WAPI 030500 METAR WAPI 030500Z 34013 9999 FEW018 31/25 Q1007 NSC=  
03-Apr-2011 SAID35 WAPI 032300 METAR WAPI 032300Z 34004KT 9999 FEW018 28/26 Q1009 NSC=  
04-Apr-2011 SAID35 WAPI 040000 METAR WAPI 040000Z 34005KT 9999 FEW018 30/24 Q1009 NSC=  
04-Apr-2011 SAID35 WAPI 040100 METAR WAPI 040100Z 32008KT 9999 FEW018 32/24 Q1009 NSC=  
04-Apr-2011 SAID32 WAMM 040300 METAR WAPI 040300Z 29004KT 9999 SCT018 33/25 Q1008 NOSIG=  
04-Apr-2011 SAID35 WAPI 042300 METAR WAPI 042300Z 35003KT 9999 FEW017 27/25 Q1009 NSC=  
05-Apr-2011 SAID35 WAPI 050000 METAR WAPI 050000 02004KT 9999 SCT018 27/25 Q1010 NIL=  
05-Apr-2011 SAID35 WAPI 052300 METAR WAPI 052300 Z 32003 KT 17000 BKN014 27/26 Q1009 NSC=  
06-Apr-2011 SAID35 WAPI 060000 METAR WAPI 060000 Z 32007 KT 9999 SCT 018 28/26 Q1010 NSC=  
06-Apr-2011 SAID35 WAPI 060100 METAR WAPI 060100Z 32007KT 9999 SCT018 31/26 Q1010 NOSIG=  
06-Apr-2011 SAID35 WAPI 060200 METAR WAPI 060200 Z 31010 KT 9999 SCT 018 31/26 Q1010 NSC=  
06-Apr-2011 SAID35 WAPI 060300 METAR WAPI 060300Z 27003Z 9999 SCT018 32/26 Q1008 NSC=  
06-Apr-2011 SAID35 WAPI 060400 METAR WAPI 060400Z 27005KT 9999 SCT018 32/26 Q1007 NSC=  
06-Apr-2011 SAID35 WAPI 060500 METAR WAPI 060500Z 29008KTKT 9999 SCT018 32/26 Q1006 NSC=  
06-Apr-2011 SAID35 WAPI 062300 METAR WAPI 062300Z 33003 9999 SCT018 26/24 Q1006 NSC=  
07-Apr-2011 SAID35 WAPI 070000 METAR WAPI 070000Z 24003KT 9999 FEW018 28/25 Q1009 NSC=  
07-Apr-2011 SAID35 WAPI 070100 METAR WAPI 070100Z 24005KT 9999 FEW018 30/26 Q1009 NSC=  
07-Apr-2011 SAID35 WAPI 070200 METAR WAPI 070200Z 24007KT 9999 SCT018 30/26 Q1009 NSC=  
07-Apr-2011 SAID35 WAPI 070300 METAR WAPI 070300 Z 24011 KT 9999 SCT 018 30/26 Q 1009 NSC=  
07-Apr-2011 SAID35 WAPI 070600 METAR WAPI 070600Z 24007KT 9999 BKN018 28/25 Q1007 NSC=  
07-Apr-2011 SAID35 WAPI 072300 METAR WAPI 072300Z 34005KT 9999 SCT018 26/24 Q1009 NSC=  
08-Apr-2011 SAID35 WAPI 080000 METAR WAPI 080000Z 18004KT 9999 SCT018 28/25 Q1010 NSC=  
08-Apr-2011 SAID35 WAPI 080100 METAR WAPI 080100Z 17005KT 9999 BKN018 29/26 Q1010 NSC=  
08-Apr-2011 SAID35 WAPI 080200 METAR WAPI 080200Z 18006KT 9999 BKN018 30/26 Q1010 NSC=  
08-Apr-2011 SAID35 WAPI 080300 METAR WAPI 080300Z 16008KT 9999 BKN018 31/26 Q1009 NSC=  
08-Apr-2011 SAID35 WAPI 080400 METAR WAPI 080400Z 11006KT 9999 BKN018 32/26 Q1008 NSC=  
08-Apr-2011 SAID35 WAPI 080500 METAR WAPI 080500Z 20008KT 9000 TS SCT015 28/25 Q1006=  
08-Apr-2011 SAID35 WAPI 080600 METAR WAPI 080600Z 20002KT 9999 SCT015 27/25 Q1006 NSC=  
08-Apr-2011 SAID35 WAPI 082300 METAR WAPI 082300Z 00000KT 9999 FEW018 26/25 Q1009 NSC=  
09-Apr-2011 SAID35 WAPI 090100 METAR WAPI 090100Z 26005KT 8000 RERA BKN016 29/26 Q1011=  
09-Apr-2011 SAID35 WAPI 090200 METAR WAPI 090200Z 29006KT 9999 BKN016 29/26 Q1010 NOSIG=  
09-Apr-2011 SAID35 WAPI 090600 METAR WAPI 090600Z 17004KT 9999 SCT017 28/26 Q1008 NSC=  
09-Apr-2011 SAID35 WAPI 092300 METAR WAPI 092300 03003KT 9999 SCT 017 26/25 Q 1009 NSC=  
10-Apr-2011 SAID35 WAPI 100000 METAR WAPI 100000Z 28006KT 9999 SCT017 28/26 Q1010=  
10-Apr-2011 SAID35 WAPI 100100 METAR WAPI 100100Z 29003KT 9999 BKN010 28/27 Q1008 NSC=  
10-Apr-2011 SAID35 WAPI 100200 METAR WAPI 100200Z 32005KT 9999 BKN010 28/26 Q1008 NSC=  
10-Apr-2011 SAID35 WAPI 100300 METAR WAPI 100300 27006KT 9999 SCT 010 29/26 Q 1008 NSC=  
10-Apr-2011 SAID35 WAPI 100400 METAR WAPI 100400 27006KT 9999 BKN 010 30/27 Q 1007 NSC=  
10-Apr-2011 SAID35 WAPI 100500 METAR WAPI 100500 35007KT 8000 RAIN BKN 010 27/25 Q 1007 NSC=  
10-Apr-2011 SAID35 WAPI 100600 METAR WAPI 100600 29006KT 9999 SCT 012 28/26 Q 1007 NSC=  
10-Apr-2011 SAID35 WAPI 102300 METAR WAPI 102300 Z 34005 KT 9999 FEW 018 27/25 Q 1008 NSC=  
11-Apr-2011 SAID35 WAPI 110000 METAR WAPI 110000 Z 30009 KT 9999 SCT 018 29/26 Q 1008 NSC=  
11-Apr-2011 SAID35 WAPI 110400 METAR WAPI 110400Z 28007KT 9000 RAIN BKN010 26/25 Q1008 NSC=  
11-Apr-2011 SAID35 WAPI 110500 METAR WAPI 110500Z 31504KT 9999 SCT010 26/25 Q1006 NSC=  
11-Apr-2011 SAID35 WAPI 110600 METAR WAPI 999 BKN010 26/25 Q1005 NSC=  
12-Apr-2011 SAID32 WAMM 120000 WAPI 120000Z 35005KT 9999 BKN 018 28/25 Q 1010 NSC=  
12-Apr-2011 SAID35 WAPI 122300 METAR WAPI 122300Z 30004KT 9999 SCT018 27/25 Q1010 NOCIK=  
13-Apr-2011 SAID35 WAPI 130000 METAR WAPI 130000Z 02003KT 9999 FEW0018 28/25 Q1011 NOSIG=  
13-Apr-2011 SAID35 WAPI 130100 METAR WAPI 130100Z 31004KT 9999 FEW018 29/25 Q1011 NOSIG=  
13-Apr-2011 SAID35 WAPI 130200 METAR WAPI 130200Z 33005KT 9999 SCT018 32/25 Q1010 NOSIG=  
13-Apr-2011 SAID35 WAPI 130300 METAR WAPI 130300Z 35005KT 9999 BKN016 33/26 Q1009 NOSIG=  
13-Apr-2011 SAID35 WAPI 130400 METAR WAPI 130400Z 29002KT 8000 RA BKN014 30/26 Q1008=  
13-Apr-2011 SAID35 WAPI 130500 METAR WAPI 130500Z 07006KT 8000 TS BKN014 27/25 Q1007 NSC=  
13-Apr-2011 SAID35 WAPI 130600 METAR WAPI 130600Z 09003KT 8000 RA BKN014 2725 Q1007=  
14-Apr-2011 SAID34 WAML 140600 METAR WAPI 140600Z 00000KT 5000 TS OVC010 25/24 Q1007=  
14-Apr-2011 SAID35 WAPI 142300 METAR WAPI 142300Z 00000KT 9999 SCT018 26/25 Q1009 NSC=  
15-Apr-2011 SAID35 WAPI 150000 METAR WAPI 150000 Z 32005 KT 9999 FEW 018 27/25 Q 1009 NSC=  
15-Apr-2011 SAID35 WAPI 150100 METAR WAPI 150100 Z 34005 KT 9999 SCT 018 29/26 Q 1009 NSC=  
15-Apr-2011 SAID35 WAPI 150200 METAR WAPI 150200 Z 24003 KT 9999 SCT 015 28/26 Q 1009 NSC=  
15-Apr-2011 SAID35 WAPI 150300 METAR WAPI 150300 Z 28003 KT 9999 SCT 018 30/26 Q 1008 NSC=  
15-Apr-2011 SAID35 WAPI 150400 METAR WAPI 150400Z 14004KT 9999 BKN017 31/26 Q1007 NSC=  
15-Apr-2011 SAID35 WAPI 150500 METAR WAPI 150500Z 13005KT 9999 BKN017 30/26 Q1006 NSC=  
15-Apr-2011 SAID35 WAPI 150600 METAR WAPI 150600Z 17004KT 9999 BKN018 30/25 Q1006 NSC=  
16-Apr-2011 SAID35 WAPI 162300 METAR WAPI 162300Z 10002KT 9999 SCT018 27/25 Q1010 NSC=  
17-Apr-2011 SAID35 WAPI 170000 METAR WAPI 170000 10007KT 9999 SCT 017 28/25 Q 1011 NSC=  
17-Apr-2011 SAID35 WAPI 170100 METAR WAPI 170100Z 09009KT 9999 SCT017 29/25 Q1011 NSC=  
17-Apr-2011 SAID35 WAPI 170200 METAR WAPI 170200Z 10010KT 9999 SCT017 30/25 Q1010 NOISIG=  
17-Apr-2011 SAID35 WAPI 170300 METAR WAPI 170300Z 11009KT 9999 SCT017 30/23 Q1009 NOSIG=  
18-Apr-2011 SAID35 WAPI 182300 METAR WAPI 182300Z 10008KT 6000 RA SCT014 25/24 Q1010=  
19-Apr-2011 SAID35 WAPI 190000 METAR WAPI 190000Z 10003KT 9999 RERA BKN014 25/24 Q1010=  
19-Apr-2011 SAID35 WAPI 190100 METAR WAPI 190100Z 06010KT 8000 RA BKN014 25/24 Q1009=  
19-Apr-2011 SAID35 WAPI 190200 METAR WAPI 190200Z 10003KT 8000 RA BKN014 25/24 Q1010=  
19-Apr-2011 SAID35 WAPI 190300 METAR WAPI 190300Z 10005KT 8000 RA BKN014 25/24 Q1010=  
19-Apr-2011 SAID35 WAPI 190400 METAR WAPI 190400 Z 09005 KT 9999 SCT 010 26/25 Q 1009=  
19-Apr-2011 SAID35 WAPI 190500 METAR WAPI 190500 Z 10007 KT 9999 SCT 015 27/25 Q 1008 NSC=  
19-Apr-2011 SAID35 WAPI 190600 METAR WAPI 190600 Z 10008 KT 9999 SCT 015 28/25 Q 1008 NSC=  
20-Apr-2011 SAID32 WAMM 200000 WAPI 200000Z 10008KT 9999 BKN016 27/25 Q1011 NOSIG=  
20-Apr-2011 SAID32 WAMM 200300 WAPI 200300Z 08012KT 9999 SCT 016 29/25 Q1010 NOSIG=  
20-Apr-2011 SAID35 WAPI 202300 METAR WAPI 202300Z 14003KT 9999 BKN016 25/25 Q1011 NOSIG=  
21-Apr-2011 SAID35 WAPI 210000 METAR WAPI 210000Z 13005KT 9999 BKN016 27/25 Q1011 NOSIG=  
21-Apr-2011 SAID35 WAPI 210100 METAR WAPI 210100Z 15010KT 9999 SCT016 29/25 Q1011 NOSIG=  
21-Apr-2011 SAID35 WAPI 210300 METAR WAPI 210300Z 15010KT 9999 SCT016 30/25 Q1010 NOSIG=  
21-Apr-2011 SAID35 WAPI 210400 METAR WAPI 210400Z 10010KT 9999 FEW016 30/26 Q1010 NOSIG=  
21-Apr-2011 SAID35 WAPI 210600 METAR WAPI 210600Z 15010KT 9999 FEW016 30/25 Q1007 NOSIG=  
23-Apr-2011 SAID32 WAMM 230000 WAPI 230000Z 08010KT 9999 SCT 017 26/24 Q1010 NOSIG=  
23-Apr-2011 SAID35 WAPI 230600 METAR WAPI 230600Z 08006KT 9999 SCT015 27/25 Q1007 NSC=  
24-Apr-2011 SAID35 WAPI 240600 METAR WAPI 240600Z 11110KT 9999 FEW018 29/24 Q1007=  
25-Apr-2011 SAID35 WAPI 250000 METAR WAPI 250000Z 11006KT 9999 SCT017 29/25 Q1010 NOSIG=  
25-Apr-2011 SAID35 WAPI 250100 METAR WAPI 250100Z 13007KT 9999 BKN018 30/25 Q1010 NOSIG=  
25-Apr-2011 SAID35 WAPI 250200 METAR WAPI 250200Z 11008KT 9999 BKN018 30/25 Q1009 NOSIG=  
25-Apr-2011 SAID35 WAPI 250300 METAR WAPI 250300Z 11010KT 9999 BKN017 31/26 Q1009 NOSIG=  
25-Apr-2011 SAID35 WAPI 250400 METAR WAPI 250400Z 09012KT 9999 SCT018 31/24 Q1008 NOSIG=  
25-Apr-2011 SAID35 WAPI 250500 METAR WAPI 250500Z 13010KT 9999 SCT018 29/24 Q1007 NOSIG=  
25-Apr-2011 SAID35 WAPI 250600 METAR WAPI 250600Z 09010KT 9999 SCT018 31/25 Q1007 NSC=  
26-Apr-2011 SAID35 WAPI 260100 METAR WAPI 260100Z 13014KT 9999 BKN017 29/25 Q1010=  
26-Apr-2011 SAID35 WAPI 262300 METAR WAPI 262300Z 11008KT 9999 SCT017 27/25 Q1008 NSC=  
27-Apr-2011 SAID35 WAPI 270000 METAR WAPI 270000Z 12010KT 9000 RA BKN014 28/ 26 Q1009=  
27-Apr-2011 SAID35 WAPI 270100 METAR WAPI 270100Z 10008KT 9999 BKN016 28/25 Q1009 NSC=  
27-Apr-2011 SAID35 WAPI 270200 METAR WAPI 270200Z 11011KT 8000 RA BKN010 25/24 Q1009 NSC=  
27-Apr-2011 SAID35 WAPI 270300 METAR WAPI 270300 Z 10010 KT 9999 SCT 015 27/25 Q 1008 NSC=  
27-Apr-2011 SAID35 WAPI 270600 METAR WAPI 270600Z 10009KT 9999 BKN010 27/25 Q1006 NSC=  
28-Apr-2011 SAID32 WAMM 280000 WAPI 280000Z 12010KT 9999 BKN017 28/24 Q 1009 NOSIG=  
28-Apr-2011 SAID32 WAMM 280300 WAPI 280300Z 10010KT 9999 BKN017 30/25 Q1008 NSG=  
28-Apr-2011 SAID35 WAPI 280600 METAR WAPI 280600Z 11006KT 9999 BKN017 30/25 Q1005 NOSIG=  
28-Apr-2011 SAID35 WAPI 282300 METAR WAPI 282300Z 08005KT 9999 SCT018 28/24 Q1008 NSC=  
29-Apr-2011 SAID35 WAPI 290000 METAR WAPI 290000Z 13010KT 9999 SCT018 29/24 Q1009=  
29-Apr-2011 SAID35 WAPI 290100 METAR WAPI 290100Z 14011KT 9999 SCT018 30/24 Q1009 NSC=  
29-Apr-2011 SAID35 WAPI 290300 METAR WAPI 290300Z 11009KT 9999 SCT018 31/24 Q1008 NSC=  
29-Apr-2011 SAID35 WAPI 290400 METAR WAPI 290400Z 10010KT 9999 BKN018 31/23 Q1008 NSC=  
29-Apr-2011 SAID35 WAPI 290500 METAR WAPI 290500Z 11008KT 9999 SCT018 31/23 Q1007 NOSIG=  
29-Apr-2011 SAID35 WAPI 290600 METAR WAPI 290600Z 13009KT 9999 FEW018 31/23 Q1006 NOSIG=  
29-Apr-2011 SAID35 WAPI 292300 METAR WAPI 292300Z 10003KT 9999 SCT018 27/23 Q1009 NSC=  
30-Apr-2011 SAID35 WAPI 300300 METAR WAPI 300300Z 12012KT 9999 SCT018 31/24 Q1008=  
30-Apr-2011 SAID35 WAPI 300600 METAR WAPI 300600Z 10010KT 9999 BKN017 30/24 Q1006 NOSIG=  
30-Apr-2011 SAID35 WAPI 302300 METAR WAPI 302300Z 10010KT 9999 BKN016 27/24 Q1009 NOSIG=  
01-May-2011 SAID35 WAPI 010000 METAR WAPI 010000Z 07012KT 9999 BKN016 28/23 Q1009 NOSIG=  
01-May-2011 SAID35 WAPI 010100 METAR WAPI 010100Z 09010KT 9999 BKN016 29/24 Q1009 NOSIG=  
01-May-2011 SAID35 WAPI 010200 METAR WAPI 010200Z 10010KT 9999 BKN016 28/25 Q1009 NOSIG=  
01-May-2011 SAID35 WAPI 010300 METAR WAPI 010300 Z 10008 KT 9999 SCT 018 30/24 Q1008 NSC=  
01-May-2011 SAID35 WAPI 010500 METAR WAPI 010500Z 09008KT 8000 RA BKN016 26/24 Q1007=  
01-May-2011 SAID35 WAPI 010600 METAR WAPI 010600Z 07008KT 8000 RA BKN016 25/23 Q1006=  
01-May-2011 SAID35 WAPI 012300 METAR WAPI 012300Z 12006KT 9999 FEW018 28/23 Q1008 NOSIG=  
02-May-2011 SAID35 WAPI 020000 METAR WAPI 020000Z 13008KT 9999 SCT018 29/23 Q1009 NOSIG=  
02-May-2011 SAID35 WAPI 020100 METAR WAPI 020100Z 12010KT 9999 FEW018 32/23 Q1009 NOSIG=  
02-May-2011 SAID35 WAPI 020200 METAR WAPI 020200Z 10007KT 9999 FEW018 31/23 Q1009 NOSIG=  
02-May-2011 SAID35 WAPI 020300 METAR WAPI 020300 Z 11012 KT 9999 SCT 018 31/23 Q 1009 NSC=  
02-May-2011 SAID35 WAPI 020500 METAR WAPI 020500Z 11010KT 9999 FEW018 31/23 Q1007 NOSIG=  
02-May-2011 SAID35 WAPI 020600 METAR WAPI 020600Z 12007KT 9999 FEW018 30/23 Q1006 NOSIG=  
02-May-2011 SAID35 WAPI 022300 METAR WAPI 022300Z 12010KT 9999 FEW014 27/24 Q1008 NOSIG=  
03-May-2011 SAID35 WAPI 030000 METAR WAPI 030000Z 10006KT 9999 FEW014 29/24 Q1009 NOSIG=  
03-May-2011 SAID35 WAPI 030200 METAR WAPI 030200 10012KT 9999 FEW014 34/23 Q1008 NOSIG=  
03-May-2011 SAID35 WAPI 030300 METAR WAPI 030300Z 10012KT 9999 SCT016 31/24 Q1008 NOSIG=  
03-May-2011 SAID35 WAPI 030400 METAR WAPI 030400Z 11011KT 9999 SCT018 31/25 Q1007 NSC=  
03-May-2011 SAID35 WAPI 030500 METAR WAPI 030500Z 11012KT 9999 SCT016 30/25 Q1006 NOSIG=  
03-May-2011 SAID35 WAPI 030600 METAR WAPI 030600Z 09010KT 9999 BKN016 30/25 Q1006 NOSIG=  
04-May-2011 SAID32 WAMM 040300 WAPI 040300Z 10012KT 9999 SCT 108 31/25 Q1009 NOSIG=  
04-May-2011 SAID32 WAMM 040600 WAPI 040600Z 11008KT 9999 BKN018 30/25 Q1007 NOSIG=  
04-May-2011 SAID35 WAPI 042300 METAR WAPI 042300Z 11010KT 9999 BKN018 29/24 1010 NOSIG=  
05-May-2011 SAID35 WAPI 050000 METAR WAPI 050000Z 10012KT 9999 SCT018 29/24 Q1011 NOSIG=  
05-May-2011 SAID35 WAPI 050100 METAR WAPI 050100Z 11012KT 9999 SCT018 30/24 Q1011 NOSIG=  
05-May-2011 SAID35 WAPI 050200 METAR WAPI 050200Z 11002KT 9999 BKN018 29/24 Q1011 NOSIG=  
05-May-2011 SAID35 WAPI 050300 METAR WAPI 050300Z 11012KT 9999 BKN018 30/24 Q1010 NOSIG=  
05-May-2011 SAID35 WAPI 050400 METAR WAPI 050400Z 10010KT 9999 BKN018 30/23 Q1009 NOSIG=  
05-May-2011 SAID35 WAPI 050500 METAR WAPI 050500Z 09011KT 9999 BKN018 30/24 Q1009 NOSIG=  
05-May-2011 SAID35 WAPI 050600 METAR WAPI 050600Z 11010KT 9999 BKN018 30/23 Q1008 NOSIG=  
05-May-2011 SAID35 WAPI 052300 METAR WAPI 052300Z 10006KT 9999 FEW018 27/24 Q1011 NSC=  
06-May-2011 SAID35 WAPI 060000 METAR WAPI 060000Z 11007KT 9999 FEW018 28/23 Q1011 NSC=  
06-May-2011 SAID35 WAPI 060100 METAR WAPI 060100Z 10005KT 9999 SCT018 28/23 Q1011 NOSIG=  
06-May-2011 SAID35 WAPI 060200 METAR WAPI 060200Z 11006KT 9999 SCT018 29/23 Q1010 NSC=  
06-May-2011 SAID35 WAPI 060500 METAR WAPI 060500Z 10009KT 9999 SCT018 29/23 Q1008 NSC=  
06-May-2011 SAID35 WAPI 062300 METAR WAPI 062300Z 12008KT 9999 SCT018 27/24 Q1010 NOSIG=  
07-May-2011 SAID35 WAPI 070000 METAR WAPI 070000Z 10008KT 9999 SCT018 27/23 Q1011 NOSIG=  
07-May-2011 SAID35 WAPI 070100 METAR WAPI 070100Z 10006KT 9999 SCT018 27/24 Q1010 NOSIG=  
07-May-2011 SAID35 WAPI 070200 METAR WAPI 070200Z 05008KT 9999 BKN018 27/23 Q1010 NOSIG=  
07-May-2011 SAID35 WAPI 070300 METAR WAPI 070300Z 09010KT 9999 SCT018 29/24 Q 1010 NOSIG=  
07-May-2011 SAID35 WAPI 070400 METAR WAPI 070400Z 09010KT 9999 SCT018 29/24 Q 1009 NOSIG=  
07-May-2011 SAID35 WAPI 070600 METAR WAPI 070600Z 11007KT 9999 SCT018 30/23 Q1008 NOSIG=  
07-May-2011 SAID35 WAPI 072300 METAR WAPI 072300Z 09005KT 9000 RA BKN010 25/24 Q1011=  
08-May-2011 SAID35 WAPI 080000 METAR WAPI 080000Z 11005KT 9999 BKN016 25/24 Q1011 NSC=  
08-May-2011 SAID35 WAPI 080100 METAR WAPI 080100Z 10008KT 9999 BKN018 27/24 Q1010 NSC=  
08-May-2011 SAID32 WAMM 080200 METAR WAPI 080200 11013KT 9999 FEW018 29/23 Q1012 NOSIQ=  
08-May-2011 SAID35 WAPI 080300 METAR WAPI 080300Z 09012KT 9999 SCT018 29/25 Q1009 NSC=  
08-May-2011 SAID35 WAPI 080400 METAR WAPI 080400Z 07009KT 9999 SCT018 29/25 Q1009 NSC=  
08-May-2011 SAID35 WAPI 080500 METAR WAPI 080500Z 06007KT 9999 SCT018 29/25 Q1008 NSC=  
08-May-2011 SAID35 WAPI 080600 METAR WAPI 080600Z 07005KT 9999 SCT018 29/25 Q1007 NSC=  
08-May-2011 SAID35 WAPI 082300 METAR WAPI 082300Z 09002KT 9999 SCT018 27/24 Q1011 NOSIG=  
09-May-2011 SAID35 WAPI 090000 METAR WAPI 090000Z 08010KT 9999 SCT018 28/25 Q1012 NOSIG=  
09-May-2011 SAID35 WAPI 090100 METAR WAPI 090100Z 08008KT 9999 SCT018 29/25 Q1012 NOSIG=  
09-May-2011 SAID35 WAPI 090200 METAR WAPI 090200Z 10010KT 9999 SCT018 30/25 Q1012 NOSIG=  
09-May-2011 SAID35 WAPI 090300 METAR WAPI 090300Z 11010KT 9999 SCT018 29/24 Q1012 NOSIG=  
09-May-2011 SAID35 WAPI 090400 METAR WAPI 090400Z 07009KT 9999 SCT018 29/25 Q1010 NOSIG=  
09-May-2011 SAID35 WAPI 090600 METAR WAPI 090600Z 05010KT 9999 SCT018 28/25 Q 1009 NOSIG=  
10-May-2011 SAID32 WAMM 100300 WAPI 100300Z 12013KT 9999 SCT018 31/23 Q 1002MB=  
10-May-2011 SAID35 WAPI 102300 METAR WAPI 102300Z 10012KT 9999 ST017 28/22 Q1012 NOSIG=  
11-May-2011 SAID35 WAPI 110000 METAR WAPI 110000Z 11012KT 9999 SCT017 28/22 Q1013 NOSIG=  
11-May-2011 SAID35 WAPI 110100 METAR WAPI 110100Z 12012KT 9999 SCT017 28/22 Q1013 NOSIG=  
11-May-2011 SAID35 WAPI 110200 METAR WAPI 110200Z 08013KT 9999 SCT017 29/23 Q1013 NOSIG=  
11-May-2011 SAID35 WAPI 110300 METAR WAPI 110300Z 10017KT 9999 BKN017 30/26 Q1012 NOSIG=  
11-May-2011 SAID35 WAPI 110400 METAR WAPI 110400Z 11013KT 9999 BKN017 31/23 Q1011 NOSIG=  
11-May-2011 SAID35 WAPI 110500 METAR WAPI 110500Z 11012KT 9999 SCT017 30/23 Q1010 NOSIG=  
11-May-2011 SAID35 WAPI 110600 METAR WAPI 110600Z 12010KT 9999 BKN017 29/23 Q1009 NOSIG=  
11-May-2011 SAID35 WAPI 112300 METAR WAPI 112300Z 10009KT 9999 SCT018 27/22 Q1012 NSC=  
12-May-2011 SAID35 WAPI 120000 METAR WAPI 120000Z 09012KT 9999 SCT018 29/21 Q1013 NSC=  
12-May-2011 SAID35 WAPI 120100 METAR WAPI 120100Z 18013KT 9999 SCT018 29/21 Q1013 NSC=  
12-May-2011 SAID35 WAPI 120200 METAR WAPI 120200Z 13012KT 9999 SCT018 29/22 Q1012 NSC=  
12-May-2011 SAID35 WAPI 120300 METAR WAPI 120300Z 1011KT 9999 SCT018 30/22 Q1012 NSC=  
12-May-2011 SAID35 WAPI 120400 METAR WAPI 120400Z 11009KT 9999 SCT017 30/22 Q1010 NOSIG=  
12-May-2011 SAID35 WAPI 120500 METAR WAPI 120500Z 10010KT 9999 BKN018 29/22 Q1010 NSC=  
12-May-2011 SAID35 WAPI 120600 METAR WAPI 120600Z 12012KT 9999 BKN018 29/22 Q1010 NSC=  
12-May-2011 SAID35 WAPI 122300 METAR WAPI 122300Z 11010KT 9999 SCT018 27/22 Q1011 NOSIG=  
13-May-2011 SAID35 WAPI 130000 METAR WAPI 130000Z 13012KT 9999 FEW018 28/21 Q1012 NOSIG=  
13-May-2011 SAID35 WAPI 130100 METAR WAPI 130100Z 12012KT 9999 SCT018 29/21 Q1011 NOSIG=  
13-May-2011 SAID35 WAPI 130200 METAR WAPI 130200Z 13007KT 9999 SCT018 29/21 Q1011 NOSIG=  
13-May-2011 SAID35 WAPI 130300 METAR WAPI 130300Z 13007KT 9999 BKN18 29/22 Q1011 NOSIG=  
13-May-2011 SAID35 WAPI 130400 METAR WAPI 130400Z 11011KT 9999 BKN018 30/22 Q1009 NSC=  
13-May-2011 SAID35 WAPI 130500 METAR WAPI 130500Z 10010KT 9999 BKN018 29/22 Q1009 NSC=  
13-May-2011 SAID35 WAPI 130600 METAR WAPI 130600Z 10005KT 9999 RE RA BKN016 28/22 Q1008=  
14-May-2011 SAID32 WAMM 140300 METAR WAPI 140300Z 13010KT 9999 BKN016 29/23 Q1011 NOSIG=  
14-May-2011 SAID35 WAPI 140400 METAR WAPI 140400Z 13010KT 9999 SCT018 30/23 Q1010 NOSIG=  
14-May-2011 SAID35 WAPI 140500 METAR WAPI 140500Z 13012KT 9999 BKN016 30/23 Q1009 NSC=  
14-May-2011 SAID35 WAPI 140600 METAR WAPI 140600Z 12010KT 99999 BKN016 30/24 Q1009 NSC=  
14-May-2011 SAID35 WAPI 142300 METAR WAPI 142300Z 12012KT 9999 SCT017 28/24 Q1012 NOSIG=  
15-May-2011 SAID35 WAPI 150000 METAR WAPI 150000Z 11013KT 9999 BKN018 28/24 Q1013 NOSIG=  
15-May-2011 SAID35 WAPI 150100 METAR WAPI 150100Z 11013KT 9999 BKN018 29/24 Q1013 NOSIG=  
15-May-2011 SAID35 WAPI 150200 METAR WAPI 150200Z 10011KT 9999 BKN018 29/24 Q1013 NOSIG=  
15-May-2011 SAID35 WAPI 150300 METAR WAPI 150300Z 11013KT 9999 BKN018 30/24 Q1012 NOSIG=  
15-May-2011 SAID35 WAPI 150500 METAR WAPI 150500Z 10012KT 9999 30/24 Q1011 NOSIG=  
15-May-2011 SAID35 WAPI 150600 METAR WAPI 150600Z 10008KT 9999 29/24 Q1011 NOSIG=  
16-May-2011 SAID32 WAMM 160000 METAR WAPI 160000Z 10011KT 9999 BKN016 28/24 Q1013=  
16-May-2011 SAID35 WAPI 160200 METAR WAPI 160200Z 10011KT 4000 RAIN BKN010 27/25 Q1013=  
16-May-2011 SAID35 WAPI 160300 METAR WAPI 160300Z 09010KT 3000 RAIN BKN010 26/24 Q1013=  
16-May-2011 SAID35 WAPI 160400 METAR WAPI 160400Z 10012KT 9999 BKN016 29/25 Q1011 NSC=  
16-May-2011 SAID35 WAPI 160500 METAR WAPI 160500Z 11014KT 9999 SCT016 28/25 Q1010 NSC=  
16-May-2011 SAID35 WAPI 160600 METAR WAPI 160600Z 10013KT 9999 SCT016 28/25 Q1010 NSC=  
16-May-2011 SAID35 WAPI 162300 METAR WAPI 162300Z 11010KT 9999 BKN017 27/23 Q1012 NOSIG=  
17-May-2011 SAID35 WAPI 170000 METAR WAPI 170000Z 11009KT 9999 SCT018 29/23 Q1013 NOSIG=  
17-May-2011 SAID35 WAPI 170100 METAR WAPI 170100Z 12013KT 9999 BKN018 29/24 Q1012 NOSIG=  
17-May-2011 SAID35 WAPI 170200 METAR WAPI 170200Z 12013KT 9999 SCT017 30/23 Q1012 NOSIG=  
17-May-2011 SAID35 WAPI 170300 METAR WAPI 170300Z 12013KT 9999 SCT017 30/22 Q1012 NOSIG=  
17-May-2011 SAID35 WAPI 170400 METAR WAPI 170400Z 12013 SCT017 30/22 Q1011 NOSIG=  
17-May-2011 SAID35 WAPI 170500 METAR WAPI 170500Z 10012 9999 SCT017 30/23 Q1010 NOSIG=  
17-May-2011 SAID35 WAPI 170600 METAR WAPI 170600Z 10012KT 9999 BKN018 30/23 Q1010 NOSIG=  
17-May-2011 SAID35 WAPI 172300 METAR WAPI 172300Z 12005KT 9999 BKN017 28/24 Q1012 NOSIG=  
18-May-2011 SAID35 WAPI 180000 METAR WAPI 180000 Z 12008 KT 9999 BKN 017 29/24 Q 1012 NSC=  
18-May-2011 SAID35 WAPI 180100 METAR WAPI 180100 Z 10011 KT 9999 SCT 018 30/24 Q 1012 NSC=  
18-May-2011 SAID35 WAPI 180200 METAR WAPI 180200Z 13012KT 9999 BKN017 30/24 Q1012 NOSIG=  
18-May-2011 SAID35 WAPI 180600 METAR WAPI 180600Z 12013KT 9999 BKN016 29/24 Q1009 NOSIG=  
18-May-2011 SAID35 WAPI 182300 METAR WAPI 182300Z 11010KT 9999 SCT017 27/23 Q1012 NOSIG=  
19-May-2011 SAID35 WAPI 190000 METAR WAPI 190000Z 10009KT 9999 BKN018 28/23 Q 1013 NOSIG=  
19-May-2011 SAID35 WAPI 190100 METAR WAPI 190100Z 10010KT 9999 BKN018 28/23 Q1013 NOSIG=  
19-May-2011 SAID35 WAPI 190200 METAR WAPI 190200Z 11012KT 9999 BKN018 29/23 Q1012 NOSIG=  
19-May-2011 SAID35 WAPI 190300 METAR WAPI 190300Z 09013KT 9999 BKN018 29/23 Q1012 NOSIG=  
19-May-2011 SAID35 WAPI 190400 METAR WAPI 190400Z 10015KT 9999 BKN018 29/24 Q1011 NOSIG=  
19-May-2011 SAID35 WAPI 190500 METAR WAPI 190500 12010KT 9999 BKN 010 28/24 Q 1011 NSC=  
19-May-2011 SAID35 WAPI 190600 METAR WAPI 190600Z 11011KT 9999 RE RA BKN014 28/24 Q1010=  
19-May-2011 SAID35 WAPI 192300 METAR WAPI 192300Z 08012KT 9999 BKN017 28/23 Q1010 NSC=  
20-May-2011 SAID35 WAPI 200000 METAR WAPI 200000Z 09013KT 9999 BKN017 28/23 Q1011 NSC=  
20-May-2011 SAID35 WAPI 200100 METAR WAPI 200100Z 10011KT 9999 BKN017 29/23 Q1011 NOSIC=  
20-May-2011 SAID35 WAPI 200200 METAR WAPI 200200Z 11015KT 9999 BKN017 30/23 Q1011 NSC=  
20-May-2011 SAID35 WAPI 200300 METAR WAPI 200300Z 09017KT 9999 BKN017 29/23 Q1010 NSC=  
20-May-2011 SAID35 WAPI 200600 METAR WAPI 200600Z 11013KT 9999 BKN017 29/23 Q1008 NSC=  
20-May-2011 SAID35 WAPI 202300 METAR WAPI 202300Z 11008KT 9999 BKN017 27/23 Q1010 NSC=  
21-May-2011 SAID35 WAPI 210000 METAR WAPI 210000Z 10012KT 9999 BKN018 29/23 Q1011 NOSIG=  
21-May-2011 SAID35 WAPI 210100 METAR WAPI 210100Z 11012KT 9999 29/23 Q1011 NOSIG=  
21-May-2011 SAID35 WAPI 210200 METAR WAPI 210200Z 13012KT 9999 29/23 Q1010 NOSIG=  
21-May-2011 SAID35 WAPI 210300 METAR WAPI 210300 13013KT 9999 BKN018 30/23 Q1010 NOSIG=  
21-May-2011 SAID35 WAPI 210400 METAR WAPI 210400Z 11010KT 9999 SCT018 30/23 Q1009 NOSIG=  
21-May-2011 SAID35 WAPI 210500 METAR WAPI 210500Z 10013KT 9999 BKN018 30/23 Q1008 NOSIG=  
21-May-2011 SAID35 WAPI 210600 METAR WAPI 2105600Z 11012KT 9999 BKN018 30/23 Q1008 NOSIG=  
21-May-2011 SAID35 WAPI 212300 METAR WAPI 212300Z 12012KT 9999 SCT016 27/23 Q1010 NOSIG=  
22-May-2011 SAID35 WAPI 220000 METAR WAPI 220000Z 13013KT 9999 SCT018 28/23 Q1010 NSC=  
22-May-2011 SAID35 WAPI 220100 METAR WAPI 220100Z 12010KT 9999 SCT018 29/23 Q1010 NSC=  
22-May-2011 SAID35 WAPI 220200 METAR WAPI 220200Z 12014KT 9999 BKN017 29/23 Q1010 NOSIG=  
22-May-2011 SAID35 WAPI 220300 METAR WAPI 220300Z 13012KT 9999 BKN017 30/23 Q1009 NOSIG=  
22-May-2011 SAID35 WAPI 220400 METAR WAPI 220400Z 12015KT 9999 BKN017 30/23 Q1009 NSC=  
22-May-2011 SAID35 WAPI 220600 METAR WAPI 220600Z 13011KT 9999 BKN016 29/23 Q1008 NOSIG=  
22-May-2011 SAID35 WAPI 222300 METAR WAPI 222300Z 10007KTB 6000 RA BKN014 25/24 Q1010=  
23-May-2011 SAID32 WAMM 230000 METAR WAPI 230000Z 12016KT 2000 RA BKN 010 25/23 Q1012=  
23-May-2011 SAID35 WAPI 230100 METAR WAPI 230100Z 13012KT 7000 RERA BKN012 26/25 Q1011=  
23-May-2011 SAID35 WAPI 230200 METAR WAPI 230200 13010KT SCT015 27/25 Q1011 NSC=  
23-May-2011 SAID35 WAPI 230400 METAR WAPI 230400Z 13012KT 9999 29/24 SCT017 29/24 Q1010 NOSIG=  
23-May-2011 SAID35 WAPI 230500 METAR WAPI 230500Z 11010KT 9999 SCT017 30/25 Q1009 NOSIG=  
23-May-2011 SAID35 WAPI 232300 METAR WAPI 232300Z 11006KT 9999 BKN018 27/23 Q1009 NSC=  
24-May-2011 SAID32 WAMM 240000 METAR WAPI 240000Z 12010KT 9999 BKN018 28/23 Q1009=  
24-May-2011 SAID35 WAPI 240225 METAR WAPI 240225Z 13012KT 9999 BKN018 29/23 Q1009SC=  
24-May-2011 SAID35 WAPI 240300 METAR WAPI 240300Z 09015KT 9999 BKN018 29/23 Q1009 NSC=  
24-May-2011 SAID35 WAPI 240400 METAR WAPI 240400Z 11012Z 9999 BKN018 30/23 Q1008 NSC=  
24-May-2011 SAID35 WAPI 240500 METAR WAPI 240500Z 10010KT 9999 BKN018 3023 Q1008 NSC=  
24-May-2011 SAID35 WAPI 240600 METAR WAPI 240600Z 09009KT 9999 BKN018 29/22 Q1007 NSC=  
24-May-2011 SAID35 WAPI 242300 METAR WAPI 242300Z 14012KT 9999 SCT016 27/23 Q1010 NOSIG=  
25-May-2011 SAID35 WAPI 250000 METAR WAPI 250000Z 13013KT 9999 SCT017 27/22 Q1011 NOSIG=  
25-May-2011 SAID35 WAPI 250100 METAR WAPI 250100Z 13013KT 9999 SCT018 27/23 Q1011 NOSIG=  
25-May-2011 SAID35 WAPI 250200 METAR WAPI 250200Z 08008KT 9999 SCT018 28/22 Q1011 NOSIG=  
25-May-2011 SAID35 WAPI 250300 METAR WAPI 250300Z 110 13KT 9999 BKN018 28/21 Q1010 NOSIG=  
25-May-2011 SAID35 WAPI 250400 METAR WAPI 250400Z 11011KT 9999 BKN017 27/22 Q1009 NSC=  
25-May-2011 SAID35 WAPI 250500 METAR WAPI 250500Z 10010KT 9999 BKN018 27/21 Q1009 NOSIG=  
25-May-2011 SAID35 WAPI 250600 METAR WAPI 250600Z 10007KT 9999 BKN018 26/22 Q1008 NOSIG=  
25-May-2011 SAID35 WAPI 252300 METAR WAPI 252300Z 14011KT 9999 BKN018 26/21 Q1009 NOSIG=  
26-May-2011 SAID35 WAPI 260000 METAR WAPI 260000Z 12010KT 9999 SCT018 28/22 Q1011 NOSIG=  
26-May-2011 SAID35 WAPI 260100 METAR WAPI 260100Z 13011KT 9999 BKN016 28/23 Q1011 NOSIG=  
26-May-2011 SAID35 WAPI 260200 METAR WAPI 260200Z 14013KT 9999 BKN016 28/23 Q1010 NOSIG=  
26-May-2011 SAID35 WAPI 260300 METAR WAPI 260300 Z 11014 KT 9999 SCT 018 29/23 Q 1010 NSC=  
26-May-2011 SAID35 WAPI 260400 METAR WAPI 260400Z 14013KT 9999 BKN016 28/23 Q1009 NOSIG=  
26-May-2011 SAID35 WAPI 260500 METAR WAPI 260500Z 12011KT 9999 BKN016 27/23 Q1008 NOSIG=  
26-May-2011 SAID35 WAPI 260600 METAR WAPI 260600 Z 14012 KT 9999 BKN 016 27/23 Q 1008 NSC=  
26-May-2011 SAID35 WAPI 262300 METAR WAPI 262300Z 10011KT 9999 BKN017 26/23 Q1010 NOSIG=  
26-May-2011 SAID45 WAPI 262300 METAR WAPI 262300Z 10011KT 9999 BKN017 26/23 Q1010 NOSIG=  
27-May-2011 SAID35 WAPI 270000 METAR WAPI 270000Z 12013 9999 BKN018 27/23 Q1011 NOSIG=  
27-May-2011 SAID35 WAPI 270100 METAR WAPI 270100Z 15015KT 9999 BKN018 27/24 Q1011 NOSIG=  
27-May-2011 SAID35 WAPI 270200 METAR WAPI 270200Z 14017KT 9999 SCT018 28/23 Q1010 NOSIG=  
27-May-2011 SAID35 WAPI 270300 METAR WAPI 270300Z 11015KT 9999 SCT018 29/23 Q1010 NOSIG=  
27-May-2011 SAID35 WAPI 270600 METAR WAPI 270600Z 11015KT BKN018 28/23 Q1008 NOSIG=  
27-May-2011 SAID35 WAPI 272300 METAR WAPI 272300Z 10012KT 9999 BKN017 27/23 Q1011 NSC=  
28-May-2011 SAID35 WAPI 280000 METAR WAPI 280000Z 11009KT 9999 BKN017 27/23 Q1012 NSC=  
28-May-2011 SAID35 WAPI 280300 METAR WAPI 280300Z 09014KT 9999 BKN017 27/23 Q1011 NSC=  
28-May-2011 SAID35 WAPI 280400 METAR WAPI 280400Z 10013KT 9999 BKN017 28/24 Q1010 NSC=  
28-May-2011 SAID35 WAPI 280500 METAR WAPI 280500Z 09010KT 9999 SCT017 28/23 Q1010 NSC=  
28-May-2011 SAID35 WAPI 280600 METAR WAPI 280600Z 11008KT 9999 SCT017 28/23 Q1009 NSC=  
28-May-2011 SAID35 WAPI 282300 METAR WAPI 282300Z 13012KT 9999 SCT017 27/23 Q1012 NOSIG=  
29-May-2011 SAID35 WAPI 290000 METAR WAPI 290000Z 14010 KT 9999 SCT018 28/23 Q1013=  
29-May-2011 SAID35 WAPI 290100 METAR WAPI 290100Z 10012KT 9999 SCT018 28/23 Q1013=  
29-May-2011 SAID35 WAPI 290200 METAR WAPI 290200Z 11012KT BKN018 30/22 Q1013 NOSIG=  
29-May-2011 SAID35 WAPI 290300 METAR WAPI 290300Z 11012KT 9999 SCT018 30/22 Q1012 NOSIG=  
29-May-2011 SAID35 WAPI 290400 METAR WAPI 290400Z 09010KT 9999 SCT018 30/24 Q1011 NOSIG=  
29-May-2011 SAID35 WAPI 290500 METAR WAPI 290500 Z 10012 KT 9999 BKN 018 30/23 Q1011 NSC=  
29-May-2011 SAID35 WAPI 290600 METAR WAPI 290600Z 10010KT 9999 BKN018 29/24=  
29-May-2011 SAID35 WAPI 292300 METAR WAPI 292300Z 11005KT 9999 FEW018 27/22 Q1013 NSC=  
30-May-2011 SAID35 WAPI 300000 METAR WAPI 300000Z 13005KT 9999 SCT018 28/21 Q1013 NSC=  
30-May-2011 SAID35 WAPI 300100 METAR WAPI 300100Z 12006KT 9999 FEW018 29/21 Q1013 NSC=  
30-May-2011 SAID35 WAPI 300200 METAR WAPI 300200Z 14008KT 9999 FEW018 30/22 Q1013 NSC=  
30-May-2011 SAID35 WAPI 300300 METAR WAPI 300300Z 11009KT 9999 SCT018 29/22 Q1012 NOSIG=  
30-May-2011 SAID35 WAPI 300400 METAR WAPI 300400Z 10010KT 9999 SCT018 29/21 Q1011 NOSIG=  
30-May-2011 SAID35 WAPI 300500 METAR WAPI 300500Z 13012KT 9999 BKN018 30/22 Q1011 NOSIG=  
31-May-2011 SAID35 WAPI 310000 METAR WAPI 310000Z 13005KT 9999 SCT018 28/22 Q1012 NOSIG=  
31-May-2011 SAID35 WAPI 310100 METAR WAPI 310100Z 13005KT 9999SCT018 29/23 Q1012 NOSIG=  
31-May-2011 SAID35 WAPI 310200 METAR WAPI 310200Z 13008KT 9999 SCT018 29/22 Q1012 NOSIG=  
31-May-2011 SAID35 WAPI 310300 METAR WAPI 310300Z 12008KT 9999 SCT018 29/22 Q1011 NOSIG=  
31-May-2011 SAID35 WAPI 310400 METAR WAPI 310400Z 13008KT 9999 SCT018 29/23 Q1010 NOSIG=  
31-May-2011 SAID35 WAPI 310600 METAR WAPI 310600Z 11012KT 9999 BKN018 29/22 Q1009 NOSIG=  
31-May-2011 SAID35 WAPI 312300 METAR WAPI 312300Z 10011KT 9999 SCT018 27/21 Q1012 NSC=  
01-Jun-2011 SAID35 WAPI 010000 METAR WAPI 010000Z 13010KT 9999 SCT018 28/21 Q1012 NOSIG=  
01-Jun-2011 SAID35 WAPI 010100 METAR WAPI 010100Z 14013KT 9999 SCT018 29/21 Q1012 NOSIG=  
01-Jun-2011 SAID35 WAPI 010200 METAR WAPI 010200Z 12016KT 9999 SCT018 29/21 Q1012 NOSIG=  
01-Jun-2011 SAID35 WAPI 010300 METAR WAPI 010300Z 11014KT 9999 BKN018 29/21 Q1012 NOSIG=  
01-Jun-2011 SAID35 WAPI 010400 METAR WAPI 010400Z 10011KT 9999 BKN018 30/22 Q1011 NSC=  
01-Jun-2011 SAID35 WAPI 010500 METAR WAPI 010500Z 11011KT 9999 BKN018 29/22 Q1011 NSC=  
01-Jun-2011 SAID35 WAPI 010600 METAR WAPI 010600Z 10010KT 9999 BKN018 28/22 Q1010 NSC=  
01-Jun-2011 SAID35 WAPI 012300 METAR WAPI 012300Z 11005KT 9999 SCT017 26/19 Q1013 NOSIG=  
02-Jun-2011 SAID35 WAPI 020000 METAR WAPI 020000Z 12005KT 9999 BKN018 27/23 Q1014 NOSIG=  
02-Jun-2011 SAID35 WAPI 020100 METAR WAPI 020100Z 11012KT 9999 BKN018 29/20 Q1014 NOSIG=  
02-Jun-2011 SAID35 WAPI 020200 METAR WAPI 020200Z 12008KT 9999 SCT018 28/21 Q1013 NOSIG=  
02-Jun-2011 SAID35 WAPI 020300 METAR WAPI 020300Z 11010KT 9999 SCT018 29/21 Q1012 NOSIG=  
02-Jun-2011 SAID35 WAPI 020400 METAR WAPI 020400Z 12013KT 9999 FEW018 29/24 Q1012 NOSIG=  
02-Jun-2011 SAID35 WAPI 020600 METAR WAPI 020600Z 11011KT 9999 BKN018 29/22 Q1010 NOSIG=  
02-Jun-2011 SAID35 WAPI 022300 METAR WAPI 022300 13006KT 9999 SCT 018 26/22 Q 1013 NSC=  
03-Jun-2011 SAID35 WAPI 030000 METAR WAPI 030000Z 14006KT 9999 FEW018 28/22 Q1014 NSC=  
03-Jun-2011 SAID35 WAPI 030100 METAR WAPI 030100 14010KT 9999 SCT 017 28/21 Q 1014 NSC=  
03-Jun-2011 SAID35 WAPI 030200 METAR WAPI 030200 13012KT 9999 SCT 017 29/21 Q 1013 NSC=  
03-Jun-2011 SAID35 WAPI 030300 METAR WAPI 030300Z 12010KT 9999 SCT017 29/21 Q1013 NSC=  
03-Jun-2011 SAID35 WAPI 030400 METAR WAPI 030400Z 14008KT 9999 BKN017 29/21 Q1012 NSC=  
03-Jun-2011 SAID35 WAPI 030500 METAR WAPI 030500Z 13006KT 9999 FEW017 29/21 Q1011 NSC=  
03-Jun-2011 SAID35 WAPI 030600 METAR WAPI 030600Z 12008KT 9999 BKN017 29/21 Q1011 NSC=  
03-Jun-2011 SAID35 WAPI 032315 METAR WAPI 032300Z 11007KT 9999 BKN018 26/22 Q1012 NSC=  
04-Jun-2011 SAID35 WAPI 040000 METAR WAPI 040000Z 11009KT 9999 BKN018 27/22 Q1012 NOSIG=  
04-Jun-2011 SAID35 WAPI 040100 METAR WAPI 040100Z 11012KT 9999 BKN018 29/22 Q1012 NOSIG=  
04-Jun-2011 SAID35 WAPI 040200 METAR WAPI 040200Z 13013KT 9999 BKN018 29/22 Q1012 NOSIG=  
04-Jun-2011 SAID35 WAPI 040300 METAR WAPI 040300Z 10010KT 9999 BKN018 28/22 Q1011 NOSIG=  
04-Jun-2011 SAID35 WAPI 040500 METAR WAPI 040500 Z 11010 KT 9999 BKN 018 27/23 Q1010 NSC=  
04-Jun-2011 SAID35 WAPI 040600 METAR WAPI 040600Z 10012KT 9999 BKN018 27/22 Q1009 NOSIG=  
04-Jun-2011 SAID35 WAPI 042300 METAR WAPI 042300Z 11012KT 9999 BKN017 26/25 Q1011 NOSIC=  
05-Jun-2011 SAID35 WAPI 050000 METAR WAPI 050000Z 11012KT 9999 BKN017 27/23 Q1012 NOSIG=  
05-Jun-2011 SAID35 WAPI 050200 METAR WAPI 050200Z 10010KT 9999 BKN017 27/23 Q1011 NSC=  
05-Jun-2011 SAID35 WAPI 050300 METAR WAPI 050300Z 08009KT 9999 BKN016 28/23 Q1010 NOSIG=  
05-Jun-2011 SAID35 WAPI 050500 METAR WAPI 050500Z 12011KIT 9999 SCT016 289/24 Q1009 NOSIG=  
05-Jun-2011 SAID35 WAPI 050600 METAR WAPI 050600Z 11012KT 9999 SCT016 28/23 Q1008 NOSIG=  
05-Jun-2011 SAID35 WAPI 052300 METAR WAPI 052300Z 11011KT 9999 BK 016 26/23 Q10011 NOSIQ=  
06-Jun-2011 SAID34 WAPI 060000 METAR WAPI 060000Z 10014KT 9999 SBKN018 28/23 Q1011 NOSIG=  
06-Jun-2011 SAID35 WAPI 060100 METAR WAPI 10012KT 9999 BKN018 28/23 Q1011 NOSIG=  
06-Jun-2011 SAID35 WAPI 060200 METAR WAPI 060200Z 10013KT 9999 BKN018 29/23 Q1011 NOSIG=  
06-Jun-2011 SAID35 WAPI 060300 METAR WAPI 060300Z 10015KT 9999 BKN018 28/24 Q1010 NOSIG=  
06-Jun-2011 SAID35 WAPI 060400 METAR WAPI 060400Z 10014KT 9999 BKN018 29/23 Q1009 NOSIG=  
06-Jun-2011 SAID32 WAMM 060600 METAR WAPI 060600 11012KT 9999 BKN 018 29/23 Q1008NOSIQ=  
07-Jun-2011 SAID34 WAWL 070015 METAR WAPI 070000Z 13008KT 9999 SCT018 28/22 Q1012=  
07-Jun-2011 SAID34 WAPI 070300 METAR WAPI 070300Z 14008KT 9999 SCT018 29/23 Q1011=  
08-Jun-2011 SAID34 WAML 080100 METAR WAPI 080100Z 11008KT 9999 BKN018 29/23 Q1012=  
08-Jun-2011 SAID34 WAPI 080100 METAR WAPI 080100Z 11008KT 9999 BKN018 29/23 Q1012=  
08-Jun-2011 SAID34 WAML 080307 METAR WAPI 080300Z 11008KT 9999 FEW016 30/23 Q1011=  
08-Jun-2011 SAID34 WAML 080600 METAR WAPI 080600Z 13010KT 9999 SCT017 29/23 Q1009=  
09-Jun-2011 SAID32 WAMM 090000 METAR WAPI 090000Z 12004KT 9999 BKN018 27/24 Q1011 NOSIG=  
09-Jun-2011 SAID32 WAMM 090600 METAR WAPI 090600Z 00000KT 9999 SCT018 30/24 Q1007 NOSIG=  
10-Jun-2011 SAID32 WAMM 100000 METAR WAPI 100000Z 13006KT 9999 BKN 018 27/24 Q1010 NOSIG=  
10-Jun-2011 SAID34 WAML 100200 METAR WAPI 100200Z 13010KT 9999 BKN018 28/24 Q1010=  
10-Jun-2011 SAID32 WAMM 100300 METAR WAPI 100300Z 12010KT 9999 BKN 018 30/25 Q1009 NOSIG=  
10-Jun-2011 SAID35 WAMM 100600 METAR WAPI 100600Z 12008KT 9999 BKN018 29/25 Q1007=  
12-Jun-2011 SAID32 WAMM 120000 METAR WAPI 120000Z 12007KT 9999 BKN018 26/20 Q1013 NOSIG=  
12-Jun-2011 SAID35 WAPI 120100 METAR WAPI 120100 15013KT SCT018 27/26 Q1013 NOSIG=  
12-Jun-2011 SAID35 WAPI 120200 METAR WAPI 120200Z 12013KT 9999 BKN018 27/21Q1012 NOSIG=  
12-Jun-2011 SAID35 WAPI 120400 METAR WAPI 120400 13015KT BKN018 27/20 Q1011 NOSIG=  
14-Jun-2011 SAID34 WAPI 140400 METAR WAPI 140400 15012KT BKN018 27/17 Q1013=  
14-Jun-2011 SAID32 WAMM 140600 METAR WAPI 140600Z 15006KT 9999 BKN018 25/18 Q1012 NOSIQ SMID54 WAMM 140600 AAXX 14064 97014 32560 63305 10312 20233 39998 40091 57022 82271 333 56000 57803 82822 80858=  
16-Jun-2011 SAID32 WAMM 160000 METAR WAPI 160000Z 13009KT 9999 SCT018 27/22 Q1015 NOSIG=  
16-Jun-2011 SAID35 WAPI 160200 METAR WAPI 160200Z 11010KT SCT018 28/20 Q1015 NOSIG=  
16-Jun-2011 SAID32 WAMM 160300 METAR WAPI 160300Z 14010KT 9999 BKN 018 27/22 1014 NOSIG=  
16-Jun-2011 SAID34 WAML 160600 METAR WAPI 160600Z 12006KT 9999 SCT018 27/21 Q1012=  
17-Jun-2011 SAID32 WAMM 170000 METAR WAPI 170000Z 13003KT 9999 BKN017 26/20 Q1015 NOSIG=  
18-Jun-2011 SAID32 WAMM 180000 METAR WAPI 180000Z 13006KT 9999 SCT018 26/20 Q1013 NOSIG=  
18-Jun-2011 SAID35 WAPI 180100 METAR WAPI 180100Z 18010KT 9999 SCT018 26/20 Q1013 NOSIG=  
18-Jun-2011 SAID35 WAPI 180200 METAR WAPI 180200Z 15010KT 9999 BKN018 27/20 Q1013=  
18-Jun-2011 SAID34 WAML 180300 METAR WAPI 180300Z 14012KT 9999 BKN018 27/22Q1012=  
18-Jun-2011 SAID32 WAMM 180600 METAR WAPI 180600Z 14010KT 9999 SCT018 27/20 Q1010 NOSIG=  
19-Jun-2011 SAID34 WAML 190015 METAR WAPI 190000Z 12010KT 9999 BKN010 26/22 Q1012 NOSIG=  
19-Jun-2011 SAID34 WAPI 190300 METAR WAPI 190300Z 13010KT 9999 BKN015 28/23 Q1011=  
19-Jun-2011 SAID34 WAPI 190600 METAR WAPI 190600Z 12010KT 9999 BKN019 28/23 Q1009=  
20-Jun-2011 SAID32 WAMM 200000 METAR WAPI 200000Z 12012KT 9999 BKN017 26/21 Q1012 NOSIG=  
20-Jun-2011 SAID35 WAPI 200100 METAR WAPI 200100Z 12012KT BKN018 27/21 Q1012 NOSIG=  
20-Jun-2011 SAID35 WAPI 200300 METAR WAPI 200300Z 11010KT BKN018 28/21 Q1012 NOSIG=  
20-Jun-2011 SAID35 WAPI 200400 METAR WAPI 200400Z 11010KT BKN018 28/21 Q1011 NOSIG=  
21-Jun-2011 SAID35 WAPI 210000 METAR WAPI 210000Z 00906KT 9999 BKN018 27/19 Q1013 NOSIG=  
21-Jun-2011 SAID34 WAPI 210300 METAR WAPI 210300Z 13008KT 9999 SCT020 28/20 Q1012=  
22-Jun-2011 SAID35 WAPI 220400 METAR WAPI 220400Z 10010KT 9999 BKN018 29/21 Q1010 NOSIG=  
22-Jun-2011 SAID32 WAMM 220600 METAR WAPI 220600Z 15010KT 9999 BKN 018 28/21 Q1009 NOSIG=  
23-Jun-2011 SAID35 WAPI 230000 METAR WAPI 230000Z 10008KT 9999 SCT017 27/21 Q1011 NOSIG=  
23-Jun-2011 SAID35 WAPI 230300 METAR WAPI 230300Z 13012KT BKN012 9999 28/22 Q1010=  
23-Jun-2011 SAID35 WAPI 230600 METAR WAPI 230600Z 13014KT 9999 BKN015 27/20 Q1008 NOSIG=  
24-Jun-2011 SAID35 WAPI 240100 METAR WAPI 240100Z 11010KT 9999 BKN015 25/23 Q1011=  
24-Jun-2011 SAID35 WAPI 240200 METAR WAPI 240200Z 09015KT 9999 SCT017 27/22 Q1011=  
24-Jun-2011 SAID35 WAPI 240300 METAR WAPI 240300Z 10014KT 9999 BKN018 28/22 Q1010 NOSIC=  
24-Jun-2011 SAID35 WAPI 240600 METAR WAPI 240600Z 11012 9999 BKN018 28/23 Q1009 NSC=  
25-Jun-2011 SAID35 WAPI 250000 METAR WAPI 250000Z 12009KT 9999 BKN017 27/23 Q1013 NOSIC=  
25-Jun-2011 SAID32 WAMM 250300 METAR WAPI 250300Z 13012KT 9999 SCT016 28/24 Q1012 NOSIG=  
26-Jun-2011 SAID32 WAMM 260000 METAR WAPI 260000Z 11009KT 9999 BKN017 26/24 Q1013 NOSIG=  
26-Jun-2011 SAID35 WAPI 260000 METAR WAPI 260000Z 11009KT 9999 BKN017 26/24 Q1013 NOSIG=  
26-Jun-2011 SAID35 WAPI 260100 METAR WAPI 260100Z 11012KT 9999 BKN018 27/23 Q1013 NOSIG=  
26-Jun-2011 SAID35 WAPI 260200 METAR WAPI 260200Z 11012KT 9999 BKN018 28/23 Q1013 NOSIG=  
26-Jun-2011 SAID35 WAPI 260300 METAR WAPI 260300Z 11013KT 9999 BKN018 28/23 Q1013 NOSIG=  
26-Jun-2011 SAID32 WAMM 260600 METAR WAPI 260600Z 10010KT 9999 SCT018 29/22 Q1010 NOSIG=  
27-Jun-2011 SAID35 WAPI 270000 METAR WAPI 270000Z 12012KT 9999 SCT018 27/22 Q1012=  
27-Jun-2011 SAID35 WAPI 270300 METAR WAPI 270300Z 14015KT 9999 SCT017 27/22 Q1011 NOSIG=  
28-Jun-2011 SAID32 WAMM 280000 METAR WAPI 280000Z 12005KT 8000 PRES15 BKN 016 26/22 Q10012=  
28-Jun-2011 SAID35 WAPI 280000 METAR WAPI 280000Z 11010KT 9999 SCT017 27/21 Q1012 NOSIG=  
28-Jun-2011 SAID35 WAPI 280100 METAR WAPI 280100Z 11009KT SCT018 28/21 Q1012 NOSIG=  
28-Jun-2011 SAID35 WAPI 280200 METAR WAPI 280200Z 11012KT 9999 SCT018 28/21 Q1012 NOSIG=  
28-Jun-2011 SAID32 WAMM 280300 METAR WAPI 280300Z 10010KT 9999 SCT018 29/21 Q1010 NOSIG=  
28-Jun-2011 SAID35 WAPI 280400 METAR WAPI 280400Z 11012KT 9999 SCT018 28/21 Q1010 NOSIG=  
29-Jun-2011 SAID32 WAMM 290000 METAR WAPI 290000Z 12005KT 8000 PRES15 BKN 016 26/22 Q10012=  
30-Jun-2011 SAID35 WAPI 300000 METAR WAPI 300000Z 12010KT 9999 BKN 018 28/23 Q1012 NOSIG=  
30-Jun-2011 SAID34 WAML 300300 METAR WAPI 300300Z 10012KT 9999 BKN018 29/23 Q1012=  
01-Jul-2011 SAID32 WAMM 010000 METAR WAPI 010000Z 12015KT 9999 BKN017 27/22 Q1012 NOSIG=  
01-Jul-2011 SAID35 WAPI 010300 METAR WAPI 010300Z 13017KT 27/22 9999 BKN017 1012 NOSIG=  
02-Jul-2011 SAID35 WAPI 020000 METAR WAPI 020000Z 13011KT 9999 FEW018 27/21 Q1012 NOSIG=  
02-Jul-2011 SAID35 WAPI 020100 METAR WAPI 020100Z 12012KT 9999 FEW018 28/21 Q1012 NOSIG=  
02-Jul-2011 SAID35 WAPI 020200 METAR WAPI 020200Z 11010KT 9999 SCT018 28/21 Q1012 NOSIG=  
02-Jul-2011 SAID35 WAPI 020300 METAR WAPI 020300Z 13010KT 9999 SCT018 29/22 Q1011 NOSIG=  
02-Jul-2011 SAID35 WAPI 020400 METAR WAPI 020400Z 12012KT 9999 BKN018 29/23 Q1011 NOSIG=  
02-Jul-2011 SAID32 WAMM 020600 METAR WAPI 020600Z 10012KT 9999 SCT018 28/22 Q1009 NOSIG=  
03-Jul-2011 SAID32 WAMM 030000 METAR WAPI 030000Z 11008KT 9999 SCT018 27/21 Q1012NOSIG=  
03-Jul-2011 SAID35 WAPI 030100 METAR WAPI 030100Z 10007KT 9999 BKN018 28/21 Q1007 NOSIG=  
03-Jul-2011 SAID35 WAPI 030200 METAR WAPI 030200Z 11008KT 9999 BKN018 29/22 Q1013 NOSIG=  
03-Jul-2011 SAID35 WAPI 030300 METAR WAPI 030300Z 11010KT 9999 SCT018 29/22 Q1012 NOSIG=  
03-Jul-2011 SAID35 WAPI 030400 METAR WAPI 030400Z 11012KT 9999 SCT018 29/22 Q1012 NOSIG=  
03-Jul-2011 SAID32 WAMM 030600 METAR WAPI 030600Z 10012KT 9999 BKN018 28/21 Q1011=  
04-Jul-2011 SAID35 WAPI 040000 METAR WAPI 040000Z 11013KT 9999 SCT018 26/20 Q1014 NOSIG=  
04-Jul-2011 SAID35 WAPI 040100 METAR WAPI 040100Z 11011KT 9999 BKN018 26/21 Q1014 NOSIG=  
04-Jul-2011 SAID35 WAPI 040200 METAR WAPI 040200Z 13010KT 9999 BKN018 28/20 Q1014 NOSIG=  
04-Jul-2011 SAID35 WAPI 040300 METAR WAPI 040300Z 12012KT 9999 BKN018 28/20 Q1013 NOSIG=  
04-Jul-2011 SAID35 WAPI 040400 METAR WAPI 040400Z 14013KT 9999 SCT018 29/21 Q1012 NOSIG=  
04-Jul-2011 SAID35 WAPI 040600 METAR WAPI 040600Z 11012KT 9999 SCT018 28/20 Q1011 NOSIG=  
06-Jul-2011 SAID35 WAPI 060000 METAR WAPI 060000Z 11014KT 9999 BKN018 25/22 Q1013 NOSIG=  
06-Jul-2011 SAID35 WAPI 060100 METAR WAPI 060100Z 11012KT 9999 BKN018 26/22 Q1013 NOSIG=  
06-Jul-2011 SAID35 WAPI 060300 METAR WAPI 060300Z 10012KT 9999 SCT018 28/22 Q1012 NOSIG=  
06-Jul-2011 SAID32 WAMM 060600 METAR WAPI 060600Z 11009KT 9999 BKN018 28/22 Q1010 NOSIG=  
07-Jul-2011 SAID35 WAPI 070000 METAR WAPI 070000Z08006KT 9999 SCT018 27/23 Q1014 NOSIG=  
07-Jul-2011 SAID35 WAPI 070100 METAR WAPI 070100Z 09005KT 9999 SCT018 28/23 Q1014 NOSIG=  
07-Jul-2011 SAID35 WAPI 070200 METAR WAPI 070200Z 10012KT 9999 SCT018 28/23 Q1013 NOSIG=  
07-Jul-2011 SAID35 WAPI 070300 METAR WAPI 070300Z 11013KT 9999 SCT018 28/22 Q1013 NOSIG=  
07-Jul-2011 SAID35 WAPI 070400 METAR WAPI 070400Z 09013KT 9999 BKN018 28/22 Q1012 NOSIG=  
07-Jul-2011 SAID35 WAPI 070600 METAR WAPI 070600Z 09012KT 9999 SCT018 28/21 Q1011 NOSIG=  
08-Jul-2011 SAID35 WAPI 080000 METAR WAPI 080000Z 12015KT 9999 FEW018 26/20 Q1015 NOSIG=  
08-Jul-2011 SAID35 WAPI 080300 METAR WAPI 080300Z 12014KT 9999 BKN018 27/21 Q1014 NOSIC=  
08-Jul-2011 SAID35 WAPI 080600 METAR WAPI 080600Z 080600Z 11013KT 9999 SCT018 27/20 Q1012 NOSIG=  
09-Jul-2011 SAID34 WAML 090000 METAR WAPI 090000Z 13015KT 9999 BKN010 26/20 Q1014 NOSIG=  
09-Jul-2011 SAID34 WAML 090300 METAR WAPI 090300Z 12018KT 9999 FEW017 27/20 Q1012 NOSIG=  
09-Jul-2011 SAID34 WAML 090600 METAR WAPI 090600Z 13024KT 9999 BKN020 28/20 Q1010=  
10-Jul-2011 SAID35 WAPI 100000 METAR WAPI 100000Z 12012KT 9999 RERA BKN017 26/22 Q1012=  
10-Jul-2011 SAID35 WAPI 100300 METAR WAPI 100300Z 12010KT 9999 SCT017 28/22 Q1011=  
10-Jul-2011 SAID35 WAPI 100600 METAR WAPI 100600Z 11012KT 9999 SCT018 27/22 Q1008 NOSIG=  
11-Jul-2011 SAID34 WAML 110000 METAR WAPI 110000Z 09010KT 9999 RA BKN018 22/23 Q1012=  
11-Jul-2011 SAID34 WAML 110100 METAR WAPI 110100Z 10012KT 9999 SCT018 26/23 Q1012 NOSIG=  
11-Jul-2011 SAID34 WAML 110200 METAR WAPI 110200Z 11011KT 9999 SCT018 29/22 Q1012 NOSIG=  
11-Jul-2011 SAID34 WAML 110300 METAR WAPI 110300Z 11011KT 9999 SCT018 27/23 Q1012 NOSIG=  
11-Jul-2011 SAID35 WAPI 110600 METAR WAPI 110600Z 10006KT 9999 BKN018 27/23 Q1010=  
12-Jul-2011 SAID34 WAML 120000 METAR WAPI 120000Z 10011KT 9999 BKN018 26/23 Q1012=  
12-Jul-2011 SAID34 WAML 120100 METAR WAPI 120100Z 10012KT 9999 BKN018 27/24 Q1012=  
12-Jul-2011 SAID34 WAML 120300 METAR WAPI 120300Z 11012KT 9999 BKN018 27/22 Q1011 NOSIG=  
12-Jul-2011 SAID34 WAML 120400 METAR WAPI 120400Z 11012KT 9999 RERA BKN017 27/24 Q1011=  
12-Jul-2011 SAID35 WAPI 120600 METAR WAPI 120600Z 11012KT 9999 RERA BKN018 27/24 Q1009=  
13-Jul-2011 SAID34 WAML 130000 METAR WAPI 130000Z 11015KT 9999 FEW017 27/22 Q1011 NOSIG=  
13-Jul-2011 SAID34 WAML 130300 METAR WAPI 130300Z 14010KT 9999 BKN012 29/23 Q1011 NOSIG=  
14-Jul-2011 SAID34 WAML 140000 METAR WAPI 140000Z 10010KT 9999 BKN018 27/23 Q1012 NOSIG=  
14-Jul-2011 SAID34 WAML 140100 METAR WAPI 140100Z 10011KT 9999 BKN018 27/23 Q1012 NOSIG=  
14-Jul-2011 SAID34 WAML 140200 METAR WAPI 140200Z 12010KT 9999 BKN018 28/23 Q1012 NOSIG=  
14-Jul-2011 SAID34 WAML 140400 METAR WAPI 140400Z 10012KT 9999 BKN018 29/24 Q1011 NOSIG=  
15-Jul-2011 SAID35 WAPI 150000 METAR WAPI 150000Z 11012KT 9999 BKN018 28/24 Q1013 NOSIG=  
15-Jul-2011 SAID35 WAPI 150100 METAR WAPI 150100Z 11008KT 9999 BKN018 28/26 Q1013 NOSIG=  
15-Jul-2011 SAID35 WAPI 150200 METAR WAPI 150200Z 11008KT 9999 BKN018 28/26 Q1013 NOSIG=  
15-Jul-2011 SAID35 WAPI 150300 METAR WAPI 150300Z 12010KT 9999 BKN018 29/23 Q1012 NOSIG=  
16-Jul-2011 SAID34 WAML 160000 METAR WAPI 160000Z 12011KT 9999 BKN018 26/23 Q1012 NOSIG=  
16-Jul-2011 SAID34 WAML 160100 METAR WAPI 160100Z 10010KT 9999 BKN018 27/23 Q1012 NOSIG=  
16-Jul-2011 SAID34 WAML 160200 METAR WAPI 160200Z 09011KT 9999 BKN018 28/23 Q1011 NOSIG=  
16-Jul-2011 SAID34 WAML 160300 METAR WAPI 160300Z 10012KT 9999 BKN018 28/24 Q1011 NOSIG=  
16-Jul-2011 SAID35 WAPI 160600 METAR WAPI 160600Z 11011KT 9999 BKN018 28/24 Q1019 NOSIG=  
17-Jul-2011 SAID35 WAPI 170600 METAR WAPI 170600Z 10018KT 9999 SCT017 29/23 Q1010 NSC=  
18-Jul-2011 SAID34 WAML 180000 METAR WAPI 180000Z 11012KT 9999 BKN018 SCT018 27/21 Q1012=  
18-Jul-2011 SAID34 WAML 180100 METAR WAPI 180100Z 11010KT 9999 BKN018 SCT018 27/21 Q1012=  
18-Jul-2011 SAID34 WAML 180200 METAR WAPI 180200Z 11012KT 9999 FEW018 SCT018 29/23 Q1012=  
18-Jul-2011 SAID34 WAML 180300 METAR WAPI 180300Z 11010KT 9999 FEW016 SCT018 30/23 Q1011 NOSIG=  
18-Jul-2011 SAID34 WAML 180400 METAR WAPI 180400Z 12012KT 9999 SCT016 30/22 Q1011 NOSIG=  
18-Jul-2011 SAID35 WAPI 180600 METAR WAPI 180600Z 9999 11015KT BKN018 30/22 Q1010 NOSIG=  
19-Jul-2011 SAID34 WAML 190000 METAR WAPI 190000Z 12010KT 9999 BKN018 27/22 Q1012 NOSIG=  
19-Jul-2011 SAID34 WAML 190100 METAR WAPI 190100Z 11011KT 9999 BKN018 28/22 Q1012 NOSIG=  
19-Jul-2011 SAID34 WAML 190200 METAR WAPI 190200Z 09012KT 9999 BKN018 29/22 Q1012 NOSIG=  
19-Jul-2011 SAID34 WAML 190300 METAR WAPI 190300Z 10010KT 9999 BKN018 29/22 Q1012 NOSIG=  
19-Jul-2011 SAID34 WAML 190400 METAR WAPI 190400Z 12012KT 9999 BKN018 29/22 Q1011 NOSIG=  
19-Jul-2011 SAID35 WAPI 190600 METAR WAPI 190600Z 10010KT 9999 BKN018 28/22 Q1010 NOSIG=  
20-Jul-2011 SAID35 WAPI 200000 METAR WAPI 200000Z 11012KT 9999 SCT018 27/22 Q1012 NOSIG=  
20-Jul-2011 SAID35 WAPI 200100 METAR WAPI 200100Z 09014KT 9999 SCT018 28/22 Q1012 NOSIG=  
20-Jul-2011 SAID35 WAPI 200200 METAR WAPI 200200Z 11012KT 9999 SCT018 27/22 Q1012 NOSIG=  
20-Jul-2011 SAID35 WAPI 200300 METAR WAPI 200300Z 10013KT 9999 SCT018 28/21 Q1012 NOSIG=  
20-Jul-2011 SAID35 WAPI 200400 METAR WAPI 200400Z 11012KT 9999 SCT018 29/21 Q1014 NOSIG=  
20-Jul-2011 SAID35 WAPI 200600 METAR WAPI 200600Z 11012KT 9999 SCT018 29/20 Q1010 NOSIG=  
21-Jul-2011 SAID35 WAPI 210300 METAR WAPI 210300Z 11012KT 9999 SCT018 29/21 Q1011 NOSIC=  
22-Jul-2011 SAID34 WAML 220000 METAR WAPI 220000Z 11007KT 9999 BKN018 26/22 Q1012=  
22-Jul-2011 SAID34 WAML 220100 METAR WAPI 220100Z 11007KT 9999 SCT018 27/22 Q1012=  
22-Jul-2011 SAID34 WAML 220200 METAR WAPI 220200Z 11012KT 9999 BKN018 27/22 Q1012 NOSIG=  
22-Jul-2011 SAID34 WAML 220300 METAR WAPI 220300Z 11013KT 9999 28/22 Q1012 NOSIG=  
22-Jul-2011 SAID35 WAPI 220600 METAR WAPI 220600Z 12008KT 9999 BKN018 27/21 Q1009 NOSIG=  
23-Jul-2011 SAID34 WAML 230000 METAR WAPI 230000Z 13010KT 9999 SCT018 26/21 Q1012 NOSIG=  
23-Jul-2011 SAID34 WAML 230100 METAR WAPI 230100Z 12010KT 9999 SCT018 27/21 Q1012 NOSIG=  
23-Jul-2011 SAID34 WAML 230200 METAR WAPI 230200Z 10010KT 9999 SCT018 27/21 Q1012 NOSIG=  
23-Jul-2011 SAID34 WAML 230300 METAR WAPI 230300Z 10012KT 9999 BKN018 28/22 Q1012 NOSIG=  
23-Jul-2011 SAID34 WAML 230400 METAR WAPI 230400Z 10010KT 9999 BKN018 27/21 Q1010 NOSIG=  
23-Jul-2011 SAID35 WAPI 230600 METAR WAPI 230600Z 12012KT 9999 BKN018 28/21 Q1009=  
24-Jul-2011 SAID34 WAML 240000 METAR WAPI 240000Z 10012KT 9999 RA BKN010 24/22 Q1012=  
24-Jul-2011 SAID34 WAML 240100 METAR WAPI 240100Z 11010KT 9999 RA BKN010 23/22 Q1012=  
24-Jul-2011 SAID34 WAML 240200 METAR WAPI 240200Z 11008KT 4000 RA BKN010 23/22 Q1012=  
24-Jul-2011 SAID34 WAML 240300 METAR WAPI 240300Z 10009KT 7000 RA BKN010 23/22 Q1011=  
24-Jul-2011 SAID34 WAML 240400 METAR WAPI 240400Z 09010KT 6000 RA BKN010 23/22 Q1011=  
24-Jul-2011 SAID32 WAMM 240600 METAR WAPI 240600Z 10007KT 99999 BKN 017 24/22 Q10009 NOSIG=  
24-Jul-2011 SAID34 WAML 240600 METAR WAPI 240600Z 33007KT 9000 FEW020 31/23 Q1007=  
25-Jul-2011 SAID32 WAMM 250000 METAR WAPI 250000Z 10013KT 9999 SCT017 27/22 Q1012 NOSIG=  
26-Jul-2011 SAID34 WAML 260000 METAR WAPI 260000Z 09012KT 9999 BKN018 26/20 Q1014 NOSIG=  
26-Jul-2011 SAID34 WAML 260300 METAR WAPI 260300Z 08010KT 9999 SCT018 28/20 Q1012 NOSIG=  
26-Jul-2011 SAID34 WAML 260400 METAR WAPI 260400Z 10012KT 9999 BKN018 28/20 Q1012 NOSIG=  
27-Jul-2011 SAID34 WAML 270300 METAR WAPI 270300Z 11012KT 9999 BKN016 27/22 Q1013 NOSIG=  
28-Jul-2011 SAID34 WAML 280000 METAR WAPI 280000Z 11009KT 9999 BKN018 26/21 Q1013 NOSIG=  
28-Jul-2011 SAID32 WAMM 280600 METAR WAPI 280600Z 12007KT 9999 BKN018 28/22 Q1010 NOSIG=  
29-Jul-2011 SAID34 WAML 290300 METAR WAPI 290300Z 12010KT 9999 SCT017 28/22 Q1012 NOSIG=  
29-Jul-2011 SAID34 WAML 291200 METAR WAPI 291200Z 34006KT 8000 SCT020 27/21 Q1009=  
30-Jul-2011 SAID35 WAPI 300000 METAR WAPI 300000Z 13007KT 9999 SCT018 27/22 Q1012 NOSIG=  
30-Jul-2011 SAID32 WAMM 300300 METAR WAPI 300300Z 15007KT 9999 SCT018 29/23 Q1011 NOSIG=  
31-Jul-2011 SAID34 WAML 310000 METAR WAPI 310000Z 10008KT 9999 BKN018 27/23 Q1012 NOSIG=  
31-Jul-2011 SAID34 WAML 310300 METAR WAPI 310300Z 12010KT 9999 SCT018 29/23 Q1012 NOSIG=  
31-Jul-2011 SAID34 WAML 310400 METAR WAPI 310400Z 12008KT 9999 RERA BKN016 28/23 Q1011 NOSIG=  
01-Aug-2011 SAID32 WAMM 010000 METAR WAPI 010000Z 11009KT 9999 SCT018 26/23 Q 1013=  
02-Aug-2011 SAID34 WAML 020000 METAR WAPI 020000Z 11009KT 9999 BKN018 26/22 Q1014 NOSIG=  
02-Aug-2011 SAID34 WAML 020100 METAR WAPI 020100Z 11010KT 9999 BKN018 28/21 Q1014 NOSIG=  
02-Aug-2011 SAID34 WAML 020200 METAR WAPI 020200Z 11011KT 9999 BKN018 28/21 Q1014 NOSIG=  
02-Aug-2011 SAID34 WAML 020400 METAR WAPI 020400Z 12012KT 9999 SCT018 28/21 Q1013 NOSIG=  
02-Aug-2011 SAID32 WAMM 020600 METAR WAPI 020600Z 11011KT 9999 FEW018 28/21 Q1011 NOSIG=  
03-Aug-2011 SAID34 WAML 030000 METAR WAPI 030000Z 10010KT 9999 BKN018 25/21 Q1014=  
03-Aug-2011 SAID34 WAML 030100 METAR WAPI 030100Z 11011KT 9999 BKN018 26/21 Q1014=  
03-Aug-2011 SAID34 WAML 030300 METAR WAPI 030300Z 12012KT 9999 BKN018 28/21 Q1013 NOSIG=  
04-Aug-2011 SAID35 WAPI 040100 METAR WAPI 040100 METAR WAPI 040000Z 10008KT 9999 BKN018 26/21 Q1013 NOSIG=  
05-Aug-2011 SAID34 WAML 050000 METAR WAPI 050000Z 08008KT 9999 SCT018 26/20 Q1013=  
06-Aug-2011 SAID34 WAML 060000 METAR WAPI 060000Z 11007KT 9999 BKN018 26/21 Q1013 NOSIG=  
06-Aug-2011 SAID34 WAML 060300 METAR WAPI 060300Z 11010KT 9999 SCT018 28/21 Q1012 NOSIG=  
06-Aug-2011 SAID32 WAMM 060600 METAR WAPI 060600Z 11011KT 9999 SCT018 28/20 Q1009 NOSIG=  
07-Aug-2011 SAID34 WAML 070000 METAR WAPI 070000Z 10010KT 9999 SCT018 27/21 Q1013 NOSIG=  
07-Aug-2011 SAID34 WAML 070100 METAR WAPI 070100Z 10012KT 9999 SCT018 28/21 Q1013 NOSIG=  
07-Aug-2011 SAID34 WAML 070300 METAR WAPI 070300Z 10009KT 9999 SCT018 28/22 Q1012 NOSIG=  
07-Aug-2011 SAID34 WAML 070400 METAR WAPI 070400Z 10007KT 9999 RERA BKN018 27/23 Q1012=  
08-Aug-2011 SAID34 WAML 080000 METAR WAPI 080000Z 10006KT 9999 FEW018 27/22 Q1014 NOSIG=  
08-Aug-2011 SAID35 WAPI 080100 METAR WAPI 080100Z 10010KT 9999 FEW018 27/21 Q1014 NOSIG=  
08-Aug-2011 SAID34 WAML 080200 METAR WAPI 080200Z 10011KT 9999 FEW018 28/20 Q1014=  
08-Aug-2011 SAID34 WAML 080300 METAR WAPI 080300Z 10010KT 9999 FEW018 29/21 Q1013 NOSIG=  
10-Aug-2011 SAID34 WAML 100000 METAR WAPI 100000Z 11007KT 9999 SCT018 25/22 Q1013 NOSIG=  
10-Aug-2011 SAID34 WAML 100100 METAR WAPI 100100Z 11008KT 9999 SCT018 27/21 Q1013 NOSIG=  
10-Aug-2011 SAID34 WAML 100200 METAR WAPI 11009KT 9999 SCT018 27/22 Q1013 NOSIG=  
10-Aug-2011 SAID34 WAML 100400 METAR WAPI 100400Z 12010KT 9999 BKN018 28/21 Q1011 NOSIG=  
11-Aug-2011 SAID34 WAML 110000 METAR WAPI 110000Z 11006KT 9999 SCT018 26/20 Q1013 NOSIG=  
11-Aug-2011 SAID35 WAPI 110100 METAR WAPI 110100Z 09004KT 9999 SCT018 27/21 Q1013 NOSIG=  
11-Aug-2011 SAID34 WAML 110300 METAR WAPI 110300Z 16006KT 9999 SCT018 28/21 Q1012 NOSIG=  
11-Aug-2011 SAID34 WAML 110400 METAR WAPI 110400Z 16005KT 9999 SCT018 29/21 Q1011 NOSIG=  
11-Aug-2011 SAID34 WAPI 110600 METAR WAPI 110600Z 18005KT 9999 SCT018 28/20 Q1009 NOSIG=  
12-Aug-2011 SAID34 WAML 120000 METAR WAPI 120000Z 09006KT 9999 SCT018 26/21 Q1012 NOSIG=  
12-Aug-2011 SAID34 WAML 120100 METAR WAPI 120100Z 11008KT 9999 SCT018 27/20 Q1012 NOSIG=  
12-Aug-2011 SAID34 WAML 120200 METAR WAPI 120200Z 11010KT 9999 SCT018 28/20 Q1012 NOSIG=  
12-Aug-2011 SAID34 WAML 120300 METAR WAPI 120300Z 10010KT 9999 SCT018 27/20 Q1011 NOSIG=  
12-Aug-2011 SAID35 WAPI 120600 METAR WAPI 120600 10008KT 9999 BKN018 28/21 Q1009 NOSIG=  
13-Aug-2011 SAID34 WAML 130000 METAR WAPI 130000Z 11018KT 9999 BKN016 26/22 Q1012 NOSIG=  
14-Aug-2011 SAID32 WAMM 140000 METAR WAPI 140000Z 09020KT 9999 FEW017 2721 Q1013=  
14-Aug-2011 SAID35 WAPI 140300 METAR WAPI 140300Z 10010KT 9999 FEW018 28/22 Q1013 NOSIG=  
14-Aug-2011 SAID32 WAMM 140600 METAR WAPI 140600Z 10012KT 9999 SCT 018 28/21 Q1011NOSIG=  
15-Aug-2011 SAID32 WAMM 150000 METAR WAPI 150000Z=  
15-Aug-2011 SAID34 WAML 150300 METAR WAPI 150300Z 13009KT 9999 BKN018 28/21 Q1013=  
16-Aug-2011 SAID34 WAML 160000 METAR WAPI 160000Z 10005KT 9999 SCT018 26/22 Q1013 NOSIG=  
16-Aug-2011 SAID34 WAML 160300 METAR WAPI 160300Z 11010KT 9999 BKN018 28/22 Q1012 NOSIG=  
16-Aug-2011 SAID32 WAMM 160600 METAR WAPI 160600Z 11010KT 9999 SCT018 29/22 Q 1010 NOSIG=  
17-Aug-2011 SAID34 WAML 170000 METAR WAPI 170000Z 12007KT 9999 SCT018 26/21 Q1012 NOSIG=  
18-Aug-2011 SAID34 WAML 180000 METAR WAPI 180000Z 12009KT 9999 SCT018 27/19 Q1013=  
18-Aug-2011 SAID34 WAML 180300 METAR WAPI 180300Z 12011KT 9999 BKN018 28/19 Q1012 NOSIG=  
18-Aug-2011 SAID34 WAML 180400 METAR WAPI 180400Z 11012KT 9999 SCT018 28/19 Q1011 NOSIG=  
19-Aug-2011 SAID32 WAMM 190000 METAR WAPI 190000Z 11010KT 9999 SCT018 27/21 Q1014 NOSIG=  
20-Aug-2011 SAID34 WAML 200300 METAR WAPI 200300Z 12015KT 9999 BKN018 28/20 Q1013 NOSIG=  
21-Aug-2011 SAID32 WAMM 210600 METAR WAPI 210600Z 12010KT 9999 SCT018 27/17 Q1010 NOSIG=  
22-Aug-2011 SAID34 WAML 220000 METAR WAPI 220000Z 12012KT 9999 SCT018 26/19 Q1015 NOSIG=  
22-Aug-2011 SAID34 WAML 220100 METAR WAPI 220100Z 11012KT 9999 SCT018 27/18 Q1015 NOSIG=  
22-Aug-2011 SAID34 WAML 220200 METAR WAPI 220200Z 11012KT 9999 FEW018 28/17 Q1015 NOSIG=  
22-Aug-2011 SAID34 WAML 220300 METAR WAPI 220300Z 12012KT 9999 FEW018 28/17 Q1014 NOSIG=  
22-Aug-2011 SAID34 WAML 220400 METAR WAPI 220400Z 12013KT 9999 SCT018 28/18 Q1013 NOSIG=  
23-Aug-2011 SAID32 WAMM 230600 METAR WAPI 230600Z 12010KT 9999 SCT018 27/17 Q1010 NOSIG=  
24-Aug-2011 SAID35 WAPI 240000 METAR WAPI 240000Z 12011KT 9999 BKN018 26/19 Q1014 NOSIG=  
24-Aug-2011 SAID35 WAPI 240300 METAR WAPI 240300Z 10011KT 9999 BKN018 27/19 Q1013 NOSIG=  
24-Aug-2011 SAID32 WAMM 240600 METAR WAPI 240600Z 12011KT 9999 BKN 017 27/18 Q1011=  
25-Aug-2011 SAID32 WAMM 250000 METAR WAPI 250000Z 09010KT 9999 BKN017 26/20=  
25-Aug-2011 SAID32 WAMM 250300 METAR WAPI 250300Z 10009KT 9999 BKN 018 28/20 Q 1013=  
26-Aug-2011 SAID34 WAML 260000 METAR WAPI 260000Z 11005KT 9999 BKN017 25/23 Q1013 NOSIG=  
26-Aug-2011 SAID35 WAPI 260300 METAR WAPI 260300Z 11008KT 9999 SCT018 29/21 Q1012 NOSIG=  
27-Aug-2011 SAID34 WAML 270000 METAR WAPI 270000Z 10009KT 9999 SCT018 27/22 Q1013 NOSIG=  
27-Aug-2011 SAID34 WAML 270200 METAR WAPI 270200Z 12011KT 9999 SCT018 28/22 Q1013 NOSIG=  
28-Aug-2011 SAID34 WAML 280000 METAR WAPI 280000Z 10007KT 9999 SCT018 27/23 Q1013 NOSIG=  
28-Aug-2011 SAID34 WAML 280200 METAR WAPI 280200Z 10006KT 9999 SCT018 29/23 Q1012 NOSIG=  
28-Aug-2011 SAID34 WAML 280300 METAR WAPI 280300Z 10008KT 9999 SCT018 28/23 Q1012 NOSIG=  
29-Aug-2011 SAID33 WAPI 290600 METAR WAPI 290600Z 12012KT 9999 SCT018 29/23 Q1010 NO SIG=  
29-Aug-2011 SAID35 WAPI 292100 METAR WAPI 97900 292100Z 12004KT 9999 BKN017 25/23 Q1012 NOSIG=  
29-Aug-2011 SAID35 WAPL 292300 METAR WAPI 292300Z 13008KT 9999 BKN017 26/23 Q1011 NOSIG=  
30-Aug-2011 SAID32 WAMM 300000 METAR WAPI 300000Z 13008KT 9999 FEW017 27/22 Q1013 N0SIG=  
30-Aug-2011 SAID35 WAPL 300000 METAR WAPI 300000Z 13008KT 9999 BKN017 27/23 Q1011 NOSIG=  
31-Aug-2011 SAID35 WAPI 310300 METAR WAPI 310300Z 11010KT 9999 FEW018 29/22 Q1012 NOSIG=  
31-Aug-2011 SAID32 WAMM 310600 METAR WAPI 310600Z 11008KT 9999 SCT018 29/22 Q 1009 NOSIG=  
01-Sep-2011 SAID34 WAML 010000 METAR WAPI 010000Z 09006KT 9999 BKN018 26/23 Q1013 NOSIG=  
01-Sep-2011 SAID34 WAML 010300 METAR WAPI 010300Z 11005KT 9999 BKN018 29/23 Q1012 NOSIG=  
01-Sep-2011 SAID34 WAML 010600 METAR WAPI 010600Z 33005KT 9999 SCT020 31/23 Q1009=  
01-Sep-2011 SAID32 WAMM 010600 METAR WAPI 010600Z 10004KT 9999 BKN018 29/23 Q1009 NOSIG=  
03-Sep-2011 SAID35 WAPI 030300 METAR WAPI 030300Z 09008KT 9999 FEW018 29/22 Q1012 NOSIG=  
03-Sep-2011 SAID35 WAPI 030600 METAR WAPI 030600Z 09010KT 9999 BKN018 29/23 Q1010 NOSIG=  
05-Sep-2011 SAID34 WAML 050000 METAR WAPI 050000Z 11007KT 9999 SCT018 27/23 Q1013=  
05-Sep-2011 SAID34 WAMM 050600 METAR WAPI 050600Z 13007KT 9999 BKN018 28/24 Q1011 NOSIG=  
06-Sep-2011 SAID35 WAPI 060300 METAR WAPI 060300Z 07009KT 9999 SCT018 29/24 Q1012 NOSIC=  
06-Sep-2011 SAID35 WAPI 060600 METAR WAPI 060600Z 08009KT 9999 SCT018 28/23 Q1010 NSC=  
08-Sep-2011 SAID32 WAMM 080600 METAR WAPI 080600Z 09009KT 9999 BKN018 29/22 Q1010 NOSIG=  
09-Sep-2011 SAID32 WAMM 090300 METAR WAPI 090300Z 10009KT 9999 BKN018 28/23 Q1013 NOSIG=  
09-Sep-2011 SAID35 WAPI 090600 METAR WAPI 090600Z 08008KT 9999 BKN018 29/23 Q1011 NOSIG=  
10-Sep-2011 SAID34 WAML 100300 METAR WAPI 100300Z 13013KT 9999 BKN018 29/22 Q1014 NOSIG=  
10-Sep-2011 SAID34 WAPI 100600 METAR WAPI 100600Z 12016KT 9999 FEW018 28/20 Q1011=  
11-Sep-2011 SAID32 WAMM 110000 METAR WAPI 110000Z 11009KT 9999 BKN018 27/19 Q10014 NOSIG=  
11-Sep-2011 SAID32 WAMM 110300 METAR WAPI 110300Z 11014KT 9999 BKN018 28/17 Q1013 NOSIG=  
12-Sep-2011 SAID35 WAPI 120600 METAR WAPI 120600Z 11011KT 9999 BKN017 28/20 Q1011 NOSIG=  
13-Sep-2011 SAID35 WAPI 130900 METAR WAPI 130900Z 13010KT 9999 0VC017 26/21 Q1011 NOSIG=  
15-Sep-2011 SAID34 WAML 150000 METAR WAPI 150000Z 11010KT 9999 BKN017 26/23 Q1014=  
15-Sep-2011 SAID32 WAMM 150300 METAR WAPI 150300Z 09011KT 9999 BKN017 28/23 Q10012 NOSIG=  
15-Sep-2011 SAID34 WAPI 150600 METAR WAPI 150600Z 10012KT 9999 BKN019 29/22 Q1011=  
16-Sep-2011 SAID35 WAPI 160600 METAR WAPI 16060Z 11011KT 9999 BKN018 28/23 Q1010 NOSIC=  
19-Sep-2011 SAID34 WAML 190000 METAR WAPI 190000Z 12005KT 9999 BKN018 27/24 Q1014=  
19-Sep-2011 SAID34 WAML 190300 METAR WAPI 190300Z 11010KT 9999 BKN018 29/23 Q1014=  
19-Sep-2011 SAID35 WAPI 190600 METAR WAPI 190600Z 11007KT 9999 BKN018 29/22 Q1011 NOSIG=  
20-Sep-2011 SAID35 WAPI 200000 METAR WAPI 200000Z 10005KT 9999 BKN018 27/23 Q1014 NOSIC=  
21-Sep-2011 SAID32 WAMM 210000 METAR WAPI 210000Z 12007KT 99999 BKN018 27/23 1013 NOSIG=  
23-Sep-2011 SAID34 WAML 230600 METAR WAPI 12009KT 9999 BKN018 29/22 Q1009 NSG=  
24-Sep-2011 SAID35 WAPI 240000 METAR WAPI 240000Z 12007KT 9999 SCT018 27/22 Q1010 NOSIG=  
25-Sep-2011 SAID34 WAPI 250000 METAR WAPI 250000Z 12007KT 9999 BKN018 28/23 Q1013=  
25-Sep-2011 SAID32 WAMM 250300 METAR WAPI 250300Z 13007KT 9999 BKN018 30/23 Q1012 NOSIG=  
28-Sep-2011 SAID34 WAML 280000 METAR WAPI 280000Z 10006KT 9999 SCT017 28/23 Q1011 NOSIG=  
28-Sep-2011 SAID34 WAML 280300 METAR WAPI 280300Z 11013KT 9999 BKN017 30/24 Q1011 NOSIG=  
29-Sep-2011 SAID32 WAMM 290600 METAR WAPI 290600Z 07007KT 9999 BKN017 30/23 Q1010 NOSIG=  
01-Oct-2011 SAID35 WAPI 010000 METAR WAPI 010000Z 16010KT 9999 BKN018 28/24 Q1011 NOSIC=  
02-Oct-2011 SAID34 WAPI 020600 METAR WAPI 020600Z 17006KT 9999 SCT018 31/22 Q1008 NOSIG=  
03-Oct-2011 SAID34 WAPI 030000 METAR WAPI 030000Z 14003KT 9999 BKN018 28/23 Q1012 NOSIG=  
03-Oct-2011 SAID34 WAPI 030300 METAR WAPI 030300Z 14006KT 9999 BKN018 29/23 Q1011 NOSIG=  
05-Oct-2011 SAID34 WAML 050600 METAR WAPI 050600Z 13005KT 9999 FEW018 30/23 Q1010 NOSIG=  
06-Oct-2011 SAID34 WAML 060000 METAR WAPI 060000Z 10004KT 9999 SCT018 28/25 Q1013=  
06-Oct-2011 SAID34 WAML 060300 METAR WAPI 060300Z 12007KT 9999 SCT018 31/24 Q1012 NOSIG=  
07-Oct-2011 SAID34 WAPI 070000 METAR WAPI 070000Z 11007KT 9999 BKN018 29/25 Q1013 NOSIG=  
07-Oct-2011 SAID34 WAPI 070300 METAR WAPI 07000Z 10009KT 8000 BKN018 30/24 Q1011 NOSIG=  
09-Oct-2011 SAID34 WAML 090600 METAR WAPI 090600Z 12005KT 9999 FEW018 31/23 Q1009 NOSIG=  
10-Oct-2011 SAID34 WAML 100000 METAR WAPI 100000Z 16004KT 9999 SCT018 29/23 Q1013 NOSIG=  
11-Oct-2011 SAID34 WAPI 110000 METAR WAPI 110000Z 25003KT 9999 SCT018 28/25 Q1012=  
13-Oct-2011 SAID35 WAPI 130300 METAR WAPI 130300Z 23003KT 9999 FEW018 33/24 Q1011 NOSIK=  
13-Oct-2011 SAID34 WAML 130600 METAR WAPI 130600Z 14007KT 9999 SCT018 32/25 Q1009 NOSIG=  
14-Oct-2011 SAID34 WAML 140300 METAR WAPI 140300Z 12007KT 9000 SCT018 32/24 Q1011=  
14-Oct-2011 SAID34 WAPI 140600 METAR WAPI 140600Z 09004KT 8000 FEW018 BKN020 30/24 Q1010=  
15-Oct-2011 SAID32 WAMM 150000 METAR WAPI 150000Z 25003KT 9999 CST018 29/25 Q 1012=  
15-Oct-2011 SAID35 WAPI 150300 METAR WAPI 150300Z 16006KT 9999 SCT018 32/24 Q1011 NOSIC=  
17-Oct-2011 SAID32 WAMM 170000 METAR WAPI 170000Z 36002KT 9999 FEW023 29/23 Q1012 NOSIG=  
17-Oct-2011 SAID34 WAPI 170000 METAR WAPI 170000Z 11009KT 9999 FEW018 30/24 Q1013=  
17-Oct-2011 SAID35 WAPI 170310 METAR WAPI 170300KT 9999 FEW020 32/24 Q1012 NSW=  
17-Oct-2011 SAID34 WAPI 170600 METAR WAPI 170600Z 11010KT 9999 BKN018 32/24 Q1010 NOSIG=  
18-Oct-2011 SAID34 WAML 180000 METAR WAPI 180000Z 08007KT 9999 BKN018 30/23 Q1012 NOSIG=  
18-Oct-2011 SAID34 WAML 180300 METAR WAPI 180300Z 09007KT 9999 BKN018 32/24 Q1010 NOSIG=  
18-Oct-2011 SAID34 WAPI 180600 METAR WAPI 180600Z 08007KT 9999 BKN018 31/23 Q1008 NOSIG=  
19-Oct-2011 SAID32 WAMM 190000 METAR WAPI 190000Z 27002KT 9999 FEW022 30/22 Q1009 NSOIG=  
19-Oct-2011 SAID34 WAPI 190000 METAR WAPI 190000Z 10007KT 9999 RA BKN016 29/25 Q1011=  
19-Oct-2011 SAID35 WAPI 190300 METAR WAPI 190300Z 12011KTS 9999 BKN018 32/25 Q1009 NOSIC=  
22-Oct-2011 SAID34 WAML 220300 METAR WAPI 220300Z 11009KT 9999 BKN018 32/25 Q1010 NOSIG=  
22-Oct-2011 SAID34 WAPI 220600 METAR WAPI 220600Z 09010KT 9999 BKN017 31/25 Q1008 NOSIG=  
23-Oct-2011 SAID34 WAPI 230000 METAR WAPI 230000Z 11008KT 9999 SCT018 30/25 Q1011 NOSIG=  
23-Oct-2011 SAID34 WAPI 230300 METAR WAPI 230300Z 08009KT 9999 FEW018 31/22 Q1010 NOSIG=  
25-Oct-2011 SAID34 WAML 250600 METAR WAPI 250600Z 09010KT 9999 BKN018 31/24 Q1007 NOSIG=  
27-Oct-2011 SAID34 WAPI 270000 METAR WAPI 270000Z 10008KT 9999 SCT018 30/24 Q1010 NOSIG=  
29-Oct-2011 SAID35 WAPI 290000 METAR WAPI 290000Z 11006KT 9999 FEW018 30/23 Q1009 NOSIC=  
29-Oct-2011 SAID31 WAPI 290600 METAR WAPI 290600Z 08005KT 9999 32/24 Q10006 NOSIG=  
07-Nov-2011 SAID34 WAPI 070615 METAR WAPI 070600Z 18004KT 9999 FEW018 32/23 Q1006 NOSIG=  
10-Nov-2011 SAID34 WAPI 100615 METAR WAPI 100600Z 12009KT 9999 FEW018 32/24 Q1008 NOSIG=  
14-Nov-2011 SAID34 WAPI 140600 METAR WAPI 140600Z 12008KT 9999 SCT018 32/23 Q1007 NOSIG=  
15-Nov-2011 SAID34 WAPI 150000 METAR WAPI 150000Z 12007KT 9999 SCT01831/23 Q1010 NOSIG=  
15-Nov-2011 SAID34 WAPI 150300 METAR WAPI 150300Z 08005KT 9999 SCT018 31/23 Q1009 NOSIG=  
15-Nov-2011 SAID34 WAML 150610 METAR WAPI 150600Z 11005KT 9999 BKN017 31/24 Q1007=  
16-Nov-2011 SAID34 WAML 160010 METAR WAPI 160000Z 09005KT 9999 SCT018 30/24 Q1011=  
16-Nov-2011 SAID34 WAML 160300 METAR WAPI 160300Z 11009KT 9999 BKN018 33/24 Q1009=  
16-Nov-2011 SAID34 WAPI 160605 METAR WAPI 160600Z 08007KT 9999 BKN018 33/23 Q1007 NOSIG=  
18-Nov-2011 SAID34 WAML 180000 METAR WAPI 180000Z 31002KT 9999 FEW018 28/26 Q1011 NOSIG=  
18-Nov-2011 SAID34 WAML 180300 METAR WAPI 180300Z 12005KT 9999 SCT017 31/24 Q1009=  
18-Nov-2011 SAID34 WAML 180600 METAR WAPI 180600Z 35017KT 9999 FEW020 34/21 Q1007=  
18-Nov-2011 SAID34 WAPI 180600 METAR WAPI 180600Z 11005KT 9999 SCT018 32/24 Q1006 NOSIG=  
19-Nov-2011 SAID34 WAPI 190300 METAR WAPI 190300Z 10004KT 9999 BKN018 33/24 Q1008 NOSIG=  
20-Nov-2011 SAID34 WAML 200010 METAR WAPI 200000Z 30002KT 9999 BKN018 29/23 Q1010 NSG=  
20-Nov-2011 SAID34 WAML 200600 METAR WAPI 200600Z 15008KT 9999 BKN018 31/25 Q1007=  
22-Nov-2011 SAID34 WAML 220300 METAR WAPI 220300Z 15002KT 9999 TS BKN013 30/25 Q1007=  
22-Nov-2011 SAID34 WAML 220600 METAR WAPI 220600Z 29003KT 9999 BKN018 33/25 Q1004 NOSIG=  
23-Nov-2011 SAID34 WAPI 230000 METAR WAPI 230000Z 26004KT 9999 FEW018 30/24 Q1008=  
26-Nov-2011 SAID34 WAML 260000 METAR WAPI 260000Z 00000KT 9999 BKN015 26/25 Q1009=  
26-Nov-2011 SAID34 WAML 260300 METAR WAPI 260300Z 30005KT 8000 SCT015CB BKN016 25/23 Q1008 RMK RERA=  
27-Nov-2011 SAID34 WAPI 270300 METAR WAPI 270300Z 07007KT 9999 SCT018 32/25 Q1007 NOSIG=  
27-Nov-2011 SAID34 WAML 270610 METAR WAPI 270600Z 10008KT 9999 FEW018 32/25 Q1005 NSG=  
28-Nov-2011 SAID34 WAML 280010 METAR WAPI 280000Z 07007KT 9999 SCT018 31/25 Q1008 NSG=  
30-Nov-2011 SAID34 WAML 300000 METAR WAPI 300000Z 13006KT 9999 FEW018 31/23 Q1008=  
30-Nov-2011 SAID32 WAMM 300300 METAR WAPI 300300Z 12007KT 9999 SCT018 32/24 Q1008 NOSIG=  
01-Dec-2011 SAID34 WAML 010615 METAR WAPI 010600Z 13004KT 9999 SCT018 32/25 Q1004 NSG=  
02-Dec-2011 SAID34 WAML 020015 METAR WAPI 020000Z 23003KT 9999 BKN018 29/26 Q1007 NSG=  
02-Dec-2011 SAID34 WAPI 020605 METAR WAPI 020600Z 13005KT 9999 BKN018 31/25 Q1004 NOSIG=  
03-Dec-2011 SAID34 WAPI 030305 METAR WAPI 030300Z 11006KT 9999 SCT018 33/24 Q1005 NOSIG=  
03-Dec-2011 SAID34 WAML 030600 METAR WAPI 030600Z 24005KT 9999 BKN016 30/26 Q1004 NOSIG=  
04-Dec-2011 SAID34 WAML 040300 METAR WAPI 040300Z 13005KT 9999 BKN017 32/26 Q1007=  
06-Dec-2011 SAID34 WAML 060310 METAR WAPI 060300Z 30005KT 9999 SCT018 29/25 Q1007=  
06-Dec-2011 SAID34 WAPI 060605 METAR WAPI 060600Z 20080KT 9999 OVC018 29/25 Q1005 NOSIG=  
08-Dec-2011 SAID34 WAML 080000 METAR WAPI 080000Z 23002KT 9999 SCT018 30/26 Q1007 NOSIG=  
09-Dec-2011 SAID34 WAPI 090000 METAR WAPI 090000Z 35004KT 9999 FEW017 27/24 Q1008 NSC=  
09-Dec-2011 SAID34 WAPI 090100 METAR WAPI 090100Z 25003KT 9999 SCT020 28/23 Q1009=  
09-Dec-2011 SAID34 WAPI 090300 METAR WAPI 090300Z 24006KT 9999 SCT019 30/23 Q1008=  
10-Dec-2011 SAID34 WAML 100303 METAR WAPI 100300Z 23004KT 9999 BKN017 33/23 Q1007 NSG=  
10-Dec-2011 SAID34 WAPI 100605 METAR WAPI 100600Z 18007KT 6000 RA BKN010 29/26 Q1006=  
12-Dec-2011 SAID34 WAPI 120600 METAR WAPI 120600Z 15005KT 9999 OVC010 28/24 Q1007 NOSIG=  
13-Dec-2011 SAID34 WAPI 130300 METAR WAPI 130300Z 09010KT 9999 SCT018 35/26 Q1007 NOSIG=  
13-Dec-2011 SAID34 WAML 130610 METAR WAPI 130600Z 29006KT 9999 SCT015 29/27 Q1005 NSG=  
16-Dec-2011 SAID34 WAPI 160000 METAR WAPI 160000Z 25002KT 9999 SCT018 29/25 Q1007 NOSIG=  
16-Dec-2011 SAID34 WAPI 160300 METAR WAPI 160300Z 27005KT 9999 BKN017 33/26 Q1006 NOSIQ=  
16-Dec-2011 SAID34 WAPI 160600 METAR WAPI 160600Z 25003KT 9999 BKN017 31/26 Q1004 NOSIG=  
18-Dec-2011 SAID34 WAPI 180610 METAR WAPI 180600Z 27006KT 6000 -RA OVC010 26/26 Q1006=  
20-Dec-2011 SAID34 WAML 200300 METAR WAPI 200300Z 32012KT 9999 BKN015 32/26 Q1005 NOSIG=  
20-Dec-2011 SAID34 WAPI 200600 METAR WAPI 200600Z 26007KT 9999 BKN010 28/26 Q1003=  
22-Dec-2011 SAID35 WAPI 220100 METAR WAPI 220100Z 27007KT 10000 RA SCT016 28/26 Q1003=  
22-Dec-2011 SAID35 WAPI 220200 METAR WAPI 220200Z 28005KT 9999 SCT018 29/26 O1003 NOSIG=  
22-Dec-2011 SAID35 WAPI 220300 METAR WAPI 220300Z 28007KT 9999 FEW018 30/26 O1002 NOSIG=  
22-Dec-2011 SAID35 WAPI 220400 METAR WAPI 220400Z 28007KT 9999 SCT017 30/25 O1001 NOSIG=  
22-Dec-2011 SAID35 WAPI 220500 METAR WAPI 220500Z 32009KT 9999 SCT017 30/26 Q1000 NOSIC=  
22-Dec-2011 SAID35 WAPI 220600 METAR WAPI 220600Z 28007KT 9999 BKN016 29/25 Q1000 NOSIG=  
23-Dec-2011 SAID35 WAPI 230100 METAR WAPI 230100Z 29005KT 9999 BKN016 27/26 Q1003 NSC METAR WAPI 230000Z 28005KT 9999 BKN016 27/26 Q1003 NSC METAR WAPI 222300Z 27004KT 9999 BKN016 26/26 Q1002 NSC=  
23-Dec-2011 SAID35 WAPI 230200 METAR WAPI 230200 Z 29005KT 9999 BKN010 27/26 Q1002=  
23-Dec-2011 SAID35 WAPI 230300 METAR WAPI 230300Z 27005KT 9999 BKN016 28/26 Q1001 NSC=  
23-Dec-2011 SAID35 WAPI 230400 METAR WAPI 230400Z 28007KT 9999 SCT017 29/26 Q1000=  
23-Dec-2011 SAID35 WAPI 230500 METAR WAPI 230500Z 28010KT 9999 BKN015 28/26 Q1000=  
23-Dec-2011 SAID35 WAPI 230600 METAR WAPI 230600Z 27007KT 9999 BKN016 27/25 Q1000 NSC=  
24-Dec-2011 SAID35 WAPI 240000 METAR WAPI 240000 Z 28004 9999 SCT 017 29/26 Q1003=  
24-Dec-2011 SAID35 WAPI 240100 METAR WAPI 240100 Z 26010 KT RERA OVC 010 28/26 Q1003=  
24-Dec-2011 SAID35 WAPI 240200 METAR WAPI 240200Z 26015KT 9999 SCT015 29/25 Q1002 NOSIG=  
24-Dec-2011 SAID35 WAPI 240300 METAR WAPI 240300 Z 27010 KT RE RA OVC 013 29/27 Q1002=  
24-Dec-2011 SAID35 WAPI 240400 METAR WAPI 240400 Z 27100 KT 9999 SCT 017 31/26 Q01.4 NSC=  
24-Dec-2011 SAID35 WAPI 240500 METAR WAPI 240500 Z 28015 KT 9999 SCT 017 31/25 Q10006 NSC=  
24-Dec-2011 SAID35 WAPI 240600 METAR WAPI 240600 Z 27011 KT 9999 SCT 017 30/26 Q10001 NSC=  
25-Dec-2011 SAID35 WAPI 250000 METAR WAPI 250000Z 27008KT 9999 SCT017 28/25 Q1002 NOSIC=  
25-Dec-2011 SAID35 WAPI 250100 METAR WAPI 250100 30012 KT 9999 SCT 017 29/26 Q 1002 NSC=  
25-Dec-2011 SAID35 WAPI 250200 METAR WAPI 250200 30011 KT 9999 FEW 017 31/25 Q 1002 NSC=  
25-Dec-2011 SAID35 WAPI 250300 METAR WAPI 250300 29008KT 9999 FEW017 31/26 Q1002 NSC=  
25-Dec-2011 SAID34 WAML 250605 METAR WAPI 250600Z 29016KT 9999 SCT017 31/25 Q1011 NOSIG=  
25-Dec-2011 SAID35 WAPI 252300 METAR WAPI 252300Z 28009KT 9999 BKN016 26/25 Q1005 NOSIC=  
26-Dec-2011 SAID35 WAPI 260000 METAR WAPI 260000Z 28008KT 9999 BKN016 28/25 Q1006 NOSIC=  
26-Dec-2011 SAID35 WAPI 260100 METAR WAPI 260100Z 27006KT 9999 SCT017 28/25 Q1006 NOSIG=  
26-Dec-2011 SAID35 WAPI 260200 METAR WAPI 260200Z 28005KT 9999 FEW018 31/26 Q1005 NOSIG=  
26-Dec-2011 SAID35 WAPI 260300 METAR WAPI 260300Z 28009KT 9999 SCT018 32/26 Q1005 NOSIC=  
26-Dec-2011 SAID35 WAPI 260400 METAR WAPI 260400Z 27008KT 9999 SCT018 33/24 Q1004 NOSIG=  
26-Dec-2011 SAID35 WAPI 260600 METAR WAPI 260600Z 28013KT 9999 FEW018 33/24 Q1003 NOSIG=  
26-Dec-2011 SAID35 WAPI 262300 METAR WAPI 262300Z 28006KT 9999 SCT017 29/26 Q1006 NOSIC=  
27-Dec-2011 SAID35 WAPI 270000 METAR WAPI 270000Z 28009KT 9999 SCT018 30/26 Q1006 NOSIC=  
27-Dec-2011 SAID35 WAPI 270300 METAR WAPI 270300Z 27009KT 9999 BKN018 32/25 Q1006 NOSIC METAR WAPI 270200Z 28010KT 9999 BKN018 32/26 Q1006 NOSIC METAR WAPI 270100Z 27010KT 9999 BKN018 31/25 Q1007 NOSIC=  
27-Dec-2011 SAID35 WAPI 270600 METAR WAPI 270600Z 27011KT 9999 SCT018 32/26 Q1004 NSC=  
27-Dec-2011 SAID35 WAPI 272300 METAR WAPI 272300Z 27006KT 9999 BKN018 29/26 Q1006 NOSIC=  
28-Dec-2011 SAID35 WAPI 280200 METAR WAPI 280200 Z 27009 KT SCT 018 31/26 Q 1007 NSC=  
28-Dec-2011 SAID35 WAPI 280300 METAR WAPI 280300 Z 28010 KT 9999 BKN 018 32/26 Q 1007 NSC=  
28-Dec-2011 SAID35 WAPI 280400 METAR WAPI 280400Z 27015KT 9999 BKN017 31/25 Q1006 NOSIC=  
28-Dec-2011 SAID35 WAPI 280500 METAR WAPI 280500 Z 28012 KT 9999 BKN 017 31/25 Q 1005 NSC=  
29-Dec-2011 SAID35 WAPI 290000 METAR WAPI 290000Z 27010KT 9999 BKN017 30/26 Q1008 NSC=  
29-Dec-2011 SAID35 WAPI 290100 METAR WAPI 290100Z 29012KT 9999 BKN015 31/26 Q1008 NSC=  
29-Dec-2011 SAID35 WAPI 290200 METAR WAPI 290200Z 26008KT 9999 BKN015 31/26 Q1008 NSC=  
29-Dec-2011 SAID35 WAPI 290300 METAR WAPI 290300Z 28006KT 8000 -RA FEWO015 CB SCT015 29/26 Q1007=  
29-Dec-2011 SAID35 WAPI 290400 METAR WAPI 290400 27009 KT 9999 SCT 010 31/27 Q1007 UTC=  
29-Dec-2011 SAID34 WAPI 290600 METAR WAPI 290600Z 28008KT 9999 SCT015 31/27 Q1006 NOSIQ=  
29-Dec-2011 SAID35 WAPI 292300 METAR WAPI 292300Z 28003KT 9999 BKN017 28/27 Q1009 NOSIC=  
30-Dec-2011 SAID35 WAPI 300000 METAR WAPI 300000Z 28008KT 9999 BKN017 29/26 Q1009=  
30-Dec-2011 SAID35 WAPI 300100 METAR WAPI 300100Z 28006KT 9999 BKN017 30/26 Q1009 NOSIG=  
30-Dec-2011 SAID35 WAPI 300200 METAR WAPI 300200Z 28009KT 9999 BKN017 31/25 Q1009 NOSIG=  
30-Dec-2011 SAID34 WAML 300315 METAR WAPI 300300 28010KT 9999 BKN018 32/25 Q1009 NSG=  
30-Dec-2011 SAID34 WAPI 300615 METAR WAPI 300600Z 28010KT 9999 SCT018 33/24 Q1006=  
31-Dec-2011 SAID32 WAMM 310600 METAR WAPI 310600Z 25005KT 9999 SCT018 32/25 Q1007 NOSIG=  
01-Jan-2012 SAID34 WAPI 010600 METAR WAPI 010600Z 27009KT 9999 FEW018 33/25 Q1006=  
02-Jan-2012 SAID32 WAMM 020000 METAR WAPI 020000Z 20406KT 9999 018Z 230/25 Q1009=  
02-Jan-2012 SAID34 WAML 020610 METAR WAPI 020600Z 21009KT 9999 BKN018 32/26 Q1006 NSG=  
03-Jan-2012 SAID34 WAML 030010 METAR WAPI 030000Z 27001KT 9999 SCT018 28/25 Q1010 NSG=  
03-Jan-2012 SAID34 WAML 030305 METAR WAPI 030300Z 12006KT 9999 BKN017 31/25 Q1009 NSG=  
04-Jan-2012 SAID34 WAPI 040000 METAR WAPI 040000Z 06005KT 9000 BKN019 28/25 Q1010 NOSIG=  
05-Jan-2012 SAID34 WAPI 050600 METAR WAPI 050600Z 12007 9999 SCT017 28/25 Q1007=  
06-Jan-2012 SAID34 WAML 060610 METAR WAPI 060600Z 28004KT 9999 BKN018 31/25 Q1008 NSG=  
07-Jan-2012 SAID34 WAML 070310 METAR WAPI 070300Z 31003KT 9999 SCT017 29/25 Q1010 NSG=  
08-Jan-2012 SAID34 WAPI 080000 METAR WAPI 080000Z 29006KT 9999 BKN017 26/24 Q1011 NOSIG=  
08-Jan-2012 SAID34 WAML 080300 METAR WAPI 080300Z 28006KT 9999 SCT018 31/25 Q1009 NOSIG=  
10-Jan-2012 SAID35 WAPI 100000 METAR WAPI 100000Z 31004KT 9999 SCT018 28/26 Q1009 NOSIG=  
11-Jan-2012 SAID32 WAMM 110000 METAR WAPI 110000Z 28002KT 9999 SCT018 28/25 Q1010=  
11-Jan-2012 SAID32 WAMM 110300 METAR WAPI 110300Z 29006KT 80000 TSBKN 014CB 28/24 Q1009 CB NORT=  
11-Jan-2012 SAID32 WAMM 110600 METAR WAPI 110600Z 28003KT 9999 SCT016 28/25 Q1007=  
12-Jan-2012 SAID34 WAPI 120300 METAR WAPI 120300Z 02006KT 9999 BKN018 32/26 Q1009 NOSIG=  
14-Jan-2012 SAID34 WAPI 140000 METAR WAPI 140000Z 27005KT 9999 FEW018 28/26 Q1008 NOSIG=  
14-Jan-2012 SAID34 WAPI 140300 METAR WAPI 140300Z 24007KT 9999 SCT018 31/25 Q1006 NOSIG=  
15-Jan-2012 SAID34 WAML 150010 METAR WAPI 150000Z 27002KT 9999 SCT018 29/26 Q1007 NSG=  
15-Jan-2012 SAID34 WAML 150315 METAR WAPI 150300Z 23007KT 9999 SCT018 32/26 Q1006 NOSIG=  
15-Jan-2012 SAID32 WAMM 150600 METAR WAPI 150600Z 28004KT 9999 SCT014 31/25 Q1004 NOSIQ=  
16-Jan-2012 SAID34 WAPI 160000 METAR WAPI 160000Z 30003KT 9999 FEW018 28/25 Q1007=  
16-Jan-2012 SAID32 WAMM 160300 METAR WAPI 160300Z 31003KT 9999 BKN016CB 31/26 Q1006=  
17-Jan-2012 SAID34 WAPI 170600 METAR WAPI 170600Z 33005KT 9999 BKN014 CB 27/22 Q1008 CB TP N=  
18-Jan-2012 SAID34 WAPI 180000 METAR WAPI 180000Z 29003KT 9999 SCT017 28/26 Q1008 NOSIG=  
18-Jan-2012 SAID34 WAPI 180300 METAR WAPI 180300Z 18008KT 9999 BKN014CB 27/25 Q1007 CB TO N=  
18-Jan-2012 SAID34 WAML 180610 METAR WAPI 180600Z 24002KT 6000 RA BKN010 24/24 Q1006=  
19-Jan-2012 SAID34 WAML 190300 METAR WAPI 190300Z 21006KT 9999 FEW017CB SCT020 30/26 Q1006=  
20-Jan-2012 SAID35 WAPI 200000 METAR WAPI 200000Z 27001KT 9999 SCT018 28/26 Q10068 NOSIC=  
20-Jan-2012 SAID35 WAPI 200100 METAR WAPI 200100Z 30003KT 9999 BKN018 30/26 Q1006 NOSIC=  
20-Jan-2012 SAID35 WAPI 200200 METAR WAPI 20200Z 24002KT 9999 BKN017 31/26 Q1006 NSG=  
20-Jan-2012 SAID35 WAPI 200300 METAR WAPI 200300Z 23005KT 9999 BKN016 31/26 Q1005 NOSIG=  
20-Jan-2012 SAID35 WAPI 200400 METAR WAPI 200400Z 11005KT 2000 RERA[NOTFR] BKN 012 28/26 Q1005=  
20-Jan-2012 SAID35 WAPI 200500 METAR WAPI 200500Z 10010KT 1000 SL/MODTSNOHA BKN012CB 26/24 Q1005 CB [N]=  
20-Jan-2012 SAID35 WAPI 200600 METAR WAPI 200600Z 18003KT 9999 BKN016 26/24 Q1003 NOSIC=  
21-Jan-2012 SAID35 WAPI 210000 METAR WAPI 210000Z 28005KT 9999 SCT018 29/26 Q1005 NOSIG=  
21-Jan-2012 SAID35 WAPI 210100 METAR WAPI 210100Z 28010KT 9999 BKN016 30/25 Q1005 NOSIG=  
21-Jan-2012 SAID32 WAMM 210300 METAR WAPI 210300Z 28011KT 9999 BKM017 31/24 K1004 NOSIC=  
21-Jan-2012 SAID32 WAMM 210600 METAR WAPI 210600Z 29012KT 9999 Z018 32/25 K1002=  
21-Jan-2012 SAID35 WAPI 212300 METAR WAPI 212300Z 26005KT 7000 RA OVC010 26/24 Q1006=  
22-Jan-2012 SAID35 WAPI 220000 METAR WAPI 220000Z 25002KT 2000 RA OVC010 26/25 Q1006=  
22-Jan-2012 SAID35 WAPI 220400 METAR WAPI 220400Z 27006KT 9999 OVC010 25/24 Q1006 NOSIC=  
22-Jan-2012 SAID35 WAPI 220500 METAR WAPI 220500Z 27006KT 9999 BKN016 25/25 Q1005 NOSIC=  
22-Jan-2012 SAID35 WAPI 220600 METAR WAPI 220600Z 28004KT 9999 BKN016 27/25 Q1004=  
23-Jan-2012 SAID35 WAPI 230000 METAR WAPI 230000Z 29002KT 9999 BKN014 27/25 Q1005 NOSIC=  
23-Jan-2012 SAID35 WAPI 230100 METAR WAPI 230100Z 27004KT 9999 BKN014 27/26 Q1005 NOSIC=  
23-Jan-2012 SAID35 WAPI 230200 METAR WAPI 230200Z 27008KT 5000 RA OVC010 26/24 Q1005=  
23-Jan-2012 SAID35 WAPI 230300 METAR WAPI 230300Z 25003KT 8000 RA OVC010 26/25 Q1004=  
23-Jan-2012 SAID35 WAPI 230400 METAR WAPI 230400Z 28007KT 9999 BKN016 27/25 Q1003 NOSIG=  
23-Jan-2012 SAID35 WAPI 230500 METAR WAPI 230500Z 27009KT 9999 SCT018 28/26 Q1003 NOSIG=  
23-Jan-2012 SAID35 WAPI 230600 METAR WAPI 230600Z 28009KT 9999 SCT018 28/25 Q1003 NOSIG=  
24-Jan-2012 SAID35 WAPI 240000 METAR WAPI 240000Z 28007KT 9999 BKN015 27/25 Q1004 NOSIC=  
24-Jan-2012 SAID35 WAPI 240100 METAR WAPI 240100Z 28007KT 9999 BKN015 28/26 Q1004 NOSIC=  
24-Jan-2012 SAID35 WAPI 240200 METAR WAPI 240200Z 28007KT 9999 BKN015 29/25 Q1003 NOSIC=  
24-Jan-2012 SAID35 WAPI 240300 METAR WAPI 240300Z 28009KT 9999 BKN015 29/25 Q1003 NOSIC=  
24-Jan-2012 SAID35 WAPI 240400 METAR WAPI 240400Z 29010KT 9999 SCT017 29/25 Q1003 NOSIG=  
24-Jan-2012 SAID35 WAPI 240500 METAR WAPI 240500Z 28007KT 9999 BKN014 29/25 Q1002 NOSIG=  
24-Jan-2012 SAID35 WAPI 240600 METAR WAPI 240600Z 28008KT 9999 BKN 016 29/25 Q1002 NOSIG=  
24-Jan-2012 SAID35 WAPI 242300 METAR WAPI 242300Z 30005KT 9999 SCT017 26/25 Q1004 NOSIG=  
25-Jan-2012 SAID35 WAPI 250000 METAR WAPI 250000 Z 28005KT 9999 SCT017 27/26 Q1004 NOSIG=  
25-Jan-2012 SAID35 WAPI 250100 METAR WAPI 250100Z 28008KT 9999 SCT017 29/26 Q1004 NOSIG=  
25-Jan-2012 SAID35 WAPI 250200 METAR WAPI 250200 28009KT 9999 SCT017 30/26 Q1004 NOSIG=  
25-Jan-2012 SAID35 WAPI 250300 METAR WAPI 250300Z 28010KT 9999 SCT017 30/25 Q1004 NOSIG=  
25-Jan-2012 SAID35 WAPI 250400 METAR WAPI 250400Z 29012KT 9999 SCT017 31/25 Q1003 NOSIG=  
25-Jan-2012 SAID35 WAPI 250500 METAR WAPI 250500Z 28009KT 9999 SCT018 32/26 Q1002 NOSIG=  
25-Jan-2012 SAID35 WAPI 250600 METAR WAPI 250600Z 29012 9999 SCT018 31/26 Q1002 NOSIG=  
26-Jan-2012 SAID35 WAPI 260000 METAR WAPI 260000Z 820415KT 8000 RAIN OVC010 25/24 Q1008=  
26-Jan-2012 SAID35 WAPI 260100 METAR WAPI 260100Z 26007KT 9999 BKN010 25/24 Q1008 NOSIC=  
26-Jan-2012 SAID35 WAPI 260200 METAR WAPI 260200Z 25007KT 9999 BKN016 27/25 Q1007 NOSIC=  
26-Jan-2012 SAID35 WAPI 260300 METAR WAPI 260300Z 27006KT 9999 SCT016 29/6 Q1006=  
26-Jan-2012 SAID35 WAPI 260400 METAR WAPI 260400Z 28008KT 9999 SCT016 30/250 Q1005 NOSIC=  
26-Jan-2012 SAID35 WAPI 260500 METAR WAPI 260500Z 27009KT 9999 SCT016 31/26 Q1004 NOSIC=  
26-Jan-2012 SAID35 WAPI 262300 METAR WAPI 262300Z 27004KT 9999 BKB017 28/26 Q1008 NOSIC=  
27-Jan-2012 SAID35 WAPI 270000 METAR WAPI 270000Z 28005KT 9999 SCT018 29/26 Q1007 NOSIC=  
27-Jan-2012 SAID35 WAPI 270100 METAR WAPI 270100Z 28003KT 9999 SCT018 30/26 Q1007 NOSIC=  
27-Jan-2012 SAID35 WAPI 270200 METAR WAPI 270200Z 29006KT 9999 SCT018 31/26 Q1007 NOSIG=  
27-Jan-2012 SAID35 WAPI 270300 METAR WAPI 270300Z 28005KT 9999 BKN017 32/26 Q1006 NOSIG=  
27-Jan-2012 SAID35 WAPI 270400 METAR WAPI 270400Z 27006KT 9999 BKN017 32/26 Q1005 NOSIG=  
27-Jan-2012 SAID35 WAPI 272300 METAR WAPI 272300Z 29003KT 9999 SCT018 28/25 Q1008 NOSIG=  
28-Jan-2012 SAID35 WAPI 280000 METAR WAPI 280000Z 28008KT 9999 SCT018 29/26 Q1008 NOSIG=  
28-Jan-2012 SAID35 WAPI 280100 METAR WAPI 280100Z 28007KT 9999 SCT018 30/26 Q1008 NOSIG=  
28-Jan-2012 SAID35 WAPI 280200 METAR WAPI 280200Z 29007KT 9999 SCT018 32/26 Q1007 NOSIG=  
28-Jan-2012 SAID35 WAPI 280300 METAR WAPI 280300Z 29005KT 9999 SCT018 33/27 Q1006 NOSIG=  
28-Jan-2012 SAID35 WAPI 280400 METAR WAPI 280400Z 28010KT 9999 SCT018 32/26 Q1006 NOSIG=  
28-Jan-2012 SAID35 WAPI 280500 METAR WAPI 280500Z 28010KT 9999 SCT017 32/25 Q1005 NOSIG=  
28-Jan-2012 SAID35 WAPI 280600 METAR WAPI 280600Z 28007KT 9999 SCT017 32/25 Q1005 NOSIG=  
28-Jan-2012 SAID35 WAPI 282300 METAR WAPI 282300 26005KT 9999 SCT018 Q1008 NOSIG=  
29-Jan-2012 SAID35 WAPI 290000 METAR WAPI 290000Z 29006KT 9999 FEW018 30/26 Q1008 NOSIG=  
29-Jan-2012 SAID35 WAPI 290200 METAR WAPI 290200Z 29006KT 9999 SCT018 31/25 Q1008 NOSIG=  
29-Jan-2012 SAID35 WAPI 290300 METAR WAPI 290300Z 28007KT 9999 SCT018 33/25 Q1006 NOSIG=  
29-Jan-2012 SAID35 WAPI 290400 METAR WAPI 290400Z 30008KT 9999 SCT018 32/24 Q1006 NOSIC=  
29-Jan-2012 SAID35 WAPI 290500 METAR WAPI 290500 28006KT 9999 SCT018 33/25 Q1006 NOSIG=  
29-Jan-2012 SAID35 WAPI 290600 METAR WAPI 290600Z 29008KT 9999 SCT018 32/24 Q1005 NOSIG=  
29-Jan-2012 SAID35 WAPI 292300 METAR WAPI 292300 31009KT 9999 SCT018 28/25 Q1008 NOSIC=  
30-Jan-2012 SAID35 WAPI 300000 METAR WAPI 300000Z 30007KT 9999 SCT018 28/26 Q1008 NOSIC=  
30-Jan-2012 SAID35 WAPI 300100 METAR WAPI 300100Z 28006KT 9999 SCT018 31/25 Q1008 NOSIG=  
30-Jan-2012 SAID35 WAPI 300200 METAR WAPI 300200Z 28008KT 9999 SCT018 30/25 Q1008 NOSIC=  
30-Jan-2012 SAID35 WAPI 300300 METAR WAPI 300300Z 28009KT 9999 SCT018 31/25 Q1008=  
30-Jan-2012 SAID35 WAPI 300400 METAR WAPI 300400Z 28007KT 9999 SCT018 31/25 Q1007 NOSIC=  
30-Jan-2012 SAID35 WAPI 300500 METAR WAPI 300500Z 29007KT 9999 SCT018 32/25 Q1006 NOSIC=  
30-Jan-2012 SAID35 WAPI 300600 METAR WAPI 300600Z 280097KT 9999 SCT018 32/25 Q1006 NOSIC=  
30-Jan-2012 SAID35 WAPI 302300 METAR WAPI 302300Z 28002KT 9999 SCT018 27/26 Q1008 NOSIC=  
31-Jan-2012 SAID35 WAPI 310000 METAR WAPI 310000Z 28004KT 9999 SCT018 29/26 Q1009 NOSIC=  
31-Jan-2012 SAID35 WAPI 310200 METAR WAPI 310200 29006KT 9999 FEW018 31/26 Q1009 NSC=  
31-Jan-2012 SAID35 WAPI 310300 METAR WAPI 310300Z 28013KT 9999 BKN018 32/24 Q1009 NOSIC=  
31-Jan-2012 SAID35 WAPI 310400 METAR WAPI 310400Z 28012KT 9999 BKN018 32/24 Q1008 NOSIC=  
31-Jan-2012 SAID35 WAPI 310500 METAR WAPI 310500Z 27013KT 9999 BKN018 31/24 Q1007 NIOSIC=  
31-Jan-2012 SAID35 WAPI 312300 METAR WAPI 312300 27006 KT 9999 SCT018 27/25 Q 1008 NSC=  
01-Feb-2012 SAID35 WAPI 010000 METAR WAPI 01000 28015 KT 9999 SCT 018 29/26 Q 1009 NSC=  
01-Feb-2012 SAID35 WAPI 010100 METAR WAPI 010100 29018 KT 9999 BKN 010 30/26 Q1008 NSC=  
01-Feb-2012 SAID35 WAPI 010200 METAR WAPI 010200 28020 KT 9999 BKN 010 31/25 Q 1007 NSC=  
01-Feb-2012 SAID35 WAPI 010400 METAR WAPI 010400 28012 KT 9999 SCT 010 28/25 Q 1006 NSC=  
01-Feb-2012 SAID35 WAPI 010600 METAR WAPI 010600 28015 KT 80000 RA BKN 010 26/24 Q 1005 NSC=  
02-Feb-2012 SAID35 WAPI 020000 METAR WAPI 020000 12005 KT 20000 RA BKN 010 24/23 Q 1007 NSC=  
02-Feb-2012 SAID35 WAPI 020200 METAR WAPI 020200 29007 KT 80000 RA BKN 010 25/25 Q NSC=  
02-Feb-2012 SAID35 WAPI 020400 METAR WAPI 020400 28008KT 9999 BKN018 28/25 Q1005 NSC=  
02-Feb-2012 SAID35 WAPI 020500 METAR WAPI 020500Z 27010KT 9999 SCT018 28/25 Q1004 NSC=  
02-Feb-2012 SAID35 WAPI 020600 METAR WAPI 020600Z 28016KT 9999 BKN010 28/24 Q1004 NSC=  
02-Feb-2012 SAID35 WAPI 022300 METAR WAPI 022300 Z 24015 9999 SCT 015 23/22 Q1009 NSC=  
03-Feb-2012 SAID35 WAPI 030000 METAR WAPI 030000 Z 23011KT 9999 SCT 015 25/23 Q1009 NSC=  
03-Feb-2012 SAID35 WAPI 030100 METAR WAPI 030100 Z 27006KT 9999 SCT 016 26/23 Q1009 NSC=  
03-Feb-2012 SAID35 WAPI 030200 METAR WAPI 030200 Z 28007KT SCT016 27/24 Q1008 NSC=  
03-Feb-2012 SAID35 WAPI 030300 METAR WAPI 030300Z 27008KT 9999 SCT016 29/24 Q1008 NSC=  
03-Feb-2012 SAID35 WAPI 030600 METAR WAPI 030600 Z 27014KT 9999 SCT016 29/24 Q1006 NSC=  
03-Feb-2012 SAID35 WAPI 032300 METAR WAPI 032300 Z 27004KT 9999 SCT017 27/26 Q 1009NSC=  
04-Feb-2012 SAID35 WAPI 040000 METAR WAPI 040000 Z 28006 9999 SCT018 27/25 Q 1009NSC=  
04-Feb-2012 SAID35 WAPI 040100 METAR WAPI 040100 Z 28006KT 9999 SCT018 29/26 Q 1009NSC=  
04-Feb-2012 SAID35 WAPI 040200 METAR WAPI 040200 Z 28007KT 9999 SCT018 29/25 Q1009 NSC=  
04-Feb-2012 SAID35 WAPI 040300 METAR WAPI 040300 Z 28007KT 9999 SCT01830/25 Q1009 NSC=  
04-Feb-2012 SAID35 WAPI 040400 METAR WAPI 040400Z 29006KT 9999 SCT018 32/25 Q1008 NSC=  
04-Feb-2012 SAID35 WAPI 040500 METAR WAPI 040500Z 040500Z 27010KT 9999 SCT018 32/24 Q1008 NSC=  
04-Feb-2012 SAID35 WAPI 040600 METAR WAPI 040600Z 28012KT 9999 BKN018 31/24 Q1007 NSC=  
05-Feb-2012 SAID35 WAPI 050000 METAR WAPI 050000 Z 72809KT 9999 SCT018 29/25 Q1010 NSC=  
05-Feb-2012 SAID35 WAPI 050100 METAR WAPI 050100 26008 KT 9999 SCT 017 30/25 Q 1010 NSC=  
05-Feb-2012 SAID35 WAPI 050200 METAR WAPI 050200 28016 KT 9999 SCT 017 31/25 Q 1009 NSC=  
05-Feb-2012 SAID35 WAPI 050300 METAR WAPI 050300 Z 62613KT 9999 SCT018 31/25 Q1009 NSC=  
05-Feb-2012 SAID35 WAPI 050400 METAR WAPI 050400 Z 26014KT 9999 SCT018 31/24 Q1008 NSC=  
05-Feb-2012 SAID35 WAPI 052300 METAR WAPI 052300 30003 KT 9999 FEW 017 28/26 Q 1008 NSC=  
06-Feb-2012 SAID35 WAPI 060000 METAR WAPI 060000 28012 KT 9999 SCT 017 29/26 Q 1008 NSC=  
06-Feb-2012 SAID35 WAPI 060200 METAR WAPI 060200 27013 KT 9999 BKN 017 31/25 Q1008 NSC=  
06-Feb-2012 SAID35 WAPI 060300 METAR WAPI 060300Z 29010KT 9999 FEW018 32/25 Q1007 NSC=  
06-Feb-2012 SAID35 WAPI 060400 METAR WAPI 060400Z 27008KT 9999 FEW018 32/25 Q1006 NSC=  
06-Feb-2012 SAID35 WAPI 060500 METAR WAPI 060500Z 28012KT 9999 SCT018 32/25 Q1005 NSC=  
06-Feb-2012 SAID35 WAPI 060600 METAR WAPI 060600Z 27010KT 9999 SCT018 31/25 Q1004 NSC=  
06-Feb-2012 SAID35 WAPI 062300 METAR WAPI 062300 Z 28004KT 9999 FEW018 28/25 Q 1007NSC=  
07-Feb-2012 SAID35 WAPI 070000 METAR WAPI 070000 Z 28008KT 9999 BKN018 29/26 Q 1008NSC=  
07-Feb-2012 SAID35 WAPI 070100 METAR WAPI 070100 Z 28007KT 9999 BKN015 30/25 Q1008NSC=  
07-Feb-2012 SAID35 WAPI 070200 METAR WAPI 070200 Z 27009KT 9999 SCT018 31/26 Q1008NSC=  
07-Feb-2012 SAID35 WAPI 070300 METAR WAPI 070300Z 29008KT 9999 BKN018 32/25 Q1007 NCS=  
07-Feb-2012 SAID35 WAPI 070500 METAR WAPI 070500Z 26008KT 9999 BKN018 33/26 Q1006 NSC=  
07-Feb-2012 SAID35 WAPI 070600 METAR WAPI 070600Z 29006KT 9999 SCT016 29/27 Q1005 NSC=  
07-Feb-2012 SAID35 WAPI 072300 METAR WAPI 072300 Z 63205KT 9999 FEW018 28/26 Q 1009NSC=  
08-Feb-2012 SAID35 WAPI 080000 METAR WAPI 080000 Z 28005KT 9999 SCT018 29/26 Q 1009NSC=  
08-Feb-2012 SAID35 WAPI 080100 METAR WAPI 080100Z 27006KT 9999 SCT018 30/26 Q1009 NSC=  
08-Feb-2012 SAID35 WAPI 080200 METAR WAPI 080200 Z 27006KT 9999 SCT018 30/26 Q1009NSC=  
08-Feb-2012 SAID35 WAPI 080300 METAR WAPI 080300 Z 26007KT 9999 SCT019 31/26 Q1009NSC=  
08-Feb-2012 SAID35 WAPI 080400 METAR WAPI 080400Z 28008KT 9999 BKN018 32/26 Q1008 NSC=  
08-Feb-2012 SAID35 WAPI 080500 METAR WAPI 080500Z 29010KT 9999 SCT018 32/25 Q1007 NSC=  
08-Feb-2012 SAID35 WAPI 080600 METAR WAPI 080600Z 27008KT 9999 SCT018 31/25 Q1006 NSC=  
09-Feb-2012 SAID35 WAPI 090000 METAR WAPI 090000 300002 KT 9999 SCT 017 28/25 Q 0109 NSC=  
09-Feb-2012 SAID35 WAPI 090100 METAR WAPI 090100 23002 KT 9999 SCT 010 29/26 Q 1009 UTC=  
09-Feb-2012 SAID35 WAPI 090300 METAR WAPI 090300 24006 KT 9999 SCT 010 32/26 Q1008 UTC=  
09-Feb-2012 SAID35 WAPI 090400 METAR WAPI 090400 21005 KT 9999 SCT 010 32/26 Q1007 UTC=  
09-Feb-2012 SAID35 WAPI 090500 METAR WAPI 090500 30004 KT 9999 BKN 010 32/25 Q 1007 UTC=  
09-Feb-2012 SAID35 WAPI 090600 METAR WAPI 090600 33006 KT 9999 SCT 010 31/24 Q 1006 UTC=  
10-Feb-2012 SAID35 WAPI 100000 METAR WAPI 100000 24004 KT 9999 SCT 017 29/25 Q 1009 NSC=  
10-Feb-2012 SAID35 WAPI 100100 METAR WAPI 100100 26005 KT 9999 SCT 017 30/26 Q 1009 NSC=  
10-Feb-2012 SAID35 WAPI 100200 METAR WAPI 100200 23008 KT 9999 SCT 010 31/26 Q 1009 UTC=  
10-Feb-2012 SAID35 WAPI 100300 METAR WAPI 100300 22010 KT 9999 SCT 010 32/25 Q 1008 TCU=  
10-Feb-2012 SAID35 WAPI 100400 METAR WAPI 100400 21013 KT 9999 SCT 010 32/26 Q 1007 TCU=  
10-Feb-2012 SAID35 WAPI 100500 METAR WAPI 100500 25009 KT 9999 TS SCT 010 32/26 1007 TCU=  
10-Feb-2012 SAID35 WAPI 100600 METAR WAPI 100600 28005 KT 9999 RETS BKN 010 31/25 Q 1007 TCU=  
10-Feb-2012 SAID35 WAPI 102300 METAR WAPI 102300 Z 70000KT 9999 FEW018 27/26 Q 1009NSC=  
11-Feb-2012 SAID35 WAPI 110100 METAR WAPI 110100 Z 25004KT 9999 SCT018 30/26 Q1009NSC=  
11-Feb-2012 SAID35 WAPI 110200 METAR WAPI 110200 Z 22006KT 9999 SCT018 31/26 Q 1009NSC=  
11-Feb-2012 SAID35 WAPI 110300 METAR WAPI 110300Z 24005KT 9999 BKN018 32/26 Q1009 NSC=  
11-Feb-2012 SAID35 WAPI 110400 METAR WAPI 110400Z 25004KT 9999 BKN018 31/26 Q1009 NCS=  
11-Feb-2012 SAID35 WAPI 110500 METAR WAPI 110500Z 20005KT 9999 FEW018 31/25 Q1007 NSC=  
11-Feb-2012 SAID35 WAPI 110600 METAR WAPI 110600Z 23004KT 9999 FEW018 32/25 Q1006 NSC=  
11-Feb-2012 SAID35 WAPI 112300 METAR WAPI 112300 Z 29001KT 9999 SCT018 27/25 Q1010NSC=  
12-Feb-2012 SAID35 WAPI 120000 METAR WAPI 120000 Z 28001KT 9999 SCT018 29/26 Q1011NSC=  
12-Feb-2012 SAID35 WAPI 120300 METAR WAPI 120300Z 20006KT 9999 BKN018 32/25 Q1010 NSC=  
12-Feb-2012 SAID35 WAPI 120400 METAR WAPI 120400Z 16005KT 9999 SCT018 32/24 Q1009 NSC=  
12-Feb-2012 SAID35 WAPI 120600 METAR WAPI 120600Z 14006KT 9999 FEW018 32/24 Q1008 NCS=  
13-Feb-2012 SAID35 WAPI 130000 METAR WAPI 130000Z 32008KT 9999 BKN010 27/26 Q1007NSC=  
13-Feb-2012 SAID35 WAPI 130100 METAR WAPI 130100 Z 10004KT 9999 SCT017 29/25 Q1011NSC=  
13-Feb-2012 SAID35 WAPI 130200 METAR WAPI 130200 Z 12004KT 9999 BKN018 30/25 Q1010NSC=  
13-Feb-2012 SAID35 WAPI 130300 METAR WAPI 130300 15004 KT 9999 SCT 017 30/25 Q 1009 NSC=  
13-Feb-2012 SAID35 WAPI 130400 METAR WAPI 130400 13006 KT SCT 017 32/24 Q 1009 NSC=  
13-Feb-2012 SAID35 WAPI 130500 METAR WAPI 130500 12008 KT SCT 017 32/24 Q 1008 NSC=  
15-Feb-2012 SAID35 WAPI 150400 METAR WAPI 150400Z 08006KT 9999 FEW018 32/25 Q1007 NCS=  
15-Feb-2012 SAID35 WAPI 150500 METAR WAPI 150500Z 06005KT 9999 FEW018 32/25 Q1006 NSC=  
15-Feb-2012 SAID35 WAPI 150600 METAR WAPI 150600Z 06005KT 9999 FEW018 32/24 Q1006 NSC=  
16-Feb-2012 SAID32 WAMM 160300 METAR WAPI 160300Z 08006 KT SCT018 32/25 Q1008 NOSIG=  
16-Feb-2012 SAID35 WAPI 160600 METAR WAPI 160600Z 30808KT 99999 SCT017 31/24 Q1006 NOSIG=  
20-Feb-2012 SAID35 WAPI 200000 METAR WAPI 200000Z 33003KT 9999 BKN018 27/24 Q1011 NCS=  
20-Feb-2012 SAID35 WAPI 200300 METAR WAPI 200300Z 31004KT 9999 BKN018 31/25 Q1007 NCS=  
20-Feb-2012 SAID35 WAPI 200600 METAR WAPI 200600Z 31003KT 9999 BKN018 31/25 Q1007 NCS=  
20-Feb-2012 SAID35 WAPI 202300 METAR WAPI 202300 30004KT 9999 3CU SCT010 26/25 Q1007=  
21-Feb-2012 SAID35 WAPI 210000 METAR WAPI 210000Z 28003KT 9999 BKN018 Q1010 NCS=  
22-Feb-2012 SAID35 WAPI 220000 METAR WAPI 220000Z 27005KT 9999 BKN018 29/26 Q1009 NCS=  
22-Feb-2012 SAID35 WAPI 220600 METAR WAPI 220600Z 10004KT 5000 RA BKN010 27/24 Q1006 NCS=  
23-Feb-2012 SAID35 WAPI 230300 METAR WAPI 230300Z 31004KT 9999 SCT017 31/24 Q1008 NCS=  
23-Feb-2012 SAID35 WAPI 230600 METAR WAPI 230600Z 32004KT 9999 SCT017 28/23 Q1006 NCS=  
24-Feb-2012 SAID35 WAPI 240000 METAR WAPI 240000 Z 30002KT 9999 FEW018 29/24 Q1008NSC=  
24-Feb-2012 SAID35 WAPI 240300 METAR WAPI 240300 Z 13006KT 9999 FEW018 32/25 Q 1008NSC=  
24-Feb-2012 SAID34 WAPI 240300 METAR WAPI 240300 Z 13006KT 9999 FEW018 32/25 Q1008NSC=  
24-Feb-2012 SAID35 WAPI 240600 METAR WAPI 240600Z 9999 BKN015 27/25 Q1006 NCS=  
26-Feb-2012 SAID35 WAPI 260000 METAR WAPI 260000Z 10004KT 9999 SCT018 30/24 Q1007 NCS=  
26-Feb-2012 SAID35 WAPI 260300 METAR WAPI 260300Z 13010KT 9999 BKN018 32/25 Q1006 NCS=  
26-Feb-2012 SAID35 WAPI 260600 METAR WAPI 260600Z 12008KT 9999 BKN018 31/25 Q1004 NCS=  
27-Feb-2012 SAID35 WAPI 270300 METAR WAPI 270300Z 13006KT 9999 SCT017 32/25 Q1006 NCS=  
27-Feb-2012 SAID35 WAPI 270600 METAR WAPI 270600Z 34012KT 9999 BKN015 28/23 Q1007 NCS=  
28-Feb-2012 SAID35 WAPI 280000 METAR WAPI 280000Z 23002KT 9999 FEW018 29/26 Q1006 NCS=  
28-Feb-2012 SAID35 WAPI 280600 METAR WAPI 280600Z 32004KT 9999 SCT018 29/25 Q1004 NCS=  
29-Feb-2012 SAID35 WAPI 290000 METAR WAPI 290000 30005 KT 9999 2CB FEW 012 29/26 Q1007.=  
29-Feb-2012 SAID34 WAPI 290300 METAR WAPI 290300Z 33011KT 9999 SCT017CB 31/25 Q1006=  
01-Mar-2012 SAID35 WAPI 010000 METAR WAPI 010000 30004KT 9999 5CU BKN 017 30/26 Q1007=  
01-Mar-2012 SAID35 WAPI 010300 METAR WAPI 010300 29007KT 9999 3CB BKN 010 34/26 Q106=  
01-Mar-2012 SAID35 WAPI 010600 METAR WAPI 010600 28005KT 9999 3CB BKN 010 34/25 Q1004=  
02-Mar-2012 SAID35 WAPI 020300 METAR WAPI 020300 Z 28008 KT 9999 BKN018 33/25 Q1006 NSC=  
02-Mar-2012 SAID35 WAPI 020600 METAR WAPI 020600 Z 27010 9999 SCT018 33/24 Q 1003=  
03-Mar-2012 SAID35 WAPI 030400 METAR WAPI 030400 12011KT 9999 5CU BKN017 32/25 Q1011=  
04-Mar-2012 SAID35 WAPI 040600 METAR WAPI 040600 34006 KT 9999 3CB SCT 012 27/25 Q1005=  
05-Mar-2012 SAID35 WAPI 050300 METAR WAPI 050300Z 00000KT 9999 SCT017 32/25 Q1007 NOSIC=  
05-Mar-2012 SAID35 WAPI 050600 METAR WAPI 050600 27006 KT 9999 4CB SCT 010 6CU BKN 012 31/26 Q 1004=  
08-Mar-2012 SAID35 WAPI 080600 METAR WAPI 080600 22009 KT 9999 5 CB BKN 010 28/25 Q1003=  
09-Mar-2012 SAID35 WAPI 090900 METAR WAPI 090900 Z 10006 KT 9999 SCT 018 29/23 Q1010 NSC=  
10-Mar-2012 SAID35 WAPI 100000 METAR WAPI 10004 97900 27005 KT 40000 CBBKN/010 25/25 Q1006=  
11-Mar-2012 SAID35 WAPI 110000 METAR WAPI 110000 Z 3211KT 9999 CB BKN015 28/26 Q1006=  
11-Mar-2012 SAID35 WAPI 110300 METAR WAPI 110300Z 2905KT 3000 CB BKN010 25/24 Q1006=  
11-Mar-2012 SAID35 WAPI 110600 METAR WAPI 110600Z 33008KT 9999 BKN015 26/25 Q1004=  
12-Mar-2012 SAID35 WAPI 120000 METAR WAPI 120000Z 32008KT 9999 BKN010 27/26 Q1006NSC=  
12-Mar-2012 SAID35 WAPI 120600 METAR WAPI 120600Z 27009KT 9999 BKN015 27/25 Q1004 NOSIC=  
15-Mar-2012 SAID35 WAPI 152300 METAR WAPI 152300 29004 KT 9999 2 CU FEW 015 28/26 Q 1007=  
16-Mar-2012 SAID35 WAPI 160000 METAR WAPI 160000 32006 KT 9999 2CU FEW 017 29/26 Q 1007=  
16-Mar-2012 SAID35 WAPI 160100 METAR WAPI 160100 27009 KT 9999 4CU SCT 017 30/26 Q1008=  
16-Mar-2012 SAID35 WAPI 160300 METAR WAPI 160300 32010 KT 9999 4 CU SCT 017 32/26 Q 1007=  
16-Mar-2012 SAID35 WAPI 160400 METAR WAPI 160400 31012 KT 9999 3CU SCT 017 33/25 Q 1006=  
16-Mar-2012 SAID35 WAPI 160500 METAR WAPI 160500 28008 KT 9999 4 CU SCT 017 32/25 Q 1005=  
16-Mar-2012 SAID35 WAPI 160600 METAR WAPI 160600 29010 KT 9999 4 CU SCT 017 32/25 Q1005=  
16-Mar-2012 SAID35 WAPI 162300 METAR WAPI 162300 29003 KT 9999 SCT 017 27/26 Q1008=  
17-Mar-2012 SAID35 WAPI 170000 METAR WAPI 170000 Z 30020 KT RE RA CU/CB 6 010 25/23 Q1009=  
17-Mar-2012 SAID35 WAPI 170100 METAR WAPI 170100 Z 27012 KT 9999 CU/CB BKN105 25/23 Q1009 NSC=  
17-Mar-2012 SAID35 WAPI 170200 METAR WAPI 170200 Z 29006 KT 9999 BKN 017 26/24 Q1008 NSC=  
17-Mar-2012 SAID35 WAPI 170300 METAR WAPI 170300 29008 KT 9999 3SC SCT 012 27/24 Q 1008=  
17-Mar-2012 SAID35 WAPI 170400 METAR WAPI 170400 Z 30005 KT RA BKN 013 27/25 Q1007=  
17-Mar-2012 SAID35 WAPI 170500 METAR WAPI 170500 29008 KT 9999 3SC SCT 012 58/25 Q1006=  
17-Mar-2012 SAID35 WAPI 170600 METAR WAPI 170600 29010 KT 9999 2SC FEW 012 27/24 Q 1005=  
18-Mar-2012 SAID35 WAPI 180000 METAR WAPI 180000 29009 KT 9999 3 CU SCT 017 29/25 Q1009=  
18-Mar-2012 SAID35 WAPI 180100 METAR WAPI 180100 28013 KT 9999 3CU SCT 017 30/25 Q1009=  
18-Mar-2012 SAID35 WAPI 180200 METAR WAPI 180200 29020 KT 9999 3 CU SCT 017 30/25 1008=  
18-Mar-2012 SAID35 WAPI 180300 METAR WAPI 180300 30015KT 9999 4CU SCT017 33/26 Q 1007=  
18-Mar-2012 SAID35 WAPI 180400 METAR WAPI 180400 26013KT 9999 4CU SCT017 32/26 Q1006=  
18-Mar-2012 SAID35 WAPI 180500 METAR WAPI 180500 28015KT 9999 5CU BKN017 31/25 Q1006=  
18-Mar-2012 SAID35 WAPI 180600 METAR WAPI 180600 20020KT 9999 6SC BKN010 29/24 Q1006=  
18-Mar-2012 SAID35 WAPI 182300 METAR WAPI 182300Z 30005KT 9999 6SC BKN010 27/26 Q1008=  
19-Mar-2012 SAID35 WAPI 190000 METAR WAPI 190000Z 29004KT 9999 5SC BKN010 27/26 Q1008=  
19-Mar-2012 SAID35 WAPI 190300 METAR WAPI 190300 Z 29007 KT RE RA BKN 010 27/26 Q1008=  
19-Mar-2012 SAID35 WAPI 190400 METAR WAPI 190400 Z 27005 KT RE RA BMK 015 27/26 Q1007=  
19-Mar-2012 SAID35 WAPI 190600 METAR WAPI 190600 Z 28003 KT RE RA OVC 010 27/24 Q 1006=  
20-Mar-2012 SAID35 WAPI 200000 METAR WAPI 200000 33008KT 9999 2SC SCT010 27/25 Q1007=  
20-Mar-2012 SAID35 WAPI 200100 METAR WAPI 200100 30007KT 9999 2SC SCT012 28/26 Q1008=  
20-Mar-2012 SAID35 WAPI 200200 METAR WAPI 200200 28009KT 9999 2SC SCT012 29/25 Q1008=  
20-Mar-2012 SAID35 WAPI 200300 METAR WAPI 200300 28010KT 9999 3SC SCT010 28/26 Q1007=  
20-Mar-2012 SAID35 WAPI 200400 METAR WAPI 200400 32010KT 9999 4SC SCT012 30/26 Q1007=  
20-Mar-2012 SAID35 WAPI 200500 METAR WAPI 200500 22020KT 9999 6SC BKN010 29/25 Q1006=  
20-Mar-2012 SAID35 WAPI 200600 METAR WAPI 200600 29012KT 9999 4SC SCT010 26/22 Q1006=  
21-Mar-2012 SAID35 WAPI 210000 METAR WAPI 210000 Z 12003 KT 9999 SCT 018 27/25 Q1009 NSC=  
21-Mar-2012 SAID35 WAPI 210100 METAR WAPI 210100 Z 27008 KT 9999 SCT 017 27/24 Q1009=  
21-Mar-2012 SAID35 WAPI 210300 METAR WAPI 210300 Z 35010 KT 9999 BKN 018 28/25 Q1009 NSC=  
21-Mar-2012 SAID35 WAPI 210600 METAR WAPI 210600 Z 28005 KT 9999 SCT018 29/26 Q1007=  
21-Mar-2012 SAID35 WAPI 212300 METAR WAPI 212300Z 29005KT 9000 SL RA RE TS BKN010 27/26 Q1009=  
22-Mar-2012 SAID35 WAPI 220000 METAR WAPI 220000Z 28003KT 9999 BKN016 27/26 Q1009 NOSIN=  
22-Mar-2012 SAID35 WAPI 220100 METAR WAPI 220100Z 29003KT 9999 BKN017 28/26 Q1009 NOSIC=  
22-Mar-2012 SAID35 WAPI 220200 METAR WAPI 220200Z 29003KT 9999 BKN017 29/26 Q1009 NOSIC=  
22-Mar-2012 SAID35 WAPI 220300 METAR WAPI 220300 Z 27008KT 9999 CU3 SCT018 31/26 Q1008=  
22-Mar-2012 SAID35 WAPI 220400 METAR WAPI 220400Z 28006KT 9999 CU3 SCT018 31/26 Q1008=  
22-Mar-2012 SAID35 WAPI 220500 METAR WAPI 220500Z 28009KT 9999 CU3 SCT018 31/26 Q1007=  
22-Mar-2012 SAID35 WAPI 220600 METAR WAPI 220600Z 27008KT 9999 CB4 SCT018 31/16 Q1007=  
22-Mar-2012 SAID35 WAPI 222300 METAR WAPI 222300 Z 00000 KT PREC IN SGHT 15 BKN 012 26/25 Q1011=  
23-Mar-2012 SAID35 WAPI 230000 METAR WAPI 230000 Z 28002 KT 9999 SCT015 27/24 Q1011 NSC=  
23-Mar-2012 SAID35 WAPI 230100 METAR WAPI 230100 Z 28002 KT 9999 SCT 017 28/26 Q1011 NSC=  
23-Mar-2012 SAID35 WAPI 230600 METAR WAPI 230600 Z 25008 KT RE RA BKN 010 25/24 Q1008=  
23-Mar-2012 SAID35 WAPI 230900 METAR WAPI 230900 25006K 9999 2CB FEW010 26/24 Q1007=  
24-Mar-2012 SAID35 WAPI 240000 METAR WAPI 240000 33005KT 9999 1CB FEW012 26/24 Q1010=  
24-Mar-2012 SAID35 WAPI 240100 METAR WAPI 240100 33004KT 9999 2CB FEW012 27/25 Q1010=  
24-Mar-2012 SAID35 WAPI 240200 METAR WAPI 240200 28009KT 9999 3CB SCT010 28/26 Q1010=  
24-Mar-2012 SAID35 WAPI 240300 METAR WAPI 240300 25007KT 9999 3CB SCT010 29/26 Q1009=  
24-Mar-2012 SAID35 WAPI 240400 METAR WAPI 240400 25006KT 9999 3CB SCT010 31/25 Q1008=  
24-Mar-2012 SAID35 WAPI 240500 METAR WAPI 240500 24009KT 9999 4CB SCT010 30/26 Q1008=  
24-Mar-2012 SAID35 WAPI 240600 METAR WAPI 240600 19005KT 9999 5SC BKN010 29/25 Q1008=  
25-Mar-2012 SAID35 WAPI 250000 METAR WAPI 250000 Z 00000 KT 9999 FEW018 28/25 Q1010 NSC=  
25-Mar-2012 SAID35 WAPI 250100 METAR WAPI 250100 Z 22004 KT 9999 SCT 017 29/26 Q1004=  
25-Mar-2012 SAID35 WAPI 250200 METAR WAPI 250200 Z 23007 KT 9999 SCT 018 30/26 Q1010 NSC=  
25-Mar-2012 SAID35 WAPI 250300 METAR WAPI 250300 23008KT 9999 4CB SCT010 32/26 Q1009=  
25-Mar-2012 SAID35 WAPI 250400 METAR WAPI 250400 22006KT 9999 5CB BKN010 30/25 Q1008=  
25-Mar-2012 SAID35 WAPI 250500 METAR WAPI 250500 35010KT 9999 5CB BKN010 28/24 Q1008=  
25-Mar-2012 SAID35 WAPI 250600 METAR WAPI 250600 28005KT 9999 2CB FEW012 28/25 Q1007=  
26-Mar-2012 SAID35 WAPI 260000 METAR WAPI 260000 Z 30002 KT 9999 FEW 018 29/25 Q1011 NSC=  
26-Mar-2012 SAID35 WAPI 260100 METAR WAPI 260100 Z 23002 KT 9999 FEW 018 30/26 Q1011 NSC=  
26-Mar-2012 SAID35 WAPI 260300 METAR WAPI 260300 23006 KT 9999 BKN 017 32/26 Q1009=  
26-Mar-2012 SAID35 WAPI 260400 METAR WAPI 260400Z 11008KT 9999 4CB SCT018 31/25 Q1009 NCS-=  
26-Mar-2012 SAID35 WAPI 260600 METAR WAPI 260600 Z 24005 KT 9999 SCT018 30/25 Q1007=  
26-Mar-2012 SAID35 WAPI 262300 METAR WAPI 262300Z 03002KT 9999 CB2 FEW018 26/24 Q1011=  
27-Mar-2012 SAID35 WAPI 270000 METAR WAPI 270000Z 33002KT 9999 CB2 FEW018 28/25 Q1011=  
27-Mar-2012 SAID35 WAPI 270100 METAR WAPI 270100Z 25004KT 9999 3CB SCT018 30/26 Q1011=  
27-Mar-2012 SAID35 WAPI 270200 METAR WAPI 270200Z 23005KT 9999 4CB SCT018 30/25 Q1011=  
27-Mar-2012 SAID35 WAPI 270300 METAR WAPI 270300Z 21003KT 9999 4CB SCT010 30/25 Q1010=  
27-Mar-2012 SAID35 WAPI 270400 METAR WAPI 270400Z 07005KT 5000 RA CB5 BKN010 29/23 Q1009=  
27-Mar-2012 SAID35 WAPI 270500 METAR WAPI 270500 33003KT 9999 CB4 SCT105 28/24 Q1009=  
27-Mar-2012 SAID35 WAPI 270600 METAR WAPI 270600Z 31004KT 9999 CB3 SCT017 29/25 Q1008=  
27-Mar-2012 SAID35 WAPI 270900 METAR WAPI 270900 29002KT 9999 2CB FEW012 28/25 Q1009=  
28-Mar-2012 SAID35 WAPI 280000 METAR WAPI 280000 32004KT 9999 2SC FEW015 4CU SCT018 28/25 Q1011=  
28-Mar-2012 SAID35 WAPI 280100 METAR WAPI 280100 00000 9999 5SC BKN012 29/26 Q1011=  
28-Mar-2012 SAID35 WAPI 280200 METAR WAPI 280200 00000KT 9999 3CB SCT012 29/26 Q1011=  
28-Mar-2012 SAID35 WAPI 280300 METAR WAPI 280300 16006KT 9999 3CB SCT012 30/25 Q1010=  
28-Mar-2012 SAID35 WAPI 280400 METAR WAPI 280400 29009KT 5SC BKN010 30/25 Q1010=  
28-Mar-2012 SAID35 WAPI 280500 METAR WAPI 280500 28008KT 9999 3SC SCT012 30/26 Q1009=  
28-Mar-2012 SAID35 WAPI 280600 METAR WAPI 280600 30005K 9999 3CB SCT012 31/25 Q1008=  
28-Mar-2012 SAID35 WAPI 282300 METAR WAPI 282300 00000KT 9999 2CU FEW017 26/25 Q1011=  
29-Mar-2012 SAID35 WAPI 290000 METAR WAPI 290000 00000KT 9999 2CU FEW017 28/26 Q1012=  
29-Mar-2012 SAID35 WAPI 290100 METAR WAPI 290100 24005KT 9999 3SC SCT012 30/26 1012=  
29-Mar-2012 SAID35 WAPI 290200 METAR WAPI 290200 Z 29005 KT PREC IN SIGHT 15 BKN013 30/25 Q1012=  
29-Mar-2012 SAID35 WAPI 290300 METAR WAPI 290300 29009KT 9999 5SC BKN010 29/25 Q1011=  
29-Mar-2012 SAID35 WAPI 290600 METAR WAPI 290600 Z 21009 KT 9999 SCT015 29/25 Q1008=  
30-Mar-2012 SAID35 WAPI 300100 METAR WAPI 300100 Z 24004 KT 9999 SCT018 30/26 Q1012 NSC=  
30-Mar-2012 SAID35 WAPI 300300 METAR WAPI 300300 Z 23005 KT 9999 SCT017 33/26 Q1010 NSC=  
30-Mar-2012 SAID35 WAPI 300500 METAR WAPI 300500 Z 24005 KT 9999 KKN017 31/26 Q1008 NSC=  
30-Mar-2012 SAID35 WAPI 300600 METAR WAPI 300600 Z 23005 KT 9999 SCT 018 33/26 Q1008 NSC=  
31-Mar-2012 SAID35 WAPI 310000 METAR WAPI 310000 Z 12005 KT 9999 FEW018 29/24 Q1013 NSC=  
31-Mar-2012 SAID35 WAPI 310300 METAR WAPI 310300Z 14005KT 9999 CU3 SCT018 32/24 Q1011=  
31-Mar-2012 SAID35 WAPI 310500 METAR WAPI 310500 Z 14005 KT 9999 SCT018 31/24 Q1010 NSC=  
31-Mar-2012 SAID35 WAPI 310600 METAR WAPI 310600 Z 14005 KT 9999 SCT 018 32/25 Q1009 NSC=  
31-Mar-2012 SAID35 WAPI 310900 METAR WAPI 310900 14005KT 9999 5CU BKN015 30/24 Q 1010=  
31-Mar-2012 SAID35 WAPI 311200 METAR WAPI 311200 13002KT 9999 2CU FEW017 28/24 Q1012=  
31-Mar-2012 SAID35 WAPI 312300 METAR WAPI 312300 09006KT 9999 4CU SCT018 29/24 Q1013=  
01-Apr-2012 SAID35 WAPI 010000 METAR WAPI 010000 10005KT 9999 4CU SCT018 30/25 Q1013=  
01-Apr-2012 SAID35 WAPI 010100 METAR WAPI 010100 10010KT 9999 3CU SCT018 31/24 Q1013=  
01-Apr-2012 SAID35 WAPI 010300 METAR WAPI 010300 11008KT 9999 5CU BKN017 32/25 Q1012=  
01-Apr-2012 SAID35 WAPI 010500 METAR WAPI 010500 1208KT 9999 6CU BKN015 32/25 Q1010=  
01-Apr-2012 SAID35 WAPI 010600 METAR WAPI 010600 12012KT 9999 4CU SCT017 32/24 Q1009=  
02-Apr-2012 SAID35 WAPI 020000 METAR WAPI 020000Z 100005KT 9999 FEW018 30/24 Q1014 NCS=  
02-Apr-2012 SAID35 WAPI 020100 METAR WAPI 020100Z 11004KT 9999 FEW17 31/24 Q1014=  
02-Apr-2012 SAID35 WAPI 020200 METAR WAPI 020200Z 15004KT 9999 SCT018 31/24 Q1014=  
02-Apr-2012 SAID35 WAPI 020300 METAR WAPI 020300Z 12006KT 9999 SCT018 31/24 Q1013=  
02-Apr-2012 SAID35 WAPI 020400 METAR WAPI 020400Z 12004KT 9999 SCT018 31/24 Q1012=  
02-Apr-2012 SAID35 WAPI 020500 METAR WAPI 020500Z 13006KT 9999 FEW018 32/24 Q1011=  
02-Apr-2012 SAID35 WAPI 020600 METAR WAPI 020600Z 14005KT 9999 FEW018 32/24 Q1011=  
02-Apr-2012 SAID35 WAPI 020900 METAR WAPI 020900 13004KT 9999 2CU FEW018 30/24 Q1012=  
02-Apr-2012 SAID35 WAPI 021200 METAR WAPI 021200Z 13002KT 9999 FEW018 28/24 Q1014=  
02-Apr-2012 SAID35 WAPI 021500 METAR WAPI 021500 Z=  
02-Apr-2012 SAID35 WAPI 022100 METAR WAPI 022100 Z 07002 KT 9999 BKN 018 27/24 Q1014=  
02-Apr-2012 SAID35 WAPI 022300 METAR WAPI 022300 10005KT 9999 FEW018 28/24 Q1014=  
03-Apr-2012 SAID35 WAPI 030000 METAR WAPI 030000Z 10007KT 9999 CU2 FEW018 30/24 Q1015=  
03-Apr-2012 SAID35 WAPI 030100 METAR WAPI 030100Z 12008KT 9999 FEW018 31/24 Q1015=  
03-Apr-2012 SAID35 WAPI 030200 METAR WAPI 030200Z 11006KT 9999 FEW018 31/24 Q1014=  
03-Apr-2012 SAID35 WAPI 030300 METAR WAPI 030300Z 12006KT 9999 FEW015 32/24 Q1014=  
03-Apr-2012 SAID35 WAPI 030400 METAR WAPI 030400Z 10005KT 9999 FEW018 32/24 Q1013=  
03-Apr-2012 SAID35 WAPI 030500 METAR WAPI 030500Z 11007KT 9999 FEW018 32/24 Q1012=  
03-Apr-2012 SAID35 WAPI 030600 METAR WAPI 030600Z 12005KT 9999 FEW018 32/24 Q1011=  
03-Apr-2012 SAID35 WAPI 031200 METAR WAPI 031200 14004KT 9999 2CU FEW018 27/23 Q1013=  
03-Apr-2012 SAID35 WAPI 032300 METAR WAPI 032300Z 14003KT 9999 FEW018 27/24 Q1013=  
04-Apr-2012 SAID35 WAPI 040000 WAPI 040000 17008KT 9999 5CU BKN017 29/24 Q1014=  
04-Apr-2012 SAID35 WAPI 040100 METAR WAPI 040100 18006KT 9999 3CU SCT017 31/24 Q1014=  
04-Apr-2012 SAID35 WAPI 040200 METAR WAPI 040200 07006KT 9999 4CU SCT017 31/24 Q1014=  
04-Apr-2012 SAID35 WAPI 040300 METAR WAPI 040300 11005KT 9999 3CU SCT017 32/24 Q1013=  
04-Apr-2012 SAID35 WAPI 040400 METAR WAPI 040400 18009KT 9999 4CU SCT017 32/24 Q1012=  
04-Apr-2012 SAID35 WAPI 040500 METAR WAPI 040500 12010KT 9999 6CU BKN015 32/24 Q1011=  
04-Apr-2012 SAID35 WAPI 040600 METAR WAPI 040600 13008KT 9999 5CU BKN015 32/24 Q1010=  
04-Apr-2012 SAID35 WAPI 040900 METAR WAPI 040900 Z 13004 KT 9999 SCT 018 30/24 Q1011 NSC=  
04-Apr-2012 SAID35 WAPI 041200 METAR WAPI 041200 Z 14005 KT 9999 BKN 018 28/23 Q1013 NSC=  
04-Apr-2012 SAID35 WAPI 042300 METAR WAPI 042300 13005KT 9999 3CU SCT012 28/23 Q1012=  
05-Apr-2012 SAID35 WAPI 050000 METAR WAPI 050000Z 12005KT 9999 CU2 FEW018 30/24 Q1013=  
05-Apr-2012 SAID35 WAPI 050200 METAR WAPI 050200 12010KT 9999 3CU SCT018 32/24 Q1012=  
05-Apr-2012 SAID35 WAPI 050300 METAR WAPI 050300 14009KT 9999 5CU BKN015 32/24 Q1011=  
05-Apr-2012 SAID35 WAPI 050400 METAR WAPI 050400 12008KT 9999 6CU BKN012 32/24 Q1011=  
05-Apr-2012 SAID35 WAPI 050500 METAR WAPI 050500 12013KT 9999 4SC SCT012 2CU FEW015 32/23 Q1010=  
05-Apr-2012 SAID35 WAPI 050600 METAR WAPI 050600 12010KT 9999 5CU BKN015 32/24 Q1009=  
05-Apr-2012 SAID35 WAPI 051500 METAR WAPI 051500 Z 09005 KT 9999 SCT 018 28/23 Q1013 NSC=  
05-Apr-2012 SAID35 WAPI 052300 METAR WAPI 052300Z 10007KT 9999 CU3 SCT018 29/22 Q1012=  
06-Apr-2012 SAID35 WAPI 060000 METAR WAPI 060000Z 10008KT 9999 CU2 FEW018 30/22 Q1012=  
06-Apr-2012 SAID35 WAPI 060100 METAR WAPI 060100Z 11006KT 9999 BKN018 31/22 Q1013 NOSIC=  
06-Apr-2012 SAID35 WAPI 060200 METAR WAPI 060200Z 11008KT 9999 SCT28 30/23 Q1013 NOSIC=  
06-Apr-2012 SAID35 WAPI 060300 METAR WAPI 060300Z 10006KT 9999 BKN017 31/23 Q1011 NSC=  
06-Apr-2012 SAID35 WAPI 060600 METAR WAPI 060600Z 11009KT 9999 SCT018 32/22 Q1009 NCS=  
06-Apr-2012 SAID35 WAPI 061500 METAR WAPI 061500 Z 09005 KT 13000 SCT 018 27/21 Q1013 NSC=  
06-Apr-2012 SAID35 WAPI 062100 METAR WAPI 062100 Z 10004 KT 9999 FEW 018 26/21 Q1011 NSC=  
07-Apr-2012 SAID35 WAPI 070000 METAR WAPI 070000Z 09008KT 9999 FEW018 30/21 Q1012 NCS=  
07-Apr-2012 SAID35 WAPI 070300 METAR WAPI 070300Z 10010KT 9999 SCT018 32/23 Q1011 NCS=  
07-Apr-2012 SAID35 WAPI 070600 METAR WAPI 070600Z 11006KT 9999 SCT018 31/23 Q1009,=  
07-Apr-2012 SAID35 WAPI 070900 METAR WAPI 070900 10005KT 9999 4CU SCT017 30/24 Q1009=  
07-Apr-2012 SAID35 WAPI 071200 METAR WAPI 071200 11010KT 9999 4CU SCT018 27/23 Q1011=  
07-Apr-2012 SAID35 WAPI 072300 METAR WAPI 072300 08004KT 9999 1CU FEW012 29/22 Q1012=  
08-Apr-2012 SAID35 WAPI 080000 METAR WAPI 080000Z 09008KT 9999 FEW018 31/22 Q1012 NCS=  
08-Apr-2012 SAID35 WAPI 080100 METAR WAPI 080100Z 11007KT 9999 FEW017 31/22 Q1012 NCS=  
08-Apr-2012 SAID35 WAPI 080200 METAR WAPI 080200Z 13005KT 9999 FEW018 32/23 Q1012 NCS=  
08-Apr-2012 SAID35 WAPI 080300 METAR WAPI 080300Z 12008KT 9999 FERW018 32/23 Q1011 NCS=  
08-Apr-2012 SAID35 WAPI 080400 METAR WAPI 080400Z 10006KT 9999 FEW018 32/23 Q1010 NCS=  
08-Apr-2012 SAID35 WAPI 080500 METAR WAPI 080500Z 11008KT 9999 SCT018 32/23 Q1009 NCS=  
08-Apr-2012 SAID35 WAPI 081200 METAR WAPI 081200 Z 10006 KT 9999 FEW 018 28/23 Q1011 NSC=  
09-Apr-2012 SAID35 WAPI 090000 METAR WAPI 090000 10009KT 9999 3CU SCT018 30/24 Q1012=  
09-Apr-2012 SAID35 WAPI 090100 METAR WAPI 090100 11009KT 9999 4CU SCT018 31/24 Q1012=  
09-Apr-2012 SAID32 WAMM 090300 METAR WAPI 090300Z 12010KT 9999 SCT018 32/23 Q1010 N0SIG=  
09-Apr-2012 SAID35 WAPI 090400 METAR WAPI 090400 13012KT 9999 4CU SCT017 32/24 Q 1010=  
09-Apr-2012 SAID35 WAPI 090500 METAR WAPI 090500 1004KT 9999 5CU BKN017 31/23 Q1009=  
09-Apr-2012 SAID35 WAPI 090600 METAR WAPI 090600 10010KT 9999 3CU SCT017 31/23 Q1009=  
09-Apr-2012 SAID35 WAPI 091500 METAR WAPI 091500 Z 10003 KT 9999 SCT 018 28/23 Q1011 NSC=  
09-Apr-2012 SAID35 WAPI 091800 METAR WAPI 091800 Z 10003 KT 9999 SCT018 27/24 Q1011 NSC=  
09-Apr-2012 SAID35 WAPI 092100 METAR WAPI 092100 Z 10004 KT 9999 SCT 018 27/23 Q1012 NSC=  
09-Apr-2012 SAID35 WAPI 092300 METAR WAPI 092300Z 11010KT 9999 FEW018 29/23 Q1012 NCS=  
10-Apr-2012 SAID35 WAPI 100100 METAR WAPI 100100Z 12006KT 9999 CU/SC6 BKN0178 31/24 Q1012 NCS=  
10-Apr-2012 SAID35 WAPI 100200 METAR WAPI 100200Z 11006KT 9999 CU4 SCT 018 32/25 Q1011=  
10-Apr-2012 SAID35 WAPI 100300 METAR WAPI 100300Z 21007KT 9999 CU2 FEW018 32/24 Q1011=  
10-Apr-2012 SAID35 WAPI 100400 METAR WAPI 100400Z 10006KT 9999 CU4 SCT018 32/24 Q1010 NCS=  
10-Apr-2012 SAID35 WAPI 100500 METAR WAPI 100500Z 11006KT CU5 BKN018 32/24 Q1009 NCS=  
10-Apr-2012 SAID35 WAPI 100600 METAR WAPI 100600Z 13006KT CU3 SCT018 32/24 Q1009 NCS=  
10-Apr-2012 SAID35 WAPI 102300 METAR WAPI 102300Z 11007KT CU3 SCT018 29/24 Q1010=  
11-Apr-2012 SAID35 WAPI 110000 METAR WAPI 110000Z 10012KT 9999 CU3 SCT018 31/23 Q1010 NCS=  
11-Apr-2012 SAID35 WAPI 110100 METAR WAPI 110100Z 10007KT 9999 CU2 FEW018 31/24 Q1010 NCS=  
11-Apr-2012 SAID35 WAPI 110200 METAR WAPI 110200Z 10012KT 9999 CU3 SCT018 31/24 Q1010NCS=  
11-Apr-2012 SAID35 WAPI 110300 METAR WAPI 110300Z 12012KT 9999 CU3 SCT018 32/24 Q1009NSC=  
11-Apr-2012 SAID35 WAPI 110400 METAR WAPI 110400Z 11010KT 9999 SC/CU6 BKN017 31/24 Q1009 NCS=  
11-Apr-2012 SAID35 WAPI 110500 METAR WAPI 110500Z 10012KT 9999 CUI FEW018 32/24 Q1008 NCS=  
11-Apr-2012 SAID35 WAPI 110600 METAR WAPI 110600Z 12010KT 9999 CU1 FEW018 31/24 Q1007=  
11-Apr-2012 SAID35 WAPI 112300 METAR WAPI 112300Z 10004KT 9999 CU3 SCT018 29/24 Q1010 NCS=  
12-Apr-2012 SAID35 WAPI 120000 METAR WAPI 120000 11012KT 9999 4CU SCT018 30/25 Q1010=  
12-Apr-2012 SAID35 WAPI 120100 METAR WAPI 120100 12010KT 9999 3CU SCT018 31/23 Q1011 NSC=  
12-Apr-2012 SAID35 WAPI 120200 METAR WAPI 120200 11014KT 9999 4CU SCT018 31/23 Q1010 NSC=  
12-Apr-2012 SAID35 WAPI 120300 METAR WAPI 120300 14013KT 9999 3CU SCT018 31/24 Q1009=  
12-Apr-2012 SAID35 WAPI 120400 METAR WAPI 120400Z 12010KT 9999 CU5 BKN018 32/24 Q1008 NCS=  
12-Apr-2012 SAID35 WAPI 120500 METAR WAPI 120500Z 13012KT 9999 CU/CB6 BKN015 31/25 Q1008 NCS=  
12-Apr-2012 SAID35 WAPI 120600 METAR WAPI 120600Z 12008KT 6CU/CB BKN015 30/24 Q1007 NCS=  
12-Apr-2012 SAID35 WAPI 120900 METAR WAPI 120900 Z 15002 KT RE RA BKN 012 27/24 Q1008=  
12-Apr-2012 SAID35 WAPI 122300 METAR WAPI 122300 09006KT 9999 2CU FEW017 28/23 Q1011 NSC=  
13-Apr-2012 SAID35 WAPI 130000 METAR WAPI 130000 08008KT 9999 3CU SCT017 30/24 Q1011=  
13-Apr-2012 SAID35 WAPI 130100 METAR WAPI 130100 07009KT 9999 4SC SCT015 2CU FEW018 30/25 Q1011=  
13-Apr-2012 SAID35 WAPI 130200 METAR WAPI 130200 04008KT 9999 5SC BKN012 30/25 Q1011=  
13-Apr-2012 SAID35 WAPI 130300 METAR WAPI 130300 09013KT 9999 4CU SCT017 31/25 Q1010=  
13-Apr-2012 SAID35 WAPI 130400 METAR WAPI 130400 10009KT 9999 5SC BKN012 31/26 Q1009 NSC=  
13-Apr-2012 SAID35 WAPI 130500 METAR WAPI 130500 09012KT 9999 5CU BKN015 30/24 Q1009 NSC=  
13-Apr-2012 SAID35 WAPI 130600 METAR WAPI 130600 10012KT 9999 3CU SCT017 31/25 Q1008 NSC=  
14-Apr-2012 SAID35 WAPI 140000 METAR WAPI 140000Z 09006KT 99999 BKN018 30/26 Q1011=  
14-Apr-2012 SAID35 WAPI 140100 METAR WAPI 140100Z 08008KT 9999 CU4 SCT018 31/25 Q1012NSC=  
14-Apr-2012 SAID35 WAPI 140200 METAR WAPI 140200Z 08009KT 9999 CU4 SCT018 31/25 Q1012NSC=  
14-Apr-2012 SAID35 WAPI 140300 METAR WAPI 140300Z 08008KT 9999 CU5 BKN018 31/25 Q1011NSC=  
14-Apr-2012 SAID35 WAPI 140400 METAR WAPI 140400Z 12010KT 9999 CU3 SCT018 31/25 Q1010NSC=  
14-Apr-2012 SAID35 WAPI 140500 METAR WAPI 140500Z 11008KT 9999 CU5 BKN018 31/25 Q1011NSC=  
14-Apr-2012 SAID35 WAPI 140600 METAR WAPI 140600Z 09008KT 9999 CU3 SCT018 31/25 Q1008NSC=  
14-Apr-2012 SAID35 WAPI 142300 METAR WAPI 142300Z 10012KT 9999 CU3 SCT018 29/25 Q1011NSC=  
15-Apr-2012 SAID35 WAPI 150000 METAR WAPI 150000Z 11009KT 9999 CU3 SCT018 30/25 Q1011NSC=  
15-Apr-2012 SAID35 WAPI 150100 METAR WAPI 150100Z 10008KT 9999 ICU FEW018 31/24 Q1011 NCS=  
15-Apr-2012 SAID35 WAPI 150200 METAR WAPI 150200Z 11006KT 9999 5CU BKN018 32/25 Q1010 NCS=  
15-Apr-2012 SAID35 WAPI 150300 METAR WAPI 150300Z 11012KT 9999 CU4 SCT018 31/25 Q1010NSC=  
15-Apr-2012 SAID35 WAPI 150500 METAR WAPI 150500Z 10008KT 9999 2CU FEW018 31/25 Q1008 NCS=  
15-Apr-2012 SAID35 WAPI 150600 METAR WAPI 150600Z 12006KT 9999 2CU FEW018 32/25 Q1007 NCS=  
15-Apr-2012 SAID35 WAPI 152300 METAR WAPI 152300 13004KT 9999 1CU FEW012 29/26 Q1009=  
16-Apr-2012 SAID35 WAPI 160000 METAR WAPI 160000Z 12004KT 9999 2CU FEW018 30/26 Q1010 NCS=  
16-Apr-2012 SAID35 WAPI 160100 METAR WAPI 160100Z 13006KT 9999 4CU/CB BKN015 30/26 Q1010 NCS=  
16-Apr-2012 SAID35 WAPI 160200 METAR WAPI 160200Z 12007KT 9999 3CU SCT017 29/25 Q1010 NCS=  
16-Apr-2012 SAID35 WAPI 160300 METAR WAPI 160300 16008KT 9999 3CU SCT015 31/26 Q1009=  
16-Apr-2012 SAID35 WAPI 160400 METAR WAPI 160400 13012KT 9999 5SC BKN010 29/24 Q1008 NSC=  
16-Apr-2012 SAID35 WAPI 160500 METAR WAPI 160500 10006KT 9999 5CU/SC BKN015 28/25 Q1007 NCS=  
16-Apr-2012 SAID35 WAPI 160600 METAR WAPI 160600Z 12005KT 9999 4SC BKN015 28/24 Q1006 NCS=  
16-Apr-2012 SAID35 WAPI 160900 METAR WAPI 160900 16003 KT 9999 SCT018 29/26 Q1007 NSC=  
16-Apr-2012 SAID35 WAPI 161200 METAR WAPI 161200 15003 KT 9999 SCT 015 27/25 Q1009 NSC=  
16-Apr-2012 SAID35 WAPI 161500 METAR WAPI 161500Z 14003KT 9999 BKN018 28/25 Q1008 NOSIC=  
16-Apr-2012 SAID35 WAPI 161800 METAR WAPI 161800Z 12002KT 9999 FEW018 27/25 Q1006 NOSIC=  
16-Apr-2012 SAID35 WAPI 162100 METAR WAPI 162100Z 14002Z 9999 FEW018 26/25 Q10071 NOSIC=  
16-Apr-2012 SAID35 WAPI 162300 METAR WAPI 162300 14005KT 9999 2CB FEW012 26/24 Q1008=  
17-Apr-2012 SAID35 WAPI 170000 METAR WAPI 170000 15009KT 9999 3SC SCT012 27/24 Q1009=  
17-Apr-2012 SAID35 WAPI 170100 METAR WAPI 170100 15006KT 8000 RAIN 4SC SCT010 26/24 Q1009=  
17-Apr-2012 SAID35 WAPI 170200 METAR WAPI 170200 13006KT 9999 3SC SCT015 27/24 Q1009=  
17-Apr-2012 SAID35 WAPI 170300 METAR WAPI 170300 12006KT 9999 2SC FEW015 28/25 Q1007=  
17-Apr-2012 SAID35 WAPI 170400 METAR WAPI 170400 10005KT 9999 2CU FEW015 30/24 Q10006 NSC=  
17-Apr-2012 SAID35 WAPI 170500 METAR WAPI 170500 12004KT 9999 2CU FEW015 30/24 Q1006=  
17-Apr-2012 SAID35 WAPI 170600 METAR WAPI 170600 18004KT 9999 2CU FEW015 30/24 Q1006 NSC=  
17-Apr-2012 SAID35 WAPI 170900 METAR WAPI 170900 17002KT 9999 SCT018 29/25 Q1005 NOSIK=  
17-Apr-2012 SAID35 WAPI 171200 METAR WAPI 171200Z 14002 KT 9999 BKN017 27/25 Q1008 NOSIC=  
17-Apr-2012 SAID35 WAPI 172300 METAR WAPI 172300Z 28003KT 9999 CU3 SCT017 26/25 Q1007NSC=  
18-Apr-2012 SAID35 WAPI 180000 METAR WAPI 180000Z 26005KT 9999 SC4017 27/26 Q1008NSC=  
18-Apr-2012 SAID35 WAPI 180300 METAR WAPI 180300Z 20008KT 9999 5SC BKN017 26/24 Q1008 NCS=  
18-Apr-2012 SAID35 WAPI 180400 METAR WAPI 180400Z 23006KT 9999 4SC RA BKN017 26/24 Q1006 NCS=  
18-Apr-2012 SAID35 WAPI 180500 METAR WAPI 180500Z 23005KT 9999 5SC BKN017 26/25 Q1006 NCS=  
18-Apr-2012 SAID35 WAPI 180600 METAR WAPI 180600Z 25004KT 9999 4SC RA BKN015 27/25 Q1006 NCS=  
18-Apr-2012 SAID35 WAPI 181300 METAR WAPI 181300 08005KT 9999 SCT018CU 27/23 Q1011 NSC=  
19-Apr-2012 SAID35 WAPI 190000 METAR WAPI 190000Z 26004KT 4000 RA 5SC BKN010 25/24 Q1009 NCS=  
19-Apr-2012 SAID35 WAPI 190100 METAR WAPI 190100Z 27007KT 4000 RA 6SC BKN010 25/24 Q1010 NCS=  
19-Apr-2012 SAID35 WAPI 190200 METAR WAPI 190200Z 25004KT 4000 RA 6SC BKN010 25/24 Q1009=  
19-Apr-2012 SAID35 WAPI 190300 METAR WAPI 190300Z 26005KT 9999 CU/SC5BKN010 Q1009=  
19-Apr-2012 SAID35 WAPI 190400 METAR WAPI 190400Z 9999 RA 4SC BKN015 26/25 Q1008 NCS=  
19-Apr-2012 SAID35 WAPI 190500 METAR WAPI 190500Z 27008KT 9999 4SC BKN015 26/24 Q1007 NCS=  
19-Apr-2012 SAID35 WAPI 190600 METAR WAPI 190600Z 24006KT 9999 3SC BKN017 27/25 Q1006 NCS=  
19-Apr-2012 SAID35 WAPI 192200 METAR WAPI 192200 02004KT 9999 1CU FEW017 24/23 Q1008 NSC=  
20-Apr-2012 SAID35 WAPI 200000 METAR WAPI 200000Z 26008KT 9999 4SC BKN017 26/24 Q1010 NCS=  
20-Apr-2012 SAID35 WAPI 200100 METAR WAPI 200100Z 28006KT 9999 3CU SCT018 28/25 Q1010 NCS=  
20-Apr-2012 SAID35 WAPI 200200 METAR WAPI 200200Z 29004KT 9999 1CU FEW018 29/24 Q1009 NCS=  
20-Apr-2012 SAID35 WAPI 200300 METAR WAPI 200300Z 27005KT 9999 1CU FEW018 30/26 Q1009 NCS=  
20-Apr-2012 SAID35 WAPI 200400 METAR WAPI 200400Z 26006KT 9999 4SC SCT017 30/25 Q1008 NCS=  
20-Apr-2012 SAID35 WAPI 200500 METAR WAPI 200500Z 24005KT 9999 3CU SCT018 31/26 Q1007 NCS=  
20-Apr-2012 SAID35 WAPI 200600 METAR WAPI 200600Z 22006KT 9999 4SC SCT018 30/25 Q1007 NCS=  
20-Apr-2012 SAID35 WAPI 201500 METAR WAPI 201500 Z 25003 KT 9999 FEW 018 25/24 Q1009 NSC=  
20-Apr-2012 SAID35 WAPI 202100 METAR WAPI 202100 Z 00000 KT 9999 FEW 018 25/24 Q1009=  
20-Apr-2012 SAID35 WAPI 202300 METAR WAPI 202300 05002KT 9999 1CU FEW017 27/25 Q1009 NSC=  
21-Apr-2012 SAID35 WAPI 210000 METAR WAPI 210000 03005KT 9999 3CU SCT018 30/25 Q1009 NSC=  
21-Apr-2012 SAID35 WAPI 210100 METAR WAPI 210100 03007KT 9999 4CU SCT018 31/25 Q1009 NSC=  
21-Apr-2012 SAID35 WAPI 210200 METAR WAPI 210200 10008KT 9999 3CU SCT018 31/25 Q1009 NSC=  
21-Apr-2012 SAID35 WAPI 210300 METAR WAPI 210300 03008KT 9999 3CU SCT018 32/24 Q1009 NSC=  
21-Apr-2012 SAID35 WAPI 210400 METAR WAPI 210400 06012KT 9999 2CB FEW015 31/25 Q1008=  
21-Apr-2012 SAID35 WAPI 210500 METAR WAPI 210500 08012KT 9999 3CB SCT012 32/25 Q1007=  
21-Apr-2012 SAID35 WAPI 210600 METAR WAPI 210600 09006KT TS SCT010CB FEW015CU 30/26 Q1007=  
22-Apr-2012 SAID35 WAPI 220000 METAR WAPI 220000Z 08004KT 9999 CU2FEW018 28/26 Q1010NSC=  
22-Apr-2012 SAID35 WAPI 220100 METAR WAPI 220100Z 10003KT 9999 2CU FEW018 30/26 Q1010 NCS=  
22-Apr-2012 SAID35 WAPI 220200 METAR WAPI 220200Z 08007KT 9999 3CU SCT018 31/25 Q1009 NCS=  
22-Apr-2012 SAID35 WAPI 220300 METAR WAPI 220300Z 07005KT 9999 5CU BKN018 32/26 Q1009 NCS=  
22-Apr-2012 SAID35 WAPI 220400 METAR WAPI 220400Z 12006KT 9999 4CU SCT018 31/26 Q1008 NCS=  
22-Apr-2012 SAID35 WAPI 220500 METAR WAPI 220500Z 13006KT 9999 4CU SCT018 31/26 Q1007 NCS=  
22-Apr-2012 SAID35 WAPI 220600 METAR WAPI 220600Z 11006KT 9999 6CB BKN015 31/26 Q1007 NCS=  
22-Apr-2012 SAID35 WAPI 220900 METAR WAPI 220900 00000KT 9999 FEW018CU 27/26 Q1007=  
22-Apr-2012 SAID35 WAPI 221500 METAR WAPI 221500 00000 KT 9999 FEW 018 26/25 Q1010 NSC=  
22-Apr-2012 SAID35 WAPI 221800 METAR WAPI 221800 Z 14005 KT 9999 BKN 018 Q1008=  
22-Apr-2012 SAID35 WAPI 222100 METAR WAPI 222100 Z 15002 KT RE RA OFC 010 25/24 Q1009=  
23-Apr-2012 SAID35 WAPI 230000 METAR WAPI 230000Z 03002KT 9999 CU2FEW018 25/24 Q1010NSC=  
23-Apr-2012 SAID35 WAPI 230100 METAR WAPI 230100Z 35002KT 9999 4CB SCT017 27/25 Q1011 NCS=  
23-Apr-2012 SAID35 WAPI 230200 METAR WAPI 230200Z 19002KT 9999 4CB SCT017 28/27 Q1010 NCS=  
23-Apr-2012 SAID35 WAPI 230300 METAR WAPI 230300Z 15003KT 9999 4CB SCT017 29/26 Q1009 NCS=  
23-Apr-2012 SAID35 WAPI 230400 METAR WAPI 230400Z 11003KT 9999 3CB SCT017 30/26 Q1008 NCS=  
23-Apr-2012 SAID35 WAPI 230500 METAR WAPI 230500Z 09002KT 9999 4CB SCT017 31/25 Q1008 NCS=  
23-Apr-2012 SAID35 WAPI 230600 METAR WAPI 230600Z 16004KT 9999 4CB SCT018 29/25 Q1007 NCS=  
23-Apr-2012 SAID35 WAPI 232100 METAR WAPI 232100 00000KT 9999 FEW012SC 26/24 Q1009=  
24-Apr-2012 SAID35 WAPI 240000 METAR WAPI 240000Z 09004KT 9999 3SC BKN017 26/25 Q1010 NCS=  
24-Apr-2012 SAID35 WAPI 240200 METAR WAPI 240200Z 10004KT 9999 2CU FEW018 29/25 Q1010 NCS=  
24-Apr-2012 SAID35 WAPI 240300 METAR WAPI 240300Z 09005KT 9999 2CU FEW018 29/25 Q1009 NCS=  
24-Apr-2012 SAID35 WAPI 240400 METAR WAPI 240400Z 07005KT 9999 2CU FEW018 30/25 Q1008 NCS=  
24-Apr-2012 SAID35 WAPI 240500 METAR WAPI 240500Z 13003KT 9999 2CU FEW018 30/26 Q1008 NCS=  
24-Apr-2012 SAID35 WAPI 240600 METAR WAPI 240600Z 09005KT 9999 2CU FEW018 31/25 Q1007 NCS=  
24-Apr-2012 SAID35 WAPI 242300 METAR WAPI 242300Z 06003KT 9999 5SC BKN017 27/25 Q1011 NCS=  
25-Apr-2012 SAID35 WAPI 250000 METAR WAPI 250000 10005KT 9999 SCT018CU 29/26 Q1011=  
25-Apr-2012 SAID35 WAPI 250100 METAR WAPI 250100 12006KT 9999 SCT012SC 30/25 Q1011=  
25-Apr-2012 SAID35 WAPI 250200 METAR WAPI 250200Z 10008KT 9999 3CU SCT018 31/25 Q1011 NCS=  
25-Apr-2012 SAID35 WAPI 250500 METAR WAPI 250500Z 09006KT 9999 4CB SCT018 31/25 Q1008 NCS=  
25-Apr-2012 SAID35 WAPI 250600 METAR WAPI 250600Z 10006KT 9999 2CU FEW018 30/24 Q1008 NCS=  
25-Apr-2012 SAID35 WAPI 251500 METAR WAPI 251500 Z 12005 KT 9999 BKN 018 28/24 Q1011 NSC=  
25-Apr-2012 SAID35 WAPI 251800 METAR WAPI 251800 Z 11004 KT 9999 BKN 018 26/25 Q1010 NSC=  
25-Apr-2012 SAID35 WAPI 252100 METAR WAPI 252100 Z 10007 KT 9999 SCT 018 28/24 Q1010 NSC=  
25-Apr-2012 SAID35 WAPI 252300 METAR WAPI 252300 10009KT 9999 CST018CU 28/24 Q1010 NSC=  
26-Apr-2012 SAID35 WAPI 260000 METAR WAPI 260000 10014KT 9999 SCT012SC FEW0018 29/25 Q1011 NSC=  
26-Apr-2012 SAID35 WAPI 260100 METAR WAPI 260100 13010KT 9999 SCT012SC FEW015CU 29/25 Q1011 NSC=  
26-Apr-2012 SAID35 WAPI 260200 METAR WAPI 260200 09011KT 9999 BKN012SC 29/26 Q1011 NSC=  
26-Apr-2012 SAID35 WAPI 260300 METAR WAPI 260300Z 11008KT 9999 CU/SC6 BKN017 Q1010NSC=  
26-Apr-2012 SAID35 WAPI 260400 METAR WAPI 260400Z 11010KT 9999 BKN015 SC 29/25 Q1009NSC=  
26-Apr-2012 SAID35 WAPI 260600 METAR WAPI 260600 14014KT 9999 BKN012SC 30/25 Q1008 NSC=  
26-Apr-2012 SAID35 WAPI 260900 METAR WAPI 260900 Z 11006 KT 9999 BKN 018 28/25 Q1009 NSC=  
26-Apr-2012 SAID35 WAPI 261200 METAR WAPI 261200 12007 KT 9999 SCT 015 27/25 Q1011 NSC=  
26-Apr-2012 SAID35 WAPI 262300 METAR WAPI 262300Z 08004KT 9999 SC4SCT010 26/24 Q1012=  
27-Apr-2012 SAID35 WAPI 270000 METAR WAPI 270000Z 08007KT 9999 SC5BKN010 26/25 Q1012=  
27-Apr-2012 SAID35 WAPI 270100 METAR WAPI 270100Z 09008KT 2000 CB7BKN020 RA 25/24 Q1013=  
27-Apr-2012 SAID35 WAPI 270200 METAR WAPI 270200Z 00000KT 9000 CB6BKN09 TS 24/24 Q1012=  
27-Apr-2012 SAID35 WAPI 270300 METAR WAPI 270300Z 0000KT 9999 CB5BKN010 RA 25/24 Q1011=  
27-Apr-2012 SAID35 WAPI 270400 METAR WAPI 270400Z 09006KT 9999 4CB SCT015 26/24 Q1011 NCS=  
27-Apr-2012 SAID35 WAPI 270500 METAR WAPI 270500Z 09005KT 9999 4CB SCT018 26/25 Q1010 NCS=  
27-Apr-2012 SAID35 WAPI 270600 METAR WAPI 270600Z 10003KT 9999 2CU FEW017 27/24 Q1010 NCS=  
27-Apr-2012 SAID35 WAPI 270900 METAR WAPI 270900 07004KT 9999 SCT017CU 27/25 Q1010 NSC=  
27-Apr-2012 SAID64 WAPI 270900 METAR WAPI 270900 07004KT 9999 SCT017CU 27/25 Q1010 NSC=  
27-Apr-2012 SAID35 WAPI 271200 METAR WAPI 271200 15005KT 9999 SCT018CU 26/24 Q1011 NSC=  
27-Apr-2012 SAID35 WAPI 271300 METAR WAPI 271300 12004KT 9999 FEW017CU 26/25 Q1011 NSC=  
27-Apr-2012 SAID35 WAPI 271500 METAR WAPI 271500 Z 12002 KT 9999 BKN 018=  
27-Apr-2012 SAID35 WAPI 271800 METAR WAPI 271800 Z 08004 KT RE RA BKN 010 26/24 Q1009=  
27-Apr-2012 SAID35 WAPI 272100 METAR WAPI 272100 Z 11007 KT 9999 SCT 018 27/25 Q1010 NSC=  
27-Apr-2012 SAID35 WAPI 272300 METAR WAPI 272300Z 10007KT 9999 4CB SCT015 28/25 Q1011 NCS=  
28-Apr-2012 SAID35 WAPI 280000 METAR WAPI 280000Z 12006KT 9999 4CB SCT017 28/25 Q1011 NCS=  
28-Apr-2012 SAID35 WAPI 280100 METAR WAPI 280100Z 12005KT 5000 5SC RA BKN015 30/25 Q1012 NCS=  
28-Apr-2012 SAID35 WAPI 280300 METAR WAPI 280300Z 07006KT 5000 BKN010 RA 26/25 Q1011=  
28-Apr-2012 SAID35 WAPI 280500 METAR WAPI 280500Z 13004KT 10000 5SC RA BKN015 26/25 Q1009 NCS=  
28-Apr-2012 SAID35 WAPI 280600 METAR WAPI 280600Z 14004KT 8000 5SC RA BKN010 26/25 Q1009 NCS=  
28-Apr-2012 SAID35 WAPI 281500 METAR WAPI 281500 14010KT 9999 BKN018CU 26/24 Q1011 NSC=  
28-Apr-2012 SAID35 WAPI 281800 METAR WAPI 281800 14006KT 9999 BKN018CU 26/24 Q1009 NSC=  
28-Apr-2012 SAID35 WAPI 282100 METAR WAPI 282100 15005KT 9999 BKN018CU 27/24 Q1010 NSC=  
28-Apr-2012 SAID35 WAPI 282200 METAR WAPI 282200 15005KT 9999 SCT012SC 27/24 Q1010 NSC=  
28-Apr-2012 SAID35 WAPI 282300 METAR WAPI 282300Z 14005KT 9999 SC4SCT018 27/23 Q1011NSC=  
29-Apr-2012 SAID35 WAPI 290000 METAR WAPI 290000Z 13004KT 9999 CU3SCT018 27/23 Q1011NSC=  
29-Apr-2012 SAID35 WAPI 290100 METAR WAPI 290100Z 13004KT 9999 2CU FEW018 28/23 Q1011 NCS=  
29-Apr-2012 SAID35 WAPI 290200 METAR WAPI 290200Z 12007KT 9999 2CU FEW018 28/23 Q1011 NCS=  
29-Apr-2012 SAID35 WAPI 290300 METAR WAPI 290300Z 13006KT 9999 4SC SCT018 29/23 Q1010 NCS=  
29-Apr-2012 SAID35 WAPI 290400 METAR WAPI 290400Z 11006KT 9999 3SE SCT018 29/23 Q1009 NCS=  
29-Apr-2012 SAID35 WAPI 290500 METAR WAPI 290500Z 10008KT 9999 2CU FEW018 29/23 Q1008 NCS=  
29-Apr-2012 SAID35 WAPI 290600 METAR WAPI 290600Z 11006KT 9999 2CU FEW018 29/23 Q1008 NCS=  
29-Apr-2012 SAID35 WAPI 290900 METAR WAPI 290900 Z 12003 KT 9999 FEW 018 28/23 Q1009 NSC=  
29-Apr-2012 SAID35 WAPI 291200 METAR WAPI 291200 Z 15003 KT 9999 FEW 018 27/24 Q1011 NSC=  
30-Apr-2012 SAID35 WAPI 300000 METAR WAPI 300000 14005KT 9999 BKN012SC 27/23 Q1012 NSC=  
30-Apr-2012 SAID35 WAPI 300400 METAR WAPI 300400 13004KT 9999 FEW07CU 29/23 Q1009 NSC=  
30-Apr-2012 SAID35 WAPI 300500 METAR WAPI 300500 14005KT 9999 FEW017CU 29/24 Q1009 NSC=  
30-Apr-2012 SAID35 WAPI 300600 METAR WAPI 300600 13006KT 9999 SCT017CU 29/23 Q1008 NSC=  
30-Apr-2012 SAID35 WAPI 301500 METAR WAPI 301500 Z 11006 KT 9999 SCT 018 27/24 Q1010 NSC=  
30-Apr-2012 SAID35 WAPI 301800 METAR WAPI 301800 Z 13006 KT 9999 BKN 018 27/24 Q1009 NSC=  
30-Apr-2012 SAID35 WAPI 302100 METAR WAPI 302100 Z 12006 KT 9999 BKN 018 27/24 Q1010 NSC=  
30-Apr-2012 SAID35 WAPI 302300 METAR WAPI 302300 11007KT 9999 FEW17CU 29/24 Q1011 NSC=  
01-May-2012 SAID35 WAPI 010000 METAR WAPI 010000Z 12008KT 9999 CU3SCT018 29/24 Q1011NSC=  
01-May-2012 SAID35 WAPI 010100 METAR WAPI 010100 13007KT 9999 FEW017CU 31/24 Q1011 NSC=  
01-May-2012 SAID35 WAPI 010300 METAR WAPI 010300 09008KT 9999 SCT018CU 31/23 Q1011 NSC=  
01-May-2012 SAID35 WAPI 010400 METAR WAPI 010400 10007 9999 FEW017 31/24 Q1010 NSC=  
01-May-2012 SAID35 WAPI 010500 METAR WAPI 010500Z 15008KT 9999 CU3SCT018 31/13 Q1009NSC=  
01-May-2012 SAID35 WAPI 010600 METAR WAPI 010600 13009KT 9999 FEW017CU 31/24 Q1008 NSC=  
01-May-2012 SAID35 WAPI 010900 METAR WAPI 010900 Z 15002 KT 9999 FEW 018 28/24 Q1009 NSC=  
01-May-2012 SAID35 WAPI 011200 METAR WAPI 011200 Z 15003 KT 9999 SCT 018 27/24 Q1011 NSC=  
01-May-2012 SAID35 WAPI 012300 METAR WAPI 012300Z 12006KT 9999 CU2 FEW018 29/26 Q1011NSC=  
02-May-2012 SAID35 WAPI 020000 METAR WAPI 020000Z 10008KT 9999 CB2 FEW018 30/25 Q1011NMSC=  
02-May-2012 SAID35 WAPI 020200 METAR WAPI 020200Z 08007KT 9999 2CU FEW018 31/26 Q1010 NCS=  
02-May-2012 SAID35 WAPI 020300 METAR WAPI 020300Z 09006KT 9999 2CU FEW018 31/26 Q1010 NCS=  
02-May-2012 SAID35 WAPI 020400 METAR WAPI 020400Z 10005KT 9999 2CU FEW018 31/29 Q1009 NCS=  
02-May-2012 SAID35 WAPI 020500 METAR WAPI 020500Z 10006KT 9999 3SC SCT018 31/25 Q1008 NCS=  
02-May-2012 SAID35 WAPI 020600 METAR WAPI 020600Z 08006KT 9999 4SC SCT018 31/25 Q1008 NCS=  
02-May-2012 SAID35 WAPI 020900 METAR WAPI 020900 16004KT 9999 SCT012SC 29/26 Q1009 NSC=  
02-May-2012 SAID35 WAPI 021200 METAR WAPI 021200 10008KT 8000 BKN010SC 28/25 Q1010 NSC=  
02-May-2012 SAID35 WAPI 021500 METAR WAPI 021500 Z 11004 KT RE RA BKN 010 26/25 Q1010=  
02-May-2012 SAID35 WAPI 021800 METAR WAPI 021800 Z16003 KT RE RA BKN 010 25/25 Q1008=  
02-May-2012 SAID35 WAPI 022100 METAR WAPI 022100 Z 11005 KT RE RA BKN 010 25/24 Q109=  
02-May-2012 SAID35 WAPI 022300 METAR WAPI 022300Z 12008KT 9999 CU/SC4 SCT010 26/25 Q1009=  
03-May-2012 SAID35 WAPI 030000 METAR WAPI 030000Z 08006KT 9999 CU/SC BKN010 27/25 Q1009=  
03-May-2012 SAID35 WAPI 030300 METAR WAPI 030300Z 05005KT 8000 CU/SC6 BKN010 25/24 Q1009=  
03-May-2012 SAID35 WAPI 030400 METAR WAPI 030400Z 09006KT 5000 6SC RA BKN010 256/24 Q1008 NCS=  
03-May-2012 SAID35 WAPI 030500 METAR WAPI 030500Z 08004KT 5000 6SC RA BKN010 Q1007 Q1007 NCS=  
03-May-2012 SAID35 WAPI 030600 METAR WAPI 030600Z 07005KT 7000 6SC RA BKN010 26/24 Q1007 NCS=  
03-May-2012 SAID35 WAPI 031500 METAR WAPI 031500 11015KT 9999 SCT010SC 26/24 Q1008 NSC=  
03-May-2012 SAID35 WAPI 031800 METAR WAPI 031800 09013KT 9999 SCT017CU 27/24 Q1007 NSC=  
03-May-2012 SAID35 WAPI 032100 WAPI 032100 07009KT 9999 BKN010SC 26/24 Q1008 NSC=  
03-May-2012 SAID35 WAPI 032300 METAR WAPI 032300Z 11010KT 9999 CU/SC5 BKN010 26/24 Q1008=  
04-May-2012 SAID35 WAPI 040000 METAR WAPI 040000Z 06009KT 4000 CU/SC6 BKN010 RA 27/25 Q1009=  
04-May-2012 SAID35 WAPI 040100 METAR WAPI 040100Z 45008KT 9999 4SC SCT016 26/24 Q1009 NCS=  
04-May-2012 SAID35 WAPI 040200 METAR WAPI 040200Z 42004KT 9999 4SC SCT015 26/25 Q1008 NCS=  
04-May-2012 SAID35 WAPI 040300 METAR WAPI 040300Z 08009KT 9999 4SC SCT015 28/25 Q1008 NCS=  
04-May-2012 SAID35 WAPI 040400 METAR WAPI 040400Z 10011KT 4000 6SC RA BKN018 25/24 Q1007 NCS=  
04-May-2012 SAID35 WAPI 040500 METAR WAPI 040500Z 11008KT 9999 5SC RA BKN015 27/26 Q1006 NCS=  
04-May-2012 SAID35 WAPI 040600 METAR WAPI 040600Z 11006KT 9999 5SC BKN015 27/25 Q1006 NCS=  
04-May-2012 SAID35 WAPI 041500 METAR WAPI 041500 Z 09006 KT 9999 BKN 018 27/24 Q 1009 NSC=  
04-May-2012 SAID35 WAPI 041800 METAR WAPI 041800 Z 12009 KT RE RA BKN 010 27/24 Q1007=  
04-May-2012 SAID35 WAPI 042100 METAR WAPI 042100 Z 09007 KT 9999 SCT 015 25/24 Q1009 NSC=  
05-May-2012 SAID35 WAPI 050000 METAR WAPI 050000Z 11007KT 9999 3CU SCT017 28/24 Q1009 NCS=  
05-May-2012 SAID35 WAPI 050100 METAR WAPI 050100Z 12008KT 9999 4SC SCT018 29/26 Q1009 NCS=  
05-May-2012 SAID35 WAPI 050200 METAR WAPI 050200Z 11008KT 9999 4CB SCT018 30/25 Q1009 NCS=  
05-May-2012 SAID35 WAPI 050300 METAR WAPI 050300Z 12008KT 9999 3CB SCT018 30/25 Q1008 NCS=  
05-May-2012 SAID35 WAPI 050400 METAR WAPI 050400 14012KT 9999 SCT018CU 31/25 Q1008 NSC=  
05-May-2012 SAID35 WAPI 050500 METAR WAPI 050500 12006KT RAIN BKN010SC 28/26 Q1007=  
05-May-2012 SAID35 WAPI 050600 METAR WAPI 050600 13012KT 9999 SCT018CU 30/25 Q1007 NSC=  
05-May-2012 SAID35 WAPI 051500 METAR WAPI 051500 Z 12005 KT 9999 SCT 015 56/24 Q 1009 NSC=  
05-May-2012 SAID35 WAPI 052100 METAR WAPI 052100 Z 14003 KT RE RA BKN 010 25/24 Q1009=  
05-May-2012 SAID35 WAPI 052300 METAR WAPI 052300 19005KT 8000 BKN010SC 25/24 Q1010 NSC=  
06-May-2012 SAID35 WAPI 060000 METAR WAPI 06000 15005KT 9999 BKN010SC 25/25 Q1010 NSC=  
06-May-2012 SAID35 WAPI 060300 METAR WAPI 060300Z 11008KT 6000 BKN010 SC 26/25 Q1009NSC=  
06-May-2012 SAID35 WAPI 060400 METAR WAPI 060400 12010KT 9999 BKN010SC 26/25 Q 1008=  
06-May-2012 SAID35 WAPI 060500 METAR WAPI 060500 08006KT 9999 BKN010SC 26/25 Q1007=  
06-May-2012 SAID35 WAPI 060600 WAPI 060600 08008KT 9999 BKN010SC 26/25 Q1007=  
06-May-2012 SAID35 WAPI 060900 METAR WAPI 060900 Z 07018 KT 9999 BKN 013 27/25 Q1008 NSC=  
06-May-2012 SAID35 WAPI 061200 METAR WAPI 061200 Z 07007 KT 9999 SCT 015 26/25 Q1009 NSC=  
06-May-2012 SAID35 WAPI 062300 METAR WAPI 062300Z 05004KT 9999 3CU SCT018 28/25 Q1009 NCS=  
07-May-2012 SAID35 WAPI 070000 METAR WAPI 070000Z 05004KT 9999 3CU SCT018 28/25 Q1009 NCS=  
07-May-2012 SAID35 WAPI 070100 METAR WAPI 070100Z 07006KT 9999 4SC SCT017 30/26 Q1009 NCS=  
07-May-2012 SAID35 WAPI 070200 METAR WAPI 070200Z 08007KT 9999 5CB BKN015 28/26 Q1009 NCS=  
07-May-2012 SAID35 WAPI 070300 METAR WAPI 070300Z 12006KT 6000 BKN010 RA 25/23 Q1009=  
07-May-2012 SAID35 WAPI 070400 METAR WAPI 070400Z 06004KT 6000 6SC RA BKN010 25/23 Q1008 NCS=  
07-May-2012 SAID35 WAPI 070500 METAR WAPI 070500Z 7000 6SC RA BKN010 25/24 Q1008 NCS=  
07-May-2012 SAID35 WAPI 070600 METAR WAPI 070600Z 0903KT 8000 6SC RA BKN010 25/24 Q1007 NCS=  
07-May-2012 SAID35 WAPI 070900 METAR WAPI 070900 07007KT 9999 BKN012SC 25/24 Q1006=  
07-May-2012 SAID35 WAPI 071400 METAR WAPI 071400 05007KT 3000 INTERSLRA BKN010SC 26/25 Q1008=  
07-May-2012 SAID35 WAPI 071500 METAR WAPI 071500 Z 06012 KT RE RA BKN 010 25/24 Q1005 NSC=  
07-May-2012 SAID35 WAPI 071800 METAR WAPI 071800 Z 08007 KT RE RA BKN 010 25/24 Q1006=  
07-May-2012 SAID35 WAPI 072300 METAR WAPI 072300Z 00405KT 9999 SCT016 CB 26/24 Q1008=  
08-May-2012 SAID35 WAPI 080100 METAR WAPI 080100Z 07008KT 9999 3SC SCT017 27/25 Q1008 NCS=  
08-May-2012 SAID35 WAPI 080200 METAR WAPI 080200Z 08006KT 9999 4SC SCT018 29/25 Q1008=  
08-May-2012 SAID35 WAPI 080300 METAR WAPI 080300Z 06007KT 9999 SCT016 30/25 Q1007=  
08-May-2012 SAID35 WAPI 080400 METAR WAPI 080400Z 34018KT 9999 5SC BKN015 27/24 Q1007 NCS=  
08-May-2012 SAID35 WAPI 080500 METAR WAPI 080500Z 35016KT 9999 5SC BKN015 27/24 Q1006 NCS=  
08-May-2012 SAID35 WAPI 080600 METAR WAPI 080600Z 34014KT 9999 4SC SCT017 27/24 Q1006 NCS=  
08-May-2012 SAID35 WAPI 081600 METAR WAPI 081600 01007KT 3000 CSMODRA BKN010SC 25/24 Q1009=  
08-May-2012 SAID35 WAPI 081800 METAR WAPI 081800 02005KT 6000 BKN010SC 24/24 Q1009=  
08-May-2012 SAID35 WAPI 082100 METAR WAPI 082100 35006KT 5000 TS BKN010CB 24/23 Q1010=  
09-May-2012 SAID35 WAPI 090000 METAR WAPI 090000Z 05003KT 9999 BKN015 24/23 Q1010=  
09-May-2012 SAID35 WAPI 090100 METAR WAPI 090100Z 04004KT 9999 3SC SCT017 25/24 Q1011=  
09-May-2012 SAID35 WAPI 090200 METAR WAPI 090200Z 349006KT 9999 3SC SCT017 26/25 Q1010NCS=  
09-May-2012 SAID35 WAPI 090300 METAR WAPI 090300Z 26002KT 9999 5SC BKN015 27/25 Q1010NCS=  
09-May-2012 SAID35 WAPI 090400 METAR WAPI 090400Z 25006KT 9999 5SC BKN015 27/25 Q1010 NCS=  
09-May-2012 SAID35 WAPI 090600 METAR WAPI 090600Z 34006KT 7000 6SC RA BKN010 25/24 Q1010 NCS=  
09-May-2012 SAID35 WAPI 090900 METAR WAPI 090900 Z 00000KT 9999 SCT 018 25/24 Q1010 NSC=  
09-May-2012 SAID35 WAPI 091200 METAR WAPI 091200 Z 11006 KT 9999 SCT 013 26/25 Q1012 NSC=  
09-May-2012 SAID35 WAPI 092300 METAR WAPI 092300 05008KT 9999 SCT017CU 27/24 Q1011=  
10-May-2012 SAID35 WAPI 100000 METAR WAPI 100000 06012KT 9999 SCT018CU 28/25 Q1011=  
10-May-2012 SAID35 WAPI 100100 METAR WAPI 100100 05015KT 9999 SCT017SC 29/25 Q1011=  
10-May-2012 SAID35 WAPI 100200 METAR WAPI 100200 09012KT 9999 SCT017SC 29/25 Q1011=  
10-May-2012 SAID35 WAPI 100300 METAR WAPI 100300 05012KT 9999 BKN018CU 30/25 Q 1011=  
10-May-2012 SAID35 WAPI 100400 METAR WAPI 100400Z 07010KT 9999 3SC SCT018 30/25 Q1009 NCS=  
10-May-2012 SAID35 WAPI 100500 METAR WAPI 100500Z 09008KT 9999 3CU SCT018 30/24 Q1009 NCS=  
10-May-2012 SAID35 WAPI 100600 METAR WAPI 100600Z 09010KT 9999 3CU SCT018 29/24 Q1008 NCS=  
10-May-2012 SAID35 WAPI 100900 METAR WAPI 100900 Z 09006 KT 9999 BKN 018 27/24 Q1009=  
10-May-2012 SAID35 WAPI 101500 METAR WAPI 101500 Z 00000 KT 9999 SCT018 26/24 Q1011 NSC=  
10-May-2012 SAID35 WAPI 102100 METAR WAPI 102100 Z 10003 KT 9999 BKN 018 26/24 Q1010=  
10-May-2012 SAID35 WAPI 102300 METAR WAPI 102300 10006KT 9999 SCT018CU 27/25 Q1010 NSC=  
11-May-2012 SAID35 WAPI 110000 METAR WAPI 110000Z 11005KT 9999 FEW018 28/25 Q1010NSC=  
11-May-2012 SAID35 WAPI 110200 METAR WAPI 110200 09010KT 9999 BKN012SC 29/26 Q1010 NSC=  
11-May-2012 SAID35 WAPI 110300 METAR WAPI 110300 08010KT 5000 RA BKN010SC 27/25 Q1010=  
11-May-2012 SAID35 WAPI 110400 METAR WAPI 110400 11018KT 9999 BKN012SC 28/25 Q1009=  
11-May-2012 SAID35 WAPI 110500 METAR WAPI 110500 12011KT 9999 SCT012SC 29/25 Q1009=  
11-May-2012 SAID35 WAPI 110600 METAR WAPI 110600 10008KT 9999 SCT018CU 28/24 Q1008 NSC=  
11-May-2012 SAID35 WAPI 111200 METAR WAPI 111200 Z 10004 9999 SCT 018 26/24 Q1010=  
11-May-2012 SAID35 WAPI 112300 METAR WAPI 112300Z 10006KT 7000 5SC RA BKN010 25/24 Q1010 NCS=  
12-May-2012 SAID35 WAPI 120000 METAR WAPI 120000 11003KT 8000 RA OVC000 25/24 Q1010=  
12-May-2012 SAID35 WAPI 121200 METAR WAPI 121200 10008KT BKN012SC 26/24 Q1009=  
13-May-2012 SAID35 WAPI 130000 METAR WAPI 130000Z 12004KT 9999 BKN010 28/25 Q1010=  
13-May-2012 SAID35 WAPI 130300 METAR WAPI 130300Z 10006KT 9999 4CB SCT017 29/25 Q1009 NCS=  
13-May-2012 SAID35 WAPI 130400 METAR WAPI 130400Z 14004KT 9999 4CB SCT017 28/25 Q1008 NCS=  
13-May-2012 SAID35 WAPI 130500 METAR WAPI 130500Z 10005KT 8000 5CB RA BKN010 26/24 Q1008 NCS=  
13-May-2012 SAID35 WAPI 130600 METAR WAPI 130600Z 11003KT 9999 5SC BKN017 27/25 Q1007 NCS=  
13-May-2012 SAID35 WAPI 131500 METAR WAPI 131500 10007KT 9999 SCT018CU 27/25 Q1009 NSC=  
13-May-2012 SAID35 WAPI 131800 METAR WAPI 131800 09008KT 9999 BKN018CU 27/25 Q1008 NSC=  
13-May-2012 SAID35 WAPI 132100 METAR WAPI 132100 13006KT 9999 SCT012SC 26/24 Q1009 NSC=  
13-May-2012 SAID35 WAPI 132300 METAR WAPI 132300Z 11006 9999 SCT015 26/24 Q1010=  
14-May-2012 SAID35 WAPI 140000 METAR WAPI 05134 97900 12007KT 8000 BKN010 26/25 Q1011=  
14-May-2012 SAID35 WAPI 140300 METAR WAPI 140300Z 12008KT 9999 BKN010 26/25 Q1010=  
14-May-2012 SAID35 WAPI 140400 METAR WAPI 140400Z 13008KT 9999 4SC SCT017 27/25 Q1009 NCS=  
14-May-2012 SAID35 WAPI 140500 METAR WAPI 140500Z 14006KT 4000 6SC RA BKN010 26/24 Q1009 NCS=  
14-May-2012 SAID35 WAPI 140600 METAR WAPI 140600Z 12010KT 2000 6SC RA BKN010 26/25 Q1009 NCS=  
14-May-2012 SAID35 WAPI 140900 METAR WAPI 140900 Z 08004 KT RE RA BKN 010 25/25 Q1009=  
14-May-2012 SAID35 WAPI 142300 METAR WAPI 142300Z 07003KT 9999 4SC SCT017 26/25 Q1010 NCS=  
15-May-2012 SAID35 WAPI 150000 METAR WAPI 150000Z 11004KT 9999 4SC SCT017 28/25 Q1011 NCS=  
15-May-2012 SAID35 WAPI 150100 METAR WAPI 150100Z 10006KT 9999 5CU BKN018 30/25 Q1011 NCS=  
15-May-2012 SAID35 WAPI 150200 METAR WAPI 150200Z 12006KT 9999 6SC BKN018 30/25 Q1010 NCS=  
15-May-2012 SAID35 WAPI 150300 METAR WAPI 150300 09012KT 9999 BKN010SC 29/25 Q1010=  
15-May-2012 SAID35 WAPI 150400 METAR WAPI 150400 11008KT 9999 SCT012SC 30/25 Q1009=  
15-May-2012 SAID35 WAPI 150500 METAR WAPI 150500 35008KT 3000 RAIN BKN010SC 28/24 Q1009=  
15-May-2012 SAID35 WAPI 150600 METAR WAPI 150600 03005KT 2000 RAIN BKN010SC 24/23 Q1010=  
15-May-2012 SAID35 WAPI 151500 METAR WAPI 151500 Z 00000 KT 9999 SCT 015 24/23 Q1010 NSC=  
15-May-2012 SAID35 WAPI 152100 METAR WAPI 152100 Z 09005 KT 9999 SCT017 25/23 Q1009 NSC=  
16-May-2012 SAID35 WAPI 160000 METAR WAPI 160000Z 12008KT 9999 SCT017 27/25 Q1010=  
16-May-2012 SAID35 WAPI 160300 METAR WAPI 160300 13012KT 9999 SCT015SC 30/25 Q 1010 NSC=  
16-May-2012 SAID35 WAPI 160500 METAR WAPI 160500 12019KT 9999 SCT017CU 29/25 Q1008 NSC=  
16-May-2012 SAID35 WAPI 160900 METAR WAPI 160900 Z 10008 KT 9999 BKN 017 26/24 Q1009 NSC=  
16-May-2012 SAID35 WAPI 162300 METAR WAPI 162300Z 13006KT 9999 BKN018 28/24 Q1011=  
17-May-2012 SAID35 WAPI 170000 METAR WAPI 170000Z 12008KT 9999 BKN018 28/24 Q1012=  
17-May-2012 SAID35 WAPI 170100 METAR WAPI 170100Z 12008KT 9999 BKN018 28/24 Q1012=  
17-May-2012 SAID35 WAPI 170200 METAR WAPI 170200Z 13012KT 9999 SCT018 30/24 Q1011=  
17-May-2012 SAID35 WAPI 170300 METAR WAPI 170300Z 12007KT SCT018 29/24 Q1010=  
17-May-2012 SAID35 WAPI 170400 METAR WAPI 170400Z 14006KT 9999 4SC SCT018 29/24 Q1010 NCS=  
17-May-2012 SAID35 WAPI 170500 METAR WAPI 170500Z 13005KT 9999 4SC SCT018 29/24 Q1009 NCS=  
17-May-2012 SAID35 WAPI 170600 METAR WAPI 170600Z 14010KT 9999 4SC SCT018 29/24 Q1008 NCS=  
17-May-2012 SAID35 WAPI 170800 METAR WAPI 170800 12010KT 9999 SCT018CU 28/24 Q1009 NSC=  
17-May-2012 SAID35 WAPI 170900 METAR WAPI 170900 13008KT 9999 SCT018CU 27/23 Q1009 NSC=  
17-May-2012 SAID35 WAPI 171000 METAR WAPI 171000 10006KT 9999 BKN015CU 27/23 Q1010 NSC=  
17-May-2012 SAID35 WAPI 171100 METAR WAPI 171100 14006KT 9999 SCT018CU 27/23 Q1011 NSC=  
17-May-2012 SAID35 WAPI 171200 METAR WAPI 171200 13006KT 9999 SCT018CU 27/23 Q1011 NSC=  
17-May-2012 SAID35 WAPI 171400 METAR WAPI 171400 15005KT 9999 SCT018CU 27/23 Q1011 NSC=  
17-May-2012 SAID35 WAPI 171500 METAR WAPI 171500 Z 14004 KT 9999 SCT 018 27/23 Q1012=  
17-May-2012 SAID35 WAPI 171800 METAR WAPI 171800 Z 14004 Z KT 9999 SCT 018 26/23 Q1010 NSC=  
17-May-2012 SAID35 WAPI 172100 METAR WAPI 172100 Z 13007 KT 9999 SCT 018 26/23 Q1007=  
17-May-2012 SAID35 WAPI 172300 METAR WAPI 172300Z 12008KT 9999 FEW018 28/22 Q1011=  
18-May-2012 SAID35 WAPI 180000 METAR WAPI 180000Z 11009KT 9999 FEW018 29/23 Q1012=  
18-May-2012 SAID35 WAPI 180300 METAR WAPI 180300Z 12007KT 9999 FEW018 30/22 Q01011=  
18-May-2012 SAID35 WAPI 180400 METAR WAPI 180400Z 13007KT 9999 4CU SCT018 31/24 Q1010 NCS=  
18-May-2012 SAID35 WAPI 180500 METAR WAPI 180500Z 12006KT 9999 4CU SCT018 31/24 Q1010 NCS=  
18-May-2012 SAID35 WAPI 180600 METAR WAPI 180600Z 11005KT 9999 3CU SCT018 30/24 Q1010 NCS=  
18-May-2012 SAID35 WAPI 181500 METAR WAPI 181500 12005KT 9999 SCT017CU 27/24 Q1012 NSC=  
18-May-2012 SAID35 WAPI 181800 METAR WAPI 181800 13004KT 9999 FEW018CU 26/24 Q1010 NSC=  
18-May-2012 SAID35 WAPI 182100 METAR WAPI 182100 16007KT 9999 BKN012SC 26/24 Q1010 NSC=  
18-May-2012 SAID35 WAPI 182200 METAR WAPI 182200 17010KT 9999 BKN012SC 26/23 Q1011 NSC=  
19-May-2012 SAID35 WAPI 190000 METAR WAPI 190000Z 20004KT 9999 BKN015 26/251011=  
19-May-2012 SAID35 WAPI 191200 METAR WAPI 191200 Z 17003 KT RE RA BKN 010 24/24 Q1013=  
20-May-2012 SAID35 WAPI 200000 METAR WAPI 200000 11006KT 9999 BKN010SC 24/22 Q 1011=  
20-May-2012 SAID35 WAPI 200100 METAR WAPI 200100 07010KT 9999 FEW012SC 25/53 Q1011=  
20-May-2012 SAID35 WAPI 200200 METAR WAPI 200200 09012KT 9999 FEW012SC 27/24 Q1011=  
20-May-2012 SAID35 WAPI 200300 METAR WAPI 200300 10016KT 9999 SCT015CU 28/24 Q1010 NSC=  
20-May-2012 SAID35 WAPI 200400 METAR WAPI 200400 13010KT 9999 SCT012 28/24 Q10009 NSC=  
20-May-2012 SAID35 WAPI 200500 METAR WAPI 200500Z 11008KT 9999 4SC SCT018 28/23 Q1008 NCS=  
20-May-2012 SAID35 WAPI 200600 METAR WAPI 200600Z 12010KT 9999 4SC SCT018 29/24 Q1007 NCS=  
20-May-2012 SAID35 WAPI 201500 METAR WAPI 201500 Z 08006 KT 9999 SCT015 26/23 Q1010 NSC=  
20-May-2012 SAID35 WAPI 202100 METAR WAPI 202100 Z 08013 KT 9999 BKN015 26/23 Q1009=  
20-May-2012 SAID35 WAPI 202300 METAR WAPI 202300Z 11009KT 9999 SCT018 28/23 Q1010NSC=  
21-May-2012 SAID35 WAPI 210000 METAR WAPI 210000Z 11011KT 9999 FEW018 29/23 Q1010NSC=  
21-May-2012 SAID35 WAPI 210200 METAR WAPI 210200 10006KT 9999 SCT018CU 30/23 Q 1010 NSC=  
21-May-2012 SAID35 WAPI 210300 METAR WAPI 210300 11010KT 9999 SCT018CU 30/24 Q1009 NSC=  
21-May-2012 SAID35 WAPI 210400 METAR WAPI 210400Z 12010KT 9999 SCT018 30/23 Q1008NSC=  
21-May-2012 SAID35 WAPI 210600 METAR WAPI 210600 09014KT 9999 SCT018CU 30/23 Q1007 NSC=  
21-May-2012 SAID35 WAPI 210900 METAR WAPI 210900 Z 12008 KT 9999 SCT 018 28/22 Q1008=  
21-May-2012 SAID35 WAPI 211200 METAR WAPI 211200 Z 13020 KT 9999 BKN 018 27/22 Q1011 NSC=  
21-May-2012 SAID35 WAPI 212300 METAR WAPI 212300Z 12010 9999 FEW018 27/22 Q1010NSC=  
22-May-2012 SAID35 WAPI 220000 METAR WAPI 220000Z 12007KT 9999 FEW018 29/22 Q1010NSC=  
22-May-2012 SAID35 WAPI 220100 METAR WAPI 220100Z 12010KT 9999 1CU FEW018 29/20 Q1011 NCS=  
22-May-2012 SAID35 WAPI 220200 METAR WAPI 220200Z 13010KT 9999 1CU FEW018 30/21 Q1010 NCS=  
22-May-2012 SAID35 WAPI 220300 METAR WAPI 220300Z 10008KT 9999 1CU FEW018 30/21 Q1010 NCS=  
22-May-2012 SAID35 WAPI 220400 METAR WAPI 220400Z 12010KT 9999 1CU FEW018 30/20 Q1009 NCS=  
22-May-2012 SAID35 WAPI 220500 METAR WAPI 220500Z 12006KT 9999 1CU FEW018 29/20 Q1009 NCS=  
22-May-2012 SAID35 WAPI 220600 METAR WAPI 220600Z 12008KT 9999 1CU FEW018 30/21 Q1008 NCS=  
22-May-2012 SAID35 WAPI 220700 METAR WAPI 220700 10012KT 9999 FEW018CU 29/21 Q1009 NSC=  
22-May-2012 SAID35 WAPI 220800 METAR WAPI 220800 13007KT 9999 SCT018CU 29/22 Q1009 NSC=  
22-May-2012 SAID35 WAPI 220900 METAR WAPI 220900 15005KT 9999 SCT018CU 28/22 Q 1009 NSC=  
22-May-2012 SAID35 WAPI 221200 METAR WAPI 221200 09004KT 9999 SCT018CU 27/23 Q1011 NSC=  
22-May-2012 SAID35 WAPI 221300 METAR WAPI 221300 12006KT 9999 FEW015CU 27/23 Q1011 NSC=  
22-May-2012 SAID35 WAPI 221400 METAR WAPI 221400 10004KT 9999 FEW015CU 26/23 1011 NSC=  
22-May-2012 SAID35 WAPI 221500 METAR WAPI 221500 Z 11003 KT 9999 SCT 018 26/23 Q1011=  
22-May-2012 SAID35 WAPI 222100 METAR WAPI 222100 Z 15004 KT 9999 SCT 018 26/24 Q1009 NSC=  
22-May-2012 SAID35 WAPI 222300 METAR WAPI 222300Z 13007KT 4000 BKN010 25/24 Q1010=  
23-May-2012 SAID35 WAPI 230000 METAR WAPI 230000Z 17004KT 6000 BKN010 26/25 Q1010=  
23-May-2012 SAID35 WAPI 230100 METAR WAPI 230100Z 13006KT 10000 5SC RA BKN017 26/24 Q1010 NCS=  
23-May-2012 SAID35 WAPI 230300 METAR WAPI 230300Z 13009KT 9999 FEW018 29/25 Q1009=  
23-May-2012 SAID35 WAPI 230400 METAR WAPI 230400Z 12010KT 9999 3CU SCT018 29/25 Q1008 NCS=  
23-May-2012 SAID35 WAPI 230500 METAR WAPI 230500Z 14012KT 9999 3CU SCT018 29/24 Q1008 NCS=  
23-May-2012 SAID35 WAPI 230600 METAR WAPI 230600Z 13012KT 9999 5SC BKN017 28/25 Q1007 NCS=  
23-May-2012 SAID35 WAPI 230900 METAR WAPI 230900Z 14006KT 9999 BKN017 27/24 Q1008 NOSIC=  
23-May-2012 SAID35 WAPI 231200 METAR WAPI 231200Z 11006KT 9999 OVC010 27/26 Q10096=  
23-May-2012 SAID35 WAPI 231500 METAR WAPI 231500Z 13005KT 9999 OVC010 27/25 Q10092 NOSIC=  
23-May-2012 SAID35 WAPI 231600 METAR WAPI 231600 12010KT BKN015SC 26/24 Q1009=  
23-May-2012 SAID35 WAPI 231700 METAR WAPI 231700 10008KT5 9999 SCT015 26/23 Q1008=  
23-May-2012 SAID35 WAPI 231800 METAR WAPI 231800 09004KT 9999 BKN015SC 26/24 Q1008 NSC=  
23-May-2012 SAID35 WAPI 231900 METAR WAPI 231900 15005KT 9999 FEW015CU 25/23 Q1008 NSC=  
23-May-2012 SAID35 WAPI 232100 METAR WAPI 232100 10005KT 9999 RA SCT015SC 25/24 Q1009=  
23-May-2012 SAID35 WAPI 232200 METAR WAPI 232200 08006 9999 FEW015SC 25/24 Q1009 NSC=  
23-May-2012 SAID35 WAPI 232300 METAR WAPI 232300Z 09003KT 9999 SCT017 26/25 Q1009=  
24-May-2012 SAID35 WAPI 240000 METAR WAPI 240000Z 08005KT 9999 SCT018 27/25 Q1010=  
24-May-2012 SAID35 WAPI 240100 METAR WAPI 240100Z 11006KT 9999 3CU SCT018 28/24 Q1010 NCS=  
24-May-2012 SAID35 WAPI 240200 METAR WAPI 240200Z 10008KT 9999 2CU FEW018 29/24 Q1010 NCS=  
24-May-2012 SAID35 WAPI 240300 METAR WAPI 240300Z 11005KT 9999 2CU FEW018 30/23 Q1009 NCS=  
24-May-2012 SAID35 WAPI 240400 METAR WAPI 240400Z 10006KT 9999 2CU FEW018 29/24 Q1009 NCS=  
24-May-2012 SAID35 WAPI 240500 METAR WAPI 240500Z 13008KT 9999 2CU FEW018 29/24 Q1008 NCS=  
24-May-2012 SAID35 WAPI 240600 METAR WAPI 240600Z 12004KT 9999 3SC SCT018 29/25 Q1007 NCS=  
24-May-2012 SAID35 WAPI 240900 METAR WAPI 240900 Z 14002 KT 9999 BKN 015 27/25 Q1009 NSC=  
24-May-2012 SAID35 WAPI 241200 METAR WAPI 241200 Z 12002 KT RE RA BKN 010 25/24 Q1010=  
24-May-2012 SAID35 WAPI 241500 METAR WAPI 241500Z 14002KT 9999 BKN010 26/24 Q1010 NOSIC=  
24-May-2012 SAID35 WAPI 242100 METAR WAPI 242100Z 13004KT 9999 BKN010 26/24 Q1009 NOSIC=  
25-May-2012 SAID35 WAPI 250000 METAR WAPI 250000 08010KT 9999 SCT018SC 28/25 Q 1011 NSC=  
25-May-2012 SAID35 WAPI 250200 METAR WAPI 250200Z 11007KT 9999 4SC SCT018 29/25 Q1010 NCS=  
25-May-2012 SAID35 WAPI 250300 METAR WAPI 250300Z 09008KT 9999 5SC BKN018 28/24 Q1010 NCS=  
25-May-2012 SAID35 WAPI 250400 METAR WAPI 250400 10015KT 9999 BKN012SC 218/24 Q1010=  
25-May-2012 SAID35 WAPI 250500 METAR WAPI 250500 12017KT 9999 BKN012SC 27/24 Q1009=  
25-May-2012 SAID35 WAPI 250600 METAR WAPI 250600Z 13018KT 9999 5SC BKN017 27/23 Q1009 NCS=  
25-May-2012 SAID35 WAPI 251500 METAR WAPI 251500 Z 11019 KT 9999 BKN 015 26/23 Q1012 NSC=  
25-May-2012 SAID35 WAPI 251800 METAR WAPI 251800 Z 13021 KT 9999 BKN 018 26/23 Q1011 NSC=  
25-May-2012 SAID54 WAPI 251800 METAR WAPI 251800 Z 13021 KT 9999 BKN 015 26/23 Q1011 NSC=  
26-May-2012 SAID35 WAPI 261200 METAR WAPI 261200 Z 13010 KT 9999 BKN 012 26/24 Q1013=  
26-May-2012 SAID35 WAPI 261500 METAR WAPI 261500Z 14007KT 9999 SCT015 26/24 Q1011 NOSIC=  
26-May-2012 SAID35 WAPI 261800 METAR WAPI 261800Z 15007KT 9999 SCT015 26/23 Q1010 NOSIC=  
26-May-2012 SAID35 WAPI 262100 METAR WAPI 262100Z 15010 9999 BKN010 25/23 Q1010 NOSIC=  
26-May-2012 SAID35 WAPI 262300 METAR WAPI 262300Z 13008KT 9999 BKN010 26/23 Q1012=  
27-May-2012 SAID35 WAPI 270000 METAR WAPI 270000Z 14008KT 9999 BKN010 25/23 Q1012=  
27-May-2012 SAID35 WAPI 270100 METAR WAPI 270100Z 15008KT 9999 5SC BKN017 26/23 Q1012 NCS=  
27-May-2012 SAID35 WAPI 270300 METAR WAPI 270300Z 14007KT 9999 5SC BKN017 26/22 Q1011 NCS=  
27-May-2012 SAID35 WAPI 270500 METAR WAPI 270500Z 16005KT 9999 5SC BKN017 26/22 Q1009 NCS=  
27-May-2012 SAID35 WAPI 270600 METAR WAPI 270600Z 14010KT 9999 5SC BKN015 26/22 Q1009 NCS=  
27-May-2012 SAID35 WAPI 270800 METAR WAPI 270800 10009KT 9999 BKN015SC 26/22 Q 1009 NSC=  
27-May-2012 SAID35 WAPI 270900 METAR WAPI 270900 13006KT 9999 BKN015SC 26/22 Q1010=  
27-May-2012 SAID35 WAPI 271000 METAR WAPI 271000 13009 9999 BKN015SC 26/23 Q1011=  
27-May-2012 SAID35 WAPI 271100 METAR WAPI 271100 14010KT 9999 BKN015SC 26/23 Q1012=  
27-May-2012 SAID35 WAPI 271200 METAR WAPI 271200 09007KT 9999 BKN015SC 26/23 Q1012=  
27-May-2012 SAID35 WAPI 271300 METAR WAPI 271300 13007KT 8000 RA BKN015SC 25/23 Q1012=  
27-May-2012 SAID35 WAPI 271400 METAR WAPI 271400 12009KT 5000 RA BKN015SC 26/24 Q1012=  
27-May-2012 SAID35 WAPI 271500 METAR WAPI 271500 Z 13010 KT RE RA BKN 010 25/23 Q1012=  
27-May-2012 SAID35 WAPI 271800 METAR WAPI 271800 Z 14008 KT 9999 SCT 017 26/23 Q1011 NSC=  
27-May-2012 SAID35 WAPI 272100 METAR WAPI 272100 Z 15010 KT RE RA BKN 015 25/23 Q1011=  
27-May-2012 SAID35 WAPI 272300 METAR WAPI 272300Z 16010KT 9999 SCT015 26/23 Q1011=  
28-May-2012 SAID35 WAPI 280000 METAR WAPI 280000Z 15010KT 9999 SCT015 26/23 Q1012=  
28-May-2012 SAID35 WAPI 280100 METAR WAPI 280100Z 16006KT 9999 5SC BKN017 26/24 Q1011 NCS=  
28-May-2012 SAID35 WAPI 280200 METAR WAPI 280200Z 14008KT 9999 4SC SCT017 27/24 Q1011 NCS=  
28-May-2012 SAID35 WAPI 280300 METAR WAPI 280300Z 13007KT 9999 SCT015 27/23 Q1010=  
28-May-2012 SAID35 WAPI 280400 METAR WAPI 280400Z 14007KT 9999 SCT015 27/23 Q1009=  
28-May-2012 SAID35 WAPI 280500 METAR WAPI 280500Z 13008KT 9999 4SC SCT018 26/22 Q1009 NCS=  
28-May-2012 SAID35 WAPI 280600 METAR WAPI 280600Z 12008KT 9999 4SC SCT017 27/22 Q1008 NCS=  
28-May-2012 SAID35 WAPI 281200 METAR WAPI 281200Z 12007KT 9999 BKN016 26/22 Q1011 NOSIC=  
28-May-2012 SAID35 WAPI 281500 METAR WAPI 281500 12005KT 9999 BKN015SC 26/24 Q1010=  
28-May-2012 SAID35 WAPI 281600 METAR WAPI 281600 14005KT 9999 SCT057SC 25/24 Q1010=  
28-May-2012 SAID35 WAPI 281700 METAR WAPI 281700 15010KT 9999 SCT015SC 26/24 Q1010=  
28-May-2012 SAID35 WAPI 281800 METAR WAPI 281800 12012KT 9999 SCT015SC 26/24 Q 1009=  
28-May-2012 SAID35 WAPI 281900 METAR WAPI 281900 15011KT 9999 BKN015SC 26/23 Q1009=  
28-May-2012 SAID35 WAPI 282100 METAR WAPI 282100 13008KT 9999 BKN015SC 26/23 Q1010=  
28-May-2012 SAID35 WAPI 282200 METAR WAPI 282200 17008KT 9999 BKN015SC 26/23 Q1010=  
28-May-2012 SAID35 WAPI 282300 METAR WAPI 282300Z 15008KT 9999 BKN016 27/23 Q1010=  
29-May-2012 SAID35 WAPI 290000 METAR WAPI 290000Z 14010KT 9999 SCT016 26/24 Q1011=  
29-May-2012 SAID35 WAPI 290100 METAR WAPI 290100Z 14009KT 9999 3SC SCT017 28/24 Q1010 NCS=  
29-May-2012 SAID35 WAPI 290200 METAR WAPI 290200Z 15012KT 10000 4SC RA SCT015 27/24 Q1010 NCS=  
29-May-2012 SAID35 WAPI 290300 METAR WAPI 290300Z 14007KT 9999 SCT012 26/24 Q1010=  
29-May-2012 SAID35 WAPI 290400 METAR WAPI 290400Z 15009KT 9999 4CU SCT018 28/24 Q1009 NCS=  
29-May-2012 SAID35 WAPI 290500 METAR WAPI 290500Z 14008KT 9999 4SC SCT017 28/23 Q1008 NCS=  
29-May-2012 SAID35 WAPI 290600 METAR WAPI 290600Z 13005KT 9999 4SC SCT018 27/23 Q1008 NCS=  
29-May-2012 SAID35 WAPI 290900 METAR WAPI 290900 Z 13005 KT 9999 SCT 015 26/23 Q1010=  
29-May-2012 SAID35 WAPI 291200 METAR WAPI 291200Z 14007KT 9999 BKN016 26/23 Q1011 NOSIC=  
29-May-2012 SAID35 WAPI 291500 METAR WAPI 29150 Z 14006 KT SCT 018 26/23 Q1011 NSC=  
29-May-2012 SAID35 WAPI 291800 METAR WAPI 291800 Z 14007 KT 9999 SCT 018 26/23 Q1009 NSC=  
29-May-2012 SAID35 WAPI 292100 METAR WAPI 292100Z 14006KTS 9999 BKN015 26/23 30071 40100 NOSIC=  
30-May-2012 SAID35 WAPI 300000 METAR WAPI 300000 13008KT 9999 BKN015SC 26/24 Q 1012=  
30-May-2012 SAID35 WAPI 300100 METAR WAPI 300100 13008KT 9999 BKN015SC 26/24 Q1011=  
30-May-2012 SAID35 WAPI 300200 METAR WAPI 300200 14012KT 9999 BKN015SC 27/24 Q1011=  
30-May-2012 SAID35 WAPI 300300 METAR WAPI 300300 15009KT 9999 BKN015SC 27/24 Q1010=  
30-May-2012 SAID35 WAPI 300400 METAR WAPI 300400 13010KT 9999 BKN015SC 28/25 28/25 Q1010=  
30-May-2012 SAID35 WAPI 300500 METAR WAPI 300500 14010KT 9999 SCT015SC 28/25 Q1008=  
30-May-2012 SAID35 WAPI 300600 METAR WAPI 300600 14011 9999 BKN015SC 28/25 Q1008=  
30-May-2012 SAID35 WAPI 300900 METAR WAPI 300900Z 13006KT 9999 BKN015 27/24 Q1009 NOSIC=  
30-May-2012 SAID35 WAPI 301200 METAR WAPI 301200Z 14005KT 9999 BKN015 29/23 Q1011 NOSIC-=  
30-May-2012 SAID35 WAPI 301500 METAR WAPI 301500 Z 15006 KT 9999 SCT 018 27/24 Q1011 NSC=  
30-May-2012 SAID35 WAPI 301800 METAR WAPI 301800 Z 15005 KT 9999 SCT 015 26/24 Q1009 NSC=  
30-May-2012 SAID35 WAPI 302100 METAR WAPI 302100 Z 15005 KT 9999 SCT 017 26/24 Q1010 NSC=  
30-May-2012 SAID35 WAPI 302300 METAR WAPI 302300 15005KT 9999 SCT017SC 27/24 Q1010 NSC=  
31-May-2012 SAID35 WAPI 310000 METAR WAPI 310000Z 14007KT 9999 BKN106 27/24 Q1011=  
31-May-2012 SAID35 WAPI 310200 METAR WAPI 310200 14008KT 9999 BKN018CU 29/24 Q1010 NSC=  
31-May-2012 SAID35 WAPI 310300 METAR WAPI 310300 15011KT 9999 SCT017SC SCT018CU 29/24 Q1010=  
31-May-2012 SAID35 WAPI 310600 METAR WAPI 310600 13013KT 9999 SCT017SC CST018CU 29/25 Q1008=  
31-May-2012 SAID35 WAPI 310900 METAR WAPI 310900 Z 14005 KT 9999 BKN 018 27/24 Q1009 NSC=  
31-May-2012 SAID35 WAPI 311200 METAR WAPI 311200 Z 15005 KT 9999 BKN 017 27/24 Q1010 NSC=  
31-May-2012 SAID35 WAPI 311500 METAR WAPI 311500Z 12005KT 9999 BKN010 26/25 Q1010 NOSIC=  
31-May-2012 SAID35 WAPI 311800 METAR WAPI 311800Z 15005KT 9999 BKN010 26/24 Q1009 NOSIC=  
31-May-2012 SAID35 WAPI 312100 METAR WAPI 312100Z 12007KT 9999 BKN010 25/24 Q1009 NOSIC=  
31-May-2012 SAID35 WAPI 312300 METAR WAPI 312300Z 11008KT 9999 SCT018 26/24 Q1010=  
01-Jun-2012 SAID35 WAPI 010000 METAR WAPI 010000Z 11007KT 9999 FEW018 28/24 Q1011=  
01-Jun-2012 SAID35 WAPI 010100 METAR WAPI 010100Z 12008KT 9999 4CU SCT018 29/25 Q1010 NCS=  
01-Jun-2012 SAID35 WAPI 010200 METAR WAPI 010200Z 13012KT 9999 6SC BKN018 29/25 Q1010 NCS=  
01-Jun-2012 SAID35 WAPI 010300 METAR WAPI 010300Z 12008KT 9999 6SC SCT018 30/25 Q1009 NCS=  
01-Jun-2012 SAID35 WAPI 010400 METAR WAPI 010400Z 11011KT 9999 4SC SCT018 29/25 Q1007 NCS=  
01-Jun-2012 SAID35 WAPI 010500 METAR WAPI 010500Z 13008KT 9999 4SC SCT018 29/25 Q1007 NCS=  
01-Jun-2012 SAID35 WAPI 010600 METAR WAPI 010600Z 10008KT 9999 5SC BKN018 29/25 Q1007 NCS=  
01-Jun-2012 SAID35 WAPI 012300 METAR WAPI 012300 14010KT 9999 SCT017SC 27/24 Q1009=  
02-Jun-2012 SAID35 WAPI 020000 METAR WAPI 020000 10012KT 9999 SCT017SC 27/25 Q1010=  
02-Jun-2012 SAID35 WAPI 020100 METAR WAPI 020100Z 11010KT 9999 3SC SCT018 28/25 Q1010 NCS=  
02-Jun-2012 SAID35 WAPI 020200 METAR WAPI 020200Z 13006KT 9999 2CU FEW018 29/24 Q1009 NCS=  
02-Jun-2012 SAID35 WAPI 020300 METAR WAPI 020300Z 11008KT 9999 SCT018 29/24 Q1009=  
02-Jun-2012 SAID35 WAPI 020400 METAR WAPI 020400Z 12010KT 9999 4SC SCT018 29/24 Q1008 NCS=  
02-Jun-2012 SAID35 WAPI 020500 METAR WAPI 020500Z 13006KT 9999 4SC SCT018 28/24 Q1008 NCS=  
02-Jun-2012 SAID35 WAPI 020600 METAR WAPI 020600Z 11008KT 9999 3CU SCT018 28/24 Q1007 NCS=  
03-Jun-2012 SAID35 WAPI 030000 METAR WAPI 030000Z 11008KT 9999 BKN018 28/23 Q1010 NOSIC=  
03-Jun-2012 SAID35 WAPI 030100 METAR WAPI 030100Z 12008KT 9999 BKN018 28/23 Q1010 NOSIC=  
03-Jun-2012 SAID35 WAPI 030200 METAR WAPI 030200Z 12011KT 9999 BKN018 29/24 Q1009 NOSIC=  
03-Jun-2012 SAID35 WAPI 030300 METAR WAPI 030300Z 12013KT 9999 BKN018 30/24 Q1009 NOSIC=  
03-Jun-2012 SAID35 WAPI 030500 METAR WAPI 030500Z 11012KT 9999 BKN018 29/25 Q1008 NOSIC=  
03-Jun-2012 SAID35 WAPI 030600 METAR WAPI 030600Z 11010KT 9999 BKN018 29/25 Q1007 NOSIC=  
03-Jun-2012 SAID35 WAPI 032300 METAR WAPI 032300Z 10009KT 9999 FEW018 27/22 Q1011=  
04-Jun-2012 SAID35 WAPI 040000 METAR WAPI 040000Z 11010KT 9999 SCT018 27/23 Q1011=  
04-Jun-2012 SAID35 WAPI 040100 METAR WAPI 040100Z 11009KT 9999 3CU SCT018 28/24 Q1011 NCS=  
04-Jun-2012 SAID35 WAPI 040200 METAR WAPI 040200Z 10014KT 9999 4SC SCT018 27/22 Q1011 NCS=  
04-Jun-2012 SAID35 WAPI 040300 METAR WAPI 040300Z 11012KT 9999 4SC SCT018 28/22 Q1011 NCS=  
04-Jun-2012 SAID35 WAPI 040400 METAR WAPI 040400Z 11011KT 9999 5CU BKN018 29/21 Q1010 NCS=  
04-Jun-2012 SAID35 WAPI 040600 METAR WAPI 040600Z 11012KT 9999 6SC BKN017 27/21 Q1009 NCS=  
04-Jun-2012 SAID35 WAPI 042300 METAR WAPI 042300 13007KT 9999 FEW018CU 25/20 Q1012=  
05-Jun-2012 SAID35 WAPI 050000 METAR WAPI 050000 15008KT 9999 SCT018CU 26/20 Q1012=  
05-Jun-2012 SAID35 WAPI 050100 METAR WAPI 050100 15008KT 9999 SCT018CU 27/21 Q1012=  
05-Jun-2012 SAID35 WAPI 050200 METAR WAPI 050200 14009KT SCT018CU 27/21 Q1012 NSC=  
05-Jun-2012 SAID35 WAPI 050300 METAR WAPI 050300 13012KT 9999 SCT018CU 28/21 Q1011 NSC=  
05-Jun-2012 SAID35 WAPI 050500 METAR WAPI 050500 15009KT 9999 BKN012SC 27/21 Q1009 NSC=  
05-Jun-2012 SAID35 WAPI 052300 METAR WAPI 052300 13012 BKN017SC 25/21 Q1011=  
06-Jun-2012 SAID35 WAPI 060000 METAR WAPI 060000 13008KT 9999 BKN017SC 26/21 Q1012=  
06-Jun-2012 SAID35 WAPI 060100 METAR WAPI 060100 12009KT 9999 SCT017SC 26/21 Q1012=  
06-Jun-2012 SAID35 WAPI 060200 METAR WAPI 060200 14013KT 9999 BKN017SC 27/22 Q1011=  
06-Jun-2012 SAID35 WAPI 060300 METAR WAPI 060300 15016KT 9999 BKN017SC 26/22 Q1011=  
06-Jun-2012 SAID35 WAPI 060400 METAR WAPI 060400 12017 9999 BKN017SC 27/21 Q1010=  
06-Jun-2012 SAID35 WAPI 060600 METAR WAPI 060600 13014KT 9999 BKN017SC 26/21 Q10089=  
07-Jun-2012 SAID35 WAPI 070000 METAR WAPI 070000 15007KT 9999 SCT0017CU 26/22 Q1012=  
07-Jun-2012 SAID35 WAPI 070100 METAR WAPI 070100 11010KT 9999 SCT017SC SCT018CU 28/22 Q1012=  
07-Jun-2012 SAID35 WAPI 070200 METAR WAPI 070200 15012KT 9999 SCT017 SCT0020 28/22 Q1011=  
07-Jun-2012 SAID35 WAPI 070300 METAR WAPI 070300 12009KT 9999 SCT018CU 29/22 Q1010=  
07-Jun-2012 SAID35 WAPI 070400 METAR WAPI 070400Z 11010KT 9999 BKN018 28/22 Q1010 NOSIC=  
07-Jun-2012 SAID35 WAPI 070500 METAR WAPI 070500Z 11010KT 9999 BKN018 29/23 Q1009 NOSIC=  
07-Jun-2012 SAID35 WAPI 070600 METAR WAPI 070600Z 11009KT 9999 BKN018 28/23 Q1009 NOSIC=  
07-Jun-2012 SAID35 WAPI 072300 METAR WAPI 072300Z 12006KT 9999 FEW018 26/21 Q1012=  
08-Jun-2012 SAID35 WAPI 080000 METAR WAPI 080000Z 11007KT 9999 FEW018 26/22 Q1013=  
08-Jun-2012 SAID35 WAPI 080100 METAR WAPI 080100Z 11008KT 9999 2CU FEW018 27/22 Q1013 NCS=  
08-Jun-2012 SAID35 WAPI 080200 METAR WAPI 080200Z 10010KT 9999 3SC SCT018 28/23 NCS=  
08-Jun-2012 SAID35 WAPI 080300 METAR WAPI 080300Z 11008KT 9999 3CU SCT018 29/23 Q1012 NCS=  
08-Jun-2012 SAID35 WAPI 080400 METAR WAPI 080400Z 12009KT 9999 SCT018 28/23 Q1011=  
08-Jun-2012 SAID35 WAPI 080500 METAR WAPI 080500Z 13006KT 9999 6CU BKN018 29/23 Q1010 NCS=  
08-Jun-2012 SAID35 WAPI 080600 METAR WAPI 080600Z 12008KT 9999 6SC BKN018 28/22 Q1010 NCS=  
09-Jun-2012 SAID35 WAPI 090000 METAR WAPI 090000 12006KT 9999 BKN017SC 26/23 Q1013=  
09-Jun-2012 SAID35 WAPI 090100 METAR WAPI 090100 13007KT 9999 SCT017SC 27/23 Q1013=  
09-Jun-2012 SAID35 WAPI 090200 METAR WAPI 090200 12013KT 9999 SCT017 28/23 Q1013=  
09-Jun-2012 SAID35 WAPI 090300 METAR WAPI 090300 13012KT 9999 BKN017SC 27/23 Q1012 NSC=  
09-Jun-2012 SAID35 WAPI 090400 METAR WAPI 090400 15011KT 9999 BKN017SC 27/23 Q1011 NSC=  
09-Jun-2012 SAID35 WAPI 090500 METAR WAPI 090500Z 13008KT 9999 BKN016 27/23 Q1011=  
09-Jun-2012 SAID35 WAPI 090600 METAR WAPI 090600Z 15006KT 9999 BKN016 26/22 Q1011=  
09-Jun-2012 SAID35 WAPI 092300 METAR WAPI 092300 13009KT 9999 SCT017SC 26/22 Q1012 NSC=  
10-Jun-2012 SAID35 WAPI 100000 METAR WAPI 100000Z 15009KT 9999 BKN018 26/22 Q1013=  
10-Jun-2012 SAID35 WAPI 100100 METAR WAPI 100100 15008KT 9999 SCT020CU 28/22 Q1013 NSC=  
10-Jun-2012 SAID35 WAPI 100200 METAR WAPI 100200 15010KT 9999 SCT017SC SCT018CU 28/22 Q21012 NSC=  
10-Jun-2012 SAID35 WAPI 100300 METAR WAPI 100300 14009KT 9999 FEW017SC SCT018CU 27/22 Q1011 NSC=  
10-Jun-2012 SAID35 WAPI 100500 METAR WAPI 100500Z 12007KT 9999 SCT018 29/22 Q1010NSC=  
10-Jun-2012 SAID35 WAPI 100600 METAR WAPI 100600Z 13007KT 9999 SCT018 28/21 Q1010NSC=  
10-Jun-2012 SAID35 WAPI 102300 METAR WAPI 102300 10007KT 9999 BKN018CU 26/20 Q1012 NSC=  
11-Jun-2012 SAID35 WAPI 110000 METAR WAPI 110000 10012KT 9999 FEW018CU 27/20 Q1012 NSC=  
11-Jun-2012 SAID35 WAPI 110100 METAR WAPI 110100 11010KT 9999 SCT020CU 28/20 Q1012 NSC=  
11-Jun-2012 SAID35 WAPI 110200 METAR WAPI 110200 12011KT 9999 SCT020CU 28/20 Q1012 NSC=  
11-Jun-2012 SAID35 WAPI 110300 METAR WAPI 110300 08014KT 9999 FEW017 29/20 Q1011 NSC=  
11-Jun-2012 SAID35 WAPI 110400 METAR WAPI 110400 10012KT 9999 SCT020CU 29/21 Q1010 NSC=  
11-Jun-2012 SAID35 WAPI 110500 METAR WAPI 110500 11011KT 9999 FEW017SC BKN020CU 28/21 Q1009 NSC=  
11-Jun-2012 SAID35 WAPI 110600 METAR WAPI 110600 11007KT 9999 SCT020 28/21 Q1009 NSC=  
11-Jun-2012 SAID35 WAPI 112300 METAR WAPI 112300Z 12004KT 9999 1CU FEW018 25/21 Q1013 NCS=  
12-Jun-2012 SAID35 WAPI 120000 METAR WAPI 120000Z 11007KT 9999 FEW018 27/21 Q1013NSC=  
12-Jun-2012 SAID35 WAPI 120100 METAR WAPI 120100Z 12008KT 9999 SCT018 27/21 Q1013NSC=  
12-Jun-2012 SAID35 WAPI 120200 METAR WAPI 120200Z 13012KT 9999 2CU FEW018 28/21 Q1013 NCS=  
12-Jun-2012 SAID35 WAPI 120300 METAR WAPI 120300Z 12010KT 9999 2C FEW018 28/20 Q1012 NCS=  
12-Jun-2012 SAID35 WAPI 120400 METAR WAPI 120400Z 11008KT 9999 FEW018 29/20 Q1011NSC=  
12-Jun-2012 SAID35 WAPI 120600 METAR WAPI 120600Z 12008KT 9999 2CU FEW018 28/20 Q1010 NCS=  
12-Jun-2012 SAID35 WAPI 122300 METAR WAPI 122300 17002KT 9999 FEW015CU 23/20 Q1014 NSC=  
13-Jun-2012 SAID35 WAPI 130000 METAR WAPI 130000Z 11005KT 9999 FEW018 26/19 Q1014NSC=  
13-Jun-2012 SAID35 WAPI 130100 METAR WAPI 130100 13006KT 9999 SCT018CU 27/19 Q1014 NSC=  
13-Jun-2012 SAID35 WAPI 130200 METAR WAPI 130200 10007KT 9999 SCT018CU 27/19 Q1014 NSC=  
13-Jun-2012 SAID35 WAPI 130300 METAR WAPI 130300 13006KT 9999 SCT018CU 27/20 Q1013 NSC=  
13-Jun-2012 SAID35 WAPI 130400 METAR WAPI 130400 14008KT 9999 SCT018CU 28/20 Q1013 NSC=  
13-Jun-2012 SAID35 WAPI 130500 METAR WAPI 130500 11006KT 9999 SCT018CU 27/20 Q1012 NSC=  
13-Jun-2012 SAID35 WAPI 130600 METAR WAPI 130600 12006KT 9999 SCT018 27/20 Q1011 NSC=  
13-Jun-2012 SAID35 WAPI 132300 METAR WAPI 132300 03003KT 9999 FEW017CU 25/20 Q1013 NSC=  
14-Jun-2012 SAID35 WAPI 140000 METAR WAPI 140000 09007KT 9999 FEW018 27/19 Q1013 NSC=  
14-Jun-2012 SAID35 WAPI 140100 METAR WAPI 140100 11507KT 9999 FEW018CU 28/20 Q1013 NSC=  
14-Jun-2012 SAID35 WAPI 140200 METAR WAPI 140200 15006KT 9999 SCT018CU 28/20 Q1013 NSC=  
14-Jun-2012 SAID35 WAPI 140300 METAR WAPI 140300Z 10005KT 9999 SCT018 28/20 Q1012NSC=  
14-Jun-2012 SAID35 WAPI 140400 METAR WAPI 140400Z 11005KT 9999 FEW018 28/20 Q1011NSC=  
14-Jun-2012 SAID35 WAPI 140500 METAR WAPI 140500Z 14003KT 9999 FEW018 28/21 Q1011NSC=  
14-Jun-2012 SAID35 WAPI 140600 METAR WAPI 140600 10007KT 9999 BKN020CU 28/21 Q1010 NSC=  
14-Jun-2012 SAID35 WAPI 142300 METAR WAPI 142300 13006KT 9999 SCT018 26/21 Q1011 NSC=  
15-Jun-2012 SAID35 WAPI 150000 METAR WAPI 150000 10008KT 9999 BKN018 27/21=  
15-Jun-2012 SAID35 WAPI 150200 METAR WAPI 150200 10008KT 9999 SCT018CU 29/22 Q1012 NSC=  
15-Jun-2012 SAID35 WAPI 150300 METAR WAPI 150300Z 11009KT 9999 SCT018 29/22 Q1011 NOSIC=  
15-Jun-2012 SAID35 WAPI 150400 METAR WAPI 150400Z 10008KT 9999 SCT018 29/21 Q1011 NOSIC=  
15-Jun-2012 SAID35 WAPI 150500 METAR WAPI 150500Z 07009KT 9999 SCT018CU 29/21 Q1010 NSC=  
15-Jun-2012 SAID35 WAPI 150600 METAR WAPI 150600 08011KT 9999 BKN018CU 30/22 Q1009 NSC=  
15-Jun-2012 SAID35 WAPI 152300 METAR WAPI 152300Z 09011KT 9999 SCT018 26/23 Q1012NSC=  
16-Jun-2012 SAID35 WAPI 160000 METAR WAPI 160000Z 10011KT 9999 SCT018 28/23 Q0112NSC=  
16-Jun-2012 SAID35 WAPI 160100 METAR WAPI 160100Z 08008KT 9999 2CU FEW018 29/23 Q1012 NCS=  
16-Jun-2012 SAID35 WAPI 160300 METAR WAPI 160300Z 10010KT 9999 SCT018 30/23 Q1011NSC=  
16-Jun-2012 SAID35 WAPI 160400 METAR WAPI 160400Z 09012KT 9999 FWE018 29/22 Q1011NSC=  
16-Jun-2012 SAID35 WAPI 162300 METAR WAPI 162300 13013KT 9999 FWW017CU 26/21 Q1015 NSC=  
17-Jun-2012 SAID35 WAPI 170000 METAR WAPI 170000Z 13010KT 9999 SCT018 28/21 Q1015 NSC=  
17-Jun-2012 SAID35 WAPI 170100 METAR WAPI 170100 12015KT 9999 BKN017SC 28/22 Q1015 NSC=  
17-Jun-2012 SAID35 WAPI 170200 METAR WAPI 170200 14014KT 9999 BKN017SC FEW018CU 28/22 Q1014 NSC=  
17-Jun-2012 SAID35 WAPI 170300 METAR WAPI 170300Z 13013KT 9999 BKN017 28/22 Q1014NSC=  
17-Jun-2012 SAID35 WAPI 170400 METAR WAPI 170400Z 11114KT 9999 SCT018 29/21 Q1013NSC=  
17-Jun-2012 SAID35 WAPI 170500 METAR WAPI 170500Z 11114KT 9999 SCT018 29/21 Q1012NSC=  
17-Jun-2012 SAID35 WAPI 170600 METAR WAPI 170600 12013KT 9999 BKN018CU 28/22 Q1012 NSC=  
18-Jun-2012 SAID35 WAPI 180000 METAR WAPI 180000 13018KT 9999 SCT017SC 27/22 Q1015 NSC=  
18-Jun-2012 SAID35 WAPI 180100 METAR WAPI 180100 13016KT 9999 SCT017SC 27/22 Q1015 NSC=  
18-Jun-2012 SAID35 WAPI 180200 METAR WAPI 180200 12012KT 9999 SCT017SC 28/23 Q1015 NSC=  
18-Jun-2012 SAID35 WAPI 180300 METAR WAPI 180300 10015KT 9999 SCT017SC 28/23 Q1014 NSC=  
18-Jun-2012 SAID35 WAPI 180400 METAR WAPI 180400Z 120117KT 9999 SCT017 SC 28/23 Q1013 NSC=  
18-Jun-2012 SAID35 WAPI 180500 METAR WAPI 180500 09016KT 9999 BKN017SC 28/23 Q1012 NSC=  
18-Jun-2012 SAID35 WAPI 180600 METAR WAPI 180600 12016KT 9999 BKN017SC 28/23 Q1011 NSC=  
19-Jun-2012 SAID35 WAPI 190000 METAR WAPI 190000 13017KT 9999 SCT017 27/21 Q1013 NSC=  
19-Jun-2012 SAID35 WAPI 190100 METAR WAPI 190100 12016KT 9999 SCT018 27/21 Q1013 NSC=  
19-Jun-2012 SAID35 WAPI 190200 METAR WAPI 190200 11012KT 9999 SCT018CU 28/21 Q1012 NSC=  
19-Jun-2012 SAID35 WAPI 190300 METAR WAPI 190300 13013KT 9999 BKN017SC 29/22 Q1012 NSC=  
19-Jun-2012 SAID35 WAPI 190400 METAR WAPI 190400 12015KT 9999 BKN017 28/22 Q1011 NSC=  
19-Jun-2012 SAID35 WAPI 190500 METAR WAPI 190500 12014KT 9999 BKN017 28/22 Q1010 NSC=  
19-Jun-2012 SAID35 WAPI 190600 METAR WAPI 190600 13016KT 9999 BKNJ017 28/22 Q1010 NSC=  
19-Jun-2012 SAID35 WAPI 192300 METAR WAPI 192300Z 13008KT 9999 BKN016 26/22 Q1013NSC=  
20-Jun-2012 SAID35 WAPI 200000 METAR WAPI 200000Z 13014KT 9999 BKN016 27/23 Q1013NSC=  
20-Jun-2012 SAID35 WAPI 200100 METAR WAPI 200100Z 14012KT 9999 6SC BKN018 27/23 Q1013 NCS=  
20-Jun-2012 SAID35 WAPI 200200 METAR WAPI 200200Z 12010KT 9999 3CU SCT018 28/23 Q1013 NCS=  
20-Jun-2012 SAID35 WAPI 200300 METAR WAPI 200300Z 12012KT 9999 SCT018 28/22 Q1012NSC=  
20-Jun-2012 SAID35 WAPI 200400 METAR WAPI 200400Z 11017KT 9999 SCT018 29/22 Q1012NSC=  
20-Jun-2012 SAID35 WAPI 200500 METAR WAPI 200500Z 13014KT 9999 2CU FEW018 29/23 Q1011 NCS=  
20-Jun-2012 SAID35 WAPI 200600 METAR WAPI 200600Z 12008KT 9999 3CU SCT018 29/22 Q1011 NCS=  
20-Jun-2012 SAID35 WAPI 202300 METAR WAPI 202300 16005KT 9999 FEW017 26/23 Q1013 NSC=  
21-Jun-2012 SAID35 WAPI 210000 METAR WAPI 210000 21004KT 9999 SCT018CU 27/23 Q1014 NSC=  
21-Jun-2012 SAID35 WAPI 210100 METAR WAPI 210100 20010KT 9999 SCT020 28/23 Q1013 NSC=  
21-Jun-2012 SAID35 WAPI 210200 METAR WAPI 210200 18007KT 9999 BKN017SC 28/23 Q1013 NSC=  
21-Jun-2012 SAID35 WAPI 210300 METAR WAPI 210300 15008KT 9999 SCT017SC 28/23 Q1013 NSC=  
21-Jun-2012 SAID35 WAPI 210600 METAR WAPI 210600 18016KT 9999 SCT017 29/23 Q1011 NSC=  
22-Jun-2012 SAID35 WAPI 220000 METAR WAPI 220000 16004KT 9999 SCT017 25/22 Q1014 NSC=  
22-Jun-2012 SAID35 WAPI 220100 METAR WAPI 220100 18005KT 9999 BKN017 26/22 Q1014 NSC=  
22-Jun-2012 SAID35 WAPI 220200 METAR WAPI 220200 17006KT 9999 BKN017 26/22 Q 1014 NSC=  
22-Jun-2012 SAID35 WAPI 220300 METAR WAPI 220300 16005KT 9999 BKN017 26/22 Q1014 NSC=  
22-Jun-2012 SAID35 WAPI 220400 METAR WAPI 220400 19006KT 9999 SCT018 26/22 Q1013 NSC=  
22-Jun-2012 SAID35 WAPI 220500 METAR WAPI 220500 17006KT 9999 SCT018 27/22 Q 1012 NSC=  
22-Jun-2012 SAID35 WAPI 220600 METAR WAPI 220600 14007KT 999 SCT018 27/22 Q1011 NSC=  
23-Jun-2012 SAID35 WAPI 230000 METAR WAPI 230000 15011KT 9999 FEW018 27/21 Q1014 NSC=  
23-Jun-2012 SAID35 WAPI 230100 METAR WAPI 230100 12013KT 9999 FEW018 27/21 Q1014 NSC=  
23-Jun-2012 SAID35 WAPI 230200 METAR WAPI 230200 15014KT 9999 SCT018CU 27/20 Q1014 NSC=  
23-Jun-2012 SAID35 WAPI 230300 METAR WAPI 230300 12013KT 9999 SCT018CU 28/19 Q1013 NSC=  
23-Jun-2012 SAID35 WAPI 230400 METAR WAPI 230400 11016KT 9999 SCT018CU 28/20 Q1013 NSC=  
23-Jun-2012 SAID35 WAPI 230500 METAR WAPI 230500 14014KT 9999 SCT018CU 28/20 Q1012 NSC=  
23-Jun-2012 SAID35 WAPI 230600 METAR WAPI 230600Z 12009KT 9999 SCT018 28/19 Q1011 NSC=  
24-Jun-2012 SAID35 WAPI 240100 METAR WAPI 240100Z 14009KT 9999 SCT018 26/20 Q1015 NSC=  
24-Jun-2012 SAID35 WAPI 240200 METAR WAPI 240200Z 15013KT 9999 BKN018 27/20 Q1014 NSC=  
24-Jun-2012 SAID35 WAPI 240300 METAR WAPI 240300Z 14010KT 9999 6SC BKN018 26/19 Q1014 NCS=  
24-Jun-2012 SAID35 WAPI 240400 METAR WAPI 240400Z 15008KT 9999 BKN017 26/19 Q1013 NSC=  
24-Jun-2012 SAID35 WAPI 240500 METAR WAPI 240500Z 16010KT 9999 5SC BKN017 25/19 Q1013 NCS=  
24-Jun-2012 SAID35 WAPI 240600 METAR WAPI 240600Z 14008KT 9999 SCT018 25/19 Q1012 NCS=  
24-Jun-2012 SAID35 WAPI 242300 METAR WAPI 242300 17007KT 9999 SCT018CU 24/19 Q1014 NSC=  
25-Jun-2012 SAID35 WAPI 250000 METAR WAPI 250000Z 14010KT 9999 FEW018 26/19 Q1014 NSC=  
25-Jun-2012 SAID35 WAPI 250100 METAR WAPI 250100 13008KT 9999 SCT018 27/20 Q1014 NSC=  
25-Jun-2012 SAID35 WAPI 250200 METAR WAPI 250200 14012KT 9999 SCT018 27/19 Q1014 NSC=  
25-Jun-2012 SAID35 WAPI 250300 METAR WAPI 250300 15003KT 9999 SCT018 27/20 1014 NSC=  
25-Jun-2012 SAID35 WAPI 250400 METAR WAPI 250400Z 15008KT 9999 SCT018 27/20 Q1012 NSC=  
25-Jun-2012 SAID35 WAPI 250500 METAR WAPI 250500Z 14007KT 9999 SCT018 28/20 Q1012 NSC=  
25-Jun-2012 SAID35 WAPI 250600 METAR WAPI 250600 14013 KT 9999 FEW017 27/21 Q1011 NSC=  
25-Jun-2012 SAID35 WAPI 252300 METAR WAPI 252300 15008KT 9999 SCT017 25/22 NSC=  
26-Jun-2012 SAID35 WAPI 260000 METAR WAPI 260000 15014KT 9999 BKN017 25/22 Q1014 NSC=  
26-Jun-2012 SAID35 WAPI 260100 METAR WAPI 260100 12012KT 9999 BKN017 25/22 Q1014 NSC=  
26-Jun-2012 SAID35 WAPI 260200 METAR WAPI 260200 13013KT 9999 BKN017 26/21 Q1013 NSC=  
26-Jun-2012 SAID35 WAPI 260300 METAR WAPI 260300 12014KT 9999 BKN017 26/21 Q1013 NSC=  
26-Jun-2012 SAID35 WAPI 260400 METAR WAPI 260400Z 133016KT 9999 SCT 018 27/21 Q1012 NSC=  
26-Jun-2012 SAID35 WAPI 260500 METAR WAPI 260500 12013KT 9999 FEW017 28/22 Q1011 NSC=  
26-Jun-2012 SAID35 WAPI 260600 METAR WAPI 260600 15015KT 9999 FEW017 27/21 Q1011 NSC=  
26-Jun-2012 SAID35 WAPI 262300 METAR WAPI 262300Z 15007KT 9999 BKN017 25/22 Q1013 NOSIC=  
27-Jun-2012 SAID35 WAPI 270000 METAR WAPI 270000 14009KT 9999 SCT017 26/22 Q1013 NSC=  
27-Jun-2012 SAID35 WAPI 270100 METAR WAPI 270100 15011KT 9999 BKN017 27/22 Q1013 NSC=  
27-Jun-2012 SAID35 WAPI 270200 METAR WAPI 270200 17014 KT 9999 BKN017 27/22 Q1013 NSC=  
27-Jun-2012 SAID35 WAPI 270300 METAR WAPI 270300 16013KT 9999 BKN017 28/22 Q1012 NSC=  
27-Jun-2012 SAID35 WAPI 270400 METAR WAPI 270400 14012KT 9999 SCT018CU 28/22 Q1012 NSC=  
27-Jun-2012 SAID35 WAPI 270500 METAR WAPI 270500 15014KT 9999 SCT018 28/22 Q1011 NSC=  
27-Jun-2012 SAID35 WAPI 270600 METAR WAPI 270600Z 14008KT 9999 BKN018 27/22 Q1010 NOSIC=  
27-Jun-2012 SAID35 WAPI 272300 METAR WAPI 272300Z 14005KT 9999 SCT017 26/23 Q1013 NSC=  
28-Jun-2012 SAID35 WAPI 280000 METAR WAPI 280000Z 14006KT 9999 SCT018 27/23 Q1013 NSC=  
28-Jun-2012 SAID35 WAPI 280100 METAR WAPI 280100Z 15008KT 9999 3C SCT018 28/23 Q1013 NCS=  
28-Jun-2012 SAID35 WAPI 280200 METAR WAPI 280200Z 9999 1CU FEW018 29/23 Q1012 NCS=  
28-Jun-2012 SAID35 WAPI 280300 METAR WAPI 280300Z 14008KT 9999 BKN018 29/24 Q1012=  
28-Jun-2012 SAID35 WAPI 280600 METAR WAPI 280600Z 14008KT 9999 4CU SCT018 28/23 Q1009 NCS=  
29-Jun-2012 SAID35 WAPI 290000 METAR WAPI 290000 15008KT 9999 SCT018 27/23 Q1012 NSC=  
29-Jun-2012 SAID35 WAPI 290100 METAR WAPI 290100Z 11012KT 9999 SCT018 28/23 Q1011 NSC=  
29-Jun-2012 SAID35 WAPI 290300 METAR WAPI 290300 11309KT 9999 SCT018 29/23 Q1011 NSC=  
29-Jun-2012 SAID35 WAPI 290400 METAR WAPI 290400 12009KT 9999 BKN018CU 30/22 Q1010 NSC=  
29-Jun-2012 SAID35 WAPI 290600 METAR WAPI 290600 13008KT 9999 BKN 017 28/13 Q1009 NSC=  
30-Jun-2012 SAID35 WAPI 300000 METAR WAPI 300000 11008KT 9999 SCT018CU 27/22 Q1012 NSC=  
30-Jun-2012 SAID35 WAPI 300300 METAR WAPI 300300 16012KT 9999 BKN018CU 29/24 Q1011 NSC=  
30-Jun-2012 SAID35 WAPI 300600 METAR WAPI 300600 12011KT 9999 BKN017 28/23 Q1009 NSC=  
01-Jul-2012 SAID35 WAPI 010300 METAR WAPI 010300Z 12010 9999 SCT018 29/22 Q1012 NOSIC=  
01-Jul-2012 SAID35 WAPI 010500 METAR WAPI 010500Z 12009KT 9999 FEW018 29/20 Q1010 NOSIC=  
01-Jul-2012 SAID35 WAPI 010600 METAR WAPI 010600Z 12011KT 9999 FEW018 28/20 Q1009 NSC=  
02-Jul-2012 SAID35 WAPI 020000 METAR WAPI 020000Z 14012KT 9999 SCT018 26/21 Q1012 NSC=  
02-Jul-2012 SAID35 WAPI 020200 METAR WAPI 020200Z 14008KT 9999 SCT018 27/21 Q1012=  
02-Jul-2012 SAID35 WAPI 020300 METAR WAPI 020300Z 14012KT 9999 SCT018 28/21 Q1011 NOSIC=  
02-Jul-2012 SAID35 WAPI 020400 METAR WAPI 020400Z 15015KT 9999 BKN017 27/21 1010 NSC=  
02-Jul-2012 SAID35 WAPI 020500 METAR WAPI 020500Z 14013KT 9999 BKN017 27/21 1009 NSC=  
02-Jul-2012 SAID35 WAPI 020600 METAR WAPI 020600Z 14011KT 9999 BKN017 27/21 Q1009 NOSIC=  
02-Jul-2012 SAID35 WAPI 022300 METAR WAPI 022300 13012KT 9999 BKN017 25/21 Q1010 NSC=  
03-Jul-2012 SAID35 WAPI 030000 METAR WAPI 030000 12012KT 9999 BKN017 26/21 Q1011 NSC=  
03-Jul-2012 SAID35 WAPI 030100 METAR WAPI 030100 13018KT 9999 BKN017 26/21 Q1011 NSC=  
03-Jul-2012 SAID35 WAPI 030200 METAR WAPI 030200 14017KT 9999 FEW018 27/20 Q1010 NSC=  
03-Jul-2012 SAID35 WAPI 030300 METAR WAPI 030300 15018KT 9999 SCT018 28/21 Q1010 NSC=  
03-Jul-2012 SAID35 WAPI 030400 METAR WAPI 030400Z 13011KT 9999 BKN017 28/21 Q1009 NSC=  
03-Jul-2012 SAID35 WAPI 030500 METAR WAPI 030500Z 12016KTKT 9999 BKN017 27/20 Q1009 NSC=  
03-Jul-2012 SAID35 WAPI 030600 METAR WAPI 030600 13016KT 9999 BKN017 27/20 Q1008 NSC=  
04-Jul-2012 SAID35 WAPI 040000 METAR WAPI 040000Z 13010KT 9999 BKN017 25/21 Q1011 NCS=  
04-Jul-2012 SAID35 WAPI 040100 METAR WAPI 040100Z 14008KT 9999 BKN017 26/22 Q1011 NCS=  
04-Jul-2012 SAID35 WAPI 040200 METAR WAPI 040200Z 12012KT 9999 BKN017 27/22 Q1011 NCS=  
04-Jul-2012 SAID35 WAPI 040300 METAR WAPI 040300Z 13010KT 9999 BKN018 26/22 Q1010 NCS=  
04-Jul-2012 SAID35 WAPI 040400 METAR WAPI 04040Z 14013KT 9999 BKN017 26/22 Q1010 NCS=  
04-Jul-2012 SAID35 WAPI 040500 METAR WAPI 040500Z 12010KT 9999 BKN017 26/21 Q1009 NCS=  
04-Jul-2012 SAID35 WAPI 040600 METAR WAPI 040600Z13011KT 9999 BKN017 25/22 NOSIC=  
04-Jul-2012 SAID35 WAPI 042300 METAR WAPI 042300Z 13015KT 9999 BKN016 25/21 Q1010 NOSIC=  
05-Jul-2012 SAID35 WAPI 050000 METAR WAPI 050000Z 12015KT 9999 BKN015 25/22 Q1011 NSC=  
05-Jul-2012 SAID35 WAPI 050100 METAR WAPI 050100Z 12011KT 9999 BKN015 24/22 Q0111 NSC=  
05-Jul-2012 SAID35 WAPI 050200 METAR WAPI 050200Z 12012KT 9999 BKN015 25/21 Q1011 NSC=  
05-Jul-2012 SAID35 WAPI 050300 METAR WAPI 050300Z 12015KT 9999 BKN017 27/22 Q1010 NSC=  
05-Jul-2012 SAID35 WAPI 050400 METAR WAPI 050400Z 13013KT 9999 BKN017 26/21 Q1010 NOSIC=  
05-Jul-2012 SAID35 WAPI 050500 METAR WAPI 050500Z 12012KT 9999 BKN017 26/21 Q1009 NOSIC=  
05-Jul-2012 SAID35 WAPI 050600 METAR WAPI 050600Z 12016KT 9999 BKN017 26/21 Q1009 NOSIC=  
06-Jul-2012 SAID35 WAPI 060015 METAR WAPI 060000Z 13012KT 9999 SCT017 26/20 Q1011 NOSIC=  
06-Jul-2012 SAID35 WAPI 060100 METAR WAPI 060100Z 13014KT 9999 SCT017 27/20 Q1011 NOSIC=  
06-Jul-2012 SAID35 WAPI 060200 METAR WAPI 060200Z 12013KT 9999 SCT017 27/20 Q1011 NOSIC=  
06-Jul-2012 SAID35 WAPI 060300 METAR WAPI 060300Z 13015KT 9999 SCT017 28/20 Q1010 NOSIC=  
06-Jul-2012 SAID35 WAPI 060400 METAR WAPI 060400Z 12016KT 9999 FEW017 27/21 Q1010 NSC=  
06-Jul-2012 SAID35 WAPI 060500 METAR WAPI 060500Z 12013KT 9999 FEW017 27/20 Q1009 NSC=  
06-Jul-2012 SAID35 WAPI 060600 METAR WAPI 060600Z 12012KT 9999 SCT017 28/21 Q1009 NOSIC=  
06-Jul-2012 SAID35 WAPI 062300 METAR WAPI 062300 14008KT 9999 BKN017 25/22 Q1009 NSC=  
07-Jul-2012 SAID35 WAPI 070000 METAR WAPI 070000 13012KT 9999 BKN017 25/23 Q1010 NSC=  
07-Jul-2012 SAID54 WAPI 070000 METAR WAPI 070000 13012KT 9999 BKN017 25/23 Q1010 NSC=  
07-Jul-2012 SAID35 WAPI 070100 METAR WAPI 070100 12008KT 9999 BKN017 26/23 Q1010 NSC=  
07-Jul-2012 SAID35 WAPI 070200 METAR WAPI 070200 15008KT 9999 BKN017 26/23 Q1009 NSC=  
07-Jul-2012 SAID35 WAPI 070300 METAR WAPI 070300 14010KT 9999 SCT017 27/23 Q1009 NSC=  
07-Jul-2012 SAID35 WAPI 070400 METAR WAPI 070400 12013KT 9999 SCT017 28/23 Q1008 NSC=  
07-Jul-2012 SAID35 WAPI 070500 METAR WAPI 070500 13012KT 9999 BKN017 28/23 Q1008 NSC=  
07-Jul-2012 SAID35 WAPI 070600 METAR WAPI 070600 14012KT 9999 BKN017 27/23 Q1007 NSC=  
07-Jul-2012 SAID35 WAPI 072300 METAR WAPI 072300Z 14008KT 9999 SCT017 25/23 Q1009 NCS=  
08-Jul-2012 SAID35 WAPI 080000 METAR WAPI 080000Z 13008KT 9999 BKN017 26/23 Q1010 NCS=  
08-Jul-2012 SAID35 WAPI 080100 METAR WAPI 080100 14012KT 9999 BKN017 26/24 Q1010 NCS=  
08-Jul-2012 SAID35 WAPI 080200 METAR WAPI 080200Z 15010KT 9999 BKN017 27/24 Q1010 NCS=  
08-Jul-2012 SAID35 WAPI 080300 METAR WAPI 080300Z 12012KT 9999 SCT017 28/24 Q1009 NCS=  
08-Jul-2012 SAID35 WAPI 080400 METAR WAPI 080400Z 14010KT 9999 BKN017 28/24 Q1009 NOSIC=  
08-Jul-2012 SAID35 WAPI 080600 METAR WAPI 080600Z 13012KT 9999 BKN017 28/24 Q1008 NOSIC=  
08-Jul-2012 SAID35 WAPI 082300 METAR WAPI 082300Z 14005KT 8000 RA BKN010 25/22 Q1010=  
09-Jul-2012 SAID35 WAPI 090000 METAR WAPI 090000Z 12008KT 9999 BKN010 25/24 Q1011 NSC=  
09-Jul-2012 SAID35 WAPI 090100 METAR WAPI 090100Z 14006KT 8000 BKN010 26/25 Q1011=  
09-Jul-2012 SAID35 WAPI 090200 METAR WAPI 090200Z 13005KT 8000 BKN010 RA 26/25 Q0110=  
09-Jul-2012 SAID35 WAPI 090300 METAR WAPI 090300Z 13012KT 9999 SCT017 27/25 Q1009 NSC=  
09-Jul-2012 SAID35 WAPI 090400 METAR WAPI 090400Z 13008KT 9999 SCT017 28/25 Q1009 NSC=  
09-Jul-2012 SAID35 WAPI 090600 METAR WAPI 090600Z 12010KT 9999 BKN017 29/25 Q1008 NOSIC=  
09-Jul-2012 SAID35 WAPI 092300 METAR WAPI 092300Z 14004KT RA 9000 BKN017 26/25 Q1011=  
10-Jul-2012 SAID35 WAPI 100000 METAR WAPI 100000Z 14005KT 9999 SCT017 27/25 Q1011 NSC=  
10-Jul-2012 SAID35 WAPI 100300 METAR WAPI 100300Z 20009KT 9999 SCT017 28/242 Q1010 NSC=  
10-Jul-2012 SAID35 WAPI 100400 METAR WAPI 100400Z 12009KT 9999 SCT017 28/25 Q1010 NSC=  
10-Jul-2012 SAID35 WAPI 100500 METAR WAPI 100500Z 12008KT 9999 BKN017 28/25 Q1009 NOSIC=  
10-Jul-2012 SAID35 WAPI 100600 METAR WAPI 100600Z 10007KT 9999 BKN017 28/24 Q1009 NOCIK=  
10-Jul-2012 SAID35 WAPI 102300 METAR WAPI 102300 10010KT 9999 FEW018 26/24 Q1012 NSC=  
11-Jul-2012 SAID35 WAPI 110000 METAR WAPI 110000 09007KT 9999 SCT018 27/25 Q1012 NSC=  
11-Jul-2012 SAID35 WAPI 110100 METAR WAPI 110100 14010KT 9999 SCT018 29/24 Q1012 NSC=  
11-Jul-2012 SAID35 WAPI 110200 METAR WAPI 110200 12009KT 9999 SCT018 29/24 Q1012 NSC=  
11-Jul-2012 SAID35 WAPI 110300 METAR WAPI 110300 13012KT 9999 SCT018 29/24 Q1011 NSC=  
11-Jul-2012 SAID35 WAPI 110400 METAR WAPI 110400Z 11009KT 9999 FEW018 29/24 Q1010 NSC=  
11-Jul-2012 SAID35 WAPI 110500 METAR WAPI 110500Z 10008KT 9999 FEW018 29/24 Q1009 NSC=  
11-Jul-2012 SAID35 WAPI 110600 METAR WAPI 110600 09009KT 9999 SCT018 29/23 Q1009 NSC=  
11-Jul-2012 SAID35 WAPI 112300 METAR WAPI 112300Z 13004KT 9999 SCT018 26/24 Q1010 NCS=  
12-Jul-2012 SAID35 WAPI 120000 METAR WAPI 120000Z 12008KT 9999 FEW018 29/25 Q1011 NCS=  
12-Jul-2012 SAID35 WAPI 120100 METAR WAPI 120100Z 13010KT 9999 FEW017 28/25 Q1011 NCS=  
12-Jul-2012 SAID35 WAPI 120200 METAR WAPI 120200Z 14012KT 9999 SCT017 28/25 Q1010 NCS=  
12-Jul-2012 SAID35 WAPI 120300 METAR WAPI 120300Z 12010KT 9999 SCT017 29/25 Q1010 NCS=  
12-Jul-2012 SAID35 WAPI 120400 METAR WAPI 120400Z 13009KT 9999 SCT017 27/25 Q1010 NCS=  
12-Jul-2012 SAID35 WAPI 120500 METAR WAPI 120500Z 12007KT 9999 SCT018 29/24 Q1009 NOSIC=  
12-Jul-2012 SAID35 WAPI 120600 METAR WAPI 120600Z 12008KT 9999 SCT017 29/24 Q1009 NCS=  
12-Jul-2012 SAID35 WAPI 122300 METAR WAPI 122300Z 12004KT 9999 BKN017 26/25 Q1011 NOSIC=  
13-Jul-2012 SAID35 WAPI 130000 METAR WAPI 130000Z 12007KT 9999 BKN018 27/25 Q1011 NSC=  
13-Jul-2012 SAID35 WAPI 130100 METAR WAPI 130100Z 12007KT 9999 BKN018 27/25 Q1011 NOSIC=  
13-Jul-2012 SAID35 WAPI 130200 METAR WAPI 130200Z 11009KT 9999 BKN018 29/24 Q1011 NOSIC=  
13-Jul-2012 SAID35 WAPI 130300 METAR WAPI 130300Z 12007KT 9999 BKN018 29/24 Q1011 NOSIC=  
13-Jul-2012 SAID35 WAPI 130500 METAR WAPI 130500Z 12008KT 9999 BKN018 29/24 Q1009 NOSIC=  
13-Jul-2012 SAID35 WAPI 130600 METAR WAPI 130600Z 14009KT 9999 BKN017 29/24 Q1008 NSC=  
14-Jul-2012 SAID35 WAPI 140000 METAR WAPI 140000Z 15006KT 9999 SCT018 27/24 Q1011 NSC=  
14-Jul-2012 SAID35 WAPI 140100 METAR WAPI 140100Z 13007KT 9999 SCT018 28/24 Q1011 NSC=  
14-Jul-2012 SAID35 WAPI 140200 METAR WAPI 140200Z 15008KT 9999 SCT018 28/23 Q1011 NSC=  
14-Jul-2012 SAID35 WAPI 140500 METAR WAPI 140500Z 15010KT 9999 BKN018 29/24 Q1009 NOSIC=  
14-Jul-2012 SAID35 WAPI 142300 METAR WAPI 142300 14006KT 9999 BKN017 26/24 Q1011 NSC=  
15-Jul-2012 SAID35 WAPI 150000 METAR WAPI 150000 20007KT 9999 FEW018 27/24 Q1011 NSC=  
15-Jul-2012 SAID35 WAPI 150100 METAR WAPI 150100Z 16008KT 9999 FEW018 28/24 Q1011 NSC=  
15-Jul-2012 SAID35 WAPI 150200 METAR WAPI 150200 15008KT 9999 BKN017 28/24 Q1012 NSC=  
15-Jul-2012 SAID35 WAPI 150300 METAR WAPI 150300 14010KT 9999 BKN018 29/24 Q1011 NSC=  
15-Jul-2012 SAID35 WAPI 150500 METAR WAPI 150500 14010KT 9999 SCT017 28/24 Q1010 NSC=  
15-Jul-2012 SAID35 WAPI 150600 METAR WAPI 150600 12008KT 9999 SCT017 28/24 Q1010 NSC=  
15-Jul-2012 SAID35 WAPI 152300 METAR WAPI 152300Z 12014KT 9999 BKN017 26/23 Q1011 NOSIC=  
16-Jul-2012 SAID35 WAPI 160000 METAR WAPI 160000Z 11016KT 9999 BKN017 27/24 Q1012 NCS=  
16-Jul-2012 SAID35 WAPI 160100 METAR WAPI 160100Z 11014KT 9999 OVC017 27/24 Q1012 NOSIC=  
16-Jul-2012 SAID35 WAPI 160200 METAR WAPI 160200Z 11015KT 9999 SCT017 28/23 Q1012 NCS=  
16-Jul-2012 SAID35 WAPI 160300 METAR WAPI 160300Z 10013KT 9999 SCT017 28/24 Q1011 NCS=  
16-Jul-2012 SAID35 WAPI 160400 METAR WAPI 160400Z 12015KT 9999 SCT017 28/23 Q1011 NCS=  
16-Jul-2012 SAID35 WAPI 160500 METAR WAPI 160500Z 14017KT 9999 SCT017 27/23 Q1010 NCS=  
18-Jul-2012 SAID35 WAMM 180000 METAR WAPI 180000Z 97900 10013KT 9999 SCT018 28/23 Q1012 NOSIQ=  
18-Jul-2012 SAID32 WAMM 180300 METAR WAPI 180300Z 97900 12012KT 9999 BKN 017 TEMP 29/22 Q1011 NOSIQ=  
19-Jul-2012 SAID35 WAPI 190300 METAR WAPI 190300 14010KT 9999 SCT018 29/22 Q1012 NSC=  
19-Jul-2012 SAID35 WAPI 190400 METAR WAPI 190400 12010KT 9999 FEW018 29/21 Q1011 NSC=  
19-Jul-2012 SAID35 WAPI 190500 METAR WAPI 190500Z 12009KT 9999 FEW018 29/22 Q1011 NSC=  
19-Jul-2012 SAID35 WAPI 190600 METAR WAPI 190600 15016KT 9999 FEW018 29/22 Q1010 NSC=  
19-Jul-2012 SAID35 WAPI 192300 METAR WAPI 192300Z 11010KT 9999 SCT017 26/21 Q1013 NOSIC=  
20-Jul-2012 SAID35 WAPI 200000 METAR WAPI 200000Z 12010KT 9999 SCT017 27/21 Q1014 NCS=  
20-Jul-2012 SAID35 WAPI 200200 METAR WAPI 200200Z 10014KT 9999 FEW017 28/21 Q1014 NCS=  
20-Jul-2012 SAID35 WAPI 200300 METAR WAPI 200300Z 13012KT 9999 FEW017 28/21 Q1013 NCS=  
20-Jul-2012 SAID35 WAPI 200400 METAR WAPI 200400Z 14008KT 9999 SCT017 29/21 Q1012 NCS=  
20-Jul-2012 SAID35 WAPI 200500 METAR WAPI 200500Z 12011KT 9999 FEW017 28/21 Q1012 NCS=  
20-Jul-2012 SAID35 WAPI 200600 METAR WAPI 200600Z 14008KT 9999 FEW017 28/20 Q1011 NCS=  
20-Jul-2012 SAID35 WAPI 202300 METAR WAPI 202300Z 130011KT 9999 SCT017 26/21 Q1014 NSC=  
21-Jul-2012 SAID35 WAPI 210000 METAR WAPI 210000Z 12010KT 9999 SCT017 27/21 Q1014 NSC=  
21-Jul-2012 SAID35 WAPI 210100 METAR WAPI 210100Z 13007KT 9999 SCT017 27/21 Q1014 NSC=  
21-Jul-2012 SAID35 WAPI 210200 METAR WAPI 210200Z 14016KT 9999 SCT018 28/21 Q1013 NSC=  
21-Jul-2012 SAID35 WAPI 210300 METAR WAPI 210300Z 13022KT 9999 SCT018 27/20 Q1013 NSC=  
21-Jul-2012 SAID35 WAPI 210400 METAR WAPI 210400Z 11020KT 9999 SCT018 28/21 Q1012 NOSIC=  
21-Jul-2012 SAID35 WAPI 210500 METAR WAPI 210500Z 11019KT 9999 SCT018 28/20 Q1011 NOSIC=  
21-Jul-2012 SAID35 WAPI 210600 METAR WAPI 210600Z 12016KT 9999 SCT018 28/19 Q1011 NOSIC=  
21-Jul-2012 SAID35 WAPI 212300 METAR WAPI 212300Z 13007KT 9999 SCT018 25/20 Q1013 NSC=  
22-Jul-2012 SAID35 WAPI 220000 METAR WAPI 220000Z 12012KT 9999 SCT018 26/20 Q1013 NSC=  
22-Jul-2012 SAID35 WAPI 220100 METAR WAPI 220100Z 14012KT 9999 BKN018 27/21 Q1012 NSC=  
22-Jul-2012 SAID35 WAPI 220200 METAR WAPI 220200Z 13011KT 9999 BKN018 27/20 Q1012 NSC=  
22-Jul-2012 SAID35 WAPI 220300 METAR WAPI 220300Z 14003KT 9999 FEW018 28/18 Q1012 NSC=  
22-Jul-2012 SAID35 WAPI 220400 METAR WAPI 220400Z 12010KT 9999 FEW018 28/18 Q1011 NSC=  
22-Jul-2012 SAID35 WAPI 220500 METAR WAPI 220500Z 12009KT 9999 FEW018 28/18 Q1010 NSC=  
22-Jul-2012 SAID35 WAPI 220600 METAR WAPI 220600Z 15009KT 9999 FEW018 28/18 Q1009 NSC=  
22-Jul-2012 SAID35 WAPI 222300 METAR WAPI 222300Z 14006KT 9999 SCT018 25/21 Q1011 NOSIC=  
23-Jul-2012 SAID35 WAPI 230000 METAR WAPI 230000Z 14008KT 9999 BKN017 27/22 Q1012 NSC=  
23-Jul-2012 SAID35 WAPI 230100 METAR WAPI 230100Z 12012KT 9999 BKN017 28/22 Q1012 NSC=  
23-Jul-2012 SAID35 WAPI 230200 METAR WAPI 230200Z 12013KT 9999 SCT018 28/22 Q1011 NSC=  
23-Jul-2012 SAID35 WAPI 230300 METAR WAPI 230300Z 12013KT 9999 BKN017 28/22 Q1010 NSC=  
23-Jul-2012 SAID35 WAPI 230400 METAR WAPI 230400Z 12011KT 9999 BKN017 28/22 Q1010 NSC=  
23-Jul-2012 SAID35 WAPI 230500 METAR WAPI 230500Z 11014KT 9999 BKN017 28/22 Q1009 NSC=  
23-Jul-2012 SAID35 WAPI 230600 METAR WAPI 230600Z 14007KT 9999 BKN018 28/22 Q1009 NSC=  
23-Jul-2012 SAID35 WAPI 232300 METAR WAPI 232300Z 10008KT 9999 BKN017 25/22 Q1012 NOSIC=  
24-Jul-2012 SAID35 WAPI 240000 METAR WAPI 240000Z 12006KT 9999 SCT017 26/22 Q1013 NCS=  
24-Jul-2012 SAID35 WAPI 240100 METAR WAPI 240100Z 14010KT 9999 BKN017 27/23 Q1012 NCS=  
24-Jul-2012 SAID35 WAPI 240200 METAR WAPI 240200Z 13012KT 9999 BKN017 28/23 Q1012 NCS=  
24-Jul-2012 SAID35 WAPI 240300 METAR WAPI 240300Z 14012KT 9999 BHN017 28/23 Q1011 NCS=  
24-Jul-2012 SAID35 WAPI 240400 METAR WAPI 240400Z 12008KT 9999 BKN017 29/23 Q1011 NCS=  
24-Jul-2012 SAID35 WAPI 240500 METAR WAPI 240500Z 13010KT 9999 SCT017 29/23 Q1010 NCS=  
24-Jul-2012 SAID35 WAPI 240600 METAR WAPI 240600Z 14008KT 9999 BKN017 28/23 Q1009 NCS=  
24-Jul-2012 SAID35 WAPI 242300 METAR WAPI 242300Z 12006KT 9999 SCT017 25/22 Q1013 NSC=  
25-Jul-2012 SAID35 WAPI 250000 METAR WAPI 250000Z 12007KT 9999 SCT018 27/22 Q1014 NSC=  
25-Jul-2012 SAID35 WAPI 250100 METAR WAPI 250100Z 13007KT 9999 SCT018 28/22 Q1014 NSC=  
25-Jul-2012 SAID35 WAPI 250200 METAR WAPI 250200Z 14008KT 9999 SCT018 28/22 Q1013 NSC=  
25-Jul-2012 SAID35 WAPI 250300 METAR WAPI 250300Z 13012KT 9999 SCT018 29/22 Q1013 NSC=  
25-Jul-2012 SAID35 WAPI 250400 METAR WAPI 250400Z 13009KT 9999 BKN018 29/22 Q1012 NOSIC=  
25-Jul-2012 SAID35 WAPI 250500 METAR WAPI 250500Z 12010KT 9999 BKN018 29/22 Q1011 NOSIC=  
25-Jul-2012 SAID35 WAPI 250600 METAR WAPI 250600Z 13007KT 9999 BKN018 28/22 Q1011 NSC=  
25-Jul-2012 SAID35 WAPI 252300 METAR WAPI 252300Z 10006KT 9999 BKN017 24/23 Q1012 NOSIC=  
26-Jul-2012 SAID35 WAPI 260000 METAR WAPI 260000Z 11005KT 9999 BKN015 24/22 Q1013 NSC=  
26-Jul-2012 SAID35 WAPI 260200 METAR WAPI 260200Z 12008KT 9999 FEW018 27/22 Q1012 NSC=  
26-Jul-2012 SAID35 WAPI 260300 METAR WAPI 260300Z 12006KT 9999 BKN017 28/23 Q1011 NSC=  
26-Jul-2012 SAID35 WAPI 260400 METAR WAPI 260400Z 12008KT 9999 SCT018 29/22 Q1011 NSC=  
26-Jul-2012 SAID35 WAPI 260500 METAR WAPI 260500Z 09006KT 9999 BKN017 28/22 Q1010 NOSIC=  
26-Jul-2012 SAID35 WAPI 260600 METAR WAPI 260600Z 09006KT 9999 BKN018 28/21 Q1010 NSC=  
26-Jul-2012 SAID35 WAPI 262300 METAR WAPI 262300Z 10006KT 9999 SCT018 25/22 Q1013 NOSIC=  
27-Jul-2012 SAID35 WAPI 270000 METAR WAPI 270000Z 10006KT 9999 SCT018 27/23 Q1013 NSC=  
27-Jul-2012 SAID35 WAPI 270100 METAR WAPI 270100Z 12009KT 9999 BKN018 27/23 Q1014 NSC=  
27-Jul-2012 SAID35 WAPI 270200 METAR WAPI 270200Z 12012KT 9999 SCT018 28/23 Q1013 NSC=  
27-Jul-2012 SAID35 WAPI 270300 METAR WAPI 270300Z 12013KT 9999 SCT018 28/23 Q1012 NSC=  
27-Jul-2012 SAID35 WAPI 270400 METAR WAPI 270400Z 13012KT 9999 FEW018 29/22 Q1011 NSC=  
27-Jul-2012 SAID35 WAPI 270500 METAR WAPI 270500Z 12011KT 9999 SCT018 29/22 Q1010 NOSIC=  
27-Jul-2012 SAID35 WAPI 270600 METAR WAPI 270600Z 14010KT 9999 SCT018 28/23 Q1010 NOSIC=  
27-Jul-2012 SAID35 WAPI 272300 METAR WAPI 272300Z 10016KT 9999 BKN018 25/21 Q1013 NCS=  
28-Jul-2012 SAID35 WAPI 280000 METAR WAPI 280000Z 10012KT 9999 SCT018 26/21 Q1014 NCS=  
28-Jul-2012 SAID35 WAPI 280100 METAR WAPI 280100Z 12015KT 9999 FEW018 27/21 Q1013 NCS=  
28-Jul-2012 SAID35 WAPI 280200 METAR WAPI 280200Z 13013KT 9999 BKN018 27/21 Q1013 NCS=  
28-Jul-2012 SAID35 WAPI 280300 METAR WAPI 280300Z 14010KT 9999 BKN018 28/22 Q1013 NCS=  
28-Jul-2012 SAID35 WAPI 280400 METAR WAPI 280400Z 12014KT 9999 BKN018 28/21 Q1012 NCS=  
28-Jul-2012 SAID35 WAPI 280500 METAR WAPI 280500Z 13012KT 9999 BKB017 27/21 Q1011 NCS=  
28-Jul-2012 SAID35 WAPI 280600 METAR WAPI 280600Z 12012KT 9999 SCT017 27/20 Q1010 NCS=  
28-Jul-2012 SAID35 WAPI 282300 METAR WAPI 282300 12011KT 9999 SCT017 25/20 Q1014 NSC=  
29-Jul-2012 SAID35 WAPI 290000 METAR WAPI 290000Z 1301116KT 9999 BKN017 26/21 Q1014 NSC=  
29-Jul-2012 SAID35 WAPI 290100 METAR WAPI 290100Z 14016KT 9999 BKN017 27/20 Q1014 NSC=  
29-Jul-2012 SAID35 WAPI 290300 METAR WAPI 290300Z 12009KT 9999 BKN017 28/20 Q1013 NSC=  
29-Jul-2012 SAID35 WAPI 290400 METAR WAPI 290400Z 13011KT 9999 BKN017 27/20 Q1012 NSC=  
29-Jul-2012 SAID35 WAPI 290500 METAR WAPI 290500Z 12013KT 9999 BKN017 27/20 Q1011 NSC=  
29-Jul-2012 SAID35 WAPI 290600 METAR WAPI 290600Z 13010KT 9999 BKN017 27/19 Q1011 NOSIC=  
29-Jul-2012 SAID35 WAPI 292300 METAR WAPI 292300Z 13012KT 9999 BKN017 25/22 Q1012 NOSIC=  
30-Jul-2012 SAID35 WAPI 300000 METAR WAPI 300000Z 13011KT 9999 SCT017 27/22 Q1013 NSC=  
30-Jul-2012 SAID35 WAPI 300200 METAR WAPI 300200Z 13009KT 9999 SCT017 27/22 Q1012 NSC=  
30-Jul-2012 SAID35 WAPI 300300 METAR WAPI 300300Z 12015KT 9999 BKN017 27/22 Q1012 NSC=  
30-Jul-2012 SAID35 WAPI 300400 METAR WAPI 300400Z 13013KT 9999 SCT017 27/22 Q1011 NOSIC=  
30-Jul-2012 SAID35 WAPI 300500 METAR WAPI 300500Z 12014KT 9999 BKN017 28/22 Q1011 NOSIC=  
30-Jul-2012 SAID35 WAPI 300600 METAR WAPI 300600Z 14012KT 9999 BKN017 28/22 Q1011 NOSIC=  
30-Jul-2012 SAID35 WAPI 302300 METAR WAPI 302300 15015KT 9999 SCT017 25/20 Q1013 NSC=  
31-Jul-2012 SAID35 WAPI 310000 METAR WAPI 310000 15011KT 9999 SCT017 25/20 Q1014 NSC=  
31-Jul-2012 SAID35 WAPI 310100 METAR WAPI 310100 14016KT 9999 SCT017 26/21 Q1013 NSC=  
31-Jul-2012 SAID35 WAPI 310200 METAR WAPI 310200 12013KT 9999 SCT017 26/21 Q1013 NSC=  
31-Jul-2012 SAID35 WAPI 310300 METAR WAPI 310300 12012KT 9999 SCT017 26/20 Q1012 NSC=  
31-Jul-2012 SAID35 WAPI 310400 METAR WAPI 310400 13018KT 9999 SCT017 26/19 Q1012 NSC=  
31-Jul-2012 SAID35 WAPI 310500 METAR WAPI 310500 12016KT 9999 SCT017 27/20 Q1011 NSC=  
31-Jul-2012 SAID35 WAPI 310600 METAR WAPI 310600 13016KT 9999 BKN017 27/19 Q1011 NSC=  
31-Jul-2012 SAID35 WAPI 312300 METAR WAPI 312300Z 13014KT 9999 BKN017 25/20 Q1014 NOSIC=  
01-Aug-2012 SAID35 WAPI 010000 METAR WAPI 010000Z 12015KT 9999 SCT017 26/20 Q1014 NCS=  
01-Aug-2012 SAID35 WAPI 010100 METAR WAPI 010100Z 13014KT 9999 SCT017 26/20 Q1014 NCS=  
01-Aug-2012 SAID35 WAPI 010200 METAR WAPI 010200Z 14010KT 9999 SCT017 28/20 Q1014 NCS=  
01-Aug-2012 SAID35 WAPI 010300 METAR WAPI 010300Z 13014KT 9999 FERW017 28/10 Q1013 NCS=  
01-Aug-2012 SAID35 WAPI 010400 METAR WAPI 010400Z 12012KT SCT017 27/19 Q1012 NCS=  
01-Aug-2012 SAID35 WAPI 010500 METAR WAPI 010500Z 12013KT 9999 SCT017 27/19 Q1011 NCS=  
01-Aug-2012 SAID35 WAPI 010600 METAR WAPI 010600Z 13012KT 9999 FEW017 27/19 Q1011 NCS=  
01-Aug-2012 SAID35 WAPI 012300 METAR WAPI 012300Z 12008KT 9999 SCT017 25/22 Q1014 NCS=  
02-Aug-2012 SAID35 WAPI 020000 METAR WAPI 020000Z 14010KT 9999 FEW017 27/23 Q1015 NSC=  
02-Aug-2012 SAID35 WAPI 020100 METAR WAPI 020100Z 12009KT 9999 SCT018 27/23 Q1015 NSC=  
02-Aug-2012 SAID35 WAPI 020200 METAR WAPI 020200Z 13012KT 9999 SCT017 28/22 Q1014 NCS=  
02-Aug-2012 SAID35 WAPI 020300 METAR WAPI 020300Z 12011KT 9999 SCT018 28/22 Q1013 NSC=  
02-Aug-2012 SAID35 WAPI 020400 METAR WAPI 020400Z 11012KT 9999 BKN017 28/22 Q1013 NSC=  
02-Aug-2012 SAID35 WAPI 020500 METAR WAPI 020500Z 10010KT 9999 BKN017 26/23 Q1012 NCS=  
02-Aug-2012 SAID35 WAPI 020600 METAR WAPI 020600Z 13012KT 9999 BKN017 27/22 Q1012 NCS=  
02-Aug-2012 SAID35 WAPI 022300 METAR WAPI 022300Z 13010KT 9999 SCT017 26/22 Q1013 NCS=  
03-Aug-2012 SAID35 WAPI 030000 METAR WAPI 030000Z 11008KT 9999 SCT017 27/23 Q1014 NCS=  
03-Aug-2012 SAID35 WAPI 030100 METAR WAPI 030100Z 10010KT 9999 SCT017 28/23 Q1014 NCS=  
03-Aug-2012 SAID35 WAPI 030200 METAR WAPI 030200Z 12012KT 9999 FEW017 29/23 Q1013 NCS=  
03-Aug-2012 SAID35 WAPI 030300 METAR WAPI 030300Z 13014KT 9999 BKN017 28/23 Q1013 NCS=  
03-Aug-2012 SAID35 WAPI 030400 METAR WAPI 030400 12012KT 9999 SCT017 29/23 Q1012 NCS=  
03-Aug-2012 SAID35 WAPI 030500 METAR WAPI 030500Z 14016KT 9999 BKN017 29/23 Q1012 NCS=  
03-Aug-2012 SAID35 WAPI 030600 METAR WAPI 030600Z 13010KT 9999 BKN017 28/22 Q1011 NCS=  
03-Aug-2012 SAID35 WAPI 032300 METAR WAPI 032300Z 12006KT 9999 SCT018 25/22 Q1013 NSC=  
04-Aug-2012 SAID35 WAPI 040000 METAR WAPI 040000 12007KT 9999 SCT018 26/23 Q1014 NSC=  
04-Aug-2012 SAID35 WAPI 040100 METAR WAPI 040100 13010KT 9999 BKN017 28/22 Q1014 NSC=  
04-Aug-2012 SAID35 WAPI 040400 METAR WAPI 040400 15016KT 9999 BKN017 28/22 Q1012 NSC=  
04-Aug-2012 SAID35 WAPI 040500 METAR WAPI 040500 13015KT 9999 BKN017 28/22 Q1011 NSC=  
04-Aug-2012 SAID35 WAPI 040600 METAR WAPI 040600 11013KT 9999 BKN017 28/22 Q1011 NSC=  
04-Aug-2012 SAID35 WAPI 042300 METAR WAPI 042300Z 13010KT 9999 SCT017 25/21 Q1014 NCS=  
05-Aug-2012 SAID35 WAPI 050000 METAR WAPI 050000Z 11009KT 9999 FEW018 26/21 Q1014 NCS=  
05-Aug-2012 SAID35 WAPI 050100 METAR WAPI 050100Z 11010KT 9999 SCT018 27/20 Q1015 NOSIC=  
05-Aug-2012 SAID35 WAPI 050200 METAR WAPI 050200Z 11009KT 9999 BKN018 27/20 Q1014 NOSIC=  
05-Aug-2012 SAID35 WAPI 050300 METAR WAPI 050300Z 12012KT 9999 SCT018 29/21 Q1014 NCS=  
05-Aug-2012 SAID35 WAPI 050400 METAR WAPI 050400Z 11015KT 9999 FEW018 28/21 Q1013 NCS=  
05-Aug-2012 SAID35 WAPI 050500 METAR WAPI 050500Z 13010KT 9999 FEW018 29/20 Q1012 NCS=  
05-Aug-2012 SAID35 WAPI 050600 METAR WAPI 050600Z 12014KT 9999 FEW017 28/19 Q1012 NCS=  
06-Aug-2012 SAID35 WAPI 060000 METAR WAPI 060000Z 10012KT 9999 FEW0018 27/20 Q1016 NSC=  
06-Aug-2012 SAID35 WAPI 060200 METAR WAPI 060200Z 10010KT 9999 FEW018 28/19 Q1015 NCS=  
06-Aug-2012 SAID35 WAPI 060300 METAR WAPI 060300Z 10008KT 9999 FEW018 29/19 Q1015 NCS=  
06-Aug-2012 SAID35 WAPI 060500 METAR WAPI 060500Z 12010KT 9999 FEW018 28/19 Q1013 NCS=  
06-Aug-2012 SAID35 WAPI 060600 METAR WAPI 060600Z 12008KT 9999 FEW017 28/19 Q1012 NCS=  
06-Aug-2012 SAID35 WAPI 062300 METAR WAPI 062300Z 13010KT 9999 SCT017 26/20 Q1014 NCS=  
07-Aug-2012 SAID35 WAPI 070000 METAR WAPI 070000Z 11016KT 9999 CST018 27/20 Q1015 NSC=  
07-Aug-2012 SAID35 WAPI 070200 METAR WAPI 070200Z 10015KT 9999 SCT018 28/19 Q1015 NSC=  
07-Aug-2012 SAID35 WAPI 070400 METAR WAPI 070400Z 10016KT 9999 SCT018 28/19 Q1014 NSC=  
07-Aug-2012 SAID35 WAPI 070500 METAR WAPI 070500Z 10016KT 9999 FEW018 28/18 Q1013 NSC=  
07-Aug-2012 SAID35 WAPI 070600 METAR WAPI 070600Z 11012KT 9999 FEW017 28/18 Q1012 NCS=  
08-Aug-2012 SAID35 WAPI 080000 METAR WAPI 080000 11014KT 9999 FEW017 27/21 Q1015 NSC=  
08-Aug-2012 SAID35 WAPI 080100 METAR WAPI 080100 11011KT 9999 SCT018 27/21 Q1015 NSC=  
08-Aug-2012 SAID35 WAPI 082300 METAR WAPI 082300Z 13010KT 9999 BKN017 25/22 Q1014 NCS=  
09-Aug-2012 SAID35 WAPI 090000 METAR WAPI 090000Z 11013KT 9999 SCT017 26/22 Q1014 NCS=  
09-Aug-2012 SAID35 WAPI 090100 METAR WAPI 090100Z 10012KT 9999 SCT017 26/21 Q1015 NCS=  
09-Aug-2012 SAID35 WAPI 090200 METAR WAPI 090200Z 12016KT 9999 SCT017 27/21 Q1014 NCS=  
09-Aug-2012 SAID35 WAPI 090300 METAR WAPI 090300Z 12015KT 9999 SCT017 28/21 Q10142 NOSIC=  
09-Aug-2012 SAID35 WAPI 090400 METAR WAPI 090400Z 11014KT 9999 BKN017 28/21 Q1013 NCS=  
09-Aug-2012 SAID35 WAPI 090500 METAR WAPI 090500Z 12012KT 9999 BKN017 29/21 Q1013 NCS=  
09-Aug-2012 SAID35 WAPI 090600 METAR WAPI 090600Z 14013KT 9999 SCT017 28/20 Q1012 NCS=  
09-Aug-2012 SAID35 WAPI 092300 METAR WAPI 092300Z 10008KT 9999 SCT017 25/21 Q1015 NSC=  
10-Aug-2012 SAID35 WAPI 100000 METAR WAPI 100000Z 10009KT 9999 SCT017 27/21 Q1015 NSC=  
10-Aug-2012 SAID35 WAPI 100100 METAR WAPI 100100Z 11008KT 9999 SCT017 27/22 Q1015 NCS=  
10-Aug-2012 SAID35 WAPI 100200 METAR WAPI 100200Z 10010KT 9999 FEW017 28/21 Q1015 NCS=  
10-Aug-2012 SAID35 WAPI 100300 METAR WAPI 100300Z 11010KT 9999 SCT018 28/21 Q1014 NSC=  
10-Aug-2012 SAID35 WAPI 100400 METAR WAPI 100400Z 11010KT 9999 SCT017 28/21 Q1013 NCS=  
10-Aug-2012 SAID35 WAPI 100500 METAR WAPI 100500Z 13015KT 9999 SCT017 29/22 NCS=  
10-Aug-2012 SAID35 WAPI 100600 METAR WAPI 100600Z 15010KT 9999 SCT017 28/22 Q1012 NCS=  
10-Aug-2012 SAID35 WAPI 102300 METAR WAPI 102300Z 10014KT 9999 FEW018 26/18 Q1015 NOSIC=  
11-Aug-2012 SAID35 WAPI 110000 METAR WAPI 110000Z 10016KT 9999 FEW018 27/19 Q1016 NSC=  
11-Aug-2012 SAID35 WAPI 110100 METAR WAPI 110100Z 11014KT 9999 FEW017 28/19 Q1015 NCS=  
11-Aug-2012 SAID35 WAPI 110200 METAR WAPI 110200Z 12016KT 9999 FEW018 29/18 Q1015 NSC=  
11-Aug-2012 SAID35 WAPI 110300 METAR WAPI 110300Z 12015KT 9999 FEW018 29/17 Q1014 NSC=  
11-Aug-2012 SAID35 WAPI 110400 METAR WAPI 110400Z 12015KT 9999 FEW018 29/16 Q1013 NSC=  
11-Aug-2012 SAID35 WAPI 110500 METAR WAPI 110500Z 13016KT 9999 FEW018 29/16 Q1012 NCS=  
11-Aug-2012 SAID35 WAPI 110600 METAR WAPI 110600Z 12014KT 9999 FEW018 29/18 Q1012 NCS=  
11-Aug-2012 SAID35 WAPI 112300 METAR WAPI 112300 12009KT 9999 FEW017 25/18 Q1015 NSC=  
12-Aug-2012 SAID35 WAPI 120000 METAR WAPI 120000 14012KT 9999 SCT018 26/19 Q1015 NSC=  
12-Aug-2012 SAID35 WAPI 120100 METAR WAPI 120100 15016KT 9999 SCT018 26/18 Q1015 NSC=  
12-Aug-2012 SAID35 WAPI 120200 METAR WAPI 120200 13013KT 9999 FEW018 27/16 Q1014 NSC=  
12-Aug-2012 SAID35 WAPI 120300 METAR WAPI 120300 13011KT 9999 FEW017 28/16 Q1014 NSC=  
12-Aug-2012 SAID35 WAPI 120400 METAR WAPI 120400 15015KT 9999 FEW017 28/16 Q1013 NSC=  
12-Aug-2012 SAID35 WAPI 120500 METAR WAPI 120500 16016KT 9999 FEW017 27/16 Q1012 NSC=  
12-Aug-2012 SAID35 WAPI 120600 METAR WAPI 120600 14014KT 9999 FEW017 27/26 Q1012 NSC=  
13-Aug-2012 SAID35 WAPI 130000 METAR WAPI 130000Z 13010KT 9999 BKN017 25/21 Q1014 NCS=  
13-Aug-2012 SAID35 WAPI 130100 METAR WAPI 130100Z 12012KT 9999 BKN017 26/21 Q1014 NCS=  
13-Aug-2012 SAID35 WAPI 130200 METAR WAPI 130200Z 9999 BKN017 26/20 Q1014 NCS=  
13-Aug-2012 SAID35 WAPI 130300 METAR WAPI 130300Z 14012KT 9999 BKN017 26/20 Q1014 NCS=  
13-Aug-2012 SAID35 WAPI 130400 METAR WAPI 130400Z 13012KT 9999 SCT017 27/20 Q1013 NCS=  
13-Aug-2012 SAID35 WAPI 132300 METAR WAPI 132300Z 12013KT 9999 SCT017 25/19 Q1014 NSC=  
14-Aug-2012 SAID35 WAPI 140000 METAR WAPI 140000Z 14013KT 9999 BKN017 25/20 Q1015 NSC=  
14-Aug-2012 SAID35 WAPI 140100 METAR WAPI 140100Z 12013KT 9999 BKN017 26/21 Q1015 NSC=  
14-Aug-2012 SAID35 WAPI 140200 METAR WAPI 140200Z 12012KT 9999 BKN018 28/21 Q1014 NSC=  
14-Aug-2012 SAID35 WAPI 140300 METAR WAPI 140300Z 10014KT 9999 BKN018 29/20 Q1014 NSC=  
14-Aug-2012 SAID35 WAPI 142300 METAR WAPI 142300Z 13012KT 9999 BKN017 24/22 Q1014 NCS=  
15-Aug-2012 SAID35 WAPI 150000 METAR WAPI 150000Z 11012KT 9999 BKN017 24/23 Q1015 NCS=  
15-Aug-2012 SAID35 WAPI 150100 METAR WAPI 150100Z 12010KT 9999 SCT017 25/21 Q1015 NCS=  
15-Aug-2012 SAID35 WAPI 150200 METAR WAPI 150200Z 13012KT 9999 SCT017 26/22 Q1015 NCS=  
15-Aug-2012 SAID35 WAPI 150300 METAR WAPI 150300Z 11012KT 9999 SCT017 28/22 Q1014 NSC=  
15-Aug-2012 SAID35 WAPI 150400 METAR WAPI 150400Z 10013KT 9999 BKN015 27/22 Q1013 NSC=  
15-Aug-2012 SAID35 WAPI 150500 METAR WAPI 150500Z 13008KT 9999 BKN017 27/22 Q1013 NCS=  
15-Aug-2012 SAID35 WAPI 150600 METAR WAPI 150600Z 12005KT 9999 BKN014 29/23 Q1009=  
16-Aug-2012 SAID35 WAPI 160000 METAR WAPI 160000 11012KT 9999 SCT0117 26/21 Q1014 NSC=  
16-Aug-2012 SAID35 WAPI 160100 METAR WAPI 160100 12010KT 9999 SCT017 26/22 Q1014 NSC=  
16-Aug-2012 SAID35 WAPI 160200 METAR WAPI 160200 10012KT 9999 SCT018 27/22 Q1014 NSC=  
16-Aug-2012 SAID35 WAPI 160300 METAR WAPI 160300 10016KT 9999 SCT018 29/22 Q1013 NSC=  
16-Aug-2012 SAID35 WAPI 160400 METAR WAPI 160400Z 11011KT 9999 SCT018 28/21 Q1012 NSC=  
16-Aug-2012 SAID35 WAPI 160500 METAR WAPI 160500 11012KT 9999 FEW018 28/22 Q1011 NSC=  
16-Aug-2012 SAID35 WAPI 160600 METAR WAPI 160600 12011KT 9999 SCT018 28/22 Q1010 NSC=  
17-Aug-2012 SAID35 WAPI 170000 METAR WAPI 170000Z 09008KT 9999 FEW018 27/21 Q1013 NCS=  
17-Aug-2012 SAID35 WAPI 170100 METAR WAPI 170100Z 12011KT 9999 FEW018 28/21 Q1013 NCS=  
17-Aug-2012 SAID35 WAPI 170200 METAR WAPI 170200Z 13010KT 9999 FEW018 28/21 Q1013 NCS=  
17-Aug-2012 SAID35 WAPI 170300 METAR WAPI 170300Z 12007KT 9999 FEW018 28/21 Q1012 NCS=  
17-Aug-2012 SAID35 WAPI 170500 METAR WAPI 170500Z 14010KT 9999 FEW018 28/21 Q1011 NCS=  
17-Aug-2012 SAID35 WAPI 170600 METAR WAPI 170600Z 12008KT 9999 FEW018 28/21 Q1010 NCS=  
17-Aug-2012 SAID35 WAPI 172300 METAR WAPI 172300Z 11008KT 9999 SCT018 25/21 Q1013 NSC=  
18-Aug-2012 SAID35 WAPI 180000 METAR WAPI 180000Z 12008KT 9999 FEW018 27/20 Q1014 NSC=  
18-Aug-2012 SAID35 WAPI 180300 METAR WAPI 180300Z 13014KT 9999 FEW018 29/22 Q1013 NCS=  
18-Aug-2012 SAID35 WAPI 180400 METAR WAPI 180400Z 13011KT 9999 FEW018 29/21 Q1012 NCS=  
18-Aug-2012 SAID35 WAPI 180600 METAR WAPI 180600Z 12006KT 9999 SCT018 29/21 Q1010 NCS=  
18-Aug-2012 SAID35 WAPI 182300 METAR WAPI 182300Z 14005KT 9999 SCT018 25/22 Q1013 NSC=  
19-Aug-2012 SAID35 WAPI 190000 METAR WAPI 190000Z 13006KT 9999 SCT018 27/23 Q1014=  
19-Aug-2012 SAID35 WAPI 190100 METAR WAPI 190100Z 13008KT 9999 BKN017 27/23 Q1014 NCS=  
19-Aug-2012 SAID35 WAPI 190300 METAR WAPI 190300Z 12012KT 9999 BKN017 28/23 Q1013 NCS=  
19-Aug-2012 SAID35 WAPI 190400 METAR WAPI 190400Z 13010KT 9999 BKN017 29/22 Q1012 NCS=  
19-Aug-2012 SAID35 WAPI 190500 METAR WAPI 190500Z 11012KT 9999 BKN017 29/22 Q1011 NCS=  
19-Aug-2012 SAID35 WAPI 190600 METAR WAPI 190600Z 13014KT 9999 BKN017 28/23 Q1011 NCS=  
19-Aug-2012 SAID35 WAPI 192300 METAR WAPI 192300Z 12007KT 9999 FEW018 26/20 Q1013 NSC=  
20-Aug-2012 SAID35 WAPI 200000 METAR WAPI 200000 11008KT 9999 FEW018 28/20 Q1013 NSC=  
20-Aug-2012 SAID35 WAPI 200600 METAR WAPI 200600 12012KT 9999 SCT018 28/22 Q1011 NSC=  
20-Aug-2012 SAID35 WAPI 202300 METAR WAPI 202300Z 10006KT 9999 FEW017 25/22 Q1013 NCS=  
21-Aug-2012 SAID35 WAPI 210000 METAR WAPI 210000Z 14008KT 9999 SCT017 27/23 Q1013 NCS=  
21-Aug-2012 SAID35 WAPI 210100 METAR WAPI 210100Z 12010KT 9999 SCT017 28/23 Q1013 NCS=  
21-Aug-2012 SAID35 WAPI 210200 METAR WAPI 210200Z 13008KT 9999 BKN017 28/22 Q1013 NCS=  
21-Aug-2012 SAID35 WAPI 210300 METAR WAPI 210300Z 12008KT 9999 FEW017 28/23 Q1012 NCS=  
21-Aug-2012 SAID35 WAPI 210400 METAR WAPI 210400Z 14012KT 9999 SCT017 29/23 Q1011 NCS=  
21-Aug-2012 SAID35 WAPI 210500 METAR WAPI 210500Z 13010KT 9999 FEW017 29/23 Q1010 NCS=  
21-Aug-2012 SAID35 WAPI 210600 METAR WAPI 210600Z 12008KT 9999 SCT017 28/23 Q1010 NCS=  
21-Aug-2012 SAID35 WAPI 212300 METAR WAPI 212300Z 12010KT 9999 SCT018 26/23 Q1012 NSC=  
22-Aug-2012 SAID35 WAPI 220000 METAR WAPI 220000Z 13009KT 9999 SCT018 27/23 Q1013 NSC=  
22-Aug-2012 SAID35 WAPI 220100 METAR WAPI 220100Z 12010KT 9999 SCT017 27/23 Q1013 NCS=  
22-Aug-2012 SAID35 WAPI 220200 METAR WAPI 220200Z 14010KT 9999 SCT017 28/23 Q1012 NCS=  
22-Aug-2012 SAID35 WAPI 220300 METAR WAPI 220300Z 13014KT 9999 SCT017 28/23 Q1012 NCS=  
22-Aug-2012 SAID35 WAPI 220400 METAR WAPI 220400Z 12012KT 9999 SCT017 29/24 Q1011 NCS=  
22-Aug-2012 SAID35 WAPI 220500 METAR WAPI 220500Z 13008KT 9999 SCT017 28/23 Q1010 NCS=  
22-Aug-2012 SAID35 WAPI 220600 METAR WAPI 220600Z 14010KT 9999 BKN017 28/23 Q1010 NCS=  
22-Aug-2012 SAID35 WAPI 222300 METAR WAPI 222300Z 12007KT 9999 SCT018 26/23 Q1012 NSC=  
23-Aug-2012 SAID35 WAPI 230000 METAR WAPI 230000Z 13005KT 9999 SCT018 27/24 Q1013 NSC=  
23-Aug-2012 SAID35 WAPI 230200 METAR WAPI 230200 13010KT 9999 SCT018 29/24 Q1012 NSC=  
23-Aug-2012 SAID35 WAPI 230300 METAR WAPI 230300Z 13008KT 9999 BKN018 29/24 Q1012 NSC=  
23-Aug-2012 SAID35 WAPI 230400 METAR WAPI 230400Z 12010KT 9999 BKN017 30/24 Q1011 NCS=  
23-Aug-2012 SAID35 WAPI 230500 METAR WAPI 230500Z 12008KT 9999 SCT017 29/24 Q1011 NCS=  
23-Aug-2012 SAID35 WAPI 230600 METAR WAPI 230600Z 13006KT 9999 SCT017 29/23 Q1009 NCS=  
23-Aug-2012 SAID35 WAPI 232300 METAR WAPI 232300 10008KT 9999 BKN017 26/24 Q1012 NSC=  
24-Aug-2012 SAID35 WAPI 240000 METAR WAPI 240000 12006KT 9999 BKN017 27/24 Q1013 NSC=  
24-Aug-2012 SAID35 WAPI 240100 METAR WAPI 240100 10012KT 9999 SCT018 28/24 Q1013 NSC=  
24-Aug-2012 SAID35 WAPI 240200 METAR WAPI 240200 09012KT 9999 BKN017 29/24 Q1012 NSC=  
24-Aug-2012 SAID35 WAPI 240300 METAR WAPI 240300 11013KT 9999 BKN017 29/24 Q1012 NSC=  
25-Aug-2012 SAID35 WAPI 250000 METAR WAPI 250000Z 09012KT 9999 BKN017 28/24 Q1013 NCS=  
25-Aug-2012 SAID35 WAPI 250100 METAR WAPI 250100Z 11010KT 9999 BKN017 28/24 Q1013 NCS=  
25-Aug-2012 SAID35 WAPI 250200 METAR WAPI 250200Z 10012KT 9999 SCT017 29/24 Q1013 NCS=  
25-Aug-2012 SAID35 WAPI 250300 METAR WAPI 250300Z 11010KT 9999 SCT017 29/24 Q1012 NCS=  
25-Aug-2012 SAID35 WAPI 250400 METAR WAPI 250400Z 10008KT 9999 SCT017 28/24 Q1012 NCS=  
25-Aug-2012 SAID35 WAPI 250500 METAR WAPI 250500Z 11010KT 9999 BKN017 27/24 Q1011 NCS=  
25-Aug-2012 SAID35 WAPI 250600 METAR WAPI 250600Z 11006KT 9999 BKN017 27/24 Q1010 NCS=  
25-Aug-2012 SAID35 WAPI 252300 METAR WAPI 252300Z 10008KT 9999 SCT017 27/23 Q1012 NCS=  
26-Aug-2012 SAID35 WAPI 260000 METAR WAPI 260000Z 11012KT 9999 BKN017 27/23 Q1013 NCS=  
26-Aug-2012 SAID35 WAPI 260100 METAR WAPI 260100Z 14010KT 9999 FEW017 28/23 Q1013 NCS=  
26-Aug-2012 SAID35 WAPI 260200 METAR WAPI 260200Z 12012KT 9999 FEW017 29/23 Q1012 NCS=  
26-Aug-2012 SAID35 WAPI 260300 METAR WAPI 260300Z 13014KT 9999 SCT017 29/23 Q1011 NCS=  
26-Aug-2012 SAID35 WAPI 260400 METAR WAPI 260400Z 12012KT 9999 BKN017 29/23 Q1011 NCS=  
26-Aug-2012 SAID35 WAPI 260500 METAR WAPI 260500Z 14010KT 9999 BKN017 28/23 Q1010 NCS=  
26-Aug-2012 SAID35 WAPI 260600 METAR WAPI 260600Z 10008KT 9999 SCT018 29/23 Q1009=  
26-Aug-2012 SAID35 WAPI 262300 METAR WAPI 262300Z 10010KT 9999 FEW018 26/22 Q1011 NSC=  
27-Aug-2012 SAID35 WAPI 270000 METAR WAPI 270000Z 12012KT 9999 FEW017 28/22 Q1012 NCS=  
27-Aug-2012 SAID35 WAPI 270200 METAR WAPI 270200Z 11014KT 9999 FEW018 29/22 Q1011 NCS=  
27-Aug-2012 SAID35 WAPI 270300 METAR WAPI 270300Z 10009KT 9999 FEW018 30/22 Q1011 NSC=  
27-Aug-2012 SAID35 WAPI 270500 METAR WAPI 270500Z 12010KT 9999 FEW018 29/22 Q1010 NCS=  
27-Aug-2012 SAID35 WAPI 270600 METAR WAPI 270600Z 10018KT 9999 SCT017 29/23 Q1009 NCS=  
28-Aug-2012 SAID35 WAPI 280000 METAR WAPI 280000 11009KT 9999 FEW017 28/23 Q1013 NSC=  
29-Aug-2012 SAID35 WAPI 290000 METAR WAPI 290000Z 10010KT 9999 BKN017 27/22 Q1015 NCS=  
29-Aug-2012 SAID35 WAPI 290100 METAR WAPI 290100Z 12010KT 9999 SCT017 28/23 Q1015 NCS=  
29-Aug-2012 SAID35 WAPI 290200 METAR WAPI 290200Z 13012KT 9999 FEW017 28/23 Q1014 NCS=  
29-Aug-2012 SAID35 WAPI 290300 METAR WAPI 290300Z 12013KT SCT017 29/22 Q1013 NCS=  
29-Aug-2012 SAID35 WAPI 290600 METAR WAPI 290600Z 13010KT 9999 SCT017 29/22 Q1011 NCS=  
29-Aug-2012 SAID35 WAPI 292300 METAR WAPI 292300Z 12006KT 9999 FEW017 24/23 Q1014 NCS=  
30-Aug-2012 SAID35 WAPI 300000 METAR WAPI 300000Z 12008KT 9999 FEW017 27/22 Q1014 NCS=  
30-Aug-2012 SAID35 WAPI 300200 METAR WAPI 300200Z 16005KT 9999 SCT018 28/23 Q1013 NSC=  
30-Aug-2012 SAID35 WAPI 300300 METAR WAPI 300300Z 12009KT 9999 BKN018 29/22 Q1013 NSC=  
30-Aug-2012 SAID35 WAPI 302300 METAR WAPI 302300Z 13004KT 9999 SCT017 26/23 Q1013 NCS=  
31-Aug-2012 SAID35 WAPI 310000 METAR WAPI 310000Z 12005KT 9999 SCT017 27/23 Q1013 NCS=  
31-Aug-2012 SAID35 WAPI 310100 METAR WAPI 310100Z 13006KT 9999 SCT018 29/23 Q1013 NCS=  
31-Aug-2012 SAID35 WAPI 310200 METAR WAPI 310200Z 16005KT 9999 SCT018 28/23 Q1013 NSC=  
31-Aug-2012 SAID35 WAPI 310300 METAR WAPI 310300Z 15010KT 9999 BKN018 29/23 Q1012 NSC=  
31-Aug-2012 SAID35 WAPI 312300 METAR WAPI 312300Z 12008KT 9999 FEW017 26/22 Q1013 NCS=  
01-Sep-2012 SAID35 WAPI 010000 METAR WAPI 010000Z 12004KT 9999 SCT017 27/22 Q1013NCS=  
01-Sep-2012 SAID35 WAPI 010200 METAR WAPI 010200Z 13007KT 9999 FEW018 29/22 Q1013 NSC=  
01-Sep-2012 SAID35 WAPI 010300 METAR WAPI 010300Z 14007KT 9999 FEW018 30/23 Q1012 NSC=  
01-Sep-2012 SAID35 WAPI 010400 METAR WAPI 010400Z 14008KT 9999 FEW018 29/22 Q1011 NSC=  
01-Sep-2012 SAID35 WAPI 010500 METAR WAPI 010500Z 13006KT 9999 FEW017 29/21 Q1010 NCS=  
02-Sep-2012 SAID35 WAPI 020000 METAR WAPI 020000 11008KT 9999 SCT017 28/23 Q1013 NSC=  
02-Sep-2012 SAID35 WAPI 020400 METAR WAPI 020400Z 12009KT 9999 FEW018 30/23 Q1012 NSC=  
03-Sep-2012 SAID35 WAPI 030000 METAR WAPI 030000 10014KT 9999 FEW017 27/22 Q1013 NSC=  
03-Sep-2012 SAID35 WAPI 030200 METAR WAPI 030200Z 10008KT 9999 FEW018 29/23 Q1013 NSC=  
03-Sep-2012 SAID35 WAPI 030300 METAR WAPI 030300Z 13011KT 9999 FEW018 29/23 Q1012 NSC=  
04-Sep-2012 SAID35 WAPI 040000 METAR WAPI 040000 08012KT 9999 SCT018 28/23 Q1014 NSC=  
04-Sep-2012 SAID35 WAPI 040100 METAR WAPI 040100 09010KT 9999 SCT018 29/23 Q1014 NSC=  
04-Sep-2012 SAID35 WAPI 040200 METAR WAPI 040200Z 08010KT 9999 SCT018 29/23 Q1013 NSC=  
04-Sep-2012 SAID35 WAPI 040300 METAR WAPI 040300Z 08012KT 9999 BKN018 29/23 Q1013 NSC=  
04-Sep-2012 SAID35 WAPI 040400 METAR WAPI 040400 08014KT 9999 SCT018 29/23 Q 1012 NSC=  
04-Sep-2012 SAID35 WAPI 040600 METAR WAPI 040600 08014KT 9999 SCT018 28/22 Q1011 NSC=  
04-Sep-2012 SAID35 WAPI 042300 METAR WAPI 042300 10007KT 9999 FEW017 26/23 Q1013 NCS=  
05-Sep-2012 SAID35 WAPI 050000 METAR WAPI 050000Z 12012KT 9999 FEW017 28/22 Q1013 NCS=  
05-Sep-2012 SAID35 WAPI 050100 METAR WAPI 050100Z 13010KT 9999 SCT017 28/23 Q1013 NCS=  
05-Sep-2012 SAID35 WAPI 050200 METAR WAPI 050200Z 11012KT 9999 SCT018 29/23 Q1`013 NSC=  
05-Sep-2012 SAID35 WAPI 050300 METAR WAPI 050300Z 11012KT 9999 BKN018 30/22 Q1012 NSC=  
05-Sep-2012 SAID35 WAPI 050400 METAR WAPI 050400Z 10011KT 9999 BKN018 29/23 Q1012 NSC=  
05-Sep-2012 SAID35 WAPI 050500 METAR WAPI 050500Z 09015KT 9999 BKN017 29/22 Q1011 NCS=  
05-Sep-2012 SAID35 WAPI 050600 METAR WAPI 050600Z 11012KT 9999 SCT017 29/22 Q1010 NCS=  
05-Sep-2012 SAID35 WAPI 052300 METAR WAPI 052300 09004KT 9999 BKN018 26/22 Q1013 NSC=  
06-Sep-2012 SAID35 WAPI 060000 METAR WAPI 060000 08008KT 9999 BKN018 27/23 Q1013 NSC=  
06-Sep-2012 SAID35 WAPI 060100 METAR WAPI 060100 10010KT 9999 BKN017 28/24 Q1014 NSC=  
06-Sep-2012 SAID35 WAPI 060200 METAR WAPI 060200 09008KT 9999 BKN018 28/23 Q1013 NSC=  
06-Sep-2012 SAID35 WAPI 060300 METAR WAPI 060300 11014KT 9999 SCT018 29/22 Q1012 NSC=  
07-Sep-2012 SAID35 WAPI 070100 METAR WAPI 070100 10012KT 9999 SCT018 29/23 Q1014 NSC=  
07-Sep-2012 SAID35 WAPI 070300 METAR WAPI 070300 12012KT 9999 SCT018 30/23 Q1013 NSC=  
07-Sep-2012 SAID35 WAPI 070400 METAR WAPI 070400Z 11007KT 9999 SCT018 29/24 Q1013 NSC=  
07-Sep-2012 SAID35 WAPI 070600 METAR WAPI 070600 15010KT 9999 SCT018 29/23 Q1011 NSC=  
08-Sep-2012 SAID35 WAPI 080000 METAR WAPI 080000 10009KT 9999 SCT018 28/22 Q1013 NSC=  
08-Sep-2012 SAID35 WAPI 080300 METAR WAPI 080300 12008KT 9999 SCT018 29/22 Q1012 NSC=  
08-Sep-2012 SAID35 WAPI 080400 METAR WAPI 080400 11008KT 9999 BKN018 30/23 Q1011 NSC=  
08-Sep-2012 SAID35 WAPI 080500 METAR WAPI 080500 13009KT 9999 SCT018 29/23 Q1010 NSC=  
08-Sep-2012 SAID35 WAPI 080600 METAR WAPI 080600 11010KT 9999 BKN018 29/23 Q1009 NSC=  
09-Sep-2012 SAID35 WAPI 090000 METAR WAPI 090000 11015KT 9999 FEW017 28/22 Q1014 NSC=  
09-Sep-2012 SAID35 WAPI 090100 METAR WAPI 090100 13013KT 9999 FEW017 29/22 Q1014 NSC=  
09-Sep-2012 SAID35 WAPI 090200 METAR WAPI 090200 13013KT 9999 FEW017 29/22 Q1014 NSC=  
09-Sep-2012 SAID35 WAPI 090300 METAR WAPI 090300Z 10013KT 9999 FEW018 30/23 Q1012 NSC=  
09-Sep-2012 SAID35 WAPI 090500 METAR WAPI 09050011014KT 9999 FEW017 30/22 Q1011 NSC=  
09-Sep-2012 SAID35 WAPI 090600 METAR WAPI 090600 13014KT 9999 SCT018 30/21 Q1010 NSC=  
10-Sep-2012 SAID35 WAPI 100000 METAR WAPI 100000Z 13008KT 9999 FEW018 28/22 Q1013 NSC=  
10-Sep-2012 SAID35 WAPI 100100 METAR WAPI 100100Z 12011KT 9999 FEW018 29/22 Q1013 NSC=  
10-Sep-2012 SAID35 WAPI 100300 METAR WAPI 100300Z 11012KT 9999 SCT018 330/22 Q1012 NSC=  
10-Sep-2012 SAID35 WAPI 100600 METAR WAPI 100600Z 13009KT 9999 SCT018 30/23 Q1010 NSC=  
11-Sep-2012 SAID35 WAPI 110000 METAR WAPI 110000 11011KT 9999 FEW017 28/23 Q1013 NSC=  
11-Sep-2012 SAID35 WAPI 110100 METAR WAPI 110100 09010KT 9999 FEW017 29/23 Q1014 NSC=  
11-Sep-2012 SAID35 WAPI 110200 METAR WAPI 110200 11015KT 9999 FEW017 29/23 Q1013 NSC=  
11-Sep-2012 SAID35 WAPI 110300 METAR WAPI 110300 10012KT 9999 SCT018 30/23 Q1012 NSC=  
12-Sep-2012 SAID35 WAPI 120000 METAR WAPI 120000 09012KT 9999 SCT017 28/24 Q1013 NSC=  
12-Sep-2012 SAID35 WAPI 120300 METAR WAPI 120300Z 11013KT 9999 SCT018 29/24 Q1012 NSC=  
12-Sep-2012 SAID35 WAPI 120600 METAR WAPI 120600 10013KT 9999 BKN017 29/24 Q1009 NSC=  
12-Sep-2012 SAID35 WAPI 122300 METAR WAPI 122300 09007KT 9999 BKN018 27/24 Q1012 NSC=  
13-Sep-2012 SAID35 WAPI 130000 METAR WAPI 130000 10012KT 9999 SCT018 28/24 Q1013 NSC=  
13-Sep-2012 SAID35 WAPI 130100 METAR WAPI 130100 12012KT 9999 SCT018 28/24 Q1013 NSC=  
13-Sep-2012 SAID35 WAPI 130300 METAR WAPI 130300Z 10012KT 9999 SCT018 9999 30/34 Q1011 NSC=  
13-Sep-2012 SAID35 WAPI 130400 METAR WAPI 130400Z 09010KT 9999 FEW018 30/24 Q1010 NSC=  
13-Sep-2012 SAID35 WAPI 130600 METAR WAPI 130600 12013KT 9999 BKN018 30/24 Q1009 NSC=  
14-Sep-2012 SAID35 WAPI 140000 METAR WAPI 140000 07010KT 9999 FEW017 28/23 Q1012 NSC=  
14-Sep-2012 SAID35 WAPI 140100 METAR WAPI 140100 08012KT 9999 FEW017 29/24 Q1012 NSC=  
14-Sep-2012 SAID35 WAPI 140200 METAR WAPI 140200 07013KT 9999 FEW017 30/23 Q1011 NSC=  
14-Sep-2012 SAID35 WAPI 140300 METAR WAPI 140300 09012KT 9999 FEW017 31/25 Q1011 NSC=  
14-Sep-2012 SAID35 WAPI 140500 METAR WAPI 140500Z 11008KT 9999 SCT018 30/24 Q1009 NSC=  
14-Sep-2012 SAID35 WAPI 140600 METAR WAPI 140600Z 14013KT 9999 SCT018 Q1009 NSC=  
15-Sep-2012 SAID35 WAPI 150000 METAR WAPI 150000Z 09008KT 9999 FEW018 28/23 Q1013 NSC=  
15-Sep-2012 SAID35 WAPI 150100 METAR WAPI 150100Z 11016KT 9999 SCT018 28/23 Q1013 NOSIC=  
15-Sep-2012 SAID35 WAPI 150200 METAR WAPI 150200Z 10009KT 9999 FEW018 30/23 Q1012 NSC=  
15-Sep-2012 SAID35 WAPI 150300 METAR WAPI 150300Z 09012KT 9999 FEW018 30/23 Q1012 NSC=  
16-Sep-2012 SAID35 WAPI 160000 METAR WAPI 160000 11011KTB 9999 BKN018 28/23 Q1014 NSC=  
16-Sep-2012 SAID35 WAPI 160200 METAR WAPI 160200 11010KT 9999 BKN018 29/23 Q1014 NSC=  
16-Sep-2012 SAID35 WAPI 160300 METAR WAPI 160300 09015KT 9999 BKN018 29/23 Q1014 NSC=  
16-Sep-2012 SAID35 WAPI 162300 METAR WAPI 162300 07008KT 9999 FEW017 27/23 Q1013 NSC=  
17-Sep-2012 SAID35 WAPI 170000 METAR WAPI 170000Z 08012KT 9999 SCT018 28/23 Q1014 NSC=  
17-Sep-2012 SAID35 WAPI 170400 METAR WAPI 170400Z 10009KT 9999 SCT018 29/23 Q1012 NSC=  
17-Sep-2012 SAID35 WAPI 170500 METAR WAPI 170500Z 10009KT 9999 BKN018 29/23 Q1011 NSC=  
17-Sep-2012 SAID35 WAPI 170600 METAR WAPI 170600 12010KT 9999 FEW017 29/23 Q1010 NSC=  
17-Sep-2012 SAID35 WAPI 172300 METAR WAPI 172300 09006KT 9999 SCT018 27/22 Q1013 NSC=  
18-Sep-2012 SAID35 WAPI 180000 METAR WAPI 180000 1008KT 9999 SCT018 28/22 Q1013 NSC=  
18-Sep-2012 SAID35 WAPI 180100 METAR WAPI 180100 12008KT 9999 SCT018 Q1013 NSC=  
18-Sep-2012 SAID35 WAPI 180200 METAR WAPI 180200 09012KT 9999 SCT018 Q1013 NSC=  
18-Sep-2012 SAID35 WAPI 180300 METAR WAPI 180300 10008KT 9999 SCT018 29/22 Q1013 NSC=  
18-Sep-2012 SAID35 WAPI 180600 METAR WAPI 180600 12008KT 9999 SCT018 30/22 Q1011 NSC=  
18-Sep-2012 SAID35 WAPI 182300 METAR WAPI 182300 10008KT 9999 FEW017 25/22 Q1013 NSC=  
19-Sep-2012 SAID35 WAPI 190000 METAR WAPI 190000 11009KT 9999 FEW017 28/22 Q1013 NSC=  
19-Sep-2012 SAID35 WAPI 190200 METAR WAPI 190200 14012KT 9999 FEW017 29/22 Q1012 NSC=  
19-Sep-2012 SAID35 WAPI 190300 METAR WAPI 190300 13012KT 9999 SCT018 29/22 Q1012 NSC=  
19-Sep-2012 SAID35 WAPI 190400 METAR WAPI 190400 14010KT 9999 FEW017 30/22 Q1011 NSC=  
20-Sep-2012 SAID35 WAPI 200000 METAR WAPI 200000Z 11010KT 9999 FEW018 28 23 Q1013 NOSIC=  
20-Sep-2012 SAID35 WAPI 200200 METAR WAPI 200200Z 12011KT 9999 FEW018 29/23 Q1013 NOSIC=  
20-Sep-2012 SAID35 WAPI 200300 METAR WAPI 200300Z 11014KT 9999 SCT018 30/22 Q1012 NSC=  
20-Sep-2012 SAID35 WAPI 200400 METAR WAPI 200400Z 10010KT 9999 FEW018 30/23 Q1011 NSC=  
21-Sep-2012 SAID35 WAPI 210000 METAR WAPI 210000 11008KT 9999 FEW017 28/21 Q1014 NSC=  
21-Sep-2012 SAID35 WAPI 210100 METAR WAPI 210100 11010KT 9999 SCT018 28/21 Q1014 NSC=  
21-Sep-2012 SAID35 WAPI 210200 METAR WAPI 210200 10012KT 9999 BKN018 28/21 Q1014 NSC=  
21-Sep-2012 SAID35 WAPI 210300 METAR WAPI 210300 13014KT 9999 SCT018 29/21 Q1013 NSC=  
21-Sep-2012 SAID35 WAPI 210600 METAR WAPI 210600 12013KT 9999 BKN 018 29/21 Q1010 NSC=  
22-Sep-2012 SAID35 WAPI 220000 METAR WAPI 220000 12011KT 9999 SCT018 28/21 Q1013 NSC=  
22-Sep-2012 SAID35 WAPI 220200 METAR WAPI 220200 10012KT 9999 SCT018 29/21 Q1013 NSC=  
22-Sep-2012 SAID35 WAPI 220300 METAR WAPI 220300 09012KT 9999 BKN018 29/21 Q1012 NSC=  
22-Sep-2012 SAID35 WAPI 220400 METAR WAPI 220400Z 10013KT 9999 SCT018 29/21 Q1011 NSC=  
22-Sep-2012 SAID35 WAPI 220500 METAR WAPI 220500Z 12009KT 9999 SCT018 29/21 Q1010 NSC=  
22-Sep-2012 SAID35 WAPI 220600 METAR WAPI 220600 12013KT 9999 BKN018 29/21 Q1009 NSC=  
23-Sep-2012 SAID35 WAPI 230000 METAR WAPI 230000 08005KT 9999 SCT018 28/21 Q1011 NSC=  
23-Sep-2012 SAID35 WAPI 230100 METAR WAPI 230100 11010KT 9999 SCT018 28/21 Q1011 NSC=  
23-Sep-2012 SAID35 WAPI 230200 METAR WAPI 230200 13012KT 9999 SCT018 29021 Q1011 NSC=  
23-Sep-2012 SAID35 WAPI 230300 METAR WAPI 230300 15008KT 9999 SCT018 29/21 Q1010 NSC=  
23-Sep-2012 SAID35 WAPI 230400 METAR WAPI 230400Z 11008KT 9999 SCT018 29/21 Q1009 NSC=  
23-Sep-2012 SAID35 WAPI 230600 METAR WAPI 230600 13008KT 9999 SCT018 29/21 Q1007 NSC=  
23-Sep-2012 SAID35 WAPI 232300 METAR WAPI 232300 11008KT 9999 FEW017 28/21 Q1010 NSC=  
24-Sep-2012 SAID35 WAPI 240000 METAR WAPI 240000 12005KT 9999 BKN018 27/21 Q1011 NSC=  
24-Sep-2012 SAID35 WAPI 240100 METAR WAPI 240100 10006KT 9999 SCT018 29/21 Q1011 NSC=  
24-Sep-2012 SAID35 WAPI 240300 METAR WAPI 240300Z 12006KT 9999 SCT018 30/22 Q1010 NSC=  
24-Sep-2012 SAID35 WAPI 240600 METAR WAPI 240600 10007KT 9999 SCT018 29/22 Q1007 NSC=  
25-Sep-2012 SAID35 WAPI 250000 METAR WAPI 250000Z 12006KT 9999 BKN018 28/24 Q1011 NOSIC=  
25-Sep-2012 SAID35 WAPI 250100 METAR WAPI 250100Z 11009KT 9999 BKN018 29/23 Q1011 NOSIC=  
25-Sep-2012 SAID35 WAPI 250200 METAR WAPI 250200Z 10008KT 9999 BKN018 29/24 Q1011 NOSIC=  
26-Sep-2012 SAID35 WAPI 260000 METAR WAPI 260000 10005KT 9999 BKN017 25/21 Q1013 NSC=  
26-Sep-2012 SAID35 WAPI 260100 METAR WAPI 260100 08005KT 9999 BKN015 27/24 Q1013 NSC=  
26-Sep-2012 SAID35 WAPI 260200 METAR WAPI 260200Z 11007KT 9999 BKN018 28/24 Q1013 NOSIC=  
26-Sep-2012 SAID35 WAPI 260300 METAR WAPI 260300 13009KT 9999 SCT018 30/24 Q1011 NSC=  
26-Sep-2012 SAID35 WAPI 260400 METAR WAPI 260400 09006KT 9999 SCT018 30/24 Q1010 NSC=  
26-Sep-2012 SAID35 WAPI 262300 METAR WAPI 262300 07005KT 9999 SCT018 28/23 Q1012 NSC=  
27-Sep-2012 SAID35 WAPI 270000 METAR WAPI 270000 06007KT 9999 SCT017 28/23 Q1013 NSC=  
27-Sep-2012 SAID35 WAPI 270200 METAR WAPI 270200 10007KT 9999 SCT018 30/23 Q1012 NSC=  
27-Sep-2012 SAID35 WAPI 270300 METAR WAPI 270300Z 05007KT 9999 FEW018 31/23 Q1011 NSC=  
27-Sep-2012 SAID35 WAPI 270500 METAR WAPI 270500Z 12007KT 9999 FEW018 31/23 Q1009 NSC=  
27-Sep-2012 SAID35 WAPI 270600 METAR WAPI 270600 10007KT 9999 FEW017 31/23 Q1009 NSC=  
28-Sep-2012 SAID35 WAPI 280000 METAR WAPI 280000 09005KT 9999 FEW017 29/23 Q1013 NSC=  
28-Sep-2012 SAID35 WAPI 280100 METAR WAPI 280100 04006KT 9999 SCT018 30/23 Q1013 NSC=  
28-Sep-2012 SAID35 WAPI 280200 METAR WAPI 280200Z 03007KT 9999 FEW017 31/23 Q1013 NOSIC=  
28-Sep-2012 SAID35 WAPI 280400 METAR WAPI 280400Z 11009KT 9999 SCT018 31/24 Q1011 NSC=  
28-Sep-2012 SAID35 WAPI 280500 METAR WAPI 280500Z 12008KT 9999 SCT018 30/24 Q1010 NSC=  
28-Sep-2012 SAID35 WAPI 280600 METAR WAPI 280600Z 13006KT 9999 BKN018 30/24 Q1010 NSC=  
28-Sep-2012 SAID35 WAPI 282300 METAR WAPI 282300 10005KT 9999 SCT018 27/24 Q1013 NSC=  
29-Sep-2012 SAID35 WAPI 290000 METAR WAPI 290000 10206KT 9999 BKN018 29/24 Q1013=  
29-Sep-2012 SAID35 WAPI 290200 METAR WAPI 290200 11008KT 9999 BKN017 30/24 Q1013 NSC=  
29-Sep-2012 SAID35 WAPI 290300 METAR WAPI 290300Z 12008KT 9999 SCT018 31/24 Q1013 NSC=  
29-Sep-2012 SAID35 WAPI 290400 METAR WAPI 290400Z 14008KT 9999 BKN018 31/24 Q1011 NSC=  
29-Sep-2012 SAID35 WAPI 290500 METAR WAPI 290500 13012KT 9999 BKN018 30/24 Q1011 NSC=  
29-Sep-2012 SAID35 WAPI 290600 METAR WAPI 290600 12014KT 9999 BKN018 29/23 Q1010 NSC=  
30-Sep-2012 SAID35 WAPI 300000 METAR WAPI 300000Z 06006KT 9999 FEW018 29/22 Q1014 NOSIC=  
30-Sep-2012 SAID35 WAPI 300100 METAR WAPI 300100Z 10008KT 9999 FEW018 30/24 Q1014 NSC=  
30-Sep-2012 SAID35 WAPI 300300 METAR WAPI 300300Z 11007KT 9999 SCT018 30/23 Q1013 NOSIC=  
30-Sep-2012 SAID35 WAPI 300600 METAR WAPI 300600Z 12008KT 9999 BKN018 30/23 Q1012 NSC=  
30-Sep-2012 SAID35 WAPI 302300 METAR WAPI 302300 12006KT 9999 SCT018 28/23 Q1014 NSC=  
01-Oct-2012 SAID35 WAPI 010000 METAR WAPI 010000Z 11010KT 9999 BKN018 29/23 Q1015 NCS=  
01-Oct-2012 SAID35 WAPI 010100 METAR WAPI 010100Z 13012KT 9999 SCT018 30/24 Q1015 NCS=  
01-Oct-2012 SAID35 WAPI 010200 METAR WAPI 010200Z 12012KT 9999 FEW018 30/23 Q1015 NCS=  
01-Oct-2012 SAID35 WAPI 010300 METAR WAPI 010300 11010KT 9999 FEW017 30/23 Q1014 NSC=  
01-Oct-2012 SAID35 WAPI 010400 METAR WAPI 010400 12012KT 9999 SCT018 31/23 Q1013 NSC=  
01-Oct-2012 SAID35 WAPI 010500 METAR WAPI 010500 10010KT 9999 SCT018 30/23 Q1012 NSC=  
01-Oct-2012 SAID35 WAPI 010600 METAR WAPI 010600Z 12010KT 9999 SCT018 30/23 Q1012 NCS=  
01-Oct-2012 SAID35 WAPI 012300 METAR WAPI 012300Z 12008KT 9999 SCT018 28/23 Q1015 NCS=  
02-Oct-2012 SAID35 WAPI 020000 METAR WAPI 020000Z 2009KT 9999 FEW018 29/23 Q1015 NSC=  
02-Oct-2012 SAID35 WAPI 020200 METAR WAPI 020200Z 14006KT 9999 FEW0108 30/23 Q1014 NCS=  
02-Oct-2012 SAID35 WAPI 020300 METAR WAPI 020300Z 13010KT 9999 SCT018 30/23 Q1013 NCS=  
02-Oct-2012 SAID35 WAPI 020500 METAR WAPI 020500Z 10010KT 9999 FEW018 30/23 Q1011 NCS=  
02-Oct-2012 SAID35 WAPI 020600 METAR WAPI 020600Z 12008KT 9999 SCT018 30/23 Q1011 NCS=  
03-Oct-2012 SAID35 WAPI 030000 METAR WAPI 030000Z 11007KT 9999 SCT018 28/23 Q1013 NSC=  
03-Oct-2012 SAID35 WAPI 030100 METAR WAPI 030100Z 11008KT 9999 BKN018 30/23 Q1013 NSC=  
03-Oct-2012 SAID35 WAPI 030200 METAR WAPI 030200Z 11010KT 9999 SCT018 30/22 Q1013 NSC=  
03-Oct-2012 SAID35 WAPI 030300 METAR WAPI 030300Z 12012KT 9999 BKN018 31/22 Q1012 NSC=  
03-Oct-2012 SAID35 WAPI 030500 METAR WAPI 030500Z 10006KT 9999 FEW018 30/22 Q1010 NCS=  
03-Oct-2012 SAID35 WAPI 030600 METAR WAPI 030600Z 14010KT 9999 FEW018 30/22 Q1010 NCS=  
03-Oct-2012 SAID35 WAPI 032300 METAR WAPI 032300Z 10006KT 9999 SCT018 27/22 Q1012 NCS=  
04-Oct-2012 SAID35 WAPI 040000 METAR WAPI 040000Z 12012KT 9999 BKN018 29/23 Q1012 NCS=  
04-Oct-2012 SAID35 WAPI 040100 METAR WAPI 040100Z 13010KT 9999 SCT018 30/23 Q1012 NCS=  
04-Oct-2012 SAID35 WAPI 040200 METAR WAPI 040200Z 10009KT BKN018 29/23 Q1011 NSC=  
04-Oct-2012 SAID35 WAPI 040600 METAR WAPI 040600Z 13008KT 9999 SCT018 29/23 Q1009 NCS=  
05-Oct-2012 SAID35 WAPI 050000 METAR WAPI 050000 211010KT 9999 SCT018 29/24 Q1013 NSC=  
05-Oct-2012 SAID35 WAPI 050100 METAR WAPI 050100 09016KT 9999 SCT018 30/24 Q1013 NSC=  
05-Oct-2012 SAID35 WAPI 050200 METAR WAPI 050200 08013KT 9999 SCT018 30/24 Q1012 NSC=  
05-Oct-2012 SAID35 WAPI 050300 METAR WAPI 050300 09014KT 9999 BKN018 31/24 Q1011 NSC=  
05-Oct-2012 SAID35 WAPI 050600 METAR WAPI 050600 09013KT 9999 BKN018 30/24 Q1009 NSC=  
05-Oct-2012 SAID35 WAPI 052300 METAR WAPI 052300Z 11005KT 9999 FEW018 27/23 Q1013 NCS=  
06-Oct-2012 SAID35 WAPI 060000 METAR WAPI 060000 09007KT 9999 SCT018 28/23 Q1013 NSC=  
06-Oct-2012 SAID35 WAPI 060100 METAR WAPI 060100 10008KT 9999 SCT 018 29/23 Q1013 NSC=  
06-Oct-2012 SAID35 WAPI 060200 METAR WAPI 060200 09011KT 9999 SCT018 29/22 Q1013 NSC=  
06-Oct-2012 SAID35 WAPI 060300 METAR WAPI 060300 10008KT 9999 FEW017 30/23 Q1012 NSC=  
06-Oct-2012 SAID35 WAPI 060400 METAR WAPI 060400Z 11006KT 9999 FEW018 31/22 Q1011 NCS=  
06-Oct-2012 SAID35 WAPI 060500 METAR WAPI 060500Z 09008KT 9999 FEW018 30/22 Q1010 NCS=  
06-Oct-2012 SAID35 WAPI 060600 METAR WAPI 060600Z 14006KT 9999 FEW018 30/22 Q1010 NSC=  
06-Oct-2012 SAID35 WAPI 062300 METAR WAPI 062300Z 13004KT 9999 FEW018 26/23 Q1013 NSC=  
07-Oct-2012 SAID35 WAPI 070000 METAR WAPI 070000Z 11504KT 9999 FEW018 28/22 Q1013 NSC=  
07-Oct-2012 SAID35 WAPI 070100 METAR WAPI 070100Z 10006KT 9999 FEW018 29/21 Q1013 NSC=  
07-Oct-2012 SAID35 WAPI 070200 METAR WAPI 070200Z 12006KT 9999 FEW018 30/21 Q1012 NSC=  
07-Oct-2012 SAID35 WAPI 070300 METAR WAPI 070300Z 12006KT 9999 FEW018 30/22 Q1012 NSC=  
07-Oct-2012 SAID35 WAPI 070400 METAR WAPI 070400Z 14005KT 9999 FEW018 31/22 Q1011 NSC=  
07-Oct-2012 SAID35 WAPI 070500 METAR WAPI 070500Z 13004KT 9999 FEW018 31/22 Q1009 NSC=  
07-Oct-2012 SAID35 WAPI 070600 METAR WAPI 070600Z 14006KT 9999 FEW018 30/22 Q1009 NSC=  
08-Oct-2012 SAID35 WAPI 080000 METAR WAPI 080000Z 15007KT 9999 FEW018 29/22 Q1012 NSC=  
08-Oct-2012 SAID35 WAPI 080200 METAR WAPI 080200Z 13006KT 9999 SCT018 30/23 Q1011 NSC=  
08-Oct-2012 SAID35 WAPI 080300 METAR WAPI 080300Z 11008KT 9999 SCT018 30/22 Q1010 NSC=  
08-Oct-2012 SAID35 WAPI 080400 METAR WAPI 080400Z 13007KT 9999 SCT018 31/22 Q1009 NSC=  
08-Oct-2012 SAID35 WAPI 080500 METAR WAPI 080500Z 12006KT 9999 FEW018 31/22 Q1008 NSC=  
08-Oct-2012 SAID35 WAPI 080600 METAR WAPI 080600Z 13004KT 9999 FEW018 30/22 Q1008 NSC=  
08-Oct-2012 SAID54 WAPI 080600 METAR WAPI 080600Z 13004KT 9999 FEW018 30/22 Q1008 NSC=  
09-Oct-2012 SAID35 WAPI 090000 METAR WAPI 090000Z 11006KT 9999 SCT018 29/23 Q1011 NSC=  
09-Oct-2012 SAID35 WAPI 090100 METAR WAPI 090100Z 10005KT 9999 SCT018 30/23 Q1011 NSC=  
09-Oct-2012 SAID35 WAPI 090200 METAR WAPI 090200Z 13007KT 9999 BKN018 30/23 Q1010 NSC=  
09-Oct-2012 SAID35 WAPI 090300 METAR WAPI 090300Z 12010KT 9999 SCT018 31/23 Q1009 NSC=  
09-Oct-2012 SAID35 WAPI 090500 METAR WAPI 090500Z 12010KT 9999 FEW018 31/22 Q1007 NSC=  
09-Oct-2012 SAID35 WAPI 090600 METAR WAPI 090600Z 10006KT 9999 FEW018 31/21 Q1007 NCS=  
09-Oct-2012 SAID35 WAPI 092300 METAR WAPI 092300 00000KT 9999 FEW017 273/23 Q1011 NSC=  
10-Oct-2012 SAID35 WAPI 100000 METAR WAPI 100000 35002KT 9999 SCT018 27/24 Q1011 NSC=  
10-Oct-2012 SAID35 WAPI 100200 METAR WAPI 10200 13006KT 9999 FEW018 30/24 Q1010 NSC=  
10-Oct-2012 SAID35 WAPI 100300 METAR WAPI 100300 10008KT 9999 FEW018 31/23 Q1009 NSC=  
10-Oct-2012 SAID35 WAPI 100600 METAR WAPI 100600 10008KT 9999 FEW018 31/23 Q1007 NSC=  
11-Oct-2012 SAID35 WAPI 110100 METAR WAPI 110100Z 11008KT 9999 BKN018 29/25 Q1011 NSC=  
11-Oct-2012 SAID35 WAPI 110600 METAR WAPI 110600 10013KT 9999 SCT018 31/24 Q1009 NSC=  
11-Oct-2012 SAID35 WAPI 112300 METAR WAPI 112300Z 09006KT 9999 FEW018 29/23 Q1013 NSC=  
12-Oct-2012 SAID35 WAPI 120000 METAR WAPI 120000Z 07009KT 9999 FEW018 30/23 Q1013 NSC=  
12-Oct-2012 SAID35 WAPI 120300 METAR WAPI 120300Z 08012KT 9999 SCT018 31/24 Q1013 NSC=  
12-Oct-2012 SAID35 WAPI 120500 METAR WAPI 120500Z 10008KT 9999 FEW018 31/23 Q1011 Q1012=  
12-Oct-2012 SAID35 WAPI 122300 METAR WAPI 122300Z 10010KT 9999 BKN018 28/24 Q1013 NSC=  
13-Oct-2012 SAID35 WAPI 130000 METAR WAPI 130000Z 12009KT 9999 BKN018 29/24 Q1013 NSC=  
13-Oct-2012 SAID35 WAPI 130500 METAR WAPI 130500Z 08012KT 9999 BKN018 312/24 Q1010 BKN018 NSC=  
14-Oct-2012 SAID35 WAPI 140600 METAR WAPI 140600Z 11006KT 9999 SCT018 31/24 Q1010 NSC=  
15-Oct-2012 SAID35 WAPI 150000 METAR WAPI 150000 09012KT 9999 SCT018 30/24 Q1014 NSC=  
16-Oct-2012 SAID35 WAPI 160200 METAR WAPI 160200 11015KT 9999 BKN018 31/24 Q1014 NSC=  
16-Oct-2012 SAID35 WAPI 160400 METAR WAPI 160400Z 11016KT 9999 SCT018 31/24 Q1012 NSC=  
16-Oct-2012 SAID35 WAPI 160500 METAR WAPI 160500Z 10012KT 9999 BKN018 31/24 Q1011 NSC=  
17-Oct-2012 SAID35 WAPI 170100 METAR WAPI 170100Z 09012KT 9999 BKN018 31/23 Q1013 NSC=  
17-Oct-2012 SAID35 WAPI 170300 METAR WAPI 170300Z 08011KT 9999 BKN018 31/23 Q1012 NSC=  
17-Oct-2012 SAID35 WAPI 170600 METAR WAPI 170600Z 10016KT 9999 SCT018 30/23 Q1009 NSC=  
18-Oct-2012 SAID35 WAPI 180000 METAR WAPI 180000Z 11006KT 9999 SCT018 Q1012 NSC=  
18-Oct-2012 SAID35 WAPI 180300 METAR WAPI 180300Z 12012KT 9999 SCT018 31/23 Q1012 NSC=  
19-Oct-2012 SAID35 WAPI 190100 METAR WAPI 190100Z 14006KT 9999 SCT018 30/23 Q1012 NSC=  
19-Oct-2012 SAID35 WAPI 192300 METAR WAPI 192300Z 14006KT 9999 SCT018 28/23 Q1011 NSC=  
20-Oct-2012 SAID35 WAPI 200200 METAR WAPI 200200Z 13007KT 9999 FEW018 30/23 Q1011 NSC=  
20-Oct-2012 SAID35 WAPI 200600 METAR WAPI 200600 12012KT 9999 SCT018 30/22 Q1008 NSC=  
20-Oct-2012 SAID35 WAPI 202300 METAR WAPI 202300 05010KT 9999 FEW017 28/23 Q1010 NSC=  
21-Oct-2012 SAID35 WAPI 210000 METAR WAPI 210000Z 06004KT 9999 FEW018 30/23 Q1010 NSC=  
21-Oct-2012 SAID35 WAPI 210300 METAR WAPI 210300Z 14010KT 9999 BKN018 31/23 Q1009 NSC=  
22-Oct-2012 SAID35 WAPI 220000 METAR WAPI 220000Z 08006KT 9999 FEW018 30/24 Q1010 NSC=  
22-Oct-2012 SAID35 WAPI 220100 METAR WAPI 220100Z 13006KT 9999 SCT018 31/24 Q1010 NSC=  
22-Oct-2012 SAID35 WAPI 220200 METAR WAPI 220200Z 12006KT 9999 SCT018 31/24 Q1010 NSC=  
22-Oct-2012 SAID35 WAPI 220300 METAR WAPI 220300Z 11009KT 9999 SCT018 31/24 Q1009 NSC=  
22-Oct-2012 SAID35 WAPI 220400 METAR WAPI 220400Z 11008KT 9999 SCT018 31/23 Q1008 NSC=  
22-Oct-2012 SAID35 WAPI 220500 METAR WAPI 220500Z 07012KT 9999 FEW018 31/23 Q1007 NSC=  
23-Oct-2012 SAID35 WAPI 230100 METAR WAPI 230100Z 12008KT 9999 SCT018 30/23 Q1009 NSC=  
23-Oct-2012 SAID35 WAPI 230500 METAR WAPI 230500Z 14006KT 9999 SCT018 31/24 Q1006 NSC=  
23-Oct-2012 SAID35 WAPI 230600 METAR WAPI 230600Z 13005KT 9999 SCT018 31/23 Q1006 NSC=  
23-Oct-2012 SAID35 WAPI 232300 METAR WAPI 232300Z 13006KT 9999 BKN018 29/24 Q1009 NSC=  
24-Oct-2012 SAID35 WAPI 240200 METAR WAPI 240200Z 10010KT 9999 BKN018 31/24 Q1009 NSC=  
24-Oct-2012 SAID35 WAPI 240600 METAR WAPI 240600Z 09009KT 9999 SCT018 31/23 Q1006 NSC=  
25-Oct-2012 SAID35 WAPI 250000 METAR WAPI 250000 09008KT 9999 BKN017 30/25 Q1010 NSC=  
25-Oct-2012 SAID35 WAPI 250400 METAR WAPI 250400 07010KT 9999 SCT018 31/24 Q1007 NSC=  
26-Oct-2012 SAID35 WAPI 260200 METAR WAPI 260200 09012KT 9999 SCT018 31/24 Q1010 NSC=  
26-Oct-2012 SAID35 WAPI 260500 METAR WAPI 260500Z 10008KT 9999 SCT018 31/24 Q1007 NSC=  
26-Oct-2012 SAID35 WAPI 262300 METAR WAPI 262300Z 11006KT 9999 FEW018 29/24 Q1009 NSC=  
27-Oct-2012 SAID35 WAPI 270100 METAR WAPI 270100Z 11007KT 9999 SCT018 31/24 Q1010 NSC=  
27-Oct-2012 SAID35 WAPI 270200 METAR WAPI 270200Z 10006KT 9999 BKN018 31/24 Q1010 NSC=  
27-Oct-2012 SAID35 WAPI 270500 METAR WAPI 270500Z 11005KT 9999 SCT018 32/24 Q1007 NSC=  
28-Oct-2012 SAID35 WAPI 280200 METAR WAPI 280200Z 13006KT 9999 SCT018 31/24 Q1010 NSC=  
29-Oct-2012 SAID35 WAPI 290100 METAR WAPI 290100Z 10007KT 9999 FEW018 30/23 Q1010 NSC=  
29-Oct-2012 SAID35 WAPI 290200 METAR WAPI 290200Z 12007KT 9999 SCT018 31/23 Q1019 NSC=  
29-Oct-2012 SAID35 WAPI 290400 METAR WAPI 290400Z 13008KT 9999 FEW018 32/23 Q1008 NSC=  
30-Oct-2012 SAID35 WAPI 300200 METAR WAPI 300200Z 10008KT 9999 SCT018 31/23 Q1010 NSC=  
30-Oct-2012 SAID35 WAPI 300300 METAR WAPI 300300Z 10008KT 9999 SCT018 31/23 Q1009 NSC=  
30-Oct-2012 SAID35 WAPI 300500 METAR WAPI 300500 07013KT 9999 SCT018 SCT018 31/23 Q1007 NSC=  
30-Oct-2012 SAID35 WAPI 302300 METAR WAPI 302300Z 10005KT 9999 BKN018 29/24 Q1010 NSC=  
01-Nov-2012 SAID35 WAPI 010200 METAR WAPI 010200Z 13006KT 9999 FEW018 31/25 Q1010 FEW018 NSC=  
01-Nov-2012 SAID35 WAPI 012300 METAR WAPI 012300Z 10006KT 9999 BKN018 29/25 Q1010 NSC=  
02-Nov-2012 SAID35 WAPI 020000 METAR WAPI 020000Z 12006KT 9999 BKN018 30/25 Q1010 NSC=  
02-Nov-2012 SAID35 WAPI 022300 METAR WAPI 022300Z 11006KT 9999 SCT018 29/25 Q1010 NSC=  
03-Nov-2012 SAID35 WAPI 030300 METAR WAPI 030300Z 13007KT 9999 BKN018 32/25 Q1009 NSC=  
04-Nov-2012 SAID35 WAPI 040000 METAR WAPI 040000Z 12005KT 9999 30/24 SCT018 Q1011 NSC=  
04-Nov-2012 SAID54 WAPI 040600 METAR WAPI 040600Z 12006KT 9999 FEW018 32/23 Q1007 NSC=  
04-Nov-2012 SAID35 WAPI 042300 METAR WAPI 042300Z 12004KT 9999 BKN018 28/22 Q1009 NSC=  
05-Nov-2012 SAID35 WAPI 050000 METAR WAPI 050000Z 13006KT 9999 SCT018 30/22 Q1010 NSC=  
07-Nov-2012 SAID35 WAPI 070600 METAR WAPI 070600Z 12010KT 9999 FEW018 32/22 Q1006 NSC=  
07-Nov-2012 SAID35 WAPI 070900 METAR WAPI 070900Z 14008KT 9999 SCT018 33/25 Q1008 NSC=  
08-Nov-2012 SAID35 WAPI 080200 METAR WAPI 080200Z 10006KT 9999 SCT018 32/23 Q1008 NSC=  
08-Nov-2012 SAID35 WAPI 080400 METAR WAPI 080400Z 12008KT 9999 SCT018 32/23 Q1007 NSC=  
08-Nov-2012 SAID35 WAPI 080600 METAR WAPI 080600Z 12005KT 9999 SCT018 32/23 Q1006 NSC=  
09-Nov-2012 SAID35 WAPI 090300 METAR WAPI 090300Z 12009KT 9999 BKN018 31/24 Q1009 NSC=  
09-Nov-2012 SAID35 WAPI 090400 METAR WAPI 090400Z 13009KT 9999 SCT018 31/24 Q1008 NSC=  
10-Nov-2012 SAID35 WAPI 100300 METAR WAPI 100300Z 10010KT 9999 SCT018 31/23 Q1010 NSC=  
10-Nov-2012 SAID35 WAPI 100600 METAR WAPI 100600Z 11008KT 9999 SCT018 32/24 Q1008 NSC=  
11-Nov-2012 SAID35 WAPI 110000 METAR WAPI 110000Z 11007KT 9999 BKN018 30/23 Q1011 NSC=  
11-Nov-2012 SAID35 WAPI 110400 METAR WAPI 110400Z 09010KT 9999 SCT018 32/24 Q1008 NSC=  
11-Nov-2012 SAID35 WAPI 112300 METAR WAPI 112300Z 11006KT 9999 SCT018 29/24 Q1010 NSC=  
12-Nov-2012 SAID35 WAPI 120100 METAR WAPI 120100Z 11009KT 9999 BKN018 31/24 Q1010 NSC=  
12-Nov-2012 SAID35 WAPI 120400 METAR WAPI 120400Z 11012KT 9999 BKN018 32/25 Q1008 NSC=  
12-Nov-2012 SAID35 WAPI 120500 METAR WAPI 120500Z 13006KT 9999 BKN018 33/25 Q1007 NSC=  
12-Nov-2012 SAID35 WAPI 120600 METAR WAPI 120600Z 13012KT 9999 BKN018 32/25 Q1007 NSC=  
12-Nov-2012 SAID35 WAPI 122300 METAR WAPI 122300Z 07010KT 9999 SCT018 29/24 Q1010 NSC=  
13-Nov-2012 SAID35 WAPI 130200 METAR WAPI 130200Z 10012KT 9999 SCT018 31/23 Q1010 NSC=  
13-Nov-2012 SAID35 WAPI 130300 METAR WAPI 130300Z 10015KT 9999 SCT018 32/23 Q1010 NSC=  
13-Nov-2012 SAID35 WAPI 130500 METAR WAPI 130500Z 09012KT 9999 SCT018 32/24 Q1008 NSC=  
13-Nov-2012 SAID35 WAPI 130600 METAR WAPI 130600Z 08012KT 9999 FEW018 31/23 Q1008 NSC=  
14-Nov-2012 SAID35 WAPI 142300 METAR WAPI 142300Z 09006KT 9999 SCT018 29/24 Q1010 NSC=  
15-Nov-2012 SAID35 WAPI 150000 METAR WAPI 150000Z 11009KT 9999 SCT018 31/24 Q1011 NSC=  
16-Nov-2012 SAID35 WAPI 160100 METAR WAPI 160100Z 12007KT 9999 SCT018 31/23 Q1011 NSC=  
16-Nov-2012 SAID35 WAPI 160200 METAR WAPI 160200Z 13006KT 9999 FEW018 32/23 Q1010 NSC=  
16-Nov-2012 SAID35 WAPI 162300 METAR WAPI 162300Z 32003KT 9999 SCT018 27/25 Q1010 NSC=  
17-Nov-2012 SAID35 WAPI 170300 METAR WAPI 170300Z 27007KT 9999 FEW018 32/24 Q1009 NSC=  
17-Nov-2012 SAID35 WAPI 170600 METAR WAPI 170600Z 16007KT 9999 FEW018 Q1007 NSC=  
18-Nov-2012 SAID35 WAPI 180000 METAR WAPI 180000Z 29002KT 9999 SCT018 28/25 Q1010 NSC=  
18-Nov-2012 SAID35 WAPI 180100 METAR WAPI 180100Z 23006KT 9999 SCT018 29/25 Q1010 NSC=  
18-Nov-2012 SAID35 WAPI 180300 METAR WAPI 180300Z 13005KT 9999 SCT018 33/24 Q1010 NSC=  
19-Nov-2012 SAID35 WAPI 190000 METAR WAPI 190000Z 15004KT 9999 FEW018 31/23 Q1010=  
19-Nov-2012 SAID35 WAPI 190200 METAR WAPI 190200Z 09007KT 9999 SCT018 33/23 Q1009 NSC=  
20-Nov-2012 SAID35 WAPI 200000 METAR WAPI 200000Z 04003KT 9999 SCT018 29/24 Q1011 NSC=  
20-Nov-2012 SAID35 WAPI 200300 METAR WAPI 200300Z 11008KT 9999 SCT018 33/24 Q1010 NSC=  
21-Nov-2012 SAID35 WAPI 210000 METAR WAPI 210000Z 25002KT 9999 SCT018 30/25 Q1011 NSC=  
21-Nov-2012 SAID35 WAPI 210100 METAR WAPI 210100Z 12003KT 9999 SCT018 33/25 Q1010 NSC=  
21-Nov-2012 SAID35 WAPI 210300 METAR WAPI 210300Z 13007KT 9999 FEW018 33/24 Q1008 NSC=  
21-Nov-2012 SAID35 WAPI 210400 METAR WAPI 210400Z 13008KT 9999 FEW018 33/24 Q1008 NSC=  
21-Nov-2012 SAID35 WAPI 212300 METAR WAPI 212300Z 30002KT 9999 SCT018 28/26 Q1010 NSC=  
22-Nov-2012 SAID35 WAPI 220000 METAR WAPI 220000Z 24002KT 9999 SCT018 29/26 Q1011 NSC=  
22-Nov-2012 SAID35 WAPI 220200 METAR WAPI 220200Z 13008KT 9999 BKN018 33/25 Q1010 NSC=  
22-Nov-2012 SAID35 WAPI 220300 METAR WAPI 220300Z 12006KT 9999 FEW018 33/24 Q1009 NSC=  
22-Nov-2012 SAID35 WAPI 220500 METAR WAPI 220500Z 12005KT 9999 SCT018 34/24 Q1007 NSC=  
22-Nov-2012 SAID35 WAPI 220600 METAR WAPI 220600Z 17012KT 9999 BKN018 34/25 Q1007 NSC=  
24-Nov-2012 SAID35 WAPI 240200 METAR WAPI 240200Z 08007KT 9999 SCT018 33/24 Q1011 NSC=  
24-Nov-2012 SAID35 WAPI 240300 METAR WAPI 240300Z 13007KT 9999 FEW018 34/24 Q1010 NSC=  
25-Nov-2012 SAID35 WAPI 250300 METAR WAPI 250300Z 13008KT 9999 SCT018 32/24 Q1011 NSC=  
26-Nov-2012 SAID35 WAPI 260000 METAR WAPI 260000Z 12006KT 9999 SCT018 Q1011 NSC=  
26-Nov-2012 SAID35 WAPI 260500 METAR WAPI 260500Z 14012KT 9999 SCT018 32/24 Q1008 NSC=  
27-Nov-2012 SAID35 WAPI 270200 METAR WAPI 270200Z 11009KT 9999 FEW018 33/24 Q1010 NSC=  
27-Nov-2012 SAID35 WAPI 270300 METAR WAPI 270300Z 13008KT 9999 FEW018 33/24 Q1009 NSC=  
27-Nov-2012 SAID35 WAPI 270400 METAR WAPI 270400Z 09010KT 9999 FEW018 33/24 Q1008 NSC=  
27-Nov-2012 SAID35 WAPI 272300 METAR WAPI 272300Z 09004KT 9999 FEW018 29/24 Q1010 NSC=  
28-Nov-2012 SAID35 WAPI 280000 METAR WAPI 280000Z 11004KT 9999 SCT018 32/25 Q1011 NSC=  
28-Nov-2012 SAID35 WAPI 280200 METAR WAPI 280200Z 10005KT 9999 FEW018 33/24 Q1010 NSC=  
28-Nov-2012 SAID35 WAPI 280300 METAR WAPI 280300Z 11008KT 9999 FEW018 32/25 Q1010 NSC=  
28-Nov-2012 SAID35 WAPI 280600 METAR WAPI 280600Z 15006KT 9999 FEW018 33/24 Q1007 NSC=  
29-Nov-2012 SAID35 WAPI 290000 METAR WAPI 290000Z 42002KT 9999 SCT018 30/25 Q1011 NSC=  
29-Nov-2012 SAID35 WAPI 290100 METAR WAPI 290100Z 13006KT 9999 SCT018 32/25 Q1011 NSC=  
29-Nov-2012 SAID35 WAPI 290200 METAR WAPI 290200Z 13008KT 9999 SCT018 32/25 Q1010 NSC=  
29-Nov-2012 SAID35 WAPI 292300 METAR WAPI 292300Z 33004KT 9999 SCT018 28/25 Q1010 NSC=  
01-Dec-2012 SAID35 WAPI 010200 METAR WAPI 010200Z 11008KT 9999 FEW018 33/24 Q1010 NSC=  
01-Dec-2012 SAID35 WAPI 012300 METAR WAPI 012300 11006KT 9999 SCT018 30/25 Q1009 NSC=  
02-Dec-2012 SAID35 WAPI 020200 METAR WAPI 020200 08007KT 9999 SCT018 32/24 Q1009 NSC=  
02-Dec-2012 SAID35 WAPI 020600 METAR WAPI 020600Z 12007KT 9999 SCT018 33/25 Q1007 NSC=  
03-Dec-2012 SAID35 WAPI 030300 METAR WAPI 030300Z 10009KT 9999 BKN018 32/24 Q1009 NSC=  
03-Dec-2012 SAID35 WAPI 030400 METAR WAPI 030400Z 11010KT 9999 BKN018 33/24 Q1008 NSC=  
03-Dec-2012 SAID35 WAPI 030500 METAR WAPI 030500Z 12010KT 9999 SCT018 32/24 Q1007 NSC=  
03-Dec-2012 SAID35 WAPI 030600 METAR WAPI 030600Z 12010KT 9999 FEW018 33/24 Q1007 NSC=  
04-Dec-2012 SAID35 WAPI 040000 METAR WAPI 040000Z 00000KT 9999 FEW017 31/26 Q1009 NOSIG=  
04-Dec-2012 SAID35 WAPI 040200 METAR WAPI 040200 09008KT 9999 SCT018 33/21 Q1008 NSC=  
04-Dec-2012 SAID35 WAPI 040400 METAR WAPI 040400 09011 9999 FEWCB017 SCTCU018 33/24 Q1007 NSC=  
04-Dec-2012 SAID35 WAPI 040500 METAR WAPI 040500 13011KT 9999 SCT018 33/24 Q1007 NSC=  
04-Dec-2012 SAID35 WAPI 040600 METAR WAPI 040600 12009KT 9999 SCT018 33/23 Q1006 NSC=  
05-Dec-2012 SAID35 WAPI 050100 METAR WAPI 050100Z 12005KT 9999 FEW018 33/24 Q1010 NSC=  
05-Dec-2012 SAID35 WAPI 050200 METAR WAPI 050200Z 10010KT 9999 FEW018 33/25 Q1009 NSC=  
05-Dec-2012 SAID35 WAPI 050300 METAR WAPI 050300Z 13009KT 9999 FEW018 33/25 Q1009 NSC=  
05-Dec-2012 SAID35 WAPI 050400 METAR WAPI 050400Z 14007KT 9999 CB SCT018 33/26 Q1008=  
06-Dec-2012 SAID35 WAPI 060000 METAR WAPI 060000 25002KT 0012 HAZE SCT017 30/27 Q1011=  
06-Dec-2012 SAID35 WAPI 060100 METAR WAPI 060100 23005KT 9999 SCT017 32/25 Q1011 NSC=  
06-Dec-2012 SAID35 WAPI 060300 METAR WAPI 060300 24006KT 9999 FEW017 33/26 Q1010 NSC=  
06-Dec-2012 SAID35 WAPI 060500 METAR WAPI 060500Z 22005KT 99999 CB FEW018 35/25 Q1007=  
06-Dec-2012 SAID35 WAPI 062300 METAR WAPI 062300Z 25002KT 9999 FEW018 28/26 Q1011 NSC=  
07-Dec-2012 SAID35 WAPI 070200 METAR WAPI 070200Z 23007KT 9999 SCT018 33/25 Q1011 NSC=  
08-Dec-2012 SAID35 WAPI 082300 METAR WAPI 082300 32004KT 008 HAZE SCTCU018 28/25 Q1009=  
09-Dec-2012 SAID35 WAPI 090100 METAR WAPI 090100 09006KT 9999 CU BKN018 31/25 Q1009 NSC=  
09-Dec-2012 SAID35 WAPI 090200 METAR WAPI 090200 03010KT 9999 CU BKN018 31/25 Q1009 NSC=  
09-Dec-2012 SAID35 WAPI 090400 METAR WAPI 090400 900200 Z 090300 Z 090325 Z 03010KT V 09010KT V 30012KT 9999 SCT018 31/25 Q1007 NSC=  
10-Dec-2012 SAID35 WAPI 100100 METAR WAPI 100100 00000KT 00020 RE TS CB FEW017 28/24 Q1010=  
10-Dec-2012 SAID35 WAPI 100300 METAR WAPI 100300 13007KT 9999 SCT017 33/25 Q1009 NSC=  
11-Dec-2012 SAID35 WAPI 110200 METAR WAPI 110200Z 13005KT 9999 SCT018 33/24 Q1009 NSC=  
11-Dec-2012 SAID35 WAPI 110300 METAR WAPI 110300Z 10007KT 9999 SCT018 33/24 Q1009 NSC=  
11-Dec-2012 SAID35 WAPI 110400 METAR WAPI 110400Z 08010KT 9999 SCT018 33/24 Q1008 NSC=  
11-Dec-2012 SAID35 WAPI 110500 METAR WAPI 110500Z 07012KT 9999 SCT018 33/24 Q1008 NSC=  
12-Dec-2012 SAID35 WAPI 120300 METAR WAPI 120300 16006KT 9999 CB SCT018 34/24 Q1009 NSC=  
13-Dec-2012 SAID35 WAPI 130000 METAR WAPI 130000 32004KT 9999 RA CU SCT020 28/25 Q1011=  
13-Dec-2012 SAID35 WAPI 130200 METAR WAPI 130200Z 10012KT 9999 SCT018 31/23 Q1010 NSC=  
13-Dec-2012 SAID35 WAPI 130400 METAR WAPI 130400Z 12007KT 9999 CB SCT018 32/24 Q1009 NSC=  
14-Dec-2012 SAID35 WAPI 140100 METAR WAPI 140100 07008KT 9999 CB FEW020 32/23 Q1011 NSC=  
14-Dec-2012 SAID35 WAPI 140200 METAR WAPI 140200Z 04010KT 9999 CB SCT018 33/24 Q1010=  
14-Dec-2012 SAID35 WAPI 140300 METAR WAPI 140300Z 12009KT 9999 CB SCT018 33/25 Q1010=  
14-Dec-2012 SAID35 WAPI 140600 METAR WAPI 140600Z 10007KT 9999 CBFEW017 33/24 Q10009=  
14-Dec-2012 SAID35 WAPI 142300 METAR WAPI 142300Z 32003KT 9999 FEW018 29/24 Q1011 NSC=  
15-Dec-2012 SAID35 WAPI 150000 METAR WAPI 150000Z 31005KT FEW018 31/23 Q1010 NSC=  
17-Dec-2012 SAID35 WAPI 170500 METAR WAPI 170500Z 10006KT 9999 CB SCT018 32/25 Q1006=  
17-Dec-2012 SAID35 WAPI 170600 METAR WAPI 170600Z 12007KT 9999 CB SCT018 33/24 Q1006=  
18-Dec-2012 SAID35 WAPI 180000 METAR WAPI 180000 30008KT 9999 CU FEW020 31/25 Q1008 NSC=  
18-Dec-2012 SAID35 WAPI 180200 METAR WAPI 180200 27003KT 9999 CB SCT018 32/25 Q1008 NSC=  
19-Dec-2012 SAID35 WAPI 190000 METAR WAPI 190000Z 22902KT 9999 FEW018 30/25 Q1008 NSC=  
20-Dec-2012 SAID35 WAPI 200200 METAR WAPI 200200 06008KT 9999 33/25 Q1007 NSC=  
20-Dec-2012 SAID35 WAPI 200300 METAR WAPI 200300 08010KT 9999 CU SCT020 33/25 Q1006 NSC=  
20-Dec-2012 SAID35 WAPI 200600 METAR WAPI 200600Z 08006KT 9999 SCT018 32/25 Q1005=  
20-Dec-2012 SAID35 WAPI 202300 METAR WAPI 202300Z 31002KT 9999 FEW018 28/25 Q1007 NSC=  
21-Dec-2012 SAID35 WAPI 210000 METAR WAPI 210000 10010KT 9999 CU BKN020 31/25 Q1007 NSC=  
21-Dec-2012 SAID35 WAPI 210200 METAR WAPI 210200 10013KT 9999 CU SCT020 33/23 Q1007 NSC=  
21-Dec-2012 SAID35 WAPI 210300 METAR WAPI 210300 13008KT 9999 CU SCT020 33/23 Q10066 NSC=  
21-Dec-2012 SAID35 WAPI 210500 METAR WAPI 210500Z 07008KT 9999 FEW018 33/23 Q1005 NSC=  
22-Dec-2012 SAID35 WAPI 220300 METAR WAPI 220300 09008KT 9999 CU SCT020 33/25 Q1005 NSC=  
22-Dec-2012 SAID35 WAPI 220400 METAR WAPI 220400 13009KT 9999 CB FEW018 CU SCT020 34/23 Q1005 NSC=  
23-Dec-2012 SAID35 WAPI 230000 METAR WAPI 230000Z 12006KT 9999 SCT018 31/24 Q1008=  
23-Dec-2012 SAID35 WAPI 230200 METAR WAPI 230200Z 12007KT 9999 SCT018 33/25 Q1006 NSC=  
23-Dec-2012 SAID35 WAPI 230300 METAR WAPI 230300Z 09007KT 9999 SCT018 32/25 Q1005 NSC=  
24-Dec-2012 SAID35 WAPI 240300 METAR WAPI 240300 11012KT 9999 CU CST020 33/24 Q1006 NSC=  
24-Dec-2012 SAID35 WAPI 240400 METAR WAPI 240400 12007KT 9999 CU SCT020 30/24 Q1006 NSC=  
24-Dec-2012 SAID35 WAPI 240500 METAR WAPI 240500 13008KT 9999 CU SCT020 34/24 Q1005 NSC=  
24-Dec-2012 SAID35 WAPI 240600 METAR WAPI 240600Z 12012KT 9999 SCT018 34/24 Q1005=  
25-Dec-2012 SAID35 WAPI 250200 METAR WAPI 250200 05008KT 0010 REDZ SC SCT015 28/24 Q1007=  
26-Dec-2012 SAID35 WAPI 260400 METAR WAPI 260400 10008KT 9999 CB FEW015 35/25 Q1005=  
26-Dec-2012 SAID35 WAPI 260600 METAR WAPI 260600Z 31004KT 9999 FEW017CB 31/25 Q1004=  
26-Dec-2012 SAID35 WAPI 262300 METAR WAPI 262300Z 19003KT 9999 FEW018 28/25 Q1007 NSC=  
27-Dec-2012 SAID35 WAPI 270100 METAR WAPI 270100Z 33004KT 9999 FEW018 32/24 Q1007 NSC=  
27-Dec-2012 SAID35 WAPI 272300 METAR WAPI 272300 33005KT 9999 CB FEW017 28/25 Q1008 NSC=  
28-Dec-2012 SAID35 WAPI 280000 METAR WAPI 280000 26004KT 9999 CU SCT020 31/25 Q1008 NSC=  
28-Dec-2012 SAID35 WAPI 280300 METAR WAPI 280300 29006KT 9999 TS CB SCT015 27/25 Q1007=  
28-Dec-2012 SAID35 WAPI 280400 METAR WAPI 280400 35008KT 9999 CB FEW017 28/26 Q1007=  
28-Dec-2012 SAID35 WAPI 280500 METAR WAPI 280500 34008KT 9999 CB FEW017 28/24 Q1006=  
28-Dec-2012 SAID35 WAPI 280600 METAR WAPI 280600Z 34011KT 9999 FEW018 30/24 Q1005=  
29-Dec-2012 SAID35 WAPI 290200 METAR WAPI 290200 06008KT 9999 CU FEW020 32/23 Q1007 NSC=  
29-Dec-2012 SAID35 WAPI 290400 METAR WAPI 290400Z 07005KT 9999 SCT018 34/24 Q1005 NSC=  
30-Dec-2012 SAID35 WAPI 300600 METAR WAPI 300600Z 22003KT 9999 SCT017CB 34/24 Q1004=  
31-Dec-2012 SAID35 WAPI 310000 METAR WAPI 310000Z 28003KT 9999 FEW018 30/23 Q1007=  
31-Dec-2012 SAID35 WAPI 310200 METAR WAPI 310200Z 24006KT 99999 FEW018 334/23 Q1005 NSC=  
02-Jan-2013 SAID35 WAPI 020300 METAR WAPI 020300Z 16004KT 9999 CB SCT015 34/25 Q1007=  
02-Jan-2013 SAID35 WAPI 020600 METAR WAPI 020600Z 23005KT 9999 CB BKN012 27/25 Q1005=  
02-Jan-2013 SAID35 WAPI 022300 METAR WAPI 022300Z 09002KT 9999 CB FEW018 28/26 Q1008=  
03-Jan-2013 SAID35 WAPI 030100 METAR WAPI 030100 29002KT 9999 CB SCT018 31/26 Q1007=  
03-Jan-2013 SAID35 WAPI 030300 METAR WAPI 030300Z 29005KT 9999 CB BKN012 31/25 Q1006=  
03-Jan-2013 SAID35 WAPI 030400 METAR WAPI 030400Z 28007KT 9999 SCT018 33/25 Q1010 NSC=  
04-Jan-2013 SAID35 WAPI 040000 METAR WAPI 040000Z 03004KT 60000 RA BKN006 28/26 Q1007=  
04-Jan-2013 SAID35 WAPI 040200 METAR WAPI 040200Z 29005KT 9999 BKN015 28/26 Q1006 NOSIC=  
05-Jan-2013 SAID35 WAPI 050000 METAR WAPI 050000Z 30004KT 9999 BKN016 29/26 Q1006 NOSIC=  
05-Jan-2013 SAID35 WAPI 050600 METAR WAPI 050600Z 32013KT 9999 SCTO16 29/25 Q1004=  
06-Jan-2013 SAID35 WAPI 060000 METAR WAPI 060000Z 02003KT 9999 SCT017CB RERA 27/24 Q10008=  
06-Jan-2013 SAID35 WAPI 060600 METAR WAPI 060600Z 04008KT 8000 BKN016 -RA 27/25 Q1005=  
07-Jan-2013 SAID35 WAPI 070300 METAR WAPI 070300Z 31009KT 9999 CB SCT016 31/25 Q1005=  
07-Jan-2013 SAID35 WAPI 070500 METAR WAPI 070500Z 31009KT 9999 BKN016 30/25 Q1004 NSC=  
07-Jan-2013 SAID35 WAPI 070600 METAR WAPI 070600Z 33014KT 5000 RA BKN005 28/26 Q1004=  
09-Jan-2013 SAID35 WAPI 090000 METAR WAPI 090000Z 32006KT 9999 SCT018 30/25 Q1006=  
09-Jan-2013 SAID35 WAPI 092300 METAR WAPI 092300Z 28003KT 9999 SCT018 27/24 Q1006 NSC=  
10-Jan-2013 SAID35 WAPI 100000 METAR WAPI 100000Z 28006KT 9999 FEW018 29/24 Q1006 NSC=  
10-Jan-2013 SAID35 WAPI 100200 METAR WAPI 100200Z 27009KT 9999 FEW108 32/25 Q1006 NSC=  
10-Jan-2013 SAID35 WAPI 100500 METAR WAPI 100500Z 27009KT 9999 FEW018 31/24 Q1004 NSC=  
10-Jan-2013 SAID35 WAPI 100600 METAR WAPI 100600Z 27010KT 9999 FEW108 31/24 Q1004 NSC=  
11-Jan-2013 SAID35 WAPI 110000 METAR WAPI 110000Z 27008KT 9999 FEW018 30/25 Q1006=  
11-Jan-2013 SAID35 WAPI 110300 METAR WAPI 110300Z 27008KT 9999 BKN015 31/26 Q1006 NSC=  
11-Jan-2013 SAID35 WAPI 110400 METAR WAPI 110400Z 28007KT 9999 SCT017 31/26 Q1006 NSC=  
11-Jan-2013 SAID35 WAPI 110600 METAR WAPI 110600Z 27006KT 9999 SCT017 32/25 Q1005=  
12-Jan-2013 SAID35 WAPI 120300 METAR WAPI 120300Z 26009KT 9999 SCT017 31/26 Q1006 NSC=  
13-Jan-2013 SAID35 WAPI 130500 METAR WAPI 130500Z 21011KT 9999 BKN018 32/26 1004=  
13-Jan-2013 SAID35 WAPI 132300 METAR WAPI 132300Z 25009KT 9999 SCT016 26/25 Q1007 NSC=  
14-Jan-2013 SAID35 WAPI 140000 METAR WAPI 140000Z 29008KT 9999 SCT016 27/25 Q1007 NSC=  
14-Jan-2013 SAID35 WAPI 140100 METAR WAPI 140100Z 31012KT 9999 SCT015 28/25 Q1007NSC=  
14-Jan-2013 SAID35 WAPI 140200 METAR WAPI 140200Z 31112KT 8000 RA BKN010 28/26 Q1007=  
14-Jan-2013 SAID35 WAPI 140300 METAR WAPI 140300Z 31010KT 9999 BKN015 27/26 Q1007=  
14-Jan-2013 SAID35 WAPI 140400 METAR WAPI 140400Z 32011 9999 SCT015 28/26 Q1006 NSC=  
14-Jan-2013 SAID35 WAPI 140500 METAR WAPI 140500Z 33006KT 9999 SCT017 29/26 Q1006 NSC=  
14-Jan-2013 SAID35 WAPI 140600 METAR WAPI 140600Z 29008KT 9999 SCT017 31/26 Q1005 NSC=  
15-Jan-2013 SAID35 WAPI 152300 METAR WAPI 152300Z 28005KT 9999 SCT017 29/26 Q1009 NSC=  
16-Jan-2013 SAID35 WAPI 160000 METAR WAPI 160000Z 28007KT 9999 SCT017 29/26 Q1009 NSC=  
16-Jan-2013 SAID35 WAPI 160100 METAR WAPI 160100Z 27008KT 9999 SCT017 30/26 Q1009 NSC=  
16-Jan-2013 SAID35 WAPI 160200 METAR WAPI 160200Z 29010KT 9999 SCT017 31/26 Q1008 NSC=  
16-Jan-2013 SAID35 WAPI 160300 METAR WAPI 160300Z 28011KT 9999 SCT018 31/25 Q1007 NSC=  
16-Jan-2013 SAID35 WAPI 160400 METAR WAPI 160400Z 27010KT 9999 SCT017 32/26 Q1007 NSC=  
16-Jan-2013 SAID35 WAPI 160500 METAR WAPI 160500Z 28009KT 9999 SCT017 32/26 Q1006 NSC=  
17-Jan-2013 SAID35 WAPI 170000 METAR WAPI 170000Z 27005KT 9999 BKN015 27/25 Q1007 NOSIC=  
17-Jan-2013 SAID35 WAPI 170300 METAR WAPI 170300Z 27011KT 9999 BKN015 28/26 Q1006 NOSIC=  
17-Jan-2013 SAID35 WAPI 170600 METAR WAPI 170600Z 26011KTS 9999 BKN015 28/25 Q1004 NOSIC=  
21-Jan-2013 SAID35 WAPI 210000 METAR WAPI 210000Z 27012KT 9999 SCT016 30/25 Q1010 NOSIC=  
21-Jan-2013 SAID35 WAPI 210100 METAR WAPI 210100Z 28017KTS 9999 SCT016 31/24 Q1010 NOSIC=  
21-Jan-2013 SAID35 WAPI 210300 METAR WAPI 210300Z 28019 9999 BKN016 31/25 Q1006 NOSIC=  
25-Jan-2013 SAID35 WAPI 250300 METAR WAPI 250300Z 28010KT 9999 SCT018 33/25 Q1007=  
25-Jan-2013 SAID35 WAPI 252300 METAR WAPI 252300Z 29006KT 9999 SCT018 29/26 Q1008 NSC=  
26-Jan-2013 SAID35 WAPI 260000 METAR WAPI 260000Z 28006KT 9999 SCT018 31/26 Q1008 NSC=  
26-Jan-2013 SAID35 WAPI 260300 METAR WAPI 260300Z 28010KT 9999 SCT018 32/26 Q1007 NSC=  
26-Jan-2013 SAID35 WAPI 262300 METAR WAPI 262300Z 27009KT 9999 FEW018 29/26 Q1009 NSC=  
27-Jan-2013 SAID35 WAPI 270000 METAR WAPI 270000Z 28007KT 9999 SCT018 30/26 Q1009 NSC=  
27-Jan-2013 SAID35 WAPI 270100 METAR WAPI 270100Z 28007KT 9999 BKN018 31/26 Q1009 NSC=  
27-Jan-2013 SAID35 WAPI 270200 METAR WAPI 270200Z 28009KT 9999 SCT018 32/25 Q1008 NSC=  
28-Jan-2013 SAID35 WAPI 280000 METAR WAPI 280000Z 24011KT 40000 RAIN 6CB SET015 24/24 Q1011 NSC=  
28-Jan-2013 SAID35 WAPI 280300 METAR WAPI 280300Z 28004KT 9999 SCT015 25/24 Q1009 NSC=  
28-Jan-2013 SAID35 WAPI 280400 METAR WAPI 280400Z 30005KT 9999 SCT017 27/25 Q1008 NSC=  
28-Jan-2013 SAID35 WAPI 280600 METAR WAPI 280600Z 28008KT 9999 SCT017 28/25 Q1007 NSC=  
29-Jan-2013 SAID35 WAPI 290000 METAR WAPI 290000Z 32008KT 9999 SCT018 29/25 Q1011=  
30-Jan-2013 SAID35 WAPI 300000 METAR WAPI 300000Z 24005KT 9999 SCT018 29/25 Q1011 NSC=  
30-Jan-2013 SAID35 WAPI 300200 METAR WAPI 300200Z 25007KT 9999 SCT018 30/26 Q1011 NSC=  
30-Jan-2013 SAID35 WAPI 300300 METAR WAPI 300300Z 22004KT 9999 BKN016 29/26 Q1010 NSC=  
30-Jan-2013 SAID35 WAPI 300600 METAR WAPI 300600Z 31009KT 9999 SCT018 30/26 Q1009 NSC=  
31-Jan-2013 SAID35 WAPI 310000 METAR WAPI 310000Z 26005KT 9999 SCT018 28/26 Q1011 NSC=  
31-Jan-2013 SAID35 WAPI 310100 METAR WAPI 310100Z 30005KT 9999 SCT018 30/26 Q1011 NSC=  
31-Jan-2013 SAID35 WAPI 310200 METAR WAPI 31024 97900 29003KT 9999 BKN016 31/25 NSC=  
31-Jan-2013 SAID35 WAPI 310300 METAR WAPI 310300Z 28005KT 9999 BKN017 32/26 Q1010 NSC=  
31-Jan-2013 SAID35 WAPI 310600 METAR WAPI 310600Z 060KT 9999 SCT018 31/26 Q1009 NSC=  
01-Feb-2013 SAID35 WAPI 010000 METAR WAPI 010000Z 31006KT 9999 SCT018 28/25 Q1012 NSC=  
03-Feb-2013 SAID35 WAPI 030000 METAR WAPI 030000Z 21004KT 9999 SCT018 30/26 Q1011 NSC=  
03-Feb-2013 SAID35 WAPI 030300 METAR WAPI 030300Z 22305KT 9999 SCT018 32/26 Q1010 NOSIC=  
04-Feb-2013 SAID35 WAPI 040000 METAR WAPI 040000Z 12201KT 9999 FEW018 29/26 Q1012 NOSIC=  
04-Feb-2013 SAID35 WAPI 040300 METAR WAPI 040300Z 21007KT 9999 FWE018 32/25 Q1010 NOSIC=  
05-Feb-2013 SAID35 WAPI 050000 METAR WAPI 050000Z 30002KT 999 SCT018 29/25 Q1012 NSC=  
06-Feb-2013 SAID35 WAPI 060000 METAR WAPI 060000Z 24004KT 9999 29/24 Q1011 NSC=  
07-Feb-2013 SAID35 WAPI 070000 METAR WAPI 070000Z 30003KT 9999 SCT018 29/25 Q1010=  
07-Feb-2013 SAID35 WAPI 070300 METAR WAPI 070300Z 09005KT 9999 BKN018 31/24 Q1008 NSC=  
08-Feb-2013 SAID35 WAPI 080000 METAR WAPI 080000Z 27004KT 9999 FEW018 29/25 Q1011 NSC=  
08-Feb-2013 SAID35 WAPI 080300 METAR WAPI 080300Z 10007KT 9999 SCT018 32/25 Q1010 NSC=  
10-Feb-2013 SAID35 WAPI 100000 METAR WAPI 100000Z 25003KT 9999 29/24 Q10102 NSC=  
11-Feb-2013 SAID35 WAPI 110000 METAR WAPI 110000Z 28002KT 9999 28/24 Q1009 NSC=  
12-Feb-2013 SAID35 WAPI 120000 METAR WAPI 120000Z 33003KT 9999 BKN018 29/25 Q 1010=  
12-Feb-2013 SAID35 WAPI 120300 METAR WAPI 120300Z 19003KT 9999 BKN018 33/25 Q1008 NOSIC=  
13-Feb-2013 SAID35 WAPI 130000 METAR WAPI 130000Z 30003KT 9999 27/23 Q1008 NSC=  
15-Feb-2013 SAID35 WAPI 150000 METAR WAPI 150000Z 28002KT 9999 SCT018 29/25 Q1006 NSC=  
17-Feb-2013 SAID35 WAPI 170000 METAR WAPI 170000Z 24004KT 9999 SCT018 28/26 Q1006 NSC=  
18-Feb-2013 SAID35 WAPI 180000 METAR WAPI 180000Z 22004KT 9999 SCT018 29/26 Q1005 NSC=  
18-Feb-2013 SAID35 WAPI 180300 METAR WAPI 180300Z 24005KT 9999 SCT018 32/27 Q1004 NSC=  
19-Feb-2013 SAID35 WAPI 190000 METAR WAPI 190000Z 30002KT 999 SCT019 27/26 Q1005 NSC=  
20-Feb-2013 SAID35 WAPI 200000 METAR WAPI 200000Z 26002KT 9999 BKN017 27/25 Q1005 NOSIC=  
20-Feb-2013 SAID35 WAPI 200600 METAR WAPI 200600Z 30007KT 9999 BKN016 27/25 Q1003 NOSIC-=  
21-Feb-2013 SAID35 WAPI 210000 METAR WAPI 210000Z 32005KT 9999 SCT015 28/26 Q1006 NSC=  
21-Feb-2013 SAID35 WAPI 210300 METAR WAPI 210300Z 30005KT 9999 SCT018 29/26 Q1006 NSC=  
22-Feb-2013 SAID35 WAPI 220000 METAR WAPI 220000Z 28003KT 9999 SCT018 27/25 Q1008 NSC=  
22-Feb-2013 SAID35 WAPI 220300 METAR WAPI 220300Z 28010KT 9999 SCT018 Q1007 NSC=  
23-Feb-2013 SAID35 WAPI 230000 METAR WAPI 230000Z 27005KT 9999 SCT018 28/26 Q1008 NSC=  
23-Feb-2013 SAID35 WAPI 230300 METAR WAPI 230300Z 32010KT 9999 SCT018 Q1007 NSC=  
23-Feb-2013 SAID35 WAPI 230600 METAR WAPI 230600Z 29004KT 9999 BKN017 29/26 Q1005 NOSIC=  
24-Feb-2013 SAID33 WAPI 240000 METAR WAPI 240000Z 31005KT 9999 BKN016 29/26 Q1009 NOSIG=  
24-Feb-2013 SAID35 WAPI 240300 METAR WAPI 240300Z 27006KT 9999 BKN016 27/25 Q1008 NOSIK=  
24-Feb-2013 SAID35 WAPI 240600 METAR WAPI 240600Z 29006KT 9999 BKN016 30/25 Q1005 NOSIC=  
25-Feb-2013 SAID35 WAPI 250000 METAR WAPI 250000Z 28003KT 9999 SCT015 27/26 Q1009 NSC=  
25-Feb-2013 SAID35 WAPI 250300 METAR WAPI 250300Z 27003KT 8000 RA SCT015 28/27 Q1008 NSC=  
25-Feb-2013 SAID35 WAPI 250600 METAR WAPI 250600Z 10002KT 9999 BKN016 26/25 Q1006 NSC=  
26-Feb-2013 SAID35 WAPI 260000 METAR WAPI 260000Z 28006KT 9999 SCT018 28/26 Q1008 NSC=  
27-Feb-2013 SAID35 WAPI 270000 METAR WAPI 270000Z 28005KT 9999 SCT018 29/27 Q1007 NSC=  
28-Feb-2013 SAID35 WAPI 280000 METAR WAPI 280000Z 30004KT 9999 SCT018 29/25 Q1009 NSC=  
28-Feb-2013 SAID35 WAPI 280600 METAR WAPI 280600Z 27013KT 9999 BKN016 31/25 Q1006 NOSIC=  
01-Mar-2013 SAID35 WAPI 010000 METAR WAPI 010000Z 30006KT 9999 BKN018 28/26 Q1010 NSC=  
01-Mar-2013 SAID35 WAPI 010300 METAR WAPI 010300Z 29007KT 999 BKN016 32/26 Q1009 NOSIC=  
01-Mar-2013 SAID35 WAPI 010600 METAR WAPI 010600Z 29010 9999 BKN016 32/26 Q1007 NOSIC=  
02-Mar-2013 SAID35 WAPI 020000 METAR WAPI 020000Z 28003KT 9999 SCT018 29/27 Q1010 NSC=  
03-Mar-2013 SAID35 WAPI 030000 METAR WAPI 0300Z 27005KT 9999 SCT015 26/25 Q1008=  
03-Mar-2013 SAID35 WAPI 030300 METAR WAPI 030300Z 27009KT 9999 SCT018 29/26 Q1007 NSC=  
03-Mar-2013 SAID35 WAPI 030600 METAR WAPI 030600Z 27010KT 9999 BKN016 29/26 Q1005 NOSIC=  
04-Mar-2013 SAID35 WAPI 040000 METAR WAPI 040000Z 28004KT 9999 SCT018 28/26 Q1008 NSC=  
04-Mar-2013 SAID35 WAPI 040300 METAR WAPI 040300Z 28007KT 9999 SCT015 28/25 Q1008 NSC=  
05-Mar-2013 SAID35 WAPI 050000 METAR WAPI 050000Z 29009KT 9999 SCT016CB 29/26 Q1010 NSC=  
06-Mar-2013 SAID35 WAPI 060000 METAR WAPI 060000Z 28005KT 9999 SCT018 29/26 Q1009 NSC=  
07-Mar-2013 SAID35 WAPI 070000 METAR WAPI 070000Z 28005KT 9999 SCT015 29/26 Q1010 NSC=  
07-Mar-2013 SAID35 WAPI 070600 METAR WAPI 070600Z 28011KT 9999 BKN017 32/25 Q1004 NOSIC=  
08-Mar-2013 SAID35 WAPI 080000 METAR WAPI 080000Z 29005KT 9999 SCT018 30/26 Q1010 NSC=  
08-Mar-2013 SAID35 WAPI 080300 METAR WAPI 080300Z 29005KT 9999 SCT018 32/26 Q1009 NSC=  
09-Mar-2013 SAID35 WAPI 090000 METAR WAPI 090000Z 29007KT 9999 BKN016 29/26 Q1010 NOSIC=  
09-Mar-2013 SAID35 WAPI 090600 METAR WAPI 090600Z 28014 9999 BKN016 32/25 Q1007 NOSIC=  
10-Mar-2013 SAID35 WAPI 100000 METAR WAPI 100000Z 28005KT 9999 SCT018 29/27 Q1009 NSC=  
10-Mar-2013 SAID35 WAPI 100300 METAR WAPI 100300Z 28008KT 9999 SCT018 32/25 Q1008 NSC=  
11-Mar-2013 SAID35 WAPI 110000 METAR WAPI 110000Z 28007KT 9999 SCT018 29/26 Q1008 NSC=  
12-Mar-2013 SAID35 WAPI 120000 METAR WAPI 120000Z 27007KT 9999 SCT015 27/26 Q1009 NSC=  
12-Mar-2013 SAID35 WAPI 120600 METAR WAPI 120600Z 25014KT 2000 OVC010 24/24 Q1008=  
13-Mar-2013 SAID35 WAPI 130000 METAR WAPI 130000Z 28007KT 9999 BKN016 28/26 Q1009 NOSIC=  
13-Mar-2013 SAID35 WAPI 130600 METAR WAPI 130600Z 27069KT 9999 BKN016 27/26 Q1007 NOSIC=  
14-Mar-2013 SAID35 WAPI 140000 METAR WAPI 140000Z 24004KT 9999 BKN018 25/24 Q1010=  
14-Mar-2013 SAID35 WAPI 140300 METAR WAPI 140300Z 29005KT 9999 SCT018 26/24 Q1010=  
15-Mar-2013 SAID35 WAPI 150000 METAR WAPI 150000Z 30002KT 9999 SCT018 28/26 Q1012 NSC=  
15-Mar-2013 SAID35 WAPI 150300 METAR WAPI 150300Z 27010KT 9999 SCT018 31/26 Q1011 NSC=  
15-Mar-2013 SAID35 WAPI 150600 METAR WAPI 150600Z 27012 9999 BKN016 31/25 Q1009 NOSIC=  
16-Mar-2013 SAID35 WAPI 160000 METAR WAPI 160000Z 24004KT 9999 FEW017 29/27 Q1013 NOSIC=  
16-Mar-2013 SAID35 WAPI 160300 METAR WAPI 160300Z 9999 FEW017 32/26 Q1011 NOSIC=  
16-Mar-2013 SAID35 WAPI 160600 METAR WAPI 160600Z 25010KT 9999 SCT017 32/26 Q1009 NOSIC=  
17-Mar-2013 SAID35 WAPI 170000 METAR WAPI 170000Z 23006KT 9999 FEW017 29/26 Q1011 NOSIC=  
17-Mar-2013 SAID35 WAPI 170600 METAR WAPI 170600Z 24010KT 9999 FEW017 32/26 Q1008 NOSIC=  
18-Mar-2013 SAID35 WAPI 180000 METAR WAPI 180000Z 23003KT 9999 SCT018 29/26 Q1011=  
18-Mar-2013 SAID35 WAPI 180600 METAR WAPI 180600Z 11006KT 9999 SCT016 31/25 Q1007 NOSIC=  
19-Mar-2013 SAID35 WAPI 190000 METAR WAPI 190000Z 11003KT 9999 SCT017 30/25 Q1010 NOSIC=  
19-Mar-2013 SAID35 WAPI 190300 METAR WAPI 190300Z 09005KT 9999 SCT017 32/25 Q1009 NOSIC=  
19-Mar-2013 SAID35 WAPI 190600 METAR WAPI 190600Z 08007KT 9999 FEW017 31/24 Q1007 NOSIC=  
20-Mar-2013 SAID35 WAPI 200000 METAR WAPI 200000Z 09003KT 9999 SCT018 30/26 Q1011 NOSIG=  
20-Mar-2013 SAID35 WAPI 200300 METAR WAPI 200300Z 11007KT 9999 SCT017 31/25 Q1010 NOSIC=  
21-Mar-2013 SAID35 WAPI 210000 METAR WAPI 210000Z 51206KT 9999 BKN106 29/25 Q1005 NOSIC=  
21-Mar-2013 SAID35 WAPI 210300 METAR WAPI 210300Z 13004KT 9999 BKN016 32/25 Q1009 NOSIC=  
22-Mar-2013 SAID35 WAPI 220000 METAR WAPI 220000Z 27003KT 9999 SET018 28/26 Q1010 NOSIC=  
22-Mar-2013 SAID35 WAPI 220600 METAR WAPI 220600Z 10006KT 9999 SCT018 31/24 Q1007 NOSIC=  
23-Mar-2013 SAID35 WAPI 230000 METAR WAPI 230000 13004KT 9999 BKN 018 29/25 Q 1011 NSC=  
23-Mar-2013 SAID35 WAPI 230300 METAR WAPI 230300 09007 KT 9999 SCT018 32/25 Q1009 NSC=  
23-Mar-2013 SAID35 WAPI 230600 METAR WAPI 230600 11007KT 9999 SCT018 32/25 Q1007 NSC=  
24-Mar-2013 SAID35 WAPI 240000 METAR WAPI 240000Z 13004KT 9999 SCT018 27/25 Q1010 NSC=  
25-Mar-2013 SAID35 WAPI 250000 METAR WAPI 250000Z 05003KT 9999 BKN016 27/26 Q1009 NOSIC=  
25-Mar-2013 SAID35 WAPI 250300 METAR WAPI 250300Z 25004KT 9999 Z018 28/26 Q1008 NOSIC=  
25-Mar-2013 SAID35 WAPI 250600 METAR WAPI 250600Z 28006KT 9999 BKN016 29/25 Q1005 NOSIC=  
27-Mar-2013 SAID35 WAPI 270000 METAR WAPI 270000 30008KT 0050 RA SCT014CB 25/25 Q1009=  
27-Mar-2013 SAID35 WAPI 270300 METAR WAPI 270300Z 27011KT 9999 BKN016 30/27 Q1006 NOSIC=  
27-Mar-2013 SAID35 WAPI 270600 METAR WAPI 270600Z 28011KT 9999 BKN016 30/26 Q1005 NOSIC=  
28-Mar-2013 SAID35 WAPI 280000 METAR WAPI 280000Z 26006KT 9999 SCT018 29/26 Q1007 NSC=  
29-Mar-2013 SAID35 WAPI 290000 METAR WAPI 290000Z 27005KT 9999 BKN016 26/25 Q1008 NOSIC=  
29-Mar-2013 SAID35 WAPI 290300 METAR WAPI 290300Z 29011 9999 BKN6014 2624 NOSIC=  
29-Mar-2013 SAID35 WAPI 290600 METAR WAPI 290600Z 29008KT 9999 BKN015 29/26 Q1005 NOSIC=  
30-Mar-2013 SAID35 WAPI 300000 METAR WAPI 300000Z 33006KT 9999 FEW018 29/27 Q1010 NSC=  
30-Mar-2013 SAID35 WAPI 302300 METAR WAPI 302300Z 32570 11107 10289 20235 30075 40104 81100 333 56200 57825 81820 80825=  
31-Mar-2013 SAID35 WAPI 310000 METAR WAPI 310000 29007KT 99999 SCT018 29/26 Q1009 NSC=  
31-Mar-2013 SAID35 WAPI 310300 METAR WAPI 310300Z 28008KT 9999 BKN016 33/26 Q1007 NOSIC=  
01-Apr-2013 SAID35 WAPI 010000 METAR WAPI 01000 32004 KT 9999 SCT018 29/26 Q1011 NSC=  
01-Apr-2013 SAID35 WAPI 010300 METAR WAPI 010300 22006KT 9999 CB BKN015 30/27 Q1009=  
01-Apr-2013 SAID35 WAPI 010600 METAR WAPI 010600 23008KT 9999 BKN015 30/26 Q1007=  
02-Apr-2013 SAID35 WAPI 020000 METAR WAPI 020000Z 09002KT 9999 FEW018 29/26 Q1010=  
02-Apr-2013 SAID35 WAPI 020300 METAR WAPI 020300Z 08006KT 9999 BKN016 32/24 Q1009 NOSIC=  
02-Apr-2013 SAID35 WAPI 020600 METAR WAPI 020600Z 07007KT 9999 BKN016 29/25 Q1008 NOSIC=  
03-Apr-2013 SAID35 WAPI 030000 METAR WAPI 030000Z 12006KT 9999 BKN018 30/26 Q1009 NOSIC=  
03-Apr-2013 SAID35 WAPI 030300 METAR WAPI 030300Z 12006KT 9999 SET018 31/26 Q1010 NOSIC=  
03-Apr-2013 SAID35 WAPI 030600 METAR WAPI 030600 12007KT 9999 SCT018 32/26 Q1006 NSC=  
04-Apr-2013 SAID35 WAPI 040000 METAR WAPI 040000Z 09010KT 9999 BKN016 30/26 Q1008 NOSIC=  
04-Apr-2013 SAID35 WAPI 040300 METAR WAPI 040300Z 10006KT 9999 BKN016 32/26 Q1007 NOSIC=  
04-Apr-2013 SAID53 WAPI 040300 METAR WAPI 040300Z 10006KT 9999 BKN016 32/26 Q1004 NOSIC=  
04-Apr-2013 SAID35 WAPI 040600 METAR WAPI 040600Z 10010KT 9999 BKN016 31/26 Q1005 NOSIC=  
06-Apr-2013 SAID35 WAPI 060600 METAR WAPI 060600Z 10013KT 9999 BKN016 29/24 Q1006 NOSIC=  
07-Apr-2013 SAID35 WAPI 070000 METAR WAPI 070000Z 10007KT 9999 BKN016 27/26 Q1008 NOSIC=  
07-Apr-2013 SAID35 WAPI 070300 METAR WAPI 070300Z 10006KT 9999 BKN016 27/25 Q1007 NOSIC=  
07-Apr-2013 SAID35 WAPI 070600 METAR WAPI 070600Z 05012KT 9999 BKN014 27/25 Q1006 NOSIC=  
08-Apr-2013 SAID35 WAPI 080000 METAR WAPI 080000Z 10016KT 9999 SCT018 29/26 Q1009 NCS=  
08-Apr-2013 SAID35 WAPI 080300 METAR WAPI 080300Z 08005KT 9999 SCT018 29/26 Q1007 NSC=  
08-Apr-2013 SAID35 WAPI 080600 METAR WAPI 080600Z 11008KT 9999 SCT018 30/26 Q1006 NSC=  
09-Apr-2013 SAID35 WAPI 090000 METAR WAPI 090000Z 11005KT 9999 OVC010 26/25 Q1010 NOSIC=  
09-Apr-2013 SAID35 WAPI 090300 METAR WAPI 090300Z 11005KT 9999 OVC014 28/26 Q1009 NOSIC=  
09-Apr-2013 SAID35 WAPI 090600 METAR WAPI 090600Z 15005KT 9999 BKN016 28/25 Q1004 NOSIC=  
10-Apr-2013 SAID35 WAPI 100000 METAR WAPI 100000 15005KT 9999 BKN015 28/24 Q1009 NSC=  
10-Apr-2013 SAID35 WAPI 100300 METAR WAPI 100300Z 10006KT 9999 SCT018 30/25 Q1007 NSC=  
10-Apr-2013 SAID35 WAPI 100600 METAR WAPI 100600 20006KT 9999 SCT0215 31/26 Q1006 NSC=  
11-Apr-2013 SAID35 WAPI 110000 METAR WAPI 110000Z 26007KT 9999 SCT018 29/27 Q1009 NOSIG=  
11-Apr-2013 SAID35 WAPI 110300 METAR WAPI 110300Z 24006KT 9999 BKN016 31/25 A1008 NOSIC=  
11-Apr-2013 SAID35 WAPI 110600 METAR WAPI 110600Z 62407KT 9999 BKN016 30/25 Q1006 NOSIC=  
12-Apr-2013 SAID35 WAPI 120000 METAR WAPI 120000Z 33004KT 9999 SCT018 27/25 Q1010 NSC=  
12-Apr-2013 SAID35 WAPI 120300 METAR WAPI 120300Z 24006KT 9999 BKN016 32/27 Q1009 NOSIC=  
12-Apr-2013 SAID35 WAPI 120600 METAR WAPI 120600Z 15006KT 9999 BKN018 32/25 Q1007 NSC=  
13-Apr-2013 SAID35 WAPI 130000 METAR WAPI 130000Z 14005KT 9999 FEW018 30/24 Q1011 NSC=  
13-Apr-2013 SAID35 WAPI 130600 METAR WAPI 130600Z 13004KT 9999 FEW018 31/22 Q1008 NSC=  
14-Apr-2013 SAID35 WAPI 140000 METAR WAPI 140000 00000 9999 FEW015 29/23 Q1011 NSC=  
14-Apr-2013 SAID35 WAPI 140100 METAR WAPI 140100 10005KT 9999 FEW015 31/21 Q1011 NSC=  
14-Apr-2013 SAID35 WAPI 140200 METAR WAPI 140200 13006KT 9999 FEW015 31/22 Q1011 NSC=  
14-Apr-2013 SAID35 WAPI 140300 METAR WAPI 140300 11005KT 9999 FEW015 31/23 Q1010 NSC=  
14-Apr-2013 SAID35 WAPI 140400 METAR WAPI 140400 12004KT 9999 FEW015 31/22 Q1009 NSC=  
15-Apr-2013 SAID35 WAPI 150000 METAR WAPI 150000 00000KT 9999 FEW015 28/23 Q1010 NSC=  
15-Apr-2013 SAID35 WAPI 150100 METAR WAPI 150100 22005KT 9999 FEW015 29/23 Q1010 NSC=  
15-Apr-2013 SAID35 WAPI 150200 METAR WAPI 150200 20005KT 9999 FEW015 31/24 Q1010 NSC=  
15-Apr-2013 SAID35 WAPI 150300 METAR WAPI 150300 23005KT 9999 FEW015 32/23 Q1009 NSC=  
16-Apr-2013 SAID35 WAPI 160000 METAR WAPI 160000Z 33004KT 9999 FEW016 28/22 Q1010 NOSIG=  
16-Apr-2013 SAID35 WAPI 160600 METAR WAPI 160600Z 22006 9999 BKN016 30/25 Q1007 NOSIC=  
17-Apr-2013 SAID35 WAPI 170000 METAR WAPI 170000Z 24003KT 9999 BKN018 28/26 Q1010 NSC=  
17-Apr-2013 SAID35 WAPI 170300 METAR WAPI 170300Z 12004KT 9999 BKN016 31/25 Q1009 NOSIC=  
17-Apr-2013 SAID35 WAPI 170600 METAR WAPI 170600Z 11004KT 9999 FEW018 31/25 Q1007 NSC=  
18-Apr-2013 SAID35 WAPI 180000 METAR WAPI 180000Z 07005KT 9999 SCT016 30/25 Q1010 NOSIC=  
18-Apr-2013 SAID35 WAPI 180300 METAR WAPI 180300Z 09006KT 9999 SCT016 32/24 Q1009 NOSIC=  
18-Apr-2013 SAID35 WAPI 180600 METAR WAPI 180600Z 11006KT 9999 SCT016 31/25 Q1007 NOSIC=  
19-Apr-2013 SAID35 WAPI 190000 METAR WAPI 190000 11008KT 9999 CB SCT018 29/26 Q1011=  
19-Apr-2013 SAID35 WAPI 190300 METAR WAPI 190300 10016KT 9999 SCT018 31/26 Q1009 NSC=  
20-Apr-2013 SAID35 WAPI 200000 METAR WAPI 200000Z 10010KT 9999 SCT018 30/26 Q1011 NOSIG=  
20-Apr-2013 SAID35 WAPI 200300 METAR WAPI 200300Z 07010KT 9999 BKN016 3026 Q1010 NOSIC=  
20-Apr-2013 SAID35 WAPI 200600 METAR WAPI 200600Z 06006KT 9999 SCT016 30/26 Q1008 NOSIC=  
21-Apr-2013 SAID35 WAPI 210000 METAR WAPI 210000Z 10008KT 9999 SCT016 30/25 Q1011 NOSIC=  
21-Apr-2013 SAID35 WAPI 210300 METAR WAPI 210300Z 09010KT 9999 BKN016 31/26 Q1010 NOSIC=  
21-Apr-2013 SAID35 WAPI 210600 METAR WAPI 210600Z 08008KT 9999 BKN016 31/25 Q1008 NOSIC=  
22-Apr-2013 SAID35 WAPI 220000 METAR WAPI 220000Z 13004KT 9999 FEW018 30/25 Q1011 NOSIC=  
22-Apr-2013 SAID35 WAPI 220300 METAR WAPI 220300Z 13005KT 9999 FEW018 31/25 Q1010 NOSIC=  
22-Apr-2013 SAID35 WAPI 220600 METAR WAPI 220600Z 12005 9999 FEW018 31/25 Q1008 NOSIC=  
24-Apr-2013 SAID35 WAPI 240000 METAR WAPI 240000 12009KT 9999 BKN015 29/25 Q1013 NSC=  
24-Apr-2013 SAID35 WAPI 240600 METAR WAPI 240600Z 13009KT 9999 BKN016 31/25 Q1009 NOSIC=  
25-Apr-2013 SAID35 WAPI 250000 METAR WAPI 250000Z 12011KT 9999 BKN016 30/24 A1012 NOSIC=  
25-Apr-2013 SAID35 WAPI 250600 METAR WAPI 250600Z 12010KT 9999 BKN014 31/ 25 Q1009 NOSIC=  
26-Apr-2013 SAID35 WAPI 260000 METAR WAPI 260000Z 10012KT 9999 SCT018 30/23 Q1012 NSC=  
26-Apr-2013 SAID35 WAPI 260300 METAR WAPI 260300Z 10012KT 9999 SCT018 32/23 Q1011 NSC=  
26-Apr-2013 SAID35 WAPI 260600 METAR WAPI 260600Z 11008KT 9999 SCT018 31/23 Q1009 NSC=  
27-Apr-2013 SAID35 WAPI 270000 METAR WAPI 270000Z 10011KT 9999 BKN016 31/22 Q1011 NOSIC=  
27-Apr-2013 SAID35 WAPI 270300 METAR WAPI 270300Z 10013KT 9999 BKN015 31/22 Q1010 NOSIC=  
27-Apr-2013 SAID35 WAPI 270600 METAR WAPI 270600Z 10011KT 9999 BKN015 32/23 Q1009 NOSIC=  
28-Apr-2013 SAID35 WAPI 280000 METAR WAPI 280000 12012KT 99999 SCT018 29/24 Q1012 NSC=  
28-Apr-2013 SAID35 WAPI 280300 METAR WAPI 280300 10012KT 9999 SCT018 31/23 Q1011 NSC=  
29-Apr-2013 SAID35 WAPI 290300 METAR WAPI 290300Z 11010KT 9999 SCT016 31/24 Q1011 NOSIC=  
30-Apr-2013 SAID35 WAPI 300000 METAR WAPI 300000Z 12009KT 9999 SCT018 30/24 Q1012 NOSIC=  
30-Apr-2013 SAID35 WAPI 300600 METAR WAPI 300600Z 12010KT 9999 BKN015 30/23 Q1008 NOSIC=  
01-May-2013 SAID35 WAPI 010000 METAR WAPI 010000Z 10007KT 9999 FEW018 30/24 Q1010 NSC=  
01-May-2013 SAID35 WAPI 010300 METAR WAPI 010300Z 11008KT 9999 SCT018 30/24 Q1009 NSC=  
02-May-2013 SAID35 WAPI 020000 METAR WAPI 020000Z 11005KT 9999 SCT016 30/25 Q1010 NOSIC=  
02-May-2013 SAID35 WAPI 020600 METAR WAPI 020600Z 12011KT 9999 BKN015 32/27 Q1006 NOSIC=  
03-May-2013 SAID35 WAPI 030000 METAR WAPI 030000Z 12010KT 9999 BKN015 28/25 Q1010 NOSIC=  
03-May-2013 SAID35 WAPI 030300 METAR WAPI 030300Z 12009KT 9999 BKN015 30/26 Q1009 NOSIC=  
03-May-2013 SAID35 WAPI 030600 METAR WAPI 030600Z 10009KT BKN015 30/26 Q1008 NOSIC=  
04-May-2013 SAID35 WAPI 040000 METAR WAPI 040000 10008KT 9999 SCT015 30/26 Q1011 NSC=  
04-May-2013 SAID35 WAPI 040600 METAR WAPI 040600 09006KT 9999 CB SCT017 28/25 Q1009=  
06-May-2013 SAID35 WAPI 060000 METAR WAPI 060000Z 11005 KT 9999 BKN012 27/26 Q1010 NOSIC=  
06-May-2013 SAID35 WAPI 060300 METAR WAPI 060300Z 12006KT 9999 BKN014 26/25 Q1009 NOSIC=  
06-May-2013 SAID35 WAPI 060600 METAR WAPI 060600Z 12011KT 9999 BKN014 27/25 Q1007 NOSIC=  
07-May-2013 SAID35 WAPI 070000 METAR WAPI 070000Z 11009KT 9999 BKN014 30/25 Q1009 NOSIC=  
07-May-2013 SAID35 WAPI 070300 METAR WAPI 070300Z 09010KT 9999 BKN014 31/25 Q1008 NOSIC=  
07-May-2013 SAID35 WAPI 070600 METAR WAPI 070600Z 10010KT 9999 BKN014 31/25 Q1006 NOSIC=  
08-May-2013 SAID35 WAPI 080000 METAR WAPI 080000 11010KT 9999 SCT018 29/25 Q1010 NSC=  
08-May-2013 SAID35 WAPI 080300 METAR WAPI 080300 13013KT 9999 SCT018 31/25 1008 NSC=  
09-May-2013 SAID35 WAPI 090000 METAR WAPI 090000Z 12009KT 9999 SCT016 29/25 Q1011 NSC=  
10-May-2013 SAID35 WAPI 100000 METAR WAPI 100000Z 11010KT 9999 BKN014 29/26 Q1010 NOSIC=  
10-May-2013 SAID35 WAPI 100300 METAR WAPI 100300Z 12010KT 9999 BKN014 32/27 Q1010 NOSIC=  
10-May-2013 SAID35 WAPI 100600 METAR WAPI 100600Z 11007KT 9999 BKIN014 30/26 Q1007 NOSIC=  
11-May-2013 SAID35 WAPI 110000 METAR WAPI 110000Z 10010KT 9999 SCT015 28/26 Q1010 NOSIC=  
11-May-2013 SAID35 WAPI 110600 METAR WAPI 110600Z 09011KT 9999 BKN014 26/24 Q1007 NOSIC=  
12-May-2013 SAID35 WAPI 120000 METAR WAPI 120000 12015KT 9999 SCT018 30/25 Q1011 NSC=  
13-May-2013 SAID35 WAPI 130000 METAR WAPI 130000Z 11006KT 9999 SCT016 28/26 Q1011 NSC=  
13-May-2013 SAID35 WAPI 130300 METAR WAPI 130300Z 10010KT 9999 SCT016 29/26 Q1010 NSC=  
13-May-2013 SAID35 WAPI 130900 METAR WAPI 130900 0500 16007 RAIN BKN015 26/25 Q1007=  
14-May-2013 SAID35 WAPI 140000 METAR WAPI 140000Z 08004KT 9999 FEW018 29/25 Q1009 NOSIC=  
14-May-2013 SAID35 WAPI 140600 METAR WAPI 140600Z 11010KT 9999 SCT018 31/25 Q1007 NSC=  
15-May-2013 SAID35 WAPI 150000 METAR WAPI 150000Z 10004KT 9999 SCT018 26/25 Q1010 NSC=  
15-May-2013 SAID35 WAPI 150300 METAR WAPI 150300Z 14004KT 9999 SCT018 30/26 Q1009 NSC=  
15-May-2013 SAID35 WAPI 150600 METAR WAPI 150600Z 11008KT 9999 BKN018 30/26 Q1007 NSC=  
17-May-2013 SAID35 WAPI 170000 METAR WAPI 170000Z 10010KT 9999 SCT018 30/26 Q1011 NSC=  
17-May-2013 SAID35 WAPI 170300 METAR WAPI 170300Z 08008KT 9999 SCT018 31/26 Q1011 NSC=  
17-May-2013 SAID35 WAPI 170600 METAR WAPI 170600Z 06010KT 9999 SCT108 29/26 Q1009 NOSIC=  
18-May-2013 SAID35 WAPI 180000 METAR WAPI 180000Z 26004KT 9999 FEW018 29/26 Q1012 NSC=  
18-May-2013 SAID35 WAPI 180300 METAR WAPI 180300Z 27004KT 9999 SCT018 30/26 Q1011 NSC=  
18-May-2013 SAID35 WAPI 180600 METAR WAPI 180600Z 11005KT 9999 BKN018 30/27 Q1008 NSC=  
19-May-2013 SAID35 WAPI 190000 METAR WAPI 190000Z 34002KT 9999 SCT018 29/25 Q1011 NSC=  
19-May-2013 SAID35 WAPI 190300 METAR WAPI 190300Z 11008KT 9999 SCT018 31/25 Q1010 NSC=  
19-May-2013 SAID35 WAPI 190600 METAR WAPI 190600Z 26004KT 4000 RA BKN010 24/23 Q1010 NSC=  
20-May-2013 SAID35 WAPI 200000 METAR WAPI 200000 10003KT 9999 BKN017 57/25 Q1011=  
20-May-2013 SAID35 WAPI 200300 METAR WAPI 200300 05008KT 9999 SCT017 27/25 Q1011=  
20-May-2013 SAID35 WAPI 200600 METAR WAPI 200600 04008KT 9999 SCT018 29/25 Q1009=  
21-May-2013 SAID35 WAPI 210000 METAR WAPI 21000Z 09003KT 9999 FEW018 29/26 Q1011 NSC=  
21-May-2013 SAID35 WAPI 210300 METAR WAPI 210300Z 08006KT 9999 FEW018 31/25 Q1010 NSC=  
21-May-2013 SAID35 WAPI 210600 METAR WAPI 210600Z 10004KT 9999 FEW018 31/25 Q1008 NSC=  
22-May-2013 SAID35 WAPI 220000 METAR WAPI 22000Z 07004KT 9999 FWN018 30/26 Q1011 NOSIC=  
22-May-2013 SAID35 WAPI 220300 METAR WAPI 220300Z 10004KT 9999 FEW018 31/26 Q1010 NSC=  
22-May-2013 SAID35 WAPI 220600 METAR WAPI 220600Z 11006KT 9999 SCT018 31/25 Q1008 NSC=  
23-May-2013 SAID35 WAPI 230000 METAR WAPI 230000Z 11007KT 9999 FEW018 31/25 Q1012 NSC=  
23-May-2013 SAID35 WAPI 230300 METAR WAPI 230300Z 11005KT 9999 SCT018 31/26 Q1011 NOSIC=  
23-May-2013 SAID35 WAPI 230600 METAR WAPI 230600Z 12006KT 9999 SCT018 31/26 Q1009 NSC=  
24-May-2013 SAID35 WAPI 240300 METAR WAPI 240300Z 10009KT 9999 SCT018 31/25 Q1010 NSC=  
25-May-2013 SAID35 WAPI 250000 METAR WAPI 250000Z 13009KT 9999 BKN016 27/23 Q1011 NSC=  
25-May-2013 SAID35 WAPI 250300 METAR WAPI 250300Z 12006KT 9999 BKN010 27/24 Q1011 NSC=  
25-May-2013 SAID35 WAPI 250600 METAR WAPI 250600Z 14010KT 9999 BKN018 27/23 Q1009 NSC=  
26-May-2013 SAID35 WAPI 260000 METAR WAPI 260000Z 13006KT 9999 BKN018 27/25 Q1011 NSC=  
26-May-2013 SAID35 WAPI 260600 METAR WAPI 260600Z 07005KT 5000 RA BKN010 24/23 Q1010 NSC=  
27-May-2013 SAID35 WAPI 270000 METAR WAPI 270000Z 09006KT 9999 27/25 SCT018 Q1011 NSC=  
27-May-2013 SAID35 WAPI 270300 METAR WAPI 270300Z 09009KT 9999 29/25 SCT018 Q1010 NSC=  
27-May-2013 SAID35 WAPI 270600 METAR WAPI 270600Z 06008KT 3000 RA BKN010 26/25 Q1009 NSC=  
28-May-2013 SAID35 WAPI 280000 METAR WAPI 280000 07005KT 9999 BKN15 27/25 Q1012=  
28-May-2013 SAID35 WAPI 280300 METAR WAPI 280300Z 12005KT 5000 25/23 BKN018 Q1011=  
28-May-2013 SAID35 WAPI 280600 METAR WAPI 280600Z 06008KT 30000 24/23 BKN018 Q1010=  
29-May-2013 SAID35 WAPI 290000 METAR WAPI 290000Z 10011KT 9999 27/24 SCT018 Q1011 NSC=  
29-May-2013 SAID35 WAPI 290300 METAR WAPI 290300Z 09011KT 9999 SCT018 30/23 Q1010 NSC=  
29-May-2013 SAID35 WAPI 290600 METAR WAPI 290600Z 10008KT 9999 SCT018 29/24 Q1008 NSC=  
30-May-2013 SAID35 WAPI 300000 METAR WAPI 300000Z 10008KT 9999 29/22 SCT018 Q1012 NSC=  
30-May-2013 SAID35 WAPI 300300 METAR WAPI 300300Z 10008KT 9999 30/23 SCT018 Q1010 NSC=  
30-May-2013 SAID35 WAPI 300600 METAR WAPI 300600Z 11010KT 9999 SCT018 30/23 Q1008 NSC=  
31-May-2013 SAID35 WAPI 310000 METAR WAPI 310000Z 08006KT 9999 27/24 Q1010 NSC=  
31-May-2013 SAID35 WAPI 310300 METAR WAPI 310300Z 08010KT 9999 30/24 SCT018 Q1009 NSC=  
31-May-2013 SAID35 WAPI 310600 METAR WAPI 310600Z 07008KT 9999 FEW018 31/25 Q1008 NSC=  
01-Jun-2013 SAID35 WAPI 010000 METAR WAPI 010000Z 12010KT 9999 BKN010 29/23 Q1011 NSN=  
01-Jun-2013 SAID35 WAPI 010300 METAR WAPI 010300Z 13006KT 9999 29/25 Q1010 NSC=  
01-Jun-2013 SAID35 WAPI 010600 METAR WAPI 010600Z 12006KT 9999 SCT018 30/24 Q1007 NSC=  
02-Jun-2013 SAID35 WAPI 020000 METAR WAPI 020000Z 11008KT 9999 28/24 Q1010 NSC=  
02-Jun-2013 SAID35 WAPI 020300 METAR WAPI 020300Z 08008KT 9999 26/24 BKN018 Q1009 NSC=  
03-Jun-2013 SAID35 WAPI 030000 METAR WAPI 030000Z 10010KT 9999 BKN015 28/23 Q1010 NSC=  
03-Jun-2013 SAID35 WAPI 030300 METAR WAPI 030300Z 11009KT 9999 SCT018 30/25 Q1008 NSC=  
03-Jun-2013 SAID35 WAPI 030600 METAR WAPI 030600Z 12010KT 9999 SCT018 29/24 Q1006 NSC=  
04-Jun-2013 SAID35 WAPI 040000 METAR WAPI 040000Z 10010KT 9999 SCT016 29/24 Q1011=  
05-Jun-2013 SAID35 WAPI 050000 METAR WAPI 050000Z 11010KT 9999 27/24 SCT018 Q1011 NSC=  
05-Jun-2013 SAID35 WAPI 050300 METAR WAPI 050300Z 11008KT 9999 30/24 Q1010 NSC=  
06-Jun-2013 SAID35 WAPI 060000 METAR WAPI 060000Z 10008KT 9999 28/24 SCT015 Q1010 NSC=  
06-Jun-2013 SAID35 WAPI 060300 METAR WAPI 060300Z 08006KT 9999 28/24 SCT018 Q1010 NSC=  
07-Jun-2013 SAID35 WAPI 070000 METAR WAPI 070000Z 10014KT 8000 RA BKN010 26/25 Q1010 NSC=  
07-Jun-2013 SAID35 WAPI 070300 METAR WAPI 070300Z 07007KT 9999 BKN016 27/25 Q1010 NSC=  
07-Jun-2013 SAID35 WAPI 070600 METAR WAPI 070600Z 11008KT 9999 SCT018 28/26 Q1008 NSC=  
08-Jun-2013 SAID35 WAPI 080000 METAR WAPI 080000Z 11011KT 9999 BKN016 27/24 Q1011 NSC=  
08-Jun-2013 SAID35 WAPI 080300 METAR WAPI 080300Z 10010KT 9999 SCT016 29/24 Q1010 NSC=  
09-Jun-2013 SAID35 WAPI 090000 METAR WAPI 090000Z 12007KT 9999 28/24 SCT018 Q1009 NSC=  
09-Jun-2013 SAID35 WAPI 090300 METAR WAPI 090300Z 12011KT 9999 27/25 SCT015 Q1008 NSC=  
10-Jun-2013 SAID35 WAPI 100000 METAR WAPI 100000Z 10007KT 9999 26/25 SCT018 Q1009 NSC=  
10-Jun-2013 SAID35 WAPI 100300 METAR WAPI 100300Z 10010KT 9999 27/25 SCT018 Q1008 NSC=  
10-Jun-2013 SAID35 WAPI 100600 METAR WAPI 100600Z 10009KT 9999 29/ 25 SCT015 Q1007 NSC=  
11-Jun-2013 SAID35 WAPI 110000 METAR WAPI 110000Z 10009KT 9999 CST016 27/25 Q1009 NSC=  
11-Jun-2013 SAID35 WAPI 110300 METAR WAPI 110300Z 08003KT 9999 BKN012 27/25 Q1008 NSC=  
11-Jun-2013 SAID35 WAPI 110600 METAR WAPI 110600Z 11008KT 9999 SCT018 29/25 Q1006 NSC=  
12-Jun-2013 SAID35 WAPI 120000 METAR WAPI 120000Z 12008KT 9999 SCT018 28/25 Q1009 NSC=  
12-Jun-2013 SAID35 WAPI 120300 METAR WAPI 120300Z 12009KT 9999 SCT018 30/25 Q1008 NSC=  
13-Jun-2013 SAID35 WAPI 130000 METAR WAPI 130000 13008KT 9999 SCT017 27/25 Q1008=  
14-Jun-2013 SAID35 WAPI 140000 METAR WAPI 140000Z 14008KT 7000 25/24 RA BKN015 Q1008=  
15-Jun-2013 SAID35 WAPI 150000 METAR WAPI 150000Z 13010KT 9999 BKN015 26/24 Q1009 NSC=  
15-Jun-2013 SAID35 WAPI 150300 METAR WAPI 150300Z 11014KT 6000 RA BKN010 25/24 Q1009 NSC=  
15-Jun-2013 SAID35 WAPI 150600 METAR WAPI 150600Z 14008KT 9999 BKN010 25/24 Q1007 NSC=  
16-Jun-2013 SAID35 WAPI 160000 METAR WAPI 160000Z 12008KT 9999 BKN015 28/24 Q1010 NSC=  
17-Jun-2013 SAID35 WAPI 170000 METAR WAPI 170000Z 12006KT 9999 28/24 SCT018 Q1009 NSC=  
17-Jun-2013 SAID35 WAPI 170300 METAR WAPI 170300Z 15005KT 9999 28/24 SCT012 Q1008 NSC=  
18-Jun-2013 SAID35 WAPI 180000 METAR WAPI 180000Z 11006KT 9999 28/25 SCT018 Q1009 NSC=  
18-Jun-2013 SAID35 WAPI 180300 METAR WAPI 180300Z 11009KT 9999 28/25 SCT018 Q1008 NSC=  
19-Jun-2013 SAID35 WAPI 190000 METAR WAPI 190000Z 11006KT 9999 BKN018 28/25 Q1010 NSC=  
19-Jun-2013 SAID35 WAPI 190300 METAR WAPI 190300Z 09006KT 9999 BKN016 29/25 Q1009 NSC=  
19-Jun-2013 SAID35 WAPI 190600 METAR WAPI 190600Z 08006KT 9999 BKN015 28/26 Q1008 NSC=  
20-Jun-2013 SAID35 WAPI 200000 METAR WAPI 200000Z 08007KT 9999 BKN016 28/25 Q1011 NSC=  
20-Jun-2013 SAID35 WAPI 200300 METAR WAPI 200300Z 09008KT 9999 BKN018 30/26 Q1010 NSC=  
20-Jun-2013 SAID35 WAPI 200600 METAR WAPI 200600Z 09008KT 9999 BKN016 29/25 Q1008 NSC=  
21-Jun-2013 SAID35 WAPI 210000 METAR WAPI 210000Z 06007KT 5000 26/25 RA BKN018 Q1012=  
21-Jun-2013 SAID35 WAPI 210300 METAR WAPI 210300Z 10009KT 5000 26/25 RA BKN018 Q1011=  
22-Jun-2013 SAID35 WAPI 220000 METAR WAPI 220000Z 08008KT 9999 28/24 SCT018 Q1011 NSC=  
22-Jun-2013 SAID35 WAPI 220600 METAR WAPI 220600Z 09009KT SCT016 28/24 Q1009 NSC=  
23-Jun-2013 SAID35 WAPI 230000 METAR WAPI 230000Z 10008KT 10000 RA BKN010 27/24 Q1013 NSC=  
23-Jun-2013 SAID35 WAPI 230300 METAR WAPI 230300Z 10012KT 9999 FEW018 29/24 Q1012 NSC=  
23-Jun-2013 SAID35 WAPI 230600 METAR WAPI 230600Z 11012KT 9999 BKN015 26/24 Q1010 NSC=  
24-Jun-2013 SAID35 WAPI 240000 METAR WAPI 240000Z 08009KT 9999 BKN016 27/24 Q1013 NSC=  
24-Jun-2013 SAID35 WAPI 240300 METAR WAPI 240300Z 08010KT 9999 SCT018 29/24 Q1012 NSC=  
24-Jun-2013 SAID35 WAPI 240600 METAR WAPI 240600Z 08010 9999 BKN018 29/25 Q1010 NSC=  
25-Jun-2013 SAID35 WAPI 250000 METAR WAPI 250000Z 12009KT 9999 27/25 SCT018 Q1014 NSC=  
25-Jun-2013 SAID35 WAPI 250300 METAR WAPI 250300Z 11010KT 9999 29/25 SCT018 Q1013 NSC=  
26-Jun-2013 SAID35 WAPI 260000 METAR WAPI 260000Z 12008KT 9999 28/25 SCT015 Q1013 NSC=  
26-Jun-2013 SAID35 WAPI 260300 METAR WAPI 260300Z 11007KT 9999 30/25 SCT015 Q1011 NSC=  
26-Jun-2013 SAID35 WAPI 260600 METAR WAPI 260600Z 13008KT 9999 SCT016 27/23 Q1010 NSC=  
27-Jun-2013 SAID35 WAPI 270000 METAR WAPI 270000Z 12006KT 9999 SCT018 28/25 Q1011 NSC=  
27-Jun-2013 SAID35 WAPI 270300 METAR WAPI 270300Z 20008KT 9999 BKN018 29/25 Q1010 NSC=  
27-Jun-2013 SAID35 WAPI 270600 METAR WAPI 270600Z 12012KT 9999 SCT018 30/25 Q1008 NSC=  
28-Jun-2013 SAID35 WAPI 280000 METAR WAPI 280000Z 12006KT 9999 BNK016 26/24 Q1012 NSC=  
28-Jun-2013 SAID35 WAPI 280300 METAR WAPI 280300Z 13005KT 9999 BKN016 27/24 Q1011 NSC=  
28-Jun-2013 SAID35 WAPI 280600 METAR WAPI 280600Z 13003KT 9999 BKN016 27/24 Q1010 NSC=  
29-Jun-2013 SAID35 WAPI 290000 METAR WAPI 290000Z 09011KT 9999 27/23 SCT018 Q1013 NSC=  
29-Jun-2013 SAID35 WAPI 290300 METAR WAPI 290300 09015KT 9999 SCT015 29/23 Q1012 NSC=  
29-Jun-2013 SAID35 WAPI 290600 METAR WAPI 290600 11015KT 9999 SCT 018 30/23 Q1010 NSC=  
30-Jun-2013 SAID35 WAPI 300300 METAR WAPI 300300Z 12011KT 9999 BKN016 26/24 Q1012 NSC=  
01-Jul-2013 SAID35 WAPI 010000 METAR WAPI 010000Z 61317KT 9999 BKN016 26/21 Q1013 NSC=  
01-Jul-2013 SAID35 WAPI 010300 METAR WAPI 010300Z 12012KT 9999 BKN017 27/21 Q1011 NSC=  
01-Jul-2013 SAID35 WAPI 010600 METAR WAPI 010600Z 13010KT 9999 BKN018 27/21 Q1009 NSC=  
02-Jul-2013 SAID35 WAPI 020000 METAR WAPI 020000Z 13009KT 9999 25/21 SCT018 Q1013 NSC=  
02-Jul-2013 SAID35 WAPI 020300 METAR WAPI 020300Z 13011KT 9999 27/21 SCT015 Q1012 NSC=  
03-Jul-2013 SAID35 WAPI 030000 METAR WAPI 030000Z 12007KT 9999 27/23 SCT018 Q1012 NSC=  
03-Jul-2013 SAID35 WAPI 030300 METAR WAPI 030300Z 11005KT 9999 27/24 BKN018 Q1012 NSC=  
03-Jul-2013 SAID35 WAPI 030600 METAR WAPI 030600Z 12014KT 9999 BKN018 28/24 Q1009 NSC=  
04-Jul-2013 SAID35 WAPI 040000 METAR WAPI 040000Z 07009KT 9999 27/23 SCT018 Q1011 NSC=  
04-Jul-2013 SAID35 WAPI 040300 METAR WAPI 040300Z 08010KT 9999 28/24 BKN018 Q1010 NSC=  
04-Jul-2013 SAID35 WAPI 040600 METAR WAPI 040600Z 10009KT 9999 28/24 SCT015 Q1008 NSC=  
05-Jul-2013 SAID35 WAPI 050000 METAR WAPI 050000Z 12014KT 9999 BKN018 27/23 Q1011 NSC=  
05-Jul-2013 SAID35 WAPI 050300 METAR WAPI 050300Z 10007KT 9999 SCT016 27/24 Q1010 NSC=  
05-Jul-2013 SAID35 WAPI 050600 METAR WAPI 050600Z 10012KT 9999 BKKN018 28/23 Q1009 NSC=  
06-Jul-2013 SAID35 WAPI 060000 METAR WAPI 060000Z 12008KT 9999 27/23 SCT018 Q1011 NSC=  
06-Jul-2013 SAID35 WAPI 060300 METAR WAPI 060300Z 12007KT 9999 29/23 SCT018 Q1011 NSC=  
06-Jul-2013 SAID35 WAPI 060600 METAR WAPI 060600Z 14005KT 9999 SCT016 28/24 Q1008 NSC=  
07-Jul-2013 SAID35 WAPI 070000 METAR WAPI 070000Z 13006KT 9999 26/24 RA BKN015 Q1012=  
07-Jul-2013 SAID35 WAPI 070300 METAR WAPI 070300Z 14009KT 9999 27/25 BKN015 Q1011 NSC=  
07-Jul-2013 SAID35 WAPI 070600 METAR WAPI 070600Z 11011KT 9999 BNK016 27/21 Q1010 NOSIG=  
08-Jul-2013 SAID35 WAPI 080000 METAR WAPI 080000Z 10010KT 9999 27/25 SCT018 Q1012 NSC=  
08-Jul-2013 SAID35 WAPI 080300 METAR WAPI 080300Z 09006KT 9999 27/26 RA BKN015 Q1011=  
08-Jul-2013 SAID35 WAPI 080600 METAR WAPI 080600Z 10010KT 9999 27/24 BKN018 Q1009 NSC=  
09-Jul-2013 SAID35 WAPI 090000 METAR WAPI 090000Z 11012KT 9999 SCT018 27/24 Q1011 NSC=  
09-Jul-2013 SAID35 WAPI 090300 METAR WAPI 090300Z 09009KT 9999 BKN016 27/24 Q1010 NSC=  
09-Jul-2013 SAID35 WAPI 090600 METAR WAPI 090600Z 09010KT 9999 SCT018 28/23 Q1008 NSC=  
10-Jul-2013 SAID35 WAPI 100000 METAR WAPI 100000Z 11012KT 9999 26/23 BKN018 Q1010 NSC=  
10-Jul-2013 SAID35 WAPI 100300 METAR WAPI 100300Z 11013KT 9999 BKN018 29/23 Q1009 NSC=  
11-Jul-2013 SAID35 WAPI 110000 METAR WAPI 110000Z 09009KT 9999 26/23 BKN018 Q1011 NSC=  
11-Jul-2013 SAID35 WAPI 110300 METAR WAPI 110300Z 09012KT 9999 29/24 BKN018 Q1010 NSC=  
11-Jul-2013 SAID35 WAPI 110600 METAR WAPI 110600Z 10011KT 9999 28/24 BKN018 Q1008 NSC=  
12-Jul-2013 SAID35 WAPI 120000 METAR WAPI 120000Z 11010KT 9999 27/23 SCT018 Q1011 NSC=  
12-Jul-2013 SAID35 WAPI 120600 METAR WAPI 120600Z 11012KT 9999 29/23 SCT015 Q1009 NSC=  
13-Jul-2013 SAID35 WAPI 130000 METAR WAPI 130000Z 11012KT 9999 BKN015 26/24 Q1011 NSC=  
13-Jul-2013 SAID35 WAPI 130200 METAR WAPI 130200Z 11010KT 9999 BKN018 28/23 Q1013 NOSIG=  
13-Jul-2013 SAID35 WAPI 130300 METAR WAPI 130300Z 09009KT 9999 BKN015 26/24 Q1011 NSC=  
13-Jul-2013 SAID35 WAPI 130600 METAR WAPI 130600Z 09006KT 9999 BKN015 26/24 Q1008 NSC=  
14-Jul-2013 SAID35 WAPI 140000 METAR WAPI 140000Z 10009KT 9999 27/23 SCT018 Q1011 NSC=  
14-Jul-2013 SAID35 WAPI 140600 METAR WAPI 140600Z 09012 9999 BKN016 28/24 Q1008 NSC=  
15-Jul-2013 SAID35 WAPI 150000 METAR WAPI 150000 12010KT 9999 25/23 BKN015 Q1010 NSC=  
15-Jul-2013 SAID35 WAPI 150600 METAR WAPI 150600Z 11007KT 9999 BKN018 28/23 Q1010 NOSIG=  
16-Jul-2013 SAID35 WAPI 160000 METAR WAPI 160000Z 11010KT 9999 27/23 SCT018 Q1011 NSC=  
16-Jul-2013 SAID35 WAPI 160300 METAR WAPI 160300Z 13011KT 9999 29/23 SCT018 Q1010 NSC=  
16-Jul-2013 SAID35 WAPI 160600 METAR WAPI 160600Z 12009KT 9999 27/25 SCT018 Q1008 NSC=  
17-Jul-2013 SAID35 WAPI 170000 METAR WAPI 170000Z 11006KT 9999 BKN018 27/22 Q1011 NSC=  
17-Jul-2013 SAID35 WAPI 170300 METAR WAPI 170300Z 12007KT 9999 SCT012 28/23 Q1010 NSC=  
17-Jul-2013 SAID35 WAPI 170600 METAR WAPI 170600Z 11006KT 9999 SCT018 28/24 Q1008 NSC=  
18-Jul-2013 SAID35 WAPI 180000 METAR WAPI 180000Z 12007KT 9999 27/24 SCT015 Q1011 NSC=  
18-Jul-2013 SAID35 WAPI 180300 METAR WAPI 180300Z 12010KT 9999 29/23 BKN018 Q1010 NSC=  
18-Jul-2013 SAID35 WAPI 180600 METAR WAPI 180600Z 12009KT 9999 26/23 BKN018 Q1008 NSC=  
19-Jul-2013 SAID35 WAPI 190000 METAR WAPI 190000Z 12008KT 9999 26/24 SCT018 Q1010 NSC=  
19-Jul-2013 SAID35 WAPI 190300 METAR WAPI 190300Z 11008KT 9999 29/24 BKN018 Q1010 NSC=  
19-Jul-2013 SAID35 WAPI 190600 METAR WAPI 190600Z 10008KT 9999 SCT018 29/22 Q1009 NOSIG=  
20-Jul-2013 SAID35 WAPI 200000 METAR WAPI 200000Z 12006KT 9999 26/24 SCT018 Q1011 NSC=  
20-Jul-2013 SAID35 WAPI 200300 METAR WAPI 200300Z 13009KT 9999 29/23 SCT018 Q1010 NSC=  
21-Jul-2013 SAID35 WAPI 210000 METAR WAPI 210000Z 10008KT 9999 SCT018 27/24 Q1010 NSC=  
21-Jul-2013 SAID35 WAPI 210200 METAR WAPI 210200Z 10010KT 9999 BKN018 28/21 Q1012 NOSIG=  
21-Jul-2013 SAID35 WAPI 210600 METAR WAPI 210600Z 11010KT 9999 SCT018 27/24 Q1008 NSC=  
22-Jul-2013 SAID35 WAPI 220000 METAR WAPI 220000Z 08008KT 9999 SCT015 26/24 Q1013 NSC=  
22-Jul-2013 SAID35 WAPI 220300 METAR WAPI 220300Z 07010KT 9999 28/23 SCT016 Q1012 NSC=  
22-Jul-2013 SAID35 WAPI 220600 METAR WAPI 220600Z 10007KT 9999 29/23 SCT018 Q1010 NSC=  
23-Jul-2013 SAID35 WAPI 230000 METAR WAPI 230000Z 12009KT 9999 27/22 SCT016 Q1014 NSC=  
23-Jul-2013 SAID35 WAPI 230300 METAR WAPI 230300Z 14015KT 9999 28/23 SCT016 Q1014 NSC=  
24-Jul-2013 SAID35 WAPI 240000 METAR WAPI 240000Z 12012KT 9999 FEW018 26/19 Q1014 NSC=  
25-Jul-2013 SAID35 WAPI 250000 METAR WAPI 250000Z 13012KT 9999 SCT015 25/22 Q1013 NSC=  
25-Jul-2013 SAID35 WAPI 250300 METAR WAPI 250300Z 15008KT 9999 BKN016 26/21 Q1012 NSC=  
25-Jul-2013 SAID35 WAPI 250600 METAR WAPI 250600Z 12008KT 9999 BKN016 26/22 Q1011=  
26-Jul-2013 SAID35 WAPI 260000 METAR WAPI 260000Z 13007KT 9999 26/22 SCT018 Q1013 NSC=  
26-Jul-2013 SAID35 WAPI 260300 METAR WAPI 260300Z 14010KT 9999 28/23 SCT018 Q1012 NSC=  
27-Jul-2013 SAID35 WAPI 270000 METAR WAPI 270000Z 11008KT 9999 27/22 SCT018 Q1013 NSC=  
27-Jul-2013 SAID35 WAPI 270300 METAR WAPI 270300Z 15008KT 9999 29/23 SCT018 Q1012 NSC=  
27-Jul-2013 SAID35 WAPI 270600 METAR WAPI 270600Z 11010KT 9999 FEW018 29/22 Q1011 NOSIG=  
28-Jul-2013 SAID35 WAPI 280000 METAR WAPI 280000Z 10011KT 9999 27/23 SCT018 Q1012 NSC=  
28-Jul-2013 SAID35 WAPI 280300 METAR WAPI 280300Z 12010KT 9999 28/24 SCT018 Q1012 NSC=  
29-Jul-2013 SAID35 WAPI 290000 METAR WAPI 290000Z 12008KT 9999 SCT016 27/23 Q1013 NSC=  
29-Jul-2013 SAID35 WAPI 290200 METAR WAPI 290200Z 09009KT 9999 SCT018 29/24 Q1013 NOSIG=  
29-Jul-2013 SAID35 WAPI 290600 METAR WAPI 290600Z 12012KT 9999 FEW018 29/21 Q1009 NSC=  
30-Jul-2013 SAID35 WAPI 300000 METAR WAPI 300000Z 11010KT 9999 26/23 BKN016 Q1011 NSC=  
30-Jul-2013 SAID35 WAPI 300300 METAR WAPI 300300Z 12011KT 9999 28/23 SCT018 Q1011 NSC=  
30-Jul-2013 SAID35 WAPI 300600 METAR WAPI 300600Z 12011KT 9999 29/22 SCT018 Q1008 NSC=  
31-Jul-2013 SAID35 WAPI 310000 METAR WAPI 310000Z 13008KT 9999 27/22 SCT018 Q1012 NSC=  
31-Jul-2013 SAID35 WAPI 310300 METAR WAPI 310300Z 13008KT 9999 29/21 SCT018 Q1011 NSC=  
31-Jul-2013 SAID35 WAPI 310600 METAR WAPI 310600Z 15010KT 9999 30/20 SCT018 Q1008 NSC=  
01-Aug-2013 SAID35 WAPI 010000 METAR WAPI 010000Z 12008KT 9999 26/21 SCT018 Q1012 NSC=  
01-Aug-2013 SAID35 WAPI 010300 METAR WAPI 010300Z 13009KT 9999 29/22 SCT018 Q1011 NSC=  
01-Aug-2013 SAID35 WAPI 010600 METAR WAPI 010600Z 12007KT 9999 28/21 Q1009 NSC=  
02-Aug-2013 SAID35 WAPI 020000 METAR WAPI 020000Z 09007 9999 BKN018 25/23 Q1013 NOSIG=  
02-Aug-2013 SAID35 WAPI 020300 METAR WAPI 020300 81012KT 9999 BKN015 26/23 Q1012 NOSIG=  
03-Aug-2013 SAID35 WAPI 030300 METAR WAPI 030300Z 10009KT 9999 SCT016 28/24 Q1013 NOSIG=  
03-Aug-2013 SAID35 WAPI 030600 METAR WAPI 030600Z 10012KT 9999 SCT016 28/22 Q1010 NOSIG=  
04-Aug-2013 SAID35 WAPI 040000 METAR WAPI 040000Z 13010KT 9999 SCT018 27/21 Q1014 NOSIG=  
04-Aug-2013 SAID35 WAPI 040300 METAR WAPI 040300Z 13014KT 9999 SCT018 29/21 Q1013 NOSIG=  
05-Aug-2013 SAID35 WAPI 050300 METAR WAPI 050300Z 12011KT 9999 BKN015 26/23 Q1013 NOSIG=  
05-Aug-2013 SAID35 WAPI 050600 METAR WAPI 050600Z 11010KT 9999 BKN016 27/22 Q1011 NOSIG=  
06-Aug-2013 SAID35 WAPI 060000 METAR WAPI 060000Z 12012KT 9999 BKN015 25/23 Q1013 NOSIG=  
06-Aug-2013 SAID35 WAPI 060300 METAR WAPI 060300Z 11010KT 9999 BKN015 26/22 Q1013 NOSIG=  
07-Aug-2013 SAID35 WAPI 070000 METAR WAPI 070000Z 12004KT 9999 BKN016 26/23 Q1014 NOSIG=  
07-Aug-2013 SAID35 WAPI 070300 METAR WAPI 070300Z 11010KT 9999 SCT017 28/23 Q1013 NOSIG=  
08-Aug-2013 SAID35 WAPI 080000 METAR WAPI 080000Z 12008KT 9999 SCT018 27/22 Q1013 NOSIG=  
08-Aug-2013 SAID35 WAPI 080200 METAR WAPI 080200Z 10010KT 9999 SCT018 29/22 Q1013 NOSIG=  
08-Aug-2013 SAID35 WAPI 080300 METAR WAPI 080300Z 12010KT 9999 SCT018 29/23 Q1012 NOSIG=  
08-Aug-2013 SAID35 WAPI 080600 METAR WAPI 080600Z 13011KT 9999 BKN018 28/22 Q1010 NOSIG=  
09-Aug-2013 SAID35 WAPI 090000 METAR WAPI 090000Z 11008KT 9999 SCT018 27/20 Q1013 NOSIG=  
09-Aug-2013 SAID35 WAPI 090300 METAR WAPI 090300Z 12009KT 9999 SCT018 28/21 Q1012 NOSIG=  
09-Aug-2013 SAID35 WAPI 090600 METAR WAPI 090600Z 12010KT 9999 SCT018 28/19 Q1009 NOSIG=  
10-Aug-2013 SAID35 WAPI 100000 METAR WAPI 100000Z 10007KT 9999 SCT018 27/23 Q1012 NOSIG=  
10-Aug-2013 SAID35 WAPI 100300 METAR WAPI 100300Z 11007KT 9999 FEW018 28/20 Q1012 NOSIG=  
11-Aug-2013 SAID35 WAPI 110000 METAR WAPI 110000Z 11009KT 9999 BKN016 27/22 Q1012 NOSIG=  
12-Aug-2013 SAID35 WAPI 120000 METAR WAPI 120000Z 10009KT 9999 SCT018 26/22 Q1012 NOSIG=  
13-Aug-2013 SAID35 WAPI 130000 METAR WAPI 130000Z 10009KT 9999 SCT018 27/23 Q1013 NOSIG=  
13-Aug-2013 SAID35 WAPI 130100 METAR WAPI 130100Z 11007KT 9999 SCT018 27/23 Q1013 NOSIG=  
13-Aug-2013 SAID35 WAPI 130300 METAR WAPI 130300Z 12009KT 9999 BKN018 29/23 Q1012 NOSIG=  
13-Aug-2013 SAID35 WAPI 130400 METAR WAPI 130400Z 13009KT 9999 BKN018 29/24 Q1011 NOSIG=  
13-Aug-2013 SAID35 WAPI 130600 METAR WAPI 130600Z 12007KT 9999 BKN018 29/23 Q1010 NOSIG=  
15-Aug-2013 SAID35 WAPI 150000 METAR WAPI 150000Z 11008KT 9999 SCT018 27/23 Q1014=  
15-Aug-2013 SAID35 WAPI 150100 METAR WAPI 150100Z 11008KT 9999 SCT018 28/24 Q1014 NOSIG=  
15-Aug-2013 SAID35 WAPI 150200 METAR WAPI 150200Z 12008KT 9999 BKNO18 29/24 Q1013 NOSIG=  
15-Aug-2013 SAID35 WAPI 150300 METAR WAPI 150300Z 11008KT 9999 BKN018 28/23 Q1013 NOSIG=  
15-Aug-2013 SAID35 WAPI 150400 METAR WAPI 150400Z 09008KT 9999 BKN018 29/23 Q1012 NOSIG=  
16-Aug-2013 SAID35 WAPI 160000 METAR WAPI 160000Z 12010KTS 9999 BKN018 28/22 Q1013 NOSIC=  
16-Aug-2013 SAID35 WAPI 160100 METAR WAPI 160100Z 12008KT 9999 FEW018 28/22 Q1013 NOSIG=  
16-Aug-2013 SAID35 WAPI 160300 METAR WAPI 160300Z 10008KTS 9999 BKN018 29/22 Q1012 NOSIC=  
16-Aug-2013 SAID35 WAPI 160600 METAR WAPI 160600Z 13008KTS 9999 BKN018 29/22 Q1010 NOSIC=  
17-Aug-2013 SAID35 WAPI 170000 METAR WAPI 170000Z 12006KT 9999 SCT018 27/22 Q1013 NOSIG=  
17-Aug-2013 SAID35 WAPI 170100 METAR WAPI 170100Z 12008KT 9999 FEW018 28/22 Q1013 NOSIG=  
17-Aug-2013 SAID35 WAPI 170200 METAR WAPI 170200Z 13007KT 9999 SCT018 28/22 Q1013 NOSIG=  
18-Aug-2013 SAID35 WAPI 180000 METAR WAPI 180000Z 10007KT 9999 FEW018 28/22 Q1013 NOSIG=  
18-Aug-2013 SAID35 WAPI 180400 METAR WAPI 180400Z 11009KT 9999 SCT018 29/22 Q1011 NOSIG=  
18-Aug-2013 SAID35 WAPI 180600 METAR WAPI 180600 11010KT 9999 SCT018 29/22 Q1010 NOSIG=  
19-Aug-2013 SAID35 WAPI 190000 METAR WAPI 190000Z 11009KT 9999 FEW018 28/21 Q1012 NOSIG=  
19-Aug-2013 SAID35 WAPI 190100 METAR WAPI 190100Z 11008KT 9999 FEW018 28/21 Q1012 NOSIG=  
19-Aug-2013 SAID35 WAPI 190200 METAR WAPI 190200Z 12010KT 9999 SCT018 28/22 Q1012 NOSIG=  
19-Aug-2013 SAID35 WAPI 190300 METAR WAPI 190300Z 11009KT 9999 SCT018 29/22 Q1011 NOSIG=  
20-Aug-2013 SAID35 WAPI 200000 METAR WAPI 200000Z 12008KT 9999 Z018 27/22 Q1012 NOSIC=  
20-Aug-2013 SAID35 WAPI 200300 METAR WAPI 200300Z 12007KT 9999 SCT018 29/21 Q1011 NOSIG=  
20-Aug-2013 SAID35 WAPI 200600 METAR WAPI 200600Z 13010KTS 9999 Z018 29/22 Q1009 NOSIC=  
20-Aug-2013 SAID35 WAPI 202300 METAR WAPI 202300Z 10008KT 9999 SCT018 26/22 Q1012 NOSIG=  
21-Aug-2013 SAID35 WAPI 210000 METAR WAPI 210000Z 08008KT 9999 SCT018 27/21 Q1012 NOSIG=  
21-Aug-2013 SAID35 WAPI 210100 METAR WAPI 210100Z 10008KT 9999 BKN018 28/22 Q1012 NOSIG=  
21-Aug-2013 SAID35 WAPI 210400 METAR WAPI 210400Z 11009KT 9999 SCT018 29/22 Q1010 NOSIG=  
22-Aug-2013 SAID35 WAPI 220000 METAR WAPI 220000 12006KT 9999 SCT018 27/22 Q1012 NOSIG=  
22-Aug-2013 SAID35 WAPI 220200 METAR WAPI 220200Z 10010KT 9999 BKN018 28/22 Q1012 NOSIG=  
22-Aug-2013 SAID35 WAPI 220300 METAR WAPI 220300Z 10009KT 9999 SCT018 28/22 Q1012 NOSIG=  
22-Aug-2013 SAID35 WAPI 220600 METAR WAPI 220600 11012KT 9999 BKN018 29/22 Q1010 NOSIG=  
22-Aug-2013 SAID35 WAPI 222300 METAR WAPI 222300Z 10008KT 9999 BKN018 26/22 Q1014 NOSIG=  
23-Aug-2013 SAID35 WAPI 230000 METAR WAPI 230000Z 10010KT 9999 SCT018 27/21 Q1014 NOSIG=  
23-Aug-2013 SAID35 WAPI 230100 METAR WAPI 230100Z 11010KT 9999 FEW018 28/22 Q1014 NOSIG=  
23-Aug-2013 SAID35 WAPI 230200 METAR WAPI 230200Z 10010KT 9999 FEW018 29/22 Q1013 NOSIG=  
23-Aug-2013 SAID35 WAPI 230300 METAR WAPI 230300Z 12012KT 9999 FEW018 29/23 Q1013 NOSIG=  
23-Aug-2013 SAID35 WAPI 230600 METAR WAPI 230600Z 11010KT 9999 BKN018 28/22 Q1011 NOSIG=  
24-Aug-2013 SAID35 WAPI 240000 METAR WAPI 240000Z 12011KT 9999 FEW018 27/22 Q1014 NOSIG=  
24-Aug-2013 SAID35 WAPI 240200 METAR WAPI 240200Z 14007KT 9999 FEW018 30/22 Q1011 NOSIG=  
24-Aug-2013 SAID35 WAPI 240300 METAR WAPI 240300Z 12011KT 9999 SCT018 28/21 Q1013 NOSIG=  
24-Aug-2013 SAID35 WAPI 240600 METAR WAPI 240600Z 10016KT 9999 SCT018 28/22 Q1011 NOSIG=  
24-Aug-2013 SAID35 WAPI 242300 METAR WAPI 242300Z 12008KT 9999 BKN018 26/22 Q1014 NOSIG=  
25-Aug-2013 SAID35 WAPI 250000 METAR WAPI 250000Z 10008KT 9999 BKN018 26/22 Q1014 NOSIG=  
25-Aug-2013 SAID35 WAPI 250100 METAR WAPI 250100Z 11010KT 9999 BKN018 29/23 Q1014 NOSIG=  
25-Aug-2013 SAID35 WAPI 250200 METAR WAPI 250200Z 12012KT 9999 SCT018 29/23 Q1013 NOSIG=  
25-Aug-2013 SAID35 WAPI 250300 METAR WAPI 250300Z 12010KT 9999 BKN018 29/23 Q1013 N0SIG=  
25-Aug-2013 SAID35 WAPI 250600 METAR WAPI 250600Z 13009KT 9999 SCT018 29/23 Q1013 N0SIG=  
25-Aug-2013 SAID35 WAPI 252300 METAR WAPI 252300Z 08008KT 9999 FEW018 27/22 Q1014 NOSIG=  
26-Aug-2013 SAID35 WAPI 260000 METAR WAPI 260000Z 10014KT 9999 SCT018 28/21 Q1014 NOSIG=  
26-Aug-2013 SAID35 WAPI 260100 METAR WAPI 260100Z 11004KT 9999 SCT018 29/23 Q1013 NOSIG=  
26-Aug-2013 SAID35 WAPI 260300 METAR WAPI 260300Z 13005KT 9999 FEW018 30/23 Q1012 NOSIG=  
26-Aug-2013 SAID35 WAPI 260600 METAR WAPI 260600 10015KT 9999 SCT018 28/23 Q1011 NOSIG=  
27-Aug-2013 SAID35 WAPI 270000 METAR WAPI 270000Z 10009KT 9999 SCT018 27/22 Q1015 NOSIG=  
27-Aug-2013 SAID35 WAPI 270300 METAR WAPI 270300Z 10009KT 9999 FEW018 29/22 Q1013 NOSIG=  
27-Aug-2013 SAID35 WAPI 270400 METAR WAPI 270400Z 11012KT 9999 FEW018 29/22 Q1012 NOSIG=  
27-Aug-2013 SAID35 WAPI 270500 METAR WAPI 270500Z 10011KT 9999 FEW018 29/22 Q1012 NOSIG=  
28-Aug-2013 SAID35 WAPI 280300 METAR WAPI 280300Z 09006KT 9999 SCT018 30/23 Q1010 NOSIG=  
28-Aug-2013 SAID35 WAPI 280600 METAR WAPI 280600Z 11009KTS 9999 Z018 29/22 Q1011 NOSIG=  
28-Aug-2013 SAID35 WAPI 282300 METAR WAPI 282300Z 10009KT 9999 SCT018 26/23 Q1013 NOSIG=  
29-Aug-2013 SAID35 WAPI 290000 METAR WAPI 290000Z 08010KT 9999 SCT018 27/24 Q1014 NOSIG=  
29-Aug-2013 SAID35 WAPI 290200 METAR WAPI 290200Z 11011KT 9999 BKN018 29/24 Q1013 NOSIG=  
29-Aug-2013 SAID35 WAPI 290300 METAR WAPI 290300Z 12008KT 9999 BKN018 29/24 Q1012 NOSIG=  
29-Aug-2013 SAID35 WAPI 290400 METAR WAPI 290400Z 09010KT 9999 BKN018 29/23 Q1012 NOSIG=  
29-Aug-2013 SAID35 WAPI 290600 METAR WAPI 290600Z 10010KT 9999 BKN018 29/24 Q1010 NOSIG=  
30-Aug-2013 SAID35 WAPI 300000 METAR WAPI 300000 11008KT 9999 BKN015 27/24 Q1014 NOSIG=  
30-Aug-2013 SAID35 WAPI 300100 METAR WAPI 300100 15010KT 9999 SCT018 29/24 Q1014 NOSIG=  
30-Aug-2013 SAID35 WAPI 300400 METAR WAPI 300400 12009KT 9999 BKN018 30/24 Q1012 NOSIG=  
30-Aug-2013 SAID35 WAPI 300600 METAR WAPI 300600 12012KT 9999 BKN018 29/25 Q1011 NOSIG=  
31-Aug-2013 SAID35 WAPI 310000 METAR WAPI 310000Z 10014KT 9999 SCT018 28/23 Q1013 NOSIG=  
31-Aug-2013 SAID35 WAPI 310100 METAR WAPI 310100Z 10012KT 9999 SCT018 28/24 Q1014 NOSIG=  
31-Aug-2013 SAID35 WAPI 310200 METAR WAPI 310200Z 11010KT 9999 SCT018 29/24 Q1013 NOSIG=  
31-Aug-2013 SAID35 WAPI 310300 METAR WAPI 310300Z 11011KT 9999 BKN018 29/24 Q1013 NOSIG=  
31-Aug-2013 SAID35 WAPI 310400 METAR WAPI 310400Z 11011KT 9999 SCT018 30/24 Q1012 NOSIG=  
31-Aug-2013 SAID35 WAPI 310600 METAR WAPI 310600Z 10011KT 9999 SCT018 29/24 Q1010 NOSIG=  
01-Sep-2013 SAID35 WAPI 010000 METAR WAPI 010000Z 11012KT 9999 SCT018 28/23 Q1014 NOSIG=  
01-Sep-2013 SAID35 WAPI 010300 METAR WAPI 010300Z 12012KT 9999 SCT018 29/23 Q1013 NOSIC=  
01-Sep-2013 SAID35 WAPI 010600 METAR WAPI 010600Z 10012KT 9999 SCT018 Q1011 NOSIG=  
01-Sep-2013 SAID35 WAPI 012300 METAR WAPI 012300Z 10011KT 9999 FEW018 27/20 Q1014 NOSIG=  
02-Sep-2013 SAID35 WAPI 020000 METAR WAPI 020000Z 10011KT 9999 FEW018 28/20 Q1014 NOSIG=  
02-Sep-2013 SAID35 WAPI 020100 METAR WAPI 020100Z 11014KT 9999 FEW018 28/20 Q1014 NOSIG=  
02-Sep-2013 SAID35 WAPI 020200 METAR WAPI 020200Z 10015KT 9999 FEW018 28/20 Q1013 NOSIG=  
02-Sep-2013 SAID35 WAPI 020300 METAR WAPI 020300Z 09014 KT 9999 FEW018 29/20 Q1013 NOSIG=  
02-Sep-2013 SAID35 WAPI 020600 METAR WAPI 020600Z 10010KT 9999 SCT018 28/22 Q1010 NOSIG=  
03-Sep-2013 SAID35 WAPI 030000 METAR WAPI 030000Z 10009KT 9999 SCT018 28/23 Q1014 NOSIG=  
03-Sep-2013 SAID35 WAPI 030100 METAR WAPI 030100Z 10011KT 9999 BKN018 28/23 Q1014 NOSIG=  
03-Sep-2013 SAID35 WAPI 030200 METAR WAPI 030200Z 10010KT 9999 BKN018 29/23 Q1013 NOSIG=  
03-Sep-2013 SAID35 WAPI 030300 METAR WAPI 030300Z 12008KT 9999 BKN018 28/23 Q1013 NSC=  
03-Sep-2013 SAID35 WAPI 030600 METAR WAPI 030600Z 11008KT 9999 BKN018 28/23 Q1011 NOSIG=  
04-Sep-2013 SAID35 WAPI 040000 METAR WAPI 040000Z 11010KT 9999 FEW018 28/21 Q1013 NOSIG=  
04-Sep-2013 SAID35 WAPI 040500 METAR WAPI 040500Z 13007KT 9999 FEW018 32/23 Q1009 NOSIG=  
04-Sep-2013 SAID35 WAPI 040600 METAR WAPI 040600Z 11014KT 9999 SCT018 28/24 Q1010 NOSIG=  
05-Sep-2013 SAID35 WAPI 050000 METAR WAPI 050000Z 09014KT 9999 BKN018 27/22 Q1013 NOSIG=  
05-Sep-2013 SAID35 WAPI 050300 METAR WAPI 050300Z 11016KT 9999 SCT018 29/21 Q1012 NOSIG=  
05-Sep-2013 SAID35 WAPI 050600 METAR WAPI 050600Z 11016KT 9999 SCT018 28/22 Q1010 NOSIG=  
06-Sep-2013 SAID35 WAPI 060600 METAR WAPI 060600Z 15006KT 9999 SCT018 31/23 Q1008 NOSIG=  
07-Sep-2013 SAID35 WAPI 070300 METAR WAPI 070300Z 12010KT 9999 SCT018 29/22 Q1013 NOSIG=  
07-Sep-2013 SAID35 WAPI 070600 METAR WAPI 070600Z 11012KT 9999 FEW018 29/21 Q1010 NOSIG=  
08-Sep-2013 SAID35 WAPI 080000 METAR WAPI 080000Z 12007KT 9999 SCT018 28/22 Q1014 NOSIG=  
08-Sep-2013 SAID35 WAPI 080100 METAR WAPI 080100Z 11010KT 9999 SCT018 28/22 Q1014 NOSIG=  
08-Sep-2013 SAID35 WAPI 080300 METAR WAPI 080300Z 10011KT 9999 SCT018 29/22 Q1013 NOSIG=  
08-Sep-2013 SAID35 WAPI 080400 METAR WAPI 080400Z 11011KT 9999 BKN018 29/22 Q1012 NOSIG=  
08-Sep-2013 SAID35 WAPI 080600 METAR WAPI 080600Z 09012KT 9999 SCT018 29/23 Q1010 NOSIG=  
09-Sep-2013 SAID35 WAPI 090000 METAR WAPI 090000Z 10008KTS 9999 BKN018 28/23 Q1013 NOSIC=  
09-Sep-2013 SAID35 WAPI 090300 METAR WAPI 090300Z 11008KT 9999 BKN016 28/27 Q1013 NOSIG=  
09-Sep-2013 SAID35 WAPI 090600 METAR WAPI 090600Z 11008KT 9999 BKN108 28/23 Q1010 NOSIG=  
10-Sep-2013 SAID35 WAPI 100100 METAR WAPI 100100Z 09007KT 9999 SCT018 29/24 Q1013 NOSIG=  
10-Sep-2013 SAID35 WAPI 100200 METAR WAPI 100200Z 10008KT 9999 SCT018 29/23 Q1012 NOSIG=  
10-Sep-2013 SAID35 WAPI 100300 METAR WAPI 100300Z 1210KT 9999 BKN018 30/23 Q1011 NOSIG=  
10-Sep-2013 SAID35 WAPI 100600 METAR WAPI 100600Z 11009KT 9999 BKN018 29/24 Q1009 NOSIG=  
11-Sep-2013 SAID35 WAPI 110000 METAR WAPI 110000Z 07007KT 9999 SCT018 28/23 Q1013 NOSIG=  
11-Sep-2013 SAID35 WAPI 110200 METAR WAPI 110200Z 10007KT 9999 SCT018 30/22 Q1010 NOSIG=  
11-Sep-2013 SAID35 WAPI 110600 METAR WAPI 110600Z 09008KT 9999 SCT018 29/23 Q1010 NOSIG=  
11-Sep-2013 SAID35 WAPI 112300 METAR WAPI 112300Z 12006KT 9999 SCT018 27/24 Q1014 NOSIG=  
12-Sep-2013 SAID35 WAPI 120000 METAR WAPI 120000Z 11009KT 9999 SCT018 28/23 Q1014 NOSIG=  
12-Sep-2013 SAID35 WAPI 120300 METAR WAPI 120300Z 11009KT 9999 SCT108 29/23 Q1013 NOSIG=  
12-Sep-2013 SAID35 WAPI 120600 METAR WAPI 120600Z 12009KT 9999 SCT018 29/23 Q1010 NOSIG=  
13-Sep-2013 SAID35 WAPI 130000 METAR WAPI 130000Z 11006KT 9999 BKN018 28/24 Q1013 NOSIG=  
13-Sep-2013 SAID35 WAPI 130100 METAR WAPI 130100Z 10010KT 9999 SCT018 29/25 Q1011 NOSIG=  
13-Sep-2013 SAID35 WAPI 130300 METAR WAPI 130300Z 11007KT 9999 SCT018 29/24 Q1013 NOSIG=  
15-Sep-2013 SAID35 WAPI 150200 METAR WAPI 150200 14005KT 9999 SCT018 31/24 Q1014 NOSIG=  
17-Sep-2013 SAID35 WAPI 170000 METAR WAPI 170000Z 17005KT 9999 FEW018 28/23 Q1011=  
17-Sep-2013 SAID35 WAPI 170300 METAR WAPI 170300Z 12006KT 9999 FEW018 30/22 Q1010 NOSIG=  
17-Sep-2013 SAID35 WAPI 170600 METAR WAPI 170600Z 17006KTS 9999 FEW018 31/23 Q1007 NOSIG=  
18-Sep-2013 SAID35 WAPI 180000 METAR WAPI 180000Z 25002KT 9999 FEW1018 29/25 Q1011 NOSIG=  
18-Sep-2013 SAID35 WAPI 180100 METAR WAPI 180100Z 14004KT 9999 SCT018 30/24 Q1011 NOSIG=  
18-Sep-2013 SAID35 WAPI 180200 METAR WAPI 180200Z 15006KT 9999 SCT018 31/23 Q1010 NOSIG=  
18-Sep-2013 SAID35 WAPI 180300 METAR WAPI 180300Z 12006KT 9999 FEW018 31/23 Q1010 NOSIG=  
18-Sep-2013 SAID35 WAPI 180400 METAR WAPI 180400Z 12006KT 9999 FEW018 31/23 Q1009 NOSIG=  
18-Sep-2013 SAID35 WAPI 180600 METAR WAPI 180600Z 16006KT 9999 FEW018 30/23 Q1007 NOSIG=  
18-Sep-2013 SAID35 WAPI 182300 METAR WAPI 182300Z 15004KT 9999 SCT018 26/23 Q1010 NOSIG=  
19-Sep-2013 SAID35 WAPI 190000 METAR WAPI 190000Z 15004KT 9999 SCT018 28/23 Q1011 NOSIG=  
19-Sep-2013 SAID35 WAPI 190600 METAR WAPI 190600Z 14006KT 9999 FEW018 30/23 Q1007 NOSIG=  
19-Sep-2013 SAID35 WAPI 192300 METAR WAPI 192300Z 20002KT 9999 FEW018 27/23 Q1011 NOSIG=  
20-Sep-2013 SAID35 WAPI 200000 METAR WAPI 200000Z 12004KT 9999 SCT018 28/22 Q1011 NOSIG=  
20-Sep-2013 SAID35 WAPI 200300 METAR WAPI 20300Z 12006KT 9999 SCT018 30/23 Q1010 NOSIG=  
20-Sep-2013 SAID35 WAPI 200400 METAR WAPI 200400Z 09006KT 9999 FEW018 30/22 Q1009 NOSIG=  
20-Sep-2013 SAID35 WAPI 200600 METAR WAPI 200600Z 11009KT 9999 SCT018 30/23 Q1008 NOSIG=  
20-Sep-2013 SAID35 WAPI 200600 METAR WAPI 200600Z 11009KT 9999 SCT018 30/23 Q1008 NOSIG=  
21-Sep-2013 SAID35 WAPI 210000 METAR WAPI 210000Z 12005KT 9999 SCT018 28/23 Q1012 NOSIG=  
21-Sep-2013 SAID35 WAPI 210300 METAR WAPI 210300Z 11010KT 9999 BKN108 30/24 Q1010 NOSIG=  
21-Sep-2013 SAID35 WAPI 210600 METAR WAPI 210600Z 09008KT 9999 SCT018 30/23 Q1009 NOSIG=  
21-Sep-2013 SAID35 WAPI 212300 METAR WAPI 212300Z 00000KT 99999 FEW018 25/24 Q1012 NOSIG=  
22-Sep-2013 SAID35 WAPI 220000 METAR WAPI 220000Z 15004KT FEW018 28/23 Q1012 NOSIG=  
22-Sep-2013 SAID35 WAPI 220300 METAR WAPI 220300 11007KT 9999 FEW018 30/22 Q1011 NOSIG=  
22-Sep-2013 SAID35 WAPI 220400 METAR WAPI 220400Z 13005KT 9999 9999 FEW018 31/22 Q1009 NOSIG=  
22-Sep-2013 SAID35 WAPI 220500 METAR WAPI 220500Z 11006KT 9999 FEW018 31/22 Q1009 NOSIG=  
22-Sep-2013 SAID35 WAPI 220600 METAR WAPI 220600Z 15006KT 9999 FEW018 31/22 Q1009 NOSIG=  
22-Sep-2013 SAID35 WAPI 222300 METAR WAPI 222300Z 15004KT 9999 SCT018 26/22 Q1012 NOSIG=  
23-Sep-2013 SAID35 WAPI 230200 METAR WAPI 230200Z 13006KT 9999 SCT018 30/23 Q1011 NOSIG=  
23-Sep-2013 SAID35 WAPI 230600 METAR WAPI 230600Z 14008KT 9999 FEW018 30/23 Q1008 NOSIG=  
23-Sep-2013 SAID35 WAPI 232300 METAR WAPI 232300Z 17007KT 9999 FEW018 27/23 Q1012 NOSIG=  
24-Sep-2013 SAID35 WAPI 240000 METAR WAPI 240000Z 17007KT 9999 SCT018 28/22 Q1012 NOSIG=  
24-Sep-2013 SAID35 WAPI 240100 METAR WAPI 240100Z 13008KT 9999 SCT018 29/23 Q1012 NOSIG=  
24-Sep-2013 SAID35 WAPI 240600 METAR WAPI 240600Z 15007KT 9999 SCT018 29/23 Q1009 NOSIG=  
25-Sep-2013 SAID35 WAPI 250000 METAR WAPI 250000Z 12008KT 9999 SCT018 28/23 Q1013 NOSIG=  
25-Sep-2013 SAID35 WAPI 250300 METAR WAPI 250300Z 12008KT 9999 SCT018 30/23 Q1013 NOSIG=  
25-Sep-2013 SAID35 WAPI 250600 METAR WAPI 250600Z 12008KTS 9999 FEW018 31/22 Q1010 NOSIG=  
26-Sep-2013 SAID35 WAPI 260000 METAR WAPI 260000Z 15004KT 9999 SCT018 28/23 Q1013 NOSIG=  
26-Sep-2013 SAID35 WAPI 260200 METAR WAPI 260200Z 13006KT 9999 FEW018 30/23 Q1013 NOSIG=  
26-Sep-2013 SAID35 WAPI 262300 METAR WAPI 262300Z 15005KT 9999 FEW018 26/22 Q1012 NOSIG=  
27-Sep-2013 SAID35 WAPI 270000 METAR WAPI 270000Z 12005KT FEW018 28/22 Q1013 NOSIG=  
27-Sep-2013 SAID35 WAPI 270100 METAR WAPI 270100Z 14006KT 9999 SCT018 29/22 Q1013 NOSIG=  
27-Sep-2013 SAID35 WAPI 270200 METAR WAPI 270200Z 13006KT 9999 FEW018 30/22 Q1013 NOSIG=  
27-Sep-2013 SAID35 WAPI 270400 METAR WAPI 270400Z 15006KT 9999 FEW018 30/22 Q1010 NOSIG=  
27-Sep-2013 SAID35 WAPI 270500 METAR WAPI 270500Z 13010KT 9999 FEW018 30/22 Q1009 NOSIG=  
27-Sep-2013 SAID35 WAPI 270600 METAR WAPI 270600Z 14007 9999 FEW018 30/22 Q1008 NOSIG=  
28-Sep-2013 SAID35 WAPI 280000 METAR WAPI 280000Z 16004KT 9999 SCT018 27/20 Q1012 NOSIG=  
28-Sep-2013 SAID35 WAPI 280600 METAR WAPI 280600Z 12006KT 9999 SCT018 30/22 Q1008 NOSIG=  
29-Sep-2013 SAID35 WAPI 290000 METAR WAPI 290000Z 10008KT 9999 SCT018 28/24 Q1011 NOSIG=  
29-Sep-2013 SAID35 WAPI 290300 METAR WAPI 290300Z 13006KT 9999 SCT018 31/23 Q1010 NOSIG=  
29-Sep-2013 SAID35 WAPI 290600 METAR WAPI 290600Z 11010KT 9999 SCT018 30/24 1007 NOSIG=  
29-Sep-2013 SAID35 WAPI 292300 METAR WAPI 292300Z 11007KT 9999 BKN018 28/24 Q1010 NOSIG=  
30-Sep-2013 SAID35 WAPI 300000 METAR WAPI 300000Z 10010KT 9999 BKN018 28/23 Q1011 NOSIG=  
30-Sep-2013 SAID35 WAPI 300100 METAR WAPI 300100Z 10009KT 9999 BKN018 28/23 Q1011 NOSIG=  
30-Sep-2013 SAID35 WAPI 300200 METAR WAPI 300200Z 11008KT 9999 BKN018 30/23 Q1010 NOSIG=  
30-Sep-2013 SAID35 WAPI 300400 METAR WAPI 300400Z 11008KT 9999 SCT018 31/223 Q1009 NOSIG=  
01-Oct-2013 SAID35 WAPI 010000 METAR WAPI 010000Z 09007KT 9999 FEW018 29/23 Q1013 NOSIG=  
01-Oct-2013 SAID35 WAPI 010300 METAR WAPI 010300Z 12007KT 9999 SCT018 30/24 Q1011 NOSIG=  
01-Oct-2013 SAID35 WAPI 012300 METAR WAPI 012300Z 12005KT 9999 FEW018 28/23 Q1013 NOSIG=  
02-Oct-2013 SAID35 WAPI 020000 METAR WAPI 020000Z 1200KT 9999 BKN018 29/23 Q1014 NOSIG=  
02-Oct-2013 SAID35 WAPI 020100 METAR WAPI 020100Z 12009KT 9999 SCT018 30/22 Q1014 NOSIG=  
02-Oct-2013 SAID35 WAPI 020200 METAR WAPI 020200Z 12009KT 9999 SCT018 30/23 Q1013 NOSIG=  
02-Oct-2013 SAID35 WAPI 020300 METAR WAPI 020300Z 12008KT 9999 SCT018 30/22 Q1012 NOSIG=  
02-Oct-2013 SAID35 WAPI 020400 METAR WAPI 020400Z 11008KT 9999 BKN018 31/22 Q1012 NOSIG=  
02-Oct-2013 SAID35 WAPI 020600 METAR WAPI 020600Z 12006KT 9999 SCT018 30/22 Q1010 NOSIG=  
03-Oct-2013 SAID35 WAPI 030000 METAR WAPI 030000 09007KT 9999 SCT018 28/23 Q1013 NOSIG=  
04-Oct-2013 SAID35 WAPI 040000 METAR WAPI 040000Z 12005KT 9999 SCT018 28/23 Q1012 NOSIG=  
04-Oct-2013 SAID35 WAPI 040100 METAR WAPI 040100Z 13006KT 9999 BKN018 29/23 Q1012 NOSIG=  
04-Oct-2013 SAID35 WAPI 040200 METAR WAPI 040200Z 11006KT 9999 BKN018 31/24 Q1012 NOSIG=  
04-Oct-2013 SAID35 WAPI 040400 METAR WAPI 040400Z 14006KT 9999 SCT018 31/23 Q1009 NOSIG=  
04-Oct-2013 SAID35 WAPI 042300 METAR WAPI 042300Z 17004KT 9999 SCT018 27/24 Q1011 NOSIG=  
05-Oct-2013 SAID35 WAPI 050100 METAR WAPI 050100Z 14007KT 9999 BKN018 29/24 Q1011 NOSIG=  
05-Oct-2013 SAID35 WAPI 050300 METAR WAPI 050300Z 16006KT 9999 BKN018 30/23 Q1010 NOSIG=  
05-Oct-2013 SAID35 WAPI 050400 METAR WAPI 050400Z 16009KT 9999 SCT018 30/23 Q1009 N0SIG=  
06-Oct-2013 SAID35 WAPI 060000 METAR WAPI 060000Z 13007KT 9999 SCTY018 29/24 Q1011 NOSIG=  
06-Oct-2013 SAID35 WAPI 060100 METAR WAPI 060100Z 14007KT 9999 SCT018 30/23 Q1011 NOSIG=  
06-Oct-2013 SAID35 WAPI 060200 METAR WAPI 060200Z 12007KT 9999 SCT018 30/24 Q1011 NOSIG=  
06-Oct-2013 SAID35 WAPI 060300 METAR WAPI 060300Z 12006KT 9999 SCT018 31/23 Q1010 NOSIG=  
06-Oct-2013 SAID35 WAPI 060400 METAR WAPI 060400Z 13007KT 9999 SCT018 31/23 Q1009 NOSIG=  
07-Oct-2013 SAID35 WAPI 070000 METAR WAPI 070000 14005KT 9999 SCT018 28/23 Q1011 NOSIG=  
07-Oct-2013 SAID35 WAPI 070100 METAR WAPI 070100Z 13006KT 9999 SCT018 30/23 Q1011 NOSIG=  
07-Oct-2013 SAID35 WAPI 070200 METAR WAPI 070200Z 14005KT 9999 SCT018 32/22 Q1010 NOSIG=  
07-Oct-2013 SAID35 WAPI 070300 METAR WAPI 070300 13008KT 9999 SCT018 32/22 Q1010 NOSIG=  
07-Oct-2013 SAID35 WAPI 070400 METAR WAPI 070400Z 12007KT 9999 SCT018 30/23 Q1009 NOSIG=  
07-Oct-2013 SAID35 WAPI 070500 METAR WAPI 070500Z 11007KT 9999 SCT018 31/22 Q1008 NOSIG=  
07-Oct-2013 SAID35 WAPI 070600 METAR WAPI 070600Z 13008KT 9999 SCT018 30/23 Q1008 NOSIG=  
07-Oct-2013 SAID35 WAPI 072300 METAR WAPI 072300Z 16005KT 9999 SCT018 27/22 Q1011 NOSIG=  
08-Oct-2013 SAID35 WAPI 080000 METAR WAPI 080000Z 16007KT 9999 SCT018 28/23 Q1012 NOSIG=  
08-Oct-2013 SAID35 WAPI 080100 METAR WAPI 080100Z 16006KT 9999 SCT018 29/23 Q1012 NOSIG=  
08-Oct-2013 SAID35 WAPI 080200 METAR WAPI 080200Z 15007KT 9999 SCT018 30/23 Q1011 NOSIG=  
08-Oct-2013 SAID35 WAPI 080300 METAR WAPI 080300Z 16008KT 9999 SCT018 30/23 Q1010 NOSIG=  
08-Oct-2013 SAID35 WAPI 080400 METAR WAPI 080400Z 15006KT 9999 SCT018 31/23 Q1010 NOSIG=  
08-Oct-2013 SAID35 WAPI 080600 METAR WAPI 080600Z 15007KT 9999 SCT018 30/23 Q1008 NOSIG=  
09-Oct-2013 SAID35 WAPI 090100 METAR WAPI 090100 11012KT 9999 SCT017 31/25 Q1010 NOSIG=  
09-Oct-2013 SAID35 WAPI 090400 METAR WAPI 090400Z 17006KT 9999 FEW018 31/23 Q1010 NOSIG=  
09-Oct-2013 SAID35 WAPI 092300 METAR WAPI 092300Z 00000KT 9999 FEW018 26/24 Q1012 NOSIG=  
10-Oct-2013 SAID35 WAPI 100000 METAR WAPI 100000Z 24003KT 9999 SCT018 27/25 Q1012 NOSIG=  
10-Oct-2013 SAID35 WAPI 100100 METAR WAPI 100100Z 23005KT 9999 SCT018 26/24 Q1012 NOSIG=  
10-Oct-2013 SAID35 WAPI 100300 METAR WAPI 100300Z 17006KT 9999 SCT018 31/23 Q1011 NOSIG=  
10-Oct-2013 SAID35 WAPI 100400 METAR WAPI 100400Z 17007KT 9999 SCT018 31/22 Q1010 NOSIG=  
10-Oct-2013 SAID35 WAPI 100500 METAR WAPI 100500Z 12006KT 9999 SCT018 31/23 Q1010 NOSIG=  
10-Oct-2013 SAID35 WAPI 100600 METAR WAPI 100600Z 14006KT 9999 SCT018 30/21 Q1009 NOSIG=  
10-Oct-2013 SAID35 WAPI 102300 METAR WAPI 102300Z 12007KT 9999 SCT018 28/22 Q1011 NOSIG=  
11-Oct-2013 SAID35 WAPI 110000 METAR WAPI 110000Z 12006KT 9999 SCT018 29/22 Q1012 NOSIG=  
11-Oct-2013 SAID35 WAPI 110100 METAR WAPI 110100Z 12008KT 9999 SCT018 30/22 Q1011 NOSIG=  
11-Oct-2013 SAID35 WAPI 110300 METAR WAPI 110300 13007KT 9999 SCT018 30/22 Q1010 NOSIG=  
11-Oct-2013 SAID35 WAPI 110400 METAR WAPI 110400 13010KT 9999 SCT018 30/21 Q1009 NOSIG=  
11-Oct-2013 SAID35 WAPI 110600 METAR WAPI 110600Z 12006KT 9999 SCT018 30/22 Q1007 NOSIG=  
11-Oct-2013 SAID35 WAPI 112300 METAR WAPI 112300Z 12007KT 9999 SCT018 28/23 Q1011 NOSIG=  
12-Oct-2013 SAID35 WAPI 120000 METAR WAPI 120000Z 13009KT 9999 SCT018 29/23 Q1011 NOSIG=  
12-Oct-2013 SAID35 WAPI 120100 METAR WAPI 120100Z 11007KT 9999 SCT018 30/23 Q1011 NOSIG=  
12-Oct-2013 SAID35 WAPI 120200 METAR WAPI 120200Z 11008KT 9999 SCT018 31/22 Q1010 NOSIG=  
12-Oct-2013 SAID35 WAPI 120300 METAR WAPI 120300Z 11009KT 9999 SCT018 31/23 Q1009 NOSIG=  
12-Oct-2013 SAID35 WAPI 120400 METAR WAPI 120400Z 12009KT 9999 SCT018 31/22 Q1008 NOSIG=  
12-Oct-2013 SAID35 WAPI 120500 METAR WAPI 120500Z 12008KT 9999 SCT018 31/22 Q1007 NOSIG=  
12-Oct-2013 SAID35 WAPI 120600 METAR WAPI 120600Z 13007KT 9999 SCT018 31/23 Q1009 NOSIG=  
12-Oct-2013 SAID35 WAPI 122300 METAR WAPI 122300Z 10006KT 9999 SCT017 28/25 Q1010 NOSIG=  
13-Oct-2013 SAID35 WAPI 130200 METAR WAPI 130200Z 11008KT 9999 BKN018 30/25 Q1011 NOSIG=  
13-Oct-2013 SAID35 WAPI 130500 METAR WAPI 130500Z 12008KT 9999 BKN018 31/15 Q1008 NOSIG=  
13-Oct-2013 SAID35 WAPI 130600 METAR WAPI 130600Z 12007KT 9999 BKN018 30/25 Q1008 NOSIG=  
13-Oct-2013 SAID35 WAPI 132300 METAR WAPI 132300Z 10005KT 9999 28/25 Q1012 NOSIG=  
14-Oct-2013 SAID35 WAPI 140000 METAR WAPI 140000Z 09007KT 9999 FEW018 29/25 Q1012 NOSIG=  
14-Oct-2013 SAID35 WAPI 140200 METAR WAPI 140200Z 06008KT 9999 FEW018 30/25 Q1012 NOSIG=  
15-Oct-2013 SAID35 WAPI 150000 METAR WAPI 150000 18005KT 9999 SCT018 29/25 Q1013 NOSIG=  
15-Oct-2013 SAID35 WAPI 150300 METAR WAPI 150300Z 13006KT 9999 SCT018 31/25 Q1012 NOSIG=  
15-Oct-2013 SAID35 WAPI 150400 METAR WAPI 150400Z 15007KT 9999 SCT018 31/25 Q1012 NOSIG=  
15-Oct-2013 SAID35 WAPI 150500 METAR WAPI 150500Z 13008KT 9000 BKN018 32/24 Q1012=  
15-Oct-2013 SAID35 WAPI 150600 METAR WAPI 150600Z 12008KT 5000 RA RETS SCT015CB BKN018 25/23 Q1012=  
15-Oct-2013 SAID35 WAPI 152300 METAR WAPI 152300Z 09005KT 9999 FEW015 27/25 NOSIG=  
16-Oct-2013 SAID35 WAPI 160000 METAR WAPI 160000Z 07006KT 9999 FEW015 27/25 Q1013 NOSIG=  
16-Oct-2013 SAID35 WAPI 160100 METAR WAPI 160100Z 07007KT 9999 SCT018 30/25 Q1013 NOSIG=  
16-Oct-2013 SAID35 WAPI 160200 METAR WAPI 160200Z 08005KT 9999 SCT018 31/24 Q1013 NOSIG=  
16-Oct-2013 SAID35 WAPI 160300 METAR WAPI 160300Z 12006KT 9999 CST018 31/25 Q1012 NOSIG=  
16-Oct-2013 SAID35 WAPI 160500 METAR WAPI 160500Z 08005KT 9999 SCT018 31/24 Q1010 NOSIG=  
16-Oct-2013 SAID35 WAPI 160600 METAR WAPI 160600Z 11008KT 9999 FEW015CB 31/24 Q1010 NOSIG=  
17-Oct-2013 SAID34 WAPI 170600 METAR WAPI 170600Z 13006KT 9999 SCT020 31/25 Q1010=  
17-Oct-2013 SAID35 WAPI 172300 METAR WAPI 172300Z 12006KT 9999 SCT018 28/25 Q1011 NOSIG=  
18-Oct-2013 SAID35 WAPI 180000 METAR WAPI 180000Z 10008KT 9999 FEW018 29/24 Q1012 NOSIG=  
18-Oct-2013 SAID35 WAPI 180200 METAR WAPI 180200Z 12008KT 9999 FEW010 31/24 Q1011 NOSIG=  
18-Oct-2013 SAID35 WAPI 180300 METAR WAPI 180300Z 11007KT 9999 SCT018 31/24 Q1011 NOSIG=  
18-Oct-2013 SAID35 WAPI 180600 METAR WAPI 180600Z 11009KT 9999 SCT018 31/24 Q1009 NOSIG=  
18-Oct-2013 SAID35 WAPI 182300 METAR WAPI 182300Z 10008KT 9999 SCT018 29/23 Q1011 NOSIG=  
19-Oct-2013 SAID35 WAPI 190000 METAR WAPI 190000Z 11010KT 9999 SCT018 29/22 Q1011 NOSIG=  
19-Oct-2013 SAID35 WAPI 190100 METAR WAPI 190100Z 10011KT 9999 SCT018 30/23 Q1011 NOSIG=  
19-Oct-2013 SAID35 WAPI 190200 METAR WAPI 190200Z 11009KT 9999 SCT018 30/23 Q1011 NOSIG=  
19-Oct-2013 SAID35 WAPI 190300 METAR WAPI 190300Z 11011KT 9999 SCT018 31/23 Q1010 NOSIG=  
19-Oct-2013 SAID35 WAPI 190400 METAR WAPI 190400Z 12010KT 9999 SCT018 31/24 Q1011 NOSIG=  
19-Oct-2013 SAID35 WAPI 190500 METAR WAPI 190500 12012KT 9999 BKN018 31/24 Q1009 NOSIG=  
19-Oct-2013 SAID35 WAPI 190600 METAR WAPI 190600Z 12008KT 9999 SCT018 31/24 Q1008 NOSIG=  
19-Oct-2013 SAID35 WAPI 192300 METAR WAPI 192300Z 08008KT 9999 SCT018 28/23 Q1010 NOSIG=  
20-Oct-2013 SAID35 WAPI 200000 METAR WAPI 200000Z 08009KT 9999 SCT018 30/24 Q1011 NOSIG=  
20-Oct-2013 SAID35 WAPI 200100 METAR WAPI 200100Z 09011KT 9999 SCT018 30/23 Q1011 NOSIG=  
20-Oct-2013 SAID35 WAPI 200200 METAR WAPI 200200Z 09010KT 9999 SCT018 31/24 Q1011 NOSIG=  
20-Oct-2013 SAID35 WAPI 200300 METAR WAPI 200300Z 07010KT 9999 SCT018 31/24 Q1010 NOSIG=  
20-Oct-2013 SAID35 WAPI 200400 METAR WAPI 200400Z 07011KT 9999 SCT018 31/24 Q1009 NOSIG=  
20-Oct-2013 SAID35 WAPI 200500 METAR WAPI 200500Z 07009KT 9999 SCT018 31/24 Q1008 NOSIG=  
20-Oct-2013 SAID35 WAPI 200600 METAR WAPI 200600Z 09008KT 9999 SCT018 31/24 Q1007 NOSIG=  
21-Oct-2013 SAID35 WAPI 210000 METAR WAPI 210000Z 11012KTS 9999 SET018 30/23 Q1010 NOSIG=  
21-Oct-2013 SAID35 WAPI 210100 METAR WAPI 210100Z 27003KT 9999 SCT018 30/26 Q1008 NOSIG=  
21-Oct-2013 SAID35 WAPI 210200 METAR WAPI 210200Z 26007KT 9999 BKN018 32/25 Q1008 NOSIG=  
21-Oct-2013 SAID35 WAPI 210300 METAR WAPI 210300Z 12010KTS 999 SET108 31/25 Q1009 NOSIG=  
21-Oct-2013 SAID35 WAPI 210600 METAR WAPI 210600Z 13010KT 9999 SCT018 31/24 Q1007 NOSIG=  
21-Oct-2013 SAID35 WAPI 212300 METAR WAPI 212300Z 10007KT 9999 SCT018 29/25 Q1010 NOSIG=  
22-Oct-2013 SAID35 WAPI 220000 METAR WAPI 220000Z 12007KT 9999 SCT018 30/24 Q1011 NOSIG=  
22-Oct-2013 SAID35 WAPI 220100 METAR WAPI 220100Z 11008KT 9999 SCT018 31/25 Q1011 NOSIG=  
22-Oct-2013 SAID35 WAPI 220200 METAR WAPI 220200Z 12008KT 9999 SCT018 31/25 Q1011 NOSIG=  
22-Oct-2013 SAID35 WAPI 220300 METAR WAPI 220300Z 12009KT 9999 BKN018 31/24 Q1010 NOSIG=  
22-Oct-2013 SAID35 WAPI 220400 METAR WAPI 220400Z 12009KT 9999 SCT018 32/24 Q1010 NOSIG=  
22-Oct-2013 SAID35 WAPI 220500 METAR WAPI 220500Z 11008KT 9999 SCT018 32/24 Q1009 NOSIG=  
22-Oct-2013 SAID35 WAPI 220600 METAR WAPI 220600Z 12009KT 9999 SCT018 30/24 Q1008 NOSIG=  
22-Oct-2013 SAID35 WAPI 222300 METAR WAPI 222300Z 14006KT 9999 SCT018 28/24 Q1010 NOSIG=  
23-Oct-2013 SAID35 WAPI 230000 METAR WAPI 230000Z 14006KT 9999 SCT018 30/24 Q1011 NOSIG=  
23-Oct-2013 SAID35 WAPI 230100 METAR WAPI 230100Z 13006KT 9999 SCT018 31/24 Q1011 NOSIG=  
23-Oct-2013 SAID35 WAPI 230200 METAR WAPI 230200Z 17006KT 9999 SCT018 31/24 Q1010 NOSIG=  
23-Oct-2013 SAID35 WAPI 230300 METAR WAPI 230300Z 17006KT 9999 SCT018 31/24 Q1010 NOSIG=  
23-Oct-2013 SAID35 WAPI 230400 METAR WAPI 230400 18008KT 9999 BKN018 31/24 Q1009 NOSIG=  
23-Oct-2013 SAID35 WAPI 230500 METAR WAPI 230500Z 11006KT 9000 RA TS FEW010CB SCT015 28/24 Q1006=  
23-Oct-2013 SAID35 WAPI 232300 METAR WAPI 232300Z 13006KT 9999 FEW018 28/23 Q1010 NOSIG=  
24-Oct-2013 SAID35 WAPI 240000 METAR WAPI 240000Z 12008KT 9999 SCT015 29/23 Q1010 NOSIG=  
24-Oct-2013 SAID35 WAPI 240100 METAR WAPI 240100Z 12009KT 9999 SCT015 30/23 Q1010 NOSIG=  
24-Oct-2013 SAID35 WAPI 240200 METAR WAPI 240200Z 12008KT 9999 SCT015 31/23 Q1010 NOSIG=  
24-Oct-2013 SAID35 WAPI 240300 METAR WAPI 240300Z 11009KT 9999 SCT015 31/24 Q1009 NOSIG=  
24-Oct-2013 SAID35 WAPI 240400 METAR WAPI 240400Z 13008KT 9999 FEW018 32/24 Q1008 NOSIG=  
24-Oct-2013 SAID35 WAPI 240600 METAR WAPI 240600Z 12009KT 9999 SCT015 31/24 Q1007 NOSIG=  
25-Oct-2013 SAID35 WAPI 250000 METAR WAPI 250000Z 06008KT 9999 SET018 28/25 Q1011 NOSIG=  
25-Oct-2013 SAID35 WAPI 250200 METAR WAPI 250200 28006KT 9999 BKN018 25/24 Q1008 NOSIG=  
25-Oct-2013 SAID35 WAPI 250500 METAR WAPI 250500Z 26012KT 9999 BKN018 27/25 Q1007 NOSIG=  
25-Oct-2013 SAID35 WAPI 250600 METAR WAPI 250600Z 09011KT 9999 SET018 31/25 Q1009 NOSIG=  
25-Oct-2013 SAID35 WAPI 252300 METAR WAPI 252300Z 06006KT 9999 SCT018 SCT030 29/25 Q1012 NOSIG=  
26-Oct-2013 SAID35 WAPI 260000 METAR WAPI 260000Z 08008KT 9999 FEW015 SCT030 30/23 Q1012 NOSIG=  
26-Oct-2013 SAID35 WAPI 260100 METAR WAPI 260100Z 08007KT 9999 SCT015 31/25 Q1013 NOSIG=  
26-Oct-2013 SAID35 WAPI 260200 METAR WAPI 260200Z 06009KT 9999 SCT015 30/25 Q1012 NOSIG=  
26-Oct-2013 SAID35 WAPI 260300 METAR WAPI 260300Z 06009KT 9999 SCT015 31/25 Q1012 NOSIG=  
26-Oct-2013 SAID35 WAPI 260400 METAR WAPI 260400Z 10006KT 9999 SCT015 31/24 Q1012 NOSIG=  
26-Oct-2013 SAID35 WAPI 260600 METAR WAPI 260600Z 12007KT 9999 SCT015 31/24 Q1010 NOSIG=  
26-Oct-2013 SAID35 WAPI 262300 METAR WAPI 262300Z 09008KT 9999 FEW015 BKN075 28/23 Q1013 NOSIG=  
27-Oct-2013 SAID35 WAPI 270000 METAR WAPI 270000Z 09007KT 9999 FEW010 BKN075 29/23 Q1013 NOSIG=  
27-Oct-2013 SAID35 WAPI 270100 METAR WAPI 270100Z 13008KT 9999 SCT015 BKN075 30/23 Q1013 NOSIG=  
27-Oct-2013 SAID35 WAPI 270200 METAR WAPI 270200Z 12008KT 9999 SCT015 BKN075 31/24 Q1012 NOSIG=  
27-Oct-2013 SAID35 WAPI 270300 METAR WAPI 270300Z 12007KT 9999 SCT015 21/23 Q1011 NOSIG=  
27-Oct-2013 SAID35 WAPI 270400 METAR WAPI 270400Z 07012KT 9999 SCT015 31/23 Q1011 NOSIG=  
27-Oct-2013 SAID35 WAPI 270500 METAR WAPI 270500Z 10010KT 9999 SCT015 BKN075 31/23 Q1011 NOSIG=  
27-Oct-2013 SAID35 WAPI 270600 METAR WAPI 270600Z 12007KT 9999 SCT015 BKN075 31/23 Q1009 NOSIG=  
28-Oct-2013 SAID35 WAPI 280300 METAR WAPI 280300Z 10008KT 9999 SCT015 31/23 Q1011 NOSIG=  
28-Oct-2013 SAID35 WAPI 280500 METAR WAPI 280500Z 12008KT 9999 BKN015 31/23 Q1009 NOSIG=  
28-Oct-2013 SAID35 WAPI 280600 METAR WAPI 280600Z 08008KT 9999 SCT015 31/22 Q1009 NOSIG=  
28-Oct-2013 SAID35 WAPI 282300 METAR WAPI 282300Z 11002KT 9999 SCT018 28/25 Q1012 NOSIG=  
29-Oct-2013 SAID35 WAPI 290000 METAR WAPI 290000Z 09006KT 9999 SET018 30/24 Q1013 NOSIG=  
29-Oct-2013 SAID35 WAPI 290300 METAR WAPI 290300Z 10009KT 999 SET018 31/25 Q1011 NOSIG=  
29-Oct-2013 SAID35 WAPI 292300 METAR WAPI 292300Z 08005KT 9999 FEW010 BKN075 38/23 Q1012 NOSIG=  
30-Oct-2013 SAID35 WAPI 300000 METAR WAPI 300000Z 10005KT 9999 FEW010 30/23 Q1012 NOSIG=  
30-Oct-2013 SAID35 WAPI 300100 METAR WAPI 300100Z 12007KT 9999 FEW010 30/23 Q1012 NOSIG=  
30-Oct-2013 SAID35 WAPI 300200 METAR WAPI 300200Z 15006KT 9999 FEW010 31/24 Q1012 NOSIG=  
30-Oct-2013 SAID35 WAPI 300300 METAR WAPI 300300Z 12008KT 9999 FEW018 31/23 Q1011 NOSIG=  
30-Oct-2013 SAID35 WAPI 300500 METAR WAPI 300500Z 13008KT 9999 FEW015 BKN075 30/23 Q1009 NOSIG=  
30-Oct-2013 SAID35 WAPI 300600 METAR WAPI 300600Z 11005KT 9999 FEW018CB BKN075 30/24 Q1009 NOSIG=  
30-Oct-2013 SAID35 WAPI 302300 METAR WAPI 302300Z 06006KT 9999 FEW015 BKN075 28/23 Q1012 NOSIG=  
31-Oct-2013 SAID35 WAPI 310000 METAR WAPI 310000Z 09008KT 9999 SCT015 BKN075 30/24 Q1013 NOSIG=  
31-Oct-2013 SAID35 WAPI 310100 METAR WAPI 310100Z 06008KT 9999 SCT015 31/24 Q1012 NOSIG=  
31-Oct-2013 SAID35 WAPI 310200 METAR WAPI 310200Z 07007KT 9999 SCT015 32/25 Q1011 NOSIG=  
31-Oct-2013 SAID35 WAPI 310300 METAR WAPI 310300Z 09014KT 9999 SCT015 31/25 Q1011 NOSIG=  
31-Oct-2013 SAID35 WAPI 310500 METAR WAPI 310500Z 05008KT 9999 SCT016CB 30/25 Q1009 NOSIG=  
31-Oct-2013 SAID35 WAPI 310600 METAR WAPI 310600Z 06006KT 9999 SCT015CB SCT030 29/25 Q1011 NOSIG=  
31-Oct-2013 SAID35 WAPI 312300 METAR WAPI 312300 00000KT 9999 BKN018 28/24 Q1012 NOSIG=  
01-Nov-2013 SAID35 WAPI 010000 METAR WAPI 010000Z 10008KT 9999 BKN018 29/25 Q1012 NOSIG=  
01-Nov-2013 SAID35 WAPI 010100 METAR WAPI 010100 13011KT 9999 SCT018 30/24 Q1012 NOSIG=  
01-Nov-2013 SAID35 WAPI 010200 METAR WAPI 010200 10011KT 9999 SCT018 31/24 Q1011.8 NOSIG=  
01-Nov-2013 SAID35 WAPI 010500 METAR WAPI 010500 09009KT 9999 FEW017 32/24 Q1009 NOSIG=  
01-Nov-2013 SAID35 WAPI 010600 METAR WAPI 010600 10008KT 9999 FEW017 30/24 Q1008 NOSOG=  
02-Nov-2013 SAID35 WAPI 020000 METAR WAPI 020000Z 11011KT 9999 SCTO15 30/24 Q1011 NOSIG=  
02-Nov-2013 SAID35 WAPI 020100 METAR WAPI 020100Z 12006KT 9999 SCTO15 31/24 Q1011 NOSIG=  
02-Nov-2013 SAID35 WAPI 020200 METAR WAPI 020200Z 14004KT 9999 SCTO15 32/24 Q1011 NOSIG=  
02-Nov-2013 SAID35 WAPI 020300 METAR WAPI 020300Z 24003KT 9999 SCT015 30/26 Q1010 NOSIG=  
02-Nov-2013 SAID35 WAPI 020500 METAR WAPI 020500Z 12007KT 9999 SCTO15 31/24 Q1008 NOSIG=  
02-Nov-2013 SAID35 WAPI 020600 METAR WAPI 020600Z 11007KT 9999 SCTO15 32/24 Q1011 NOSIG=  
03-Nov-2013 SAID35 WAPI 030000 METAR WAPI 030000Z 08010KT 9999 SCT010 30/24 Q1011 NOSIG=  
03-Nov-2013 SAID35 WAPI 030300 METAR WAPI 030300Z 08008KT 9999 SCT015 31/24 Q1010 NOSIG=  
03-Nov-2013 SAID35 WAPI 030400 METAR WAPI 030400Z 09008KT 9999 SCT015 31/24 Q1009 NOSIG=  
03-Nov-2013 SAID35 WAPI 030500 METAR WAPI 030500Z 11009KT 9999 SCT015 31/24 Q1009 NOSIG=  
03-Nov-2013 SAID35 WAPI 030600 METAR WAPI 030600Z 13008KT 9999 SCT015 32/25 Q1010 NOSIG=  
03-Nov-2013 SAID35 WAPI 032300 METAR WAPI 032300Z 10006KT 9999 BKN015 29/23 Q1011 NOSIG=  
04-Nov-2013 SAID35 WAPI 040100 METAR WAPI 040100Z 08008KT 9999 SCT015 31/24 Q1011 NOSIG=  
04-Nov-2013 SAID35 WAPI 040200 METAR WAPI 040200Z 09008KT 9999 SCT015 32/24 Q1010 NOSIG=  
04-Nov-2013 SAID35 WAPI 040300 METAR WAPI 040300Z 08010KT 9999 FEW015 31/24 Q1010 NOSIG=  
04-Nov-2013 SAID35 WAPI 040500 METAR WAPI 04500Z 10012KT 9999 FEW015 32/23 Q1009 NOSIG=  
04-Nov-2013 SAID35 WAPI 040600 METAR WAPI 040600Z 10006KT 9999 SCT010 32/23 Q1008 NOSIG=  
05-Nov-2013 SAID35 WAPI 050100 METAR WAPI 050100Z 14007KT 9999 BKN018 29/24 Q1011 NOSIG=  
05-Nov-2013 SAID35 WAPI 050300 METAR WAPI 050300Z 12008KT 9999 SCT018 32/24 Q1010 NOSIG=  
05-Nov-2013 SAID35 WAPI 050500 METAR WAPI 050500Z 1500KT 9999 SCT018 32/24 Q1008 NOSIG=  
05-Nov-2013 SAID35 WAPI 052300 METAR WAPI 052300Z 07008KT 9999 FEW010 BKN075 29/23 Q1010 NOSIG=  
06-Nov-2013 SAID35 WAPI 060000 METAR WAPI 060000Z 11007KY 9999 SCT015 30/24 Q1010 NOSIG=  
06-Nov-2013 SAID35 WAPI 060100 METAR WAPI 060100Z 11010KT 9999 SCT015 31/24 Q1010 NOSIG=  
06-Nov-2013 SAID35 WAPI 060200 METAR WAPI 060200Z 11010KT 9999 SCT015 31/24 Q1010 NOSIG=  
06-Nov-2013 SAID35 WAPI 060300 METAR WAPI 060300Z 13012KT 9999 SCT015 32/24 Q1009 NOSIG=  
06-Nov-2013 SAID35 WAPI 060500 METAR WAPI 060500Z 12006KT 9999 FEW010 32/25 Q1007 NOSIG=  
06-Nov-2013 SAID35 WAPI 060600 METAR WAPI 060600Z 12009KT 9999 SCT015 31/23 Q1007 NOSIG=  
06-Nov-2013 SAID35 WAPI 062300 METAR WAPI 062300Z 09006KT 9999 SCT015 29/24 Q1009 NOSIG=  
07-Nov-2013 SAID35 WAPI 070000 METAR WAPI 070000Z 11009KT 9999 SCT015 29/24 Q1010 NOSIG=  
07-Nov-2013 SAID35 WAPI 070100 METAR WAPI 070100Z 10010KT 9999 SCT015 31/24 Q1009 NOSIG=  
07-Nov-2013 SAID35 WAPI 070200 METAR WAPI 070200Z 10008KT 9999 SCT015 31/23 Q1009 NOSIG=  
07-Nov-2013 SAID35 WAPI 070300 METAR WAPI 070300Z 11010KT 9999 SCT018 32/23 Q1008 NOSIG=  
07-Nov-2013 SAID35 WAPI 070400 METAR WAPI 070400Z 10009 KT 9999 SCT018 32/23 Q1007 NOSIG=  
07-Nov-2013 SAID35 WAPI 070500 METAR WAPI 070500Z 09008KT 9999 SCT018 31/24 Q1007 NOSIG=  
07-Nov-2013 SAID35 WAPI 070600 METAR WAPI 070600Z 12009KT 9999 SCT015 31/23 Q1006 NOSIG=  
07-Nov-2013 SAID35 WAPI 072300 METAR WAPI 072300 10009KT 9999 CST018 30/24 Q1009 NOSIG=  
08-Nov-2013 SAID35 WAPI 080000 METAR WAPI 080000Z 11007KT 9999 BKN018 30/25 Q1009 NOSIG=  
08-Nov-2013 SAID35 WAPI 080200 METAR WAPI 080200Z 12008KT 9999 SCT018 32/25 Q1009 NOSIG=  
08-Nov-2013 SAID35 WAPI 080300 METAR WAPI 080300Z 11008KT 9999 BKN015 32/24 Q1008 NOSIG=  
08-Nov-2013 SAID35 WAPI 080600 METAR WAPI 080600Z 12008KT 9999 SCT015 32/22 Q1006 NOSIG=  
08-Nov-2013 SAID35 WAPI 082300 METAR WAPI 082300 09005KT 9999 SCT018 Q29/25 Q1009 NOSIG=  
09-Nov-2013 SAID35 WAPI 090000 METAR WAPI 090000 10012KT 9999 SCT018 31/25 Q1010 NOSIG=  
09-Nov-2013 SAID35 WAPI 090200 METAR WAPI 090200 10010KT 9999 CST017 31/24 Q1009 NOSIG=  
09-Nov-2013 SAID35 WAPI 090300 METAR WAPI 090300 11010KT 9999 SCT017 32/24 Q1009 NOSIG=  
09-Nov-2013 SAID35 WAPI 090400 METAR WAPI 090400 10009KT 9999 TS CB FEW017 30/24 Q1008=  
09-Nov-2013 SAID35 WAPI 090600 METAR WAPI 090600 10011KT 9999 SCT017 30/24 Q1007 NOSIG=  
09-Nov-2013 SAID35 WAPI 092300 METAR WAPI 092300Z 31003KT 9999 FEW018 BKN075 27/25 Q1010 NOSIG=  
10-Nov-2013 SAID35 WAPI 100000 METAR WAPI 100000Z 28003KT 9999 FEW018 BKN075 29/26 Q1010 NOSIG=  
10-Nov-2013 SAID35 WAPI 100100 METAR WAPI 100100Z 15007KT 9999 BKN015 31/24 Q1010 NOSIG=  
10-Nov-2013 SAID35 WAPI 100200 METAR WAPI 100200Z 13005KT 9999 BKN015 32/24 Q1009 NOSIG=  
10-Nov-2013 SAID35 WAPI 100300 METAR WAPI 100300Z 13008KT 9999 BKN015 32/25 NOSIG=  
10-Nov-2013 SAID35 WAPI 100500 METAR WAPI 100500Z 13006KT 9999 SCT015 31/25 Q1006 NOSIG=  
10-Nov-2013 SAID35 WAPI 100600 METAR WAPI 100600Z 15005KT 9999 SCT015 32/25 Q1006 NOSIG=  
10-Nov-2013 SAID35 WAPI 102300 METAR WAPI 102300Z 15005KT 9999 SCT015 28/24 Q1009 NOSIG=  
11-Nov-2013 SAID35 WAPI 110000 METAR WAPI 110000Z 13017KT 9999 SCT018 30/24 Q1009 NOSIG=  
11-Nov-2013 SAID35 WAPI 110100 METAR WAPI 110100Z 12005KT 9999 FEW015 BKN075 31/24 Q1009 NOSIG=  
11-Nov-2013 SAID35 WAPI 110200 METAR WAPI 110200Z 14005KT 9999 FEW015 BKN075 31/24 Q1008 NOSIG=  
11-Nov-2013 SAID35 WAPI 110400 METAR WAPI 110400Z 14005KT 9999 FEW010 BKN075 33/2 Q1006 NOSIG=  
11-Nov-2013 SAID35 WAPI 110500 METAR WAPI 110500Z 13005KT 9999 FEW010 BKN075 33/2 Q1006 NOSIG=  
11-Nov-2013 SAID35 WAPI 110600 METAR WAPI 110600Z 12006KT 9999 FEW010 BKN075 33/23 Q1005 NOSIG=  
11-Nov-2013 SAID35 WAPI 112300 METAR WAPI 112300Z 11004KT 9999 FEW010 29/24 Q1008 NOSIG=  
12-Nov-2013 SAID35 WAPI 120000 METAR WAPI 120000Z 09004KT 9999 SCT015 31/23 Q1008 NOSIG=  
12-Nov-2013 SAID35 WAPI 120100 METAR WAPI 120100Z 09006KT 9999 SCT015 31/23 Q1008 NOSIG=  
12-Nov-2013 SAID35 WAPI 120200 METAR WAPI 120200Z 10005KT 9999 FEW015 32/23 Q1007 NOSIG=  
12-Nov-2013 SAID35 WAPI 120300 METAR WAPI 120300Z 09007KT 9999 FEW010 32/22 Q1006 NOSIG=  
12-Nov-2013 SAID35 WAPI 120500 METAR WAPI 120500Z 08005KT 9999 FEW017 32/23 Q1005 NOSIG=  
12-Nov-2013 SAID35 WAPI 120600 METAR WAPI 120600Z 07007KT 9999 FEW010 31/23 Q1004 NOSIG=  
12-Nov-2013 SAID35 WAPI 122300 METAR WAPI 122300Z 12003KT 9999 SCT018 29/25 Q1008 NOSIG=  
13-Nov-2013 SAID35 WAPI 130000 METAR WAPI 130000Z 13005KT 9999 SCT018 31/24 Q1009 NOSIG=  
13-Nov-2013 SAID35 WAPI 130100 METAR WAPI 130100Z 12004KT 9999 SCT018 30/25 Q1008 NOSIG=  
13-Nov-2013 SAID35 WAPI 130200 METAR WAPI 130200Z 13006KT 9999 SCT018 31/25 Q1008 NOSIG=  
13-Nov-2013 SAID35 WAPI 130300 METAR WAPI 130300Z 14006KT 9999 BKN018 32/26 Q1007 NOSIG=  
13-Nov-2013 SAID35 WAPI 130400 METAR WAPI 130400Z 12008KT 9999 BKN018 32/25 Q1006 NOSIG=  
13-Nov-2013 SAID35 WAPI 130500 METAR WAPI 130500Z 14006KT 9999 BKN018 32/25 Q1005 NOSIG=  
13-Nov-2013 SAID35 WAPI 130600 METAR WAPI 130600Z 15010KT 9999 BKN017 32/25 Q1005 NOSIG=  
13-Nov-2013 SAID35 WAPI 132300 METAR WAPI 132300Z 34004KT 9999 SCT017 27/25 Q1010 NOSIG=  
14-Nov-2013 SAID35 WAPI 140000 METAR WAPI 140000Z 13005KT 9999 FEW010 BKN030 28/24 Q1010=  
14-Nov-2013 SAID35 WAPI 140100 METAR WAPI 140100Z 13006KT 9999 FEW010 30/25 Q1010=  
14-Nov-2013 SAID35 WAPI 140200 METAR WAPI 140200Z 12006KT 9999 FEW010 31/24 Q1009 NOSIG=  
14-Nov-2013 SAID35 WAPI 140300 METAR WAPI 140300Z 16007KT 9999 SCT018 BKN075 32/25 Q1009 NOSIG=  
14-Nov-2013 SAID35 WAPI 140400 METAR WAPI 140400Z 15005KT 9999 SCT017 32/25 Q1008 NOSIG=  
14-Nov-2013 SAID35 WAPI 140500 METAR WAPI 140500Z 18006KT 9999 FEW017 32/25 Q1007 NOSIG=  
14-Nov-2013 SAID35 WAPI 140600 METAR WAPI 140600Z 14006KT 9999 RE TS FEW010CB BKN030 32/25 Q1007=  
14-Nov-2013 SAID35 WAPI 142300 METAR WAPI 142300Z 20004KT 9999 FEW010 28/24 Q1009 NOSIG=  
15-Nov-2013 SAID35 WAPI 150000 METAR WAPI 150000Z 29003KT 9999 FEW010 31/24 Q1010 NOSIG=  
15-Nov-2013 SAID35 WAPI 150100 METAR WAPI 150100Z 21003KT 9999 FEW010 33/23 Q1010 NOSIG=  
15-Nov-2013 SAID35 WAPI 150200 METAR WAPI 150200Z 14007KT 9999 TS FEW010CB 32/23 Q1010=  
15-Nov-2013 SAID35 WAPI 150300 METAR WAPI 150300Z 17007KT 9999 TS FEW010CB FEW015 33/25 Q1009=  
15-Nov-2013 SAID35 WAPI 150500 METAR WAPI 150500Z 15008KT 9999 SCT015 33/25 Q1007=  
15-Nov-2013 SAID35 WAPI 150600 METAR WAPI 150600Z 16006KT 9999 SCT010 32/25 Q1007 NOSIG=  
15-Nov-2013 SAID35 WAPI 152300 METAR WAPI 152300Z 00000KT 9999 SCT015 28/25 Q1008 NOSIG=  
16-Nov-2013 SAID35 WAPI 160000 METAR WAPI 160000Z 24005KT 9999 BKN015 30/25 Q1008 NOSIG=  
16-Nov-2013 SAID35 WAPI 160100 METAR WAPI 160100Z 16005KT 9999 BKN015 32/25 Q1008 NOSIG=  
16-Nov-2013 SAID35 WAPI 160300 METAR WAPI 160300Z 11006KT 9999 SCT015 33/24 Q1007 NOSIG=  
16-Nov-2013 SAID35 WAPI 160400 METAR WAPI 160400Z 13005KT 9999 SCT018 33/25 Q1006 NOSIG=  
16-Nov-2013 SAID35 WAPI 160500 METAR WAPI 160500Z 12004KT 9999 SCT018 33/24 Q1005 NOSIG=  
16-Nov-2013 SAID35 WAPI 160600 METAR WAPI 160600Z 16003KT 9999 SCT018 33/25 Q1005 NOSIG=  
17-Nov-2013 SAID35 WAPI 170000 METAR WAPI 170000 23005KT 9999 SCT018 30/25 Q1008 NOSIG=  
17-Nov-2013 SAID35 WAPI 170100 METAR WAPI 17010 23006KT 9999 SCT018 31/25 Q1008 NOSIG=  
17-Nov-2013 SAID35 WAPI 170200 METAR WAPI 170200 16011KT 9999 SCT018 32/25 Q1007 NOSIG=  
17-Nov-2013 SAID35 WAPI 170300 METAR WAPI 170300Z 22005KT 9999 SCT018 31/25 Q1007 NOSIG=  
17-Nov-2013 SAID35 WAPI 170600 METAR WAPI 170600 34008KT 9999 BKN017 31/25 Q1005 NOSIG=  
17-Nov-2013 SAID35 WAPI 172300 METAR WAPI 172300Z 28007KT 9999 SFEW010 BKN075 28/25 Q1008 NOSIG=  
18-Nov-2013 SAID35 WAPI 180000 METAR WAPI 180000Z 30065KT 9999 FEW010 BKN075 29/25 Q1008 NOSIG=  
18-Nov-2013 SAID35 WAPI 180100 METAR WAPI 180100Z 22004KT 9999 FEW010 BKN075 30/24 Q1008 NOSIG=  
18-Nov-2013 SAID35 WAPI 180200 METAR WAPI 180200Z 27003KT 9999 SCT018 31/26 Q1008 NOSIG=  
18-Nov-2013 SAID35 WAPI 180300 METAR WAPI 180300Z 23008KT 9999 TS FEW016 SCT018 30/25 Q1008=  
18-Nov-2013 SAID35 WAPI 180500 METAR WAPI 180500Z 05006KT 9000 RA FEW010CB SCT015 Q1005=  
18-Nov-2013 SAID35 WAPI 180600 METAR WAPI 180600Z 10005KT 9999 RA TS FEW010CB SCT015 28/26 Q1005=  
18-Nov-2013 SAID35 WAPI 182300 METAR WAPI 182300Z 00000KT 9999 SCT015 27/25 Q1009 NOSIG=  
19-Nov-2013 SAID35 WAPI 190000 METAR WAPI 190000Z 30007KT 6000 RA TS SCT010CB 27/25 Q1010=  
19-Nov-2013 SAID35 WAPI 190100 METAR WAPI 190100Z 30003KT 9999 TS SCT010CB 27/25 Q1009=  
19-Nov-2013 SAID35 WAPI 190200 METAR WAPI 190200Z 23003KT 9999 FEW010CB 29/26 Q1009=  
19-Nov-2013 SAID35 WAPI 190300 METAR WAPI 190300Z 28004KT 9999 SCT018 30/27 Q1007=  
19-Nov-2013 SAID35 WAPI 190400 METAR WAPI 190400Z 20003KT 9999 RA SCT018 28/25 Q1007=  
19-Nov-2013 SAID35 WAPI 190500 METAR WAPI 190500Z 26004KT 9999 SCT018 31/26 Q1006=  
19-Nov-2013 SAID35 WAPI 190600 METAR WAPI 190600Z 29012KT 9999 RA SCT018 28/26 Q1006=  
19-Nov-2013 SAID35 WAPI 192300 METAR WAPI 192300Z 28005KT 9999 SCT018 BKN030 26/25 Q1009=  
20-Nov-2013 SAID35 WAPI 200000 METAR WAPI 200000Z 29006KT 9999 SCT018 BKN030 28/26 Q1009=  
20-Nov-2013 SAID35 WAPI 200100 METAR WAPI 200100Z 28006KT 9999 SCT018 BKN030 29/26 Q1009=  
20-Nov-2013 SAID35 WAPI 200200 METAR WAPI 200200Z 28007KT 9999 BKN018 30/26 Q1009=  
20-Nov-2013 SAID35 WAPI 200300 METAR WAPI 200300Z 28006KT 9999 SCT018 BKN030 31/26 Q1008 NOSIG=  
20-Nov-2013 SAID35 WAPI 200500 METAR WAPI 200500Z 32008KT 9999 SCT018 30/25 Q1007 NOSIG=  
20-Nov-2013 SAID35 WAPI 200600 METAR WAPI 200600Z 32012KT 9999 BKN018 28/23 Q1006=  
20-Nov-2013 SAID35 WAPI 202300 METAR WAPI 202300Z 27004KT 9999 SCT018 27/26 Q1008 NOSIG=  
21-Nov-2013 SAID35 WAPI 210000 METAR WAPI 210000Z 26003KT 9999 SCT018 29/26 Q1009 NOSIG=  
21-Nov-2013 SAID35 WAPI 210300 METAR WAPI 210300Z 22009KT 9999 BKN018 32/22 Q1008 NOSIG=  
21-Nov-2013 SAID35 WAPI 210400 METAR WAPI 210400Z 28008KT 9999 SCT018 32/26 Q1006 NOSIG=  
21-Nov-2013 SAID35 WAPI 210500 METAR WAPI 210500Z 24012KT 9999 SCT018 32/26 Q1006 NOSIG=  
21-Nov-2013 SAID35 WAPI 210600 METAR WAPI 210600Z 26007KT 9999 SCT018 32/25 Q1005 NOSIG=  
21-Nov-2013 SAID35 WAPI 212300 METAR WAPI 212300Z 04005KT 9000 DZ SCT010CB BKN075 28/26 Q1008=  
22-Nov-2013 SAID35 WAPI 220000 METAR WAPI 220000Z 33008KT 9999 TS SCT010CB BKN075 28/24 Q1009=  
22-Nov-2013 SAID35 WAPI 220100 METAR WAPI 220100Z 24004KT 9999 TS FEW010CB SCT015 29/24 Q1008=  
22-Nov-2013 SAID35 WAPI 220200 METAR WAPI 220200Z 24005KT 9999 FEW010CB SCT015 23/28 Q1008 NOSIG=  
22-Nov-2013 SAID35 WAPI 220300 METAR WAPI 220300Z 25004KT 9999 RA BKN018 32/26 Q1007=  
22-Nov-2013 SAID35 WAPI 220600 METAR WAPI 220600Z 28006KT 9999 TS SCT010CB BKN075 33/26 Q1005=  
22-Nov-2013 SAID35 WAPI 222300 METAR WAPI 222300Z 00000KT 9999 FEW010 28/26 Q1007 NOSIG=  
23-Nov-2013 SAID35 WAPI 230000 METAR WAPI 230000Z 30003KT 9999 SCT010 BKN075 30/27 Q1008 NOSIG=  
23-Nov-2013 SAID35 WAPI 230100 METAR WAPI 230100Z 29004KT 9999 SCT010 BKN075 30/26 Q1008 NOSIG=  
23-Nov-2013 SAID35 WAPI 230200 METAR WAPI 230200Z 29006KT 9999 SCT010 BKN075 32/26 Q1008 NOSIG=  
23-Nov-2013 SAID35 WAPI 230300 METAR WAPI 230300Z 29004KT 9999 SCT015 BKN075 333/26 Q1007 NOSIG=  
23-Nov-2013 SAID35 WAPI 230400 METAR WAPI 230400Z 30010KT 9999 TS FEW010CB SCT015 31/25 Q1006=  
23-Nov-2013 SAID35 WAPI 230600 METAR WAPI 230600Z 21006KT 9999 RE TS FEW010CB SCT015 27/23 Q1006=  
23-Nov-2013 SAID35 WAPI 232300 METAR WAPI 232300Z 30005KT 9999 SCT018 29/26 Q1008 NOSIG=  
24-Nov-2013 SAID35 WAPI 240000 METAR WAPI 240000Z 28007KT 9999 FEW015 SCT018 30/26 Q1008 NOSIG=  
24-Nov-2013 SAID35 WAPI 240100 METAR WAPI 240100Z 30005KT 9999 FEW015 SCT018 30/27 Q1008 NOSIG=  
24-Nov-2013 SAID35 WAPI 240200 METAR WAPI 240200Z 28006KT 9999 FEW015 SCT018 30/26 Q1008 NOSIG=  
24-Nov-2013 SAID35 WAPI 240300 METAR WAPI 240300Z 20006KT 9000 RA BKN018 27/25 Q1007=  
24-Nov-2013 SAID35 WAPI 240500 METAR WAPI 240500Z 26006KT 9000 RA BKN018 27/25 Q1005=  
24-Nov-2013 SAID35 WAPI 240600 METAR WAPI 240600Z 28011KT 9999 RE RA SCT018 BKN075 30/26 Q1005=  
24-Nov-2013 SAID35 WAPI 242300 METAR WAPI 242300 30010KT 5000 RAIN BKN014 24/23 Q1009=  
25-Nov-2013 SAID35 WAPI 250000 METAR WAPI 250000 30006KT 80000 BKN015 23/23 Q1009 NOSIG=  
25-Nov-2013 SAID35 WAPI 250100 METAR WAPI 250100 28008KT 9999 SCT015 24/23 Q1009 NOSIG=  
25-Nov-2013 SAID35 WAPI 250300 METAR WAPI 250300Z 28011KT 9999 SCT015 26/25 Q1008 NOSIG=  
25-Nov-2013 SAID35 WAPI 250400 METAR WAPI 250400Z 26012KT 9999 BKN018 27/25 Q1007 NOSIG=  
25-Nov-2013 SAID35 WAPI 252300 METAR WAPI 252300Z 24003KT 9999 FEW010 BKN075 27/25 Q1008 NOSIG=  
26-Nov-2013 SAID35 WAPI 260000 METAR WAPI 260000Z 28005KT 9999 FEW010 BKN075 29/26 Q1008 NOSIG=  
26-Nov-2013 SAID35 WAPI 260100 METAR WAPI 260100Z 28006KT 9999 FEW010 BKN075 30/26 Q1008 NOSIG=  
26-Nov-2013 SAID35 WAPI 260200 METAR WAPI 260200Z 27008KT 9999 SCT018 BKN075 32/26 Q1007 NOSIG=  
26-Nov-2013 SAID35 WAPI 260300 METAR WAPI 260300Z 25008KT 9999 SCT015 31/26 Q1007 NOSIG=  
26-Nov-2013 SAID35 WAPI 260400 METAR WAPI 260400Z 26011KT 9999 SCT015 BKN075 32/24 Q1006 NOSIG=  
26-Nov-2013 SAID35 WAPI 260600 METAR WAPI 260600Z 25008KT 9999 SCT018 31/25 Q1005 NOSIG=  
26-Nov-2013 SAID35 WAPI 262300 METAR WAPI 262300Z 33004KT 9999 BKN018 37/26 Q1009 NOSIG=  
27-Nov-2013 SAID35 WAPI 270000 METAR WAPI 270000Z 23003KT 9999 BKN018 27/25 Q1009 NOSIG=  
27-Nov-2013 SAID35 WAPI 270100 METAR WAPI 270100Z 24003KT 9999 SCT015 30/25 Q1008 NOSIG=  
27-Nov-2013 SAID35 WAPI 270200 METAR WAPI 270200Z 24007KT 9999 SCT015 31/26 Q1008 NOSIG=  
27-Nov-2013 SAID35 WAPI 270300 METAR WAPI 270300Z 24010KT 9999 SCT015 32/26 Q1008 NOSIG=  
27-Nov-2013 SAID35 WAPI 270400 METAR WAPI 270400Z 25007KT 9999 FEW010CB FEW015 33/26 Q1007 NOSIG=  
27-Nov-2013 SAID35 WAPI 270500 METAR WAPI 270500Z 25010KT 9999 FEW010CB FEW015 32/26 Q1007 NOSIG=  
27-Nov-2013 SAID35 WAPI 270600 METAR WAPI 270600Z 28004KT 9999 TS FEW015 FEW010 29/24 Q1006=  
27-Nov-2013 SAID35 WAPI 272300 METAR WAPI 272300Z 28003KT 9999 FEW010 28/26 Q1009 NOSIG=  
28-Nov-2013 SAID35 WAPI 280000 METAR WAPI 280000Z 29010KT 9999 FEW010 BKN075 30/26 Q10009 NOSIG=  
28-Nov-2013 SAID35 WAPI 280100 METAR WAPI 280100Z 25008KT 9999 FEW010 BKN075 31/25 Q1010 NOSIG=  
28-Nov-2013 SAID35 WAPI 280200 METAR WAPI 280200Z 24010KT 9999 SCT015 BKN075 31/25 Q1009 NOSIG=  
28-Nov-2013 SAID35 WAPI 280400 METAR WAPI 280400Z 24009KT 9999 SCT015 BKN075 31/25 Q1008 NOSIG=  
28-Nov-2013 SAID35 WAPI 280500 METAR WAPI 280500Z 23010KT 9999 FEW018 32/26 Q1008 NOSIG=  
28-Nov-2013 SAID35 WAPI 280600 METAR WAPI 280600Z 25008KT 9999 FEW010 BKN075 32/26 Q1007 NOSIG=  
28-Nov-2013 SAID35 WAPI 282300 METAR WAPI 282300Z 00000KT 9999 SCT018 27/25 Q1010 NOSIG=  
29-Nov-2013 SAID35 WAPI 290000 METAR WAPI 290000Z 26006KT 9999 SCT018 30/26 Q1010 NOSIG=  
29-Nov-2013 SAID35 WAPI 290100 METAR WAPI 290100Z 26006KT 9999 SCT018 31/26 Q1010 NOSIG=  
29-Nov-2013 SAID35 WAPI 290200 METAR WAPI 290200Z 24009KT 9999 SCT018 31/25 Q1009 NOSIG=  
29-Nov-2013 SAID35 WAPI 290300 METAR WAPI 290300Z 23005KT 9999 SCT018 32/25 Q1009 NOSIG=  
29-Nov-2013 SAID35 WAPI 290500 METAR WAPI 290500Z 25006KT 9999 FEW018 34/23 Q1007 NOSIG=  
29-Nov-2013 SAID35 WAPI 290600 METAR WAPI 290600Z 24009KT 9999 FEW018 33/24 Q1006 NOSIG=  
29-Nov-2013 SAID35 WAPI 292300 METAR WAPI 292300Z 34004KT 9999 FEW010 BKN075 27/26 Q1010 NOSIG=  
30-Nov-2013 SAID35 WAPI 300000 METAR WAPI 300000Z 35004KT 9999 FEW010 BKN075 29/26 Q1010 NOSIG=  
30-Nov-2013 SAID35 WAPI 300200 METAR WAPI 300200Z 27004KT 9999 SCT015 BKN075 33/25 Q108 NOSIG=  
30-Nov-2013 SAID35 WAPI 300300 METAR WAPI 300300Z 24010KT 9999 SCT015 32/25 Q1008 NOSIG=  
30-Nov-2013 SAID35 WAPI 300400 METAR WAPI 300400Z 23012KT 9999 SCT018 32/25 Q1009 NOSIG=  
30-Nov-2013 SAID35 WAPI 300500 METAR WAPI 300500Z 24010KT 9999 FEW010 33/25 Q1008 NOSIG=  
30-Nov-2013 SAID35 WAPI 300600 METAR WAPI 300600Z 24011KT 9999 TS SCT075CB FEW015 31/26 Q1006 NOSIG=  
30-Nov-2013 SAID35 WAPI 302300 METAR WAPI 302300Z 35005KT 9999 FEW010 28/25 Q1009 NOSIG=  
01-Dec-2013 SAID35 WAPI 010000 METAR WAPI 010000Z 32004KT 9999 SCT015 30/25 Q1010 NOSIG=  
01-Dec-2013 SAID35 WAPI 010100 METAR WAPI 010100Z 29003KT 9999 BKN015 31/25 Q1010 NOSIG=  
01-Dec-2013 SAID35 WAPI 010200 METAR WAPI 010200Z 22005KT 9999 SCT015 32/26 Q1010 NOSIG=  
01-Dec-2013 SAID35 WAPI 010300 METAR WAPI 010300Z 17005KT 9999 BKN015 32/27 Q1009 NOSIG=  
01-Dec-2013 SAID35 WAPI 010400 METAR WAPI 010400Z 19005KT 9999 BKN018 31/25 Q1008=  
01-Dec-2013 SAID35 WAPI 010600 METAR WAPI 010600Z 06006KT 8000 RA BKN018 28/25 Q1008=  
01-Dec-2013 SAID35 WAPI 012300 METAR WAPI 012300Z 14004KT 9999 FEW012CB 27/24 Q1010 NOSIG=  
02-Dec-2013 SAID35 WAPI 020000 METAR WAPI 020000Z 00000KT 9999 FEW010CB FEW015 29/26 Q1010 NOSIG=  
02-Dec-2013 SAID35 WAPI 020200 METAR WAPI 020200Z 12004KT 9999 SCT015 32/25 Q1009 NOSIG=  
02-Dec-2013 SAID35 WAPI 020300 METAR WAPI 020300Z 13006KT 9999 SCT015 BKN075 32/25 Q1009 NOSIG=  
02-Dec-2013 SAID35 WAPI 020500 METAR WAPI 020500Z 11007KT 9999 FEW015 BKN075 32/25 Q1007 NOSIG=  
02-Dec-2013 SAID35 WAPI 020600 METAR WAPI 020600Z 12006KT 9999 FEW010CB BKN075 33/25 Q1007 NOSIG=  
02-Dec-2013 SAID35 WAPI 022300 METAR WAPI 022300Z 30002KT 9999 FEW018 28/26 Q1009 NOSIG=  
03-Dec-2013 SAID35 WAPI 030000 METAR WAPI 030000Z 27002KT 9999 FEW018 29/26 Q1009 NOSIG=  
03-Dec-2013 SAID35 WAPI 030100 METAR WAPI 030100Z 24003KT 9999 SCT018 30/26 Q1009 NOSIG=  
03-Dec-2013 SAID35 WAPI 030200 METAR WAPI 030200Z 13004KT 9999 SCT018 32/26 Q1009 NOSIG=  
03-Dec-2013 SAID35 WAPI 030300 METAR WAPI 030300Z 14006KT 9999 SCT018 32/25 Q1008 NOSIG=  
03-Dec-2013 SAID35 WAPI 030400 METAR WAPI 030400Z 12008KT 9999 SCT018 32/26 Q1008 NOSIG=  
03-Dec-2013 SAID35 WAPI 030600 METAR WAPI 030600Z 15005KT 9999 SCT018 30/25 Q1007 NOSIG=  
03-Dec-2013 SAID35 WAPI 032300 METAR WAPI 032300Z 00000KT 9999 SCT015 BKN075 28/26 Q1008 NOSIG=  
04-Dec-2013 SAID35 WAPI 040000 METAR WAPI 040000Z 00000KT 9999 SCT015 BKN075 30/26 Q1008 NOSIG=  
04-Dec-2013 SAID35 WAPI 040100 METAR WAPI 040100Z 16004KT 9999 BKN015 31/26 Q1008 NOSIG=  
04-Dec-2013 SAID35 WAPI 040200 METAR WAPI 040200Z 13004KT 9999 SCT015CB FEW015 32/25 Q1005 NOSIG=  
04-Dec-2013 SAID35 WAPI 040300 METAR WAPI 040300Z 16003KT 9999 SCT015CB FEW015 31/25 Q1007 NOSIG=  
04-Dec-2013 SAID35 WAPI 040600 METAR WAPI 040600Z 13008KT 5000 RA TS BKN010 OVC025 25/24 Q1006=  
04-Dec-2013 SAID35 WAPI 042300 METAR WAPI 042300Z 00000KT 9999 FEW010 28/26 Q1008 NOSIG=  
05-Dec-2013 SAID35 WAPI 050000 METAR WAPI 050000Z 00000KT 9999 RA SCT018 28/26 Q1008=  
05-Dec-2013 SAID35 WAPI 050100 METAR WAPI 050100Z 23004KT 6000 RA BKN018 28/27 Q1008=  
05-Dec-2013 SAID35 WAPI 050200 METAR WAPI 050200Z 24008KT 2000 RA TS SCT015CB OVC025 25/24 Q1008=  
05-Dec-2013 SAID35 WAPI 050300 METAR WAPI 050300Z 28003KT 9999 TS SCT015CB 27/26 Q1007=  
05-Dec-2013 SAID35 WAPI 050400 METAR WAPI 050400Z 35008KT 9999 SCT018 29/25 Q1006 NOSIG=  
05-Dec-2013 SAID35 WAPI 050500 METAR WAPI 050500Z 33005KT 9999 SCT018 28/24 Q1006 NOSIG=  
05-Dec-2013 SAID35 WAPI 050600 METAR WAPI 050600Z 32004KT 9999 SCT018 28/25 Q1005 NOSIG=  
05-Dec-2013 SAID35 WAPI 052300 METAR WAPI 052300Z 33004KT 9999 SCT018 28/26 Q1008 NOSIG=  
06-Dec-2013 SAID35 WAPI 060000 METAR WAPI 060000Z 08005KT 9999 SCT018 29/25 Q1008 NOSIG=  
06-Dec-2013 SAID35 WAPI 060100 METAR WAPI 060100Z 06004KT 9999 SCT018 30/26 Q1008 NOSIG=  
06-Dec-2013 SAID35 WAPI 060200 METAR WAPI 060200Z 07007KT 9999 BKN018 31/25 Q1007 NOSIG=  
06-Dec-2013 SAID35 WAPI 060300 METAR WAPI 060300Z 07006KT 9999 SCT015 BKN075 31/25 Q1007 NOSIG=  
06-Dec-2013 SAID35 WAPI 060400 METAR WAPI 060400Z 08005KT 9999 SCT018 32/26 Q1006 NOSIG=  
06-Dec-2013 SAID35 WAPI 060500 METAR WAPI 060500Z 10006KT 9999 SCT018 31/25 Q1006 NOSIG=  
06-Dec-2013 SAID35 WAPI 060600 METAR WAPI 060600Z 09010KT 9999 SCT018 32/25 Q1005 NOSIG=  
07-Dec-2013 SAID35 WAPI 070000 METAR WAPI 070000Z 08010KT 9999 RA BKN010 29/26 Q1010 NOSIG=  
07-Dec-2013 SAID35 WAPI 070100 METAR WAPI 070100Z 09008KT 9999 TS SCT015 28/26 Q1009 NOSIG=  
07-Dec-2013 SAID35 WAPI 070200 METAR WAPI 070200Z 11006KT 9999 SCT018 30/26 Q1009 NOSIG=  
07-Dec-2013 SAID35 WAPI 070300 METAR WAPI 070300Z 06012KT 9999 SCT017 31/25 Q1008 NOSIG=  
07-Dec-2013 SAID35 WAPI 070400 METAR WAPI 070400Z 07010KT 9999 FEW018 31/26 Q1007 NOSIG=  
07-Dec-2013 SAID35 WAPI 070500 METAR WAPI 070500Z 09008KT 9999 SCT018 31/26 Q1007 NOSIG=  
07-Dec-2013 SAID35 WAPI 070600 METAR WAPI 070600Z 08010KT 9999 SCT018 30/26 Q1006 NOSIG=  
07-Dec-2013 SAID35 WAPI 072300 METAR WAPI 072300Z 16003KT 9999 FEW010 BKN075 29/26 Q1009 NOSIG=  
08-Dec-2013 SAID35 WAPI 080000 METAR WAPI 080000Z 09006KT 9999 SCT015 BKN075 31/26 Q1010 NOSIG=  
08-Dec-2013 SAID35 WAPI 080100 METAR WAPI 080100Z 10005KT 9999 SCT015 BKN075 30/26 Q1009 NOSIG=  
08-Dec-2013 SAID35 WAPI 080200 METAR WAPI 080200Z 12006KT 9999 SCT015 31/26 Q1008 NOSIG=  
08-Dec-2013 SAID35 WAPI 080300 METAR WAPI 080300Z 12005KT 9999 SCT015 32/25 Q1008 NOSIG=  
08-Dec-2013 SAID35 WAPI 080400 METAR WAPI 080400Z 10006KT 9999 SCT015 32/25 Q1008 NOSIG=  
08-Dec-2013 SAID35 WAPI 080500 METAR WAPI 080500Z 11006KT 9999 SCT015 OVC030 32/25 Q1007 NOSIG=  
08-Dec-2013 SAID35 WAPI 080600 METAR WAPI 080600Z 12007KT 9999 FEW010CB BKN030 33/25 Q1007 NOSIG=  
08-Dec-2013 SAID35 WAPI 082300 METAR WAPI 082300Z 32003KT 9999 SCT015 26/24 Q1008 NOSIG=  
09-Dec-2013 SAID35 WAPI 090000 METAR WAPI 090000Z 16005KT 9999 SCT015 29/25 Q1008 NOSIG=  
09-Dec-2013 SAID35 WAPI 090200 METAR WAPI 090200Z 13007KT 9999 SCT015 30/24 Q1008 NOSIG=  
09-Dec-2013 SAID35 WAPI 090300 METAR WAPI 090300Z 13006KT 9999 SCT015 31/25 Q1007 NOSIG=  
09-Dec-2013 SAID35 WAPI 090400 METAR WAPI 090400Z 12006KT 9999 SCT015 31/25 Q1006 NOSIG=  
09-Dec-2013 SAID35 WAPI 090600 METAR WAPI 090600Z 13005KT 9999 SCT015 31/26 Q1005 NOSIG=  
09-Dec-2013 SAID35 WAPI 092300 METAR WAPI 092300Z 00000KT 9999 FEW010 BKN030 28/26 Q1007 NOSIG=  
10-Dec-2013 SAID35 WAPI 100000 METAR WAPI 100000Z 05005KT 9999 FEW010 BKN030 29/26 Q1008 NOSIG=  
10-Dec-2013 SAID35 WAPI 100300 METAR WAPI 100300Z 07005KT 9999 SCT015 32/25 Q1006 NOSIG=  
10-Dec-2013 SAID35 WAPI 100400 METAR WAPI 100400Z 07008KT 9999 FEW015 32/25 Q1005 NOSIG=  
10-Dec-2013 SAID35 WAPI 100500 METAR WAPI 100500Z 07008KT 9999 FEW015 32/26 Q1005 NOSIG=  
10-Dec-2013 SAID35 WAPI 100600 METAR WAPI 100600Z 07006KT 9999 FEW010CB 32/25 Q1004 NOSIG=  
10-Dec-2013 SAID35 WAPI 102300 METAR WAPI 102300Z 00000KT 9999 SCT017 27/26 Q1008 NOSIG=  
11-Dec-2013 SAID35 WAPI 110000 METAR WAPI 110000Z 23003KT 9999 BKN015 28/26 Q1008 NOSIG=  
11-Dec-2013 SAID35 WAPI 110100 METAR WAPI 110100Z 18005KT 9999 BKN010 28/27 Q1008 NOSIG=  
11-Dec-2013 SAID35 WAPI 110200 METAR WAPI 110200Z 17006KT 9999 BKN018 30/26 Q1008 NOSIG=  
11-Dec-2013 SAID35 WAPI 110300 METAR WAPI 110300Z 12004KT 9999 SCT018 31/26 Q1007 NOSIG=  
11-Dec-2013 SAID35 WAPI 110400 METAR WAPI 110400Z 32004KT 9999 SCT018 32/27 Q1006 NOSIG=  
11-Dec-2013 SAID35 WAPI 110500 METAR WAPI 110500Z 00000KT 9999 SCT018 27/26 Q1008 NOSIG=  
11-Dec-2013 SAID35 WAPI 110600 METAR WAPI 110600Z 12004KT 9999 SCT018 32/25 Q1006 NOSIG=  
11-Dec-2013 SAID35 WAPI 112300 METAR WAPI 112300Z 19003KT 9999 FEW010 28/25 Q1007 NOSIG=  
12-Dec-2013 SAID35 WAPI 120000 METAR WAPI 120000Z 00000KT 9999 FEW010 30/25 Q1008 NOSIG=  
12-Dec-2013 SAID35 WAPI 120100 METAR WAPI 120100Z 11003KT 9999 FEW018 32/25 Q1007 NOSIG=  
12-Dec-2013 SAID35 WAPI 120200 METAR WAPI 120200Z 08004KT 9999 FEW010 32/25 Q1007 NOSIG=  
12-Dec-2013 SAID35 WAPI 120300 METAR WAPI 120300Z 08004KT 9999 FEW018 33/26 Q1007 NOSIG=  
12-Dec-2013 SAID35 WAPI 120400 METAR WAPI 120400Z 13007KT 9999 SCT018 33/26 Q1007 NOSIG=  
12-Dec-2013 SAID35 WAPI 120500 METAR WAPI 120500Z 13005KT 9999 TS SCT018 33/26 Q1005=  
12-Dec-2013 SAID35 WAPI 120600 METAR WAPI 120600Z 10006KT 9999 CB SCT016 32/25 Q1005 NOSIG=  
12-Dec-2013 SAID35 WAPI 122300 METAR WAPI 122300Z 00000KT 9999 FEW010 28/26 Q10008 NOSIG=  
13-Dec-2013 SAID35 WAPI 130000 METAR WAPI 130000Z 00000KT 9999 SCT015 29/27 Q1009 NOSIG=  
13-Dec-2013 SAID35 WAPI 130100 METAR WAPI 130100Z 11005KT 9999 SCT015 31/25 Q1009 NOSIG=  
13-Dec-2013 SAID35 WAPI 130200 METAR WAPI 130200Z 10005KT 9999 FEW010CB SCT018 32/25 Q1008 NOSIG=  
13-Dec-2013 SAID35 WAPI 130300 METAR WAPI 130300Z 12006KT 9999 FEW 010CB SCT015 32/25 Q1008 NOSIG=  
13-Dec-2013 SAID35 WAPI 130400 METAR WAPI 130400Z 14005KT 9999 SCT018 32/25 Q1007 NOSIG=  
13-Dec-2013 SAID35 WAPI 130500 METAR WAPI 130500Z 13006KT 9999 BKN017 32/26 Q1006 NOSIG=  
13-Dec-2013 SAID35 WAPI 130600 METAR WAPI 130600Z 13004KT 9999 SCT018 32/25 Q1006 NOSIG=  
13-Dec-2013 SAID35 WAPI 132300 METAR WAPI 132300Z 27003KT 9999 FEW010CB FEW015 27/26 Q1009 NOSIG=  
14-Dec-2013 SAID35 WAPI 140000 METAR WAPI 140000Z 00000KT 9999 FEW010CB FEW015 28/26 Q1010 NOSIG=  
14-Dec-2013 SAID35 WAPI 140100 METAR WAPI 140100Z 11003KT 9999 FEW010CB FEW015 30/26 Q1009 NOSIG=  
14-Dec-2013 SAID35 WAPI 140200 METAR WAPI 140200Z 16004KT 9999 FEW010CB FEW015 32/25 Q1008 NOSIG=  
14-Dec-2013 SAID35 WAPI 140300 METAR WAPI 14000Z 14006KT 9999 FEW010CB FEW015 32/25 Q108 NOSIG=  
14-Dec-2013 SAID35 WAPI 140400 METAR WAPI 14040Z 13006KT 9999 TS SCT010CB 32/25 Q1007=  
14-Dec-2013 SAID35 WAPI 140500 METAR WAPI 140500Z 15005KT 9999 TS SCT010CB 30/26 Q1007=  
14-Dec-2013 SAID35 WAPI 140600 METAR WAPI 140600Z 33006KT 9999 SCT010CB 29/24 Q1006 NOSIG=  
14-Dec-2013 SAID35 WAPI 142300 METAR WAPI 142300Z 02008KT 9999 FEW017 28/24 Q1009 NOSIG=  
15-Dec-2013 SAID35 WAPI 150000 METAR WAPI 150000Z 00000KT 9999 FEW017 29/26 Q1009 NOSIG=  
15-Dec-2013 SAID35 WAPI 150100 METAR WAPI 150100Z 00000KT 9999 FEW017 31/26 Q1009 NOSIG=  
15-Dec-2013 SAID35 WAPI 150200 METAR WAPI 150200Z 10004KT 9999 FEW017 32/25 Q1008 NOSIG=  
15-Dec-2013 SAID35 WAPI 150300 METAR WAPI 150300Z 09008KT 9999 FEW018 33/25 Q1008 NOSIG=  
15-Dec-2013 SAID35 WAPI 150400 METAR WAPI 150400Z 11007KT 9999 FEW018 33/26 Q1007 NOSIG=  
15-Dec-2013 SAID35 WAPI 150500 METAR WAPI 150500Z 08010KT 9999 SCT018 34/26 Q1006 NOSIG=  
15-Dec-2013 SAID35 WAPI 152300 METAR WAPI 152300Z 00000KT 9999 FEW010 BKN015 28/26 Q1008 NOSIG=  
16-Dec-2013 SAID35 WAPI 160000 METAR WAPI 160000Z 10003KT 9999 FEW010 BKN075 30/26 Q1008 NOSIG=  
16-Dec-2013 SAID35 WAPI 160100 METAR WAPI 160100Z 11003KT 9999 FEW010 BKN075 32/26 Q1008 NOSIG=  
16-Dec-2013 SAID35 WAPI 160200 METAR WAPI 160200Z 09005KT 9999 FEW010 BKN075 32/24 Q1008 NOSIG=  
16-Dec-2013 SAID35 WAPI 160300 METAR WAPI 160300Z 07005KT 9999 FEW010 BKN075 32/25 Q1007 NOSIG=  
16-Dec-2013 SAID35 WAPI 160400 METAR WAPI 160400Z 05006KT 9999 FEW010 BKN075 32/25 Q1007 NOSIG=  
16-Dec-2013 SAID35 WAPI 160500 METAR WAPI 160500Z 08006KT 9999 FEW010CB FEW015 33/25 Q1006 NOSIG=  
16-Dec-2013 SAID35 WAPI 160600 METAR WAPI 160600Z 13006KT 9999 FEW010CB FEW015 33/25 Q1005 NOSIG=  
16-Dec-2013 SAID35 WAPI 162300 METAR WAPI 162300Z 04003KT 9999 FEW010CB BKN030 25/24 Q1008 NOSIG=  
17-Dec-2013 SAID35 WAPI 170000 METAR WAPI 170000Z 16004KT 9999 FEW010CB BKN030 26/25 Q1008 NOSIG=  
17-Dec-2013 SAID35 WAPI 170100 METAR WAPI 170100Z 27004KT 9999 FEW010CB BKN030 28/25 Q1008 NOSIG=  
17-Dec-2013 SAID35 WAPI 170200 METAR WAPI 170200Z 13005KT 9999 BKN010CB BKN030 30/26 Q1008 NOSIG=  
17-Dec-2013 SAID35 WAPI 170300 METAR WAPI 170300Z 10005KT 9999 RA BKN010CB BKN030 28/24 Q1007=  
17-Dec-2013 SAID35 WAPI 170400 METAR WAPI 170400Z 08003KT 9999 BKN010CB SCT030 30/26 Q1006 NOSIG=  
17-Dec-2013 SAID35 WAPI 170500 METAR WAPI 170500Z 15005KT 9999 SCT015 SCT030 32/24 Q1006 NOSIG=  
17-Dec-2013 SAID35 WAPI 170600 METAR WAPI 170600Z 15006KT 9999 SCT010 SCT030 31/25 Q1004 NOSIG=  
17-Dec-2013 SAID35 WAPI 172300 METAR WAPI 172300Z 00000KT 9999 SCT018 OVC030 27/25 Q1008 NOSIG=  
18-Dec-2013 SAID35 WAPI 180000 METAR WAPI 180000Z 34005KT 9999 SCT010CB BKN030 29/25 Q1008 NOSIG=  
18-Dec-2013 SAID35 WAPI 180100 METAR WAPI 180100Z 13004KT 9999 SCT010CB BKN030 30/26 Q1008 NOSIG=  
18-Dec-2013 SAID35 WAPI 180200 METAR WAPI 180200Z 06007KT 9999 SCT010CB BKN030 31/26 Q1008 NOSIG=  
18-Dec-2013 SAID35 WAPI 180300 METAR WAPI 180300Z 05007KT 9999 SCT018 BKN030 32/26 Q1008 NOSIG=  
18-Dec-2013 SAID35 WAPI 180400 METAR WAPI 180400Z 06005KT 9999 SCT018 31/276 Q1007 NOSIG=  
18-Dec-2013 SAID35 WAPI 180500 METAR WAPI 180500Z 11008KT 9999 SCT017 31/26 Q1006 NOSIG=  
18-Dec-2013 SAID35 WAPI 180600 METAR WAPI 180600Z 09008KT 9999 SCT107 31/25 Q1005 NOSIG=  
18-Dec-2013 SAID34 WAPI 182300 METAR WAPI 182300Z 00000KT 9999 SCT018 26/25 Q1009=  
19-Dec-2013 SAID35 WAPI 190000 METAR WAPI 190000Z 00000KT 9999 SCT016 28/26 Q1009 NOSIG=  
19-Dec-2013 SAID35 WAPI 190300 METAR WAPI 190300Z 26003KT 9999 SCT018 32/26 Q1008 NOSIG=  
19-Dec-2013 SAID35 WAPI 190600 METAR WAPI 190600Z 13004KT 9999 SET017 32/27 Q1006 NOSIG=  
19-Dec-2013 SAID35 WAPI 192300 METAR WAPI 192300Z 00000KT 9999 FEW010 BKN030 27/25 Q1009 NOSIG=  
20-Dec-2013 SAID35 WAPI 200000 METAR WAPI 200000Z 00000KT 9999 FEW010 BKN030 29/26 Q1008 NOSIG=  
20-Dec-2013 SAID35 WAPI 200100 METAR WAPI 200100Z 00000KT 9999 FEW010CB BKN030 29/26 Q1009 NOSIG=  
20-Dec-2013 SAID35 WAPI 200200 METAR WAPI 200200Z 19005KT 9999 RA FEW010CB BKN030 28/26 Q1008 NOSIG=  
20-Dec-2013 SAID35 WAPI 200300 METAR WAPI 200300Z 17005KT 8000 RA FEW010CB BKN030 30/26 Q1008=  
20-Dec-2013 SAID35 WAPI 200500 METAR WAPI 200500Z 9000 RA TS SCT010CB BKN030 29/27 Q1007=  
20-Dec-2013 SAID35 WAPI 200600 METAR WAPI 200600Z 00000KT 8000 RA SCT015 BKN030 28/26 Q1006=  
20-Dec-2013 SAID35 WAPI 202300 METAR WAPI 202300Z 00000KT 9999 FEW015 BKN030 27/26 Q1009 NOSIG=  
21-Dec-2013 SAID35 WAPI 210000 METAR WAPI 210000Z 24005KT 9999 FEW010 BKN030 29/26 Q1009 NOSIG=  
21-Dec-2013 SAID35 WAPI 210100 METAR WAPI 210100Z 31006KT 9999 SCT010 BKN030 30/26 Q1009 NOSIG=  
21-Dec-2013 SAID35 WAPI 210200 METAR WAPI 210200Z 27004KT 9999 RA BKN015 30/27 Q1009=  
21-Dec-2013 SAID35 WAPI 210300 METAR WAPI 210300Z 28006KT 5000 RA TS SCT015CB OVC030 27/26 Q1008=  
21-Dec-2013 SAID35 WAPI 210400 METAR WAPI 210400Z 29003KT 5000 RA SCT015CB OVC030 26/25 Q1008=  
21-Dec-2013 SAID35 WAPI 210500 METAR WAPI 210500Z 26003KT 8000 RA FEW015CB BKN030 26/25 Q1007=  
21-Dec-2013 SAID35 WAPI 210600 METAR WAPI 210600Z 28004KT 9999 FEW010CB BKN030 26/25 Q1006=  
21-Dec-2013 SAID35 WAPI 212300 METAR WAPI 212300Z 24003KT 9999 FEW010CB BKN030 27/25 Q1006 NOSIG=  
22-Dec-2013 SAID35 WAPI 220000 METAR WAPI 220000Z 30004KT 9999 FEW010 BKN030 29/26 Q1009 NOSIG=  
22-Dec-2013 SAID35 WAPI 220100 METAR WAPI 220100Z 28004KT 9999 FEW010 BKN030 29/24 Q1009 NOSIG=  
22-Dec-2013 SAID35 WAPI 220200 METAR WAPI 220200Z 31005KT 9999 FEW010 BKN030 31/26 Q1009 NOSIG=  
22-Dec-2013 SAID35 WAPI 220300 METAR WAPI 220300Z 29005KT 9999 FEW010CB BKN030 32/27 Q1008 NOSIG=  
22-Dec-2013 SAID35 WAPI 220400 METAR WAPI 220400Z 32012KT 9999 SCT017 32/25 Q1007 NOSIG=  
22-Dec-2013 SAID35 WAPI 220500 METAR WAPI 220500Z 31010KT 9999 SCT017 31/25 Q1007 NOSIG=  
22-Dec-2013 SAID35 WAPI 220600 METAR WAPI 220600Z 32011KT 9999 SCT010 BKN075 31/26 Q1007 NOSIG=  
22-Dec-2013 SAID35 WAPI 222300 METAR WAPI 222300Z 27004KTS 9999 SET015 28/26 Q1008 NOSIG=  
23-Dec-2013 SAID35 WAPI 230000 METAR WAPI 230000Z 28006KTS 9999 SET018 29/26 Q1009 NOSIG=  
23-Dec-2013 SAID35 WAPI 230200 METAR WAPI 230200Z 28009KT 9999 SCT018 31/25 Q1008 NOSIG=  
23-Dec-2013 SAID35 WAPI 230300 METAR WAPI 230300Z 29007KT 9999 SCT018 32/25 Q1008 NOSIG=  
23-Dec-2013 SAID35 WAPI 230600 METAR WAPI 230600Z 29013KT 9999 BKN018 31/26 Q1006 NOSIG=  
23-Dec-2013 SAID35 WAPI 232300 METAR WAPI 232300Z 26007KT 3000 RA BKN015 OVC030 26/24 Q1010=  
24-Dec-2013 SAID35 WAPI 240000 METAR WAPI 240000Z 24005KT 8000 RA BKN018 OVC030 25/24 Q1010=  
24-Dec-2013 SAID35 WAPI 240100 METAR WAPI 240100Z 29003KT 9999 RA BKN018 OVC030 26/25 Q1010=  
24-Dec-2013 SAID35 WAPI 240200 METAR WAPI 240200Z 24003KT 8000 RA BKN018 OVC030 27/25 Q1010=  
24-Dec-2013 SAID35 WAPI 240300 METAR WAPI 240300Z 30003KT 9999 BKN018 OVC030 27/25 Q1009=  
24-Dec-2013 SAID35 WAPI 240400 METAR WAPI 240400Z 28006KT 9999 BKN018 OVC030 29/26 Q1008 NOSIG=  
24-Dec-2013 SAID35 WAPI 240500 METAR WAPI 240500Z 27005KT 9999 BKNSCT015 OVC030 29/24 Q1007 NOSIG=  
24-Dec-2013 SAID35 WAPI 240600 METAR WAPI 240600Z 30006KT 9000 RA SCT018 OVC030 28/26 Q1007=  
24-Dec-2013 SAID35 WAPI 242300 METAR WAPI 242300Z 23004KT 9000 SCT018 BKN030 27/26 Q1009 NOSIG=  
25-Dec-2013 SAID35 WAPI 250000 METAR WAPI 250000Z 30005KT 9000 SCT018 BKN030 29/26 Q1009 NOSIG=  
25-Dec-2013 SAID35 WAPI 250100 METAR WAPI 250100Z 31005KT 9999 SCT018CB BKN030 31/26 Q1009 NOSIG=  
25-Dec-2013 SAID35 WAPI 250200 METAR WAPI 250200Z 30006KT 9999 SCT010CB SCT030 32/26 Q1008 NOSIG=  
25-Dec-2013 SAID35 WAPI 250300 METAR WAPI 250300Z 30013G24KT 4000 RA SCT015CB BKN018 30/25 Q1008=  
25-Dec-2013 SAID35 WAPI 250400 METAR WAPI 250400Z 33008KT 9000 RA BKN015 OVC030 27/24 Q1008=  
25-Dec-2013 SAID35 WAPI 250600 METAR WAPI 250600Z 27004KT 9000 RA SCT018 OVC030 27/25 Q1007=  
25-Dec-2013 SAID35 WAPI 252300 METAR WAPI 252300Z 30003KT 9999 BKN015 BKN030 27/25 Q1009 NOSIG=  
26-Dec-2013 SAID35 WAPI 260000 METAR WAPI 260000Z 27003KT 9999 SCT015 BKN030 27/24 Q1010 NOSIG=  
26-Dec-2013 SAID35 WAPI 260100 METAR WAPI 260100Z 29005KT 9999 SCT015 BKN030 28/25 Q1010 NOSIG=  
26-Dec-2013 SAID35 WAPI 260200 METAR WAPI 260200Z 25004KT 9999 SCT015 BKN030 29/25 Q1009 NOSIG=  
26-Dec-2013 SAID35 WAPI 260300 METAR WAPI 260300Z 32007KT 9999 SCT015 BKN030 31/26 Q1008 NOSIG=  
26-Dec-2013 SAID35 WAPI 260400 METAR WAPI 260400Z 27005KT 9999 BKN015 32/25 Q1008 NOSIG=  
26-Dec-2013 SAID35 WAPI 260500 METAR WAPI 260500Z 11006KT 9999 BKN015 32/27 Q1007 NOSIG=  
26-Dec-2013 SAID35 WAPI 260600 METAR WAPI 260600Z 12007KT 9999 BKN015 30/26 Q1006 NOSIG=  
27-Dec-2013 SAID35 WAPI 270000 METAR WAPI 270000Z 06006KT 9999 SET018 26/25 Q1010 NOSIG=  
27-Dec-2013 SAID35 WAPI 270100 METAR WAPI 270100Z 06006KT 9999 SCT016 28/24 Q1010 NOSIG=  
27-Dec-2013 SAID35 WAPI 270200 METAR WAPI 270200Z 06007KT 9999 SCT018 30/26 Q1010 NOSIG=  
27-Dec-2013 SAID35 WAPI 270400 METAR WAPI 270400Z 05010KT 9000 SCT030 28/25 Q1008 NOSIG=  
27-Dec-2013 SAID35 WAPI 270500 METAR WAPI 270500Z 05012KT 9999 SCT018 30/25 Q1007 NOSIG=  
27-Dec-2013 SAID35 WAPI 272300 METAR WAPI 272300Z 00000KT 9999 FEW010 BKN030 27/24 Q1009 NOSIG=  
28-Dec-2013 SAID35 WAPI 280000 METAR WAPI 280000Z 00000KT 9999 FEW010 BKN030 29/26 Q1010 NOSIG=  
28-Dec-2013 SAID35 WAPI 280100 METAR WAPI 280100Z 29005KT 9999 SCT015 BKN030 30/26 Q1010 NOSIG=  
28-Dec-2013 SAID35 WAPI 280200 METAR WAPI 280200Z 25004KT 9999 SCT015 BKN030 31/26 Q1008 NOSIG=  
28-Dec-2013 SAID35 WAPI 280300 METAR WAPI 280300Z 30005KT 9999 SCT015 BKN030 32/25 Q1008 NOSIG=  
28-Dec-2013 SAID35 WAPI 280400 METAR WAPI 280400Z 0000KT 9999 SCT015 BKN075 33/26 Q1007 NOSIG=  
28-Dec-2013 SAID35 WAPI 280500 METAR WAPI 280500Z 12004KT 9999 BKN015 33/27 Q1006 NOSIG=  
28-Dec-2013 SAID35 WAPI 280600 METAR WAPI 280600Z 06006KT 5000 RA BKN018 BKN030 31/28 Q1006=  
28-Dec-2013 SAID35 WAPI 282300 METAR WAPI 282300Z 00000KT 9999 SCT01 BKN030 28/26 Q1009 NOSIG=  
29-Dec-2013 SAID35 WAPI 290000 METAR WAPI 290000Z 06004KT 9999 FEW010 BKN030 30/26 Q1010 NOSIG=  
29-Dec-2013 SAID35 WAPI 290100 METAR WAPI 290100Z 07003KT 9999 FEW010 BKN030 31/25 Q1010 NOSIG=  
29-Dec-2013 SAID35 WAPI 290200 METAR WAPI 290200Z 05005KT 9999 FEW010 BKN030 31/25 Q1009 NOSIG=  
29-Dec-2013 SAID35 WAPI 290300 METAR WAPI 290300Z 06005KT 9999 SCT015 32/26 Q1006=  
29-Dec-2013 SAID35 WAPI 290400 METAR WAPI 290400Z 07005KT 9999 SCT015 33/26 Q1008 NOSIG=  
29-Dec-2013 SAID35 WAPI 290500 METAR WAPI 290500Z 09006KT 9999 SCT015CB BKN075 32/26 Q1008 NOSIG=  
29-Dec-2013 SAID35 WAPI 290600 METAR WAPI 290600Z 12006KT 9999 SCT010CB BKN075 33/26 Q1007 NOSIG=  
29-Dec-2013 SAID35 WAPI 292300 METAR WAPI 292300Z 16003KT 9999 FEW010 27/25 Q1010 NOSIG=  
30-Dec-2013 SAID35 WAPI 300000 METAR WAPI 300000Z 29003KT 9999 FEW010 29/26 Q1010 NOSIG=  
30-Dec-2013 SAID35 WAPI 300100 METAR WAPI 300100Z 27003KT 9999 FEW010 31/26 Q1010 NOSIG=  
30-Dec-2013 SAID35 WAPI 300200 METAR WAPI 300200Z 22003KT 9999 FEW010 31/26 Q1010 NOSIG=  
30-Dec-2013 SAID35 WAPI 300300 METAR WAPI 300300Z 14005KT 9999 SCT010CB FEW015 32/27 Q1009 NOSIG=  
30-Dec-2013 SAID35 WAPI 300400 METAR WAPI 300400Z 14004KT 9999 SCT010CB FEW015 33/27 Q1009 NOSIG=  
30-Dec-2013 SAID35 WAPI 300500 METAR WAPI 300500Z 12005KT 9999 SCT010CB BKN010 33/25 Q1009 NOSIG=  
30-Dec-2013 SAID35 WAPI 300600 METAR WAPI 300600Z 29006KT 9999 SCT010CB BKN010 30/24 Q1008 NOSIG=  
30-Dec-2013 SAID35 WAPI 302300 METAR WAPI 302300Z 00000KT 9999 FEW010 28/26 Q1010 NOSIG=  
31-Dec-2013 SAID35 WAPI 310000 METAR WAPI 310000Z 24004KT 9999 FEW010 29/26 Q1010 NOSIG=  
31-Dec-2013 SAID35 WAPI 310100 METAR WAPI 310100Z 23005KT 9999 FEW010 29/26 Q1010 NOSIG=  
31-Dec-2013 SAID35 WAPI 310200 METAR WAPI 310200Z 24005KTS 9999 FEW010 30/26 Q1010 NOSIG=  
31-Dec-2013 SAID35 WAPI 310300 METAR WAPI 310300Z 24005KT 9999 FEW010 31/26 Q1009 NOSIG=  
31-Dec-2013 SAID35 WAPI 310400 METAR WAPI 310400Z 20004KT 9999 FEW010 32/26 Q1008 NOSIG=  
31-Dec-2013 SAID35 WAPI 310500 METAR WAPI 310500Z 17005KT 9999 FEW010 33/27 Q1008 NOSIG=  
31-Dec-2013 SAID35 WAPI 310600 METAR WAPI 310600Z 17006KT 9999 FEW010 32/26 Q1007 NOSIG=  
31-Dec-2013 SAID35 WAPI 312300 METAR WAPI 312300Z 00000KT 9999 FEW010 27/25 Q1009 NOSIG=  
01-Jan-2014 SAID35 WAPI 010000 METAR WAPI 010000Z 24003KT 9999 FEW010 29/26 Q1010 NOSIG=  
01-Jan-2014 SAID35 WAPI 010300 METAR WAPI 010300Z 12005KT 9999 FEW010CB FEW015 32/25 Q1009 NOSIG=  
01-Jan-2014 SAID35 WAPI 012300 METAR WAPI 012300Z 00000KT 9999 FEW010 BKN 030 26/25 Q1010 NOSIG=  
02-Jan-2014 SAID35 WAPI 020030 METAR WAPI 020000Z 00000KT 9999 FEW010 BKN030 28/25 Q1010 NOSIG=  
02-Jan-2014 SAID35 WAPI 020300 METAR WAPI 020300Z 24004KT 9999 SCT015 BKN030 33/27 Q1009 NOSIG=  
02-Jan-2014 SAID35 WAPI 020600 METAR WAPI 020600Z 14005KT 9999 SCT010CB SCT030 32/25 Q1007 NOSIG=  
04-Jan-2014 SAID35 WAPI 040000 METAR WAPI 040000Z 30009KT 9999 FEW018 29/26 Q1008 NOSIG=  
04-Jan-2014 SAID35 WAPI 040300 METAR WAPI 040300Z 28005KT 9999 SCT010 34/27 Q1007 NOSIG=  
04-Jan-2014 SAID35 WAPI 040400 METAR WAPI 040400Z 27006KT 9999 SCT018 33/27 Q1007 NOSIG=  
04-Jan-2014 SAID35 WAPI 040600 METAR WAPI 040600Z 26006KT 9999 BKN018 33/27 Q1005 NOSIG=  
05-Jan-2014 SAID35 WAPI 050000 METAR WAPI 050000Z 23003KT 9999 SCT015 29/27 Q1009 NOSIG=  
05-Jan-2014 SAID35 WAPI 050300 METAR WAPI 050300Z 22008KT 9999 SCT015 33/27 Q1008 NOSIG=  
05-Jan-2014 SAID35 WAPI 050600 METAR WAPI 050600Z 24010KT 9999 FEW010CB 33/27 Q1005 NOSIG=  
06-Jan-2014 SAID35 WAPI 060000 METAR WAPI 060000Z 28004KT 9999 RA FEW010CB BKN030 29/26 Q1009=  
06-Jan-2014 SAID35 WAPI 060300 METAR WAPI 060300Z 19013KT 9999 SCT010CB BKN075 29/25 Q1008=  
06-Jan-2014 SAID35 WAPI 060600 METAR WAPI 060600Z 00000KT 9999 SCT010CB BKN075 30/25 Q1006 NOSIG=  
07-Jan-2014 SAID35 WAPI 070000 METAR WAPI 070000Z 00000KT 9999 FEW010 29/26 Q1008 NOSIG=  
07-Jan-2014 SAID35 WAPI 070300 METAR WAPI 070300Z 24010KT 9999 SCT015 32/27 Q1007 NOSIG=  
07-Jan-2014 SAID35 WAPI 070600 METAR WAPI 070600Z 24008KT 9999 TS FEW010CB BKN075 31/26 Q1005 NOSIG=  
08-Jan-2014 SAID35 WAPI 080000 METAR WAPI 080000Z 26008KT 9999 SCT015 BKN075 32/27 Q1007 NOSIG=  
08-Jan-2014 SAID35 WAPI 080300 METAR WAPI 080300Z 24008KT 9999 FEW010 BKN075 33/26 Q1007 NOSIG=  
08-Jan-2014 SAID35 WAPI 080600 METAR WAPI 080600Z 24006KT 7000 TS FEW010CB BKN075 29/24 Q1005=  
09-Jan-2014 SAID35 WAPI 090000 METAR WAPI 090000Z 28007KT 9999 FEW010 BKN075 30/27 Q1008 NOSIG=  
09-Jan-2014 SAID35 WAPI 090300 METAR WAPI 090300Z 28008KT 9999 BKN015 32/26 Q1007 NOSIG=  
09-Jan-2014 SAID35 WAPI 090600 METAR WAPI 090600Z 27008KT 9999 SCT018 0VC075 33/27 Q1005 NOSIG=  
10-Jan-2014 SAID35 WAPI 100000 METAR WAPI 100000Z 28005KT 9999 FEW010 BKN075 30/27 Q1009 NOSIG=  
10-Jan-2014 SAID35 WAPI 100200 METAR WAPI 100200Z 24010G30 4000 TSRA BKN010CB OVC075 28/23 Q1009=  
10-Jan-2014 SAID35 WAPI 100300 METAR WAPI 100300Z 31003KT 4000 TSRA BKN010CB OVC075 28/25 Q1008=  
10-Jan-2014 SAID35 WAPI 100600 METAR WAPI 100600Z 27006KT 9999 BKN018 BKN030 24/23 Q1006 NOSIG=  
11-Jan-2014 SAID35 WAPI 110000 METAR WAPI 110000Z 27003KT 9999 SCT015 OVC030 28/26 Q1009=  
11-Jan-2014 SAID35 WAPI 110300 METAR WAPI 110300Z 22010KT 9999 RA SCT010CB OVC030 29/25 Q1007=  
12-Jan-2014 SAID35 WAPI 120000 METAR WAPI 120000Z 24003KT 9999 FEW010 BKN030 27/26 Q1006 NOSIG=  
12-Jan-2014 SAID35 WAPI 120300 METAR WAPI 120300Z 25008KT 9999 RA SCT010 BKN030 28/26 Q1005=  
12-Jan-2014 SAID35 WAPI 120600 METAR WAPI 120600Z 24012KT 9999 SCT017 29/26 Q1002 NOSIG=  
13-Jan-2014 SAID35 WAPI 130000 METAR WAPI 130000Z 25008 8000 RA BKN018 OVC030 25/25 Q1004=  
13-Jan-2014 SAID35 WAPI 130300 METAR WAPI 130300Z 28009KT 9999 RA SCT018 0VC030 Q1002=  
13-Jan-2014 SAID35 WAPI 130600 METAR WAPI 130600Z 26012KT 9999 RA BKN018 OVC030 29/25 Q1000 NOSIG=  
14-Jan-2014 SAID35 WAPI 140000 METAR WAPI 140000Z 28010KT 8000 RA BKN018 0VC030 24/24 Q1005=  
14-Jan-2014 SAID35 WAPI 140300 METAR WAPI 140300Z 28008KT 9999 BKN018 OVC030 28/25 Q1004=  
14-Jan-2014 SAID35 WAPI 140600 METAR WAPI 140600Z 28009KT 9999 SCT010 OVC030 28/25 Q1002=  
15-Jan-2014 SAID35 WAPI 150000 METAR WAPI 150000Z 32010KT 9999 SCT010CB BKN075 30/27 Q1006=  
15-Jan-2014 SAID35 WAPI 150100 METAR WAPI 150100Z 31010KT 9999 SCT010CB BKN075 29/26 Q1006=  
15-Jan-2014 SAID35 WAPI 150200 METAR WAPI 150200Z 28007KT 9999 SCT010CB BKN075 30/27 Q1008=  
15-Jan-2014 SAID35 WAPI 150300 METAR WAPI 150300Z 28010G23KT 9000 RA BKN010CB BKN075 31/26 Q1005=  
15-Jan-2014 SAID35 WAPI 150400 METAR WAPI 150400Z 32010G21KT 9999 BKN010CB BKN075 31/27 Q1005=  
15-Jan-2014 SAID35 WAPI 150600 METAR WAPI 150600Z 29006KT 9999 BKN010CB BKN075 30/27 Q1004=  
16-Jan-2014 SAID35 WAPI 160000 METAR WAPI 160000Z 32010KT 9999 FEW010 BKN030 27/25 Q1008 NOSIG=  
16-Jan-2014 SAID35 WAPI 160300 METAR WAPI 160300Z 30007KT 9999 FEW010 BKN075 31/26 Q1007 NOSIG=  
16-Jan-2014 SAID35 WAPI 160600 METAR WAPI 160600Z 32014KT 9999 RERA SCT010CB BKN075 30/26 Q1005=  
17-Jan-2014 SAID35 WAPI 170000 METAR WAPI 170000Z 29009KT 9999 FEW010CB BKN075 27/26 Q1007=  
17-Jan-2014 SAID35 WAPI 170600 METAR WAPI 170600Z 28008KT 8000 RA SCT010CB 28/25 Q1005=  
18-Jan-2014 SAID35 WAPI 180000 METAR WAPI 180000Z 29007KT 9999 SCT018 BKN030 28/25 Q1008 NOSIG=  
18-Jan-2014 SAID35 WAPI 180300 METAR WAPI 180300Z 28009G22KT 9999 RA FEW010CB BKN030 28/26 Q1007=  
18-Jan-2014 SAID35 WAPI 180600 METAR WAPI 180600Z 29006KT 8000 RA FEW010CB BKN075 28/26 Q1006=  
19-Jan-2014 SAID35 WAPI 190000 METAR WAPI 190000Z 21003KT 4000 RA SCT010CB OVC030 25/24 Q1008=  
19-Jan-2014 SAID35 WAPI 190300 METAR WAPI 190300Z 28008KT 9999 SCT010CB OVC030 27/26 Q1007=  
19-Jan-2014 SAID35 WAPI 190600 METAR WAPI 190600Z 28010KT 9999 SCT010CB OVC030 29/26 Q1005=  
20-Jan-2014 SAID35 WAPI 200000 METAR WAPI 200000Z 32006KT 9999 RERA SCT010 OVC030 27/25 Q1009=  
20-Jan-2014 SAID35 WAPI 200300 METAR WAPI 200300Z 28010KT 9999 SCT010 BKN030 31/27 Q1007 NOSIG=  
20-Jan-2014 SAID35 WAPI 200600 METAR WAPI 200600Z 27009KT 9999 SCT010 BKN075 31/26 Q1005 NOSIG=  
21-Jan-2014 SAID35 WAPI 210000 METAR WAPI 210000Z 00000KT 5000 RA BKN018 OVC075 25/25 Q1009=  
21-Jan-2014 SAID35 WAPI 210300 METAR WAPI 210300Z 28006KT 9999 RA BKN018 OVC075 28/26 Q1008=  
21-Jan-2014 SAID35 WAPI 210600 METAR WAPI 210600Z 24006KT 3000 RA BKN018 OVC075 25/25 Q1007=  
22-Jan-2014 SAID35 WAPI 220000 METAR WAPI 220000Z 29003KT 9999 SCT018 BKN030 27/25 Q1009=  
22-Jan-2014 SAID35 WAPI 220300 METAR WAPI 220300Z 28008KT 9999 BKN018 BKN030 30/25 Q1008 NOSIG=  
22-Jan-2014 SAID35 WAPI 220600 METAR WAPI 220600Z 31005KT 9999 RA BKN018 BKN030 32/26 Q1006=  
23-Jan-2014 SAID35 WAPI 230000 METAR WAPI 230000Z 24004KT 9999 SCT018 BKN030 26/25 Q1008=  
23-Jan-2014 SAID35 WAPI 230300 METAR WAPI 230300Z 25009KT 9999 SCT018 BKN030 28/25 Q1007=  
23-Jan-2014 SAID35 WAPI 230600 METAR WAPI 230600Z 25006KT 9999 RERA SCT018 BKN030 30/25 Q1005=  
23-Jan-2014 SAID35 WAPI 232300 METAR WAPI 232300Z 28006KT 9999 FEW018 BKN030 27/26 Q1008=  
24-Jan-2014 SAID35 WAPI 240000 METAR WAPI 240000Z 29006KT 9999 FEW018 BKN030 28/26 Q1008=  
24-Jan-2014 SAID35 WAPI 240100 METAR WAPI 240100Z 28009KT 9999 FEW018 BKN030 30/26 Q1008 NOSIG=  
24-Jan-2014 SAID35 WAPI 240200 METAR WAPI 240200Z 27009KT 9999 FEW018 BKN030 30/26 Q1008 NOSIG=  
24-Jan-2014 SAID35 WAPI 240400 METAR WAPI 240400Z 25006KT 9999 SCT017 28/26 Q1006 NOSIC=  
24-Jan-2014 SAID35 WAPI 240500 METAR WAPI 240500Z 28008KT 9999 SCT017 30/25 Q1006 NOSIG=  
24-Jan-2014 SAID35 WAPI 240600 METAR WAPI 240600Z 27008KT 9999 RERA SCT018 OVC030 30/26 Q1005=  
25-Jan-2014 SAID35 WAPI 250000 METAR WAPI 250000Z 29004KT 9999 FEW010CB 28/26 Q1009 NISIG=  
25-Jan-2014 SAID35 WAPI 250001 METAR WAPI 250001Z 28006KT 9999 FEW010CB SCT010 30/26 Q1009 NOSIG=  
25-Jan-2014 SAID35 WAPI 250002 METAR WAPI 250002Z 22007KT 9999 FEW010CB SCT015 31/26 Q1009 NOSIG=  
25-Jan-2014 SAID35 WAPI 250200 METAR WAPI 250200Z 22007KT 9999 FEW010CB SCT015 31/26 Q1009 NOSIG=  
25-Jan-2014 SAID35 WAPI 250300 METAR WAPI 250300Z 24008KT 9999 FEW010CB SCT015 30/25 Q1008 NOSIG=  
25-Jan-2014 SAID35 WAPI 250400 METAR WAPI 250400Z 24011KT 9999 FEW010CB SCT015 31/24 Q1007 NOSIG=  
25-Jan-2014 SAID35 WAPI 250500 METAR WAPI 250500Z 22007KT 9999 FEW010CB SCT015 30/25 Q1007 NOSIG=  
26-Jan-2014 SAID35 WAPI 260000 METAR WAPI 260000Z 28005KT 9999 SCT018 SCT030 28/25 Q1009 NOSIG=  
26-Jan-2014 SAID35 WAPI 260100 METAR WAPI 260100Z 26008KT 9999 FEW010CB SCT018 29/25 Q1009 NOSIG=  
26-Jan-2014 SAID35 WAPI 260200 METAR WAPI 260200Z 26009KT 9999 FEW010CB SCT018 30/25 Q1009 NOSIG=  
26-Jan-2014 SAID35 WAPI 260300 METAR WAPI 260300Z 27010KT 9999 FEW010CB SCT018 31/25 Q1008 NOSIG=  
26-Jan-2014 SAID35 WAPI 260400 METAR WAPI 260400Z 27009KT 9999 FEW010CB SCT018 32/27 Q1007 NOSIG=  
26-Jan-2014 SAID35 WAPI 260500 METAR WAPI 260500Z 27010KT 9999 FEW010CB SCT018 32/25 Q1006 NOSIG=  
26-Jan-2014 SAID35 WAPI 260600 METAR WAPI 260600Z 25009KT 9999 FEW010CB SCT018 32/26 Q1006 NOSIG=  
26-Jan-2014 SAID35 WAPI 262300 METAR WAPI 262300Z 28006KT 9999 FEW010 SCT075 27/26 Q1007 NOSIG=  
27-Jan-2014 SAID35 WAPI 270000 METAR WAPI 270000Z 28006KT 9999 FEW010CB FEW018 28/26 Q1008 NOSIG=  
27-Jan-2014 SAID35 WAPI 270100 METAR WAPI 270100Z 28008KT 9999 FEW010CB FEW015 29/26 Q1008 NOSIG=  
27-Jan-2014 SAID35 WAPI 270200 METAR WAPI 270200Z 28011KT 9999 FEW010CB FEW015 31/25 Q1007 NOSIG=  
27-Jan-2014 SAID35 WAPI 270300 METAR WAPI 270300Z 27011KT 9999 FEW010CB FEW015 31/25 Q1007 NOSIG=  
27-Jan-2014 SAID35 WAPI 270400 METAR WAPI 270400Z 28011KT 9999 FEW010CB SCT018 31/25 Q1007 NOSIG=  
27-Jan-2014 SAID35 WAPI 270500 METAR WAPI 270500Z 27012KT 9999 FEW010CB SCT018 31/24 Q1006 NOSIG=  
27-Jan-2014 SAID35 WAPI 270600 METAR WAPI 270600Z 28010KT 9999 FEW010CB SCT018 30/24 Q1005=  
27-Jan-2014 SAID35 WAPI 272300 METAR WAPI 272300Z 28005KT 9999 SCT018 SCT030 27/26 Q1007 NOSIG=  
28-Jan-2014 SAID35 WAPI 280000 METAR WAPI 280000Z 28008KT 9999 SCT018 28/25 Q1008 NOSIG=  
28-Jan-2014 SAID35 WAPI 280100 METAR WAPI 280100Z 27010KT 9999 SCT018 30/26 Q1008 NOSIG=  
28-Jan-2014 SAID35 WAPI 280200 METAR WAPI 280200Z 30011KT 9999 SCT018 31/25 Q1008 NOSIG=  
28-Jan-2014 SAID35 WAPI 280600 METAR WAPI 280600Z 28011KT 9999 SCT018 32/25 Q1004 NOSIG=  
28-Jan-2014 SAID35 WAPI 282300 METAR WAPI 282300Z 28009KT 9999 RA SCT010CB OVC025 25/25 Q1007=  
29-Jan-2014 SAID35 WAPI 290000 METAR WAPI 290000Z 27010KT 3000 TSRA SCT010CB OVC025 25/25 Q1007=  
29-Jan-2014 SAID35 WAPI 290100 METAR WAPI 290100Z 29007KT 8000 RA SCT010CB OVC025 26/25 Q1007=  
29-Jan-2014 SAID35 WAPI 290200 METAR WAPI 290200Z 29006KT 8000 FEW010CB OVC025 27/26 Q1007=  
29-Jan-2014 SAID35 WAPI 290300 METAR WAPI 290300Z 28011KT 9999 FEW010CB OVC030 29/26 Q1006=  
29-Jan-2014 SAID25 WAPI 290400 METAR WAPI 290400Z 28013KT 9999 FEW010CB OVC030 29/25 Q1006=  
29-Jan-2014 SAID25 WAPI 290600 METAR WAPI 290600Z 28011KT 9999 FEW010 OVC030 30/26 Q1004=  
29-Jan-2014 SAID25 WAPI 292300 METAR WAPI 292300Z 27008KT 9999 SCT010 BKN075 28/25 Q1007 NOSIG=  
30-Jan-2014 SAID35 WAPI 300200 METAR WAPI 300200Z 29010KT 9999 SCT017 30/25 Q1007 NOSIG=  
30-Jan-2014 SAID25 WAPI 300500 METAR WAPI 300500Z 28009KT 9999 SCT018 31/25 Q1008 NOSIG=  
30-Jan-2014 SAID25 WAPI 300600 METAR WAPI 300600Z 28010KT 9999 SCT018 30/25 Q1005 NOSIG=  
30-Jan-2014 SAID25 WAPI 302300 METAR WAPI 302300Z 26016KT 5000 RA SCT018 OVC030 28/26 Q1007=  
31-Jan-2014 SAID35 WAPI 310200 METAR WAPI 310200Z 29010KT 9999 SCT018 SCT030 30/25 Q1007 NOSIG=  
31-Jan-2014 SAID25 WAPI 310300 METAR WAPI 310300Z 28009G21KT 9999 SCT018 31/25 Q1006=  
31-Jan-2014 SAID25 WAPI 310400 METAR WAPI 310400Z 28011KT 9999 SCT015 31/25 Q1005 NOSIG=  
31-Jan-2014 SAID25 WAPI 310500 METAR WAPI 310500Z 28011KT 9999 SCT015 31/25 Q1005 NOSIG=  
31-Jan-2014 SAID25 WAPI 310600 METAR WAPI 310600Z 29012KT 9999 SCT015 31/25 Q1004 NOSIG=  
01-Feb-2014 SAID25 WAPI 010000 METAR WAPI 010000Z 30007KT 9999 FEW010 28/25 Q1007 NOSIG=  
01-Feb-2014 SAID35 WAPI 010000 METAR WAPI 010000Z 30007KT 9999 FEW010 28/25 Q1007 NOSIG=  
01-Feb-2014 SAID35 WAPI 010100 METAR WAPI 010100Z 32014KT 9999 FEW018 29/25 Q1006 NOSIG=  
01-Feb-2014 SAID35 WAPI 010200 METAR WAPI 010200Z 32012KT 9999 FEW015 20/26 Q1006 NOSIG=  
01-Feb-2014 SAID35 WAPI 010300 METAR WAPI 010300Z 31014KT 9999 FEW015 29/25 Q1005=  
01-Feb-2014 SAID35 WAPI 010400 METAR WAPI 010400Z 29008KT 9999 SCT018 30/26 Q1005=  
01-Feb-2014 SAID35 WAPI 010500 METAR WAPI 010500Z 30008KT 9999 FEW018 BKN030 30/26 Q1004 NOSIG=  
01-Feb-2014 SAID35 WAPI 010600 METAR WAPI 010600Z 30008KT 9999 FW010 SCT030 30/25 Q1003 NOSIG=  
02-Feb-2014 SAID35 WAPI 020000 METAR WAPI 020000Z 31007KT 9999 SCT015 28/27 Q1007 NOSIG=  
02-Feb-2014 SAID35 WAPI 020100 METAR WAPI 020100Z 32010KT 9999 SCT015 29/25 Q1007 NOSIG=  
02-Feb-2014 SAID35 WAPI 020200 METAR WAPI 020200Z 30011KT 9999 BKN016 30/25 Q1007 NOSIG=  
02-Feb-2014 SAID35 WAPI 020300 METAR WAPI 020300Z 30011KT 9999 SCT015 31/25 Q1005 NOSIG=  
02-Feb-2014 SAID35 WAPI 020400 METAR WAPI 020400Z 32012KT 9999 BKN015 31/25 Q1005 NOSIG=  
02-Feb-2014 SAID35 WAPI 020500 METAR WAPI 020500Z 3009KT 9999 BKN015 31/25 Q1004 NOSIG=  
02-Feb-2014 SAID35 WAPI 020600 METAR WAPI 020600Z 32012KT 9999 SCT015 31/25 Q1004 NOSIG=  
02-Feb-2014 SAID35 WAPI 020900 METAR WAPI 020900Z 31012KT 9999 SCT015 SCT030 30/25 Q1004 NOSIG=  
02-Feb-2014 SAID35 WAPI 021200 METAR WAPI 021200Z 30009KT 9999 SCT015 18/26 Q1005 NOSIG=  
03-Feb-2014 SAID35 WAPI 030000 METAR WAPI 030000Z 28006KT 9999 SCT015 29/26 Q1008 NOSIG=  
03-Feb-2014 SAID35 WAPI 030100 METAR WAPI 030100Z 28008KT 9999 SCT015 30/26 Q1007 NOSIG=  
03-Feb-2014 SAID35 WAPI 030200 METAR WAPI 030200Z 28012KT 9999 RA SCT015 28/24 Q1007=  
03-Feb-2014 SAID35 WAPI 030300 METAR WAPI 030300Z 28009KT 9999 RERA SCT015 30/24 Q1006=  
03-Feb-2014 SAID35 WAPI 030400 METAR WAPI 030400Z 28010KT 9999 SCT016 30/25 Q1005 NOSIG=  
04-Feb-2014 SAID35 WAPI 040000 METAR WAPI 040000Z 28009KT 9999 SCT015 29/25 Q1007 NOSIG=  
04-Feb-2014 SAID35 WAPI 040100 METAR WAPI 040100Z 28009KT 9999 SCT015 30/25 Q1007 NOSIG=  
04-Feb-2014 SAID35 WAPI 040200 METAR WAPI 040200Z 28009KT 9999 SCT015 31/25 Q1006 NOSIG=  
04-Feb-2014 SAID35 WAPI 040300 METAR WAPI 040300Z 29010KT 9999 SCT015 32/25 Q1005 NOSIG=  
04-Feb-2014 SAID35 WAPI 040400 METAR WAPI 040400Z 28013KT 9999 BKNT015 31/25 Q1005 NOSIG=  
04-Feb-2014 SAID35 WAPI 040500 METAR WAPI 040500Z 28014KT 9999 SCT015 31/25 Q1004 NOSIG=  
04-Feb-2014 SAID35 WAPI 040600 METAR WAPI 040600Z 28011G22KT 9999 SCT015 31/24 Q10053 NOSIG=  
04-Feb-2014 SAID35 WAPI 040900 METAR WAPI 040900Z 29007KT 9999 SCT015 BKN030 28/26 Q1005 NOSIG=  
04-Feb-2014 SAID35 WAPI 041200 METAR WAPI 041200Z 28006KT 9999 SCT015 BKN030 28/25 Q1006 NOSIG=  
05-Feb-2014 SAID35 WAPI 050000 METAR WAPI 050000Z 32008KT 9999 SCT010CB BKN075 27/25 Q1008 NOSIG=  
05-Feb-2014 SAID35 WAPI 050100 METAR WAPI 050100Z 29005KT 9999 FEW010CB BKN075 27/25 Q1007 NOSIG=  
05-Feb-2014 SAID35 WAPI 050200 METAR WAPI 050200Z 29010KT 9999 FEW015 BKN075 30/27 Q1007 NOSIG=  
05-Feb-2014 SAID35 WAPI 050300 METAR WAPI 050300Z 29009KT 9999 SCT015 31/25 Q1006 NOSIG=  
05-Feb-2014 SAID35 WAPI 050500 METAR WAPI 050500Z 28013KT 9999 SCT015 31/25 Q1005 NOSIG=  
05-Feb-2014 SAID35 WAPI 050600 METAR WAPI 050600Z 28011KT 9999 SCT015 32/25 Q1004 NOSIG=  
05-Feb-2014 SAID35 WAPI 052300 METAR WAPI 052300Z 27005KT 9999 FEW020 28/26 Q1007 =  
06-Feb-2014 SAID35 WAPI 060000 METAR WAPI 060000Z 28006KT 9999 BKN015 29/25 Q1007 NOSIG=  
06-Feb-2014 SAID35 WAPI 060100 METAR WAPI 060100Z 28008KT 9999 SCT015 31/25 Q1007 NOSIG=  
06-Feb-2014 SAID35 WAPI 060200 METAR WAPI 060200Z 27008KT 9999 BKN015 31/25 Q1006 NOSIG=  
06-Feb-2014 SAID35 WAPI 060300 METAR WAPI 060300Z 28010KT 9999 BKN015 32/26 Q1006 NOSIG=  
06-Feb-2014 SAID35 WAPI 060400 METAR WAPI 060400Z 28015KT 9999 BKN015 32/24 Q1005 NOSIG=  
06-Feb-2014 SAID35 WAPI 060500 METAR WAPI 060500Z 28012KT 9999 SCT015 32/25 Q1005 NOSIG=  
06-Feb-2014 SAID35 WAPI 060600 METAR WAPI 060600Z 28012KT 9999 BKN015 32/25 Q1004 NOSIG=  
06-Feb-2014 SAID35 WAPI 060900 METAR WAPI 060900Z 28007KT 9999 FEW015 BKN075 30/25 Q1004 NOSIG=  
06-Feb-2014 SAID35 WAPI 061200 METAR WAPI 061200Z 31006KT 9999 FEW015 28/25 Q1006 NOSIG=  
06-Feb-2014 SAID35 WAPI 062300 METAR WAPI 062300Z 28005KT 9999 SCT018 28/25 A1006 =  
07-Feb-2014 SAID35 WAPI 070000 METAR WAPI 070000Z 30004KT 9999 SCT015 28/26 Q1006 NOSIG=  
07-Feb-2014 SAID35 WAPI 070100 METAR WAPI 070100Z 30009KT 9999 SCT015 29/26 Q1007 NOSIG=  
07-Feb-2014 SAID35 WAPI 070200 METAR WAPI 070200Z 28006KT 9999 SCT015 31/26 Q1006 NOSIG=  
07-Feb-2014 SAID35 WAPI 070300 METAR WAPI 070300Z 28008KT 9999 SCT015 32/25 Q1005 NOSIG=  
07-Feb-2014 SAID35 WAPI 070400 METAR WAPI 070400Z 28007KT 9999 BKN015 33/26 Q1004 NOSIG=  
07-Feb-2014 SAID35 WAPI 070600 METAR WAPI 070400Z 28007KT 9999 BKN015 33/26 Q1004 NOSIG=  
07-Feb-2014 SAID35 WAPI 070500 METAR WAPI 070500Z 28008KT 9999 BKN015 32/25 Q1004 NOSIG=  
07-Feb-2014 SAID35 WAPI 070600 METAR WAPI 070600Z 28007KT 9999 SCT015 32/25 Q1003 NOSIG=  
07-Feb-2014 SAID35 WAPI 072300 METAR WAPI 072300Z 31008KT 9999 FEW018 37/25 Q1006 NOSIG=  
08-Feb-2014 SAID35 WAPI 080000 METAR WAPI 080000Z 31006KT 9999 SCT018 29/26 Q1007 NOSIG=  
08-Feb-2014 SAID35 WAPI 080100 METAR WAPI 080100Z 30008KT 9999 SCT015 31/25 Q1007 NOSIG=  
08-Feb-2014 SAID35 WAPI 080200 METAR WAPI 080200Z 29008KT 9999 SCT018 32/25 Q1006 NOSIG=  
08-Feb-2014 SAID35 WAPI 080300 METAR WAPI 080300Z 30008KT 9999 SCT018 33/26 Q1006 NOSIG=  
08-Feb-2014 SAID35 WAPI 080400 METAR WAPI 080400Z 28008KT 9999 BKN015 33/26 Q1005 NOSIG=  
08-Feb-2014 SAID35 WAPI 080500 METAR WAPI 080500Z 28007KT 9999 BKN015 33/26 Q1004 NOSIG=  
08-Feb-2014 SAID35 WAPI 080600 METAR WAPI 080600Z 30005KT 9999 SCT015 33/26 Q1003 NOSIG=  
08-Feb-2014 SAID35 WAPI 082300 METAR WAPI 082300Z 29002KT 9999 SCT018 27/25 Q1008 =  
09-Feb-2014 SAID35 WAPI 090000 METAR WAPI 090000Z 26005KT 9999 SCT015 28/25 Q1008 NOSIG=  
09-Feb-2014 SAID35 WAPI 090100 METAR WAPI 090100Z 32005KT 9999 FEW010 30/25 Q1007 NOSIG=  
09-Feb-2014 SAID35 WAPI 090200 METAR WAPI 090200Z 29003KT 9999 FEW010 31/25 Q1007 NOSIG=  
09-Feb-2014 SAID35 WAPI 090300 METAR WAPI 090300Z 20003KT 9999 SCT015 33/26 Q1006 NOSIG=  
09-Feb-2014 SAID35 WAPI 090400 METAR WAPI 090400Z 29002KT 9999 SCT015 33/27 Q1005 =  
09-Feb-2014 SAID35 WAPI 090500 METAR WAPI 090500Z 11007KT 9999 BKN016 33/27 Q1005 =  
09-Feb-2014 SAID35 WAPI 090600 METAR WAPI 090600Z 12006KT 9999 FEW010CB SCT015 33/27 Q1004 NOSIG=  
09-Feb-2014 SAID35 WAPI 090900 METAR WAPI 090900Z 08004KT 9999 FEW015 30/26 Q1005 NOSIG=  
09-Feb-2014 SAID35 WAPI 091200 METAR WAPI 091200Z 26001KT 9999 FEW015 28/27 Q1007 NOSIG=  
09-Feb-2014 SAID35 WAPI 092300 METAR WAPI 092300Z 28002KT 9999 FEW018 27/26 Q1007 =  
10-Feb-2014 SAID35 WAPI 100000 METAR WAPI 100000Z 21003KT 9999 FEW018 29/26 Q1008=  
10-Feb-2014 SAID35 WAPI 100100 METAR WAPI 100100Z 30004KT 9999 FEW018 30/25 Q1008=  
10-Feb-2014 SAID35 WAPI 100200 METAR WAPI 100200Z 25004KT 9999 SCT017 32/27 Q1008=  
10-Feb-2014 SAID35 WAPI 100400 METAR WAPI 100400Z 21010KT 9999 BKN016 32/26 Q1007 =  
10-Feb-2014 SAID35 WAPI 100500 METAR WAPI 100500Z 23006KT 9999 BKN016 32/25 Q1006 =  
10-Feb-2014 SAID35 WAPI 100600 METAR WAPI 100600Z 24009KT 9999 BKN016 31/25 Q1006 =  
10-Feb-2014 SAID35 WAPI 100900 METAR WAPI 100900Z 32005KT 9999 SCT016 30/23 Q1005 NOSIG=  
10-Feb-2014 SAID35 WAPI 102300 METAR WAPI 102300Z 00000KT 9999 BKN016 27/25 Q1007=  
11-Feb-2014 SAID35 WAPI 110000 METAR WAPI 110000Z 28004KT 9999 FEW010 BKN075 29/25 Q1007 NOSIG=  
11-Feb-2014 SAID35 WAPI 110100 METAR WAPI 110100Z 30005KT 9999 SCT010 BKN075 30/25 Q1008 NOSIG=  
11-Feb-2014 SAID35 WAPI 110200 METAR WAPI 110200Z 22004KT 9999 SCT010 BKN075 31/26 Q1008 NOSIG=  
11-Feb-2014 SAID35 WAPI 110300 METAR WAPI 110300Z 22006KT 9999 BKN016 32/26 Q1007=  
11-Feb-2014 SAID35 WAPI 110400 METAR WAPI 110400Z 22007KT 9999 BKN016 32/26 Q1006=  
11-Feb-2014 SAID35 WAPI 110500 METAR WAPI 110500Z 21006KT 9999 BKN015 31/26 Q1006 NOSIG=  
11-Feb-2014 SAID35 WAPI 110600 METAR WAPI 110600Z 12006KT 9999 SCT010CB FEW015 31/24 Q1005=  
11-Feb-2014 SAID35 WAPI 110900 METAR WAPI 110900Z 27006KT 9999 FEW015 SCT30 30/25 Q1005 NOSIG=  
11-Feb-2014 SAID35 WAPI 111200 METAR WAPI 111200Z 09002KT 9999 FEW010 SCT075 28/25 Q1008 NOSIG=  
11-Feb-2014 SAID35 WAPI 112300 METAR WAPI 112300Z 20003KT 9999 SCT018 27/25 Q1008 NOSIG=  
12-Feb-2014 SAID35 WAPI 120000 METAR WAPI 120000Z 23006KT 9999 SCT018 29/26 Q1009 NOSIG=  
12-Feb-2014 SAID35 WAPI 120100 METAR WAPI 120100Z 27006KT 9999 SCT018 30/24 Q1009 NOSIG=  
12-Feb-2014 SAID35 WAPI 120200 METAR WAPI 120200Z 29007KT 9999 SCT018 32/25 Q1008 NOSIG=  
12-Feb-2014 SAID35 WAPI 120400 METAR WAPI 120200Z 11006KT 9999 SCT015 BKN030 32/26 Q1007=  
12-Feb-2014 SAID35 WAPI 130200 METAR WAPI 120200Z 07005KT 9999 BKN017 31/25 Q 1003=  
12-Feb-2014 SAID35 WAPI 120300 METAR WAPI 120300Z 00000KT 9999 SCT018 32/25 Q1008 NOSIG=  
12-Feb-2014 SAID35 WAPI 122300 METAR WAPI 122300Z 09002KT 9999 BKN017 26/25 Q1010=  
13-Feb-2014 SAID35 WAPI 130000 METAR WAPI 130000Z 00000KT 9999 SCT015 28/26 Q1010 NOSIG=  
13-Feb-2014 SAID35 WAPI 130100 METAR WAPI 130100Z 11005KT 9999 SCT015 30/26 Q1010 NOSIG=  
13-Feb-2014 SAID35 WAPI 130300 METAR WAPI 130300Z 05007KT 9999 BKN016 31/26 Q1009=  
13-Feb-2014 SAID35 WAPI 130400 METAR WAPI 130400Z 06008KT 9999 BKN016 30/25 Q1008 =  
13-Feb-2014 SAID35 WAPI 130500 METAR WAPI 130500Z 05009KT 9999 FEW010CB BKN030 31/26 Q1007 NOSIG=  
13-Feb-2014 SAID35 WAPI 130600 METAR WAPI 130600Z 06006KT 9999 SCT010CB BKN030 31/24 Q1007 NOSIG=  
13-Feb-2014 SAID35 WAPI 130900 METAR WAPI 130900Z 24006KT 9999 SCT015 SCT030 29/24 Q1008 NOSIG=  
13-Feb-2014 SAID35 WAPI 131200 METAR WAPI 131200Z 29005KT 9999 LA FEW010CB BKN030 27/24 Q1009 NOSIG=  
13-Feb-2014 SAID35 WAPI 132300 METAR WAPI 132300Z 29002KT 9999 SCT010 BKN030 27/25 Q1009=  
14-Feb-2014 SAID35 WAPI 140000 METAR WAPI 140000Z 28003KT 9999 RERA SCT010 BKN030 27/26 Q1009=  
14-Feb-2014 SAID35 WAPI 140100 METAR WAPI 140100Z 28003KT 9999 SCT010 BKN030 28/26 Q1010=  
14-Feb-2014 SAID35 WAPI 140200 METAR WAPI 140200Z 24002KT 9999 RA FEW010CB BKN030 28/26 Q1010=  
14-Feb-2014 SAID35 WAPI 140300 METAR WAPI 140300Z 30015KT 9999 RA SCT010 BKN030 227/24 Q1009=  
14-Feb-2014 SAID35 WAPI 140500 METAR WAPI 140500Z 31010KT 8000 RA OVC014 26/24 Q1007 =  
14-Feb-2014 SAID35 WAPI 140600 METAR WAPI 140600Z 30003KT 9999 RERA OVC025 27/25 Q1005=  
15-Feb-2014 SAID35 WAPI 150000 METAR WAPI 150000Z 22006KT 1000 BKN010CB OVC025 25/25 Q1010=  
15-Feb-2014 SAID35 WAPI 150100 METAR WAPI 150100Z 25005KT 1000 BKN010CB OVC025 25/23 Q1010=  
15-Feb-2014 SAID35 WAPI 150200 METAR WAPI 150200Z 15010KT 2000 BKN010CB OVC025 24/23 Q1010=  
15-Feb-2014 SAID35 WAPI 150300 METAR WAPI 150300Z 30009KT 1000 RA BKN010CB OVC025 24/24 Q1010=  
15-Feb-2014 SAID35 WAPI 150600 METAR WAPI 150600Z 30006KT 5000 RA BKN018 BKN025 24/24 Q1009=  
15-Feb-2014 SAID35 WAPI 152300 METAR WAPI 152300Z 24004KT 9999 SCT017 26/25 Q1010=  
16-Feb-2014 SAID35 WAPI 160000 METAR WAPI 160000Z 28006KT 9999 SCT018 28/26 Q1010 NOSIG=  
16-Feb-2014 SAID35 WAPI 160100 METAR WAPI 160100Z 28007KT 9999 SCT018 28/25 Q1011 NOSIG=  
16-Feb-2014 SAID35 WAPI 160200 METAR WAPI 160200Z 29008KT 9999 SCT018 29/25 Q1011 NOSIG=  
16-Feb-2014 SAID35 WAPI 160600 METAR WAPI 160600Z 28007KT 9999 BKN015 29/26 Q1008=  
16-Feb-2014 SAID35 WAPI 160900 METAR WAPI 160900Z 27007KT 9999 BKN020 28/26 Q1008 NOSIG=  
16-Feb-2014 SAID35 WAPI 161200 METAR WAPI 161200Z 31006KT 9999 SCT020 27/26 Q1008 NOSIG=  
16-Feb-2014 SAID35 WAPI 162300 METAR WAPI 162300Z 27007KT 9999 BKN015 27/25 Q1009=  
17-Feb-2014 SAID35 WAPI 170000 METAR WAPI 170000Z 28007KT 9999 BKN015 28/25 Q1010=  
17-Feb-2014 SAID35 WAPI 170300 METAR WAPI 170300Z 27009KT 9999 RERA SCT020 OVC030 27/25 Q1009=  
17-Feb-2014 SAID35 WAPI 170400 METAR WAPI 170400Z 28007KT 9999 SCT020 OVC030 29/26 Q1009=  
17-Feb-2014 SAID35 WAPI 170500 METAR WAPI 170500Z 28008KT 9999 BKN015 28/26 Q1008=  
17-Feb-2014 SAID35 WAPI 170600 METAR WAPI 170600Z 28008KT 9999 SCT020 OVC030 28/26 Q1008=  
17-Feb-2014 SAID35 WAPI 172300 METAR WAPI 172300Z 27010KT 9000 RA OVC010 25/24 Q1009=  
18-Feb-2014 SAID35 WAPI 180000 METAR WAPI 180000Z 29010KT 5000 RA BKN010 OVC025 25/24 Q1010=  
18-Feb-2014 SAID35 WAPI 180100 METAR WAPI 180100Z 29003KT 6000 RA BKN010 OVC025 25/25 Q1010=  
18-Feb-2014 SAID35 WAPI 180200 METAR WAPI 180200Z 30007KT 6000 BKN015 25/24 Q1009 NOSIG=  
18-Feb-2014 SAID35 WAPI 180300 METAR WAPI 180300Z 28012KT 5000 RA BKN015 25/24 Q1009=  
18-Feb-2014 SAID35 WAPI 180400 METAR WAPI 180400Z 29011KT 9999 BKN015 OVC030 26/25 Q1009=  
18-Feb-2014 SAID35 WAPI 180600 METAR WAPI 180600Z 28016KT 5000 RA BKN018 OVC030 26/24 Q1007=  
18-Feb-2014 SAID35 WAPI 180900 METAR WAPI 180900Z 28010KT 9999 RERA SCT020 OVC030 26/24 Q1008=  
18-Feb-2014 SAID35 WAPI 181200 METAR WAPI 181200Z 28011KT 9999 SCT015 OVC030 26/24 Q1008=  
18-Feb-2014 SAID35 WAPI 182300 METAR WAPI 182300Z 28007KT 9999 SCT015 27/25 Q1009 NOSIG=  
19-Feb-2014 SAID35 WAPI 190000 METAR WAPI 190000Z 28006KT 9999 SCT015 27/25 Q1009 NOSIG=  
19-Feb-2014 SAID35 WAPI 190300 METAR WAPI 190300Z 28014KT 9999 SCT015 31/25 Q1009 NOSIG=  
19-Feb-2014 SAID35 WAPI 190400 METAR WAPI 190400Z 28005KT 9999 SCT015 31/25 Q1008 NOSIG=  
19-Feb-2014 SAID35 WAPI 190600 METAR WAPI 190600Z 29016KT 9999 SCT015 31/25 Q1007 NOSIG=  
19-Feb-2014 SAID35 WAPI 192300 METAR WAPI 192300Z 24007KT 9999 FEW010CB SCT018 25/24 Q1011 NOSIG=  
20-Feb-2014 SAID35 WAPI 200300 METAR WAPI 200300Z 25005KT 9999 OVC010 24/24 Q1011=  
20-Feb-2014 SAID35 WAPI 200500 METAR WAPI 200500Z 25013KT 8000 RA BKN018 OVC030 23/22 Q1010=  
20-Feb-2014 SAID35 WAPI 200600 METAR WAPI 200600Z 25008KT 9999 RA BKN018 OVC030 24/23 Q1009=  
20-Feb-2014 SAID35 WAPI 202300 METAR WAPI 202300Z 00000KT 9999 SCT017 25/24 Q1010 =  
21-Feb-2014 SAID35 WAPI 210000 METAR WAPI 210000Z 28005KT 9999 SCT018 28/25 Q1011=  
21-Feb-2014 SAID35 WAPI 210300 METAR WAPI 210300Z 27006KT 9999 SCT018 29/26 Q1010=  
21-Feb-2014 SAID35 WAPI 210500 METAR WAPI 210500Z 27005KT 9999 BKN015 31/25 Q1008=  
22-Feb-2014 SAID35 WAPI 220000 METAR WAPI 220000Z 28006KT 9999 SCT018 27/25 Q1010=  
22-Feb-2014 SAID35 WAPI 220200 METAR WAPI 220200Z 26008KT 9999 SCT018 29/25 Q1010=  
22-Feb-2014 SAID35 WAPI 220300 METAR WAPI 220300Z 21009KT 9999 SCT018 30/25 Q1010=  
22-Feb-2014 SAID35 WAPI 220500 METAR WAPI 220500Z 24007KT 9999 BKN018 29/24 Q1008 NOSIG=  
23-Feb-2014 SAID35 WAPI 230000 METAR WAPI 230000Z 28005KT 9999 BKN016 28/25 Q1011 NOSIG=  
23-Feb-2014 SAID35 WAPI 230100 METAR WAPI 230100Z 28006KT 9999 BKN016 29/24 Q1011=  
23-Feb-2014 SAID35 WAPI 230200 METAR WAPI 230200Z 28005KT 9999 BKN016 30/24 Q1010=  
23-Feb-2014 SAID35 WAPI 230300 METAR WAPI 230300Z 29007KT 9999 BKN018 30/25 Q1010=  
23-Feb-2014 SAID35 WAPI 230400 METAR WAPI 230400Z 28007KT 9999 BKN018 30/25 Q1009=  
23-Feb-2014 SAID35 WAPI 230500 METAR WAPI 230500Z 30006KT 9999 BKN018 30/25 Q1008=  
23-Feb-2014 SAID35 WAPI 230600 METAR WAPI 230600Z 26003KT 9999 BKN018 31/25 Q1007 NOSIG=  
24-Feb-2014 SAID35 WAPI 240000 METAR WAPI 240000Z 30007KT 9999 BKN017 28/25 Q1011=  
24-Feb-2014 SAID35 WAPI 240100 METAR WAPI 240100Z 27006KT 9999 BKN017 29/25 Q1011=  
24-Feb-2014 SAID35 WAPI 240200 METAR WAPI 240200Z 28008KT 9999 SCT018 29/24 Q1011=  
24-Feb-2014 SAID35 WAPI 240300 METAR WAPI 240300Z 29006KT 9999 SCT018 29/25 Q1010=  
24-Feb-2014 SAID35 WAPI 240400 METAR WAPI 240400Z 28006KT 9999 SCT018 30/25 Q1009=  
24-Feb-2014 SAID35 WAPI 240500 METAR WAPI 240500Z 27010KT 9999 SCT017 29/25 Q1008 NOSIG=  
24-Feb-2014 SAID35 WAPI 242300 METAR WAPI 242300Z 00000KT 9999 BKN015 26/24 Q1011=  
25-Feb-2014 SAID35 WAPI 250000 METAR WAPI 250000Z 28005KT 9999 SCT015 28/25 Q1011=  
25-Feb-2014 SAID35 WAPI 250300 METAR WAPI 250300Z 27009KT 9999 SCT018 31/25 Q1010=  
25-Feb-2014 SAID35 WAPI 250400 METAR WAPI 250400Z 27008KT 9999 SCT018 32/24 Q1009=  
25-Feb-2014 SAID35 WAPI 250600 METAR WAPI 250600Z 27010KT 9999 BKN018 32/24 Q1008 NOSIG=  
26-Feb-2014 SAID35 WAPI 260000 METAR WAPI 260000Z 28009KT 9999 BKN016 28/25 Q1011=  
26-Feb-2014 SAID35 WAPI 260300 METAR WAPI 260300Z 28012KTS 9999 SET1016 28/22 Q1011 NOSIG=  
26-Feb-2014 SAID35 WAPI 260600 METAR WAPI 260600Z 27009KT 9999 SET018 28/24 Q1008 NOSIG=  
27-Feb-2014 SAID35 WAPI 270000 METAR WAPI 270000Z 27005KT 9999 BKN016 28/26 Q1012 =  
27-Feb-2014 SAID35 WAPI 270100 METAR WAPI 270100Z 27008KT 9999 BKN015 28/25 Q1012=  
27-Feb-2014 SAID35 WAPI 270200 METAR WAPI 270200Z 28008KT 9999 BKN015 30/24 Q1012=  
27-Feb-2014 SAID35 WAPI 270300 METAR WAPI 270300Z 28009KT 9999 SCT018 31/26 Q1012=  
27-Feb-2014 SAID35 WAPI 272300 METAR WAPI 272300Z 27002KT 9999 FEW018 27/25 Q1011=  
28-Feb-2014 SAID35 WAPI 280100 METAR WAPI 280100Z 28007KT 9999 BKN015 29/25 Q1012=  
28-Feb-2014 SAID35 WAPI 280200 METAR WAPI 280200Z 27008KT 9999 BKN015 30/25 Q1011=  
28-Feb-2014 SAID35 WAPI 280300 METAR WAPI 280300Z 27008KT 9999 BKN015 31/25 Q1011=  
28-Feb-2014 SAID35 WAPI 280500 METAR WAPI 280500Z 23008KT 9999 BKN018 31/25 Q1009=  
28-Feb-2014 SAID35 WAPI 280600 METAR WAPI 280600Z 23009KT 9999 SCT017 31/25 Q1009 =  
01-Mar-2014 SAID35 WAPI 010000 METAR WAPI 010000Z 29002KT 9999 FEW013 28/25 Q1011=  
01-Mar-2014 SAID35 WAPI 010100 METAR WAPI 010100Z 28004KT 9999 SCT013 30/26 Q1011=  
01-Mar-2014 SAID35 WAPI 010200 METAR WAPI 010200Z 28007KT 9999 SCT015 31/25 Q1010=  
01-Mar-2014 SAID35 WAPI 010300 METAR WAPI 010300Z 28007KT 9999 SCT018 32/25 Q1010=  
01-Mar-2014 SAID35 WAPI 010400 METAR WAPI 010400Z 26010KT 9999 BKN016 32/25 Q1009=  
01-Mar-2014 SAID35 WAPI 010600 METAR WAPI 010600Z 26011KT 9999 SCT018 32/25 Q1007 NOSIG=  
01-Mar-2014 SAID35 WAPI 012300 METAR WAPI 012300Z 15005KT 9999 SCT018 26/24 Q1010 NOSIG=  
02-Mar-2014 SAID35 WAPI 020000 METAR WAPI 020000Z 30006KT 9999 SCT018 29/26 Q1011 NOSIG=  
02-Mar-2014 SAID35 WAPI 020300 METAR WAPI 020300Z 27009KT 9999 BKN016 32/25 Q1010 NOSIG=  
02-Mar-2014 SAID35 WAPI 020400 METAR WAPI 020400Z 28007KT 9999 BKN015 32/25 Q1009 NOSIG=  
02-Mar-2014 SAID35 WAPI 020500 METAR WAPI 020500Z 28008KT 9999 BKN015 32/25 Q1008 NOSIG=  
02-Mar-2014 SAID35 WAPI 020600 METAR WAPI 020600Z 28008KT 9999 BKN015 33/25 Q1007 NOSIG=  
02-Mar-2014 SAID35 WAPI 022300 METAR WAPI 022300Z 20003KT 9999 FEW013 28/25 Q1010 NOSIG=  
03-Mar-2014 SAID35 WAPI 030000 METAR WAPI 030000Z 31005KT 9999 BKN017 29/26 Q1011 NOSIG=  
03-Mar-2014 SAID35 WAPI 030100 METAR WAPI 030100Z 27005KT 9999 BKN016 30/26 Q1010=  
03-Mar-2014 SAID35 WAPI 030200 METAR WAPI 030200Z 28005KT 9999 BKN017 31/26 Q1010=  
03-Mar-2014 SAID35 WAPI 030300 METAR WAPI 030300Z 29006KT 9999 SCT018 32/25 Q1009 NOSIG=  
03-Mar-2014 SAID35 WAPI 030400 METAR WAPI 030400Z 27006KT 9999 SCT018 33/26 Q1008 NOSIG=  
03-Mar-2014 SAID35 WAPI 030500 METAR WAPI 030500Z 27004KT 9999 SCT018 32/25 Q1008 NOSIG=  
03-Mar-2014 SAID35 WAPI 030600 METAR WAPI 030600Z 28006KT 9999 SCT018 33/26 Q1007 NOSIG=  
03-Mar-2014 SAID35 WAPI 032300 METAR WAPI 032300Z 28004KT 9999 FEW013 26/25 Q1010 NOSIG=  
04-Mar-2014 SAID35 WAPI 040000 METAR WAPI 040000Z 28005KT 9999 SCT018 28/25 Q1011 NOSIG=  
04-Mar-2014 SAID35 WAPI 040200 METAR WAPI 040200Z 29006KT 9999 BKN015 29/26 Q1011 NOSIG=  
04-Mar-2014 SAID35 WAPI 040300 METAR WAPI 040300Z 29006KT 9999 BKN016 31/27 Q1010 NOSIG=  
04-Mar-2014 SAID35 WAPI 040400 METAR WAPI 040400Z 28007KT 60000 BKN021 26/25 Q1010=  
04-Mar-2014 SAID35 WAPI 040600 METAR WAPI 040600Z 28005KT 9999 BKN021 30/26 Q1008=  
05-Mar-2014 SAID35 WAPI 050000 METAR WAPI 050000Z 28006KT 9999 BKN015 29/27 Q1010=  
05-Mar-2014 SAID35 WAPI 050300 METAR WAPI 050300Z 27011KT 9999 BKN018 31/26 Q1009=  
05-Mar-2014 SAID35 WAPI 050600 METAR WAPI 050600Z 28011KT 9999 BKN015 32/26 Q1006=  
06-Mar-2014 SAID35 WAPI 060000 METAR WAPI 060000Z 22011KT 60000 BKN018 26/24 Q1009=  
06-Mar-2014 SAID35 WAPI 060100 METAR WAPI 060100Z 25007KT 9999 RA OVC 25/24 Q1010=  
06-Mar-2014 SAID35 WAPI 060200 METAR WAPI 060200Z 27008KT 60000 RA OVC 24/23 Q1010=  
06-Mar-2014 SAID35 WAPI 060300 METAR WAPI 060300Z 27005KT 9999 OVC010 24/24 Q1008=  
06-Mar-2014 SAID35 WAPI 060500 METAR WAPI 060500Z 27004KT 9999 BKN015 27/25 Q1007=  
06-Mar-2014 SAID35 WAPI 060600 METAR WAPI 060600Z 26009KT 9999 SCT018 27/24 Q1007=  
07-Mar-2014 SAID35 WAPI 070000 METAR WAPI 070000Z 23008KT 9999 SCT018 27/24 Q1011 NOSIG=  
07-Mar-2014 SAID35 WAPI 070600 METAR WAPI 070600Z 25004KT 9999 SCT018 27/25 Q1008 NOSIG=  
07-Mar-2014 SAID35 WAPI 072300 METAR WAPI 072300Z 31003KT 9999 SCT018 BKN030 26/25 Q1010 NOSIG=  
08-Mar-2014 SAID35 WAPI 080000 METAR WAPI 080000Z 28004KT 9999 SCT018 BKN030 27/26 Q1011 NOSIG=  
08-Mar-2014 SAID35 WAPI 080100 METAR WAPI 080100Z 24004KT 9999 RA SCT018 BKN030 28/26 Q1011 NOSIG=  
08-Mar-2014 SAID35 WAPI 080200 METAR WAPI 080200Z 23005KT 9999 SCT018 BKN030 28/26 Q1011 NOSIG=  
08-Mar-2014 SAID35 WAPI 080300 METAR WAPI 080300Z 15005KT 9999 SCT015 OVC030 27/25 Q1010=  
08-Mar-2014 SAID35 WAPI 080400 METAR WAPI 080400Z 24003KT 9999 SCT015 OVC030 28/26 Q1009=  
08-Mar-2014 SAID35 WAPI 080500 METAR WAPI 080500Z 25006KT 9999 SCT015 BKN030 29/25 Q1007 NOSIG=  
08-Mar-2014 SAID35 WAPI 080600 METAR WAPI 080600Z 27006KT 9999 SCT018 BKN030 29/25 Q1008 NOSIG=  
08-Mar-2014 SAID35 WAPI 082300 METAR WAPI 082300Z 00000KT 9999 SCT018 OVC030 26/25 Q1011=  
09-Mar-2014 SAID35 WAPI 090000 METAR WAPI 090000Z 27004KT 9999 SCT015 BKN030 27/26 Q1011 NOSIG=  
09-Mar-2014 SAID35 WAPI 090100 METAR WAPI 090100Z 28007KT 9999 SCT015 BKN030 30/26 Q1011 NOSIG=  
09-Mar-2014 SAID35 WAPI 090200 METAR WAPI 090200Z 28006KT 9999 SCT015 BKN030 30/26 Q1010 NOSIG=  
09-Mar-2014 SAID35 WAPI 090600 METAR WAPI 090600Z 30007KT 9999 SCT015 31/25 Q1009 NOSIG=  
10-Mar-2014 SAID35 WAPI 100000 METAR WAPI 100000Z 30008KT 9999 FEW017 28/26 Q1012 NOSIG=  
10-Mar-2014 SAID35 WAPI 100100 METAR WAPI 100100Z 28005KT 9999 FEW017 29/26 Q1012 NOSIG=  
10-Mar-2014 SAID35 WAPI 100200 METAR WAPI 100200Z 29006KT 9999 SCT018 31/26 Q1011 NOSIG=  
10-Mar-2014 SAID35 WAPI 100300 METAR WAPI 100300Z 30004KT 9999 SCT018 31/25 Q1011 NOSIG=  
10-Mar-2014 SAID35 WAPI 100400 METAR WAPI 100400Z 27008KT 9999 SCT018 32/25 Q1010 NOSIG=  
10-Mar-2014 SAID35 WAPI 100500 METAR WAPI 100500Z 28010KT 9999 SCT018 32/25 Q1009 NOSIG =  
10-Mar-2014 SAID35 WAPI 100600 METAR WAPI 100600Z 29010KT SCT017 32/25 Q1009 NOSIG=  
11-Mar-2014 SAID35 WAPI 110000 METAR WAPI 110000Z 29003KT 9999 FEW018 28/26 Q1012=  
11-Mar-2014 SAID35 WAPI 110100 METAR WAPI 110100Z 27008KT 9999 FEW018 29/26 Q1012 NOSIG=  
11-Mar-2014 SAID35 WAPI 110200 METAR WAPI 110200Z 26006KT 9999 FEW018 31/26 Q1012 NOSIG=  
11-Mar-2014 SAID35 WAPI 110300 METAR WAPI 110300Z 26007KT 9999 SCT018 30/26 Q1011 NOSIG=  
11-Mar-2014 SAID35 WAPI 110400 METAR WAPI 110400Z 25008KT 9999 SCT018 31/25 Q1010 NOSIG=  
11-Mar-2014 SAID35 WAPI 110500 METAR WAPI 110500Z 25007KT 9999 SCT018 30/25 Q1009 NOSIG=  
11-Mar-2014 SAID35 WAPI 110600 METAR WAPI 110600Z 2508KT 9999 BKN018 29/25 Q1009 NOSIG=  
11-Mar-2014 SAID35 WAPI 112300 METAR WAPI 112300Z 28005KT 9999 SCT017 27/24 Q1011 NOSIG=  
12-Mar-2014 SAID35 WAPI 120000 METAR WAPI 120000Z 32004KT 9999 SCT018 28/25 Q1011 NOSIG=  
12-Mar-2014 SAID35 WAPI 120100 METAR WAPI 120100Z 29005KT 9999 BKN017CB 30/25 Q1011 NOSIG=  
12-Mar-2014 SAID35 WAPI 120200 METAR WAPI 120200Z 24004KT 9999 BKN017CB 30/25 Q1011 NOSIG=  
12-Mar-2014 SAID35 WAPI 120300 METAR WAPI 120300Z 27006KT 9999 BKN017CB 30/26 Q1010 NOSIG=  
12-Mar-2014 SAID35 WAPI 120400 METAR WAPI 120400Z 25008KT 9999 BKN017CB 29/25 Q1008 NOSIG=  
12-Mar-2014 SAID35 WAPI 120500 METAR WAPI 120500Z 22006KT 9999 BKN017CB 30/25 Q1008 NOSIG=  
12-Mar-2014 SAID35 WAPI 120600 METAR WAPI 120600Z 24006KT 9999 SCT017CB 29/26 Q1007 NOSIG=  
13-Mar-2014 SAID35 WAPI 130000 METAR WAPI 130000Z 29003KT 9999 SET018 27/26 Q1011 NOSIG=  
13-Mar-2014 SAID35 WAPI 130100 METAR WAPI 130100Z 28006KT 9999 SET018 30/25 Q1011 NOSIG=  
13-Mar-2014 SAID35 WAPI 130200 METAR WAPI 130200Z 28005KT 9999 SET018 30/26 Q1011 NOSIG=  
13-Mar-2014 SAID35 WAPI 130300 METAR WAPI 130300Z 27007KTS 9999 BKN016 32/26 Q1010 NOSIG=  
13-Mar-2014 SAID35 WAPI 130600 METAR WAPI 130600Z 29004KT 9999 BKN018 29/25 Q1007 NOSIG=  
13-Mar-2014 SAID35 WAPI 132300 METAR WAPI 132300Z 23004KT 9999 FEW017 27/26 Q1012 NOSIG=  
14-Mar-2014 SAID35 WAPI 140000 METAR WAPI 140000Z 18003KT 9999 FEW017 27/26 Q1012 NOSIG=  
14-Mar-2014 SAID35 WAPI 140100 METAR WAPI 140100Z 30004KT 9999 FEW017 29/26 Q1012 NOSIG=  
14-Mar-2014 SAID35 WAPI 140200 METAR WAPI 140200Z 25004KT 9999 SCT018 31/26 Q1012 NOSIG=  
14-Mar-2014 SAID35 WAPI 140300 METAR WAPI 140300Z 23007KT 9999 SCT018CB 31/26 Q1011 NOSIG=  
14-Mar-2014 SAID35 WAPI 140400 METAR WAPI 140400Z 24005KT 9999 SCT018 31/25 Q1010 NOSIG=  
14-Mar-2014 SAID35 WAPI 140500 METAR WAPI 140500Z 23010KT 9999 BKN018CB 31/26 Q1010 NOSIG=  
14-Mar-2014 SAID35 WAPI 140600 METAR WAPI 140600Z 25007KT 9999 SCT018CB 32/27 Q1010 NOSIG=  
15-Mar-2014 SAID35 WAPI 150000 METAR WAPI 150000Z 28003KT 9999 SCT015 BKN030 29/26 Q1012 NOSIG=  
15-Mar-2014 SAID35 WAPI 150100 METAR WAPI 150100Z 29003KT 9999 BKN015 30/26 Q1012 NOSIG=  
15-Mar-2014 SAID35 WAPI 150200 METAR WAPI 150200Z 24005KT 9999 BKN015 31/26 Q1012 NOSIG=  
15-Mar-2014 SAID35 WAPI 150300 METAR WAPI 150300Z 28007KT 9999 BKN015 32/26 Q1011 NOSIG=  
15-Mar-2014 SAID35 WAPI 150400 METAR WAPI 150400Z 24008KT 9999 BKN015 32/26 Q1010 NOSIG=  
15-Mar-2014 SAID35 WAPI 150500 METAR WAPI 150500Z 28007KT 9999 BKN015 33/25 Q1009 NOSIG=  
15-Mar-2014 SAID35 WAPI 150600 METAR WAPI 150600Z 28009KT 9999 BKN015 32/26 Q1008 NOSIG=  
15-Mar-2014 SAID35 WAPI 152300 METAR WAPI 152300Z 28006KT 9999 FEW015 28/26 Q1012 NOSIG=  
16-Mar-2014 SAID45 WAPI 160000 METAR WAPI 160000Z 27008KT 9999 SCT018 29/26 Q1012 NOSIG=  
16-Mar-2014 SAID45 WAPI 160100 METAR WAPI 160100Z 27007KT 9999 SCT018 30/26 Q1012 NOSIG=  
16-Mar-2014 SAID45 WAPI 160200 METAR WAPI 160200Z 31006KT 9999 BKN018 30/25 Q1012 NOSIG=  
16-Mar-2014 SAID45 WAPI 160300 METAR WAPI 160300Z 27008KT 9999 BKN018 32/25 Q1011 NOSIG=  
16-Mar-2014 SAID35 WAPI 160400 METAR WAPI 160400Z 27009KT 9999 BKN015 32/25 Q1010 NOSIG=  
16-Mar-2014 SAID35 WAPI 160600 METAR WAPI 160600Z 26008KT 9999 BKN015 31/26 Q1010 NOSIG=  
16-Mar-2014 SAID35 WAPI 162300 METAR WAPI 162300Z 29003KT 9999 FEW017 27/26 Q1011 NOSIG=  
17-Mar-2014 SAID35 WAPI 170200 METAR WAPI 170200Z 9999 BKN015 30/26 Q1011 NOSIG=  
17-Mar-2014 SAID35 WAPI 170300 METAR WAPI 170300Z 9999 OVC 30/26 Q1011 NOSIG=  
17-Mar-2014 SAID35 WAPI 170400 METAR WAPI 170400Z 26005KT 9999 -RA OVC 27/23 Q1010=  
17-Mar-2014 SAID35 WAPI 170500 METAR WAPI 170500Z 28004KT 9999 RA OVE 28/26 Q1010 NOSIG=  
17-Mar-2014 SAID35 WAPI 172300 METAR WAPI 172300Z 29006KT 9999 FEW017 25/24 Q1010 NOSIG=  
18-Mar-2014 SAID35 WAPI 180000 METAR WAPI 180000Z 30005KT 9999 BKN015 26/23 Q1010=  
18-Mar-2014 SAID35 WAPI 180100 METAR WAPI 180100Z 26003KT 9999 BKN015 28/24 Q1011 NOSIG=  
18-Mar-2014 SAID35 WAPI 180200 METAR WAPI 180200Z 29003KT 9999 SCT013 29/24 Q1010 NOSIG=  
18-Mar-2014 SAID35 WAPI 180300 METAR WAPI 180300Z 29003KT 9999 SCT013 31/24 Q1010 NOSIG=  
18-Mar-2014 SAID35 WAPI 180400 METAR WAPI 180400Z 27004KT 9999 BKN017 31/24 Q1009 NOSIG=  
18-Mar-2014 SAID35 WAPI 180500 METAR WAPI 180500Z 28006KT 9999 BKN017 30/25 Q1008 NOSIG=  
18-Mar-2014 SAID35 WAPI 180600 METAR WAPI 180600Z 15004KT 8000 RA BKN010 27/26 Q1008 NOSIG=  
18-Mar-2014 SAID35 WAPI 182300 METAR WAPI 182300Z 08004KT 9999 SCT016 28/25 A1010=  
19-Mar-2014 SAID35 WAPI 190300 METAR WAPI 190300Z 10007KT 9999 BKN015 31/26 Q1010 NOSIG=  
19-Mar-2014 SAID35 WAPI 192300 METAR WAPI 192300Z 09005KT 9999 SCT017 28/25 Q1009=  
20-Mar-2014 SAID35 WAPI 200000 METAR WAPI 200000Z 11005KT 9999 BKN015 29/24 Q1010 NOSIG=  
20-Mar-2014 SAID35 WAPI 200100 METAR WAPI 200100Z 11006KT 9999 BKN015 31/24 Q1010 NOSIG=  
20-Mar-2014 SAID35 WAPI 200200 METAR WAPI 200200Z 11007KT 9999 SCT015 31/24 Q1009 NOSIG=  
20-Mar-2014 SAID35 WAPI 200300 METAR WAPI 200300Z 09006KT 9999 BKN015 31/24 Q1009 NOSIG=  
20-Mar-2014 SAID35 WAPI 200400 METAR WAPI 200400Z 12007KT 9999 SCT015 31/23 Q1008 NOSIG=  
20-Mar-2014 SAID35 WAPI 200500 METAR WAPI 200500Z 10006KT 9999 SCT015 31/24 Q1007 NOSIG=  
20-Mar-2014 SAID35 WAPI 200600 METAR WAPI 200600Z 11008KT 9999 SCT015 31/24 Q1006 NOSIG=  
20-Mar-2014 SAID35 WAPI 202300 METAR WAPI 202300Z 00000KT 9999 FEW015 26/24 Q1009 NOSIG=  
21-Mar-2014 SAID35 WAPI 210000 METAR WAPI 210000Z 13004KT 9999 FEW015 BKN075 28/24 Q1010 NOSIG=  
21-Mar-2014 SAID35 WAPI 210100 METAR WAPI 210100Z 14003KT 9999 FEW010 BKN075 30/25 Q1009 NOSIG=  
21-Mar-2014 SAID35 WAPI 210200 METAR WAPI 210200Z 13005KT 9999 FEW010 BKN075 30/24 Q1009 NOSIG=  
21-Mar-2014 SAID35 WAPI 210300 METAR WAPI 210300Z 13004KT 9999 FEW018 31/25 Q1008 NOSIG=  
21-Mar-2014 SAID35 WAPI 210400 METAR WAPI 210400Z 15004KT 9999 BKN015 31/25 Q1007 NOSIG=  
21-Mar-2014 SAID35 WAPI 210500 METAR WAPI 210400Z 16007KT 9999 BKN015 31/24 Q1006 NOSIG=  
22-Mar-2014 SAID35 WAPI 220000 METAR WAPI 220000Z 29003KT 9999 BKN015 29/25 Q1010 NOSIG=  
22-Mar-2014 SAID35 WAPI 220100 METAR WAPI 220100Z 22004KT 9999 BKN015 30/25 Q1010 NOSIG=  
22-Mar-2014 SAID35 WAPI 220200 METAR WAPI 220200Z 22006KT 9999 BKN015 30/26 Q1009 NOSIG=  
22-Mar-2014 SAID35 WAPI 220300 METAR WAPI 220300Z 22009KT 9999 BKN015 31/25 Q1009 NOSIG=  
22-Mar-2014 SAID35 WAPI 222300 METAR WAPI 222300Z 22004KT 9999 BKN016 28/26 Q1010=  
23-Mar-2014 SAID35 WAPI 230000 METAR WAPI 230000Z 22006KT 9999 BKN015 29/26 Q1011 NOSIG=  
23-Mar-2014 SAID35 WAPI 230100 METAR WAPI 230100Z 22006KT 9999 BKN015 30/26 Q1011 NOSIG=  
23-Mar-2014 SAID35 WAPI 230200 METAR WAPI 230200Z 21007KT 9999 BKN015 30/26 Q1011 NOSIG=  
23-Mar-2014 SAID35 WAPI 230300 METAR WAPI 230300Z 20007KT 9999 BKN015 32/26 Q1010 NOSIG=  
24-Mar-2014 SAID35 WAPI 240500 METAR WAPI 240500Z 28005KT 8000 TS BKN005 5CB 0V030 27/25 Q1008 NOSIG=  
24-Mar-2014 SAID35 WAPI 240600 METAR WAPI 240600Z 29005KT 9999 SCT010CB OVC025 27/25 Q1007=  
24-Mar-2014 SAID35 WAPI 242300 METAR WAPI 242300Z 00000KT 9999 SCT010CB OVC030 26/25 Q1010 NOSIG=  
25-Mar-2014 SAID35 WAPI 250000 METAR WAPI 250000Z 00000KT 9999 FEW010 OVC030 26/25 Q1010 NOSIG=  
25-Mar-2014 SAID35 WAPI 250200 METAR WAPI 250200Z 00000KT 9999 OVC030 28/25 Q1011 NOSIG=  
25-Mar-2014 SAID35 WAPI 250300 METAR WAPI 250300Z 00000KT 9999 FEW010 OVC030 29/26 Q1010=  
25-Mar-2014 SAID35 WAPI 250400 METAR WAPI 250400Z 25005KT 9999 SCT015 BKN030 30/26 Q1008 NOSIG=  
25-Mar-2014 SAID35 WAPI 250500 METAR WAPI 250500Z 22007KT 9999 SCT015 BKN030 31/26 Q1007 NOSIG=  
25-Mar-2014 SAID35 WAPI 250600 METAR WAPI 250600Z 22012KT 9999 FEW010CB BKN030 30/25 Q1007=  
25-Mar-2014 SAID35 WAPI 251200 METAR WAPI 251200Z 00000KT 9999 FEW010 BKN075 28/26 Q1009=  
25-Mar-2014 SAID35 WAPI 252300 METAR WAPI 252300Z 00000KT 9999 FEW010 SCT030 27/26 Q1011 NOSIG=  
26-Mar-2014 SAID35 WAPI 260000 METAR WAPI 260000Z 23003KT 9999 SCT010 BKN030 28/26 Q1011 NOSIG=  
26-Mar-2014 SAID35 WAPI 260100 METAR WAPI 260100Z 24005KT 9999 BKN015 29/26 Q1012 NOSIG=  
26-Mar-2014 SAID35 WAPI 260200 METAR WAPI 260200Z 23005KT 9999 BKN015 30/26 Q1011 NOSIG=  
26-Mar-2014 SAID35 WAPI 260300 METAR WAPI 260300Z 23006KT 9999 BKN015 31/26 Q1010 NOSIG=  
26-Mar-2014 SAID35 WAPI 260400 METAR WAPI 260400Z 23006KT 9999 BKN015 31/26 Q1009 NOSIG=  
26-Mar-2014 SAID35 WAPI 260500 METAR WAPI 260500Z 00000KT 9999 BKN015 31/25 Q1008 NOSIG=  
26-Mar-2014 SAID35 WAPI 260600 METAR WAPI 260600Z 00000KT 9999 SCT015 31/26 Q1008 NOSIG=  
26-Mar-2014 SAID35 WAPI 261200 METAR WAPI 261200Z 16004KT 9999 FEW010 28/25 Q1010 NOSIG=  
26-Mar-2014 SAID35 WAPI 262300 METAR WAPI 262300Z 10003KT 9999 SCT018 28/25 Q1010 NOSIG=  
27-Mar-2014 SAID35 WAPI 270000 METAR WAPI 270000Z 11006KT 9999 SCT090 30/26 Q1010 NOSIG=  
27-Mar-2014 SAID35 WAPI 270100 METAR WAPI 270100Z 11006KT 9999 SCT090 30/25 Q1008 NOSIG=  
27-Mar-2014 SAID35 WAPI 270200 METAR WAPI 270200Z 13007KT 9999 SCT090 31/26 Q1010 NOSIG=  
27-Mar-2014 SAID35 WAPI 270300 METAR WAPI 270300Z 13007KT 9999 SCT090 32/26 Q1009 NOSIG=  
27-Mar-2014 SAID35 WAPI 270400 METAR WAPI 270400Z 12008KT 9999 SCT018 32/26 Q1009 NOSIG=  
27-Mar-2014 SAID35 WAPI 270500 METAR WAPI 270500Z 12010KT 9999 SCT018 32/25 Q1008 NOSIG=  
27-Mar-2014 SAID35 WAPI 270600 METAR WAPI 270600Z 11008KT 9999 SCT015 31/24 Q1007 NOSIG=  
27-Mar-2014 SAID35 WAPI 271200 METAR WAPI 271200Z 00000KT 9999 FEW0150 28/24 Q1010 NOSIG=  
27-Mar-2014 SAID35 WAPI 272300 METAR WAPI 272300Z 13003KT 9999 FEW010 28/24 Q1011 NOSIG=  
28-Mar-2014 SAID35 WAPI 280000 METAR WAPI 280000Z 08004KT 9999 SCT010CB 29/26 Q1012 NOSIG=  
28-Mar-2014 SAID35 WAPI 280100 METAR WAPI 280100Z 13006KT 9999 FEW010 31/24 Q1011 NOSIG=  
28-Mar-2014 SAID35 WAPI 280200 METAR WAPI 280200Z 13007KT 9999 FEW010 31/24 Q1011 NOSIG=  
28-Mar-2014 SAID35 WAPI 280300 METAR WAPI 280300Z 12006KT 9999 SCT010 32/25 Q1010 NOSIG=  
28-Mar-2014 SAID35 WAPI 280600 METAR WAPI 280600Z 13005KT 9999 SCT010 32/24 Q1009 NOSIG=  
28-Mar-2014 SAID35 WAPI 282300 METAR WAPI 282300Z 09003KT 9999 BKN018 28/25 Q1011 NOSIG=  
29-Mar-2014 SAID35 WAPI 290000 METAR WAPI 290000Z 08004KT 9999 SCT010CB 29/26 Q1012 NOSIG=  
29-Mar-2014 SAID35 WAPI 290100 METAR WAPI 290100Z 11006KT 9999 BKN015 31/26 Q1012 NOSIG=  
29-Mar-2014 SAID35 WAPI 290200 METAR WAPI 290200Z 08007KT 9999 BKN015 31/25 Q1011 NOSIG=  
29-Mar-2014 SAID35 WAPI 290300 METAR WAPI 290300Z 12006KT 9999 SCT015 32/27 Q1010 NOSIG=  
29-Mar-2014 SAID35 WAPI 290400 METAR WAPI 290400Z 12005KT 9999 BKN015 31/25 Q1010=  
29-Mar-2014 SAID35 WAPI 290500 METAR WAPI 290500Z 13008KT 9999 SCT015 32/26 Q1008 NOSIG=  
29-Mar-2014 SAID35 WAPI 290600 METAR WAPI 290600Z 11007KT 9999 FEW010 32/26 Q1008 NOSIG=  
29-Mar-2014 SAID35 WAPI 291200 METAR WAPI 291200Z 10004KT 9999 FEW010 28/25 Q1010 NOSIG=  
29-Mar-2014 SAID35 WAPI 292300 METAR WAPI 292300Z 05004KT 9999 SCT018 28/26 Q1011=  
30-Mar-2014 SAID35 WAPI 300000 METAR WAPI 300000Z 07004KT 9999 BKN016 29/24 Q1012=  
30-Mar-2014 SAID35 WAPI 300100 METAR WAPI 300100Z 05008KT 9999 BKN016 31/25 Q1012=  
30-Mar-2014 SAID35 WAPI 300200 METAR WAPI 300200Z 06007KT 9999 BKN016 31/25 Q1012=  
30-Mar-2014 SAID35 WAPI 300300 METAR WAPI 300300Z 05007KT 9999 BKN075 32/26 Q1012 NOSIG=  
30-Mar-2014 SAID35 WAPI 300500 METAR WAPI 300500Z 07005KT 9999 BKN016 32/26 Q1010 NOSIG=  
30-Mar-2014 SAID35 WAPI 300900 METAR WAPI 300900Z 12007KT 9999 FEW010 30/25 Q1009 NOSIG=  
30-Mar-2014 SAID35 WAPI 301200 METAR WAPI 301200Z 12003KT 9999 FEW010 28/25 Q1010 NOSIG=  
30-Mar-2014 SAID35 WAPI 302100 METAR WAPI 302100Z 09005KT 9999 FEW018 28/25 Q1010 NOSIG=  
30-Mar-2014 SAID35 WAPI 302300 METAR WAPI 302300Z 08003KT 9999 FEW010 28/26 Q1010 NOSIG=  
31-Mar-2014 SAID35 WAPI 310000 METAR WAPI 310000Z 08006KT 9999 FEW015 30/27 Q1011 NOSIG=  
31-Mar-2014 SAID35 WAPI 310100 METAR WAPI 310100Z 11006KT 9999 FEW015 32/26 Q1011 NOSIG=  
31-Mar-2014 SAID35 WAPI 310200 METAR WAPI 310200Z 13008KT 9999 FEW015 32/26 Q1010 NOSIG=  
31-Mar-2014 SAID35 WAPI 310300 METAR WAPI 310300Z 13009KT 9999 FEW015 32/28 Q1010 NOSIG=  
31-Mar-2014 SAID35 WAPI 310500 METAR WAPI 310500Z 13008KT 9999 BKN018 32/26 Q1008 NOSIG=  
31-Mar-2014 SAID35 WAPI 310600 METAR WAPI 310600Z 14008KT 9999 FEW010CB 31/26 Q1008 NOSIG=  
31-Mar-2014 SAID35 WAPI 312300 METAR WAPI 312300Z 09005KT 9999 SCT015 29/25 Q1009 NOSIG=  
01-Apr-2014 SAID35 WAPI 010000 METAR WAPI 010000Z 08006KT 9999 SCT015 31/25 Q1010 NOSIG=  
01-Apr-2014 SAID35 WAPI 010100 METAR WAPI 010100Z 10007KT 9999 SCT015 32/26 Q1010 NOSIG=  
01-Apr-2014 SAID35 WAPI 010200 METAR WAPI 010200Z 13007KT 9999 SCT015 32/27 Q1009 NOSIG=  
01-Apr-2014 SAID35 WAPI 010300 METAR WAPI 010300Z 12007KT 9999 SCT015 32/26 Q1008 NOSIG=  
01-Apr-2014 SAID35 WAPI 012100 METAR WAPI 012100Z 11004KT 9999 FEW010 28/25 Q1008 NOSIG=  
02-Apr-2014 SAID35 WAPI 020000 METAR WAPI 020000Z 11006KT 9999 SCT015 31/26 Q1009 NOSIG=  
02-Apr-2014 SAID35 WAPI 020100 METAR WAPI 020100Z 11007KT 9999 SCT015 32/26 Q1009 NOSIG=  
02-Apr-2014 SAID35 WAPI 020200 METAR WAPI 020200Z 12007KT 9999 SCT015 32/26 Q1009 NOSIG=  
02-Apr-2014 SAID35 WAPI 020300 METAR WAPI 020300Z 12008KT 9999 BKN015 32/26 Q1008 NOSIG=  
02-Apr-2014 SAID35 WAPI 020600 METAR WAPI 020600Z 12006KT 9999 BKN015 32/26 Q1006 NOSIG=  
02-Apr-2014 SAID35 WAPI 022300 METAR WAPI 022300Z 00000KT 9999 BKN015 26/25 Q1011=  
03-Apr-2014 SAID35 WAPI 030100 METAR WAPI 030100Z 16005KT 9999 BKN015 30/26 Q1011 NOSIG=  
03-Apr-2014 SAID35 WAPI 030200 METAR WAPI 030200Z 12007KT 9999 BKN015 29/26 Q1011 NOSIG=  
03-Apr-2014 SAID35 WAPI 030300 METAR WAPI 030300Z 13008KT 9999 BKN015 29/26 Q1010 NOSIG=  
03-Apr-2014 SAID35 WAPI 030400 METAR WAPI 030400Z 14005KT 9999 BKN015 29/26 Q1009 NOSIG=  
03-Apr-2014 SAID35 WAPI 030500 METAR WAPI 030500Z 00000KT 9999 SCT010 OVC030 28/25 Q1008=  
03-Apr-2014 SAID35 WAPI 030600 METAR WAPI 030600Z 00000KT 9999 SCT010 OVC030 28/25 Q1008=  
04-Apr-2014 SAID35 WAPI 040000 METAR WAPI 040000Z 08005KT 9999 FEW010 29/25 Q1010 NOSIG=  
04-Apr-2014 SAID35 WAPI 040100 METAR WAPI 040100Z 09004KT 9999 FEW010 30/26 Q1010 NOSIG=  
04-Apr-2014 SAID35 WAPI 040200 METAR WAPI 040200Z 09007KT 9999 SCT010 31/26 Q1010 NOSIG=  
04-Apr-2014 SAID35 WAPI 040300 METAR WAPI 040300Z 09006KT 9999 BKN015 31/26 Q1009 NOSIG=  
04-Apr-2014 SAID33 WAMM 040500 METAR WAPI 040500Z 11008KT 9999 BKN010 31/25 Q1007 NOSIG=  
04-Apr-2014 SAID35 WAPI 040600 METAR WAPI 040600Z 10008KT 9999 SCT015 32/26 Q1007 NOSIG=  
05-Apr-2014 SAID35 WAPI 050000 METAR WAPI 050000Z 06005KT 9999 SCT015 30/26 Q1010 NOSIG=  
05-Apr-2014 SAID35 WAPI 050100 METAR WAPI 050100Z 07005KT 9999 SCT015 31/27 Q1011 NOSIG=  
05-Apr-2014 SAID35 WAPI 050200 METAR WAPI 050200Z 08005KT 9999 SCT015 31/27 Q1010 NOSIG=  
05-Apr-2014 SAID35 WAPI 050300 METAR WAPI 050300Z 08006KT 9999 BKN015 31/26 Q1010 NOSIG=  
05-Apr-2014 SAID35 WAPI 050400 METAR WAPI 050400Z 11005KT 9999 SCT015 31/26 Q1009 NOSIG=  
05-Apr-2014 SAID35 WAPI 050600 METAR WAPI 050600Z 10007KT 9999 SCT015 31/25 Q1008 NOSIG=  
06-Apr-2014 SAID35 WAPI 060000 METAR WAPI 060000Z 00000KT 9999 FEW010 29/26 Q1012 NOSIG=  
06-Apr-2014 SAID35 WAPI 060200 METAR WAPI 060200Z 14004KT 9999 FEW015 31/25 Q1010 NOSIG=  
06-Apr-2014 SAID35 WAPI 060300 METAR WAPI 060300Z 10005KT 9999 FEW015 32/26 Q1010 NOSIG=  
06-Apr-2014 SAID35 WAPI 060600 METAR WAPI 060600Z 14006KT 9999 BKN015 32/25 Q1008 NOSIG=  
06-Apr-2014 SAID35 WAPI 062300 METAR WAPI 062300Z 26004KT 9999 SCT010 26/26 Q1010 NOSIG=  
07-Apr-2014 SAID35 WAPI 070000 METAR WAPI 070000Z 21005KT 9999 SCT010 27/26 Q1011 NOSIG=  
07-Apr-2014 SAID35 WAPI 070100 METAR WAPI 070100Z 23004KT 9999 SCT010 29/26 Q1012 NOSIG=  
07-Apr-2014 SAID35 WAPI 070200 METAR WAPI 070200Z 24005KT 9999 SCT015 30/26 Q1011 NOSIG=  
07-Apr-2014 SAID35 WAPI 070300 METAR WAPI 070300Z 24006KT 9999 SCT015 31/27 Q1010 NOSIG=  
07-Apr-2014 SAID35 WAPI 070400 METAR WAPI 070400Z 23006KT 9999 SCT015 32/27 Q1009 NOSIG=  
07-Apr-2014 SAID35 WAPI 070500 METAR WAPI 070500Z 23005KT 9999 SCT015 32/25 Q1008 NOSIG=  
07-Apr-2014 SAID35 WAPI 070600 METAR WAPI 070600Z 22007KT 9999 FEW010CB 31/26 Q1007=  
08-Apr-2014 SAID35 WAPI 080000 METAR WAPI 080000Z 22004KT 9999 SCT015 29/26 Q1009 NOSIG=  
08-Apr-2014 SAID35 WAPI 080100 METAR WAPI 080100Z 23005KT 9999 BKN015 29/25 Q1009 NOSIG=  
08-Apr-2014 SAID35 WAPI 080200 METAR WAPI 080200Z 23006KT 9999 BKN015 30/26 Q1009 NOSIG=  
08-Apr-2014 SAID35 WAPI 080300 METAR WAPI 080300Z 22007KT 9999 BKN015 30/26 Q1008 NOSIG=  
08-Apr-2014 SAID35 WAPI 080600 METAR WAPI 080600Z 32005KT 9999 BKN015 27/25 Q1007 NOSIG=  
09-Apr-2014 SAID35 WAPI 090000 METAR WAPI 090000Z 00000KT 9999 SCT018 27/26 Q1010 NOSIG=  
09-Apr-2014 SAID35 WAPI 090100 METAR WAPI 090100Z 00000KT 9999 SCT018 28/24 Q1010 NOSIG=  
09-Apr-2014 SAID35 WAPI 090200 METAR WAPI 090200Z 00000KT 9999 FEW015 29/27 Q1010 NOSIG=  
09-Apr-2014 SAID35 WAPI 090300 METAR WAPI 090300Z 00000KT 9999 OVC 29/26 Q1010 NOSIG=  
09-Apr-2014 SAID35 WAPI 090400 METAR WAPI 090400Z 28008KT 9999 SCT015 OVC030 29/26 Q1009=  
09-Apr-2014 SAID35 WAPI 090500 METAR WAPI 090500Z 30003KT 9999 SCT015 BKN030 29/24 Q1009=  
09-Apr-2014 SAID35 WAPI 090600 METAR WAPI 090600Z 30004KT 9999 SCT015 BKN030 30/26 Q1007=  
09-Apr-2014 SAID35 WAPI 092300 METAR WAPI 092300Z 00000KT 9999 FEW010 BKN030 27/26 Q1011 NOSIG=  
10-Apr-2014 SAID35 WAPI 100000 METAR WAPI 100000Z 26003KT 9999 FEW010 BKN030 28/26 Q1011 NOSIG=  
10-Apr-2014 SAID35 WAPI 100100 METAR WAPI 100100Z 24005KT 9999 FEW010 BKN030 29/26 Q1012 NOSIG=  
10-Apr-2014 SAID35 WAPI 100200 METAR WAPI 100200Z 24004KT 9999 FEW010 BKN030 29/26 Q1011 NOSIG=  
10-Apr-2014 SAID35 WAPI 100300 METAR WAPI 100300Z 24005KT 9999 FEW010CB BKN030 31/27 Q1010=  
10-Apr-2014 SAID35 WAPI 102300 METAR WAPI 102300Z 00000KT 9999 FEW010 26/25 Q1009 NOSIG=  
11-Apr-2014 SAID35 WAPI 110000 METAR WAPI 110000Z 00000KT 9999 FEW010 28/26 Q1010 NOSIG=  
11-Apr-2014 SAID35 WAPI 110100 METAR WAPI 110100Z 24004KT 9999 FEW010 29/26 Q1010 NOSIG=  
11-Apr-2014 SAID35 WAPI 110200 METAR WAPI 110200Z 22005KT 9999 FEW015 BKN030 30/26 Q1010 NOSIG=  
11-Apr-2014 SAID35 WAPI 110300 METAR WAPI 110300Z 24005KT 9999 FEW015 SCT030 31/27 Q1009 NOSIG=  
11-Apr-2014 SAID35 WAPI 110400 METAR WAPI 110400Z 24006KT 9999 FEW015 SCT030 31/27 Q1008 NOSIG=  
11-Apr-2014 SAID35 WAPI 110500 METAR WAPI 110500Z 00000KT 9999 FEW010CB SCT030 31/26 Q1007=  
11-Apr-2014 SAID35 WAPI 110600 METAR WAPI 110600Z 24009KT 9999 FEW010CB BKN030 30/25 Q1006 NOSIG=  
12-Apr-2014 SAID35 WAPI 120000 METAR WAPI 120000Z 27006KT 9999 FEW018 30/26 Q1009 NOSIG=  
12-Apr-2014 SAID35 WAPI 120300 METAR WAPI 120300Z 25006KT 9999 FEW017 32/26 Q1008 NOSIG=  
12-Apr-2014 SAID35 WAPI 120600 METAR WAPI 120600Z 24006KT 9999 BKN015CB 33/27 Q1006 NOSIG=  
12-Apr-2014 SAID35 WAPI 122300 METAR WAPI 122300Z 00000KT 9999 FEW010 28/26 Q1010 NOSIG=  
13-Apr-2014 SAID35 WAPI 130000 METAR WAPI 130000Z 24003KT 9999 FEW010 30/26 Q1010 NOSIG=  
13-Apr-2014 SAID35 WAPI 130100 METAR WAPI 130100Z 00000KT 9999 SCT015 32/26 Q1010 NOSIG=  
16-Apr-2014 SAID35 WAPI 160300 METAR WAPI 160300Z 11009KT 9999 SET018 31/24 Q1010 NOSIG=  
16-Apr-2014 SAID35 WAPI 160600 METAR WAPI 160600Z 09008KT 9999 SCT018 32/25 Q1007 NOSIG=  
19-Apr-2014 SAID35 WAPI 190600 METAR WAPI 190600Z 14006KT 9999 SCT075 31/25 Q1007=  
19-Apr-2014 SAID35 WAPI 192300 METAR WAPI 192300Z 15003KT 9999 FEW010CB FEW015 26/25 Q1009 NOSIG=  
20-Apr-2014 SAID35 WAPI 200000 METAR WAPI 200000Z 17003KT 9999 FEW010CB SCT030 28/26 Q1009 NOSIG=  
20-Apr-2014 SAID35 WAPI 200200 METAR WAPI 200200Z 09007KT 9999 FEW010CB SCT030 31/25 Q1009 NOSIG=  
20-Apr-2014 SAID35 WAPI 200300 METAR WAPI 200300Z 12007KT 9999 FEW010CB SCT030 31/25 Q1008 NOSIG=  
20-Apr-2014 SAID35 WAPI 200400 METAR WAPI 200400Z 11005KT 9999 SCT017 31/25 Q1007 NOSIG=  
20-Apr-2014 SAID35 WAPI 200500 METAR WAPI 200500Z 10009KT 9999 FEW017 32/25 Q1007 NOSIG=  
20-Apr-2014 SAID35 WAPI 200600 METAR WAPI 200600Z 10006KT 9999 FEW010 SCT030 30/25 Q1007 NOSIG=  
20-Apr-2014 SAID35 WAPI 202300 METAR WAPI 202300Z 12005KT 9999 BKNO15 OVC030 26/25 Q1009=  
21-Apr-2014 SAID35 WAPI 210000 METAR WAPI 210000Z 13008KT 9999 BKNO15 OVC030 26/25 Q1009=  
21-Apr-2014 SAID35 WAPI 210100 METAR WAPI 210100Z 13006KT 9999 BKNO15 OVC030 27/24 Q1009=  
21-Apr-2014 SAID35 WAPI 210300 METAR WAPI 210300Z 10012KT 1000 BKNO15 OVC030 RA 27/25 Q1008=  
21-Apr-2014 SAID35 WAPI 210400 METAR WAPI 210400Z 10007KT 8000 RETS BKNO15CB OVC030 26/25 Q1008=  
21-Apr-2014 SAID35 WAPI 210500 METAR WAPI 210500Z 13006KT 8000 RA BKNO15CB OVC030 26/25 Q1008=  
21-Apr-2014 SAID35 WAPI 210600 METAR WAPI 210600Z 10005KT 8000 RA BKNO15CB OVC030 26/26 Q1007=  
21-Apr-2014 SAID35 WAPI 212300 METAR WAPI 212300Z 14007KT 9999 OVC010 27/25 Q1008=  
22-Apr-2014 SAID35 WAPI 220000 METAR WAPI 220000Z 10008KT 9999 OVC010 28/25 Q1009=  
22-Apr-2014 SAID35 WAPI 220100 METAR WAPI 220100Z 12006KT 9999 BKN015 28/25 Q1009 =  
22-Apr-2014 SAID35 WAPI 220200 METAR WAPI 220200Z 12007KT 9999 BKN015 29/26 Q1009=  
22-Apr-2014 SAID35 WAPI 220300 METAR WAPI 220300Z 10005KT RA BKN012 29/26 Q1008 =  
22-Apr-2014 SAID35 WAPI 220600 METAR WAPI 220600Z 26004KT 9999 BKN010 28/26 Q1005=  
22-Apr-2014 SAID35 WAPI 222300 METAR WAPI 222300Z 26006KT 9999 RA FEW010CB OVC030 27/26 Q1008=  
23-Apr-2014 SAID35 WAPI 230000 METAR WAPI 230000Z 27005KT 9999 RA FEW010CB OVC030 27/26 Q1009=  
23-Apr-2014 SAID35 WAPI 230100 METAR WAPI 230100Z 25007KT 9999 FEW018 OVC030 27/26 Q1008=  
23-Apr-2014 SAID35 WAPI 230200 METAR WAPI 230200Z 23007KT 9999 FEW018 OVC030 29/26 Q1009=  
23-Apr-2014 SAID35 WAPI 230300 METAR WAPI 230300Z 23007KT 9999 FEW018 OVC030 28/25 Q1008=  
23-Apr-2014 SAID35 WAPI 230400 METAR WAPI 230400Z 24007KT 9999 FEW018 OVC030 28/26 Q1007=  
23-Apr-2014 SAID35 WAPI 230600 METAR WAPI 230600Z 25007KT 9999 RA SCT018 OVC030 27/26 Q1005=  
23-Apr-2014 SAID35 WAPI 232300 METAR WAPI 232300Z 28003KT 9999 SCT015 OVC030 27/27 Q1009=  
24-Apr-2014 SAID35 WAPI 240000 METAR WAPI 240000Z 28009KT 9999 SCT015 OVC030 28/27 Q1009 NOSIG=  
24-Apr-2014 SAID35 WAPI 240100 METAR WAPI 240100Z 27007KT 9999 SCT015 OVC030 28/27 Q1010 NOSIG=  
24-Apr-2014 SAID35 WAPI 240200 METAR WAPI 240200Z 28005KT 9999 SCT015 OVC030 28/27 Q1010 NOSIG=  
24-Apr-2014 SAID35 WAPI 240300 METAR WAPI 240300Z 26004KT 9999 RA SCT015 OVC030 28/27 Q1009=  
24-Apr-2014 SAID35 WAPI 240400 METAR WAPI 240400Z 19005KT 9999 RA SCT018 OVC030 26/25 Q1009=  
24-Apr-2014 SAID35 WAPI 240500 METAR WAPI 240500Z 27003KT 9999 RA SCT015 BKN030 25/25 Q1008=  
24-Apr-2014 SAID35 WAPI 240600 METAR WAPI 240600Z 0000KT 9999 SCT015 BKN030 26/24 Q1007=  
25-Apr-2014 SAID35 WAPI 250000 METAR WAPI 250000Z 0000KT 9999 FEW015 BKN030 29/27 Q1010=  
25-Apr-2014 SAID35 WAPI 250100 METAR WAPI 250100Z 25006KT 9999 SCT010 BKN030 30/26 Q1010=  
25-Apr-2014 SAID35 WAPI 250200 METAR WAPI 250200Z 24008KT 9999 SCT010 BKN030 30/26 Q1009=  
25-Apr-2014 SAID35 WAPI 250300 METAR WAPI 250300Z 23006KT 9999 FEW010 30/27 Q1009 NOSIG=  
25-Apr-2014 SAID35 WAPI 250400 METAR WAPI 250400Z 24007KT 9999 FEW010 30/26 Q1008 NOSIG=  
25-Apr-2014 SAID35 WAPI 250500 METAR WAPI 250500Z 22005KT 9999 FEW010 30/25 Q1007 NOSIG=  
25-Apr-2014 SAID35 WAPI 250600 METAR WAPI 250600Z 22009KT 9999 FEW010 30/26 Q1006 NOSIG=  
26-Apr-2014 SAID35 WAPI 261200 METAR WAPI 261200Z 28003KT 9999 FEW010 28/26 Q1010 NOSIG=  
26-Apr-2014 SAID35 WAPI 262300 METAR WAPI 262300Z 00000KT 9999 FEW010 28/25 Q1011 NOSIG=  
27-Apr-2014 SAID35 WAPI 270000 METAR WAPI 270000Z 32003KT 9999 FEW010 29/26 Q1011 NOSIG=  
27-Apr-2014 SAID35 WAPI 270100 METAR WAPI 270100Z 21005KT 9999 FEW010 30/25 Q1012 NOSIG=  
27-Apr-2014 SAID35 WAPI 270200 METAR WAPI 270200Z 24004KT 9999 FEW010 31/25 Q1011 NOSIG=  
27-Apr-2014 SAID35 WAPI 270300 METAR WAPI 270300Z 22005KT 9999 FEW010 31/25 Q1010 NOSIG=  
27-Apr-2014 SAID35 WAPI 270400 METAR WAPI 270400Z 22006KT 9999 FEW010 31/25 Q1009 NOSIG=  
27-Apr-2014 SAID35 WAPI 270500 METAR WAPI 270500Z 22005KT 9999 FEW010 32/25 Q1008 NOSIG=  
27-Apr-2014 SAID35 WAPI 270600 METAR WAPI 270600Z 22005KT 9999 FEW010 31/25 Q1007 NOSIG=  
27-Apr-2014 SAID35 WAPI 272300 METAR WAPI 272300Z 00000KT 9999 FEW010 SCT030 26/25 Q10011 NOSIG=  
28-Apr-2014 SAID35 WAPI 280000 METAR WAPI 280000Z 00000KT 9999 FEW010 SCT030 28/24 Q10012 NOSIG=  
28-Apr-2014 SAID35 WAPI 280100 METAR WAPI 280100Z 20003KT 9999 FEW010 SCT030 30/24 Q10012 NOSIG=  
28-Apr-2014 SAID35 WAPI 280200 METAR WAPI 280200Z 13005KT 9999 SCT018 31/24 Q1011 NOSIG=  
28-Apr-2014 SAID35 WAPI 280300 METAR WAPI 280300Z 12004KT 9999 SCT018 31/25 Q1010 NOSIG=  
28-Apr-2014 SAID35 WAPI 280400 METAR WAPI 280400Z 12005KT 9999 SCT018 31/25 Q1009 NOSIG=  
28-Apr-2014 SAID35 WAPI 280600 METAR WAPI 280600Z 11007KT 9999 SCT018 31/25 Q1008 NOSIG=  
28-Apr-2014 SAID35 WAPI 282300 METAR WAPI 282300Z 00000KT 9999 BKN015 26/25 Q1011 NOSIG=  
29-Apr-2014 SAID35 WAPI 290000 METAR WAPI 290000Z 07006KT 9999 BKN015 29/25 Q1011 NOSIG=  
29-Apr-2014 SAID35 WAPI 290100 METAR WAPI 290100Z 09007KT 9999 BKN015 30/27 Q1011 NOSIG=  
29-Apr-2014 SAID35 WAPI 290200 METAR WAPI 290200Z 07007KT 9999 SCT015 31/25 Q1011 NOSIG=  
29-Apr-2014 SAID35 WAPI 290300 METAR WAPI 290300Z 08006KT 9999 SCT015 32/25 Q1010 NOSIG=  
29-Apr-2014 SAID35 WAPI 290400 METAR WAPI 290400Z 07006KT 9999 SCT015 31/25 Q1009 NOSIG=  
29-Apr-2014 SAID35 WAPI 290500 METAR WAPI 290500Z 08008KT 9999 SCT015 31/25 Q1008 NOSIG=  
29-Apr-2014 SAID35 WAPI 292300 METAR WAPI 292300Z 07008KT 9999 SCT015 29/25 Q1011 NOSIG=  
30-Apr-2014 SAID35 WAPI 300000 METAR WAPI 300000Z 06004KT 9999 SCT015 30/26 Q1011 NOSIG=  
30-Apr-2014 SAID35 WAPI 300100 METAR WAPI 300100Z 08006KT 9999 SCT015 31/25 Q1011 NOSIG=  
30-Apr-2014 SAID35 WAPI 301200 METAR WAPI 301200Z 10005KT 9999 SCT015 28/25 Q1012 NOSIG=  
01-May-2014 SAID35 WAPI 010000 METAR WAPI 010000Z 08007KT 9999 FEW018 30/24 Q1012 =  
01-May-2014 SAID35 WAPI 010100 METAR WAPI 010100Z 07008KT 9999 FEW018 31/24 Q1013 =  
01-May-2014 SAID35 WAPI 010300 METAR WAPI 010300Z 08009KT 9999 BKN017 31/25 Q1012=  
01-May-2014 SAID35 WAPI 010400 METAR WAPI 010400Z 10007KT 9999 BKN015 31/25 Q1011 NOSIG=  
01-May-2014 SAID35 WAPI 010500 METAR WAPI 010500Z 07007KT 9999 BKN015 31/23 Q1010 NOSIG=  
01-May-2014 SAID35 WAPI 010600 METAR WAPI 010600Z 07007KT 9999 BKN015 31/24 Q1010 NOSIG=  
01-May-2014 SAID35 WAPI 011500 METAR WAPI 011500Z 13007KT 9999 SCT015 27/24 Q1012 NOSIG=  
01-May-2014 SAID35 WAPI 011800 METAR WAPI 011800Z 12006KT 9999 FEW015 27/23 Q1011 NOSIG=  
01-May-2014 SAID35 WAPI 012300 METAR WAPI 012300Z 11006KT 9999 SCT016 28/23 Q1012=  
02-May-2014 SAID35 WAPI 020000 METAR WAPI 020000Z 11006KT 9999 FEW015 30/23 Q1012 NOSIG=  
02-May-2014 SAID35 WAPI 020100 METAR WAPI 020100Z 11007KT 9999 FEW010 31/23 Q1012 NOSIG=  
02-May-2014 SAID35 WAPI 020200 METAR WAPI 020200Z 09009KT 9999 FEW010 31/24 Q1012 NOSIG=  
02-May-2014 SAID35 WAPI 020300 METAR WAPI 020300Z 10009KT 9999 FEW010 31/22 Q1011 NOSIG=  
02-May-2014 SAID35 WAPI 020400 METAR WAPI 020400Z 09007KT 9999 SCT015 32/24 Q1011 NOSIG=  
02-May-2014 SAID35 WAPI 020600 METAR WAPI 020600Z 10008KT 9999 BKN016 31/23 Q1010=  
03-May-2014 SAID35 WAPI 030000 METAR WAPI 030000Z 12006KT 9999 BKN016 29/24 Q1013=  
03-May-2014 SAID35 WAPI 030100 METAR WAPI 030100Z 11007 9999 SCT017 30/23 Q1013=  
03-May-2014 SAID35 WAPI 030200 METAR WAPI 030200Z 08005KT 9999 SCT015 31/26 Q1012 NOSIG=  
03-May-2014 SAID35 WAPI 030300 METAR WAPI 030300Z 10005KT 9999 FEW010 32/26 Q1011 NOSIG=  
03-May-2014 SAID35 WAPI 030600 METAR WAPI 030600Z 05007KT 9999 FEW010 31/24 Q1009 NOSIG=  
03-May-2014 SAID35 WAPI 031200 METAR WAPI 031200Z 11007KT 9999 FEW010 27/24 Q1011 NOSIG=  
03-May-2014 SAID35 WAPI 031500 METAR WAPI 031500Z 08004KT 9999 FEW010 27/24 Q1011 NOSIG=  
03-May-2014 SAID35 WAPI 031800 METAR WAPI 031800Z 08007KT 9999 FEW010 27/24 Q1010 NOSIG=  
05-May-2014 SAID35 WAPI 050000 METAR WAPI 050000Z 08009KT 9999 SCT015 30/24 Q1013 NOSIG=  
05-May-2014 SAID35 WAPI 050100 METAR WAPI 050100Z 09009KT 9999 SCT015 30/24 Q1013 NOSIG=  
05-May-2014 SAID35 WAPI 050200 METAR WAPI 050200Z 08012KT 9999 SCT015 31/24 Q1013 NOSIG=  
05-May-2014 SAID35 WAPI 050300 METAR WAPI 050300Z 08011KT 9999 SCT015 31/24 Q1012 NOSIG=  
05-May-2014 SAID35 WAPI 050600 METAR WAPI 050600Z 10013KT 9999 BKN017 30/24 Q1011=  
05-May-2014 SAID35 WAPI 051200 METAR WAPI 051200Z 10006KT 9999 SCT017 27/22 Q1012=  
05-May-2014 SAID35 WAPI 052100 METAR WAPI 052100Z 10006KT 9999 SCT017 27/22 Q1012=  
06-May-2014 SAID35 WAPI 060000 METAR WAPI 060000Z 10006KT 9999 SCT015 29/23 Q1013 NOSIG=  
06-May-2014 SAID35 WAPI 060100 METAR WAPI 060100Z 13007KT 9999 SCT015 29/25 Q1012 NOSIG=  
06-May-2014 SAID35 WAPI 060200 METAR WAPI 060200Z 12006KT 9999 SCT015 30/24 Q1012 NOSIG=  
06-May-2014 SAID35 WAPI 060300 METAR WAPI 060300Z 08010KT 9999 BKN016 30/24 Q1012=  
06-May-2014 SAID35 WAPI 060400 METAR WAPI 060400Z 09009KT 9999 SCT015 31/24 Q1011 NOSIG=  
06-May-2014 SAID35 WAPI 060500 METAR WAPI 060500Z 09008KT 9999 SCT015 31/24 Q1010 NOSIG=  
06-May-2014 SAID35 WAPI 060600 METAR WAPI 060600Z 09008KT 9999 SCT015 31/24 Q1010 NOSIG=  
07-May-2014 SAID35 WAPI 070000 METAR WAPI 070000Z 12008KT 9999 SCT015 29/25 Q1012 NOSIG=  
07-May-2014 SAID35 WAPI 070300 METAR WAPI 070300Z 12007KT 9999 BKN017 30/25 Q1011=  
07-May-2014 SAID35 WAPI 070600 METAR WAPI 070600Z 13007KT 9999 BKN016 30/25 Q1008=  
07-May-2014 SAID35 WAPI 071200 METAR WAPI 071200Z 13005KT 9999 SCT015 28/25 Q1011 NOSIG=  
09-May-2014 SAID35 WAPI 090600 METAR WAPI 090600Z 10010KT 9999 BKN016 28/25 Q1009=  
10-May-2014 SAID35 WAPI 100600 METAR WAPI 100600Z 10008KT 9999 BKN016 30/25 Q1009-=  
11-May-2014 SAID35 WAPI 110400 METAR WAPI 110400Z 10009KT 9999 BKN016 31/25 Q1011=  
11-May-2014 SAID35 WAPI 110500 METAR WAPI 110500Z 09010KT 9999 BKN016 30/25 Q1010=  
11-May-2014 SAID35 WAPI 110600 METAR WAPI 110600Z 09011KT 9999 BKN016 31/25 Q1010=  
11-May-2014 SAID35 WAPI 130600 METAR WAPI 110600Z 11012KT 9999 BKN016 30/25 Q1008=  
12-May-2014 SAID35 WALG 120000 METAR WAPI 120000Z 10012KT 6000 RA OVC30 25/24 Q1013=  
12-May-2014 SAID35 WAPI 120000 METAR WAPI 120000Z 10012KT 6000 RA OVC30 25/24 Q1013=  
12-May-2014 SAID35 WAPI 120100 METAR WAPI 120100Z 10008KT 9999 BKN015 27/25 Q1013 NOSIG=  
12-May-2014 SAID35 WAPI 120200 METAR WAPI 120200Z 10006KT 9999 BKN015 27/24 Q1013 NOSIG=  
12-May-2014 SAID35 WAPI 120300 METAR WAPI 120300Z 07007KT 6000 RA OVC030 26/25 Q1012=  
12-May-2014 SAID35 WAPI 120400 METAR WAPI 120400Z 09005KT 6000 RA OVC030 26/25 Q1012=  
13-May-2014 SAID35 WAPI 130100 METAR WAPI 130100Z 11008KT 9999 BKN016 30/25 Q1012=  
13-May-2014 SAID35 WAPI 130400 METAR WAPI 130400Z 12006KT 9999 BKN016 20/25 Q1010=  
13-May-2014 SAID35 WAPI 130500 METAR WAPI 130500Z 11010KT 9999 BKN016 20/25 Q1009=  
14-May-2014 SAID35 WAPI 140000 METAR WAPI 140000Z 11010KT 9999 BKN015 29/25 Q1011 NOSIG=  
14-May-2014 SAID35 WAPI 140100 METAR WAPI 140100Z 12009KT 9999 BKN015 31/25 Q1011 NOSIG=  
14-May-2014 SAID35 WAPI 140200 METAR WAPI 140200Z 12009KT 9999 BKN015 31/25 Q1010 NOSIG=  
14-May-2014 SAID35 WAPI 140600 METAR WAPI 140600Z 10008KT 9999 BKN015 31/25 Q1007 NOSIG=  
14-May-2014 SAID35 WAPI 142300 METAR WAPI 142300Z 13004KT 9999 SCT015 28/26 Q1010 NOSIG=  
15-May-2014 SAID35 WAPI 150000 METAR WAPI 150000Z 13006KT 9999 SCT015 29/25 Q1011 NOSIG=  
15-May-2014 SAID35 WAPI 150200 METAR WAPI 150200Z 12007KT 9999 FEW015 30/25 Q1011 NOSIG=  
15-May-2014 SAID35 WAPI 150300 METAR WAPI 150300Z 12007KT 9999 BKN015 31/25 Q1011 NOSIG=  
15-May-2014 SAID35 WAPI 150400 METAR WAPI 150400Z 11006KT 9999 BKN015 30/25 Q1010 NOSIG=  
15-May-2014 SAID35 WAPI 150500 METAR WAPI 150500Z 07007KT 9999 BKN016 30/25 Q1009=  
16-May-2014 SAID35 WAPI 160000 METAR WAPI 160000Z 13007KT 9999 SCT015 29/23 Q1012 NOSIG=  
16-May-2014 SAID35 WAPI 160100 METAR WAPI 160100Z 10008KT 9999 SCT015 30/25 Q1012 NOSIG=  
16-May-2014 SAID35 WAPI 160300 METAR WAPI 160300Z 10007KT 9999 BKN015 30/25 Q1011 NOSIG=  
16-May-2014 SAID35 WAPI 160600 METAR WAPI 160600Z 08010KT 9999 BKN018 29/24 Q1010 NOSIG=  
17-May-2014 SAID35 WAPI 170000 METAR WAPI 170000Z 08010KT 9999 BKN018 25/24 Q1013 NOSIG=  
17-May-2014 SAID35 WAPI 170300 METAR WAPI 170300Z 08005KT 9999 BKN018 25/25 Q1010 NOSIG=  
17-May-2014 SAID35 WAPI 170400 METAR WAPI 170400Z 08007KT 9999 BKN018 26/25 Q1010 NOSIG=  
17-May-2014 SAID35 WAPI 170500 METAR WAPI 170500Z 09006KT 9999 BKN018 27/25 Q1009 NOSIG=  
17-May-2014 SAID35 WAPI 170600 METAR WAPI 170600Z 09008KT 9999 BKN018 26/25 Q1008=  
17-May-2014 SAID35 WAPI 172300 METAR WAPI 172300Z 11005KT 9999 RA BKN018 26/25 Q1011=  
18-May-2014 SAID35 WAPI 180000 METAR WAPI 180000Z 13006KT 9999 RA BKN018CB 26/25 Q1011=  
18-May-2014 SAID35 WAPI 180100 METAR WAPI 180100Z 09007KT 9999 RA FEW018CB 28/26 Q1011=  
18-May-2014 SAID35 WAPI 180200 METAR WAPI 180200Z 11005KT 9999 RA FEW018CB 27/26 Q1011=  
18-May-2014 SAID35 WAPI 180300 METAR WAPI 180300Z 11011KT RA BKN010 27/25 Q1011=  
18-May-2014 SAID35 WAPI 180400 METAR WAPI 180400Z 11012KT 8000 RA OVC010 26/24 Q1010=  
18-May-2014 SAID35 WAPI 180500 METAR WAPI 180500Z 11007KT 8000 RA OVC010 26/25 Q1010=  
18-May-2014 SAID35 WAPI 180600 METAR WAPI 180600Z 08011KT 2000 RA OVC010 24/24 Q1010=  
19-May-2014 SAID35 WAPI 190000 METAR WAPI 190000Z 10004KT 9999 FEW015 28/24 Q1012 NOSIG=  
19-May-2014 SAID35 WAPI 190100 METAR WAPI 190100Z 10010KT 9999 FEW015 30/24 Q1012 NOSIG=  
19-May-2014 SAID35 WAPI 190200 METAR WAPI 190200Z 10010KT 9999 FEW015 30/24 Q1012 NOSIG=  
19-May-2014 SAID35 WAPI 190300 METAR WAPI 190300Z 010KT 9999 FEW015 30/24 Q1012 NOSIG=  
19-May-2014 SAID35 WAPI 190600 METAR WAPI 190600Z 10010KT 9999 BKN015 30/24 Q1010=  
21-May-2014 SAID35 WAPI 210600 METAR WAPI 210600Z 10011KT 9999 BKN016 29/25 Q1008=  
21-May-2014 SAID35 WAPI 212300 METAR WAPI 212300Z 10006KT 9999 BKN015 28/25 Q1011=  
22-May-2014 SAID35 WAPI 220000 METAR WAPI 220000Z 10007KT 9999 SCT015 28/24 Q1011=  
22-May-2014 SAID35 WAPI 220100 METAR WAPI 220100Z 10006KT 9999 SCT015 30/25 Q1011 NOSIG=  
22-May-2014 SAID35 WAPI 220200 METAR WAPI 220200Z 10007KT 9999 BKN018 29/25 Q1011=  
22-May-2014 SAID35 WAPI 220300 METAR WAPI 220300Z 11010KT 9999 BKN010 29/25 Q1010=  
22-May-2014 SAID35 WAPI 220500 METAR WAPI 220400Z 10009KT 9999 BKN010 29/25 Q1010=  
22-May-2014 SAID35 WAPI 220500 METAR WAPI 220500Z 10010KT 9999 BKN010 29/25 Q1009=  
22-May-2014 SAID35 WAPI 220600 METAR WAPI 220600Z 10009KT 9999 BKN015 30/25 Q1008=  
22-May-2014 SAID35 WAPI 222300 METAR WAPI 222300Z 12008KT 9999 RA SCT015 26/24 Q1012=  
23-May-2014 SAID35 WAPI 230000 METAR WAPI 230000Z 10012KT RA 2000 OVC010 24/23 Q1013=  
23-May-2014 SAID35 WAPI 230100 METAR WAPI 230100Z 13007KT 9999 RA BKN018 25/25 Q1013=  
23-May-2014 SAID35 WAPI 230200 METAR WAPI 230200Z 11007KT 9999 RA BKN018 27/25 Q1013=  
23-May-2014 SAID35 WAPI 230300 METAR WAPI 230300Z 11008KT 9999 RA BKN018 27/25 Q1012=  
23-May-2014 SAID35 WAPI 230600 METAR WAPI 230600Z 09005KT 9999 OVC010 28/25 Q1010=  
25-May-2014 SAID35 WAPI 250300 METAR WAPI 250300Z 11009KT 9999 BKN015 30/25 Q1012=  
25-May-2014 SAID35 WAPI 250400 METAR WAPI 250400Z 10010KT 9999 BKN015 30/25 Q1012=  
25-May-2014 SAID35 WAPI 250600 METAR WAPI 250600Z 11008KT 9999 BKN015 30/26 Q1010=  
26-May-2014 SAID35 WAPI 260000 METAR WAPI 260000Z 09007KT 9999 RA SCT018 26/23 Q1013=  
26-May-2014 SAID35 WAPI 260400 METAR WAPI 260400Z 09008KT 9999 SCT018 BKN030 30/25 Q1011 NOSIG=  
26-May-2014 SAID35 WAPI 260600 METAR WAPI 260600Z 06006KT 9999 SCT018 BKN030 29/25 Q1010 NOSIG=  
27-May-2014 SAID35 WAPI 270000 METAR WAPI 270000Z 11012KT 9999 SCT018 BKN030 28/24 Q1013 NOSIG=  
27-May-2014 SAID35 WAPI 270100 METAR WAPI 270100Z 10012KT 9999 SCT015 30/24 Q1013 NOSIG=  
27-May-2014 SAID35 WAPI 270200 METAR WAPI 270200Z 11010KT 9999 SCT015 31/24 Q1012 NOSIG=  
27-May-2014 SAID35 WAPI 270300 METAR WAPI 270300Z 10013KT 9999 SCT016 30/24 Q1011=  
27-May-2014 SAID35 WAPI 270400 METAR WAPI 270400Z 09011KT 9999 BKN016 30/24 Q1010=  
27-May-2014 SAID35 WAPI 270500 METAR WAPI 270500Z 10011KT 9999 BKN016 30/24 Q1009=  
27-May-2014 SAID35 WAPI 270600 METAR WAPI 270600Z 10011KT 9999 BKN016 30/24 Q1009=  
28-May-2014 SAID35 WAPI 280300 METAR WAPI 280300Z 10010KT 9999 BKN015 30/24 Q1012 NOSIG=  
29-May-2014 SAID35 WAPI 290500 METAR WAPI 290400Z 15010KT 9999 BKN015 30/26 Q1009=  
29-May-2014 SAID35 WAPI 290500 METAR WAPI 290500Z 15009KT 9999 BKN015 30/25 Q1009=  
29-May-2014 SAID35 WAPI 290600 METAR WAPI 290600Z 15012KT 9999 BKN015 29/25 Q1008=  
29-May-2014 SAID35 WAPI 292300 METAR WAPI 292300Z 10009KT 8000 RA BKN018 26/24 Q1010=  
30-May-2014 SAID35 WAPI 300000 METAR WAPI 300000Z 11008KT 9000 RA BKN018 27/24 Q1011=  
30-May-2014 SAID35 WAPI 300100 METAR WAPI 300100Z 10007KT 9000 BKN018 28/25 Q1011=  
30-May-2014 SAID35 WAPI 300200 METAR WAPI 300200Z 10010KT 9999 BKN018 29/25 Q1011=  
30-May-2014 SAID35 WAPI 300300 METAR WAPI 300300Z 10012KT 9999 BKN010 30/26 Q1010=  
30-May-2014 SAID35 WAPI 300400 METAR WAPI 300400Z 06010KT 9999 BKN010 28/25 Q1009=  
30-May-2014 SAID35 WAPI 300500 METAR WAPI 300500Z 07008KT 9999 OVC010 28/26 Q1009=  
30-May-2014 SAID35 WAPI 300600 METAR WAPI 300600Z 11007KT 9999 BKN015 28/25 Q1008=  
31-May-2014 SAID35 WAPI 310000 METAR WAPI 310000Z 08006KT 9999 BKN018 27/25 Q1011=  
31-May-2014 SAID35 WAPI 310100 METAR WAPI 310100Z 10009KT 9999 BKN018 27/25 Q1011=  
31-May-2014 SAID35 WAPI 310200 METAR WAPI 310200Z 11008KT 9999 BKN018 28/26 Q1011=  
31-May-2014 SAID35 WAPI 310300 METAR WAPI 310300Z 10010KT 9999 BKN015 29/25 Q1010=  
31-May-2014 SAID35 WAPI 310400 METAR WAPI 310400Z 10009KT 9999 BKN015 29/25 Q1009=  
31-May-2014 SAID35 WAPI 310600 METAR WAPI 310600Z 10007KT 9999 BKN015 29/26 Q1008=  
31-May-2014 SAID35 WAPI 312300 METAR WAPI 312300Z 12007KT 9999 BKN018 27/24 Q1010=  
01-Jun-2014 SAID35 WAPI 010000 METAR WAPI 010000Z 11008KT 9999 BKN018 28/24 Q1010 NOSIG=  
01-Jun-2014 SAID35 WAPI 010100 METAR WAPI 010100Z 10008KT 9999 SCT015 29/24 Q1010 NOSIG=  
01-Jun-2014 SAID35 WAPI 010300 METAR WAPI 010300Z 11009KT 9999 SCT015 30/24 Q1010 NOSIG=  
01-Jun-2014 SAID35 WAPI 010400 METAR WAPI 010400Z 11009KT 9999 SCT015 30/25 Q1009 NOSIG=  
01-Jun-2014 SAID35 WAPI 010500 METAR WAPI 010500Z 11008KT 9999 SCT015 30/24 Q1008 NOSIG=  
01-Jun-2014 SAID35 WAPI 010600 METAR WAPI 010600Z 11008KT 9999 SCT015 30/25 Q1008 NOSIG=  
02-Jun-2014 SAID35 WAPI 020000 METAR WAPI 020000Z 12009KT 9999 SCT018 27/24 Q1010 NOSIG=  
02-Jun-2014 SAID35 WAPI 020100 METAR WAPI 020100Z 11009KT 9999 SCT018 28/24 Q1010 NOSIG=  
02-Jun-2014 SAID35 WAPI 020200 METAR WAPI 020200Z 12010KT 9999 SCT018 29/24 Q1010 NOSIG=  
02-Jun-2014 SAID35 WAPI 020300 METAR WAPI 020300Z 12009KT 9999 SCT015 30/24 Q1009 NOSIG=  
02-Jun-2014 SAID35 WAPI 020400 METAR WAPI 020400Z 11011KT 9999 BKN015 30/23 Q1008=  
02-Jun-2014 SAID35 WAPI 020500 METAR WAPI 020500Z 10010KT 9999 BKN015 30/23 Q1008=  
02-Jun-2014 SAID35 WAPI 020600 METAR WAPI 020600Z 11010KT 9999 BKN015 30/24 Q1008=  
02-Jun-2014 SAID35 WAPI 022300 METAR WAPI 022300Z 09008KT 9999 BKN015 28/24 Q1010=  
03-Jun-2014 SAID35 WAPI 030000 METAR WAPI 030000Z 10010KT 9999 SCT015 29/24 Q1010 NOSIG=  
03-Jun-2014 SAID35 WAPI 030100 METAR WAPI 030100Z 11009KT 9999 SCT015 30/24 Q1010 NOSIG=  
03-Jun-2014 SAID35 WAPI 030300 METAR WAPI 030300Z 10010KT 9999 SCT015 30/24 Q1009 NOSIG=  
03-Jun-2014 SAID35 WAPI 030400 METAR WAPI 030400Z 10011KT 9999 SCT015 30/24 Q1009 NOSIG=  
03-Jun-2014 SAID35 WAPI 030500 METAR WAPI 030500Z 10011KT 9999 SCT015 30/24 Q1008 NOSIG=  
03-Jun-2014 SAID35 WAPI 030600 METAR WAPI 030600Z 10009KT 9999 SCT015 30/25 Q1007 NOSIG=  
04-Jun-2014 SAID35 WAPI 040000 METAR WAPI 040000Z 12007KT 9999 BKN018 27/24 Q1011=  
04-Jun-2014 SAID35 WAPI 040100 METAR WAPI 040100Z 12007KT 9999 SCT018 29/25 Q1011G=  
04-Jun-2014 SAID35 WAPI 040300 METAR WAPI 040300Z 12010KT 9999 SCT015 29/24 Q1010G=  
04-Jun-2014 SAID35 WAPI 040400 METAR WAPI 040400Z 12008KT 9999 BKN015 29/25 Q1009=  
04-Jun-2014 SAID35 WAPI 040500 METAR WAPI 040500Z 1301030 9999 BKN015 30/25 Q1008=  
04-Jun-2014 SAID35 WAPI 040600 METAR WAPI 040600Z 13012KT 9999 SCT015 28/24 Q1008=  
04-Jun-2014 SAID35 WAPI 042300 METAR WAPI 042300Z 12010KT 9999 SCT018 27/24 Q1009=  
05-Jun-2014 SAID35 WAPI 050000 METAR WAPI 050000Z 12008KT 9999 SCT018 28/24 Q1010 NOSIG=  
05-Jun-2014 SAID35 WAPI 050100 METAR WAPI 050100Z 12009KT 9999 SCT018 29/24 Q1010 NOSIG=  
05-Jun-2014 SAID35 WAPI 050200 METAR WAPI 050200Z 10006KT 9999 RA SCT018 BKN030 26/24 Q1010=  
05-Jun-2014 SAID35 WAPI 050300 METAR WAPI 050300Z 12007KT 9999 SCT015 29/25 Q1009=  
05-Jun-2014 SAID35 WAPI 050400 METAR WAPI 050400Z 12009KT 9999 SCT018 28/25 Q1008=  
05-Jun-2014 SAID35 WAPI 050500 METAR WAPI 050500Z 10004KT 9999 SCT015 28/25 Q1008=  
05-Jun-2014 SAID35 WAPI 050600 METAR WAPI 050600Z 10010KT 9999 SCT018 28/25 Q1007=  
05-Jun-2014 SAID35 WAPI 052300 METAR WAPI 052300Z 14006KT 9999 BKN010 26/25 Q1009=  
06-Jun-2014 SAID35 WAPI 060000 METAR WAPI 060000Z 15007KT 9999 SCT018 BKN030 27/25 Q1009 NOSIG=  
06-Jun-2014 SAID35 WAPI 060100 METAR WAPI 060100Z 13008KT 9999 SCT018 BKN030 29/26 Q1009 NOSIG=  
06-Jun-2014 SAID35 WAPI 060200 METAR WAPI 060200Z 12010KT 9999 SCT018 BKN030 28/26 Q1009=  
06-Jun-2014 SAID35 WAPI 060300 METAR WAPI 060300Z 08005 9999 OVC010 27/26 Q1008=  
06-Jun-2014 SAID35 WAPI 060600 METAR WAPI 060600Z 08006 9999 OVD010 28/26 Q1006=  
06-Jun-2014 SAID35 WAPI 062300 METAR WAPI 062300Z 11008KT RA OVC010 25/24 Q1008 =  
07-Jun-2014 SAID35 WAPI 070000 METAR WAPI 070000Z 09006KT RA OVC010 25/24 Q1009 =  
07-Jun-2014 SAID35 WAPI 070100 METAR WAPI 070100Z 09008KT 9999 RA BKN018 OVC030 25/25 Q1009=  
07-Jun-2014 SAID35 WAPI 070200 METAR WAPI 070200Z 12006KT 8000 RA BKN018 OVC030 25/25 Q1009=  
07-Jun-2014 SAID35 WAPI 070300 METAR WAPI 070300Z 13007KT 8000 RA BKN018 OVC030 25/25 Q1009=  
07-Jun-2014 SAID35 WAPI 070400 METAR WAPI 070400Z 14004KT 999 BKN018 OVC030 26/25 Q1008=  
07-Jun-2014 SAID35 WAPI 070500 METAR WAPI 070500Z 13013KT 8000 RA BKN018 OVC030 25/24 Q1008=  
07-Jun-2014 SAID35 WAPI 070600 METAR WAPI 070600Z 13008KT 8000 RA BKN018 OVC030 25/25 Q1008=  
08-Jun-2014 SAID35 WAPI 080000 METAR WAPI 080000Z 13012KT 9999 BKN018 OVC030 27/23 Q1010=  
08-Jun-2014 SAID35 WAPI 080100 METAR WAPI 080100Z 13011KT 9999 BKN018 28/23 Q1010=  
08-Jun-2014 SAID35 WAPI 080200 METAR WAPI 080200Z 13010KT 9999 BKN018 BKN030 29/24 Q1010=  
08-Jun-2014 SAID35 WAPI 080300 METAR WAPI 080300Z 13011KT 9999 SCT018 BKN030 29/24 Q1009=  
08-Jun-2014 SAID35 WAPI 080400 METAR WAPI 080400Z 12010KT 9999 BKN010 29/24 Q1008=  
08-Jun-2014 SAID35 WAPI 080500 METAR WAPI 080500Z 12010 9999 BKN010 29/24 Q1008=  
08-Jun-2014 SAID35 WAPI 080600 METAR WAPI 080600Z 11013KT 9999 SCT018 BKN030 29/24 Q1007 NOSIG=  
09-Jun-2014 SAID35 WAPI 090000 METAR WAPI 090000Z 14008KT 9999 SCT018 OVC030 27/23 Q1010=  
09-Jun-2014 SAID35 WAPI 090100 METAR WAPI 090100Z 14009KT 9999 SCT018 OVC030 27/23 Q1010=  
09-Jun-2014 SAID35 WAPI 090200 METAR WAPI 090200Z 14009KT 8000 SCT018 OVC030 27/23 Q1010=  
09-Jun-2014 SAID35 WAPI 090300 METAR WAPI 090300Z 14009KT 8000 SCT018 OVC030 27/22 Q1009=  
09-Jun-2014 SAID35 WAPI 090400 METAR WAPI 090400Z 14009KT 8000 SCT018 OVC030 27/23 Q1008=  
09-Jun-2014 SAID35 WAPI 090500 METAR WAPI 090500Z 14012KT 8000 SCT018 OVC030 27/23 Q1008=  
09-Jun-2014 SAID35 WAPI 090600 METAR WAPI 090600Z 12011KT 9999 SCT018 SCT030 28/23 Q1007=  
09-Jun-2014 SAID35 WAPI 092300 METAR WAPI 092300Z 12010KT 9999 OVC010 26/23 Q1009=  
10-Jun-2014 SAID35 WAPI 100000 METAR WAPI 100000Z 13006KT 8000 SCT018 OVC030 26/23 Q1009=  
10-Jun-2014 SAID35 WAPI 100100 METAR WAPI 100100Z 12009KT 9999 SCT018 BKN030 27/23 Q1009=  
10-Jun-2014 SAID35 WAPI 100200 METAR WAPI 100200Z 10009KT 9999 SCT018 BKN030 28/23 Q1009 NOSIG=  
10-Jun-2014 SAID35 WAPI 100300 METAR WAPI 100300Z 10011KT 9999 SCT016 29/23 Q1008=  
10-Jun-2014 SAID35 WAPI 100500 METAR WAPI 100400Z 10010KT 9999 BKN010 29/23 Q1007=  
10-Jun-2014 SAID35 WAPI 100500 METAR WAPI 100500Z 10008KT 9999 BKN010 29/23 Q1006=  
10-Jun-2014 SAID35 WAPI 100600 METAR WAPI 100600Z 10009KT 9999 BKN010 28/23 Q1006=  
10-Jun-2014 SAID35 WAPI 102300 METAR WAPI 102300Z 14004KT 9999 SCT016 26/22 Q1009=  
11-Jun-2014 SAID35 WAPI 110000 METAR WAPI 110000Z 15005KT 9999 BKN015 27/23 Q1009 NOSIG=  
11-Jun-2014 SAID35 WAPI 110100 METAR WAPI 110100Z 14008KT 9999 BKN015 28/23 Q1009 NOSIG=  
11-Jun-2014 SAID35 WAPI 110200 METAR WAPI 110200Z 13008KT 9999 BKN015 30/23 Q1009 NOSIG=  
11-Jun-2014 SAID35 WAPI 110300 METAR WAPI 110300Z 13009KT 9999 SCT015 30/23 Q1008 NOSIG=  
11-Jun-2014 SAID35 WAPI 110600 METAR WAPI 110600Z 12008KT 9999 SCT015 29/23 Q1007 NOSIG=  
12-Jun-2014 SAID35 WAPI 120100 METAR WAPI 120100Z 17006KT 9999 SCT015 28/23 Q1009 NOSIG=  
12-Jun-2014 SAID35 WAPI 120200 METAR WAPI 120200Z 16009KT 9999 SCT015 28/23 Q1009 NOSIG=  
12-Jun-2014 SAID35 WAPI 120300 METAR WAPI 120300Z 15006KT 9999 BKN015 28/23 Q1009 NOSIG=  
12-Jun-2014 SAID35 WAPI 120400 METAR WAPI 120400Z 14006KT 9999 BKN015 28/23 Q1008 NOSIG=  
12-Jun-2014 SAID35 WAPI 120500 METAR WAPI 120500Z 15005KT 9999 BKN015 28/23 Q1008 NOSIG=  
12-Jun-2014 SAID35 WAPI 120600 METAR WAPI 120600Z 16007KT 9999 SCT015 28/23 Q1007 NOSIG=  
12-Jun-2014 SAID35 WAPI 122300 METAR WAPI 122300Z 00000KT 9999 BKN015 26/24 Q1010 NOSIG=  
13-Jun-2014 SAID35 WAPI 130100 METAR WAPI 130100Z 14005KT 9999 BKN015 28/24 Q1011 NOSIG=  
13-Jun-2014 SAID35 WAPI 130200 METAR WAPI 130200Z 11007KT 9999 RA BKN018 28/24 Q1011=  
13-Jun-2014 SAID35 WAPI 130300 METAR WAPI 130300Z 12005KT 9999 BKN018 29/25 Q1010=  
13-Jun-2014 SAID35 WAPI 130600 METAR WAPI 130600Z 12005KT 9999 SCT018 29/24 Q1008=  
13-Jun-2014 SAID35 WAPI 132300 METAR WAPI 132300Z 11006KT 9999 SCT016 26/23 Q1011=  
14-Jun-2014 SAID35 WAPI 140000 METAR WAPI 140000Z 12006KT 9999 SCT018 27/24 Q1012=  
14-Jun-2014 SAID35 WAPI 140100 METAR WAPI 140100Z 09006KT 9999 SCT018 OVC030 28/24 Q1011 NOSIG=  
14-Jun-2014 SAID35 WAPI 140200 METAR WAPI 140200Z 11007KT 9999 SCT018 OVC030 28/24 Q1011 NOSIG=  
14-Jun-2014 SAID35 WAPI 140300 METAR WAPI 140300Z 11008KT 9999 OVC010 28/24 Q1011 =  
14-Jun-2014 SAID35 WAPI 140400 METAR WAPI 140400Z 10010KT 9999 OVC010 29/24 Q1010 =  
14-Jun-2014 SAID35 WAPI 140600 METAR WAPI 140600Z 10008KT 9999 XCT016 29/24 Q100=  
14-Jun-2014 SAID35 WAPI 142300 METAR WAPI 142300Z 10006KT 9999 SCT018 BKN030 26/24 Q1012=  
15-Jun-2014 SAID35 WAPI 150000 METAR WAPI 150000Z 10005KT 9999 RA SCT018 OVC030 26/24 Q1012=  
15-Jun-2014 SAID35 WAPI 150100 METAR WAPI 150100Z 10007KT 9999 SCT018 OVC030 26/24 Q1013=  
15-Jun-2014 SAID35 WAPI 150200 METAR WAPI 150200Z 11009KT 9999 RA SCT018 OVC030 25/24 Q1013=  
15-Jun-2014 SAID35 WAPI 150300 METAR WAPI 150300Z 13007KT 9999 SCT018 OVC030 25/24 Q1012=  
15-Jun-2014 SAID35 WAPI 150400 METAR WAPI 150400Z 12007KT 9999 SCT018 OVC030 26/24 Q1011=  
15-Jun-2014 SAID35 WAPI 150500 METAR WAPI 150500Z 13009KT 9999 CVC010 26/23 Q1011=  
15-Jun-2014 SAID35 WAPI 150600 METAR WAPI 150600Z 14008KT 9999 SCT018 OVC030 26/23 Q1010=  
15-Jun-2014 SAID35 WAPI 152300 METAR WAPI 152300Z 130111KT 9999 OVC010 25/21 Q1013=  
16-Jun-2014 SAID35 WAPI 160000 METAR WAPI 160000Z 12010KT 9999 SCT018 OVC030 26/21 Q1013=  
16-Jun-2014 SAID35 WAPI 160100 METAR WAPI 160100Z 13010KT 9999 SCT018 OVC030 27/21 Q1014=  
16-Jun-2014 SAID35 WAPI 160200 METAR WAPI 160200Z 13010KT 9999 SCT018 SCT030 28/21 Q1013=  
16-Jun-2014 SAID35 WAPI 160300 METAR WAPI 160300Z 13009KT 9999 SCT018 SCT030 27/21 Q1012=  
16-Jun-2014 SAID35 WAPI 160400 METAR WAPI 160400Z 13010KT 9999 BKN015 28/21 Q1012=  
16-Jun-2014 SAID35 WAPI 160600 METAR WAPI 160600Z 13008KT 9999 SCT018 28/21 Q1011=  
16-Jun-2014 SAID35 WAPI 162300 METAR WAPI 162300Z 15007KT 9999 BKN018 26/23 Q1013=  
17-Jun-2014 SAID35 WAPI 170000 METAR WAPI 170000Z 14007KT 9999 BKN018 27/23 Q1013 NOSIG=  
17-Jun-2014 SAID35 WAPI 170100 METAR WAPI 170100Z 14007KT 9999 BKN018 28/23 Q1013 NOSIG=  
17-Jun-2014 SAID35 WAPI 170200 METAR WAPI 170200Z 14007KT 9999 BKN018 28/23 Q1013 NOSIG=  
17-Jun-2014 SAID35 WAPI 170300 METAR WAPI 170300Z 14008KT 9999 BKN018 28/24 Q1012 NOSIG=  
17-Jun-2014 SAID35 WAPI 170400 METAR WAPI 170400Z 14010KT 9999 SCT018 29/23 Q1012 NOSIG=  
17-Jun-2014 SAID35 WAPI 170500 METAR WAPI 170500Z 13008KT 9999 BKN018 28/23 Q1011 NOSIG=  
17-Jun-2014 SAID35 WAPI 170600 METAR WAPI 170600Z 14007KT 9999 RA SCT018 OVC030 28/23 Q1011=  
17-Jun-2014 SAID35 WAPI 172300 METAR WAPI 172300Z 11008KT 8000 RA BKN018 OVC030 26/24 Q1013=  
18-Jun-2014 SAID35 WAPI 180000 METAR WAPI 180000Z 10007KT 9999 BKN018 OVC030 26/24 Q1013=  
18-Jun-2014 SAID35 WAPI 180100 METAR WAPI 180100Z 10006KT 9999 BKN018 OVC030 27/25 Q1013 NOSIG=  
18-Jun-2014 SAID35 WAPI 180200 METAR WAPI 180200Z 11008KT 9999 RA BKN018 OVC030 26/24 Q1013=  
18-Jun-2014 SAID35 WAPI 180300 METAR WAPI 180300Z 10011KT 9999 OVC010 27/25 Q1012=  
18-Jun-2014 SAID35 WAPI 180600 METAR WAPI 180600Z 09008KT 9999 OVC010 27/24 Q1010=  
18-Jun-2014 SAID35 WAPI 182300 METAR WAPI 182300Z 12008KT 9999 BKN018 OVC030 27/24 Q1013 NOSIG=  
19-Jun-2014 SAID35 WAPI 190000 METAR WAPI 190000Z 11008KT 9999 BKN018 27/25 Q1013 NOSIG=  
19-Jun-2014 SAID35 WAPI 190300 METAR WAPI 190300Z 12007KT 9999 SCT018 BKN030 28/25 Q1012 NOSIG=  
19-Jun-2014 SAID35 WAPI 190400 METAR WAPI 190400Z 11008KT 9999 SCT018 BKN030 27/25 Q1011 NOSIG=  
19-Jun-2014 SAID35 WAPI 190600 METAR WAPI 190600Z 12005KT 9999 SCT018 BKN030 27/25 Q1009=  
19-Jun-2014 SAID35 WAPI 192300 METAR WAPI 192300Z 09008KT 9999 BKN015 26/23 Q1013=  
20-Jun-2014 SAID35 WAPI 200000 METAR WAPI 200000Z 10006KT 9999 SCT015 BKN030 27/24 Q1013=  
20-Jun-2014 SAID35 WAPI 200100 METAR WAPI 200100Z 10008KT 9999 SCT015 BKN030 28/24 Q1013=  
20-Jun-2014 SAID35 WAPI 200200 METAR WAPI 200200Z 10009KT 9999 SCT015 BKN030 28/25 Q1013=  
20-Jun-2014 SAID35 WAPI 200300 METAR WAPI 200300Z 09008KT 9999 SCT015 BKN030 28/25 Q1012=  
20-Jun-2014 SAID35 WAPI 200600 METAR WAPI 200600Z 09008KT 9999 SCT015 BKN030 28/25 Q1011=  
20-Jun-2014 SAID35 WAPI 202300 METAR WAPI 202300Z 10011KT 9999 SCT018 BKN030 27/24 Q1013 NOSIG=  
21-Jun-2014 SAID35 WAPI 210000 METAR WAPI 210000Z 10008KT 9999 SCT018 BKN030 27/24 Q1014 NOSIG=  
21-Jun-2014 SAID35 WAPI 210100 METAR WAPI 210100Z 11010KT 9999 SCT018 BKN030 28/24 Q1014 NOSIG=  
21-Jun-2014 SAID35 WAPI 210200 METAR WAPI 210200Z 10011KT 9999 SCT018 BKN030 28/24 Q1014 NOSIG=  
21-Jun-2014 SAID35 WAPI 210300 METAR WAPI 210300Z 10009KT 9999 SCT018 BKN030 29/24 Q1014 NOSIG=  
21-Jun-2014 SAID35 WAPI 210500 METAR WAPI 210500Z 11008KT 9999 SCT018 BKN030 28/24 Q1012 NOSIG=  
21-Jun-2014 SAID35 WAPI 210600 METAR WAPI 210600Z 10008KT 9999 SCT018 BKN030 28/23 Q1011=  
22-Jun-2014 SAID35 WAPI 220000 METAR WAPI 220000Z 07008KT 9999 RA BKN018 OVC030 25/24 Q1015=  
22-Jun-2014 SAID35 WAPI 220100 METAR WAPI 220100Z 10006KT 9999 RA SCT018 OVC030 25/24 Q1015=  
22-Jun-2014 SAID35 WAPI 220200 METAR WAPI 220200Z 09008KT 9999 RA SCT018 OVC030 25/24 Q1015=  
22-Jun-2014 SAID35 WAPI 220300 METAR WAPI 220300Z 09010KT 9999 OVC010 26/23 Q1015=  
22-Jun-2014 SAID35 WAPI 220400 METAR WAPI 220400Z 09009KT 9999 OVC010 26/23 Q1014=  
22-Jun-2014 SAID35 WAPI 220500 METAR WAPI 220500Z 10010KT 9999 OVC010 27/22 Q1013=  
22-Jun-2014 SAID35 WAPI 220600 METAR WAPI 220600Z 09012KT 9999 OVC010 27/22 Q1013=  
23-Jun-2014 SAID35 WAPI 230000 METAR WAPI 230000Z 12008KT 9999 BKN015 26/23 Q1015=  
23-Jun-2014 SAID35 WAPI 230100 METAR WAPI 230100Z 11010KT 9999 BKN015 26/22 Q1015=  
23-Jun-2014 SAID35 WAPI 230200 METAR WAPI 230200Z 12008KT 9999 SCT018 OVC030 27/22 Q1015=  
23-Jun-2014 SAID35 WAPI 230300 METAR WAPI 230300Z 13007KT 9999 SCT018 OVC030 27/23 Q1014=  
23-Jun-2014 SAID35 WAPI 230400 METAR WAPI 230400Z 13009KT 9999 SCT018 OVC030 28/24 Q1013=  
23-Jun-2014 SAID35 WAPI 230500 METAR WAPI 230500Z 13009KT 9999 SCT018 OVC030 28/23 Q1013=  
23-Jun-2014 SAID35 WAPI 230600 METAR WAPI 230600Z 14008KT 9999 SCT018 OVC030 27/21 Q1012=  
23-Jun-2014 SAID35 WAPI 232300 METAR WAPI 232300Z 10008KT 9999 BKN015 26/22 Q1013=  
24-Jun-2014 SAID35 WAPI 240000 METAR WAPI 240000Z 12010KT 9999 SCT018 OVC030 27/23 Q1014=  
24-Jun-2014 SAID35 WAPI 240100 METAR WAPI 240100Z 12009KT 9999 SCT018 28/23 Q1014=  
24-Jun-2014 SAID35 WAPI 240200 METAR WAPI 240200Z 12010KT 9999 SCT018 28/23 Q1014=  
24-Jun-2014 SAID35 WAPI 240300 METAR WAPI 240300Z 12011KT 9999 SCT018 29/23 Q1013=  
24-Jun-2014 SAID35 WAPI 240400 METAR WAPI 240400Z 12013KT 9999 BKN015 229/23 Q1012=  
24-Jun-2014 SAID35 WAPI 240500 METAR WAPI 240500Z 10010KT 9999 BKN015 28/23 Q1012=  
24-Jun-2014 SAID35 WAPI 240600 METAR WAPI 240600Z 12010KT 9999 SCT018 28/23 Q1011=  
24-Jun-2014 SAID35 WAPI 242300 METAR WAPI 242300Z 12009KT 9999 SCT015 27/22 Q1014=  
25-Jun-2014 SAID35 WAPI 250000 METAR WAPI 250000Z 12007KT 9999 SCT015 28/22 Q1015 NOSIG=  
25-Jun-2014 SAID35 WAPI 250100 METAR WAPI 250100Z 12009KT 9999 SCT010 28/22 Q1015 NOSIG=  
25-Jun-2014 SAID35 WAPI 250200 METAR WAPI 250200Z 12010KT 9999 SCT010 28/22 Q1015 NOSIG=  
25-Jun-2014 SAID35 WAPI 250300 METAR WAPI 250300Z 12010KT 9999 SCT010 29/22 Q1014 NOSIG=  
25-Jun-2014 SAID35 WAPI 250400 METAR WAPI 250400Z 12011KT 9999 SCT010 29/22 Q1013 NOSIG=  
25-Jun-2014 SAID35 WAPI 250500 METAR WAPI 250500Z 12010KT 9999 SCT010 29/23 Q1012 NOSIG=  
25-Jun-2014 SAID35 WAPI 250600 METAR WAPI 250600Z 12010KT 9999 SCT010 28/22 Q1012 NOSIG=  
25-Jun-2014 SAID35 WAPI 252300 METAR WAPI 252300Z 16005KT 9999 BKN015 24/23 Q1014=  
26-Jun-2014 SAID35 WAPI 260000 METAR WAPI 260000Z 11007KT 9999 BKN018 OVC030 26/23 Q1015=  
26-Jun-2014 SAID35 WAPI 260200 METAR WAPI 260200Z 12010KT 9999 BKN018 OVC030 27/23 Q1015=  
26-Jun-2014 SAID35 WAPI 260400 METAR WAPI 260400Z 12010KT 9999 BKN015 28/23 Q1013=  
26-Jun-2014 SAID35 WAPI 260600 METAR WAPI 260600Z 12007KT 9999 BKN015 27/23 Q1011=  
26-Jun-2014 SAID35 WAPI 262300 METAR WAPI 262300Z 12006KT 9999 SCT015 25/23 Q1013=  
27-Jun-2014 SAID35 WAPI 270000 METAR WAPI 270000Z 12007KT 9999 RA SCT018 BKN030 25/24 Q1015=  
27-Jun-2014 SAID35 WAPI 270100 METAR WAPI 270100Z 12008KT 9999 SCT018 26/23 Q1014=  
27-Jun-2014 SAID35 WAPI 270200 METAR WAPI 270200Z 12008KT 9999 SCT018 27/23 Q1014=  
27-Jun-2014 SAID35 WAPI 270300 METAR WAPI 270300Z 11008KT 9999 BKN015 28/24 Q1013=  
27-Jun-2014 SAID35 WAPI 270400 METAR WAPI 270400Z 10009KT 9999 SCT015 28/23 Q1012=  
27-Jun-2014 SAID35 WAPI 270500 METAR WAPI 270500Z 11007KT 9999 SCT018 27/24 Q1012 NOSIG=  
27-Jun-2014 SAID35 WAPI 270600 METAR WAPI 270600Z 10008KT 9999 SCT018 27/24 Q1011 NOSIG=  
27-Jun-2014 SAID35 WAPI 272300 METAR WAPI 272300Z 13005KT 9999 SCT015 26/23 Q1013=  
28-Jun-2014 SAID35 WAPI 280000 METAR WAPI 280000Z 13005KT 9999 SCT015 27/24 Q1013=  
28-Jun-2014 SAID35 WAPI 280100 METAR WAPI 280100Z 13006KT 9999 SCT015 28/23 Q1013=  
28-Jun-2014 SAID35 WAPI 280200 METAR WAPI 280200Z 13006KT 9999 SCT015 28/24 Q1013=  
28-Jun-2014 SAID35 WAPI 280300 METAR WAPI 280300Z 12007KT 9999 SCT015 29/23 Q1012=  
28-Jun-2014 SAID35 WAPI 280400 METAR WAPI 280400Z 13007KT 9999 BKN015 29/23 Q1011=  
28-Jun-2014 SAID35 WAPI 280500 METAR WAPI 280500Z 14006KT 9999 BKN015 29/23 Q1011=  
28-Jun-2014 SAID35 WAPI 280600 METAR WAPI 280600Z 13007KT 9999 SCT015 29/23 Q1010=  
28-Jun-2014 SAID35 WAPI 282300 METAR WAPI 282300Z 12007KT 9999 SCT015 BKN030 26/22 Q1013 NOSIG=  
29-Jun-2014 SAID35 WAPI 290000 METAR WAPI 290000Z 11008KT 9999 SCT015 BKN030 27/22 Q1014 NOSIG=  
29-Jun-2014 SAID35 WAPI 290100 METAR WAPI 290100Z 11009KT 9999 SCT015 28/24 Q1014 NOSIG=  
29-Jun-2014 SAID35 WAPI 290200 METAR WAPI 290200Z 11010KT 9999 SCT015 29/22 Q1014 NOSIG=  
29-Jun-2014 SAID35 WAPI 290300 METAR WAPI 290300Z 11007KT 9999 SCT015 29/22 Q1013 NOSIG=  
29-Jun-2014 SAID35 WAPI 290400 METAR WAPI 290400Z 12007KT 9999 SCT015 29/23 Q1013 NOSIG=  
29-Jun-2014 SAID35 WAPI 290500 METAR WAPI 290500Z 12008KT 9999 SCT015 29/22 Q1012 NOSIG=  
29-Jun-2014 SAID35 WAPI 290600 METAR WAPI 290600Z 11009KT 9999 SCT015 28/22 Q1011 NOSIG=  
30-Jun-2014 SAID35 WAPI 300000 METAR WAPI 300000Z 12012KT 9999 SCT015 27/23 Q1015 NOSIG=  
30-Jun-2014 SAID35 WAPI 300100 METAR WAPI 300100Z 13010KT 9999 SCT015 27/24 Q1015 NOSIG=  
30-Jun-2014 SAID35 WAPI 300200 METAR WAPI 300200Z 12010KT 9999 SCT015 27/23 Q1015 NOSIG=  
30-Jun-2014 SAID35 WAPI 300400 METAR WAPI 300400Z 12009KT 9999 BKN015 28/22 Q1014=  
30-Jun-2014 SAID35 WAPI 300500 METAR WAPI 300500Z 12011KT 9999 BKN015 28/22 Q1013=  
30-Jun-2014 SAID35 WAPI 300600 METAR WAPI 300600Z 12012KT 9999 BKN015 27/22 Q1012=  
01-Jul-2014 SAID35 WAPI 010000 METAR WAPI 010000Z 13010KT 9999 SCT015 25/22 Q1015 NOSIG=  
01-Jul-2014 SAID35 WAPI 010100 METAR WAPI 010100Z 15011KT 9999 SCT018 26/22 Q1016 NOSIG=  
01-Jul-2014 SAID35 WAPI 010200 METAR WAPI 010200Z 14012KT 9999 BKN018 27/22 Q1016 NOSIG=  
01-Jul-2014 SAID35 WAPI 010300 METAR WAPI 010300Z 16012KT 9999 BKN018 26/22 Q1015 NOSIG=  
18-Jul-2014 SAID35 WAPI 180000 METAR WAPI 180000Z 12011KT 9999 SCT015 26/24 Q1013 NOSIG=  
18-Jul-2014 SAID35 WAPI 180300 METAR WAPI 180300Z 11011KT SCT015 28/23 Q1012 NOSIG=  
18-Jul-2014 SAID35 WAPI 182300 METAR WAPI 182300Z 11009KT BKN015 26/22 Q1012 NOSIG=  
19-Jul-2014 SAID35 WAPI 190000 METAR WAPI 190000Z 11012KT BKN015 27/22 Q1013 NOSIG=  
19-Jul-2014 SAID35 WAPI 190100 METAR WAPI 190100Z 12012KT BKN015 28/23 Q1013 NOSIG=  
19-Jul-2014 SAID35 WAPI 190200 METAR WAPI 190200Z 11014KT BKN015 28/21 Q1012 NOSIG=  
19-Jul-2014 SAID35 WAPI 190300 METAR WAPI 190300Z 12012KT SCT015 28/23 Q1012 NOSIG=  
19-Jul-2014 SAID35 WAPI 190400 METAR WAPI 190400Z 12011KT SCT015 28/23 Q1011 NOSIG=  
19-Jul-2014 SAID35 WAPI 190600 METAR WAPI 190600Z 12009KT SCT015 27/22 Q1010 NOSIG=  
19-Jul-2014 SAID35 WAPI 192300 METAR WAPI 192300Z 09007KT SCT015 25/22 Q1014 NOSIG=  
20-Jul-2014 SAID35 WAPI 200000 METAR WAPI 200000Z 09006KT SCT018 26/23 Q1014 NOSIG=  
20-Jul-2014 SAID35 WAPI 200100 METAR WAPI 200100Z 09007KT SCT018 27/23 Q1015 NOSIG=  
20-Jul-2014 SAID35 WAPI 200200 METAR WAPI 200200Z 11008KT 8000 RA SCT018 27/23 Q1014=  
20-Jul-2014 SAID35 WAPI 200300 METAR WAPI 200300Z 13006KT 8000 SCT018 26/24 Q1013=  
20-Jul-2014 SAID35 WAPI 200400 METAR WAPI 200400Z 12011KT 8000 SCT018 27/23 Q1012=  
20-Jul-2014 SAID35 WAPI 200500 METAR WAPI 200500Z 12008KT 9999 SCT018 27/23 Q1012=  
21-Jul-2014 SAID35 WAPI 210100 METAR WAPI 210100Z 97900 9999 SCT015 27/22 Q1014 NOSIG=  
23-Jul-2014 SAID35 WAPI 230000 METAR WAPI 230000Z 11007KT 9999 SCT015 27/21 Q1013=  
23-Jul-2014 SAID35 WAPI 230100 METAR WAPI 230100Z 11008KT 9999 SCT015 27/21 Q1013 NOSIG=  
23-Jul-2014 SAID35 WAPI 230200 METAR WAPI 230200Z 11008KT 9999 SCT015 28/22 Q1013 NOSIG=  
23-Jul-2014 SAID35 WAPI 230300 METAR WAPI 230300Z 11009KT 9999 SCT015 28/21 Q1012 NOSIG=  
23-Jul-2014 SAID35 WAPI 230400 METAR WAPI 230400Z 12009KT 9999 SCT015 28/22 Q1012 NOSIG=  
23-Jul-2014 SAID35 WAPI 230500 METAR WAPI 230500Z 12007KT 9999 SCT015 28/21 Q1011 NOSIG=  
23-Jul-2014 SAID35 WAPI 230600 METAR WAPI 230600Z 12008KT 9999 SCT015 28/21 Q1011 NOSIG=  
23-Jul-2014 SAID35 WAPI 232300 METAR WAPI 232300Z 11006KT 9999 SCT015 26/23 Q1013 NOSIG=  
24-Jul-2014 SAID35 WAPI 240000 METAR WAPI 240000Z 10007KT 9999 SCT015 27/23 Q1014 NOSIG=  
24-Jul-2014 SAID35 WAPI 240100 METAR WAPI 240100Z 08008KT 9999 SCT015 27/23 Q1014 NOSIG=  
24-Jul-2014 SAID35 WAPI 240200 METAR WAPI 240200Z 09006KT 9999 SCT015 27/23 Q1014 NOSIG=  
24-Jul-2014 SAID35 WAPI 240300 METAR WAPI 240300Z 11008KT 9999 SCT015 26/22 Q1013 NOSIG=  
24-Jul-2014 SAID35 WAPI 240400 METAR WAPI 240400Z 10008KT 9999 SCT015 28/23 Q1012 NOSIG=  
25-Jul-2014 SAID35 WAPI 252300 METAR WAPI 252300Z 11007KT 9999 SCT015 26/22 Q1016 NOSIG=  
26-Jul-2014 SAID35 WAPI 260000 METAR WAPI 260000Z 11007KT 9999 SCT015 27/22 Q1016 NOSIG=  
26-Jul-2014 SAID35 WAPI 260100 METAR WAPI 260100Z 11008KT 9999 SCT015 28/22 Q1016 NOSIG=  
26-Jul-2014 SAID35 WAPI 260300 METAR WAPI 260300Z 12008KT 9999 SCT015 29/23 Q1015 NOSIG=  
01-Aug-2014 SAID35 WAPI 010000 METAR WAPI 010000Z 08007KT PPPP BKN015 28/24 Q1014=  
01-Aug-2014 SAID35 WAPI 010300 METAR WAPI 010300Z 10011KT 9999 SCT015 28/22 Q1013 NOSIG=  
02-Aug-2014 SAID35 WAPI 020000 METAR WAPI 020000Z 10003KT 9999 SCT015 27/23 Q1014 NOSIG=  
02-Aug-2014 SAID35 WAPI 020100 METAR WAPI 020100Z 11008KT 9999 SCT015 28/23 Q1014 NOSIG=  
02-Aug-2014 SAID35 WAPI 020200 METAR WAPI 020200Z 10010KT 9999 SCT015 28/22 Q1014 NOSIG=  
02-Aug-2014 SAID35 WAPI 020300 METAR WAPI 020300Z 10010KT 9999 SCT015 28/23 Q1013 NOSIG=  
02-Aug-2014 SAID35 WAPI 020400 METAR WAPI 020400Z 11010KT 9999 SCT015 28/23 Q1012 NOSIG=  
03-Aug-2014 SAID35 WAPI 030000 METAR WAPI 030000Z 11012KT 9999 SCT015 27/23 Q1015 NOSIG=  
03-Aug-2014 SAID35 WAPI 030100 METAR WAPI 030100Z 11011KT 9999 SCT015 27/23 Q1015 NOSIG=  
03-Aug-2014 SAID35 WAPI 030200 METAR WAPI 030200Z 11013KT 9999 SCT015 28/23 Q1015 NOSIG=  
03-Aug-2014 SAID35 WAPI 030300 METAR WAPI 030300Z 11012KT 9999 SCT015 28/23 Q1014 NOSIG=  
05-Aug-2014 SAID35 WAPI 050000 METAR WAPI 050000Z 12010KT 9999 SCT015 26/21 Q1016 NOSIG=  
05-Aug-2014 SAID35 WAPI 050100 METAR WAPI 050100Z 12011KT 9999 SCT015 27/20 Q1016 NOSIG=  
05-Aug-2014 SAID35 WAPI 050200 METAR WAPI 050200Z 12012KT 9999 SCT015 28/21 Q1015 NOSIG=  
05-Aug-2014 SAID35 WAPI 050300 METAR WAPI 050300Z 11012KT 9999 SCT015 28/21 Q1015 NOSIG=  
06-Aug-2014 SAID35 WAPI 060000 METAR WAPI 060000Z 14006KT 9999 OVC030 25/22 Q1015 NOSIG=  
06-Aug-2014 SAID35 WAPI 060100 METAR WAPI 060100Z 14007KT 9999 OVC030 26/22 Q1015 NOSIG=  
06-Aug-2014 SAID35 WAPI 060200 METAR WAPI 060200Z 13007KT 9999 OVC030 26/22 Q1014 NOSIG=  
06-Aug-2014 SAID35 WAPI 060300 METAR WAPI 060300Z 13009KT 9999 BKN030 28/22 Q1013 NOSIG=  
07-Aug-2014 SAID35 WAPI 070000 METAR WAPI 070000Z 13007KT 9999 BKN015 26/24 Q1015 NOSIG=  
07-Aug-2014 SAID35 WAPI 070200 METAR WAPI 070200Z 12011KT 9999 SCT015 26/23 Q1015 NOSIG=  
07-Aug-2014 SAID35 WAPI 070300 METAR WAPI 070300Z 09007KT 9999 SCT018 OVC030 25/24 Q1014=  
07-Aug-2014 SAID35 WAPI 072300 METAR WAPI 072300Z 13008KT 9999 SCT018 BKN030 26/24 Q1014 NOSIG=  
08-Aug-2014 SAID35 WAPI 080000 METAR WAPI 080000Z 13009KT 9999 SCT018 BKN030 26/23 Q1014 NOSIG=  
08-Aug-2014 SAID35 WAPI 080100 METAR WAPI 080100Z 11011KT 9999 SCT018 BKN030 27/23 Q1014 NOSIG=  
08-Aug-2014 SAID35 WAPI 080200 METAR WAPI 080200Z 11012KT 9999 SCT018 BKN030 25/23 Q1014 NOSIG=  
09-Aug-2014 SAID35 WAPI 090000 METAR WAPI 090000Z 12012KT 9999 SCT015 27/21 Q1015 NOSIG=  
09-Aug-2014 SAID35 WAPI 090100 METAR WAPI 090100Z 12011KT 9999 SCT015 27/21 Q1015 NOSIG=  
09-Aug-2014 SAID35 WAPI 090200 METAR WAPI 090200Z 12012KT 9999 SCT015 27/21 Q1015 NOSIG=  
09-Aug-2014 SAID35 WAPI 090300 METAR WAPI 090300Z 11012KT 9999 SCT015 28/22 Q1015 NOSIG=  
09-Aug-2014 SAID35 WAPI 090900 METAR WAPI 090900Z 13008KT 9999 RA BKN018 OVC030 26/22 Q1013=  
10-Aug-2014 SAID35 WAPI 100000 METAR WAPI 100000Z 10009KT 9999 SCT015 26/20 Q1015 NOSIG=  
10-Aug-2014 SAID35 WAPI 100100 METAR WAPI 100100Z 10011KT CAVOK 28/21 Q1015 NOSIG=  
10-Aug-2014 SAID35 WAPI 100200 METAR WAPI 100200Z 11010KT CAVOK 28/20 Q1014 NOSIG=  
11-Aug-2014 SAID35 WAPI 110000 METAR WAPI 110000Z 11010KT 9999 SCT015 27/22 Q1015 NOSIG=  
11-Aug-2014 SAID35 WAPI 110100 METAR WAPI 110100Z 12010KT 9999 SCT010 27/22 Q1015 NOSIG=  
11-Aug-2014 SAID35 WAPI 110300 METAR WAPI 110300Z 12012KT 9999 SCT018 28/22 Q1014 NOSIG=  
11-Aug-2014 SAID35 WAPI 112300 METAR WAPI 112300Z 11011KT 9999 SCT015 26/22 Q1014 NOSIG=  
12-Aug-2014 SAID35 WAPI 120000 METAR WAPI 120000Z 12011KT 9999 SCT015 27/22 Q1014 NOSIG=  
12-Aug-2014 SAID35 WAPI 120100 METAR WAPI 120100Z 12011KT 9999 SCT015 28/22 Q1014 NOSIG=  
12-Aug-2014 SAID35 WAPI 120200 METAR WAPI 120200Z 12010KT 9999 SCT015 28/22 Q1014 NOSIG=  
13-Aug-2014 SAID35 WAPI 130200 METAR WAPI 130200Z 11010KT 9999 SCT015 27/21 Q1014 NOSIG=  
13-Aug-2014 SAID35 WAPI 130300 METAR WAPI 130300Z 13015KT 9999 SCT015 28/21 Q1014 NOSIG=  
13-Aug-2014 SAID35 WAPI 130400 METAR WAPI 130400Z 12010KT 9999 SCT015 28/21 Q1013 NOSIG=  
13-Aug-2014 SAID35 WAPI 130500 METAR WAPI 130500Z 12010KT 9999 SCT015 28/21 Q1013 NOSIG=  
13-Aug-2014 SAID35 WAPI 130600 METAR WAPI 130600Z 12012KT 9999 SCT015 28/21 Q1012 NOSIG=  
14-Aug-2014 SAID35 WAPI 140000 METAR WAPI 140000Z 13008KT 9999 OVC030 26/22 Q1016 NOSIG=  
14-Aug-2014 SAID35 WAPI 140100 METAR WAPI 140100Z 14010KT 9999 OVC030 26/21 Q1016 NOSIG=  
14-Aug-2014 SAID35 WAPI 140200 METAR WAPI 140200Z 12012KT 9999 BKN015 27/20 Q1016 NOSIG=  
14-Aug-2014 SAID35 WAPI 140300 METAR WAPI 140300Z 15010KT 9999 BKN015 27/22 Q1015 NOSIG=  
14-Aug-2014 SAID35 WAPI 140400 METAR WAPI 140400Z 14009KT 9999 SCT015 28/22 Q1015 NOSIG=  
14-Aug-2014 SAID35 WAPI 140500 METAR WAPI 140500Z 13009KT 9999 SCT015 28/22 Q1014 NOSIG=  
14-Aug-2014 SAID35 WAPI 140600 METAR WAPI 140600Z 15013KT 9999 SCT015 27/20 Q1013 NOSIG=  
15-Aug-2014 SAID35 WAPI 150000 METAR WAPI 150000Z 11009KT 9999 SCT015 27/22 Q1016 NOSIG=  
15-Aug-2014 SAID35 WAPI 150200 METAR WAPI 150200Z 13009KT 9999 SCT015 27/21 NOSIG=  
15-Aug-2014 SAID35 WAPI 150300 METAR WAPI 150300Z 13010KT 9999 SCT015 28/21 NOSIG=  
16-Aug-2014 SAID35 WAPI 160300 METAR WAPI 160300Z 12010KT 9999 SCT015 BKN030 28/22 Q1013 NOSIG=  
16-Aug-2014 SAID35 WAPI 160400 METAR WAPI 160400Z 12008KT 9999 SCT015 BKN030 27/22 Q1012 NOSIG=  
16-Aug-2014 SAID35 WAPI 160500 METAR WAPI 160500Z 11010KT 9999 SCT015 BKN030 28/22 Q1012 NOSIG=  
16-Aug-2014 SAID35 WAPI 160600 METAR WAPI 160600Z 13010KT 9999 FEW015 BKN030 28/22 Q1011 NOSIG=  
17-Aug-2014 SAID35 WAPI 170000 METAR WAPI 170000Z 12008KT 9999 SCT015 27/21 Q1014 NOSIG=  
17-Aug-2014 SAID35 WAPI 170300 METAR WAPI 170300Z 12009KT 9999 SCT015 28/22 Q1013 NOSIG=  
18-Aug-2014 SAID35 WAPI 180000 METAR WAPI 180000Z 11010KT 9999 SCT015 26/20 Q1016 NOSIG=  
18-Aug-2014 SAID35 WAPI 180100 METAR WAPI 180100Z 11010KT 9999 SCT015 27/20 Q1016 NOSIG=  
18-Aug-2014 SAID35 WAPI 180200 METAR WAPI 180200Z 12010KT 9999 SCT015 27/19 Q1016 NOSIG=  
18-Aug-2014 SAID35 WAPI 180300 METAR WAPI 180300Z 11012KT 9999 SCT015 28/20 Q1015 NOSIG=  
18-Aug-2014 SAID35 WAPI 180400 METAR WAPI 180400Z 12010KT 9999 SCT015 28/20 Q1014 NOSIG=  
18-Aug-2014 SAID35 WAPI 180500 METAR WAPI 180500Z 12010KT 9999 SCT015 28/17 Q1014 NOSIG=  
19-Aug-2014 SAID35 WAPI 190000 METAR WAPI 190000Z 12006KT 9999 OVC030 26/21 Q1016 NOSIG=  
19-Aug-2014 SAID35 WAPI 190100 METAR WAPI 190100Z 12007KT 9999 BKN015 26/21 Q1016 NOSIG=  
19-Aug-2014 SAID35 WAPI 190200 METAR WAPI 190200Z 12007KT 9999 SCT015 BKN030 27/20 Q1016 NOSIG=  
19-Aug-2014 SAID35 WAPI 190300 METAR WAPI 190300Z 12010KT 9999 SCT015 BKN030 27/21 Q1015 NOSIG=  
19-Aug-2014 SAID35 WAPI 190600 METAR WAPI 190600Z 13010KT 9999 SCT015 28/22 Q1012 NOSIG=  
19-Aug-2014 SAID35 WAPI 192300 METAR WAPI 192300Z 11006KT 9999 FEW010 25/24 Q1015 NOSIG=  
20-Aug-2014 SAID35 WAPI 200000 METAR WAPI 200000Z 12008KT 9999 FEW010 BKN075 27/20 Q1016 NOSIG=  
20-Aug-2014 SAID35 WAPI 200100 METAR WAPI 200100Z 11007KT 9999 FEW010 BKN075 27/20 Q1016 NOSIG=  
20-Aug-2014 SAID35 WAPI 200200 METAR WAPI 200200Z 10009KT 9999 SCT015 28/20 Q1015 NOSIG=  
20-Aug-2014 SAID35 WAPI 200300 METAR WAPI 200300Z 11012KT 9999 SCT015 27/20 Q1015 NOSIG=  
20-Aug-2014 SAID35 WAPI 200400 METAR WAPI 200400Z 13006KT 9999 SCT015 28/21 Q1014 NOSIG=  
20-Aug-2014 SAID35 WAPI 200500 METAR WAPI 200500Z 12009KT 9999 SCT015 28/21 Q1013 NOSIG=  
20-Aug-2014 SAID35 WAPI 200600 METAR WAPI 200600Z 12006KT 9999 SCT015 28/21 Q1012 NOSIG=  
21-Aug-2014 SAID35 WAPI 210000 METAR WAPI 210000Z 10009KT 9999 FEW015 27/19 Q1014 NOSIG=  
21-Aug-2014 SAID35 WAPI 210500 METAR WAPI 210500Z 13012KT 9999 SCT015 28/21 Q1012 NOSIG=  
21-Aug-2014 SAID35 WAPI 210600 METAR WAPI 210600Z 13012KT 9999 SCT015 27/20 Q1012 NOSIG=  
22-Aug-2014 SAID35 WAPI 220000 METAR WAPI 220000Z 11011KT 9999 BKN015 26/20 Q1015 NOSIG=  
22-Aug-2014 SAID35 WAPI 220400 METAR WAPI 220400Z 13012KT 9999 BKN015 27/20 Q1013 NOSIG=  
22-Aug-2014 SAID35 WAPI 220500 METAR WAPI 220500Z 15010KT 9999 BKN015 28/20 Q1012 NOSIG=  
22-Aug-2014 SAID35 WAPI 220600 METAR WAPI 220600Z 12010KT 9999 SCT015 27/20 Q1012 NOSIG=  
23-Aug-2014 SAID35 WAPI 230000 METAR WAPI 230000Z 13008KT CAVOK 27/18 Q1015 NOSIG=  
23-Aug-2014 SAID35 WAPI 230100 METAR WAPI 230100Z 12008KT 9999 BKN015 28/20 Q1015 NOSIG=  
23-Aug-2014 SAID35 WAPI 230200 METAR WAPI 230200Z 12008KT 9999 BKN015 28/20 Q1015 NOSIG=  
23-Aug-2014 SAID35 WAPI 230300 METAR WAPI 230300Z 13009KT 9999 BKN015 28/20 Q1014 NOSIG=  
25-Aug-2014 SAID35 WAPI 250000 METAR WAPI 250000Z 11009KT 9999 BKN015 27/22 Q1014 NOSIG=  
25-Aug-2014 SAID35 WAPI 250100 METAR WAPI 250100Z 14008KT 9999 BKN015 27/22 Q1014 NOSIG=  
25-Aug-2014 SAID35 WAPI 250200 METAR WAPI 250200Z 12010KT 9999 BKN015 28/23 Q1014 NOSIG=  
25-Aug-2014 SAID35 WAPI 250300 METAR WAPI 250300Z 12010KT 9999 BKN015 28/23 Q1013 NOSIG=  
25-Aug-2014 SAID35 WAPI 250400 METAR WAPI 250400Z 14012KT 9999 BKN015 28/23 Q1012 NOSIG=  
25-Aug-2014 SAID35 WAPI 250600 METAR WAPI 250600Z 12010KT 9999 BKN015 28/23 Q1011 NOSIG=  
26-Aug-2014 SAID35 WAPI 260000 METAR WAPI 260000Z 12009KT 9999 FEW015 27/18 Q1014 NOSIG=  
26-Aug-2014 SAID35 WAPI 260100 METAR WAPI 260100Z 13015KT 9999 SCT015 28/19 Q1014 NOSIG=  
26-Aug-2014 SAID35 WAPI 260200 METAR WAPI 260200Z 12013KT 9999 SCT015 29/19 Q1013 NOSIG=  
26-Aug-2014 SAID35 WAPI 260300 METAR WAPI 260300Z 11010KT 9999 SCT015 29/20 Q1013 NOSIG=  
26-Aug-2014 SAID35 WAPI 260400 METAR WAPI 260400Z 11011KT 9999 SCT015 28/22 Q1012 NOSIG=  
26-Aug-2014 SAID35 WAPI 260500 METAR WAPI 260500Z 12012KT 9999 BKN017 28/22 Q1011 NOSIG=  
26-Aug-2014 SAID35 WAPI 262300 METAR WAPI 262300Z 12008KT 9999 BKN015 26/21 Q1013 NOSIG=  
27-Aug-2014 SAID35 WAPI 270000 METAR WAPI 270000Z 12009KT 9999 OVC030 26/21 Q1013 NOSIG=  
27-Aug-2014 SAID35 WAPI 270400 METAR WAPI 270400Z 12011KT 9999 SCT015 28/22 Q1012 NOSIG=  
29-Aug-2014 SAID35 WAPI 290000 METAR WAPI 290000Z 13008KT 9999 SCT015 27/22 Q1014 NOSIG=  
29-Aug-2014 SAID35 WAPI 290100 METAR WAPI 290100Z 12010KT 9999 SCT015 28/21 Q1014 NOSIG=  
29-Aug-2014 SAID35 WAPI 290200 METAR WAPI 290200Z 14012KT 9999 SCT015 28/21 Q1014 NOSIG=  
29-Aug-2014 SAID35 WAPI 290300 METAR WAPI 290300Z 12012KT 9999 SCT015 28/21 Q1013 NOSIG=  
29-Aug-2014 SAID35 WAPI 290400 METAR WAPI 290400Z 120089KT 9999 BKN015 28/20 Q1013 NOSIG=  
29-Aug-2014 SAID35 WAPI 290500 METAR WAPI 290500Z 130010KT 9999 BKN015 28/20 Q1012 NOSIG=  
29-Aug-2014 SAID35 WAPI 290600 METAR WAPI 290600Z 13011KT 9999 BKN015 28/20 Q1012 NOSIG=  
30-Aug-2014 SAID35 WAPI 300000 METAR WAPI 300000Z 12008KT 9999 BKN015 27/23 Q1014 NOSIG=  
30-Aug-2014 SAID35 WAPI 300100 METAR WAPI 300100Z 10007KT 9999 BKN015 28/22 Q1014 NOSIG=  
30-Aug-2014 SAID35 WAPI 300200 METAR WAPI 300200Z 11009KT 9999 BKN015 28/23 Q1014 NOSIG=  
30-Aug-2014 SAID35 WAPI 300300 METAR WAPI 300300Z 12009KT 9999 BKN015 28/23 Q1013 NOSIG=  
31-Aug-2014 SAID35 WAPI 310100 METAR WAPI 310100Z 11010KT 9999 SCT015 27/21 Q1013 NOSIG =  
31-Aug-2014 SAID35 WAPI 310200 METAR WAPI 310200Z 10009KT 9999 SCT015 28/21 Q1013 NOSIG =  
31-Aug-2014 SAID35 WAPI 310300 METAR WAPI 310300Z 11008KT 9999 SCT015 28/22 Q1012 NOSIG =  
31-Aug-2014 SAID35 WAPI 310400 METAR WAPI 310400Z 11009KT 9999 SCT015 28/21 Q1011 NOSIG=  
31-Aug-2014 SAID35 WAPI 310500 METAR WAPI 310500Z 11012KT 9999 FEW015 29/22 Q1010 NOSIG=  
01-Sep-2014 SAID35 WAPI 010300 METAR WAPI 010300Z 13008KT 9999 BKN015 28/22 Q1013 NOSIG=  
01-Sep-2014 SAID35 WAPI 010400 METAR WAPI 010400Z 15007KT 9999 SCT015 28/22 Q1012 NOSIG=  
01-Sep-2014 SAID35 WAPI 010500 METAR WAPI 010500Z 12009KT 9999 SCT015 28/22 Q1011 NOSIG=  
01-Sep-2014 SAID35 WAPI 010600 METAR WAPI 010600Z 13008KT 9999 FEW015 28/21 Q1011 NOSIG=  
02-Sep-2014 SAID35 WAPI 020000 METAR WAPI 020000Z 12009KT 9999 SCT015 27/22 Q1015 NOSIG=  
02-Sep-2014 SAID35 WAPI 020100 METAR WAPI 020100Z 13009KT 9999 SCT015 27/22 Q1015 NOSIG=  
02-Sep-2014 SAID35 WAPI 020300 METAR WAPI 020300Z 11006KT 9999 SCT015 28/22 Q1014 NOSIG=  
02-Sep-2014 SAID35 WAPI 020400 METAR WAPI 020400Z 14009KT 9999 FEW010 28/22 Q1013 NOSIG=  
02-Sep-2014 SAID35 WAPI 020600 METAR WAPI 020600Z 12008KT 9999 SCT015 29/22 Q1012 NOSIG=  
03-Sep-2014 SAID35 WAPI 030000 METAR WAPI 030000Z 10006KT 9999 BKN015 27/21 Q1015 NOSIG=  
03-Sep-2014 SAID35 WAPI 030100 METAR WAPI 030100Z 07007KT 9999 FEW015 28/21 Q1015 NOSIG=  
03-Sep-2014 SAID35 WAPI 030200 METAR WAPI 030200Z 08007KT 9999 FEW015 29/20 Q1014 NOSIG=  
03-Sep-2014 SAID35 WAPI 030300 METAR WAPI 030300Z 11010KT 9999 SCT015 29/20 Q1014 NOSIG=  
03-Sep-2014 SAID35 WAPI 030600 METAR WAPI 030400Z 10009KT 9999 SCT018 29/21 Q1013=  
03-Sep-2014 SAID35 WAPI 030600 METAR WAPI 030500Z 14009KT 9999 SCT018 29/21 Q1012=  
03-Sep-2014 SAID35 WAPI 030600 METAR WAPI 030600Z 12010KT 9999 SCT018 28/21 Q1012=  
04-Sep-2014 SAID35 WAPI 040000 METAR WAPI 040000Z 12010KT 9999 FEW015 27/21 Q1013 NOSIG=  
04-Sep-2014 SAID35 WAPI 040100 METAR WAPI 040100Z 12009KT 9999 FEW015 28/21 Q1013 NOSIG=  
04-Sep-2014 SAID35 WAPI 040200 METAR WAPI 040200Z 11010KT 9999 FEW010 28/21 Q1012 NOSIG=  
04-Sep-2014 SAID35 WAPI 040300 METAR WAPI 040300Z 12010KT 9999 FEW010 29/21 Q1011 NOSIG=  
04-Sep-2014 SAID35 WAPI 040400 METAR WAPI 040400Z 10008KT CAVOK 29/20 Q1011 NOSIG=  
04-Sep-2014 SAID35 WAPI 040600 METAR WAPI 040600Z 12009KT 9999 FEW015 29/20 Q1009 NOSIG=  
04-Sep-2014 SAID35 WAPI 042300 METAR WAPI 042300Z 08004KT 9999 FEW010 28/18 Q1013 NOSIG=  
05-Sep-2014 SAID35 WAPI 050000 METAR WAPI 050000Z 12008KT 9999 FEW010 27/21 Q1013 NOSIG=  
05-Sep-2014 SAID35 WAPI 050100 METAR WAPI 050100Z 11008KT 9999 SCT015 27/21 Q1013 NOSIG=  
05-Sep-2014 SAID35 WAPI 050200 METAR WAPI 050200Z 08008KT 9999 SCT015 27/21 Q1013 NOSIG=  
05-Sep-2014 SAID35 WAPI 050300 METAR WAPI 050300Z 12007KT 9999 SCT015 28/22 Q1015 NOSIG=  
05-Sep-2014 SAID35 WAPI 050400 METAR WAPI 050400Z 13006KT 9999 SCT015 28/22 Q1011 NOSIG=  
05-Sep-2014 SAID35 WAPI 050500 METAR WAPI 050500Z 13006KT 9999 SCT015 28/22 Q1010 NOSIG=  
05-Sep-2014 SAID35 WAPI 050600 METAR WAPI 050600Z 13006KT 9999 BKN015 28/22 Q1010 NOSIG=  
06-Sep-2014 SAID35 WAPI 060000 METAR WAPI 060000Z 12007KT 9999 SCT015 26/21 Q1014 NOSIG=  
06-Sep-2014 SAID35 WAPI 060100 METAR WAPI 060100Z 13008KT 9999 SCT015 28/21 Q1015 NOSIG=  
06-Sep-2014 SAID35 WAPI 060200 METAR WAPI 060200Z 12008KT 9999 BKN015 28/21 Q1014 NOSIG=  
06-Sep-2014 SAID35 WAPI 060300 METAR WAPI 060300Z 13010KT 9999 BKN015 29/21 Q1014 NOSIG=  
06-Sep-2014 SAID35 WAPI 060600 METAR WAPI 060400Z 11010KT 9999 SCT018 28/21 Q1013 NOSIC=  
06-Sep-2014 SAID35 WAPI 060600 METAR WAPI 060500Z 11011KT 9999 SCT018 28/22 Q1012 NOSIC=  
06-Sep-2014 SAID35 WAPI 060600 METAR WAPI 060600Z 11011KT 9999 SCT018 27/21 Q1011 NOSIC=  
07-Sep-2014 SAID35 WAPI 070100 METAR WAPI 070100Z 11011KT 9999 SCT015 28/21 Q1015 NOSIG=  
07-Sep-2014 SAID35 WAPI 070200 METAR WAPI 070200Z 12009KT 9999 SCT015 28/21 Q1015 NOSIG=  
07-Sep-2014 SAID35 WAPI 070300 METAR WAPI 070300Z 11010KT 9999 SCT015 28/21 Q1014 NOSIG=  
07-Sep-2014 SAID35 WAPI 070400 METAR WAPI 070400Z 11009KT 9999 SCT015 28/21 Q1014 NOSIG=  
07-Sep-2014 SAID35 WAPI 070500 METAR WAPI 070500Z 11009KT 9999 BKN018 29/24 Q1013=  
07-Sep-2014 SAID35 WAPI 070600 METAR WAPI 070600Z 11011KT 9999 SCT015 28/21 Q1012 NOSIG=  
07-Sep-2014 SAID35 WAPI 072300 METAR WAPI 072300Z 10009KT 9999 SCT018 26/21 Q1015=  
08-Sep-2014 SAID35 WAPI 080000 METAR WAPI 080000Z 11010KT 9999 SCT015 27/22 Q1016 NOSIG=  
08-Sep-2014 SAID35 WAPI 080100 METAR WAPI 080100Z 11010KT 9999 SCT015 28/21 Q1016 NOSIG=  
08-Sep-2014 SAID35 WAPI 080200 METAR WAPI 080200Z 12010KT 9999 BKN015 28/22 Q1015 NOSIG=  
08-Sep-2014 SAID35 WAPI 080300 METAR WAPI 080300Z 11011KT 9999 BKN015 29/21 Q1015 NOSIG=  
08-Sep-2014 SAID35 WAPI 080500 METAR WAPI 080500Z 12010KT 9999 SCT018 29/22 Q1013=  
08-Sep-2014 SAID35 WAPI 080600 METAR WAPI 080600Z 11012KT 9999 BKN018 28/22 Q1013=  
08-Sep-2014 SAID35 WAPI 082300 METAR WAPI 082300Z 10008KT 9999 SCT015 26/22 Q1015 NOSIG=  
09-Sep-2014 SAID35 WAPI 090000 METAR WAPI 090000Z 10009KT 9999 BKN015 27/22 Q1015 NOSIG=  
09-Sep-2014 SAID35 WAPI 090100 METAR WAPI 090100Z 11010KT 9999 SCT010 28/22 Q1015 NOSIG=  
09-Sep-2014 SAID35 WAPI 090200 METAR WAPI 090200Z 08009KT 9999 SCT010 29/22 Q1015 NOSIG=  
09-Sep-2014 SAID35 WAPI 090300 METAR WAPI 090300Z 10010KT 9999 FEW010 29/22 Q1014 NOSIG=  
09-Sep-2014 SAID35 WAPI 090400 METAR WAPI 090400Z 12009KT 9999 FEW010 29/22 Q1013 NOSIG=  
09-Sep-2014 SAID35 WAPI 090500 METAR WAPI 090500Z 12009KT 9999 FEW010 29/22 Q1012 NOSIG=  
09-Sep-2014 SAID35 WAPI 090600 METAR WAPI 090600Z 09009KT 9999 FEW010 28/22 Q1012 NOSIG=  
09-Sep-2014 SAID54 WAPI 092300 METAR WAPI 092300Z 13005KT 9999 SCT018 25/22 Q1014=  
10-Sep-2014 SAID35 WAPI 100000 METAR WAPI 100000Z 14009KT 9999 BKN015 27/22 Q1015 NOSIG=  
10-Sep-2014 SAID35 WAPI 100200 METAR WAPI 100200Z 12009KT 9999 FEW010 28/22 Q1015 NOSIG=  
10-Sep-2014 SAID35 WAPI 100300 METAR WAPI 100300Z 13010KT 9999 FEW010 28/22 Q1014 NOSIG=  
10-Sep-2014 SAID35 WAPI 100400 METAR WAPI 100400Z 12010KT 9999 SCT018 28/22 Q1013=  
10-Sep-2014 SAID35 WAPI 100500 METAR WAPI 100500Z 13009KT 9999 SCT018 29/22 Q1012=  
10-Sep-2014 SAID35 WAPI 100600 METAR WAPI 100600Z 11011KT 9999 SCT018 28/22 Q1012=  
11-Sep-2014 SAID35 WAPI 110000 METAR WAPI 110000Z 11004KT 9999 SCT015 27/22 Q1015 NOSIG=  
11-Sep-2014 SAID35 WAPI 110100 METAR WAPI 110100Z 14007KT 9999 SCT015 28/23 Q1015 NOSIG=  
11-Sep-2014 SAID35 WAPI 110200 METAR WAPI 110200Z 15008KT 9999 SCT015 28/22 Q1014 NOSIG=  
11-Sep-2014 SAID35 WAPI 110300 METAR WAPI 110300Z 13008KT 9999 SCT015 28/22 Q1013 NOSIG=  
11-Sep-2014 SAID35 WAPI 110400 METAR WAPI 110400Z 12010KT 9999 SCT015 28/22 Q1013 NOSIG=  
11-Sep-2014 SAID35 WAPI 110500 METAR WAPI 110500Z 12009KT 9999 SCT015 28/22 Q1012 NOSIG=  
11-Sep-2014 SAID35 WAPI 110600 METAR WAPI 110600Z 12008KT 9999 SCT015 28/23 Q1011 NOSIG=  
12-Sep-2014 SAID35 WAPI 120000 METAR WAPI 120000Z 10008KT 9999 FEW015 27/22 Q1015 NOSIG=  
12-Sep-2014 SAID35 WAPI 120100 METAR WAPI 120100Z 12009KT 9999 FEW015 28/22 Q1015 NOSIG=  
12-Sep-2014 SAID35 WAPI 120200 METAR WAPI 120200Z 08009KT 9999 FEW010 29/21 Q1014 NOSIG=  
12-Sep-2014 SAID35 WAPI 120300 METAR WAPI 120300Z 10008KT 9999 FEW010 29/21 Q1013 NOSIG=  
12-Sep-2014 SAID35 WAPI 120400 METAR WAPI 120400Z 12007KT 9999 FEW018 30/21 Q1013=  
12-Sep-2014 SAID35 WAPI 120600 METAR WAPI 120600Z 13008KT 9999 FEW018 29/22 Q1011=  
12-Sep-2014 SAID35 WAPI 122300 METAR WAPI 122300Z 12006KT 9999 SCT015 26/21 Q1014 NOSIG=  
13-Sep-2014 SAID35 WAPI 130000 METAR WAPI 130000Z 11008KT 9999 SCT015 27/22 Q11008 NOSIG=  
13-Sep-2014 SAID35 WAPI 130100 METAR WAPI 130100Z 11007KT 9999 SCT015 28/22 Q1014 NOSIG=  
13-Sep-2014 SAID35 WAPI 130200 METAR WAPI 130200Z 14007KT 9999 FEW010 29/22 Q1013 NOSIG=  
13-Sep-2014 SAID35 WAPI 130300 METAR WAPI 130300Z 15008KT 9999 FEW010 29/22 Q1013 NOSIG=  
13-Sep-2014 SAID35 WAPI 130400 METAR WAPI 130400Z 15010KT 9999 SCT010 29/22 Q1009 NOSIG=  
13-Sep-2014 SAID35 WAPI 130500 METAR WAPI 130500Z 15010KT 9999 SCT010 30/21 Q1011 NOSIG=  
13-Sep-2014 SAID35 WAPI 130600 METAR WAPI 130600Z 14009KT 9999 SCT015 29/22 Q1010 NOSIG=  
14-Sep-2014 SAID35 WAPI 140000 METAR WAPI 140000Z 11009KT 9999 FEW018 28/21 Q1013=  
14-Sep-2014 SAID35 WAPI 140005 METAR WAPI 140005Z 11009KT 9999 FEW018 28/21 Q1013=  
14-Sep-2014 SAID35 WAPI 140100 METAR WAPI 140100Z 11010KT 9999 SCT015 29/21 Q1013 NOSIG=  
14-Sep-2014 SAID35 WAPI 140200 METAR WAPI 140200Z 11012KT 9999 SCT015 29/21 Q1013 NOSIG=  
14-Sep-2014 SAID35 WAPI 140300 METAR WAPI 140300Z 11012KT 9999 SCT015 28/22 Q1012 NOSIG=  
14-Sep-2014 SAID35 WAPI 140400 METAR WAPI 140400Z 10014KT 9999 BKN015 28/22 Q1011 NOSIG=  
14-Sep-2014 SAID35 WAPI 140500 METAR WAPI 140500Z 10010KT 9999 SCT015 28/22 Q1010 NOSIG=  
14-Sep-2014 SAID35 WAPI 140600 METAR WAPI 140600Z 11012KT 9999 BKN015 28/22 Q1010 NOSIG=  
15-Sep-2014 SAID35 WAPI 150000 METAR WAPI 150000Z 08010KT 9999 SCT018 28/22 Q1013=  
15-Sep-2014 SAID35 WAPI 150100 METAR WAPI 150100Z 10010KT 9999 FEW015 25/22 Q1013 NOSIG=  
15-Sep-2014 SAID35 WAPI 150200 METAR WAPI 150200Z 10010KT 9999 FEW015 29/23 Q1012 NOSIG=  
15-Sep-2014 SAID35 WAPI 150300 METAR WAPI 150300Z 08012KT 9999 SCT015 29/23 Q1011 NOSIG=  
15-Sep-2014 SAID35 WAPI 150400 METAR WAPI 150400Z 11007KT 9999 SCT015 29/22 Q1011 NOSIG=  
15-Sep-2014 SAID35 WAPI 150500 METAR WAPI 150500Z 08009KT 9999 BKN015 28/22 Q1010 NOSIG=  
16-Sep-2014 SAID35 WAPI 160000 METAR WAPI 160000Z 09008KT 9999 SCT015 28/23 Q1013 NOSIG=  
16-Sep-2014 SAID35 WAPI 160100 METAR WAPI 160100Z 08009KT 9999 SCT015 28/23 Q1013 NOSIG=  
16-Sep-2014 SAID35 WAPI 160200 METAR WAPI 160200Z 08007KT 9999 BKN015 29/23 Q1013 NOSIG=  
16-Sep-2014 SAID35 WAPI 160300 METAR WAPI 160300Z 07007KT 9999 SCT015 29/23 Q1012 NOSIG=  
16-Sep-2014 SAID35 WAPI 160400 METAR WAPI 160400Z 07009KT 9999 SCT015 29/23 Q1011 NOSIG=  
16-Sep-2014 SAID35 WAPI 160500 METAR WAPI 160500Z 09008KT 9999 SCT015 30/21 Q1011 NOSIG=  
16-Sep-2014 SAID35 WAPI 160600 METAR WAPI 160600Z 09010KT 9999 SCT015 29/21 Q1010 NOSIG=  
16-Sep-2014 SAID35 WAPI 162300 METAR WAPI 162300Z 10007KT 9999 BKN015 27/22 Q1013 NOSIG=  
17-Sep-2014 SAID35 WAPI 170000 METAR WAPI 170000Z 11007KT 9999 BKN015 27/23 Q1014 NOSIG=  
17-Sep-2014 SAID35 WAPI 170100 METAR WAPI 170100Z 11008KT 9999 SCT015 28/23 Q1014 NOSIG=  
17-Sep-2014 SAID35 WAPI 170200 METAR WAPI 170200Z 07008KT 9999 BKN015 29/23 Q1014 NOSIG=  
17-Sep-2014 SAID35 WAPI 170300 METAR WAPI 170300Z 11009KT 9999 BKN015 29/22 Q1013=  
17-Sep-2014 SAID35 WAPI 170400 METAR WAPI 170400Z 12008KT 9999 SCT015 29/22 Q1013 NOSIG=  
17-Sep-2014 SAID35 WAPI 170500 METAR WAPI 170500Z 12007KT 9999 FEW010 29/23 Q1011 NOSIG=  
17-Sep-2014 SAID35 WAPI 170600 METAR WAPI 170600Z 11006KT 9999 FEW010 19/22 Q1011 NOSIG=  
17-Sep-2014 SAID35 WAPI 172300 METAR WAPI 172300Z 11004KT 9999 FEW018 27/22 Q1015=  
18-Sep-2014 SAID35 WAPI 180000 METAR WAPI 180000Z 11006KT 9999 FEW015 28/23 Q1015 NOSIG=  
18-Sep-2014 SAID35 WAPI 180100 METAR WAPI 180100Z 13007KT 9999 SCT015 28/23 Q1016 NOSIG=  
18-Sep-2014 SAID35 WAPI 180200 METAR WAPI 180200Z 13007KT 9999 SCT015 29/23 Q1015 NOSIG=  
18-Sep-2014 SAID35 WAPI 180300 METAR WAPI 180300Z 12007KT 9999 BKN015 29/23 Q1014 NOSIG=  
18-Sep-2014 SAID35 WAPI 180400 METAR WAPI 180400Z 13007KT 9999 SCT015 29/23 Q1013 NOSIG=  
18-Sep-2014 SAID35 WAPI 180500 METAR WAPI 180500Z 13007KT 9999 SCT015 29/22 Q1012 NOSIG=  
18-Sep-2014 SAID35 WAPI 180600 METAR WAPI 180600Z 12007KT 9999 BKN015 29/23 Q1012 NOSIG=  
19-Sep-2014 SAID35 WAPI 190000 METAR WAPI 190000Z 10009KT CAVOK 27/21 Q1014 NOSIG=  
19-Sep-2014 SAID35 WAPI 190100 METAR WAPI 190100Z 12008KT CAVOK 28/22 Q1015 NOSIG=  
19-Sep-2014 SAID35 WAPI 190200 METAR WAPI 190200Z 11009KT 9999 FEW015 29/22 Q1014 NOSIG=  
19-Sep-2014 SAID35 WAPI 190300 METAR WAPI 190300Z 13008KT 9999 FEW015 29/21 Q1014 NOSIG=  
19-Sep-2014 SAID35 WAPI 190400 METAR WAPI 190400Z 12008KT 9999 FEW018 29/21 Q1013=  
19-Sep-2014 SAID35 WAPI 190500 METAR WAPI 190500Z 12008KT 9999 FEW018 29/21 Q1012=  
19-Sep-2014 SAID35 WAPI 190600 METAR WAPI 190600Z 11007KT 9999 SCT018 29/21 Q1011=  
20-Sep-2014 SAID35 WAPI 200000 METAR WAPI 200000Z 10007KT 9999 FEW015 27/22 Q1014 NOSIG=  
20-Sep-2014 SAID35 WAPI 200100 METAR WAPI 200100Z 11009KT 9999 FEW015 28/22 Q1014 NOSIG=  
20-Sep-2014 SAID35 WAPI 200200 METAR WAPI 200200Z 11009KT 9999 BKN015 28/22 Q1014 NOSIG=  
20-Sep-2014 SAID35 WAPI 200300 METAR WAPI 200300Z 11009KT 9999 BKN015 28/22 Q1014 NOSIG=  
20-Sep-2014 SAID35 WAPI 200400 METAR WAPI 200400Z 12010KT 9999 BKN016 29/22 Q1012=  
20-Sep-2014 SAID35 WAPI 200500 METAR WAPI 200500Z 11011KT 9999 BKN016 29/21 Q1011=  
20-Sep-2014 SAID35 WAPI 200600 METAR WAPI 200600Z 12011KT 9999 BKN016 29/21 Q1011=  
20-Sep-2014 SAID35 WAPI 202300 METAR WAPI 202300Z 09004KT 9999 FEW010 25/22 Q1014 NOSIG=  
21-Sep-2014 SAID35 WAPI 210000 METAR WAPI 210000Z 09008KT 9999 FEW010 27/23 Q1014 NOSIG=  
21-Sep-2014 SAID35 WAPI 210100 METAR WAPI 210100Z 10007KT 9999 FEW010 28/23 Q1014 NOSIG=  
21-Sep-2014 SAID35 WAPI 210200 METAR WAPI 210200Z 08009KT 9999 FEW010 29/22 Q1014 NOSIG=  
21-Sep-2014 SAID35 WAPI 210300 METAR WAPI 210300Z 11008KT 9999 FEW010 29/22 Q1013 NOSIG=  
21-Sep-2014 SAID35 WAPI 210400 METAR WAPI 210400Z 12007KT 9999 FEW010 30/23 Q1012 NOSIG=  
21-Sep-2014 SAID35 WAPI 210500 METAR WAPI 210500Z 10006KT 9999 FEW010 30/23 Q1012 NOSIG=  
21-Sep-2014 SAID35 WAPI 210600 METAR WAPI 210600Z 12007KT 9999 FEW010 29/22 Q1011 NOSIG=  
22-Sep-2014 SAID35 WAPI 220000 METAR WAPI 220000Z 12007KT 9999 BKN015 27/22 Q1015 NOSIG=  
22-Sep-2014 SAID35 WAPI 220100 METAR WAPI 220100Z 13007KT 99999 BKN015 28/22 Q1015 NOSIG=  
22-Sep-2014 SAID35 WAPI 220200 METAR WAPI 220200Z 12007KT 9999 BKN015 29/21 Q1014 NOSIG=  
22-Sep-2014 SAID35 WAPI 220300 METAR WAPI 220300Z 13007 9999 SCT016 29/21 Q1013=  
22-Sep-2014 SAID35 WAPI 220400 METAR WAPI 220400Z 13008 9999 SCT016 29/21 Q1012=  
22-Sep-2014 SAID35 WAPI 220500 METAR WAPI 220500Z 12009 9999 SCT016 29/21 Q1012=  
22-Sep-2014 SAID35 WAPI 220600 METAR WAPI 220600Z 11007KT 9999 BKN16 28/21 Q1011 =  
23-Sep-2014 SAID35 WAPI 230000 METAR WAPI 230000Z 15005KT 9999 SCT015 27/22 Q1015 NOSIG=  
23-Sep-2014 SAID35 WAPI 230100 METAR WAPI 230100Z 15006KT 9999 SCT015 28/22 Q1015 NOSIG=  
23-Sep-2014 SAID35 WAPI 230200 METAR WAPI 230200Z 12007KT 9999 BKN015 29/22 Q1015 NOSIG=  
23-Sep-2014 SAID35 WAPI 230300 METAR WAPI 230300Z 12007KT 9999 BKN015 29/22 Q1014 NOSIG=  
23-Sep-2014 SAID35 WAPI 230400 METAR WAPI 230400Z 11007KT 9999 BKN016 29/22 Q1013 =  
23-Sep-2014 SAID35 WAPI 230500 METAR WAPI 230500Z 10008KT 9999 BKN016 29/22 Q1013 =  
23-Sep-2014 SAID35 WAPI 230600 METAR WAPI 230600Z 11006KT 9999 BKN016 29/22 Q1012 =  
23-Sep-2014 SAID35 WAPI 232300 METAR WAPI 232300Z 12005KT 9999 BKN016 26/22 Q1014=  
24-Sep-2014 SAID35 WAPI 240000 METAR WAPI 240000Z 13006KT 9999 SCT015 27/21 Q1015 NOSIG=  
24-Sep-2014 SAID35 WAPI 240100 METAR WAPI 240100Z 12007KT 9999 FEW015 28/22 Q1015 NOSIG=  
24-Sep-2014 SAID35 WAPI 240200 METAR WAPI 240200Z 11009KT 9999 BKN015 28/22 Q1014 NOSIG=  
24-Sep-2014 SAID35 WAPI 240300 METAR WAPI 240300Z 11009KT 9999 BKN015 28/22 Q1014 NOSIG=  
24-Sep-2014 SAID35 WAPI 240400 METAR WAPI 240400Z 10007KT 9999 BKN016 29/22 Q1013=  
24-Sep-2014 SAID35 WAPI 240500 METAR WAPI 240500Z 11007KT 9999 BKN016 29/22 Q1012 =  
24-Sep-2014 SAID35 WAPI 240600 METAR WAPI 240600Z 12010KT 9999 BKN016 29/22 Q1011 =  
24-Sep-2014 SAID35 WAPI 242300 METAR WAPI 242300Z 12008KT 9999 SCT015 27/22 Q1013 NOSIG=  
25-Sep-2014 SAID35 WAPI 250000 METAR WAPI 250000Z 11010KT 9999 SCT015 29/22 Q1014 NOSIG=  
25-Sep-2014 SAID35 WAPI 250100 METAR WAPI 250100Z 12009KT 9999 SCT015 29/23 Q1014 NOSIG=  
25-Sep-2014 SAID35 WAPI 250200 METAR WAPI 250200Z 12008KT 9999 SCT015 29/23 Q1014 NOSIG=  
25-Sep-2014 SAID35 WAPI 250300 METAR WAPI 250300Z 13008KT 9999 SCT015 30/24 Q1013 NOSIG=  
25-Sep-2014 SAID35 WAPI 250400 METAR WAPI 250400Z 11009KT 9999 SCT015 29/23 Q1011 NOSIG=  
25-Sep-2014 SAID35 WAPI 250500 METAR WAPI 250500Z 12010KT 9999 SCT015 29/23 Q1011 NOSIG=  
25-Sep-2014 SAID35 WAPI 250600 METAR WAPI 250600Z 11009KT 9999 SCT015 30/24 Q1009 NOSIG=  
25-Sep-2014 SAID35 WAPI 252300 METAR WAPI 252300Z 10009KT 9999 BKN015 27/23 Q1013=  
26-Sep-2014 SAID35 WAPI 260000 METAR WAPI 260000Z 11011KT 9999 BKN015 28/23 Q1013 NOSIG=  
26-Sep-2014 SAID35 WAPI 260100 METAR WAPI 260100Z 10011KT 9999 BKN015 28/23 Q1014 NOSIG=  
26-Sep-2014 SAID35 WAPI 260200 METAR WAPI 260200Z 10011KT 9999 BKN015 29/23 Q1013 NOSIG=  
26-Sep-2014 SAID35 WAPI 260300 METAR WAPI 260300Z 11010KT 9999 SCT015 29/23 Q1013 NOSIG=  
26-Sep-2014 SAID35 WAPI 260400 METAR WAPI 260400Z 12011KT 9999 SCT015 29/23 Q1012 NOSIG=  
26-Sep-2014 SAID35 WAPI 260500 METAR WAPI 260500Z 10012KT 9999 BKN015 29/23 Q1011 =  
26-Sep-2014 SAID35 WAPI 260600 METAR WAPI 260600Z 11012KT 9999 BKN015 29/23 Q1011 =  
26-Sep-2014 SAID35 WAPI 262300 METAR WAPI 262300Z 09006KT 9999 FEW018 28/22 Q1013=  
27-Sep-2014 SAID35 WAPI 270000 METAR WAPI 270000Z 06007KT 9999 FEW018 29/21 Q1014 NOSIG=  
27-Sep-2014 SAID35 WAPI 270100 METAR WAPI 270100Z 09007KT 9999 SCT015 31/22 Q1014 NOSIG=  
27-Sep-2014 SAID35 WAPI 270200 METAR WAPI 270200Z 13007KT 9999 FEW015 30/23 Q1014 NOSIG=  
27-Sep-2014 SAID35 WAPI 270300 METAR WAPI 270300Z 12008KT 9999 FEW015 30/23 Q1013 NOSIG=  
27-Sep-2014 SAID35 WAPI 270400 METAR WAPI 270400Z 14009KT 9999 SCT016 30/23 Q1012=  
27-Sep-2014 SAID35 WAPI 270600 METAR WAPI 270600Z 13008KT 9999 BKN015 30/23 Q1011=  
27-Sep-2014 SAID35 WAPI 272300 METAR WAPI 272300Z 15005KT 9999 BKB017 26/23 Q1014=  
28-Sep-2014 SAID35 WAPI 280000 METAR WAPI 280000Z 15005KT 9999 BKN015 27/22 Q1014 NOSIG=  
28-Sep-2014 SAID35 WAPI 280100 METAR WAPI 280100Z 13008KT 9999 SCT015 29/23 Q1013 NOSIG=  
28-Sep-2014 SAID35 WAPI 280200 METAR WAPI 280200Z 14007KT 9999 FEW015 29/23 Q1013 NOSIG=  
28-Sep-2014 SAID35 WAPI 280300 METAR WAPI 280300Z 14007KT 9999 FEW015 30/22 Q1012 NOSIG=  
28-Sep-2014 SAID35 WAPI 280400 METAR WAPI 280400Z 15008KT 9999 FEW015 29/23 Q1011 NOSIG=  
28-Sep-2014 SAID35 WAPI 280500 METAR WAPI 280500Z 13009KT 9999 SCT018 29/23 Q1010 NOSIG=  
28-Sep-2014 SAID35 WAPI 280600 METAR WAPI 280600Z 13009KT 9999 SCT018 29/23 Q1010 NOSIG=  
28-Sep-2014 SAID35 WAPI 282300 METAR WAPI 282300Z 13005KT 9999 FEW010 27/22 Q1013 NOSIG=  
29-Sep-2014 SAID35 WAPI 290000 METAR WAPI 290000Z 11006KT 9999 SCT015 28/22 Q1013 NOSIG=  
29-Sep-2014 SAID35 WAPI 290100 METAR WAPI 290100Z 11006KT 9999 SCT015 29/23 Q1013 NOSIG=  
29-Sep-2014 SAID35 WAPI 290200 METAR WAPI 290200Z 12010KT 9999 SCT015 29/22 Q1012 NOSIG=  
29-Sep-2014 SAID35 WAPI 290300 METAR WAPI 290300Z 11009KT 9999 BKN018 30/23 Q1011 NOSIG=  
29-Sep-2014 SAID35 WAPI 290400 METAR WAPI 290400Z 11008KT 9999 SCT018 30/22 Q1011 NOSIG=  
29-Sep-2014 SAID35 WAPI 290500 METAR WAPI 290500Z 11008KT 9999 SCT018 30/23 Q1010 NOSIG=  
29-Sep-2014 SAID35 WAPI 290600 METAR WAPI 290600Z 12008KT 9999 SCT018 29/23 Q1009 NOSIG=  
29-Sep-2014 SAID35 WAPI 292300 METAR WAPI 292300Z 09008KT 9999 SCT018 27/22 Q1013 NOSIG=  
30-Sep-2014 SAID35 WAPI 300000 METAR WAPI 300000Z 10010KT 9999 BKN015 28/22 Q1014 NOSIG=  
30-Sep-2014 SAID35 WAPI 300100 METAR WAPI 300100Z 08011KT 9999 FEW015 29/22 Q1013 NOSIG=  
30-Sep-2014 SAID35 WAPI 300200 METAR WAPI 300200Z 09011KT 9999 SCT015 29/22 Q1013 NOSIG=  
30-Sep-2014 SAID35 WAPI 300300 METAR WAPI 300300Z 10011KT 9999 SCT015 29/22 Q1012 NOSIG=  
30-Sep-2014 SAID35 WAPI 300400 METAR WAPI 300400Z 110111KT 9999 SCT015 29/22 Q1011 NOSIG=  
30-Sep-2014 SAID35 WAPI 300500 METAR WAPI 300500Z 11012KT 9999 BKN016 29/21 Q1010 NOSIG=  
30-Sep-2014 SAID35 WAPI 300600 METAR WAPI 300600Z 09011KT 9999 BKN016 29/21 Q1010 NOSIG=  
30-Sep-2014 SAID35 WAPI 302300 METAR WAPI 302300Z 09010KT 9999 BKN015 27/21 Q1013 NOSIG=  
01-Oct-2014 SAID35 WAPI 010000 METAR WAPI 010000Z 10010KT 9999 BKN015 28/20 Q1014 NOSIG=  
01-Oct-2014 SAID35 WAPI 010100 METAR WAPI 010100Z 10011KT 9999 BKN015 29/20 Q1014 NOSIG=  
01-Oct-2014 SAID35 WAPI 010200 METAR WAPI 010200Z 11012KT 9999 SCT018 29/18 Q1013 NOSIG=  
01-Oct-2014 SAID35 WAPI 010300 METAR WAPI 010300Z 11013KT 9999 FEW010 29/22 Q1012=  
01-Oct-2014 SAID35 WAPI 010400 METAR WAPI 010400Z 12010KT 9999 FEW010 29/18 Q1012 NOSIG=  
01-Oct-2014 SAID35 WAPI 010500 METAR WAPI 010500Z 11011KT 9999 FEW010 29/19 Q1010 NOSIG=  
01-Oct-2014 SAID35 WAPI 010600 METAR WAPI 010600Z 11009KT 9999 FEW010 29/19 Q1009 NOSIG=  
01-Oct-2014 SAID35 WAPI 012300 METAR WAPI 012300Z 09008KT 9999 SCT018 27/20 Q1013 NOSIG=  
02-Oct-2014 SAID35 WAPI 020000 METAR WAPI 020000Z 10011KT 9999 FEW015 28/20 Q1013 NOSIG=  
02-Oct-2014 SAID35 WAPI 020100 METAR WAPI 020100Z 11009KT 9999 SCT015 29/20 Q1013 NOSIG=  
02-Oct-2014 SAID35 WAPI 020200 METAR WAPI 020200Z 11011KT 9999 SCT015 29/20 Q1012 NOSIG=  
02-Oct-2014 SAID35 WAPI 020300 METAR WAPI 020300Z 11009KT 9999 BKN015 29/20 Q1012 NOSIG=  
02-Oct-2014 SAID35 WAPI 020400 METAR WAPI 020400Z 12011KT 9999 FEW010 29/19 Q1011 NOSIG=  
02-Oct-2014 SAID35 WAPI 020500 METAR WAPI 020500Z 11010KT 9999 FEW010 29/19 Q1010 NOSIG=  
02-Oct-2014 SAID35 WAPI 020600 METAR WAPI 020600Z 11010KT 9999 SCT010 29/19 Q1009 NOSIG=  
03-Oct-2014 SAID35 WAPI 030000 METAR WAPI 030000Z 09008KT 9999 BKN015 27/22 Q1012 NOSIG=  
03-Oct-2014 SAID35 WAPI 030100 METAR WAPI 030100Z 09009KT 9999 BKN015 28/22 Q1012 NOSIG=  
03-Oct-2014 SAID35 WAPI 030200 METAR WAPI 030200Z 11010KT 9999 BKN015 28/22 Q1011 NOSIG=  
03-Oct-2014 SAID35 WAPI 030300 METAR WAPI 030300Z 12009KT 9999 BKN015 28/22 Q1010 NOSIG=  
03-Oct-2014 SAID35 WAPI 030400 METAR WAPI 030400Z 13008KT 9999 BKN015 30/22 Q1009 NOSIG=  
03-Oct-2014 SAID35 WAPI 030500 METAR WAPI 030500Z 12009KT 9999 BKN015 30/21 Q1009 NOSIG=  
03-Oct-2014 SAID35 WAPI 030600 METAR WAPI 030600Z 12010KT 9999 BKN015 29/21 Q1009 NOSIG=  
04-Oct-2014 SAID35 WAPI 040000 METAR WAPI 040000Z 11008KT 9999 BKN015 28/23 Q1013 NOSIG=  
04-Oct-2014 SAID35 WAPI 040100 METAR WAPI 040100Z 11009KT 9999 BKN015 28/23 Q1013 NOSIG=  
04-Oct-2014 SAID35 WAPI 040200 METAR WAPI 040200Z 11008KT 9999 BKN015 29/23 Q1012 NOSIG=  
04-Oct-2014 SAID35 WAPI 040300 METAR WAPI 040300Z 12010KT 9999 BKN015 29/23 Q1011 NOSIG=  
04-Oct-2014 SAID35 WAPI 040400 METAR WAPI 040400Z 08011KT 9999 BKN016 29/22 Q1010=  
04-Oct-2014 SAID35 WAPI 040500 METAR WAPI 040500Z 09010KT 9999 BKN016 29/23 Q1009 NOSIG=  
04-Oct-2014 SAID35 WAPI 040600 METAR WAPI 040600Z 10010KT 9999 BKN016 28/22 Q1009=  
04-Oct-2014 SAID35 WAPI 042300 METAR WAPI 042300Z 09007KT 9999 SCT017 27/22 Q1013 NOSIG=  
05-Oct-2014 SAID35 WAPI 050000 METAR WAPI 050000Z 10005KT 9999 BKN015 28/22 Q1013=  
05-Oct-2014 SAID35 WAPI 050100 METAR WAPI 050100Z 12009KT 9999 BKN016 29/23 Q1013=  
05-Oct-2014 SAID35 WAPI 050200 METAR WAPI 050200Z 11011KT 9999 BKN016 29/23 Q1012=  
05-Oct-2014 SAID35 WAPI 050300 METAR WAPI 050300Z 11009KT 9999 SCT015 29/23 Q1011 NOSIG=  
05-Oct-2014 SAID35 WAPI 050400 METAR WAPI 050400Z 12010KT 9999 SCT015 30/23 Q1010 NOSIG=  
05-Oct-2014 SAID35 WAPI 050500 METAR WAPI 050500Z 09009KT 9999 SCT015 29/23 Q1010 NOSIG=  
05-Oct-2014 SAID35 WAPI 050600 METAR WAPI 050600Z 08009KT 9999 BKN015 29/23 Q1009 NOSIG=  
05-Oct-2014 SAID35 WAPI 052300 METAR WAPI 052300Z 10008KT 9999 SCT018 27/22 Q1013 NOSIG=  
06-Oct-2014 SAID35 WAPI 060000 METAR WAPI 060000Z 12009KT 9999 SCT015 28/22 Q1013 NOSIG=  
06-Oct-2014 SAID35 WAPI 060100 METAR WAPI 060100Z 11010KT 9999 BKN015 28/22 Q1013 NOSIG=  
06-Oct-2014 SAID35 WAPI 060200 METAR WAPI 060200Z 10011KT 9999 BKN015 29/22 Q1013 NOSIG=  
06-Oct-2014 SAID35 WAPI 060300 METAR WAPI 060300Z 10008KT 9999 BKN015 30/22 Q1012 NOSIG=  
06-Oct-2014 SAID35 WAPI 060400 METAR WAPI 060400Z 12010KT 9999 SCT015 29/22 Q1011 NOSIG=  
06-Oct-2014 SAID35 WAPI 060500 METAR WAPI 060500Z 08010KT 9999 SCT015 29/22 Q1010 NOSIG=  
06-Oct-2014 SAID35 WAPI 060600 METAR WAPI 060600Z 12008KT 9999 SCT015 29/23 Q1009 NOSIG=  
07-Oct-2014 SAID35 WAPI 070000 METAR WAPI 070000Z 12008KT 9999 SCT015 28/23 Q1012 NOSIG=  
07-Oct-2014 SAID35 WAPI 070100 METAR WAPI 070100Z 13007KT 9999 BKN015 29/24 Q1012 NOSIG=  
07-Oct-2014 SAID35 WAPI 070200 METAR WAPI 070200Z 12006KT 9999 BKN015 29/23 Q1012 NOSIG=  
07-Oct-2014 SAID35 WAPI 070300 METAR WAPI 070300Z 13007KT 9999 SCT015 30/23 Q1011 NOSIG=  
07-Oct-2014 SAID35 WAPI 070400 METAR WAPI 070400Z 13008KT 9999 SCT015 30/21 Q1011 NOSIG=  
07-Oct-2014 SAID35 WAPI 070500 METAR WAPI 070500Z 13006KT 99999 FEW015 30/22 Q1010 NOSIG=  
07-Oct-2014 SAID35 WAPI 070600 METAR WAPI 070600Z 12006KT 99999 FEW015 30/22 Q1009 NOSIG=  
07-Oct-2014 SAID35 WAPI 072300 METAR WAPI 072300Z 14004KT 9999 BKN015 26/22 Q1011 NOSIG=  
08-Oct-2014 SAID35 WAPI 080000 METAR WAPI 080000Z 15004KT 9999 FEW015 28/22 Q1012 NOSIG=  
08-Oct-2014 SAID35 WAPI 080100 METAR WAPI 080100Z 16004KT 9999 FEW015 29/22 Q1012 NOSIG=  
08-Oct-2014 SAID35 WAPI 080200 METAR WAPI 080200Z 16004KT CAVOK 29/22 Q1012 NOSIG=  
08-Oct-2014 SAID35 WAPI 080300 METAR WAPI 080300Z 18007KT CAVOK 31/22 Q1011 NOSIG=  
08-Oct-2014 SAID35 WAPI 080400 METAR WAPI 080400Z 16008KT 9999 SCT016 30/22 Q1010 NOSIG=  
08-Oct-2014 SAID35 WAPI 080500 METAR WAPI 080500Z 14007KT 9999 SCT015 30/22 Q1010 NOSIG=  
08-Oct-2014 SAID35 WAPI 080600 METAR WAPI 080600Z 14008KT 9999 BKN16 30/22 Q1009 NOSIG=  
08-Oct-2014 SAID35 WAPI 082300 METAR WAPI 082300Z 16003KT 9999 BKN016 26/22 Q1012 NOSIG=  
09-Oct-2014 SAID35 WAPI 090000 METAR WAPI 090000Z 12006KT 9999 BKN016 27/22 Q1013=  
09-Oct-2014 SAID35 WAPI 090100 METAR WAPI 090100Z 14006KT 9999 BKN016 29/22 Q1013 NOSIG=  
09-Oct-2014 SAID35 WAPI 090200 METAR WAPI 090200Z 15006KT 9999 BKN016 29/22 Q1012 NOSIG=  
09-Oct-2014 SAID35 WAPI 090300 METAR WAPI 090300Z 13006KT 9999 BKN015 30/22 Q1011 NOSIG=  
09-Oct-2014 SAID35 WAPI 090400 METAR WAPI 090400Z 13009KT 9999 BKN015 29/22 Q1010 NOSIG=  
09-Oct-2014 SAID35 WAPI 090500 METAR WAPI 090500Z 11009KT 9999 BKN015 29/22 Q1010 NOSIG=  
09-Oct-2014 SAID35 WAPI 090600 METAR WAPI 090600Z 11008KT 9999 SCT015 29/21 Q1009 NOSIG=  
09-Oct-2014 SAID35 WAPI 092300 METAR WAPI 092300Z 09002KT 9999 SCT015 26/22 Q1012 NOSIG=  
10-Oct-2014 SAID35 WAPI 100000 METAR WAPI 100000Z 06004KT 9999 SCT015 28/22 Q1012 NOSIG=  
10-Oct-2014 SAID35 WAPI 100100 METAR WAPI 100100Z 15005KT 9999 SCT015 29/21 Q1012 NOSIG=  
10-Oct-2014 SAID35 WAPI 100200 METAR WAPI 100200Z 15004KT 9999 SFEW010 30/21 Q1012 NOSIG=  
10-Oct-2014 SAID35 WAPI 100300 METAR WAPI 100300Z 16007KT 9999 FEW010 30/22 Q1011 NOSIG=  
10-Oct-2014 SAID35 WAPI 100400 METAR WAPI 100400Z 13005KT 9999 BKN015 30/22 Q1011 NOSIG=  
10-Oct-2014 SAID35 WAPI 100500 METAR WAPI 100500Z 13008KT 9999 BKN015 29/22 Q1010 NOSIG=  
10-Oct-2014 SAID35 WAPI 100600 METAR WAPI 100600Z 15007KT 9999 BKN015 30/22 Q1009 NOSIG=  
11-Oct-2014 SAID35 WAPI 110100 METAR WAPI 110100Z 06007KT 9999 BKN015 28/23 Q1013 NOSIG=  
11-Oct-2014 SAID35 WAPI 110200 METAR WAPI 110200Z 06008KT 9999 BKN015 29/22 Q1013 NOSIG=  
11-Oct-2014 SAID35 WAPI 110300 METAR WAPI 110300Z 05009KT 9999 BKN015 30/23 Q1012 NOSIG=  
11-Oct-2014 SAID35 WAPI 110600 METAR WAPI 110600Z 12007KT 9999 BKN015 29/24 Q1010 NOSIG=  
11-Oct-2014 SAID35 WAPI 112300 METAR WAPI 112300Z 06005KT 9999 SCT018 26/22 Q1012 NOSIG=  
12-Oct-2014 SAID35 WAPI 120000 METAR WAPI 120000Z 09006KT 9999 BKN015 28/22 Q1013 NOSIG=  
12-Oct-2014 SAID35 WAPI 120100 METAR WAPI 120100Z 08006KT 9999 BKN015 Q1013 NOSIG=  
12-Oct-2014 SAID35 WAPI 120200 METAR WAPI 120200Z 08007KT 9999 BKN015 29/23 Q1012 NOSIG=  
12-Oct-2014 SAID35 WAPI 120300 METAR WAPI 120300Z 07008KT 9999 BKN015 30/23 Q1012 NOSIG=  
12-Oct-2014 SAID35 WAPI 120400 METAR WAPI 120400Z 09007KT 9999 BKN016 31/22 Q1011 NOSIG=  
12-Oct-2014 SAID35 WAPI 120500 METAR WAPI 120500Z 06008KT 9999 BKN016 30/22 Q1010 NOSIG=  
12-Oct-2014 SAID35 WAPI 120600 METAR WAPI 120600Z 06009KT 9999 BKN016 30/23 Q1010 NOSIG=  
12-Oct-2014 SAID35 WAPI 122300 METAR WAPI 122300Z 00000KT 9999 BKN016 27/25 Q1013 NOSIG=  
13-Oct-2014 SAID35 WAPI 130000 METAR WAPI 130000Z 21002KT 9999 BKN016 28/24 Q1014 NOSIG=  
13-Oct-2014 SAID35 WAPI 130100 METAR WAPI 130100Z 12004KT 9999 BKN016 28/24 Q1014=  
13-Oct-2014 SAID35 WAPI 130200 METAR WAPI 130200Z 13007KT 9999 BKN016 30/24 Q1013=  
13-Oct-2014 SAID35 WAPI 130300 METAR WAPI 130300Z 11009KYT 9999 BKN015 31/24 Q1012=  
13-Oct-2014 SAID35 WAPI 130400 METAR WAPI 130400Z 12009KT 9999 BKN015 30/24 Q1012=  
13-Oct-2014 SAID35 WAPI 130500 METAR WAPI 130500Z 13007KT 9999 HZ BKN015 30/21 Q1011=  
13-Oct-2014 SAID35 WAPI 130600 METAR WAPI 130600Z 14008KT 9999 HZ BKN015 30/24 Q1011=  
13-Oct-2014 SAID35 WAPI 132300 METAR WAPI 132300Z 08008KT 9999 HZ BKN015 27/24 Q1014=  
14-Oct-2014 SAID35 WAPI 140000 METAR WAPI 140000Z 0006KT 9999 HZ BKN015 28/24 Q1014=  
14-Oct-2014 SAID35 WAPI 140100 METAR WAPI 140100Z 09006KT 9999 HAZE BKN015 BKN075 29/24 Q1014=  
14-Oct-2014 SAID35 WAPI 140200 METAR WAPI 140200Z 11007KT 9999 HZ BKN015 BKN070 30/24 Q1013=  
14-Oct-2014 SAID35 WAPI 140300 METAR WAPI 140300Z 12007KT 9999 BKN015 31/24 Q1013 NOSIG=  
14-Oct-2014 SAID35 WAPI 140400 METAR WAPI 140400Z 11007KT 9999 BKN015 31/24 Q1012 NOSIG=  
14-Oct-2014 SAID35 WAPI 140600 METAR WAPI 140600Z 11008KT 9999 BKN015 31/23 Q1011 NOSIG=  
15-Oct-2014 SAID35 WAPI 150000 METAR WAPI 150000Z 13007KT 9999 BKN015 29/24 Q1014 NOSIG=  
15-Oct-2014 SAID35 WAPI 150300 METAR WAPI 150300Z 12009KT 9999 BKN015 30/23 Q1012 NOSIG=  
15-Oct-2014 SAID35 WAPI 150400 METAR WAPI 150400Z 11009KT 9999 BKN015 30/23 Q1011 NOSIG=  
15-Oct-2014 SAID35 WAPI 150600 METAR WAPI 150600Z 10008KT 9999 BKN015 29/23 Q1010 NOSIG=  
15-Oct-2014 SAID35 WAPI 152300 METAR WAPI 152300Z 10008KT 9999 SCT016 28/23 Q1013 =  
16-Oct-2014 SAID35 WAPI 160000 METAR WAPI 160000Z 10009KT 9999 BKN015 28/23 Q1013 NOSIG=  
16-Oct-2014 SAID35 WAPI 160100 METAR WAPI 160100Z 11008KT 9999 BKN015 30/23 Q1013 NOSIG=  
16-Oct-2014 SAID35 WAPI 160200 METAR WAPI 160200Z 12009KT 9999 BKN015 30/23 Q1013 NOSIG=  
16-Oct-2014 SAID35 WAPI 160300 METAR WAPI 160300Z 11009KT 9999 BKN015 30/23 Q1012 NOSIG=  
16-Oct-2014 SAID35 WAPI 162300 METAR WAPI 160300Z 11010KT 9999 SCT015 28/22 Q1013 NOSIG=  
16-Oct-2014 SAID35 WAPI 160400 METAR WAPI 160400Z 12008KT 9999 SCT015 31/23 Q1011 NOSIG=  
16-Oct-2014 SAID35 WAPI 160600 METAR WAPI 160600Z 11010KT 9999 BKN016 30/22 Q1010=  
16-Oct-2014 SAID35 WAPI 162300 METAR WAPI 162300Z 11010KT 9999 SCT015 28/22 Q1013 NOSIG=  
17-Oct-2014 SAID35 WAPI 170000 METAR WAPI 170000Z 09008KT 9999 SCT015 BKN030 30/23 Q1014 NOSIG=  
17-Oct-2014 SAID35 WAPI 170100 METAR WAPI 170100Z 08009KT 9999 SCT015 BKN030 29/23 Q1014 NOSIG=  
17-Oct-2014 SAID35 WAPI 170200 METAR WAPI 170200Z 08009KT 9999 SCT015 BKN030 30/23 Q1013 NOSIG=  
17-Oct-2014 SAID35 WAPI 170300 METAR WAPI 170300Z 07010KT 9999 BKN016 30/23 Q1012=  
17-Oct-2014 SAID35 WAPI 170400 METAR WAPI 170400Z 09009KT 9999 BKN016 30/23 Q1011=  
17-Oct-2014 SAID35 WAPI 170500 METAR WAPI 170500Z 12007KT 9999 BKN016 30/23 Q1010=  
17-Oct-2014 SAID35 WAPI 170600 METAR WAPI 170600Z 12011KT 9999 BKN016 29/23 Q1010=  
18-Oct-2014 SAID35 WAPI 180000 METAR WAPI 180000Z 08011KT 9999 BKN015 29/23 Q1013 NOSIG=  
18-Oct-2014 SAID35 WAPI 180100 METAR WAPI 180100Z 08010KT 9999 BKN015 29/24 Q1014 NOSIG=  
18-Oct-2014 SAID35 WAPI 180200 METAR WAPI 180200Z 08009KT 9999 BKN015 30/24 Q1013 NOSIG=  
18-Oct-2014 SAID35 WAPI 180300 METAR WAPI 180300Z 08010KT 9999 BKN015 31/24 Q1012 NOSIG=  
18-Oct-2014 SAID35 WAPI 180400 METAR WAPI 180400Z 08010KT 9999 BKN015 30/24 Q1011 NOSIG=  
18-Oct-2014 SAID35 WAPI 180500 METAR WAPI 180500Z 10007KT 9999 BKN015 31/23 Q1010 NOSIG=  
18-Oct-2014 SAID35 WAPI 180600 METAR WAPI 180600Z 11011KT 9999 BKN015 29/23 Q1010 NOSIG=  
19-Oct-2014 SAID35 WAPI 190000 METAR WAPI 190000Z 09011KT 9999 SCT015 29/22 Q1013 NOSIG=  
19-Oct-2014 SAID35 WAPI 190200 METAR WAPI 190200Z 08012KT 9999 BKN015 30/23 Q1013 NOSIG=  
19-Oct-2014 SAID35 WAPI 190300 METAR WAPI 190300Z 09011KT 9999 OVC030 29/23 Q1012 NOSIG=  
19-Oct-2014 SAID35 WAPI 192300 METAR WAPI 192300Z 07012KT 9999 SCT017 28/22 Q1013=  
20-Oct-2014 SAID35 WAPI 200000 METAR WAPI 200000Z 10011KT 9999 BKN015 29/22 Q1014 NOSIG=  
20-Oct-2014 SAID35 WAPI 200100 METAR WAPI 200100Z 12009KT 9999 BKN015 29/23 Q1014 NOSIG=  
20-Oct-2014 SAID35 WAPI 200200 METAR WAPI 200200Z 10013KT 9999 BKN015 30/23 Q1014 NOSIG=  
20-Oct-2014 SAID35 WAPI 200300 METAR WAPI 200300Z 08010KT 9999 BKN015 30/22 Q1013 NOSIG=  
20-Oct-2014 SAID35 WAPI 200400 METAR WAPI 200400Z 07014KT 9999 BKN016 30/23 Q1011=  
20-Oct-2014 SAID35 WAPI 200500 METAR WAPI 200500Z 08011KT 9999 BKN016 29/22 Q1011=  
20-Oct-2014 SAID35 WAPI 200600 METAR WAPI 200600Z 11010KT 9999 BKN015 30/23 Q1010 NOSIG=  
20-Oct-2014 SAID35 WAPI 202300 METAR WAPI 202300Z 11006KT 9999 SCT015 28/23 Q1014 NOSIG=  
21-Oct-2014 SAID35 WAPI 210000 METAR WAPI 210000Z 09010KT 9999 SCT015 29/23 Q1015 NOSIG=  
21-Oct-2014 SAID35 WAPI 210100 METAR WAPI 210100Z 09010KT 9999 SCT015 29/22 Q1014 NOSIG=  
21-Oct-2014 SAID35 WAPI 210300 METAR WAPI 210300Z 09012KT 9999 SCT015 30/23 Q1014 NOSIG=  
21-Oct-2014 SAID35 WAPI 210400 METAR WAPI 210400Z 11010KT 9999 BKN017 30/23 Q1013=  
21-Oct-2014 SAID35 WAPI 210500 METAR WAPI 210500Z 10011KT 9999 BKN017 30/23 Q1012=  
21-Oct-2014 SAID35 WAPI 210600 METAR WAPI 210600Z 08009KT 9999 BKN017 30/23 Q1011=  
21-Oct-2014 SAID35 WAPI 212300 METAR WAPI 212300Z 07010KT 9999 SCT018 28/24 Q1013=  
22-Oct-2014 SAID35 WAPI 220000 METAR WAPI 220000Z 08011KT 9999 BKN015 29/24 Q1014 NOSIG=  
22-Oct-2014 SAID35 WAPI 220100 METAR WAPI 220100Z 09012KT 9999 BKN015 30/23 Q1014 NOSIG=  
22-Oct-2014 SAID35 WAPI 220200 METAR WAPI 220200Z 09009KT 9999 SCT015 30/23 Q1014 NOSIG=  
22-Oct-2014 SAID35 WAPI 220300 METAR WAPI 220300Z 07011KT 9999 BKN015 30/23 Q1013 NOSIG=  
22-Oct-2014 SAID35 WAPI 220400 METAR WAPI 220400Z 12010KT 9999 BKN015 30/25 Q1013 NOSIG=  
22-Oct-2014 SAID35 WAPI 220500 METAR WAPI 220500Z 12011KT 9999 SCT015 30/23 Q1011 NOSIG=  
22-Oct-2014 SAID35 WAPI 220600 METAR WAPI 220600Z 10007KT 9999 FEW010 30/23 Q1010 NOSIG=  
23-Oct-2014 SAID35 WAPI 230000 METAR WAPI 230000Z 11008KT 9999 BKN015 29/24 Q1013 NOSIG=  
23-Oct-2014 SAID35 WAPI 230100 METAR WAPI 230100Z 12009KT 9999 BKN015 30/24 Q1013 NOSIG=  
23-Oct-2014 SAID35 WAPI 230300 METAR WAPI 230300Z 12008KT 9999 BKN015 30/23 Q1012 NOSIG=  
24-Oct-2014 SAID35 WAPI 240000 METAR WAPI 240000Z 10009KT 9999 BKN015 29/23 Q1014 NOSIG=  
24-Oct-2014 SAID35 WAPI 240100 METAR WAPI 240100Z 11008KT 9999 SCT015 29/24 Q1013 NOSIG=  
24-Oct-2014 SAID35 WAPI 240300 METAR WAPI 240300Z 09011KT 9999 BKN015 32/22 Q1013 NOSIG=  
24-Oct-2014 SAID35 WAPI 240400 METAR WAPI 240400Z 08011KT 9999 SCT015 32/22 Q1011 NOSIG=  
24-Oct-2014 SAID35 WAPI 240500 METAR WAPI 240500Z 07012KT 9999 BKN017 30/23 Q1011 NOSIG=  
24-Oct-2014 SAID35 WAPI 240600 METAR WAPI 240600Z 09011KT 9999 BKN015 30/23 Q1010 NOSIG=  
24-Oct-2014 SAID35 WAPI 242300 METAR WAPI 242300Z 10008KT 9999 BKN017 28/22 Q1014=  
25-Oct-2014 SAID35 WAPI 250000 METAR WAPI 250000Z 09010KT 9999 SCT017 29/22 Q1015=  
25-Oct-2014 SAID35 WAPI 250100 METAR WAPI 250100Z 06009KT 9999 SCT020 29/22 Q1014=  
25-Oct-2014 SAID35 WAPI 250200 METAR WAPI 250200Z 06014KT 9999 SCT020 30/22 Q1014=  
25-Oct-2014 SAID35 WAPI 250300 METAR WAPI 250300Z 07013KT 9999 SCT015 30/22 Q1013 NOSIG=  
25-Oct-2014 SAID35 WAPI 250400 METAR WAPI 250400Z 1110KT 9999 SCT015 30/22 Q1012 NOSIG=  
25-Oct-2014 SAID35 WAPI 250500 METAR WAPI 250500Z 11009KT 9999 SCT015 30/22 Q1012 NOSIG=  
25-Oct-2014 SAID35 WAPI 250600 METAR WAPI 250600Z 11010KT 9999 SCT015 30/22 Q1012 NOSIG=  
26-Oct-2014 SAID35 WAPI 260000 METAR WAPI 260000Z 08008KT 9999 FEW010 29/23 Q1014 NOSIG=  
26-Oct-2014 SAID35 WAPI 260200 METAR WAPI 260200Z 11010KT 9999 FEW010 30/23 Q1013 NOSIG=  
26-Oct-2014 SAID35 WAPI 260300 METAR WAPI 260300Z 12009KT 9999 SCT015 30/23 Q1013 NOSIG=  
26-Oct-2014 SAID35 WAPI 260600 METAR WAPI 260600Z 12010KT 9999 BKN015 30/23 Q1011 NOSIG=  
27-Oct-2014 SAID35 WAPI 270000 METAR WAPI 270000Z 11006KT 9999 BKN015 28/21 Q1013 NOSIG=  
27-Oct-2014 SAID35 WAPI 270100 METAR WAPI 270100Z 14007KT 9999 BKN015 28/22 Q1013 NOSIG=  
27-Oct-2014 SAID35 WAPI 270200 METAR WAPI 270200Z 11006KT 9999 BKN015 29/22 Q1012 NOSIG=  
27-Oct-2014 SAID35 WAPI 270300 METAR WAPI 270300Z 09007KT 9999 BKN015 29/22 Q1012 NOSIG=  
27-Oct-2014 SAID35 WAPI 270400 METAR WAPI 270400Z 10005KT 9999 BKN015 30/22 Q1011 NOSIG=  
27-Oct-2014 SAID35 WAPI 270600 METAR WAPI 270600Z 12011KT 9999 BKN015 30/22 Q1009 NOSIG=  
27-Oct-2014 SAID35 WAPI 272300 METAR WAPI 272300Z 12005KT 9999 SCT017 27/22 Q1012=  
28-Oct-2014 SAID35 WAPI 280000 METAR WAPI 280000Z 12006KT 9999 BKN015 28/22 Q1012 NOSIG=  
28-Oct-2014 SAID35 WAPI 280100 METAR WAPI 280100Z 13007KT 9999 29/22 Q1012 NOSIG=  
28-Oct-2014 SAID35 WAPI 280200 METAR WAPI 280200Z 12007KT 9999 SCT015 29/22 Q1011 NOSIG=  
28-Oct-2014 SAID35 WAPI 280300 METAR WAPI 280300Z 12009KT 9999 SCT015 30/21 Q1011 NOSIG=  
28-Oct-2014 SAID35 WAPI 280400 METAR WAPI 280400Z 12007KT 9999 BKN017 30/21 Q1010=  
28-Oct-2014 SAID35 WAPI 280500 METAR WAPI 280500Z 13008KT 9999 BKN017 30/22 Q1009=  
28-Oct-2014 SAID35 WAPI 280600 METAR WAPI 280600Z 12007KT 9999 BKN017 30/21 Q1009=  
28-Oct-2014 SAID35 WAPI 282300 METAR WAPI 282300Z 10002KT 9999 BKN017 25/22 Q1013=  
29-Oct-2014 SAID35 WAPI 290000 METAR WAPI 290000Z 00000KT 9999 BKN017 27/20 Q1013=  
29-Oct-2014 SAID35 WAPI 290100 METAR WAPI 290100Z 10004KT 9999 SCT018 28/20 Q1012=  
29-Oct-2014 SAID35 WAPI 290200 METAR WAPI 290200Z 11006KT 9999 SCT018 30/21 Q1012=  
29-Oct-2014 SAID35 WAPI 290300 METAR WAPI 290300Z 13006KT 9999 SCT015 30/21 Q1011 NOSIG=  
29-Oct-2014 SAID35 WAPI 290400 METAR WAPI 290400Z 15007KT 9999 SCT015 31/21 Q1010 NOSIG=  
29-Oct-2014 SAID35 WAPI 290500 METAR WAPI 290500Z 15006KT 9999 BKN015 29/22 Q1010 NOSIG=  
29-Oct-2014 SAID35 WAPI 290600 METAR WAPI 290600Z 14007KT 9999 BKN015 30/22 Q1010 NOSIG=  
29-Oct-2014 SAID35 WAPI 292300 METAR WAPI 292300Z 00000KT 9999 BKN018 25/23 Q1012=  
30-Oct-2014 SAID35 WAPI 300000 METAR WAPI 300000Z 00000KT 9999 BKN015 27/23 Q1012 NOSIG=  
30-Oct-2014 SAID35 WAPI 300100 METAR WAPI 300100Z 12003KT 9999 BKN018 30/23 Q1012 NOSIG=  
30-Oct-2014 SAID35 WAPI 300200 METAR WAPI 300200Z 19003KT 9999 SCT015 30/23 Q1011 NOSIG=  
30-Oct-2014 SAID35 WAPI 300300 METAR WAPI 300300Z 13008KT 9999 SCT015 30/22 Q1010 NOSIG=  
30-Oct-2014 SAID35 WAPI 300400 METAR WAPI 300400Z 14008KT 9999 SCT015 30/23 Q1009 NOSIG=  
30-Oct-2014 SAID35 WAPI 300500 METAR WAPI 300500Z 12008KT 9999 SCT015 29/23 Q1008 NOSIG=  
30-Oct-2014 SAID35 WAPI 300600 METAR WAPI 300600Z 13008KT 9999 BKN015 30/22 Q1008 NOSIG=  
31-Oct-2014 SAID35 WAPI 310000 METAR WAPI 310000Z 07005KT 9999 SCT015 29/22 Q1012 NOSIG=  
31-Oct-2014 SAID35 WAPI 310100 METAR WAPI 310100Z 09004KT 9999 SCT015 30/23 Q1011 NOSIG=  
31-Oct-2014 SAID35 WAPI 310200 METAR WAPI 310200Z 12007KT 9999 SCT015 30/23 Q1011 NOSIG=  
31-Oct-2014 SAID35 WAPI 310300 METAR WAPI 310300Z 13007KT 9999 SCT015 31/23 Q1010 NOSIG=  
31-Oct-2014 SAID35 WAPI 310400 METAR WAPI 310400Z 14007KT 9999 SCT015 32/23 Q1009 NOSIG=  
31-Oct-2014 SAID35 WAPI 312300 METAR WAPI 312300Z 11007KT 9999 SCT018 28/23 Q1011=  
01-Nov-2014 SAID35 WAPI 010000 METAR WAPI 010000Z 11007KT 9999 SCT015 29/23 Q1011 NOSIG=  
01-Nov-2014 SAID35 WAPI 010100 METAR WAPI 010100Z 12007KT 9999 SCT015 29/23 Q1011 NOSIG=  
01-Nov-2014 SAID35 WAPI 010200 METAR WAPI 010200Z 10006KT 9999 SCT015 30/23 Q1011 NOSIG=  
01-Nov-2014 SAID35 WAPI 010300 METAR WAPI 010300Z 11009KT 9999 SCT015 30/23 Q1011 NOSIG=  
01-Nov-2014 SAID35 WAPI 010400 METAR WAPI 010400Z 12007KT 9999 FEW015 31/23 Q1009 NOSIG=  
01-Nov-2014 SAID35 WAPI 010500 METAR WAPI 010500Z 12010KT 9999 SCT018 30/23 Q1009 NOSIG=  
01-Nov-2014 SAID35 WAPI 010600 METAR WAPI 010600Z 11008KT 9999 SCT018 31/23 Q1008=  
01-Nov-2014 SAID35 WAPI 012300 METAR WAPI 012300Z 10005KT 9999 SCT017 28/24 Q1011=  
02-Nov-2014 SAID35 WAPI 020000 METAR WAPI 020000Z 13006KT 9999 SCT017 30/23 Q1012=  
02-Nov-2014 SAID35 WAPI 020100 METAR WAPI 020100Z 12007KT 9999 SCT017 30/23 Q1012=  
02-Nov-2014 SAID35 WAPI 020200 METAR WAPI 020200Z 14007KT 9999 SCT017 30/24 Q1012=  
02-Nov-2014 SAID35 WAPI 020300 METAR WAPI 020300Z 10012KT 9999 SCT017 30/24 Q1011=  
02-Nov-2014 SAID35 WAPI 020500 METAR WAPI 020500Z 11010KT 9999 BKN18 30/24 Q1009=  
02-Nov-2014 SAID35 WAPI 020600 METAR WAPI 020600Z 11010KT 9999 BKN018 31/23 Q1009=  
03-Nov-2014 SAID35 WAPI 030000 METAR WAPI 030000Z 15004KT 9999 SCT015 29/23 Q1013 NOSIG=  
03-Nov-2014 SAID35 WAPI 030100 METAR WAPI 030100Z 13007KT 9999 SCT015 30/23 Q1013 NOSIG=  
03-Nov-2014 SAID35 WAPI 030200 METAR WAPI 030200Z 12007KT 9999 BKN017 30/23 Q1012 NOSIG=  
03-Nov-2014 SAID35 WAPI 030300 METAR WAPI 030300Z 11008KT 9999 BKN017 30/23 Q1012 NOSIG=  
03-Nov-2014 SAID35 WAPI 030500 METAR WAPI 030500Z 12007KT 9999 BKN017 32/23 Q1011 NOSIG=  
03-Nov-2014 SAID35 WAPI 030600 METAR WAPI 030600Z 12007KT 9999 BKN018 30/24 Q1010 NOSIG=  
03-Nov-2014 SAID35 WAPI 032300 METAR WAPI 032300Z 10004KT 9999 FEW010 BKN030 28/24 Q1013 NOSIG=  
04-Nov-2014 SAID35 WAPI 040000 METAR WAPI 040000Z 12004KT 9999 FEW010 BKN030 29/24 Q1013 NOSIG=  
04-Nov-2014 SAID35 WAPI 040100 METAR WAPI 040100Z 15004KT 9999 FEW010 BKN030 30/24 Q1013 NOSIG=  
04-Nov-2014 SAID35 WAPI 040200 METAR WAPI 040200Z 12005KT 9999 FEW015 SCT030 31/23 Q1012 NOSIG=  
04-Nov-2014 SAID35 WAPI 040300 METAR WAPI 040300Z 14006KT 9999 BKN015 32/24 Q1012 NOSIG=  
04-Nov-2014 SAID35 WAPI 040400 METAR WAPI 040400Z 15006KT 9999 BKN015 32/24 Q1011 NOSIG=  
04-Nov-2014 SAID35 WAPI 040600 METAR WAPI 040600Z 13006KT 9999 BKN015 31/23 Q1009 NOSIG=  
04-Nov-2014 SAID35 WAPI 042300 METAR WAPI 042300Z 13007KT 9999 BKN017 28/25 Q1014=  
05-Nov-2014 SAID35 WAPI 050000 METAR WAPI 050000Z 14006KT 9999 BKN015 29/25 Q1014 NOSIG=  
05-Nov-2014 SAID35 WAPI 050100 METAR WAPI 050100Z 14007KT 9999 BKN017 30/24 Q1014=  
05-Nov-2014 SAID35 WAPI 050200 METAR WAPI 050200Z 15007KT 9999 BKN017 30/25 Q1014 NOSIG=  
05-Nov-2014 SAID35 WAPI 050600 METAR WAPI 050600Z 12008KT 9999 BKN017 31/24 Q1009=  
05-Nov-2014 SAID35 WAPI 052300 METAR WAPI 052300Z 06005KT 9999 BKN018 25/24 Q1012=  
06-Nov-2014 SAID35 WAPI 060000 METAR WAPI 060000Z 06005KT 9999 SCT018 30/23 Q1013=  
06-Nov-2014 SAID35 WAPI 060100 METAR WAPI 060100Z 09005KT 9999 SCT018 31/23 Q1013=  
06-Nov-2014 SAID35 WAPI 060200 METAR WAPI 060200Z 12006KT 9999 SCT018 31/23 Q1012=  
06-Nov-2014 SAID35 WAPI 060300 METAR WAPI 060300Z 10007KT 9999 SCT018 31/23 Q1011=  
07-Nov-2014 SAID35 WAPI 070000 METAR WAPI 070000Z 25004KT 9999 FEW015 29/25 Q1012 NOSIG=  
07-Nov-2014 SAID35 WAPI 070100 METAR WAPI 070100Z 26003KT 9999 SCT015 31/25 Q1012 NOSIG=  
07-Nov-2014 SAID35 WAPI 070300 METAR WAPI 070300Z 12009KT 9999 SCT015 31/25 Q1011 NOSIG=  
07-Nov-2014 SAID35 WAPI 070600 METAR WAPI 070600Z 12008KT 9999 BKN018 31/25 Q1010=  
08-Nov-2014 SAID35 WAPI 080000 METAR WAPI 080000Z 12004KT 9999 SCT015 30/24 Q1013 NOSIG=  
08-Nov-2014 SAID35 WAPI 080100 METAR WAPI 080100Z 14004KT 9999 SCT015 31/24 Q1013 NOSIG=  
08-Nov-2014 SAID35 WAPI 080200 METAR WAPI 080200Z 12006KT 9999 SCT015 31/23 Q1012 NOSIG=  
08-Nov-2014 SAID35 WAPI 080300 METAR WAPI 080300Z 12006KT 9999 FEW010 32/21 Q1011 NOSIG=  
08-Nov-2014 SAID35 WAPI 080400 METAR WAPI 080400Z 09007KT 9999 FEW010 31/23 Q1011 NOSIG=  
08-Nov-2014 SAID35 WAPI 080500 METAR WAPI 080500Z 11009KT 9999 FEW010 31/24 Q1010 NOSIG=  
08-Nov-2014 SAID35 WAPI 080600 METAR WAPI 080600Z 11008KT 9999 FEW010 31/24 Q1009 NOSIG=  
08-Nov-2014 SAID35 WAPI 082300 METAR WAPI 082300Z 09006KT 9999 SCT018 28/23 Q1012=  
09-Nov-2014 SAID35 WAPI 090000 METAR WAPI 090000Z 11006KT 9999 BKN015 29/23 Q1013 NOSIG=  
09-Nov-2014 SAID35 WAPI 090100 METAR WAPI 090100Z 12007KT 9999 BKN015 30/23 Q1013 NOSIG=  
09-Nov-2014 SAID35 WAPI 090200 METAR WAPI 090200Z 13008KT 9999 SCT015 31/23 Q1012 NOSIG=  
09-Nov-2014 SAID35 WAPI 090300 METAR WAPI 090300Z 12008KT 9999 SCT015 31/23 Q1011 NOSIG=  
09-Nov-2014 SAID35 WAPI 090400 METAR WAPI 090400Z 11008K5 9999 BKN018 31/22 Q1010=  
09-Nov-2014 SAID35 WAPI 090500 METAR WAPI 090500Z 12008K5 9999 BKN018 31/23 Q1010=  
09-Nov-2014 SAID35 WAPI 090600 METAR WAPI 090600Z 12008KT 9999 BKN018 31/22 Q1009=  
09-Nov-2014 SAID35 WAPI 092300 METAR WAPI 092300Z 10005KT 9999 BKN018 28/23 Q1012=  
10-Nov-2014 SAID35 WAPI 100000 METAR WAPI 100000Z 12008KT 9999 BKN018 29/23 Q1012=  
10-Nov-2014 SAID35 WAPI 100100 METAR WAPI 100100Z 10007KT 9999 BKN018 30/23 Q1012=  
10-Nov-2014 SAID35 WAPI 100200 METAR WAPI 100200Z 11005KT 9999 BKN018 31/24 Q1012=  
10-Nov-2014 SAID35 WAPI 100300 METAR WAPI 100300Z 12009KT 9999 BKN018 31/24 Q1011=  
10-Nov-2014 SAID35 WAPI 100400 METAR WAPI 100400Z 13006KT 9999 BKN018 32/23 Q1010=  
10-Nov-2014 SAID35 WAPI 100500 METAR WAPI 100500Z 12007KT 9999 BKN018 32/23 Q1009=  
10-Nov-2014 SAID35 WAPI 100600 METAR WAPI 100600Z 11008KT 9999 BKN018 31/24 Q1008=  
11-Nov-2014 SAID35 WAPI 110000 METAR WAPI 110000Z 08005KT 9999 FEW015 30/24 Q1011 NOSIG=  
11-Nov-2014 SAID35 WAPI 110100 METAR WAPI 110100Z 09005KT 9999 FEW015 31/23 Q1011 NOSIG=  
11-Nov-2014 SAID35 WAPI 110200 METAR WAPI 110200Z 13009KT 9999 SCT015 31/23 Q1010 NOSIG=  
11-Nov-2014 SAID35 WAPI 110300 METAR WAPI 110300Z 11006KT 9999 FEW015 32/24 Q1010 NOSIG=  
11-Nov-2014 SAID35 WAPI 110400 METAR WAPI 110400Z 06004KT 9999 FEW015 33/22 Q1009 NOSIG=  
11-Nov-2014 SAID35 WAPI 110500 METAR WAPI 110500Z 07005KT 9999 FEW020 33/22 Q1008=  
11-Nov-2014 SAID35 WAPI 110600 METAR WAPI 110600Z 08005KT 9999 FEW020 33/2 Q1007=  
12-Nov-2014 SAID35 WAPI 120000 METAR WAPI 120000Z 13007KT 9999 SCT015 30/23 Q1011 NOSIG=  
12-Nov-2014 SAID35 WAPI 120100 METAR WAPI 120100Z 12007KT 9999 SCT015 30/23 Q1011 NOSIG=  
12-Nov-2014 SAID35 WAPI 120200 METAR WAPI 120200Z 11006KT 9999 SCT015 32/23 Q1011 NOSIG=  
12-Nov-2014 SAID35 WAPI 120300 METAR WAPI 120300Z 12008KT 9999 SCT015 32/23 Q1010 NOSIG=  
12-Nov-2014 SAID35 WAPI 120400 METAR WAPI 120400Z 11008KT 9999 SCT015 32/22 Q1009 NOSIG=  
12-Nov-2014 SAID35 WAPI 120500 METAR WAPI 120500Z 12009KT 9999 SCT015 31/22 Q1008 NOSIG=  
12-Nov-2014 SAID35 WAPI 120600 METAR WAPI 120600Z 14006KT 9999 SCT015 31/23 Q1008 NOSIG=  
13-Nov-2014 SAID35 WAPI 130000 METAR WAPI 130000Z 12004KT 9999 SCT015 30/24 Q1010 NOSIG=  
13-Nov-2014 SAID35 WAPI 130100 METAR WAPI 130100Z 11003KT 9999 SCT015 30/24 Q1011 NOSIG=  
13-Nov-2014 SAID35 WAPI 130200 METAR WAPI 130200Z 12007KT 9999 SCT015 30/24 Q1010 NOSIG=  
13-Nov-2014 SAID35 WAPI 130300 METAR WAPI 130300Z 12009KT 9999 SCT018 31/24 Q1010 =  
13-Nov-2014 SAID35 WAPI 130400 METAR WAPI 130400Z 13008KT 9999 BKN017 31/24 Q1009=  
13-Nov-2014 SAID35 WAPI 130500 METAR WAPI 130500Z 12008KT 9999 BKN017 31/24 Q1008=  
13-Nov-2014 SAID35 WAPI 130600 METAR WAPI 130600Z 13007KT 9999 BKN017 30/24 Q1008=  
13-Nov-2014 SAID35 WAPI 132300 METAR WAPI 132300Z 13005KT 8000 RA BKN015 28/24 Q1011=  
14-Nov-2014 SAID35 WAPI 140000 METAR WAPI 140000Z 05007 9999 BKN017 30/24 Q1011=  
14-Nov-2014 SAID35 WAPI 140100 METAR WAPI 140100Z 06008KT 9999 BKN018 31/24 Q1011=  
14-Nov-2014 SAID35 WAPI 140200 METAR WAPI 140200Z 06009KT 9999 SCT019 31/24 Q1011=  
14-Nov-2014 SAID35 WAPI 140300 METAR WAPI 140300Z 05109KT 9999 SCT019 32/24 Q1010=  
14-Nov-2014 SAID35 WAPI 142300 METAR WAPI 142300Z 08007KT 9999 SCT018 29/25 Q1012=  
15-Nov-2014 SAID35 WAPI 150000 METAR WAPI 150000Z 08008KT 9999 SCT015 30/25 Q1012 NOSIG=  
15-Nov-2014 SAID35 WAPI 150100 METAR WAPI 150100Z 06009KT 9999 SCT015 31/25 Q1012 NOSIG=  
15-Nov-2014 SAID35 WAPI 150200 METAR WAPI 150200Z 06010KT 9999 SCT015 31/25 Q1011 NOSIG=  
15-Nov-2014 SAID35 WAPI 150300 METAR WAPI 150300Z 09008KT 9999 SCT015 32/24 Q1011 NOSIG=  
15-Nov-2014 SAID35 WAPI 150500 METAR WAPI 150500Z 08010KT 9999 SCT018 32/23 Q1008=  
15-Nov-2014 SAID35 WAPI 150600 METAR WAPI 150600Z 10009KT 9999 BKN017 32/24 Q1008=  
15-Nov-2014 SAID35 WAPI 152300 METAR WAPI 152300Z 10007KT 9999 SCT018 30/24 Q1011 NOSIG=  
16-Nov-2014 SAID35 WAPI 160000 METAR WAPI 160000Z 10007KT 9999 SCT018 30/24 Q1011 NOSIG=  
16-Nov-2014 SAID35 WAPI 160100 METAR WAPI 160100Z 13007KT 9999 SCT015 31/24 Q1011 NOSIG=  
16-Nov-2014 SAID35 WAPI 160200 METAR WAPI 160200Z 12008KT 9999 FEW010 32/23 Q1010 NOSIG=  
16-Nov-2014 SAID35 WAPI 160300 METAR WAPI 160300Z 12008KT 9999 SCT015 32/24 Q1010 NOSIG=  
16-Nov-2014 SAID35 WAPI 160400 METAR WAPI 160400Z 12008KT 9999 SCT015 32/23 Q1009 NOSIG=  
16-Nov-2014 SAID35 WAPI 160500 METAR WAPI 160500Z 11008KT 9999 SCT015 32/24 Q1008 NOSIG=  
16-Nov-2014 SAID35 WAPI 160600 METAR WAPI 160600Z 11009KT 9999 SCT015 31/23 Q1007 NOSIG=  
17-Nov-2014 SAID35 WAPI 170000 METAR WAPI 170000Z 12005KT 9999 SCT015 30/22 Q1011 NOSIG=  
17-Nov-2014 SAID35 WAPI 170100 METAR WAPI 170100Z 12007KT 9999 BKN018 30/22 Q1011=  
17-Nov-2014 SAID35 WAPI 170200 METAR WAPI 170200Z 07008KT 9999 BKN018 31/21 Q1011=  
17-Nov-2014 SAID35 WAPI 170300 METAR WAPI 170300Z 07009KT 9999 SCT015 31/22 Q1010 NOSIG=  
17-Nov-2014 SAID35 WAPI 170400 METAR WAPI 170400Z 07008KT 9999 SCT015 31/22 Q1009 NOSIG=  
17-Nov-2014 SAID35 WAPI 170500 METAR WAPI 170500Z 08008KT 9999 SCT018 31/21 Q1008 NOSIG=  
17-Nov-2014 SAID35 WAPI 170600 METAR WAPI 170600Z 08011KT 9999 SCT018 31/22 Q1007 NOSIG=  
17-Nov-2014 SAID35 WAPI 172300 METAR WAPI 172300Z 05004KT 9999 BKN019 29/25 Q1011=  
18-Nov-2014 SAID35 WAPI 180000 METAR WAPI 180000Z 04005KT 9999 BKN019 30/24 Q1012=  
18-Nov-2014 SAID35 WAPI 180100 METAR WAPI 180100Z 09007KT 9999 BKN019 31/24 Q1012=  
18-Nov-2014 SAID35 WAPI 180300 METAR WAPI 180300Z 11014KT 9999 BKN019 31/24 Q1011=  
18-Nov-2014 SAID35 WAPI 182300 METAR WAPI 182300Z 11006KT 9999 BKN018 29/24 Q1013=  
19-Nov-2014 SAID35 WAPI 190000 METAR WAPI 190000Z 12009KT 9999 SCT015 30/23 Q1013 NOSIG=  
19-Nov-2014 SAID35 WAPI 190100 METAR WAPI 190100Z 11009KT 9999 SCT015 30/23 Q1013 NOSIG=  
19-Nov-2014 SAID35 WAPI 190200 METAR WAPI 190200Z 12007KT 9999 SCT015 31/23 Q1012 NOSIG=  
19-Nov-2014 SAID35 WAPI 190300 METAR WAPI 190300Z 10010KT 9999 SCT015 31/24 Q1012 NOSIG=  
19-Nov-2014 SAID35 WAPI 190400 METAR WAPI 190400Z 08008KT 9999 SCT015 31/23 Q1011 NOSIG=  
19-Nov-2014 SAID35 WAPI 190600 METAR WAPI 190600Z 10005KT 9999 BKN018 31/23 Q1009 NOSIG=  
20-Nov-2014 SAID35 WAPI 200000 METAR WAPI 200000Z 11005KT 9999 SCT015 30/25 Q1012 NOSIG=  
20-Nov-2014 SAID35 WAPI 200100 METAR WAPI 200100Z 12008KT 9999 SCT015 31/25 Q1012 NOSIG=  
20-Nov-2014 SAID35 WAPI 200200 METAR WAPI 200200Z 13006KT 9999 SCT015 31/25 Q1011 NOSIG=  
20-Nov-2014 SAID35 WAPI 200300 METAR WAPI 200300Z 12008KT 9999 SCT015 31/24 Q1010 NOSIG=  
20-Nov-2014 SAID35 WAPI 200400 METAR WAPI 200400Z 12008KT 9999 SCT015 32/24 Q1009 NOSIG=  
20-Nov-2014 SAID35 WAPI 200500 METAR WAPI 200500Z 12009KT 9999 SCT015 32/24 Q1008 NOSIG=  
20-Nov-2014 SAID35 WAPI 200600 METAR WAPI 200600Z 12008KT 9999 FEW010 31/24 Q1008 NOSIG=  
20-Nov-2014 SAID35 WAPI 202300 METAR WAPI 202300Z 09004KT 9999 BKN018 29/25 Q1011=  
21-Nov-2014 SAID35 WAPI 210000 METAR WAPI 210000Z 12005KT 9999 BKN015 30/25 Q1011 NOSIG=  
21-Nov-2014 SAID35 WAPI 210100 METAR WAPI 210100Z 13007KT 9999 BKN015 32/24 Q1011 NOSIG=  
21-Nov-2014 SAID35 WAPI 210200 METAR WAPI 210200Z 11009KT 9999 BKN015 32/26 Q1011 NOSIG=  
21-Nov-2014 SAID35 WAPI 210300 METAR WAPI 210300Z 12007KT 9999 BKN015 33/25 Q1010 NOSIG=  
21-Nov-2014 SAID35 WAPI 210400 METAR WAPI 210400Z 11009KT 9999 BKN015 33/25 Q1010 NOSIG=  
21-Nov-2014 SAID35 WAPI 210500 METAR WAPI 210500Z 10010KT 9999 BKN015 32/25 Q1009 NOSIG=  
21-Nov-2014 SAID35 WAPI 210600 METAR WAPI 210600Z 10009KT 9999 BKN021 32/25 Q1008 NOSIG=  
21-Nov-2014 SAID35 WAPI 212300 METAR WAPI 212300Z 08004KT 9999 BKN018 29/23 Q1011 NOSIG=  
22-Nov-2014 SAID35 WAPI 220000 METAR WAPI 220000Z 07006KT 9999 BKN018 30/25 Q1011=  
22-Nov-2014 SAID35 WAPI 220100 METAR WAPI 220100Z 07006KT 9999 BKN018 31/25 Q1011=  
22-Nov-2014 SAID35 WAPI 220300 METAR WAPI 220300Z 11010KT 9999 BKN018 32/25 Q1010=  
22-Nov-2014 SAID35 WAPI 220400 METAR WAPI 220400Z 14009KT 9999 BKN021 32/25 Q1010=  
22-Nov-2014 SAID35 WAPI 220600 METAR WAPI 220600Z 12007KT 9999 BKN015 30/25 Q1009 NOSIG=  
22-Nov-2014 SAID35 WAPI 222300 METAR WAPI 222300Z 12004KT 9999 BKN018 29/26 Q1011 NOSIG=  
23-Nov-2014 SAID35 WAPI 230000 METAR WAPI 230000Z 13006KT 9999 BKN015 30/26 Q1011 NOSIG=  
23-Nov-2014 SAID35 WAPI 230100 METAR WAPI 230100Z 13006KT 9999 BKN015 31/25 Q1011 NOSI=  
23-Nov-2014 SAID35 WAPI 230200 METAR WAPI 230200Z 09006KT 9999 BKN015 32/25 Q1011 NOSIG=  
23-Nov-2014 SAID35 WAPI 230300 METAR WAPI 230300Z 12007KT 9999 BKN015 33/25 Q1010 NOSIG=  
23-Nov-2014 SAID35 WAPI 230400 METAR WAPI 230400Z 11009KT 9999 BKN015 33/27 Q1010 NOSIG=  
23-Nov-2014 SAID35 WAPI 230500 METAR WAPI 230500Z 09007KT 9999 BKN015 33/27 Q1008 NOSIG=  
23-Nov-2014 SAID35 WAPI 230600 METAR WAPI 230600Z 10007KT 9999 SCT015 33/24 Q1008 NOSIG=  
24-Nov-2014 SAID35 WAPI 240000 METAR WAPI 240000Z 05005KT 9999 SCT015 30/23 Q1010 NOSIG=  
24-Nov-2014 SAID35 WAPI 240100 METAR WAPI 240100Z 08004KT 9999 SCT015 32/24 Q1010 NOSIG=  
24-Nov-2014 SAID35 WAPI 240200 METAR WAPI 240200Z 06006KT 9999 SCT015 32/23 Q1009 NOSIG=  
24-Nov-2014 SAID35 WAPI 240300 METAR WAPI 240300Z 09006KT 9999 FEW010 33/24 Q1009 NOSIG=  
24-Nov-2014 SAID35 WAPI 240400 METAR WAPI 240400Z 11010KT 9999 FEW010 32/24 Q1008 NOSIG=  
24-Nov-2014 SAID35 WAPI 240500 METAR WAPI 240500Z 12011KT 9999 FEW010 32/24 Q1007 NOSIG=  
24-Nov-2014 SAID35 WAPI 240600 METAR WAPI 240600Z 11009KT 9999 FEW010 32/24 Q1007 NOSIG=  
25-Nov-2014 SAID35 WAPI 250000 METAR WAPI 250000Z 13004KT 9999 BKN015 30/23 Q1009 NOSIG=  
25-Nov-2014 SAID35 WAPI 250100 METAR WAPI 250100Z 14006KT 9999 BKN015 31/24 Q1009 NOSIG=  
25-Nov-2014 SAID35 WAPI 250200 METAR WAPI 250200Z 13005KT 9999 BKN015 31/23 Q1009 NOSIG=  
25-Nov-2014 SAID35 WAPI 250300 METAR WAPI 250300Z 14006KT 9999 BKN015 32/24 Q1009 NOSIG=  
25-Nov-2014 SAID35 WAPI 250400 METAR WAPI 250400Z 13006KT 9999 BKN018 32/23 Q1008=  
25-Nov-2014 SAID35 WAPI 250500 METAR WAPI 250500Z 12008KT 9999 BKN015 33/24 Q1007 NOSIG=  
25-Nov-2014 SAID35 WAPI 250600 METAR WAPI 250600Z 11007KT 9999 BKN015 32/24 Q1006 NOSIG=  
25-Nov-2014 SAID35 WAPI 252300 METAR WAPI 252300Z 10004KT 9999 BKN015 30/23 Q1008 NOSIG=  
26-Nov-2014 SAID35 WAPI 260000 METAR WAPI 260000Z 10006KT 9999 BKN015 31/24 Q1008 NOSIG=  
26-Nov-2014 SAID35 WAPI 260100 METAR WAPI 260100Z 12006KT 9999 SCT015 31/26 Q1008 NOSIG=  
26-Nov-2014 SAID35 WAPI 260200 METAR WAPI 260200Z 12007KT 9999 SCT015 32/27 Q1008 NOSIG=  
26-Nov-2014 SAID35 WAPI 260300 METAR WAPI 260300Z 13008KT 9999 BKN015 33/23 Q1007 NOSIG=  
26-Nov-2014 SAID35 WAPI 260400 METAR WAPI 260400Z 12008KT 9999 BKN015 32/23 Q1007 NOSIG=  
26-Nov-2014 SAID35 WAPI 260500 METAR WAPI 260500Z 12006KT 9999 BKN015 32/23 Q1006 NOSIG=  
26-Nov-2014 SAID35 WAPI 260600 METAR WAPI 260600Z 13007KT 9999 BKN015 32/23 Q1005 NOSIG=  
26-Nov-2014 SAID35 WAPI 262300 METAR WAPI 262300Z 28004KT 9999 BKN015 28/24 Q1008 NOSIG=  
27-Nov-2014 SAID35 WAPI 270000 METAR WAPI 270000Z 08005KT 9999 BKN015 30/23 Q1009 NOSIG=  
27-Nov-2014 SAID35 WAPI 270100 METAR WAPI 270100Z 12005KT 9999 BKN015 31/23 Q1009 NOSIG=  
27-Nov-2014 SAID35 WAPI 270200 METAR WAPI 270200Z 12006KT 9999 BKN015 31/23 Q1009 NOSIG=  
27-Nov-2014 SAID35 WAPI 270300 METAR WAPI 270300Z 12010KT 9999 BKN015 32/22 Q1008 NOSIG=  
27-Nov-2014 SAID35 WAPI 270400 METAR WAPI 270400Z 11007KT 9999 BKN015 32/24 Q1007 NOSIG=  
27-Nov-2014 SAID35 WAPI 270500 METAR WAPI 270500Z 12008KT 9999 BKN015 32/23 Q1007 NOSIG=  
27-Nov-2014 SAID35 WAPI 270600 METAR WAPI 270600Z 08007KT 9999 BKN015 31/24 Q1007 NOSIG=  
27-Nov-2014 SAID35 WAPI 272300 METAR WAPI 272300Z 00000KT 9999 HZ FEW010 BKN075 29/26 Q1009=  
28-Nov-2014 SAID35 WAPI 280000 METAR WAPI 280000Z 06004KT 9999 SCT015 31/24 Q1010 NOSIG=  
28-Nov-2014 SAID35 WAPI 280100 METAR WAPI 280100Z 06005KT 9999 SCT015 32/24 Q1010 NOSIG=  
28-Nov-2014 SAID35 WAPI 280200 METAR WAPI 280200Z 07006KT 9999 SCT015 32/23 Q1009 NOSIG=  
28-Nov-2014 SAID35 WAPI 280300 METAR WAPI 280300Z 12007KT 9999 BKN015 33/23 Q1008 NOSIG=  
28-Nov-2014 SAID35 WAPI 280400 METAR WAPI 280400Z 12007KT 9999 BKN015 32/24 Q1007 NOSIG=  
28-Nov-2014 SAID35 WAPI 280500 METAR WAPI 280500Z 13006KT 9999 BKN015 32/24 Q1006 NOSIG=  
28-Nov-2014 SAID35 WAPI 280600 METAR WAPI 280600Z 12005KT 9999 BKN015 32/24 Q1006 NOSIG=  
29-Nov-2014 SAID35 WAPI 290100 METAR WAPI 290100Z 26002KT 9999 BKN015 32/24 Q1008 NOSIG=  
29-Nov-2014 SAID35 WAPI 290200 METAR WAPI 290200Z 13006KT 9999 BKN015 33/24 Q1008 NOSIG=  
29-Nov-2014 SAID35 WAPI 290300 METAR WAPI 290300Z 12006KT 9999 BKN015 33/24 Q1007 NOSIG=  
29-Nov-2014 SAID35 WAPI 290400 METAR WAPI 290400Z 13006KT 9999 BKN015 34/24 Q1006 NOSIG=  
29-Nov-2014 SAID35 WAPI 292300 METAR WAPI 292300Z 00000KT 9999 FEW015 28/25 Q1008 NOSIG=  
30-Nov-2014 SAID35 WAPI 300000 METAR WAPI 300000Z 31003KT 9999 BKN015 30/26 Q1009 NOSIG=  
30-Nov-2014 SAID35 WAPI 300100 METAR WAPI 300100Z 28002KT 9999 BKN015 32/24 Q1008 NOSIG=  
30-Nov-2014 SAID35 WAPI 300200 METAR WAPI 300200Z 23002KT 9999 BKN014 31/26 Q1008 NOSIG=  
30-Nov-2014 SAID35 WAPI 300300 METAR WAPI 300300Z 19006KT 9999 BKN015 32/25 Q1007 NOSIG=  
30-Nov-2014 SAID35 WAPI 300400 METAR WAPI 300400Z 03012KT 5000 RAIN OVC010 25/24 Q1007=  
30-Nov-2014 SAID35 WAPI 300500 METAR WAPI 300500Z 12005KT 9999 BKN015 29/25 Q1006 NOSIG=  
30-Nov-2014 SAID35 WAPI 300600 METAR WAPI 300600Z 10004KT 9999 BKN015 31/24 Q1005 NOSIG=  
30-Nov-2014 SAID35 WAPI 302300 METAR WAPI 302300Z 00000KT 9999 FEW015 28/25 Q1008 NOSIG=  
01-Dec-2014 SAID35 WAPI 010000 METAR WAPI 010000Z 23004KT 9999 BKN015 30/25 Q1008 NOSIG=  
01-Dec-2014 SAID35 WAPI 010100 METAR WAPI 010100Z 28002KT 9999 BKN015 32/24 Q1008 NOSIG=  
01-Dec-2014 SAID35 WAPI 010200 METAR WAPI 010200Z 12005KT 9999 BKN015 32/25 Q1008 NOSIG=  
01-Dec-2014 SAID35 WAPI 010300 METAR WAPI 010300Z 13005KT 9999 BKN015 32/25 Q1007 NOSIG=  
01-Dec-2014 SAID35 WAPI 010500 METAR WAPI 010400Z 10022KT 5000 TSRA SCTCB015 31/24 Q1007 =  
01-Dec-2014 SAID35 WAPI 010600 METAR WAPI 010600Z 14002KT 8000 SCTCB015 25/24 Q1005 NOSIG=  
02-Dec-2014 SAID35 WAPI 020000 METAR WAPI 020000Z 27003KT 9999 BKN015 29/25 Q1008 NOSIG=  
02-Dec-2014 SAID35 WAPI 020100 METAR WAPI 020100Z 27002KT 9999 SCT015 31/25 Q1008 NOSIG=  
02-Dec-2014 SAID35 WAPI 020200 METAR WAPI 020200Z 28002KT 9999 BKN015 33/25 Q1008 NOSIG=  
02-Dec-2014 SAID35 WAPI 020300 METAR WAPI 020300Z 21006KT 9999 BKN015 33/26 Q1007 NOSIG=  
02-Dec-2014 SAID35 WAPI 020600 METAR WAPI 020600Z 10006KT 9999 BKN015 32/25 Q1005 NOSIG=  
02-Dec-2014 SAID35 WAPI 022300 METAR WAPI 022300Z 21004KT 9999 BKN015 27/25 Q1009 NOSIG=  
03-Dec-2014 SAID35 WAPI 030000 METAR WAPI 030000Z 31005KT 9999 BKN015 29/25 Q1010 NOSIG=  
03-Dec-2014 SAID35 WAPI 030100 METAR WAPI 030100Z 28002KT 9999 SCT015 30/24 Q1010 NOSIG=  
03-Dec-2014 SAID35 WAPI 030200 METAR WAPI 030200Z 22006KT 9999 SCT015 32/26 Q1009 NOSIG=  
03-Dec-2014 SAID35 WAPI 030300 METAR WAPI 030300Z 22006KT 9999 BKN015 32/26 Q1008 NOSIG=  
03-Dec-2014 SAID35 WAPI 030400 METAR WAPI 030400Z 17007KT 9999 BKN015 33/27 Q1008 NOSIG=  
03-Dec-2014 SAID35 WAPI 030500 METAR WAPI 030500Z 20005KT 9999 FEWCB015 33/26 Q1007 RMK CB TO W=  
03-Dec-2014 SAID35 WAPI 030600 METAR WAPI 030600Z 24007KT 9999 BKN015 30/24 Q1007 NOSIG=  
03-Dec-2014 SAID35 WAPI 032300 METAR WAPI 032300Z 00000KT 9999 FEW015 28/26 Q1009 NOSIG=  
04-Dec-2014 SAID35 WAPI 040000 METAR WAPI 040000Z 07005KT 9999 FEW017CB 30/25 Q1010 NOSIG=  
04-Dec-2014 SAID35 WAPI 040100 METAR WAPI 040100Z 05007KT 9999 SCT015 31/25 Q1010 NOSIG=  
04-Dec-2014 SAID35 WAPI 040200 METAR WAPI 040200Z 06008KT 9999 SCT015 32/24 Q1010 NOSIG=  
04-Dec-2014 SAID35 WAPI 040300 METAR WAPI 040300Z 06006KT 9999 SCT015 33/24 Q1009 NOSIG=  
04-Dec-2014 SAID35 WAPI 040400 METAR WAPI 040400Z 07006KT 9999 BKN018 33/23 Q1008=  
04-Dec-2014 SAID35 WAPI 040500 METAR WAPI 040500Z 10008KT 9999 BKN015 33/25 Q1007 NOSIG=  
04-Dec-2014 SAID35 WAPI 040600 METAR WAPI 040600Z 09012KT 9999 BKN015 32/24 Q1007 NOSIG=  
04-Dec-2014 SAID35 WAPI 042300 METAR WAPI 042300Z 00000KT 9999 BKN015 28/26 Q1009 NOSIG=  
05-Dec-2014 SAID35 WAPI 050000 METAR WAPI 050000Z 12004KT 9999 SCT015 31/25 Q1009 NOSIG=  
05-Dec-2014 SAID35 WAPI 050100 METAR WAPI 050100Z 13005KT 9999 BKN015 31/25 Q1009 NOSIG=  
05-Dec-2014 SAID35 WAPI 050300 METAR WAPI 050300Z 12007KT 9999 BKN015 32/24 Q1009 NOSIG=  
05-Dec-2014 SAID35 WAPI 050500 METAR WAPI 050500Z 14007KT 9999 BKN015 33/27 Q1007 NOSIG=  
05-Dec-2014 SAID35 WAPI 050600 METAR WAPI 050600Z 11008KT 9999 BKN015 32/24 Q1006 NOSIG=  
05-Dec-2014 SAID35 WAPI 051200 METAR WAPI 051200Z 12003KT 9999 SCT015 28/25 Q1008 NOSIG=  
06-Dec-2014 SAID35 WAPI 060000 METAR WAPI 060000Z 30003KT 9999 SCT017 29/25 Q1008 NOSIG=  
06-Dec-2014 SAID35 WAPI 060100 METAR WAPI 060100Z 27004KT 9999 SCT017 32/25 Q1008 NOSIG=  
06-Dec-2014 SAID35 WAPI 060200 METAR WAPI 060200Z 12005KT 9999 SCT017 32/25 Q1008 NOSIG=  
06-Dec-2014 SAID35 WAPI 060300 METAR WAPI 060300Z 13006KT 9999 BKN015 32/25 Q1007 NOSIG=  
06-Dec-2014 SAID35 WAPI 060600 METAR WAPI 060600Z 17006KT 9999 BKN015 31/25 Q1005 NOSIG=  
06-Dec-2014 SAID35 WAPI 062300 METAR WAPI 062300Z 30003KT 9999 SCT015 28/25 Q1007 NOSIG=  
07-Dec-2014 SAID35 WAPI 070000 METAR WAPI 070000Z 27002KT 9999 SCT015 31/27 Q1008 NOSIG=  
07-Dec-2014 SAID35 WAPI 070100 METAR WAPI 070100Z 23004KT 9999 BKN015 32/26 Q1007 NOSIG=  
07-Dec-2014 SAID35 WAPI 070200 METAR WAPI 070200Z 24004KT 9999 BKN015 32/26 Q1007 NOSIG=  
07-Dec-2014 SAID35 WAPI 070300 METAR WAPI 070300Z 24005KT 9999 BKN015 33/26 Q1007 NOSIG=  
07-Dec-2014 SAID35 WAPI 070400 METAR WAPI 070400Z 04008KT 9999 BKN021 29/28 Q1007 NOSIG=  
07-Dec-2014 SAID35 WAPI 070500 METAR WAPI 070500Z 26003KT 9999 SCT014 30/25 Q1006 NOSIG=  
07-Dec-2014 SAID35 WAPI 070600 METAR WAPI 070600Z 26007KT 9999 SCT017CB 30/27 Q1005 NOSIG=  
08-Dec-2014 SAID35 WAPI 080000 METAR WAPI 080000Z 26004KT 9999 SCT013CB FEW015 31/27 Q1009 NOSIG=  
08-Dec-2014 SAID35 WAPI 080100 METAR WAPI 080100Z 31005KT 9999 FEW013CB SCT015 29/26 Q1009 NOSIG=  
08-Dec-2014 SAID35 WAPI 080200 METAR WAPI 080200Z 29007KT 9999 FEW013CB SCT015 30/25 Q1009 NOSIG=  
08-Dec-2014 SAID35 WAPI 080300 METAR WAPI 080300Z 24008KT 9999 FEW015 30/24 Q1008 NOSIG=  
08-Dec-2014 SAID35 WAPI 080400 METAR WAPI 080400Z 30006KT 9999 BKN018 31/25 Q1007=  
08-Dec-2014 SAID35 WAPI 080500 METAR WAPI 080500Z 23005KT 9999 BKN018 30/25 Q1007=  
08-Dec-2014 SAID35 WAPI 080600 METAR WAPI 080600Z 29003KT 9999 SCT014 31/25 Q1006 NOSIG=  
08-Dec-2014 SAID35 WAPI 082300 METAR WAPI 082300Z 24004KT 9999 FEW015 28/25 Q1009 NOSIG=  
09-Dec-2014 SAID35 WAPI 090000 METAR WAPI 090000Z 25005KT 9999 SCT015 9999 29/25 Q1010 NOSIG=  
09-Dec-2014 SAID35 WAPI 090100 METAR WAPI 090100Z 29004KT 9999 BKN015 30/25 Q1010 NOSIG=  
09-Dec-2014 SAID35 WAPI 090200 METAR WAPI 090200Z 13003KT 9999 SCT015 31/26 Q1009 NOSIG=  
09-Dec-2014 SAID35 WAPI 090300 METAR WAPI 090300Z 06008KT 9999 BKN013 29/25 Q1009 NOSIG=  
09-Dec-2014 SAID35 WAPI 090500 METAR WAPI 090500Z 22004KT 9999 SCT015 27/26 Q1008 NOSIG=  
09-Dec-2014 SAID35 WAPI 090600 METAR WAPI 090600Z 28003KT 9999 SCT015 29/26 Q1008 NOSIG=  
10-Dec-2014 SAID35 WAPI 100000 METAR WAPI 100000Z 18006KT 9999 SCT015 30/25 Q1011 NOSIG=  
10-Dec-2014 SAID35 WAPI 100200 METAR WAPI 100200Z 07006KT 9999 BKN015 32/26 Q1010 NOSIG=  
10-Dec-2014 SAID35 WAPI 100600 METAR WAPI 100600Z 06009KT 9999 BKN015 30/25 Q1017 NOSIG=  
10-Dec-2014 SAID35 WAPI 102300 METAR WAPI 102300Z 12003KT 9999 SCT015 29/26 Q1010 NOSIG=  
11-Dec-2014 SAID35 WAPI 110000 METAR WAPI 110000Z 05007KT 9999 SCT015 30/25 Q1010 NOSIG=  
11-Dec-2014 SAID35 WAPI 110100 METAR WAPI 110100Z 08005KT 9999 BKN015 32/26 Q1011 NOSIG=  
11-Dec-2014 SAID35 WAPI 110400 METAR WAPI 110400Z 04005KT 8000 TSRA SCT015CB 24/24 Q1011 NOSIG=  
11-Dec-2014 SAID35 WAPI 110500 METAR WAPI 110500Z 06002KT 9999 SCT017CB 26/24 Q1009 NOSIG=  
11-Dec-2014 SAID35 WAPI 110600 METAR WAPI 110600Z 27003KT 9999 SCT017CB 29/25 Q1008 NOSIG=  
11-Dec-2014 SAID35 WAPI 112300 METAR WAPI 112300Z 00000KT 9999 SCT015 27/26 Q1011 NOSIG=  
12-Dec-2014 SAID35 WAPI 120000 METAR WAPI 120000Z 00000KT 9999 SCT015 29/26 Q1011 NOSIG=  
12-Dec-2014 SAID35 WAPI 120100 METAR WAPI 120100Z 00000KT 9999 SCT015 31/25 Q1011 NOSIG=  
12-Dec-2014 SAID35 WAPI 120200 METAR WAPI 120200Z 13004KT 9999 SCT015 31/27 Q1010 NOSIG=  
12-Dec-2014 SAID35 WAPI 120400 METAR WAPI 120400Z 05005KT 9999 OVC015 28/25 Q1010=  
12-Dec-2014 SAID35 WAPI 120500 METAR WAPI 120500Z 30006KT 9999 SCT017 28/26 Q1009 NOSIG=  
12-Dec-2014 SAID35 WAPI 122300 METAR WAPI 122300Z 26005KT 9999 SCT020 28/26 Q1011 NOSIG=  
13-Dec-2014 SAID35 WAPI 130000 METAR WAPI 130000Z 23003KT 9999 SCT020 30/26 Q1011 NOSIG=  
13-Dec-2014 SAID35 WAPI 130100 METAR WAPI 130100Z 29004KT 9999 SCT020 33/26 Q1011 NOSIG=  
13-Dec-2014 SAID35 WAPI 130200 METAR WAPI 130200Z 28004KT 9999 SCT020 33/26 Q1010 NOSIG=  
13-Dec-2014 SAID35 WAPI 130300 METAR WAPI 130300Z 27005KT 9999 BKN018 32/26 Q1009 NOSIG=  
13-Dec-2014 SAID35 WAPI 130400 METAR WAPI 130400Z 27007KT 9999 BKN018 35/26 Q1008=  
13-Dec-2014 SAID35 WAPI 130500 METAR WAPI 130500Z 27009KT 9999 SCT017CB 33/26 Q1008 NOSIG=  
13-Dec-2014 SAID35 WAPI 130600 METAR WAPI 130600Z 06007KT 9000 -RA SCT017CB 28/26 Q1008 NOSIG=  
14-Dec-2014 SAID35 WAPI 140000 METAR WAPI 140000Z 30006KT 9999 SCT020 29/26 Q1011 NOSIG=  
14-Dec-2014 SAID35 WAPI 140600 METAR WAPI 140600Z 30005KT 9999 28/26 Q1008 NOSIG=  
14-Dec-2014 SAID35 WAPI 142300 METAR WAPI 142300Z 00000KT 9999 SCT020 28/26 Q1010 NOSIG=  
15-Dec-2014 SAID35 WAPI 150000 METAR WAPI 150000Z 00000KT 9999 BKN020 30/28 Q1011 NOSIG=  
15-Dec-2014 SAID35 WAPI 150100 METAR WAPI 150100Z 23007KT 9999 BKN020 32/27 Q1011 NOSIG=  
15-Dec-2014 SAID35 WAPI 150200 METAR WAPI 150200Z 27005KT 9999 SCT020 33/27 Q1010 NOSIG=  
15-Dec-2014 SAID35 WAPI 150300 METAR WAPI 150300Z 23010KT 9999 BKN020 33/27 Q1009 NOSIG=  
15-Dec-2014 SAID35 WAPI 150400 METAR WAPI 150400Z 23011KT 9999 BKN018 33/28 Q1008=  
15-Dec-2014 SAID35 WAPI 150500 METAR WAPI 150500Z 24007KT 9999 SCT017CB 32/27 Q1008 NOSIG=  
15-Dec-2014 SAID35 WAPI 150600 METAR WAPI 150600Z 07007KT 8000 TSRA SCT017CB 27/26 Q1007 NOSIG=  
15-Dec-2014 SAID35 WAPI 152300 METAR WAPI 152300Z 24003KT 9999 SCT020 28/26 Q1009 NOSIG=  
16-Dec-2014 SAID35 WAPI 160000 METAR WAPI 160000Z 29003KT 9999 BKN020 31/27 Q1010 NOSIG=  
16-Dec-2014 SAID35 WAPI 160100 METAR WAPI 160100Z 26004KT 9999 SCT020 32/28 Q1009 NOSIG=  
16-Dec-2014 SAID35 WAPI 160200 METAR WAPI 160200Z 27003KT 9999 BKN020 33/28 Q1009 NOSIG=  
16-Dec-2014 SAID35 WAPI 160300 METAR WAPI 160300Z 24009KT 9999 BKN020 34/28 Q1008 NOSIG=  
16-Dec-2014 SAID35 WAPI 160400 METAR WAPI 160400Z 22009KT 9999 BKN015 33/27 Q1007 NOSIG=  
16-Dec-2014 SAID35 WAPI 160500 METAR WAPI 160500Z 23009Z 9999 BKN020 33/29 Q1006 NOSIG=  
16-Dec-2014 SAID35 WAPI 160600 METAR WAPI 160600Z 23010Z 9999 TS SCT010CB SCT015 32/27 Q1006=  
16-Dec-2014 SAID35 WAPI 161200 METAR WAPI 161200Z 29006KT 9999 FEW020CB 28/26 Q1007 NOSIG=  
16-Dec-2014 SAID35 WAPI 162300 METAR WAPI 162300Z 32006KT 9999 FEW020 28/25 Q1009 NOSIG=  
17-Dec-2014 SAID35 WAPI 170000 METAR WAPI 170000Z 23003KT 9999 FEW020 30/26 Q1009 NOSIG=  
17-Dec-2014 SAID35 WAPI 170100 METAR WAPI 170100Z 27004KT 9999 SCT020 32/26 Q1009 NOSIG=  
17-Dec-2014 SAID35 WAPI 170200 METAR WAPI 170200Z 28004KT 9999 FEW020 33/26 Q1009 NOSIG=  
17-Dec-2014 SAID35 WAPI 170300 METAR WAPI 170300Z 28004KT 9999 BKN020 34/26 Q1008 NOSIG=  
17-Dec-2014 SAID35 WAPI 170400 METAR WAPI 170400Z 27005KT 9999 BKN018 35/25 Q1007=  
17-Dec-2014 SAID35 WAPI 170500 METAR WAPI 170500Z 24007KT 9999 BKN020 33/26 Q1006 NOSIG=  
17-Dec-2014 SAID35 WAPI 170600 METAR WAPI 170600Z 23005KT 9999 BKN020 33/26 Q1005 NOSIG=  
18-Dec-2014 SAID35 WAPI 180000 METAR WAPI 180000Z 23006KT 9999 FEW020 30/26 Q1010=  
18-Dec-2014 SAID35 WAPI 180300 METAR WAPI 180300Z 26007KT 9999 BKN018 34/26 Q1009=  
18-Dec-2014 SAID35 WAPI 180600 METAR WAPI 180600Z 29004KT 9999 SCT015 30/25 Q1007=  
18-Dec-2014 SAID35 WAPI 182300 METAR WAPI 182300Z 29002KT 9999 FEW020 28/25 Q1010 NOSIG=  
19-Dec-2014 SAID35 WAPI 190000 METAR WAPI 190000Z 00000KT 9999 SCT020 30/25 Q1011 NOSIG=  
19-Dec-2014 SAID35 WAPI 190100 METAR WAPI 190100Z 25003KT 9999 SCT020 31/27 Q1011 NOSIG=  
19-Dec-2014 SAID35 WAPI 190300 METAR WAPI 190300Z 09006KT 9999 BKN020 33/26 Q1010 NOSIG=  
19-Dec-2014 SAID35 WAPI 190400 METAR WAPI 190400Z 10006KT 9999 BKN018 33/25 Q1009=  
19-Dec-2014 SAID35 WAPI 190500 METAR WAPI 190500Z 11004KT 9999 SCT020 33/26 Q1008 NOSIG=  
19-Dec-2014 SAID35 WAPI 190600 METAR WAPI 190600Z 15004KT 9999 BKN020 33/25 Q1008 NOSIG=  
19-Dec-2014 SAID35 WAPI 192300 METAR WAPI 192300Z 00000KT 9999 FEW020 28/26 Q1010 NOSIG=  
20-Dec-2014 SAID35 WAPI 200000 METAR WAPI 200000Z 00000KT 9999 FEW015 BKN075 30/27 Q1010 NOSIG=  
20-Dec-2014 SAID35 WAPI 200100 METAR WAPI 200100Z 22004KT 9999 SCT015 BKN075 31/27 Q1010 NOSIG=  
20-Dec-2014 SAID35 WAPI 200200 METAR WAPI 200200Z 20005KT 9999 SCT015 BKN075 31/26 Q1009 NOSIG=  
20-Dec-2014 SAID35 WAPI 200300 METAR WAPI 200300Z 17006KT 9999 SCT020 33/26 Q1009 NOSIG=  
20-Dec-2014 SAID35 WAPI 200400 METAR WAPI 200400Z 16006KT 9999 BKN018 33/24 Q1008=  
20-Dec-2014 SAID35 WAPI 200500 METAR WAPI 200500Z 15006KT 9999 SCT017 33/25 Q1007 NOSIG=  
20-Dec-2014 SAID35 WAPI 200600 METAR WAPI 200600Z 15005KT 9999 BKN017 32/25 Q1006 NOSIG=  
20-Dec-2014 SAID35 WAPI 202300 METAR WAPI 202300Z 00000KT 9999 SCT020 27/25 Q1009 NOSIG=  
21-Dec-2014 SAID35 WAPI 210000 METAR WAPI 210000Z 23005KT 9999 SCT020 29/25 Q1009 NOSIG=  
21-Dec-2014 SAID35 WAPI 210100 METAR WAPI 210100Z 08003KT 9999 SCT020 31/25 Q1009 NOSIG=  
21-Dec-2014 SAID35 WAPI 210300 METAR WAPI 210300Z 12005KT 9999 BKN020 31/26 Q1008 NOSIG=  
21-Dec-2014 SAID35 WAPI 210400 METAR WAPI 210400Z 10006KT 9999 BKN020 32/25 Q1008 NOSIG=  
21-Dec-2014 SAID35 WAPI 210600 METAR WAPI 210600Z 10005KT 9999 BKN017 31/27 Q1006 NOSIG=  
22-Dec-2014 SAID35 WAPI 220600 METAR WAPI 220600Z 07006KT 9999 BKN018 31/24 Q1006=  
22-Dec-2014 SAID35 WAPI 222300 METAR WAPI 222300Z 00000KT 9999 FEW020 28/25 Q1009 NOSIG=  
23-Dec-2014 SAID35 WAPI 230000 METAR WAPI 230000Z 27003KT 9999 SCT020 30/25 Q1009 NOSIG=  
23-Dec-2014 SAID35 WAPI 230100 METAR WAPI 230100Z 08003KT 9999 SCT020 31/25 Q1009 NOSIG=  
23-Dec-2014 SAID35 WAPI 230200 METAR WAPI 230200Z 06006KT 9999 SCT020 32/24 Q1009 NOSIG=  
23-Dec-2014 SAID35 WAPI 230300 METAR WAPI 230300Z 10006KT 9999 BKN020 32/25 Q1009 NOSIG=  
23-Dec-2014 SAID35 WAPI 230400 METAR WAPI 230400Z 11007KT 9999 BKN018 32/25 Q1008=  
23-Dec-2014 SAID35 WAPI 230500 METAR WAPI 230500Z 07006KT 9999 SCT017 32/25 Q1008 NOSIG=  
23-Dec-2014 SAID35 WAPI 230600 METAR WAPI 230600Z 04007KT 9999 SCT017 31/25 Q1007 NOSIG=  
23-Dec-2014 SAID35 WAPI 232300 METAR WAPI 232300Z 00000KT 9999 FEW020 28/26 Q1009 NOSIG=  
24-Dec-2014 SAID35 WAPI 240000 METAR WAPI 240000Z 24003KT 9999 SCT020 30/26 Q1009 NOSIG=  
24-Dec-2014 SAID35 WAPI 240100 METAR WAPI 240100Z 23004KT 9999 31/25 Q1009 NOSIG=  
24-Dec-2014 SAID35 WAPI 240200 METAR WAPI 240200Z 24004KT 9999 SCT020 33/25 Q1009 NOSIG=  
24-Dec-2014 SAID35 WAPI 240300 METAR WAPI 240300Z 12006KT 9999 BKN020 33/26 Q1008 NOSIG=  
24-Dec-2014 SAID35 WAPI 240400 METAR WAPI 240400Z 12006KT 9999 FEW010CB FEW015 33/24 Q1007=  
24-Dec-2014 SAID35 WAPI 240500 METAR WAPI 240500Z 12006KT 9999 FEW017CB FEW020 33/25 Q1007 NOSIG=  
24-Dec-2014 SAID35 WAPI 240600 METAR WAPI 240600Z 28005KT 9999 FEW015CB SCT020 31/25 Q1006=  
24-Dec-2014 SAID35 WAPI 240900 METAR WAPI 240900Z 29006KT 9999 SCT020 29/25 Q1007 NOSIG=  
24-Dec-2014 SAID35 WAPI 242300 METAR WAPI 242300Z 00000KT 9999 FEW020 28/26 Q1008 NOSIG=  
25-Dec-2014 SAID35 WAPI 250100 METAR WAPI 250100Z 23004KT 9999 SCT020 33/27 Q1008 NOSIG=  
25-Dec-2014 SAID35 WAPI 250200 METAR WAPI 250200Z 16004KT 9999 BKN020 33/25 Q1008 NOSIG=  
25-Dec-2014 SAID35 WAPI 250300 METAR WAPI 250300Z 10004KT 9999 BKN020 33/25 Q1007 NOSIG=  
25-Dec-2014 SAID35 WAPI 250400 METAR WAPI 250400Z 12005KT 9999 BKN020 33/24 Q1006 NOSIG=  
25-Dec-2014 SAID35 WAPI 250500 METAR WAPI 250500Z 10005KT 9999 SCT020 33/27 Q1005 NOSIG=  
25-Dec-2014 SAID35 WAPI 250600 METAR WAPI 250600Z 12006KT 9999 FEW017CB SCT020 33/27 Q1004=  
26-Dec-2014 SAID35 WAPI 260300 METAR WAPI 260300Z 25008KT 9999 BKN018 33/25 Q1006=  
26-Dec-2014 SAID35 WAPI 260600 METAR WAPI 260600Z 29005KT 9999 BKN018 31/25 Q1005=  
26-Dec-2014 SAID35 WAPI 262300 METAR WAPI 262300Z 00000KT 9999 FEW020 28/25 Q1007 NOSIG=  
27-Dec-2014 SAID35 WAPI 270000 METAR WAPI 270000Z 30003KT 9999 SCT020 30/26 Q1008 NOSIG=  
27-Dec-2014 SAID35 WAPI 270100 METAR WAPI 270100Z 11003KT 9999 BKN020 32/25 Q1008 NOSIG=  
27-Dec-2014 SAID35 WAPI 270200 METAR WAPI 270200Z 07004KT 9999 SCT020 32/24 Q1008 NOSIG=  
27-Dec-2014 SAID35 WAPI 270300 METAR WAPI 270300Z 08006KT 9999 SCT020 33/27 Q1007 NOSIG=  
27-Dec-2014 SAID35 WAPI 270500 METAR WAPI 270500Z 07006KT 9999 SCT020 33/25 Q1006 NOSIG=  
27-Dec-2014 SAID35 WAPI 270600 METAR WAPI 270600Z 09006KT 9999 SCT017 FEW020 32/25 Q1005=  
27-Dec-2014 SAID35 WAPI 272300 METAR WAPI 272300Z 00000KT 9999 FEW020 27/25 Q1008=  
28-Dec-2014 SAID35 WAPI 280000 METAR WAPI 280000Z 32004KT 9999 FEW017CB FEW020 29/25 Q1008 NOSIG=  
28-Dec-2014 SAID35 WAPI 280100 METAR WAPI 280100Z 19004KT 9999 FEW015CB BKN075 31/25 Q1008 NOSIG=  
28-Dec-2014 SAID35 WAPI 280200 METAR WAPI 280200Z 00000KT 9999 FEW015CB SCT020 32/26 Q1007 NOSIG=  
28-Dec-2014 SAID35 WAPI 280300 METAR WAPI 280300Z 16003KT 9999 FEW017CB SCT020 32/25 Q1007 NOSIG=  
28-Dec-2014 SAID35 WAPI 280400 METAR WAPI 280400Z 11007KT 9999 SCT020 33/25 Q1006 NOSIG=  
28-Dec-2014 SAID35 WAPI 280500 METAR WAPI 280500Z 12007KT 9999 SCT017 33/26 Q1006 NOSIG=  
28-Dec-2014 SAID35 WAPI 280600 METAR WAPI 280600Z 13005KT 9999 SCT017 33/26 Q1005 NOSIG=  
28-Dec-2014 SAID35 WAPI 282300 METAR WAPI 282300Z 00000KT 9999 SCT020 27/26 Q1008 NOSIG=  
29-Dec-2014 SAID35 WAPI 290000 METAR WAPI 290000Z 31004KT 9999 SCT020 30/26 Q1008 NOSIG=  
29-Dec-2014 SAID35 WAPI 290100 METAR WAPI 290100Z 05005KT 9999 SCT020 31/27 Q1008 NOSIG=  
29-Dec-2014 SAID35 WAPI 290500 METAR WAPI 290500Z 06007KT 9999 BKN017 32/25 Q1005 NOSIG=  
29-Dec-2014 SAID35 WAPI 290600 METAR WAPI 290600Z 29005KT 9999 FEW017CB SCT020 32/25 Q1005 NOSIG=  
30-Dec-2014 SAID35 WAPI 300000 METAR WAPI 300000Z 09006KT 9999 FEW020 28/26 Q1009=  
30-Dec-2014 SAID35 WAPI 300300 METAR WAPI 300300Z 28005KT 9999 SCT020 32/26 Q1008=  
30-Dec-2014 SAID35 WAPI 300600 METAR WAPI 300600Z 27005KT 8000 RA BKN015 28/26 Q1006 NOSIG=  
30-Dec-2014 SAID35 WAPI 302300 METAR WAPI 302300Z 00000KT 9999 SCT017 28/26 Q1008 NOSIG=  
31-Dec-2014 SAID35 WAPI 310000 METAR WAPI 310000Z 29002KT 9999 SCT017 FEW020 29/26 Q1009 NOSIG=  
31-Dec-2014 SAID35 WAPI 310100 METAR WAPI 310100Z 00000KT 9000 -RA BKN017 FEW020 27/26 Q1009=  
31-Dec-2014 SAID35 WAPI 310200 METAR WAPI 310200Z 16005KT 9999 -RA BKN017 FEW020 26/25 Q1009=  
31-Dec-2014 SAID35 WAPI 310300 METAR WAPI 310300Z 15006KT 9999 BKN017 FEW020 26/24 Q1008=  
31-Dec-2014 SAID35 WAPI 310400 METAR WAPI 310400Z 24006KT 9999 OVC015 27/24 Q1007=  
31-Dec-2014 SAID35 WAPI 310500 METAR WAPI 310500Z 15005KT 9999 SCT017 FEW020 28/24 Q1007=  
31-Dec-2014 SAID35 WAPI 310600 METAR WAPI 310600Z 24008KT 9999 SCT017 FEW020 Q1006 NOSIG=  
31-Dec-2014 SAID35 WAPI 312300 METAR WAPI 312300Z 31004KT 9999 SCT020 28/25 Q1008 NOSIG=  
01-Jan-2015 SAID35 WAPI 010100 METAR WAPI 010100Z 32008KT 9999 SCT018 BKN030 31/25 Q1008 NOSIG=  
01-Jan-2015 SAID35 WAPI 010300 METAR WAPI 010300Z 26007KT 9000 RA BKN017 FEW020 29/26 Q1007=  
01-Jan-2015 SAID35 WAPI 010400 METAR WAPI 010400Z 28003KT 9999 BKN017 28/26 Q1006=  
01-Jan-2015 SAID35 WAPI 010500 METAR WAPI 010500Z 28003KT 9999 SCT017 FEW020 29/26 Q1005 NOSIG=  
01-Jan-2015 SAID35 WAPI 010600 METAR WAPI 010600Z 28003KT 9999 SCT017 FEW020 30/26 Q1005 NOSI=  
01-Jan-2015 SAID35 WAPI 012300 METAR WAPI 012300Z 21006KT 9999 SCT017 FEW020 26/24 Q1008=  
02-Jan-2015 SAID35 WAPI 020000 METAR WAPI 020000Z 22007KT 9999 SCT017 FEW020 27/25 Q1008 NOSIG=  
02-Jan-2015 SAID35 WAPI 020100 METAR WAPI 020100Z 32008KT 9999 SCT017 FEW020 29/25 Q1009 NOSIG=  
02-Jan-2015 SAID35 WAPI 020200 METAR WAPI 020200Z 29009KT 9999 SCT020 30/24 Q1008 NOSIG=  
02-Jan-2015 SAID35 WAPI 020300 METAR WAPI 020300Z 30007KT 9999 SCT017 FEW020 30/25 Q1008 NOSIG=  
02-Jan-2015 SAID35 WAPI 020400 METAR WAPI 020400Z 31012KT 9999 BKN017 31/25 Q1007=  
02-Jan-2015 SAID35 WAPI 020500 METAR WAPI 020500Z 30007KT 8000 RA OVC015 27/25 Q1007=  
02-Jan-2015 SAID35 WAPI 020600 METAR WAPI 020600Z 30006KT 9999 SCT017 FEW020 27/25 Q1006 NOSIG=  
03-Jan-2015 SAID35 WAPI 030000 METAR WAPI 030000Z 28007KT 9999 OVC015 25/25 Q1010=  
03-Jan-2015 SAID35 WAPI 032300 METAR WAPI 032300Z 32006KT 9999 SCT017 FEW020 26/24 Q1007 NOSIG=  
04-Jan-2015 SAID35 WAPI 040000 METAR WAPI 040000Z 21005KT 9999 SCT020 27/24 Q1007 NOSIG=  
04-Jan-2015 SAID35 WAPI 040200 METAR WAPI 040200Z 29007KT 9999 SCT020 BKN150 30/25 Q1007 NOSIG=  
04-Jan-2015 SAID35 WAPI 040300 METAR WAPI 040300Z 28012KT 5000 RA BKN014 BKN150 26/24 Q1008=  
04-Jan-2015 SAID35 WAPI 040400 METAR WAPI 040400Z 27011KT 5000 RA OVC010 25/24 Q1008=  
04-Jan-2015 SAID35 WAPI 040500 METAR WAPI 040500Z 29006KT 9999 SCT017 FEW020 25/24 Q1006=  
04-Jan-2015 SAID35 WAPI 040600 METAR WAPI 040600Z 31006KT 9999 SCT017 FEW020 26/25 Q1006=  
04-Jan-2015 SAID35 WAPI 042300 METAR WAPI 042300Z 32004KT 8000 -RA SCT017 BKN150 27/26 Q1007=  
05-Jan-2015 SAID35 WAPI 050000 METAR WAPI 050000Z 28003KT 6000 RA SCT017 BKN150 27/26 Q1007=  
05-Jan-2015 SAID35 WAPI 050100 METAR WAPI 050100Z 28004KT 8000 SCT017 BKN080 28/26 Q1007=  
05-Jan-2015 SAID35 WAPI 050200 METAR WAPI 050200Z 28005KT 9999 SCT017 BKN080 29/26 Q1007=  
05-Jan-2015 SAID35 WAPI 050300 METAR WAPI 050300Z 28006KT 9999 SCT017 BKN090 30/26 Q1006=  
05-Jan-2015 SAID35 WAPI 050400 METAR WAPI 050400Z 27009KT 9999 SCT017 BKN090 31/26 Q1005=  
05-Jan-2015 SAID35 WAPI 050500 METAR WAPI 050500Z 28011KT 9999 BKN017 32/25 Q1005 NOSIG=  
05-Jan-2015 SAID35 WAPI 050600 METAR WAPI 050600Z 28010KT 5000 RA BKN017 BKN080 27/25 Q1005=  
05-Jan-2015 SAID35 WAPI 052300 METAR WAPI 052300Z 28004KT 9999 SCT017 BKN080 26/25 Q1006=  
06-Jan-2015 SAID35 WAPI 060100 METAR WAPI 060100Z 28005KT 9999 SCT017 BKN090 28/25 Q1007 NOSIG=  
06-Jan-2015 SAID35 WAPI 060300 METAR WAPI 060300Z 28007KT 9999 SCT017 BKN090 30/26 Q1006 NOSIG=  
06-Jan-2015 SAID35 WAPI 060400 METAR WAPI 060400Z 27007KT 9999 BKN017 31/26 Q1006=  
06-Jan-2015 SAID35 WAPI 060600 METAR WAPI 060600Z 28005KT 9999 SCT017 BKN090 30/26 Q1004 NOSIG=  
07-Jan-2015 SAID35 WAPI 070000 METAR WAPI 070000Z 28007KT 9999 SCT017 BKN090 28/25 Q1007 NOSIG=  
07-Jan-2015 SAID35 WAPI 070300 METAR WAPI 070300Z 27011KT 9999 BKN015 31/26 Q1006 NOSIG=  
07-Jan-2015 SAID35 WAPI 072300 METAR WAPI 072300Z 27003KT 9999 SCT020 BKN090 28/26 Q1007 NOSIG=  
08-Jan-2015 SAID35 WAPI 080000 METAR WAPI 080000Z 28004KT 9999 SCT020 BKN090 30/26 Q1007 NOSIG=  
08-Jan-2015 SAID35 WAPI 080100 METAR WAPI 080100Z 28007KT 9999 SCT020 BKN090 31/26 Q1007 NOSIG=  
08-Jan-2015 SAID35 WAPI 080300 METAR WAPI 080300Z 28010KT 9999 BKN020 32/25 Q1006 NOSIG=  
08-Jan-2015 SAID35 WAPI 080400 METAR WAPI 080400Z 27010KT 9999 BKN017 32/25 Q1005 NOSIG=  
08-Jan-2015 SAID35 WAPI 080500 METAR WAPI 080500Z 27011KT 9999 BKN017 32/25 Q1005=  
08-Jan-2015 SAID35 WAPI 080600 METAR WAPI 080600Z 28009KT 9999 SCT020 32/25 Q1004 NOSIG=  
09-Jan-2015 SAID35 WAPI 090000 METAR WAPI 090000Z 27007KT 9999 SCT020 BKN090 30/26 Q1007 NOSIG=  
09-Jan-2015 SAID35 WAPI 090200 METAR WAPI 090200Z 28008KT 9999 BKN020 31/26 Q1007 NOSIG=  
09-Jan-2015 SAID35 WAPI 090300 METAR WAPI 090300Z 28009KT 9999 SCT020 32/25 Q1006 NOSIG=  
09-Jan-2015 SAID35 WAPI 090400 METAR WAPI 090400Z 26009KT 9999 BKN017 32/25 Q1006=  
09-Jan-2015 SAID35 WAPI 090500 METAR WAPI 090500Z 28008KT 9999 BKN017 32/25 Q1005=  
09-Jan-2015 SAID35 WAPI 090600 METAR WAPI 090600Z 27010KT 9999 SCT020 31/27 Q1004 NOSIG=  
09-Jan-2015 SAID35 WAPI 092300 METAR WAPI 092300Z 27006KT 9999 SCT020 29/26 Q1007 NOSIG=  
10-Jan-2015 SAID35 WAPI 100000 METAR WAPI 100000Z 28007KT 9999 SCT020 30/26 Q1006 NOSIG=  
10-Jan-2015 SAID35 WAPI 100100 METAR WAPI 100100Z 28010KT 9999 SCT020 31/25 Q1006 NOSIG=  
10-Jan-2015 SAID35 WAPI 100200 METAR WAPI 100200Z 28009KT 9999 SCT020 31/25 Q1006 NOSIG=  
10-Jan-2015 SAID35 WAPI 100300 METAR WAPI 100300Z 28007KT 9999 BKN020 31/26 Q1006 NOSIG=  
10-Jan-2015 SAID35 WAPI 100400 METAR WAPI 100400Z 27011KT 9999 BKN017 31/25 Q1006=  
10-Jan-2015 SAID35 WAPI 100500 METAR WAPI 100500Z 27012KT 9999 SCT020 32/26 Q1006 NOSIG=  
10-Jan-2015 SAID35 WAPI 100600 METAR WAPI 100600Z 27010KT 9999 SCT020 32/27 Q1004 NOSIG=  
11-Jan-2015 SAID35 WAPI 110100 METAR WAPI 110100Z 28013KT 9999 SCT018 30/25 Q1008 NOSIG=  
11-Jan-2015 SAID35 WAPI 110300 METAR WAPI 110300Z 28011KT 9999 BKN018 31/25 Q1007=  
11-Jan-2015 SAID35 WAPI 110600 METAR WAPI 110600Z 27008KT 9999 SCT018 30/25 Q1006 NOSIG=  
11-Jan-2015 SAID35 WAPI 112300 METAR WAPI 112300Z 30002KT 9000 RA SCT017 BKN090 27/26 Q1009 NOSIG=  
12-Jan-2015 SAID35 WAPI 120000 METAR WAPI 120000Z 26005KT 9999 SCT017 BKN090 28/27 Q1009 NOSIG=  
12-Jan-2015 SAID35 WAPI 120100 METAR WAPI 120100Z 27006KT 9999 HZ SCT017 BKN090 29/27 Q1009=  
12-Jan-2015 SAID35 WAPI 120200 METAR WAPI 120200Z 31005KT 9999 SCT015 BKN090 28/26 Q1008=  
12-Jan-2015 SAID35 WAPI 120300 METAR WAPI 120300Z 28006KT 9999 SCT017 BKN090 30/27 Q1008=  
12-Jan-2015 SAID35 WAPI 120400 METAR WAPI 120400Z 26013KT 9999 BKN017 27/26 Q1007=  
12-Jan-2015 SAID35 WAPI 120500 METAR WAPI 120500Z 28004KT 9000 FEW015CB SCT020 BKN090 26/25 Q1007=  
12-Jan-2015 SAID35 WAPI 120600 METAR WAPI 120600Z 28004KT 9999 SCT017CB BKN090 27/26 Q1007=  
12-Jan-2015 SAID35 WAPI 122300 METAR WAPI 122300Z 29002KT 9999 FEW020 27/26 Q1009=  
13-Jan-2015 SAID35 WAPI 130000 METAR WAPI 130000Z 27007KT 9999 BKN018 29/26 Q1009=  
13-Jan-2015 SAID35 WAPI 130100 METAR WAPI 130100Z 28008KT 9999 BKN018 30/26 Q1009=  
13-Jan-2015 SAID35 WAPI 130300 METAR WAPI 130300Z 27009KT 9999 BKN018 32/26 Q1009=  
13-Jan-2015 SAID35 WAPI 130400 METAR WAPI 130400Z 27010KT 9999 BKN018 32/27 Q1008=  
13-Jan-2015 SAID35 WAPI 130500 METAR WAPI 130500Z 28009KT 9000 RA BKN015 30/26 Q1007=  
13-Jan-2015 SAID35 WAPI 130600 METAR WAPI 130600Z 27009KT 9999 BKN015 30/26 Q1007=  
14-Jan-2015 SAID35 WAPI 140000 METAR WAPI 140000Z 28006KT 9999 SCT020 BKN090 29/26 Q1009 NOSIG=  
14-Jan-2015 SAID35 WAPI 140100 METAR WAPI 140100Z 27010KT 9999 BKN020 BKN170 30/26 Q1009 NOSIG=  
14-Jan-2015 SAID35 WAPI 140200 METAR WAPI 140200Z 26011KT 9999 SCT020 BKN170 32/26 Q1008 NOSIG=  
14-Jan-2015 SAID35 WAPI 140300 METAR WAPI 140300Z 28009KT 9999 BKN020 31/26 Q1008 NOSIG=  
14-Jan-2015 SAID35 WAPI 140400 METAR WAPI 140400Z 27012KT 9999 BKN017 32/26 Q1007=  
14-Jan-2015 SAID35 WAPI 140600 METAR WAPI 140600Z 27009KT 9999 BKN020 32/26 Q1007 NOSIG=  
15-Jan-2015 SAID35 WAPI 150000 METAR WAPI 150000Z 27006KT 9999 SCT020 29/26 Q1009=  
15-Jan-2015 SAID35 WAPI 150300 METAR WAPI 150300Z 27010KT 9999 SCT018 31/26 Q1008=  
15-Jan-2015 SAID35 WAPI 150600 METAR WAPI 150600Z 52514KT 9999 SCT018 32/25 Q1006=  
16-Jan-2015 SAID35 WAPI 160000 METAR WAPI 160000Z 27007KT 9999 BKN018 30/26 Q1010=  
16-Jan-2015 SAID35 WAPI 160100 METAR WAPI 160100Z 27008KT 9999 BKN018 31/25 Q1010=  
16-Jan-2015 SAID35 WAPI 160200 METAR WAPI 160200Z 27009KT 9999 BKN018 32/25 Q1009=  
16-Jan-2015 SAID35 WAPI 160300 METAR WAPI 160300Z 28009KT 9999 SCT0120 33/25 Q1009=  
16-Jan-2015 SAID35 WAPI 160400 METAR WAPI 160400Z 27008KT 9999 SCT018 33/26 Q1008=  
16-Jan-2015 SAID35 WAPI 160500 METAR WAPI 160500Z 28010KT 9999 SCT018 33/25 Q1008=  
16-Jan-2015 SAID35 WAPI 160600 METAR WAPI 160600Z 28010KT 9999 SCT018 33/26 Q1007=  
16-Jan-2015 SAID35 WAPI 162300 METAR WAPI 162300Z 13002KT 9999 FEW020 28/26 Q1010 NOSIG=  
17-Jan-2015 SAID35 WAPI 170000 METAR WAPI 170000Z 17004KT 9999 SCT020 29/26 Q1010 NOSIG=  
17-Jan-2015 SAID35 WAPI 170100 METAR WAPI 170100Z 25005KT 9999 BKN020 30/25 Q1010 NOSIG=  
17-Jan-2015 SAID35 WAPI 170300 METAR WAPI 170300Z 08005KT 9999 SCT020 BKN090 30/25 Q1010=  
17-Jan-2015 SAID35 WAPI 170500 METAR WAPI 170400Z 13003KT 9999 SCT018 29/26 Q1009=  
17-Jan-2015 SAID35 WAPI 170500 METAR WAPI 170500Z 04005KT 9999 SCT018 30/26 Q1009=  
17-Jan-2015 SAID35 WAPI 170600 METAR WAPI 170600Z 31007KT 9999 -RA BKN020 BKN075 27/25 Q1008=  
17-Jan-2015 SAID35 WAPI 172300 METAR WAPI 172300Z 14002KT 9999 FEW020 27/26 Q1011=  
18-Jan-2015 SAID35 WAPI 180000 METAR WAPI 180000Z 29003KT 9999 FEW020 29/26 Q1011=  
18-Jan-2015 SAID35 WAPI 180100 METAR WAPI 180100Z 29004KT 9999 FEW020 31/25 Q1010=  
18-Jan-2015 SAID35 WAPI 180200 METAR WAPI 180200Z 30005KT 9999 SCT018 32/26 Q1010=  
18-Jan-2015 SAID35 WAPI 180300 METAR WAPI 180300Z 29003KT 9999 SCT018 32/26 Q1010=  
18-Jan-2015 SAID35 WAPI 180400 METAR WAPI 180400Z 24006KT 9999 BKN018 33/27 Q1009=  
18-Jan-2015 SAID35 WAPI 180500 METAR WAPI 180500Z 26004KT 9999 BKN018 33/27 Q1008=  
18-Jan-2015 SAID35 WAPI 180600 METAR WAPI 180600Z 09006KT 8000 RA BKN015 28/25 Q1008=  
19-Jan-2015 SAID35 WAPI 190300 METAR WAPI 190300Z 26005KT 9999 SCT018 32/25 Q1012=  
19-Jan-2015 SAID35 WAPI 190600 METAR WAPI 190600Z 30007KT 9999 SCT017 27/25 Q1011 NOSIG =  
19-Jan-2015 SAID35 WAPI 192300 METAR WAPI 192300Z 00000KT 9999 FEW020 26/25 Q1013=  
20-Jan-2015 SAID35 WAPI 200000 METAR WAPI 200000Z 00000KT 9999 FEW020 28/26 Q1013=  
20-Jan-2015 SAID35 WAPI 200100 METAR WAPI 200100Z 25006KT 9999 BKN 018 31/27 Q1013=  
20-Jan-2015 SAID35 WAPI 200200 METAR WAPI 200200Z 23008KT 9999 BKN018 31/27 Q1013=  
20-Jan-2015 SAID35 WAPI 200300 METAR WAPI 200300Z 24009KT 9999 BKN018 32/27 Q1012=  
20-Jan-2015 SAID35 WAPI 200400 METAR WAPI 200400Z 24009KT 9999 BKN018 32/27 Q1012=  
20-Jan-2015 SAID35 WAPI 200500 METAR WAPI 200500Z 22008KT 9999 BKN018 32/27 Q1011=  
20-Jan-2015 SAID35 WAPI 200600 METAR WAPI 200600Z 23010KT 9999 BKN018 32/26 Q1011=  
20-Jan-2015 SAID35 WAPI 202300 METAR WAPI 202300Z 00000KT 9999 SCT020 BKN100 28/26 Q1013 NOSIG=  
21-Jan-2015 SAID35 WAPI 210000 METAR WAPI 210000Z 25004KT 9999 BKN020 FEW100 30/26 Q1013 NOSIG=  
21-Jan-2015 SAID35 WAPI 210100 METAR WAPI 210100Z 25007KT 9999 BKN020 31/26 Q1013 NOSIG=  
21-Jan-2015 SAID35 WAPI 210200 METAR WAPI 210200Z 26008KT 9999 BKN020 32/27 Q1012 NOSIG=  
21-Jan-2015 SAID35 WAPI 210300 METAR WAPI 210300Z 26007KT 9999 BKN020 33/27 Q1012 NOSIG=  
21-Jan-2015 SAID35 WAPI 210400 METAR WAPI 210400Z 27009KT 9999 BKN018 33/26 Q1011=  
21-Jan-2015 SAID35 WAPI 210500 METAR WAPI 210500Z 27010KT 9999 BKN018 33/26 Q1010=  
21-Jan-2015 SAID35 WAPI 210600 METAR WAPI 210600Z 25008KT 9999 BKN017CB FEW020 BKN080 31/26 Q1010=  
21-Jan-2015 SAID35 WAPI 212300 METAR WAPI 212300Z 29004KT 9999 BKN017 27/26 Q1010=  
22-Jan-2015 SAID35 WAPI 220000 METAR WAPI 220000Z 28007KT 9999 BKN017 29/26 Q1011 NOSIG=  
22-Jan-2015 SAID35 WAPI 220100 METAR WAPI 220100Z 27008KT 9999 BKN017 30/26 Q1011 NOSIG=  
22-Jan-2015 SAID35 WAPI 220200 METAR WAPI 220200Z 27008KT 9999 BKN017 32/27 Q1011 NOSIG=  
22-Jan-2015 SAID35 WAPI 220300 METAR WAPI 220300Z 28010KT 9999 BKN017 31/25 Q1010 NOSIG=  
22-Jan-2015 SAID35 WAPI 220400 METAR WAPI 220400Z 29008KT 9999 BKN017 31/26 Q1009 NOSIG=  
22-Jan-2015 SAID35 WAPI 220500 METAR WAPI 220500Z 26010KT 9999 BKN015 31/26 Q1009 NOSIG=  
22-Jan-2015 SAID35 WAPI 220600 METAR WAPI 220600Z 27006KT 9999 BKN017 31/26 Q1009 NOSIG=  
23-Jan-2015 SAID35 WAPI 230000 METAR WAPI 230000Z 28009KT 9999 BKN015 29/26 Q1010 NOSIG=  
23-Jan-2015 SAID35 WAPI 230600 METAR WAPI 230600Z 29011KT 9999 BKN015 26/25 Q1008 NOSIG=  
23-Jan-2015 SAID35 WAPI 232300 METAR WAPI 232300Z 31004KT 9999 SCT017 FEW020 BKN100 24/22 Q1010=  
24-Jan-2015 SAID35 WAPI 240000 METAR WAPI 240000Z 19004KT 9999 FEW017 FEW020 BKN100 26/24 Q1010=  
24-Jan-2015 SAID35 WAPI 240100 METAR WAPI 240100Z 29004KT 9999 SCT020 SCT100 29/25 Q1010 NOSIG=  
24-Jan-2015 SAID35 WAPI 240200 METAR WAPI 240200Z 28008KT 9999 BKN020 BKN100 29/25 Q1010=  
24-Jan-2015 SAID35 WAPI 240300 METAR WAPI 240300Z 29005KT 9999 BKN017 BKN100 28/25 Q1010=  
24-Jan-2015 SAID35 WAPI 240400 METAR WAPI 240400Z 21013KT 8000 RA BKN015 BKN075 23/22 Q1011=  
24-Jan-2015 SAID35 WAPI 240500 METAR WAPI 240500Z 21013KT 8000 RA BKN015 BKN075 23/22 Q1010=  
24-Jan-2015 SAID35 WAPI 240600 METAR WAPI 240600Z 26005KT 9000 RA BKN015 BKN075 24/23 Q1010=  
24-Jan-2015 SAID35 WAPI 242300 METAR WAPI 242300Z 24006KT 9999 SCT017 FEW020 BKN100 26/24 Q1012=  
25-Jan-2015 SAID35 WAPI 250000 METAR WAPI 250000Z 18005KT 9999 SCT017 BKN100 27/25 Q1012=  
25-Jan-2015 SAID35 WAPI 250100 METAR WAPI 250100Z 30004KT 9999 SCT020 BKN100 29/26 Q1011 NPSIG=  
25-Jan-2015 SAID35 WAPI 250200 METAR WAPI 250200Z 27007KT 9999 SCT017 FEW020 BKN100 30/26 Q1010=  
25-Jan-2015 SAID35 WAPI 250300 METAR WAPI 250300Z 28007KT 9999 BKN020 BKN100 32/27 Q1010=  
25-Jan-2015 SAID35 WAPI 250600 METAR WAPI 250600Z 28006KT 9999 SCT017 BKN100 31/27 Q1008=  
25-Jan-2015 SAID35 WAPI 252300 METAR WAPI 252300Z 00000KT 9999 SCT020 28/26 Q1011 NOSIG=  
26-Jan-2015 SAID35 WAPI 260000 METAR WAPI 260000Z 28008KT 9999 BKN020 29/26 Q1011 NOSIG=  
26-Jan-2015 SAID35 WAPI 260100 METAR WAPI 260100Z 28008KT 9999 BKN020 30/27 Q1011 NOSIG=  
26-Jan-2015 SAID35 WAPI 260200 METAR WAPI 260200Z 28009KT 9999 SCT020 31/25 Q1010 NOSIG=  
26-Jan-2015 SAID35 WAPI 260300 METAR WAPI 260300Z 28006KT 9999 SCT020 31/26 Q1010 NOSIG=  
26-Jan-2015 SAID35 WAPI 260400 METAR WAPI 260400Z 27006KT 9999 SCT020 32/26 Q1009 NOSIG=  
26-Jan-2015 SAID35 WAPI 260500 METAR WAPI 260500Z 27008KT 9999 SCT020 33/26 Q1008 NOSIG=  
26-Jan-2015 SAID35 WAPI 260600 METAR WAPI 260600Z 28012KT 9999 SCT020 31/26 Q1007 NOSIG=  
27-Jan-2015 SAID35 WAPI 270000 METAR WAPI 270000Z 28008KT 9999 FEW020 30/26 Q1009 NOSIG=  
27-Jan-2015 SAID35 WAPI 270900 METAR WAPI 270900Z 27006KT 9999 FEW020 30/25 Q1006 NOSIG=  
27-Jan-2015 SAID35 WAPI 272300 METAR WAPI 272300Z 27003KT 9999 SCT017 FEW020 BKN100 27/26 Q1007=  
28-Jan-2015 SAID35 WAPI 280000 METAR WAPI 280000Z 28003KT 9999 SCT017 FEW020 BKN100 29/27 Q1007=  
28-Jan-2015 SAID35 WAPI 280100 METAR WAPI 280100Z 28006KT 9999 SCT017 FEW020 BKN100 29/25 Q1007=  
28-Jan-2015 SAID35 WAPI 280200 METAR WAPI 280200Z 27006KT 9999 BKN020 30/26 Q1007 NOSIG=  
28-Jan-2015 SAID35 WAPI 280300 METAR WAPI 280300Z 28008KT 9999 SCT020 31/26 Q1007 NOSIG=  
28-Jan-2015 SAID35 WAPI 280400 METAR WAPI 280400Z 28006KT 9999 SCT020 31/26 Q1006 NOSIG=  
28-Jan-2015 SAID35 WAPI 280500 METAR WAPI 280500Z 28009KT 9999 SCT020 32/26 Q1005 NOSIG=  
28-Jan-2015 SAID35 WAPI 280600 METAR WAPI 280600Z 27010KT 9999 SCT020 32/25 Q1004 NOSIG=  
28-Jan-2015 SAID35 WAPI 282300 METAR WAPI 282300Z 29003KT 8000 HZ SCT017 FEW020 BKN100 27/26 Q1008=  
29-Jan-2015 SAID35 WAPI 290000 METAR WAPI 290000Z 31003KT 9000 SCT017 FEW020 BKN100 28/26 Q1008=  
29-Jan-2015 SAID35 WAPI 290100 METAR WAPI 290100Z 31005KT 7000 TSRA BKN015 FEW020 BKN075 28/26 Q1008=  
29-Jan-2015 SPID35 WAPI 290102 SPECI WAPI 290102Z 31005KT 6000 TSRA BKN015 FEW020 BKN075 28/26 Q1008=  
29-Jan-2015 SPID35 WAPI 290129 SPECI WAPI 290129Z 31003G13KT 5000 +RA BKN015CB SCT020 OVC075 28/26 Q1008 RETS CB TO W=  
29-Jan-2015 SPID35 WAPI 290147 SPECI WAPI 290147Z 31010KT 5000 TSRA BKN015CB SCT020 OVC075 27/26 Q1008 CB TO W=  
29-Jan-2015 SAID35 WAPI 290200 METAR WAPI 290200Z 30006KT 6000 TSRA BKN015CB SCT020 OVC075 26/25 Q1007 CB TO W=  
29-Jan-2015 SPID35 WAPI 290214 SPECI WAPI 290214Z 30006KT 7000 TS BKN015CB SCT020 OVC075 26/25 Q1008 CB TO W=  
29-Jan-2015 SPID35 WAPI 290241 SPECI WAPI 290241Z 30006KT 2000 +TSRA BKN015CB SCT020 OVC075 26/25 Q1007 CB TO W=  
29-Jan-2015 SAID35 WAPI 290300 METAR WAPI 290300Z 26008KT 5000 +TSRA BKN015CB SCT020 BKN075 24/23 Q1008 CB TO W=  
29-Jan-2015 SAID35 WAPI 290400 METAR WAPI 290400Z 18003KT 6000 -TSRA BKN015CB SCT020 OVC075 25/24 Q1008 CB TO W=  
29-Jan-2015 SAID35 WAPI 290500 METAR WAPI 290500Z 00000KT 5000 TSRA BKN015CB SCT020 OVC075 25/24 Q1006 CB TO W=  
29-Jan-2015 SAID35 WAPI 290600 CCA METAR WAPI 290600Z 27003KT 7000 TSRA BKN015 SCT020 OVC075 25/24 Q1006 CB TO W=  
29-Jan-2015 SAID35 WAPI 292300 METAR WAPI 292300Z 00000KT 7000 RA SCT015 FEW020 OVC075 Q1010=  
30-Jan-2015 SAID35 WAPI 300000 METAR WAPI 300000Z 31003KT 8000 SCT017 FEW020 BKN075 25/24 Q1011 RERA=  
30-Jan-2015 SAID35 WAPI 300100 METAR WAPI 300100Z 27006KT 7000 RA SCT017 FEW020 BKN075 25/24 Q1010=  
30-Jan-2015 SAID35 WAPI 300200 METAR WAPI 300200Z 28003KT 8000 SCT017 FEW020 BKN075 26/25 Q1010 RERA=  
30-Jan-2015 SAID35 WAPI 300300 METAR WAPI 300300Z 28004KT 9000 SCT017 FEW020 BKN100 27/25 Q1009=  
30-Jan-2015 SAID35 WAPI 300400 METAR WAPI 300400Z 28003KT 9999 SCT020 BKN100 30/26 Q1008 NOSIG=  
30-Jan-2015 SAID35 WAPI 300500 METAR WAPI 300500Z 28005KT 9999 SCT020 BKN100 30/27 Q1007 NOSIG=  
30-Jan-2015 SAID35 WAPI 300600 METAR WAPI 300600Z 28009KT 9999 SCT020 BKN100 31/26 Q1007 NOSIG=  
31-Jan-2015 SAID35 WAPI 310000 METAR WAPI 310000Z 17004KT 9999 SCT020 27/25 Q1010 NOSIG=  
31-Jan-2015 SAID35 WAPI 310300 METAR WAPI 310300Z 27010KT 9999 SCT018 31/25 Q1010=  
31-Jan-2015 SAID35 WAPI 310600 METAR WAPI 310600Z 28011KT 9999 SCT018 32/26 Q1008 NOSIG=  
01-Feb-2015 SAID35 WAPI 010100 METAR WAPI 010100Z 27007KT 9999 BKN020 31/26 Q1011 NOSIG=  
01-Feb-2015 SAID35 WAPI 010200 METAR WAPI 010200Z 28008KT 9999 BKN020 30/26 Q1010 NOSIG=  
01-Feb-2015 SAID35 WAPI 010300 METAR WAPI 010300Z 27010KT 9999 BKN020 31/26 Q1010 NOSIG=  
01-Feb-2015 SAID35 WAPI 010400 METAR WAPI 010400Z 27011KT 9999 BKN020 32/26 Q1008 NOSIG=  
01-Feb-2015 SAID35 WAPI 010500 METAR WAPI 010500Z 28010KT 9999 BKN020 32/26 Q1008 NOSIG=  
01-Feb-2015 SAID35 WAPI 010600 METAR WAPI 010600Z 28011KT 9999 SCT020 32/26 Q1008 NOSIG=  
01-Feb-2015 SAID35 WAPI 012300 METAR WAPI 012300Z 28003KT 9000 FEW017 FEW020 26/25 Q1010=  
02-Feb-2015 SAID35 WAPI 020000 METAR WAPI 020000Z 28005KT 9999 SCT020 BKN100 28/26 Q1010=  
02-Feb-2015 SAID35 WAPI 020300 METAR WAPI 020300Z 27010KT 9999 SCT018 31/25 Q1009 NOSIG=  
02-Feb-2015 SAID35 WAPI 020400 METAR WAPI 020400Z 27010KT 9999 SCT018 31/25 Q1008 NOSIG=  
02-Feb-2015 SAID35 WAPI 020500 METAR WAPI 020500Z 289012KT 9999 SCT020 31/25 Q1008 NOSIG=  
02-Feb-2015 SAID35 WAPI 020600 METAR WAPI 020600Z 28011KT 9999 SCT020 31/25 Q1008 NOSIG=  
02-Feb-2015 SAID35 WAPI 020900 METAR WAPI 020900Z 26009KT 9999 SCT020 28/25 Q1008 NOSIG=  
02-Feb-2015 SAID35 WAPI 022300 METAR WAPI 022300Z 30003KT 9999 FEW020 27/26 Q1011 NOSIG=  
03-Feb-2015 SAID35 WAPI 030000 METAR WAPI 030000Z 28009KT 9999 BKN020 28/26 Q1011=  
03-Feb-2015 SAID35 WAPI 030100 METAR WAPI 030100Z 28005KT 9999 BKN020 30/26 Q1011 NOSIG=  
03-Feb-2015 SAID35 WAPI 030200 METAR WAPI 030200Z 28006KT 9999 SCT020 32/26 Q1010 NOSIG=  
03-Feb-2015 SAID35 WAPI 030300 METAR WAPI 030300Z 27007KT 9999 SCT020 32/26 Q1010 NOSIG=  
03-Feb-2015 SAID35 WAPI 030400 METAR WAPI 030400Z 27008KT 9999 SCT020 33/26 Q1009 NOSIG=  
03-Feb-2015 SAID35 WAPI 030500 METAR WAPI 030500Z 26009KT 9999 SCT020 32/26 Q1008 NOSIG=  
03-Feb-2015 SAID35 WAPI 030600 METAR WAPI 030600Z 27009KT 9999 SCT020 32/26 Q1007 NOSIG=  
04-Feb-2015 SAID35 WAPI 040000 METAR WAPI 040000Z 28009KT 9999 SCT018 28/27 Q1011 NOSIG=  
04-Feb-2015 SAID35 WAPI 040300 METAR WAPI 040300Z 26008KT 9999 SCT020 32/25 Q1010=  
04-Feb-2015 SAID35 WAPI 040600 METAR WAPI 040600Z 26009KT 9999 BKN018 32/25 Q1008=  
04-Feb-2015 SAID35 WAPI 042300 METAR WAPI 042300Z 26004KT 9999 FEW020 28/26 Q1010 NOSIG=  
05-Feb-2015 SAID35 WAPI 050000 METAR WAPI 050000Z 26008KT 9999 BKN020 29/26 Q1010 NOSIG=  
05-Feb-2015 SAID35 WAPI 050100 METAR WAPI 050100Z 28006KT 9999 SCT020 30/27 Q1010 NOSIG=  
05-Feb-2015 SAID35 WAPI 050200 METAR WAPI 050200Z 25009KT 9999 SCT020 31/26 Q1010 NOSIG=  
05-Feb-2015 SAID35 WAPI 050300 METAR WAPI 050300Z 25009KT 9999 SCT020 32/26 Q1009 NOSIG=  
05-Feb-2015 SAID35 WAPI 050400 METAR WAPI 050400Z 26010 9999 BKN018 33/27 Q1008=  
05-Feb-2015 SAID35 WAPI 050500 METAR WAPI 050500Z 24009KT 9999 BKN018 32/26 Q1008=  
05-Feb-2015 SAID35 WAPI 050600 METAR WAPI 050600Z 25009KT 9999 SCT020 32/26 Q1008 NOSIG=  
05-Feb-2015 SAID35 WAPI 052300 METAR WAPI 052300Z 00000KT 9999 SCT020 27/26 Q1011 NOSIG=  
06-Feb-2015 SAID35 WAPI 060000 METAR WAPI 060000Z 26003KT 9999 BKN018 30/26 Q1011 NOSIG=  
06-Feb-2015 SAID35 WAPI 060200 METAR WAPI 060200Z 23006KT 9999 SCT020 32/26 Q1011 NOSIG=  
06-Feb-2015 SAID35 WAPI 060300 METAR WAPI 060300Z 00000KT 9999 SCT020 32/26 Q1011 NOSIG=  
06-Feb-2015 SAID35 WAPI 060400 METAR WAPI 060400Z 22009KT 9999 SCT018 31/25 Q1010=  
06-Feb-2015 SAID35 WAPI 060500 METAR WAPI 060500Z 20013KT 9999 BKN017 FEW020 29/21 Q1010=  
06-Feb-2015 SAID35 WAPI 060600 CCA METAR WAPI 060600Z 21004KT 9999 SCT020 30/22 Q1009 RERA=  
06-Feb-2015 SAID35 WAPI 060600 METAR WAPI 060600Z 21004KT 9999 SCT020 30/22 Q1009 NOSIG=  
06-Feb-2015 SAID35 WAPI 062300 METAR WAPI 062300Z 00000KT 9999 SCT020 26/25 Q1012 NOSIG=  
07-Feb-2015 SAID35 WAPI 070000 METAR WAPI 070000Z 00000KT 9999 SCT020 28/25 Q1012 NOSIG=  
07-Feb-2015 SAID35 WAPI 070200 METAR WAPI 070200Z 20004KT 9999 SCT020 30/25 Q1012 NOSIG=  
07-Feb-2015 SAID35 WAPI 070300 METAR WAPI 070300Z 14005KT 9999 SCT020 31/24 Q1011 NOSIG=  
07-Feb-2015 SAID35 WAPI 070400 METAR WAPI 070400Z 09005KT 9999 SCT020 32/24 Q1010 NOSIG=  
07-Feb-2015 SAID35 WAPI 070500 METAR WAPI 070500Z 16005KT 9999 FEW020 32/24 Q1010 NOSIG=  
07-Feb-2015 SAID35 WAPI 070600 METAR WAPI 070600Z 13006KT 9999 FEW020 32/24 Q1009 NPOSIG=  
07-Feb-2015 SAID35 WAPI 070600 CCA METAR WAPI 070600Z 13006KT 9999 FEW020 32/24 Q1009 NOSIG=  
08-Feb-2015 SAID35 WAPI 080000 METAR WAPI 080000Z 28002KT 9999 SCT018 28/25 Q1013 NOSIG=  
08-Feb-2015 SAID35 WAPI 080300 METAR WAPI 080300Z 26005KT 9999 SCT020 31/23 Q1011 NOSIG=  
08-Feb-2015 SAID35 WAPI 080600 METAR WAPI 080600Z 18008KT 9999 SCT018 32/23 Q1010 NOSIG=  
09-Feb-2015 SAID35 WAPI 090000 METAR WAPI 090000Z 26003KT 9999 SCT020 BKN100 30/26 Q1011 NOSIG=  
09-Feb-2015 SAID35 WAPI 090200 METAR WAPI 090200Z 26005KT 9999 SCT020 BKN100 32/26 Q1010 NOSIG=  
09-Feb-2015 SAID35 WAPI 090300 METAR WAPI 090300Z 25006KT 9999 SCT020 BKN100 33/26 Q1010 NOSIG=  
09-Feb-2015 SAID35 WAPI 090500 METAR WAPI 090500Z 23009KT 9999 BKN020 33/26 Q1008 NOSIG=  
09-Feb-2015 SAID35 WAPI 090600 METAR WAPI 090600Z 23005KT 9999 BKN020 33/25 Q1007 NOSIG=  
09-Feb-2015 SAID35 WAPI 092300 METAR WAPI 092300Z 26004KT 9999 SCT018 BKN100 26/25 Q1010=  
10-Feb-2015 SAID35 WAPI 100000 METAR WAPI 100000Z 29003KT 9999 SCT018 27/25 Q1011 NOSIG=  
10-Feb-2015 SAID35 WAPI 100100 METAR WAPI 100100Z 28004KT 9999 FEW018 30/26 Q1010 NOSIG=  
10-Feb-2015 SAID35 WAPI 100200 METAR WAPI 100200Z 28007KT 9999 SCT018 31/26 Q1010 NOSIG=  
10-Feb-2015 SAID35 WAPI 100300 METAR WAPI 100300Z 29005KT 9999 SCT020 33/26 Q1009 NOSIG=  
10-Feb-2015 SAID35 WAPI 100400 METAR WAPI 100400Z 27005KT 9999 SCT018 32/27 Q1008 NOSIG=  
10-Feb-2015 SAID35 WAPI 100600 METAR WAPI 100600Z 26005 9999 SCT020 33/25 Q1007 NOSIG=  
10-Feb-2015 SAID35 WAPI 100900 METAR WAPI 100900Z 27005KT 9999 FEW020 30/24 Q1007 NOSIG=  
11-Feb-2015 SAID35 WAPI 110000 METAR WAPI 110000Z 26002KT 9999 SCT020 29/25 Q1011 NOSIG=  
11-Feb-2015 SAID35 WAPI 110100 METAR WAPI 110100Z 29002KT 9999 FEW020 30/25 Q1011=  
11-Feb-2015 SAID35 WAPI 110200 METAR WAPI 110200Z 24003KT 9999 SCT020 32/25 Q1010 NOSIG=  
11-Feb-2015 SAID35 WAPI 110300 METAR WAPI 110200Z 21007KT 9999 BKN020 32/26 Q1009 NOSIG=  
11-Feb-2015 SAID35 WAPI 110400 METAR WAPI 110400Z 24004KT 9999 BKN018 33/27 Q1008=  
11-Feb-2015 SAID35 WAPI 110600 METAR WAPI 110600Z 30004KT 9999 BKN020 33/26 Q1007 NOSIG=  
12-Feb-2015 SAID35 WAPI 120000 METAR WAPI 120000Z 29002KT 9999 SCT018 29/25 Q1010 NOSIG=  
12-Feb-2015 SAID35 WAPI 120600 METAR WAPI 120600Z 28011KT 9999 SCT018 32/25 Q1007 NOSIG=  
12-Feb-2015 SAID35 WAPI 120700 METAR WAPI 120700Z 27008KT 9999 SCT018 33/25 Q1007 NOSIG=  
12-Feb-2015 SAID35 WAPI 120800 METAR WAPI 120800Z 28008KT 9999 SCT018 31/25 Q1006 NOSIG=  
12-Feb-2015 SAID35 WAPI 120900 METAR WAPI 120900Z 28005KT 9999 SCT017 30/25 Q1007 NOSIG=  
13-Feb-2015 SAID35 WAPI 130000 METAR WAPI 130000Z 30003KT 9999 SCT020 26/24 Q1009 NOSIG=  
13-Feb-2015 SAID35 WAPI 130200 METAR WAPI 130200Z 29003KT 9999 SCT017 BKN100 27/25 Q1009 NOSIG=  
13-Feb-2015 SAID35 WAPI 130300 METAR WAPI 130300Z 24008KT 9999 SCT020 30/26 Q1009 NOSIG=  
13-Feb-2015 SAID35 WAPI 130400 METAR WAPI 130400Z 26007KT 9999 SCT020 30/26 Q1007 NOSIG=  
13-Feb-2015 SAID35 WAPI 130500 METAR WAPI 130500Z 25007KT 9999 SCT020 30/26 Q1007 NOSIG=  
13-Feb-2015 SAID35 WAPI 130600 METAR WAPI 130600Z 25006KT 9999 BKN020 30/26 Q1006=  
13-Feb-2015 SAID35 WAPI 132300 METAR WAPI 132300Z 17003KT 9999 SCT018 26/25 Q1010 NOSIG=  
14-Feb-2015 SAID35 WAPI 140000 METAR WAPI 140000Z 25005KT 9999 SCT018 28/25 Q1010 NOSIG=  
14-Feb-2015 SAID35 WAPI 140100 METAR WAPI 140100Z 29003KT 9999 BKN018 29/26 Q1010 NOSIG=  
14-Feb-2015 SAID35 WAPI 140200 METAR WAPI 140200Z 25006KT 9999 BKN018 31/27 Q1009 NOSIG=  
14-Feb-2015 SAID35 WAPI 140300 METAR WAPI 140300Z 25010KT 9999 BKN017 32/26 Q1009 NOSIG=  
14-Feb-2015 SAID35 WAPI 140400 METAR WAPI 140400Z 26005KY 9999 SCT020 32/26 Q1009=  
14-Feb-2015 SAID35 WAPI 140500 METAR WAPI 140500Z 18003KT 9999 SCT017 30/25 Q1009 RERA=  
14-Feb-2015 SAID35 WAPI 140600 METAR WAPI 140600Z 28004KT 9999 BKN017 30/26 Q1008=  
14-Feb-2015 SAID35 WAPI 140900 METAR WAPI 140900Z 28007KT 9999 SCT017 BKN100 28/25 Q1008 RERA=  
14-Feb-2015 SAID35 WAPI 142300 METAR WAPI 142300Z 30003KT 9999 FEW020 BKN100 27/25 Q1010=  
15-Feb-2015 SAID35 WAPI 150000 METAR WAPI 150000Z 28004KT 9999 SCT020 BKN100 28/26 Q1010=  
15-Feb-2015 SAID35 WAPI 150300 METAR WAPI 150300Z 28007KT 9999 SCT020 30/26 Q1009 RERA=  
15-Feb-2015 SAID35 WAPI 150400 METAR WAPI 150400Z 28007KT 9999 SCT020 30/26 Q1009 NOSIG=  
15-Feb-2015 SAID35 WAPI 150500 METAR WAPI 150500Z 27008KT 9999 BKN020 30/26 Q1008 NOSIG=  
15-Feb-2015 SAID35 WAPI 150600 METAR WAPI 150600Z 28010KT 9999 BKN020 31/25 Q1007 NOSIG=  
16-Feb-2015 SAID35 WAPI 160000 METAR WAPI 160000Z 27004KT 9000 BKN015CB 25/24 Q1012 RERA=  
16-Feb-2015 SAID35 WAPI 160200 METAR WAPI 160200Z 29006KT 9999 ZET015 PRECIN SIGHT15 26/25 Q1010 NOSIG=  
16-Feb-2015 SAID35 WAPI 160400 METAR WAPI 160400Z 28006KT 9999 ZET018 29/26 Q1009 NOSIG=  
16-Feb-2015 SAID35 WAPI 160600 METAR WAPI 160600Z 28008KT 9999 BKN016 29/26 Q1007 NOSIG=  
16-Feb-2015 SAID35 WAPI 160700 METAR WAPI 160700Z 27007KT 9999 SCT017 30/25 Q1007 NOSIG=  
16-Feb-2015 SAID35 WAPI 160800 METAR WAPI 160800Z 28008KT 9999 FWT017 30/26 Q1007 NOSIG=  
16-Feb-2015 SAID35 WAPI 160900 METAR WAPI 160900Z 27005KT 9999 FEW017 28/25 Q1007 NOSIG=  
17-Feb-2015 SAID35 WAPI 170000 METAR WAPI 170000Z 28006KT 9999 SCT017 FEW020 OVC100 28/25 Q1009=  
17-Feb-2015 SAID35 WAPI 170100 METAR WAPI 170100Z 28005KT 9999 SCT020 29/26 Q1009 NOSIG=  
17-Feb-2015 SAID35 WAPI 170200 METAR WAPI 170200Z 27010KT 9999 SCT020 31/27 Q1008 NOSIG=  
17-Feb-2015 SAID35 WAPI 170300 METAR WAPI 170300Z 28008KT 9999 SCT020 32/26 Q1008 NOSIG=  
17-Feb-2015 SAID35 WAPI 170500 METAR WAPI 170500Z 28010KT 9999 SCT020 32/25 Q1007 NOSIG=  
17-Feb-2015 SAID35 WAPI 170600 METAR WAPI 170600Z 28008KT 9999 SCT020 30/26 Q1006 RERA=  
18-Feb-2015 SAID35 WAPI 180000 METAR WAPI 180000Z 28006KT 9000 BKN020 OVC100 27/25 Q1008=  
18-Feb-2015 SAID35 WAPI 180200 METAR WAPI 180200Z 28007KT 9999 SCT020 30/24 Q1007 NOSIG=  
18-Feb-2015 SAID35 WAPI 180300 METAR WAPI 180300Z 27007KT 9999 ST018 32/24 Q1007 NOSIG=  
18-Feb-2015 SAID35 WAPI 180400 METAR WAPI 180400Z 28008T 9999 SCT018 33/24 Q1006 NOSIG=  
18-Feb-2015 SAID35 WAPI 180500 METAR WAPI 180500Z 28010T 9999 SCT018 33/24 Q1005 NOSIG=  
18-Feb-2015 SAID35 WAPI 180600 METAR WAPI 180600Z 27008KT 9999 SCT018 33/26 Q1005 NOSIG=  
19-Feb-2015 SAID35 WAPI 190000 METAR WAPI 190000Z 27007KT 9999 BKN020 30/26 Q1007 NOSIG=  
19-Feb-2015 SAID35 WAPI 190100 METAR WAPI 190100Z 28011KT 9999 SCT020 31/27 Q1007 NOSIG=  
19-Feb-2015 SAID35 WAPI 190300 METAR WAPI 190300Z 28011KT 9999 SCT020 32/26 Q1006 NOSIG=  
19-Feb-2015 SAID35 WAPI 190400 METAR WAPI 190400Z 28012KT 9999 SCT020 32/26 Q1006 NOSIG=  
19-Feb-2015 SAID35 WAPI 190500 METAR WAPI 190500Z 27010KT 9999 SCT020 32/26 Q1005 NOSIG=  
19-Feb-2015 SAID35 WAPI 190600 METAR WAPI 190600Z 28012KT 9000 HZ SCT020 31/26 Q1004 NOSIG=  
19-Feb-2015 SAID35 WAPI 190700 METAR WAPI 190700Z 28014KT 9999 SCT018 31/26 Q1005 NOSIG=  
19-Feb-2015 SAID35 WAPI 190800 METAR WAPI 190800Z 27010KT 9999 SCT018 30/26 Q1005 NOSIG=  
19-Feb-2015 SAID35 WAPI 190900 METAR WAPI 190900Z 27012KT 9999 SCT018 30/25 Q1005 NOSIG=  
20-Feb-2015 SAID35 WAPI 200000 METAR WAPI 200000Z 28010KT 9999 SCT018 29/26 Q1008 NOSIG=  
20-Feb-2015 SAID35 WAPI 200100 METAR WAPI 200100Z 28014KT 9999 SET015 29/26 Q1008 NOSIG=  
20-Feb-2015 SAID35 WAPI 200200 METAR WAPI 200200Z 27012KT 9999 SET018 36/26 Q1008 NOSIG=  
20-Feb-2015 SAID35 WAPI 200500 METAR WAPI 200500Z 29016KT 9999 SCT018 31/26 Q1006 NOSIG=  
20-Feb-2015 SAID35 WAPI 200600 METAR WAPI 200600Z 28017KT 9999 SCT018 30/25 Q1005 NOSIG=  
20-Feb-2015 SAID35 WAPI 200700 METAR WAPI 200700Z 29012KT 9999 SCT017 31/26 Q1005 NOSIG=  
20-Feb-2015 SAID35 WAPI 200800 METAR WAPI 200800Z 28008KT 9999 SCT017 30/25 Q1005 NOSIG=  
20-Feb-2015 SAID35 WAPI 200900 METAR WAPI 200900Z 27010KT 9999 SCT017 29/25 Q1006 NOSIG=  
21-Feb-2015 SAID35 WAPI 210000 METAR WAPI 210000Z 28006KT 9999 SCT020 28/25 Q1009 RERA=  
21-Feb-2015 SAID35 WAPI 210200 METAR WAPI 210200Z 28009KT 9000 BKN017 OVC100 27/25 Q1009 RERA=  
21-Feb-2015 SAID35 WAPI 210300 METAR WAPI 210300Z 29005KT 9999 BKN017 OVC100 29/25 Q1008 RERA=  
21-Feb-2015 SAID35 WAPI 210400 METAR WAPI 210400Z 28009KT 9000 RA BKN017 OVC100 27/25 Q1008=  
21-Feb-2015 SAID35 WAPI 210500 METAR WAPI 210500Z 35009KT 9999 BKN017 OVC100 28/26 Q1008 RERA=  
21-Feb-2015 SAID35 WAPI 210600 METAR WAPI 210600Z 28007KT 9000 BKN017 OVC100 29/26 Q1008 RERA=  
21-Feb-2015 SAID35 WAPI 212300 METAR WAPI 212300Z 35010KT 9999 SCT018 OVC100 27/24 Q1011=  
22-Feb-2015 SAID35 WAPI 220000 METAR WAPI 220000Z 20008KT 9999 SCT018 OVC100 26/24 Q1011=  
22-Feb-2015 SAID35 WAPI 220100 METAR WAPI 220100Z 20007KT 9999 SCT018 OVC100 26/24 Q1012=  
22-Feb-2015 SAID35 WAPI 220200 METAR WAPI 220200Z 30010KT 9999 RA SCT018 OVC100 27/25 Q1011=  
22-Feb-2015 SAID35 WAPI 220300 METAR WAPI 220300Z 27009KT 9999 SCT017 FEW020 OVC100 28/25 Q1010 RERA=  
22-Feb-2015 SAID35 WAPI 220400 METAR WAPI 220400Z 32009KT 9999 SCT017 FWE020 OVC100 28/25 Q1010=  
22-Feb-2015 SAID35 WAPI 220600 METAR WAPI 220600Z 31010KT 9999 SCT017 FWE020 OVC100 30/24 Q1009 RERA=  
22-Feb-2015 SAID35 WAPI 220900 METAR WAPI 220900Z 22006KT 9999 SCT020 SCT100 29/24 Q1009 NOSIG=  
22-Feb-2015 SAID35 WAPI 222300 METAR WAPI 222300Z 18004KT 9999 SCT020 27/25 Q1011 NOSIG=  
23-Feb-2015 SAID35 WAPI 230000 METAR WAPI 230000Z 31007KT 9999 SCT020 29/25 Q1012 NOSIG=  
23-Feb-2015 SAID35 WAPI 230100 METAR WAPI 230100Z 32007KT 9999 SCT020 30/25 Q1011 NOSIG=  
23-Feb-2015 SAID35 WAPI 230200 METAR WAPI 230200Z 28005KT 9999 FEW020 BKN100 31/24 Q1011 NOSIG=  
23-Feb-2015 SAID35 WAPI 230300 METAR WAPI 230300Z 29004KT 9999 SCT020 32/24 Q1010 NOSIG=  
23-Feb-2015 SAID35 WAPI 230400 METAR WAPI 230400Z 14005KT 9999 SCT020 33/24 Q1009 NOSIG=  
23-Feb-2015 SAID35 WAPI 230500 METAR WAPI 230500Z 12005KT 9999 BKN020 31/26 Q1009 NOSIG=  
23-Feb-2015 SAID35 WAPI 230600 METAR WAPI 230600Z 07005KT 9999 SCT020 BKN100 29/26 Q1009 RERA=  
23-Feb-2015 SAID35 WAPI 230900 METAR WAPI 230900Z 07005KT 9999 SCT020 28/26 Q1009 NOSIG=  
24-Feb-2015 SAID35 WAPI 240000 METAR WAPI 240000Z 10003KT 9999 FEW018 29/25 Q1011 NOSIG=  
24-Feb-2015 SAID35 WAPI 240100 METAR WAPI 240100Z 29005KT 9999 FEW018 31/25 Q1011 NOSIG=  
24-Feb-2015 SAID35 WAPI 240200 METAR WAPI 240200Z 28005KT 9999 SET018 31/24 Q1011 NOSIG=  
24-Feb-2015 SAID35 WAPI 240300 METAR WAPI 240300Z 27007KT 9999 SCT018 32/24 Q1011 NOSIG=  
24-Feb-2015 SAID35 WAPI 240400 METAR WAPI 240400Z 27009KT 9999 SET018 33/25 Q1009 NOSIG=  
24-Feb-2015 SAID35 WAPI 250400 METAR WAPI 240400Z 21005KT 9999 SCT020 SCT100 31/26 Q1009 NOSIG=  
24-Feb-2015 SAID35 WAPI 240500 METAR WAPI 240500Z 28007KT 9999 SET016 33/24 Q1009 NOSIG=  
24-Feb-2015 SAID35 WAPI 240600 METAR WAPI 240600Z 27006KT 9999 BKN015 29/26 Q1009 RERA=  
24-Feb-2015 SAID35 WAPI 242300 METAR WAPI 242300Z 00000KT 9999 FEW017 FEW020 BKN100 26/24 Q1011=  
25-Feb-2015 SAID35 WAPI 250000 METAR WAPI 250000Z 00000KT 9999 SCT017 FEW020 BKN100 27/25 Q1011 NOSIG=  
25-Feb-2015 SAID35 WAPI 250100 METAR WAPI 250100Z 24005KT 9999 SCT020 BKN100 28/25 Q1011 NOSIG=  
25-Feb-2015 SAID35 WAPI 250300 METAR WAPI 250300Z 21007KT 9999 SCT020 SCT100 30/26 Q1009 NOSIG=  
25-Feb-2015 SAID35 WAPI 250500 METAR WAPI 250500Z 21005KT 9999 SCT020 SCT100 31/25 Q1009 NOSIG=  
25-Feb-2015 SAID35 WAPI 250600 METAR WAPI 250600Z 23007KT 9999 SCT020 SCT100 31/26 Q1007 NOSIG=  
25-Feb-2015 SAID35 WAPI 252300 METAR WAPI 252300Z 31005KT 9999 SCT020 BKN100 27/25 Q1009 NOSIG=  
26-Feb-2015 SAID35 WAPI 260000 METAR WAPI 260000Z 28006KT 9999 SCT020 30/26 Q1009 NOSIG=  
26-Feb-2015 SAID35 WAPI 260100 METAR WAPI 260100Z 26005KT 9999 SCT020 30/27 Q1010 NOSIG=  
26-Feb-2015 SAID35 WAPI 260200 METAR WAPI 260200Z 27005KT 9999 SCT020 30/26 Q1009 NOSIG=  
26-Feb-2015 SAID35 WAPI 260300 METAR WAPI 260300Z 27005KT 9999 SCT020 SCT017 31/26 Q1009=  
26-Feb-2015 SAID35 WAPI 260400 METAR WAPI 260400Z 23006KT 9999 SCT017 SCT020 27/25 Q1007=  
26-Feb-2015 SAID35 WAPI 260500 METAR WAPI 260500Z 21007KT 9999 RA SCT020 SCT017 27/25 Q1007=  
26-Feb-2015 SAID35 WAPI 260600 METAR WAPI 260600Z 30008KT 9999 SCT020 SCT017 26/24 Q1008 NOSIG=  
27-Feb-2015 SAID35 WAPI 270000 METAR WAPI 270000Z 31007KT 9000 RA SCT015 FEW020 BKN075 25/24 Q1010=  
27-Feb-2015 SAID35 WAPI 270100 METAR WAPI 270100Z 28007KT 8000 RA BKN015 FEW020 OVC075 25/24 Q1010=  
27-Feb-2015 SAID35 WAPI 270200 METAR WAPI 270200Z 28006KT 8000 RA BKN015 FEW020 OVC075 25/24 Q1010=  
27-Feb-2015 SAID35 WAPI 270300 METAR WAPI 270300Z 27004KT 8000 RA BKN015 FEW020 OVC075 25/25 Q1009=  
27-Feb-2015 SAID35 WAPI 272200 METAR WAPI 272200Z 28004KT 7000 RA BKN010 24/23 Q1010 NOSIG=  
28-Feb-2015 SAID35 WAPI 280000 METAR WAPI 280000Z 28008 9999 BKN020 25/24 Q1010 RERA=  
28-Feb-2015 SAID35 WAPI 280100 METAR WAPI 280100Z 27010KT 9999 SET015 RERA 26/25 Q1010 NOSIG=  
28-Feb-2015 SAID35 WAPI 280200 METAR WAPI 280200Z 26012KT 9999 SET015 26/25 Q1009 NOSIG=  
28-Feb-2015 SAID35 WAPI 280300 METAR WAPI 280300Z 26009KT 9999 SCT018 28/24 Q1009 NOSIG=  
28-Feb-2015 SAID35 WAPI 280400 METAR WAPI 280400Z 27007KT 9999 SCT018 28/23 Q1008 NOSIG=  
28-Feb-2015 SAID35 WAPI 280500 METAR WAPI 280500Z 26007KT 9999 SCT018 28/23 Q1007 NOSIG=  
28-Feb-2015 SAID35 WAPI 280600 METAR WAPI 280600Z 26009KT 9999 FEW018 30/24 Q1007 NOSIG=  
28-Feb-2015 SAID35 WAPI 280700 METAR WAPI 280700Z 28008KT 9999 FEW018 30/24 Q1007 NOSIG=  
28-Feb-2015 SAID35 WAPI 280800 METAR WAPI 280800Z 27005KT 9999 FEW018 30/25 Q1007 NOSIG=  
28-Feb-2015 SAID35 WAPI 280900 METAR WAPI 280900Z 29005KT 9999 FEW018 29/25 Q1007 NOSIG=  
01-Mar-2015 SAID35 WAPI 010000 METAR WAPI 010000Z 28007KT 9999 SCT020 29/25 Q1009 NOSIG=  
01-Mar-2015 SAID35 WAPI 010200 METAR WAPI 010200Z 27008KT 9999 SCT020 30/25 Q1009 NOSIG=  
01-Mar-2015 SAID35 WAPI 010300 METAR WAPI 010300Z 28007KT 9999 SCT020 30/25 Q1009 NOSIG=  
01-Mar-2015 SAID35 WAPI 010400 METAR WAPI 010400Z 26009KT 9999 SCT020 BKN100 30/25 Q1007 NOSIG=  
01-Mar-2015 SAID35 WAPI 010500 METAR WAPI 010500Z 28007KT 9999 SCT020 BKN100 30/25 Q1007 NOSIG=  
01-Mar-2015 SAID35 WAPI 010600 METAR WAPI 010600Z 28007KT 9999 SCT020 BKN100 31/25 Q1006 NOSIG=  
01-Mar-2015 SAID35 WAPI 012300 METAR WAPI 012300Z 28005KT 8000 SCT017 OVC100 26/25 Q1008 RERA=  
02-Mar-2015 SAID35 WAPI 020000 METAR WAPI 020000Z 00000KT 8000 SCT017 OVC100 27/25 Q1008 NOSIG=  
02-Mar-2015 SAID35 WAPI 020100 METAR WAPI 020100Z 28007KT 8000 RA SCT017 OVC100 27/25 Q1008=  
02-Mar-2015 SAID35 WAPI 020300 METAR WAPI 020300Z 27010KT 9000 SCT020 BKN100 30/26 Q1006 NOSIG=  
02-Mar-2015 SAID35 WAPI 020600 METAR WAPI 020600Z 28008KT 9999 SCT020 BKN100 31/25 Q1004 NOSIG=  
03-Mar-2015 SAID35 WAPI 030000 METAR WAPI 030000Z 27008KT 8000 RA SCT017 BKN100 27/25 Q1008=  
03-Mar-2015 SAID35 WAPI 030200 METAR WAPI 030200Z 27005KT 9999 SCT020 BKN100 31/26 Q1008 NOSIG=  
03-Mar-2015 SAID35 WAPI 030300 METAR WAPI 030300Z 26007KT 8000 RA SCT017 OVC075 27/25 Q1008=  
03-Mar-2015 SAID35 WAPI 030500 METAR WAPI 030500Z 30010KT 8000 SCT017 BKN100 28/25 Q1007 RERA=  
03-Mar-2015 SAID35 WAPI 030600 METAR WAPI 030600Z 30006KT 9000 SCT017 OVC100 28/25 Q1006 RERA=  
04-Mar-2015 SAID35 WAPI 040000 METAR WAPI 040000Z 28009KT 9999 SET018 27/26 Q1009 NOSIG=  
04-Mar-2015 SAID35 WAPI 040100 METAR WAPI 040100Z 28007KT 9999 SET018 28/26 Q1009 NOSIG=  
04-Mar-2015 SAID35 WAPI 040200 METAR WAPI 040200Z 27009KT 9999 SCT018 30/26 Q1008 NOSIG=  
04-Mar-2015 SAID35 WAPI 040300 METAR WAPI 040300Z 27007KT 9999 SCT018 31/25 Q1008 NOSIG=  
04-Mar-2015 SAID35 WAPI 040400 METAR WAPI 040400Z 28009KT 9999 SCT018 31/25 Q1008 NOSIG=  
04-Mar-2015 SAID35 WAPI 040500 METAR WAPI 040500Z 28007KT 9999 BKN018 31/25 Q1007 NOSIG=  
04-Mar-2015 SAID35 WAPI 040600 METAR WAPI 040600Z 28009KT 9999 SCT018 31/25 Q1007 N0SIG=  
04-Mar-2015 SAID35 WAPI 040700 METAR WAPI 040700Z 27006KT 9999 SCT018 31/26 Q1006 NOSIG=  
04-Mar-2015 SAID35 WAPI 040800 METAR WAPI 040800Z 25013KT RA SC010 BKN016 27/23 Q1008 NOSIG=  
04-Mar-2015 SAID35 WAPI 040900 METAR WAPI 040900Z 26010KT TS CB BKN015 25/24 Q1008 NOSIG=  
04-Mar-2015 SAID35 WAPI 042300 METAR WAPI 042300Z 29003KT 9999 SCT020 SCT100 27/26 Q1010 NOSIG=  
05-Mar-2015 SAID35 WAPI 050000 METAR WAPI 050000Z 27004KT 9999 SCT020 SCT100 29/26 Q1010 NOSIG=  
05-Mar-2015 SAID35 WAPI 050100 METAR WAPI 050100Z 27008KT 9999 BKN020 30/25 Q1010 NOSIG=  
05-Mar-2015 SAID35 WAPI 050200 METAR WAPI 050200Z 27009KT 9999 BKN020 31/25 Q1010 NOSIG=  
05-Mar-2015 SAID35 WAPI 050300 METAR WAPI 050300Z 24011KT 9999 SCT017 BKN100 28/25 Q1009 RERA=  
05-Mar-2015 SAID35 WAPI 050600 METAR WAPI 050600Z 28009KT 9999 SCT020 29/25 Q1006 NOSIG=  
05-Mar-2015 SAID35 WAPI 052300 METAR WAPI 052300Z 23005KT 9999 FEW017 BKN100 26/25 Q1009 NOSIG=  
06-Mar-2015 SAID35 WAPI 060000 METAR WAPI 060000Z 28007KT 9999 SCT020 28/26 Q1009 NOSIG=  
06-Mar-2015 SAID35 WAPI 060100 METAR WAPI 060100Z 27007KT 9000 -RA SCT017 BKN100 28/25 Q1009=  
06-Mar-2015 SAID35 WAPI 060200 METAR WAPI 060200Z 28008KT 9999 SCT017 BKN100 29/26 Q1009 RERA=  
06-Mar-2015 SAID35 WAPI 060300 METAR WAPI 060300Z 28009KT 9999 SCT017 BKN100 29/26 Q1009=  
06-Mar-2015 SAID35 WAPI 060400 METAR WAPI 060400Z 27007KT 8000 -RA BKN016 28/26 Q1008=  
06-Mar-2015 SAID35 WAPI 060600 METAR WAPI 060600Z 26014KT 7000 -RA SCT017 OVC075 26/25 Q1007=  
07-Mar-2015 SAID35 WAPI 070200 METAR WAPI 070200Z 28010KT 9999 SCT020 30/25 Q1009 NOSIG=  
07-Mar-2015 SAID35 WAPI 070300 METAR WAPI 070300Z 27009KT 9999 SCT020 31/26 Q1008 NOSIG=  
07-Mar-2015 SAID35 WAPI 070500 METAR WAPI 070500Z 27010KT 9999 SCT020 32/26 Q1007 NOSIG=  
07-Mar-2015 SAID35 WAPI 070600 METAR WAPI 070600Z 28009KT 9999 SCT020 32/26 Q1007 NOSIG=  
07-Mar-2015 SAID35 WAPI 070900 METAR WAPI 070900Z 28010KT 9999 SCT020 BKN100 30/25 Q1007 NOSIG=  
07-Mar-2015 SAID35 WAPI 072300 METAR WAPI 072300Z 27007KT 9999 SCT018 27/25 Q1011 NOSIG=  
08-Mar-2015 SAID35 WAPI 080000 METAR WAPI 080000Z 28007KT 9999 SCT018 28/26 Q1011 NOSIG=  
08-Mar-2015 SAID35 WAPI 080500 METAR WAPI 080500Z 27014KT 9999 SCT018 32/24 Q1009=  
09-Mar-2015 SAID35 WAPI 090100 METAR WAPI 090100Z 27007KT 9999 BKN020 30/25 Q1011 NOSIG=  
09-Mar-2015 SAID35 WAPI 090200 METAR WAPI 090200Z 28007KT 9999 BKN020 31/26 Q1011 NOSIG=  
09-Mar-2015 SAID35 WAPI 090300 METAR WAPI 090300Z 27009KT 9999 BKN020 29/26 Q1010 NOSIG=  
09-Mar-2015 SAID35 WAPI 090400 METAR WAPI 090400Z 27010KT 9999 BKN018 31/26 Q1009 =  
09-Mar-2015 SAID35 WAPI 090500 METAR WAPI 090500Z 26007KT 9999 BKN018 31/25 Q1008 =  
09-Mar-2015 SAID35 WAPI 090600 METAR WAPI 090600Z 26010KT 9999 BKN020 31/25 Q1008 NOSIG=  
10-Mar-2015 SAID35 WAPI 100000 METAR WAPI 100000Z 27005KT 9999 BKN018 29/26 Q1011=  
10-Mar-2015 SAID35 WAPI 100100 METAR WAPI 100100Z 26004KT 9999 BKN018 31/27 Q1011=  
10-Mar-2015 SAID35 WAPI 100200 METAR WAPI 100200Z 27007KT 9999 BKN020 31/25 Q1009 NOSIG=  
10-Mar-2015 SAID35 WAPI 100300 METAR WAPI 100300Z 28007KT 9999 BKN020 32/26 Q1010 NOSIG=  
10-Mar-2015 SAID35 WAPI 100400 METAR WAPI 100400Z 26008KT 9999 BKN018 32/25 Q1009=  
10-Mar-2015 SAID35 WAPI 100600 METAR WAPI 100600Z 28010KT 9999 SCT020 32/25 Q1008 NOSIG=  
10-Mar-2015 SAID35 WAPI 102300 METAR WAPI 102300Z 27004KT 9999 FEW020 27/26 Q1011=  
11-Mar-2015 SAID35 WAPI 110000 METAR WAPI 110000Z 26006KT 9999 BKN020 29/25 Q1012 NOSIG=  
11-Mar-2015 SAID35 WAPI 110100 METAR WAPI 110100Z 27007KT 9999 SCT020 30/26 Q1012 NOSIG=  
11-Mar-2015 SAID35 WAPI 110200 METAR WAPI 110200Z 28006KT 9999 BKN018 31/27 Q1011=  
11-Mar-2015 SAID35 WAPI 110300 METAR WAPI 110300Z 28007KT 9999 BKN020 33/26 Q1011 NOSIG=  
11-Mar-2015 SAID35 WAPI 110400 METAR WAPI 110400Z 270087KT 9999 BKN020 32/26 Q1010 NOSIG=  
11-Mar-2015 SAID35 WAPI 110500 METAR WAPI 110500Z 27009KT 9999 BKN020 32/26 Q1009 NOSIG=  
11-Mar-2015 SAID35 WAPI 110600 METAR WAPI 110600Z 27008KT 9999 BKN020 32/25 Q1008 NOSIG=  
11-Mar-2015 SAID35 WAPI 112300 METAR WAPI 112300Z 28006KT 9999 SCT018 28/26 Q1011 NOSIG=  
12-Mar-2015 SAID35 WAPI 120000 METAR WAPI 120000Z 27006KT 9999 SCT018 30/25 Q1012=  
12-Mar-2015 SAID35 WAPI 120100 METAR WAPI 120100Z 27006KT 9999 SCT018 30/25 Q1012=  
12-Mar-2015 SAID35 WAPI 120200 METAR WAPI 120200Z 26008KT 9999 SCT018 31/25 Q1011 NOSIG=  
12-Mar-2015 SAID35 WAPI 120300 METAR WAPI 120300Z 27010KT 9999 SCT018 32/25 Q1010=  
12-Mar-2015 SAID35 WAPI 120500 METAR WAPI 120500Z 28010KT 9999 FEW018 32/25 Q1009 NOSIG=  
12-Mar-2015 SAID35 WAPI 120600 METAR WAPI 120600Z 28010KT 9999 SCT018 31/25 Q1008 NOSIG=  
12-Mar-2015 SAID35 WAPI 120700 METAR WAPI 120700Z 28008KT 9999 SCT018 32/26 Q1008 NOSIG=  
12-Mar-2015 SAID35 WAPI 120800 METAR WAPI 120800Z 26008KT 9999 SCT018 31/25 Q1008 NOSIG=  
12-Mar-2015 SAID35 WAPI 120900 METAR WAPI 120900Z 27006KT 9999 FEW018 30/26 Q1008 NOSIG=  
12-Mar-2015 SAID35 WAPI 122300 METAR WAPI 122300Z 27004KT 9999 SCT020 28/26 Q1010=  
13-Mar-2015 SAID35 WAPI 130000 METAR WAPI 130000Z 27008KT 9999 SCT020 29/26 Q1010=  
13-Mar-2015 SAID35 WAPI 130100 METAR WAPI 130100Z 27010KT 9999 BKN018 31/26 Q1011=  
13-Mar-2015 SAID35 WAPI 130200 METAR WAPI 130200Z 27009KT 9999 BKN018 31/26 Q1010=  
13-Mar-2015 SAID35 WAPI 130300 METAR WAPI 130300Z 27011KT 9999 BKN018 32/25 Q1010=  
13-Mar-2015 SAID35 WAPI 130400 METAR WAPI 130400Z 27012KT 9999 BKN018 32/25 Q1009=  
13-Mar-2015 SAID35 WAPI 130500 METAR WAPI 130500Z 26011KT 9999 BKN018 32/26 Q1008=  
13-Mar-2015 SAID35 WAPI 130600 METAR WAPI 130600Z 26012KT 9999 BKN018 31/25 Q1008=  
13-Mar-2015 SAID35 WAPI 132300 METAR WAPI 132300Z 27006KT 9999 SCT020 28/26 Q1011=  
14-Mar-2015 SAID35 WAPI 140000 METAR WAPI 140000Z 27008KT 9999 BKN020 30/26 Q1012 NOSIG=  
14-Mar-2015 SAID35 WAPI 140100 METAR WAPI 140100Z 27007KT 9999 BKN020 30/26 Q1012 NOSIG=  
14-Mar-2015 SAID35 WAPI 140200 METAR WAPI 140200Z 28009KT 9999 BKN020 31/26 Q1012 NOSIG=  
14-Mar-2015 SAID35 WAPI 140300 METAR WAPI 140300Z 28005KT 9999 BKN020 32/26 Q1012 NOSIG=  
14-Mar-2015 SAID35 WAPI 140400 METAR WAPI 140400Z 09013KT RA OVC010 25/24 Q1012=  
14-Mar-2015 SAID35 WAPI 140600 METAR WAPI 140600Z 15005KT 9000 RA FEW015CB SCT020 OVC075 26/23 Q1011=  
14-Mar-2015 SAID35 WAPI 142300 METAR WAPI 142300Z 27004KT 9999 FEW020 28/26 Q1012=  
15-Mar-2015 SAID35 WAPI 150000 METAR WAPI 150000Z 27007KT 9999 SCT20 30/26 Q1013=  
15-Mar-2015 SAID35 WAPI 150100 METAR WAPI 150100Z 27006KT 9999 FEW020 31/26 Q1013=  
15-Mar-2015 SAID35 WAPI 150200 METAR WAPI 150200Z 27005KT 9999 FEW018 31/26 Q1013=  
15-Mar-2015 SAID35 WAPI 150300 METAR WAPI 150300Z 27008KT 9999 BKN018 32/26 Q1012=  
15-Mar-2015 SAID35 WAPI 150400 METAR WAPI 150400Z 27007KT 9999 BKN018 32/25 Q1011=  
15-Mar-2015 SAID35 WAPI 150500 METAR WAPI 150500Z 27009KT 9999 BKN018 32/26 Q1010=  
15-Mar-2015 SAID35 WAPI 150600 METAR WAPI 150600Z 27009KT 9999 BKN018 32/26 Q1009=  
15-Mar-2015 SAID35 WAPI 152100 METAR WAPI 152100Z 28004KT 9999 SCT017 26/25 Q1011 NOSIG=  
15-Mar-2015 SAID35 WAPI 152200 METAR WAPI 152200Z 27003KT 9999 FEW017 27/25 Q1012 NOSIG=  
15-Mar-2015 SAID35 WAPI 152300 METAR WAPI 152300Z 28003KT 9999 FEW017 27/25 Q1012 NOSIG=  
16-Mar-2015 SAID35 WAPI 160000 METAR WAPI 160000Z 28006KT 9999 SCT018 29/26 Q1013 NOSIG=  
16-Mar-2015 SAID35 WAPI 160100 METAR WAPI 160100Z 28010KT 9999 SCT018 31/25 Q1013 NOSIG=  
16-Mar-2015 SAID35 WAPI 160300 METAR WAPI 160300Z 27012KT 9999 SCT018 32/26 Q1012=  
16-Mar-2015 SAID35 WAPI 160400 METAR WAPI 160400Z 28008KT 9999 SCT018 32/26 Q1011 NOSIG=  
16-Mar-2015 SAID35 WAPI 160500 METAR WAPI 160500Z 27010KT 9999 SCT018 31/25 Q1010 NOSIG=  
16-Mar-2015 SAID35 WAPI 160600 METAR WAPI 160600Z 27013KT 9999 SCT018 32/25 Q1010 NOSIG=  
16-Mar-2015 SAID35 WAPI 160700 METAR WAPI 160700Z 28010KT 9999 FEW018 32/25 Q1009 NOSIG=  
16-Mar-2015 SAID35 WAPI 160800 METAR WAPI 160800Z 28008KT 9999 FEW018 32/26 Q1009 NOSIG=  
16-Mar-2015 SAID35 WAPI 160900 METAR WAPI 160900Z 29006KT 9999 FEW018 30/25 Q1010 NOSIG=  
16-Mar-2015 SAID35 WAPI 162300 METAR WAPI 162300Z 28002KT 9999 FEW020 28/25 Q1011=  
17-Mar-2015 SAID35 WAPI 170000 METAR WAPI 170000Z 27002KT 9999 FEW020 30/26 Q1012=  
17-Mar-2015 SAID35 WAPI 170100 METAR WAPI 170100Z 27005KT 9999 SCT018 31/25 Q1012=  
17-Mar-2015 SAID35 WAPI 170300 METAR WAPI 170300Z 26008KT 9999 BKN018 33/25 Q1011=  
17-Mar-2015 SAID35 WAPI 170400 METAR WAPI 170400Z 27008KT 9999 BKN018 31/25 Q1010=  
17-Mar-2015 SAID35 WAPI 170500 METAR WAPI 170500Z 24010KT 9999 BKN018 32/26 Q1009=  
17-Mar-2015 SAID35 WAPI 170600 METAR WAPI 170600Z 26008KT 9999 BKN018 31/25 Q1008=  
17-Mar-2015 SAID35 WAPI 172300 METAR WAPI 172300Z 28002KT 9999 FEW020 28/26 Q1010=  
18-Mar-2015 SAID35 WAPI 180000 METAR WAPI 180000Z 25003KT 9999 SCT020 30/26 Q1011 NOSIG=  
18-Mar-2015 SAID35 WAPI 180100 METAR WAPI 180100Z 24006KT 9999 SCT020 31/26 Q1011 NOSIG=  
18-Mar-2015 SAID35 WAPI 180200 METAR WAPI 180200Z 21007KT 9999 SCT020 31/25 Q1011=  
18-Mar-2015 SAID35 WAPI 180300 METAR WAPI 180300Z 23007KT 9999 SCT020 32/25 Q1010 NOSIG=  
18-Mar-2015 SAID35 WAPI 180400 METAR WAPI 180400Z 22007KT 9999 BKN018 33/26 Q1009=  
18-Mar-2015 SAID35 WAPI 180500 METAR WAPI 180500Z 23007KT 9999 BKN018 32/26 Q1009=  
18-Mar-2015 SAID35 WAPI 180600 METAR WAPI 180600Z 24011KT 9999 BKN020 31/25 Q1008 NOSIG=  
18-Mar-2015 SAID35 WAPI 182300 METAR WAPI 182300Z 20003KT 9999 FEW020 27/25 Q1012=  
19-Mar-2015 SAID35 WAPI 190000 METAR WAPI 190000Z 26003KT 9999 FEW020 29/25 Q1013=  
19-Mar-2015 SAID35 WAPI 190100 METAR WAPI 190100Z 09002KT 9999 BKN018 29/25 Q1013=  
19-Mar-2015 SAID35 WAPI 190200 METAR WAPI 190200Z 20002KT 9999 SCT018 29/25 Q1012=  
19-Mar-2015 SAID35 WAPI 190300 METAR WAPI 190300Z 12005KT 9999 SCT018 31/25 Q1012=  
19-Mar-2015 SAID35 WAPI 190400 METAR WAPI 190400Z 12005KT 9999 SCT018 31/24 Q1011=  
19-Mar-2015 SAID35 WAPI 190500 METAR WAPI 190500Z 14005KT 9999 BKN018 31/24 Q1010=  
19-Mar-2015 SAID35 WAPI 190600 METAR WAPI 190600Z 13005KT 9999 BKN018 31/24 Q1009=  
19-Mar-2015 SAID35 WAPI 192300 METAR WAPI 192300Z 00000KT 9999 FEW01826/24 Q1012=  
20-Mar-2015 SAID35 WAPI 200000 METAR WAPI 200000Z 0806KT 9999 FEW020 29/25 Q1013=  
20-Mar-2015 SAID35 WAPI 200100 METAR WAPI 200100Z 0906KT 9999 FEW018 30/23 Q1013=  
20-Mar-2015 SAID35 WAPI 200300 METAR WAPI 200300Z 10009KT 9999 FEW020 31/22 Q1012=  
20-Mar-2015 SAID35 WAPI 200600 METAR WAPI 200600Z 9999 SCT018 32/23 Q1010 NOSIG=  
20-Mar-2015 SAID35 WAPI 202300 METAR WAPI 202300Z 12002KT 9999 FEW020 27/23 Q1012=  
21-Mar-2015 SAID35 WAPI 210000 METAR WAPI 210000Z 28003KT 9999 FEW020 28/24 Q1012=  
21-Mar-2015 SAID35 WAPI 210100 METAR WAPI 210100Z 27002KT 9999 FEW020 30/24 Q1012=  
21-Mar-2015 SAID35 WAPI 210200 METAR WAPI 210200Z 26002KT 9999 FEW020 32/24 Q1012=  
21-Mar-2015 SAID35 WAPI 210300 METAR WAPI 210300Z 22003KT 9999 FEW020 32/25 Q1011=  
21-Mar-2015 SAID35 WAPI 210400 METAR WAPI 210400Z 24005KT 9999 FEW020 33/25 Q1010=  
21-Mar-2015 SAID35 WAPI 210500 METAR WAPI 210500Z 23007KT 9999 FEW020 32/25 Q1009=  
21-Mar-2015 SAID35 WAPI 210600 METAR WAPI 210600Z 22010KT 9999 BKN018 31/25 Q1009=  
21-Mar-2015 SAID35 WAPI 212300 METAR WAPI 212300Z 28003KT 9999 FEW020 29/26 Q1010=  
22-Mar-2015 SAID35 WAPI 220000 METAR WAPI 220000Z 26003KT 9999 FEW020 30/26 Q1011=  
22-Mar-2015 SAID35 WAPI 220100 METAR WAPI 220100Z 27007KT 9999 FEW020 31/25 Q1011=  
22-Mar-2015 SAID35 WAPI 220200 METAR WAPI 220200Z 27006KT 9999 FEW020 32/25 Q1011=  
22-Mar-2015 SAID35 WAPI 220300 METAR WAPI 220300Z 25009KT 9999 FEW020 32/25 Q1011=  
22-Mar-2015 SAID35 WAPI 220400 METAR WAPI 220400Z 24009KT 9999 FEW020 32/25 Q1010=  
22-Mar-2015 SAID35 WAPI 222300 METAR WAPI 222300Z 27004KT 9999 SCT020 26/24 Q1010=  
23-Mar-2015 SAID35 WAPI 230000 METAR WAPI 230000Z 27004KT 9999 SCT020 29/23 Q1010=  
23-Mar-2015 SAID35 WAPI 230300 METAR WAPI 230300Z 26006KT 9999 FEW020 33/26 Q1009=  
23-Mar-2015 SAID35 WAPI 230400 METAR WAPI 230400Z 27009KT 9999 BKN018 33/26 Q1008=  
23-Mar-2015 SAID35 WAPI 230500 METAR WAPI 230500Z 27011KT 9999 BKN018 32/25 Q1007=  
23-Mar-2015 SAID35 WAPI 230600 METAR WAPI 230600Z 27008KT 9999 BKN018 30/25 Q1007=  
23-Mar-2015 SAID35 WAPI 232300 METAR WAPI 232300Z 28005KT 9999 FEW018 26/24 Q1011 NOSIG=  
24-Mar-2015 SAID35 WAPI 240000 METAR WAPI 240000Z 26006KT 9999 FEW018 29/25 Q1011 NOSIG=  
24-Mar-2015 SAID35 WAPI 240100 METAR WAPI 240100Z 27005KT 9999 FEW018 31/25 Q1011 NOSIG=  
24-Mar-2015 SAID35 WAPI 240300 METAR WAPI 240300Z 28010KT 9999 SCT018 32/25 Q1010=  
24-Mar-2015 SAID35 WAPI 240400 METAR WAPI 240400Z 28011KT 9999 SCT018 32/25 Q1010 NOSIG=  
24-Mar-2015 SAID35 WAPI 240500 METAR WAPI 240500Z 27013KT 9999 BKN016 32/25 Q1009 NOSIG=  
24-Mar-2015 SAID35 WAPI 240600 METAR WAPI 240600Z 27015KT 9999 BKN016 33/25 Q1008 NOSIG=  
24-Mar-2015 SAID35 WAPI 242300 METAR WAPI 242300Z 28004KT 9999 FEW020 28/26 Q1011=  
25-Mar-2015 SAID35 WAPI 250000 METAR WAPI 250000Z 26005KT 9999 FEW020 29/26 Q1012=  
25-Mar-2015 SAID35 WAPI 250100 METAR WAPI 250100Z 27008KT 9999 BKN018 31/25 Q1012=  
25-Mar-2015 SAID35 WAPI 250200 METAR WAPI 250200Z 26008KT 9999 BKN018 32/26 Q1011=  
25-Mar-2015 SAID35 WAPI 250300 METAR WAPI 250300Z 23006KT 9999 BKN018 28/24 Q1011=  
25-Mar-2015 SAID35 WAPI 250400 METAR WAPI 250400Z 27005KT 9999 BKN018 30/26 Q1010=  
25-Mar-2015 SAID35 WAPI 250500 METAR WAPI 250500Z 27005KT 9999 BKN018 30/25 Q1009=  
25-Mar-2015 SAID35 WAPI 250600 METAR WAPI 250600Z 27005KT 9999 BKN018 31/26 Q1009=  
25-Mar-2015 SAID35 WAPI 252300 METAR WAPI 252300Z 25005KT 9999 SCT018 26/24 Q1013=  
26-Mar-2015 SAID35 WAPI 260000 METAR WAPI 260000Z 30003KT 9999 SCT018 27/24 Q1014=  
26-Mar-2015 SAID35 WAPI 260100 METAR WAPI 260100Z 30003KT 9999 SCT018 29/25 Q1014 NOSIG=  
26-Mar-2015 SAID35 WAPI 260300 METAR WAPI 260300Z 31005KT 99999 BKN018 27/25 Q1013=  
26-Mar-2015 SAID35 WAPI 260400 METAR WAPI 260300Z 31005KT 9999 BKN018 27/25 Q1013=  
26-Mar-2015 SAID35 WAPI 260400 METAR WAPI 260400Z 28004KT 9999 BKN018 29/25 Q1012 NOSIG=  
26-Mar-2015 SAID35 WAPI 260500 METAR WAPI 260500Z 29005KT 9999 BKN018 30/25 Q1011 NOSIG=  
26-Mar-2015 SAID35 WAPI 260600 METAR WAPI 260600Z 28005KT 9999 BKN018 29/26 Q1011 NOSIG=  
26-Mar-2015 SAID35 WAPI 262300 METAR WAPI 262300Z 08003KT 9999 FEW020 27/25 Q1014=  
27-Mar-2015 SAID35 WAPI 270000 METAR WAPI 270000Z 05006KT 9999 FEW020 30/24 Q1014=  
27-Mar-2015 SAID35 WAPI 270100 METAR WAPI 270100Z 27002KT 9999 SCT018 30/26 Q1014=  
27-Mar-2015 SAID35 WAPI 270200 METAR WAPI 270200Z 11006KT 9999 BKN018 30/25 Q1014=  
27-Mar-2015 SAID35 WAPI 270300 METAR WAPI 270300Z 16003KT RA/TS OVC010 30/25 Q1013=  
27-Mar-2015 SAID35 WAPI 270400 METAR WAPI 270400Z 14002KT TS OVC010 28/25 Q1013=  
27-Mar-2015 SAID35 WAPI 270500 METAR WAPI 270500Z 16005KT RA OVC010 27/25 Q1012=  
27-Mar-2015 SAID35 WAPI 270600 METAR WAPI 270600Z 30004KT 9999 BKN018 29/25 Q1011=  
27-Mar-2015 SAID35 WAPI 272300 METAR WAPI 272300Z 00000KT 9999 FEW018 27/25 Q1011=  
28-Mar-2015 SAID35 WAPI 280000 METAR WAPI 280000Z 00000KT 9999 FEW018 28/25 Q1014=  
28-Mar-2015 SAID35 WAPI 280100 METAR WAPI 280100Z 27002KT 9999 SCT018 28/25 Q1013=  
28-Mar-2015 SAID35 WAPI 280200 METAR WAPI 280200Z 28006KT 9999 SET018 31/25 Q1014=  
28-Mar-2015 SAID35 WAPI 280300 METAR WAPI 280300Z 10006KT 9999 SCT018 31/25 Q1012=  
28-Mar-2015 SAID35 WAPI 280400 METAR WAPI 280400Z 09007KT 9999 SCT018 31/25 Q1012=  
28-Mar-2015 SAID32 WAMM 280500 METAR WAPI 280500Z 10007KT 9999 SCT018 31/24 Q1011 NOSIG=  
28-Mar-2015 SAID35 WAPI 280600 METAR WAPI 280600Z 10008KT 9999 FEW018 31/25 Q1010 NOSIG=  
29-Mar-2015 SAID35 WAPI 290000 METAR WAPI 290000Z 13005KT 9999 BKN018 29/25 Q1013=  
29-Mar-2015 SAID35 WAPI 290100 METAR WAPI 290100Z 12007KT 9999 SCT018 30/25 Q1013=  
29-Mar-2015 SAID35 WAPI 290200 METAR WAPI 290200Z 13006KT 9999 BKN018 30/25 Q1012=  
29-Mar-2015 SAID35 WAPI 290300 METAR WAPI 290300Z 11008KT 9999 BKN018 30/25 Q1011=  
29-Mar-2015 SAID35 WAPI 290500 METAR WAPI 290500Z 09008KT 9999 BKN018 31/25 Q1009=  
29-Mar-2015 SAID35 WAPI 290600 METAR WAPI 290600Z 09007KT 9999 BKN018 31/24 Q1009=  
29-Mar-2015 SAID35 WAPI 292300 METAR WAPI 292300Z 09006KT 9999 FEW020 29/23 Q1012=  
30-Mar-2015 SAID35 WAPI 300000 METAR WAPI 300000Z 10010KT 9999 SCT020 30/22 Q1012=  
30-Mar-2015 SAID35 WAPI 300100 METAR WAPI 300100Z 10011KT 9999 FEW018 31/23 Q1012 NOSIG=  
30-Mar-2015 SAID35 WAPI 300200 METAR WAPI 300200Z 10010KT 9999 FEW018 31/24 Q1012 NOSIG=  
30-Mar-2015 SAID35 WAPI 300300 METAR WAPI 300300Z 10011KT 9999 SCT020 31/24 Q1011 NOSIG=  
30-Mar-2015 SAID35 WAPI 300400 METAR WAPI 300400Z 10009KT 9999 SCT020 32/24 Q1010 NOSIG=  
30-Mar-2015 SAID35 WAPI 300500 METAR WAPI 300500Z 10010KT 9999 BKN018 31/24 Q1009 NOSIG=  
30-Mar-2015 SAID35 WAPI 300600 METAR WAPI 300600Z 10010KT 9999 BKN018 31/24 Q1009=  
31-Mar-2015 SAID35 WAPI 310000 METAR WAPI 310000Z 09007KT 9999 BKN018 30/25 Q1012=  
31-Mar-2015 SAID35 WAPI 310100 METAR WAPI 310100Z 09009Z 9999 SCT020 31/25 Q1012=  
31-Mar-2015 SAID35 WAPI 310200 METAR WAPI 310200Z 10010KT 9999 BKN018 31/25 Q1011=  
31-Mar-2015 SAID35 WAPI 310300 METAR WAPI 310300Z 09011KT 9999 BKN018 32/26 Q1011=  
31-Mar-2015 SAID35 WAPI 310400 METAR WAPI 310400Z 10009KT 9999 BKN018 32/25 Q1010=  
31-Mar-2015 SAID35 WAPI 310500 METAR WAPI 310500Z 08010KT 9999 BKN018 31/25 Q1009=  
31-Mar-2015 SAID35 WAPI 310600 METAR WAPI 310600Z 09009KT 9999 BKN018 31/25 Q1008=  
31-Mar-2015 SAID35 WAPI 312300 METAR WAPI 312300Z 09005KT 9999 SCT018 29/26 Q1012=  
01-Apr-2015 SAID35 WAPI 010000 METAR WAPI 010000Z 09007KT 9999 SET018 30/25 Q1012 =  
01-Apr-2015 SAID35 WAPI 010100 METAR WAPI 010100Z 09005KT 9999 SCT018 31/25 Q1012 =  
01-Apr-2015 SAID35 WAPI 010200 METAR WAPI 010200Z 12008KT 9999 RA SCT018 29/24 Q1012 =  
01-Apr-2015 SAID35 WAPI 010300 METAR WAPI 010300Z 12010KT 9999 RA SCT018 32/25 Q1011 =  
01-Apr-2015 SAID35 WAPI 010500 METAR WAPI 010500Z 08007KT 9999 SCT016 31/26 Q1010 =  
01-Apr-2015 SAID35 WAPI 010600 METAR WAPI 010600Z 0905KT 9999 SCT018 31/25 Q1008 NOSIG=  
01-Apr-2015 SAID35 WAPI 012300 METAR WAPI 012300Z 08003KT 9999 FEW020 29/25 Q1009=  
02-Apr-2015 SAID35 WAPI 020000 METAR WAPI 020000Z 07006KT 9999 SCT020 30/25 Q1010=  
02-Apr-2015 SAID35 WAPI 020100 METAR WAPI 020100Z 10008KT 9999 BKN018 31/25 Q1010=  
02-Apr-2015 SAID35 WAPI 020200 METAR WAPI 020200Z 08007KT 9999 BKN018 32/25 Q1009=  
02-Apr-2015 SAID35 WAPI 020300 METAR WAPI 020300Z 08006KT 9999 BKN018 31/26 Q1008=  
02-Apr-2015 SAID35 WAPI 020400 METAR WAPI 020400Z 09006KT 9999 BKN018 31/26 Q1007=  
02-Apr-2015 SAID35 WAPI 020600 METAR WAPI 020600Z 12006KT 9999 BKN018 31/25 Q1006=  
02-Apr-2015 SAID35 WAPI 022300 METAR WAPI 022300Z 10003KT 9999 BKN018 28/26 Q1008=  
03-Apr-2015 SAID35 WAPI 030000 METAR WAPI 030000Z 10006KT 9999 SCT018 30/26 Q1009 NOSIG=  
03-Apr-2015 SAID35 WAPI 030100 METAR WAPI 030100Z 08011KT 9999 BKN020 31/26 Q1009 NOSIG=  
03-Apr-2015 SAID35 WAPI 030200 METAR WAPI 030200Z 11006KT 9999 BKN020 21/26 Q1009 NOSIG=  
03-Apr-2015 SAID35 WAPI 030300 METAR WAPI 030200Z 11006KT 9999 BKN020 31/26 Q1009 NOSIG=  
03-Apr-2015 SAID35 WAPI 030300 METAR WAPI 030300Z 10008KT 9999 BKN020 31/26 Q1008 NOSIG=  
03-Apr-2015 SAID35 WAPI 030400 METAR WAPI 030400Z 10006KT 9999 BKN015 31/26 Q1007=  
03-Apr-2015 SAID35 WAPI 030500 METAR WAPI 030500Z 08008KT 9999 BKN015 31/25 Q1007=  
03-Apr-2015 SAID35 WAPI 030600 METAR WAPI 030600Z 10006KT 9999 BKN018 31/26 Q1006=  
03-Apr-2015 SAID35 WAPI 032300 METAR WAPI 032300Z 09004KT 9999 BKN018 28/25 Q1009=  
04-Apr-2015 SAID35 WAPI 040000 METAR WAPI 040000Z 09007KT 9999 BKN018 30/26 Q1010=  
04-Apr-2015 SAID35 WAPI 040100 METAR WAPI 040100Z 08007KT 9999 BKN015 30/26 Q1009=  
04-Apr-2015 SAID35 WAPI 040200 METAR WAPI 040200Z 07009KT 9999 BKN015 31/25 Q1009=  
04-Apr-2015 SAID35 WAPI 040400 METAR WAPI 040400Z 06009KT 9999 BKN015 32/25 Q1008=  
04-Apr-2015 SAID35 WAPI 040600 METAR WAPI 040600Z 06009KT 9999 SCT018 31/25 Q1007 NOSIG=  
04-Apr-2015 SAID35 WAPI 042300 METAR WAPI 042300Z 23003KT 9999 FEW018 27/25 Q1010=  
05-Apr-2015 SAID35 WAPI 050000 METAR WAPI 050000Z 26004KT 9999 FEW018 29/25 Q1010=  
05-Apr-2015 SAID35 WAPI 050100 METAR WAPI 050100Z 28002KT 9999 FEW018 31/26 Q1011=  
05-Apr-2015 SAID35 WAPI 050200 METAR WAPI 050200Z 15003KT 9999 FEW018 30/25 Q1010=  
05-Apr-2015 SAID35 WAPI 050300 METAR WAPI 050300Z 13003KT 9999 SCT018 32/25 Q1010=  
05-Apr-2015 SAID35 WAPI 050400 METAR WAPI 050400Z 24006KT 9999 FEW018 32/26 Q1009=  
05-Apr-2015 SAID35 WAPI 050600 METAR WAPI 050500Z 24008KT 9999 SCT018 33/26 Q1008=  
05-Apr-2015 SAID35 WAPI 050600 METAR WAPI 050600Z 26005KT 9999 SCT018 33/27 Q1007=  
06-Apr-2015 SAID35 WAPI 060000 METAR WAPI 060000Z 24003KT 9999 FEW020 29/26 Q1010=  
06-Apr-2015 SAID35 WAPI 060100 METAR WAPI 060100Z 24005KT 9999 FEW020 30/27 Q1010=  
06-Apr-2015 SAID35 WAPI 060200 METAR WAPI 060200Z 23005KT 9999 FEW020 32/26 Q1010=  
06-Apr-2015 SAID35 WAPI 060300 METAR WAPI 060300Z 22007KT 9999 FEW020 32/26 Q1009=  
06-Apr-2015 SAID35 WAPI 060400 METAR WAPI 060400Z 21007KT 9999 SCT020 32/26 Q1008=  
06-Apr-2015 SAID35 WAPI 060500 METAR WAPI 060500Z 20007KT 9999 SCT020 31/25 Q1007=  
06-Apr-2015 SAID35 WAPI 060600 METAR WAPI 060600Z 16005KT 9999 SCT020 31/25 Q1006=  
06-Apr-2015 SAID35 WAPI 062300 METAR WAPI 062300Z 00000KT 9999 FEW020 27/25 Q1010=  
07-Apr-2015 SAID35 WAPI 070300 METAR WAPI 070300Z 23006KT FEW017 32/25 Q1009 NOSIG=  
07-Apr-2015 SAID35 WAPI 070400 METAR WAPI 070400Z 24006KT FEW017 31/25 Q1009 NOSIG=  
07-Apr-2015 SAID35 WAPI 070500 METAR WAPI 070500Z 22008KT FEW017 32/25 Q1008 NOSIG=  
07-Apr-2015 SAID35 WAPI 070600 METAR WAPI 070600Z 22006KT 9999 FEW017 32/25 Q1007=  
07-Apr-2015 SAID35 WAPI 072300 METAR WAPI 072300Z 00000KT 9999 SCT019 28/26 Q1010=  
08-Apr-2015 SAID35 WAPI 080000 METAR WAPI 080000Z 12005KT 9999 SCT019 30/24 Q1011=  
08-Apr-2015 SAID35 WAPI 080100 METAR WAPI 080100Z 13006KT 9999 SCT019 31/24 Q1011=  
08-Apr-2015 SAID35 WAPI 080200 METAR WAPI 080200Z 24006KT 9999 SCT019 32/25 Q1011=  
08-Apr-2015 SAID35 WAPI 080300 METAR WAPI 080300Z 12007KT 9999 BKN018 32/25 Q1010=  
08-Apr-2015 SAID35 WAPI 080400 METAR WAPI 080400Z 11008KT 9999 SCT019 32/25 Q1009=  
08-Apr-2015 SAID35 WAPI 080500 METAR WAPI 080500Z 11009KT 9999 SCT019 32/24 Q1009=  
08-Apr-2015 SAID35 WAPI 080600 METAR WAPI 080600Z 100079KT 9999 SCT019 32/24 Q1008=  
08-Apr-2015 SAID35 WAPI 082300 METAR WAPI 082300Z 10008KT 9999 SCT018 29/25 Q1010=  
09-Apr-2015 SAID35 WAPI 090000 METAR WAPI 090000Z 11009KT 9999 SCT019 30/25 Q1011=  
09-Apr-2015 SAID35 WAPI 090100 METAR WAPI 090100Z 11011KT 9999 BKN018 28/24 Q1011=  
09-Apr-2015 SAID35 WAPI 090200 METAR WAPI 090200Z 09010KT 9999 BKN018 31/26 Q1010=  
09-Apr-2015 SAID35 WAPI 090300 METAR WAPI 090300Z 10012KT 9999 BKN018 30/26 Q1010=  
09-Apr-2015 SAID35 WAPI 090400 METAR WAPI 090400Z 11012KT 9999 SCT016 33/25 Q1009 NOSIG=  
09-Apr-2015 SAID35 WAPI 090500 METAR WAPI 090500Z 10011KT 9999 SCT018 32/25 Q1008 NOSIG=  
09-Apr-2015 SAID35 WAPI 090600 METAR WAPI 090600Z 10009KT 9999 SCT018 31/26 Q1008=  
09-Apr-2015 SAID35 WAPI 092300 METAR WAPI 092300Z 10006KT 9999 SCT019 29/25 Q1010=  
10-Apr-2015 SAID35 WAPI 100000 METAR WAPI 100000Z 11008KT 9999 SCT019 30/25 Q1011=  
10-Apr-2015 SAID35 WAPI 100100 METAR WAPI 100100Z 10006KT 9999 SCT019 31/25 Q1011=  
10-Apr-2015 SAID35 WAPI 100200 METAR WAPI 100200Z 10008KT 9999 SCT019 31/25 Q1011=  
10-Apr-2015 SAID35 WAPI 100300 METAR WAPI 100300Z 11006KT 9999 SCT019 32/25 Q1010=  
10-Apr-2015 SAID35 WAPI 100400 METAR WAPI 100400Z 12007KT 9999 BKN017 30/25 Q1009=  
10-Apr-2015 SAID35 WAPI 100500 METAR WAPI 100500Z 12008KT 9999 BKN017 31/25 Q1009=  
10-Apr-2015 SAID35 WAPI 100600 METAR WAPI 100600Z 12006KT 9999 BKN017 30/25 Q1008=  
10-Apr-2015 SAID35 WAPI 102300 METAR WAPI 102300Z 11004KT 9999 SCT017 28/25 Q1011=  
11-Apr-2015 SAID35 WAPI 110000 METAR WAPI 110000Z 11006KT 9999 SCT018 30/25 Q1011=  
11-Apr-2015 SAID35 WAPI 110100 METAR WAPI 110100Z 08003KT 9999 SCT018 29/26 Q1012=  
11-Apr-2015 SAID35 WAPI 110200 METAR WAPI 110200Z 10007KT 9999 BKN020 30/26 Q1011=  
11-Apr-2015 SAID35 WAPI 110300 METAR WAPI 110300Z 11006KT 9999 BKN020 31/25 Q1011=  
11-Apr-2015 SAID35 WAPI 110400 METAR WAPI 110400Z 09007KT 9999 BKN018 31/25 Q1009=  
11-Apr-2015 SAID35 WAPI 110500 METAR WAPI 110500Z 10007KT 9999 BKN018 31/25 Q1009=  
11-Apr-2015 SAID35 WAPI 110600 METAR WAPI 110600Z 11009KT 9999 SCT018 31/25 Q1008=  
11-Apr-2015 SAID35 WAPI 112300 METAR WAPI 112300Z 09003KT 7000 RA SCT015 28/26 Q1011=  
12-Apr-2015 SAID35 WAPI 120000 METAR WAPI 120000Z 09004KT 9999 SCT017 30/26 Q1012=  
12-Apr-2015 SAID35 WAPI 120100 METAR WAPI 120100Z 10006KT 9999 BKN018 31/26 Q1012=  
12-Apr-2015 SAID35 WAPI 120200 METAR WAPI 120200Z 11007KT 9999 BKN018 31/25 Q1012=  
12-Apr-2015 SAID35 WAPI 120400 METAR WAPI 120400Z 12005KT 9999 BKN018 32/26 Q1010=  
12-Apr-2015 SAID35 WAPI 120500 METAR WAPI 120500Z 11006KT 9999 BKN018 32/25 Q1009=  
12-Apr-2015 SAID35 WAPI 120600 METAR WAPI 120600Z 12005KT 9999 BKN018 31/25 Q1009=  
12-Apr-2015 SAID35 WAPI 122300 METAR WAPI 122300Z 11005KT 9999 FEW018 28/26 Q1012=  
13-Apr-2015 SAID35 WAPI 130000 METAR WAPI 130000Z 11007KT 9999 SCT018 30/26 Q1012=  
13-Apr-2015 SAID35 WAPI 130100 METAR WAPI 130100Z 11009KT 9999 SCT018 31/26 Q1012=  
13-Apr-2015 SAID35 WAPI 130200 METAR WAPI 130200Z 10008KT 9999 SCT018 31/26 Q1012=  
13-Apr-2015 SAID35 WAPI 130300 METAR WAPI 130300Z 12007KT 9999 SCT018 31/26 Q1011=  
13-Apr-2015 SAID35 WAPI 130400 METAR WAPI 130400Z 12008KT 9999 SCT018 32/26 Q1010=  
13-Apr-2015 SAID35 WAPI 130500 METAR WAPI 130500Z 13009KT 9999 SCT016 32/25 Q1009=  
13-Apr-2015 SAID35 WAPI 130600 METAR WAPI 130600Z 12009KT 9999 BKN016 31/26 Q1008 NOSIG=  
13-Apr-2015 SAID35 WAPI 132300 METAR WAPI 132300Z 05003KT 9999 BKN015 27/25 Q1012=  
14-Apr-2015 SAID35 WAPI 140000 METAR WAPI 140000Z 00000KT 9999 BKN015 26/24 Q1012=  
14-Apr-2015 SAID35 WAPI 140100 METAR WAPI 140100Z 26002KT 9999 BKN015 27/25 Q1012=  
14-Apr-2015 SAID35 WAPI 140200 METAR WAPI 140200Z 09006KT 9999 BKN015 30/25 Q1012=  
14-Apr-2015 SAID35 WAPI 140300 METAR WAPI 140300Z 10006KT 9999 BKN015 28/25 Q1012=  
14-Apr-2015 SAID35 WAPI 140400 METAR WAPI 140400Z 10008KT 9999 OVC010 27/24 Q1011=  
14-Apr-2015 SAID35 WAPI 140500 METAR WAPI 140500Z 10003 9999 OVC010 27/23 Q1010=  
14-Apr-2015 SAID35 WAPI 140600 METAR WAPI 140600Z 05003KT 9999 OVC010 25/24 Q1011=  
14-Apr-2015 SAID35 WAPI 142300 METAR WAPI 142300Z 07005KT 9999 SCT018 28/24 Q1012=  
15-Apr-2015 SAID35 WAPI 150000 METAR WAPI 150000Z 09006KT 9999 SCT018 29/23 Q1013 NOSIG=  
15-Apr-2015 SAID35 WAPI 150100 METAR WAPI 150100Z 09010KT 9999 SCT020 31/25 Q1012 NOSIG=  
15-Apr-2015 SAID35 WAPI 150200 METAR WAPI 150200Z 09009KT 9999 SCT020 31/25 Q1012 NOSIG=  
15-Apr-2015 SAID35 WAPI 150300 METAR WAPI 150300Z 08009KT 9999 BKN020 31/25 Q1011 NOSIG=  
15-Apr-2015 SAID35 WAPI 150400 METAR WAPI 150400Z 06008KT 9999 BKN020 31/26 Q1011 NOSIG=  
15-Apr-2015 SAID35 WAPI 150500 METAR WAPI 150500Z 07008KT 9999 BKN020 31/25 Q1010 NOSIG=  
15-Apr-2015 SAID35 WAPI 150600 METAR WAPI 150600Z 09008KT 9999 BKN020 31/25 Q1010 NOSIG=  
15-Apr-2015 SAID35 WAPI 152300 METAR WAPI 152300Z 09005KT 9999 BKN018 28/25 Q1013=  
16-Apr-2015 SAID35 WAPI 160000 METAR WAPI 160000Z 08005KT 9999 BKN018 30/25 Q1014=  
16-Apr-2015 SAID35 WAPI 160100 METAR WAPI 160100Z 08008KT 9999 BKN020 31/25 Q1014=  
16-Apr-2015 SAID35 WAPI 160200 METAR WAPI 160200Z 07009KT 9999 BKN018 31/25 Q1013=  
16-Apr-2015 SAID35 WAPI 160300 METAR WAPI 160300Z 08008KT 9999 BKN018 31/23 Q1012=  
16-Apr-2015 SAID35 WAPI 160400 METAR WAPI 160400Z 08009KT 9999 SCT020 31/24 Q1011=  
16-Apr-2015 SAID35 WAPI 160500 METAR WAPI 160500Z 10006KT 9999 BKN018 31/25 Q1011=  
16-Apr-2015 SAID35 WAPI 160600 METAR WAPI 160600Z 10007KT 9999 BKN018 31/25 Q1010=  
16-Apr-2015 SAID35 WAPI 162300 METAR WAPI 162300Z 13002KT 9999 RA SCT016 26/25 Q1013=  
17-Apr-2015 SAID35 WAPI 170000 METAR WAPI 170000Z 13006KT 8000 RA SCT016 27/25 Q1013=  
17-Apr-2015 SAID35 WAPI 170100 METAR WAPI 170100Z 07005KT 9999 BKN016 26/25 Q1013=  
17-Apr-2015 SAID35 WAPI 170200 METAR WAPI 170200Z 07004KT 9999 BKN016 27/25 Q1013=  
17-Apr-2015 SAID35 WAPI 170300 METAR WAPI 170300Z 11006KT 9999 BKN016 27/25 Q1011=  
17-Apr-2015 SAID35 WAPI 170400 METAR WAPI 170400Z 08006KT 9999 OCV015 27/25 Q1011=  
17-Apr-2015 SAID35 WAPI 170500 METAR WAPI 170500Z 10007KT 5000 RA OCV010 25/23 Q1010=  
17-Apr-2015 SAID35 WAPI 172300 METAR WAPI 172300Z 08008KT 9999 SCT018 26/25 Q1011=  
18-Apr-2015 SAID35 WAPI 180000 METAR WAPI 180000Z 12002KT 9999 BKN018 28/26 Q1011 NOSIC=  
18-Apr-2015 SAID35 WAPI 180100 METAR WAPI 180100Z 14004KT 9999 BKN018 31/25 Q1012 NOSIC=  
18-Apr-2015 SAID35 WAPI 180200 METAR WAPI 180200Z 13003KT 9999 OVC010 28/25 Q1011 NOSIC=  
18-Apr-2015 SAID35 WAPI 180300 METAR WAPI 180300Z 12006KT 9999 BKN018 29/26 Q1010 NOSIC=  
18-Apr-2015 SAID35 WAPI 180400 METAR WAPI 180400Z 11006KT 9999 BKN018 30/26 Q1010 NOSIC=  
18-Apr-2015 SAID35 WAPI 180500 METAR WAPI 180500Z 13006KT 9999 BKN018 30/26 Q1009 NOSIC=  
18-Apr-2015 SAID35 WAPI 180600 METAR WAPI 180600Z 12005KT 9999 SCT020 30/25 Q1009 NOSIC=  
18-Apr-2015 SAID35 WAPI 182300 METAR WAPI 182300Z 10004KT 9999 SCT020 28/24 Q1011 NOSIC=  
19-Apr-2015 SAID35 WAPI 190000 METAR WAPI 190000Z 10009KT 9999 SCT020 30/25 Q1012 NOSIG=  
19-Apr-2015 SAID35 WAPI 190100 METAR WAPI 190100Z 10006KT 9999 SCT020 31/25 Q1011 NOSIG=  
19-Apr-2015 SAID35 WAPI 190200 METAR WAPI 190200Z 10008KT 9999 BKN020 31/25 Q1011 NOSIG=  
19-Apr-2015 SAID35 WAPI 190300 METAR WAPI 190300Z 10008KT 9999 BKN020 31/25 Q1010 NOSIG=  
19-Apr-2015 SAID35 WAPI 190400 METAR WAPI 190400Z 08008KT 9999 BKN018 31/25 Q1009=  
19-Apr-2015 SAID35 WAPI 190500 METAR WAPI 190500Z 09008KT 9999 SCT019 31/25 Q1009=  
19-Apr-2015 SAID35 WAPI 190600 METAR WAPI 190600Z 09010KT 9999 SCT019 31/25 Q1009=  
19-Apr-2015 SAID35 WAPI 192300 METAR WAPI 192300Z 13002KT 8000 RA BKN017 25/24 Q1010=  
20-Apr-2015 SAID35 WAPI 200000 METAR WAPI 200000Z 14004KT 9999 OVC010 26/25 Q1010=  
20-Apr-2015 SAID35 WAPI 200100 METAR WAPI 200100Z 11008KT 6000 RA OVC010 27/25 Q1010=  
20-Apr-2015 SAID35 WAPI 200200 METAR WAPI 200200Z 12008KT 2000 RA OVC010 29/26 Q1009=  
20-Apr-2015 SAID35 WAPI 200300 METAR WAPI 200300Z 10009KT 1000 RA/TS OVC010 26/25 Q1009=  
20-Apr-2015 SAID35 WAPI 200400 METAR WAPI 200400Z 11010KT 5000 RA OVC010 25/24 Q1009=  
20-Apr-2015 SAID35 WAPI 200500 METAR WAPI 200500Z 09009KT 9999 OVC010 28/26 Q1008=  
20-Apr-2015 SAID35 WAPI 200600 METAR WAPI 200600Z 07007KT 9999 OVC010 29/26 Q1008=  
20-Apr-2015 SAID35 WAPI 202300 METAR WAPI 202300Z 04006KT 7000 RA OVC010 26/24 Q1011=  
21-Apr-2015 SAID35 WAPI 210000 METAR WAPI 210000Z 08003KT 8000 RA OVC010 26/24 Q1011=  
21-Apr-2015 SAID35 WAPI 210100 METAR WAPI 210100Z 11002KT 9999 BKN018 27/25 Q1011=  
21-Apr-2015 SAID35 WAPI 210200 METAR WAPI 210200Z 00000KT 9999 BKN018 28/25 Q1011=  
21-Apr-2015 SAID35 WAPI 210300 METAR WAPI 210300Z 16004KT 9999 BKN018 30/25 Q1010=  
21-Apr-2015 SAID35 WAPI 210400 METAR WAPI 210400Z 10005KT 9999 BKN018 29/24 Q1009=  
21-Apr-2015 SAID35 WAPI 210500 METAR WAPI 210500Z 05009KT 9999 BKN018 30/24 Q1008=  
21-Apr-2015 SAID35 WAPI 210600 METAR WAPI 210600Z 07007KT 9999 BKN018 30/25 Q1008=  
21-Apr-2015 SAID35 WAPI 210700 METAR WAPI 210700Z 06005KT 9999 BKN017 30/24 Q1008 NOSIG=  
21-Apr-2015 SAID35 WAPI 212200 METAR WAPI 212200Z 10003KT 9999 BKN018 29/26 Q1011=  
21-Apr-2015 SAID35 WAPI 212300 METAR WAPI 212300Z 09002KT 9999 FEW020 27/25 Q1011=  
22-Apr-2015 SAID35 WAPI 220000 METAR WAPI 220000Z 10003KT 9999 BKN018 29/26 Q1011=  
22-Apr-2015 SAID35 WAPI 220100 METAR WAPI 220100Z 23003KT 9999 BKN018 31/26 Q1011=  
22-Apr-2015 SAID35 WAPI 220200 METAR WAPI 220200Z 25004KT 8000 RA BKN016 29/25 Q1011=  
22-Apr-2015 SAID35 WAPI 220300 METAR WAPI 220300Z 09002KT 9999 BKN016 30/25 Q1010=  
22-Apr-2015 SAID35 WAPI 220400 METAR WAPI 220400Z 06003KT 9999 BKN016 29/24 Q1009=  
22-Apr-2015 SAID35 WAPI 220500 METAR WAPI 220500Z 05006KT 9999 OVC010 28/25 Q1009=  
22-Apr-2015 SAID35 WAPI 220600 METAR WAPI 220600Z 26003KT 9999 BKN016 28/26 Q1009=  
22-Apr-2015 SAID35 WAPI 222300 METAR WAPI 222300Z 07003KT 9999 FEW017 28/25 Q1010 NOSIG=  
23-Apr-2015 SAID35 WAPI 230000 METAR WAPI 230000Z 09006KT 9999 SCT018 30/25 Q1011 NOSIG=  
23-Apr-2015 SAID35 WAPI 230100 METAR WAPI 230100Z 08007KT 9999 SCT018 30/25 Q1011 NOSIG=  
23-Apr-2015 SAID35 WAPI 230200 METAR WAPI 230200Z 05007KT 9999 BKN018 31/24 Q1010 NOSIG=  
23-Apr-2015 SAID35 WAPI 230300 METAR WAPI 230300Z 07006KT 9999 BKN018 31/25 Q1009 NOSIG=  
23-Apr-2015 SAID35 WAPI 232300 METAR WAPI 232300Z 12002KT 9999 BKN017 26/25 Q1010=  
24-Apr-2015 SAID35 WAPI 240000 METAR WAPI 240000Z 08004KT 9999 BKN017 28/25 Q1011=  
24-Apr-2015 SAID35 WAPI 240100 METAR WAPI 240100Z 08006KT 9999 BKN017 29/25 Q1010=  
24-Apr-2015 SAID35 WAPI 240200 METAR WAPI 240200Z 11005KT 9999 BKN017 29/26 Q1010=  
24-Apr-2015 SAID35 WAPI 240300 METAR WAPI 240300Z 08004KT 9999 BKN017 28/25 Q1009=  
24-Apr-2015 SAID35 WAPI 240400 METAR WAPI 240400Z 12007KT 9999 BKN017 30/26 Q1008=  
24-Apr-2015 SAID35 WAPI 240500 METAR WAPI 240500Z 06007KT 9999 BKN017 29/26 Q1008=  
24-Apr-2015 SAID35 WAPI 240600 METAR WAPI 240600Z 05006KT 9999 BKN017 27/24 Q1008=  
24-Apr-2015 SAID35 WAPI 242300 METAR WAPI 242300Z 10006KT 9999 FEW020 29/24 Q1010=  
25-Apr-2015 SAID35 WAPI 250000 METAR WAPI 250000Z 09006KT 9999 FEW020 30/24 Q1011=  
25-Apr-2015 SAID35 WAPI 250100 METAR WAPI 250100Z 08005KT 9999 FEW020 30/24 Q1011=  
25-Apr-2015 SAID35 WAPI 250200 METAR WAPI 250200Z 07006KT 9999 FEW020 31/25 Q1010=  
25-Apr-2015 SAID35 WAPI 250300 METAR WAPI 250300Z 08007KT 9999 FEW020 31/25 Q1010=  
25-Apr-2015 SAID35 WAPI 250400 METAR WAPI 250400Z 08007KT 9999 BKN018 31/25 Q1009=  
25-Apr-2015 SAID35 WAPI 252300 METAR WAPI 252300Z 10007KT 9999 SCT020 28/23 Q1011=  
26-Apr-2015 SAID35 WAPI 260000 METAR WAPI 260000Z 10008KT 9999 SCT020 29/23 Q1011=  
26-Apr-2015 SAID35 WAPI 260100 METAR WAPI 260100Z 11008KT 9999 BKN018 30/23 Q1012=  
26-Apr-2015 SAID35 WAPI 260200 METAR WAPI 260200Z 11007KT 9999 BKN018 30/23 Q1012=  
26-Apr-2015 SAID35 WAPI 260300 METAR WAPI 260300Z 10007KT 9999 BKN018 30/22 Q1011=  
26-Apr-2015 SAID35 WAPI 260400 METAR WAPI 260400Z 11007KT 9999 BKN018 31/22 Q1010=  
26-Apr-2015 SAID35 WAPI 260500 METAR WAPI 260500Z 11007KT 9999 BKN018 31/23 Q1009=  
26-Apr-2015 SAID35 WAPI 260600 METAR WAPI 260600Z 11007KT 9999 BKN018 30/23 Q1009=  
26-Apr-2015 SAID35 WAPI 262300 METAR WAPI 262300Z 14007KT 9999 BKN015 OVC060 28/24 Q1011=  
27-Apr-2015 SAID35 WAPI 270000 METAR WAPI 270000Z 13007KT 9999 BKN015 OVC060 28/25 Q1012=  
27-Apr-2015 SAID35 WAPI 270100 METAR WAPI 270100Z 14007KT 9999 BKN017 29/24 Q1012 NOSIG=  
29-Apr-2015 SAID35 WAPI 290300 METAR WAPI 290300Z 09015KT 9999 BKN015 29/25 Q1012 NOSIG=  
29-Apr-2015 SAID35 WAPI 290600 METAR WAPI 290600Z 10016KT 9999 SCT018 30/23 Q1010 NOSIG=  
29-Apr-2015 SAID35 WAPI 292300 METAR WAPI 292300Z 11003KT 8000 RA OVC010 25/24 Q1011=  
30-Apr-2015 SAID35 WAPI 300000 METAR WAPI 300000Z 15004KT 7000 RA BKN017 OVC058 25/25 Q1012=  
30-Apr-2015 SAID35 WAPI 300100 METAR WAPI 300100Z 09008G28KT 1000 RA BKN017 OVC058 24/24 Q1012=  
30-Apr-2015 SAID35 WAPI 300200 METAR WAPI 300200Z 10004KT 1000 RA BKN017 OVC058 24/24 Q1012=  
30-Apr-2015 SAID35 WAPI 300300 METAR WAPI 300300Z 00000KT 1000 RA BKN017 OVC058 25/25 Q1012=  
30-Apr-2015 SAID35 WAPI 300400 METAR WAPI 300400Z 08003KT 1000 RA BKN017 OVC058 25/25 Q1011=  
30-Apr-2015 SAID35 WAPI 300500 METAR WAPI 300500Z 14003KT 4000 RA BKN017 OVC058 26/25 Q1010=  
30-Apr-2015 SAID35 WAPI 300600 METAR WAPI 300600Z 11004KT 7000 BKN017 OVC060 26/25 Q1009=  
30-Apr-2015 SAID35 WAPI 302300 METAR WAPI 302300Z 10006KT 9999 BKN018 28/24 Q1012=  
01-May-2015 SAID35 WAPI 010000 METAR WAPI 010000Z 11009KT 9999 BKN018 29/25 Q1013=  
01-May-2015 SAID35 WAPI 010100 METAR WAPI 010100Z 10007KT 9999 SCT018 30/25 Q1012=  
01-May-2015 SAID35 WAPI 030100 METAR WAPI 010100Z 15006KT 9999 SCT018 29/24 Q1013=  
01-May-2015 SAID35 WAPI 010300 METAR WAPI 010300Z 12011KT 9999 BKN018 30/25 Q1011=  
01-May-2015 SAID35 WAPI 010400 METAR WAPI 010400Z 13010KT 9999 BKN018 31/25 Q1010=  
01-May-2015 SAID35 WAPI 010500 METAR WAPI 010500Z 12008KT 9999 BKN018 28/25 Q1009=  
01-May-2015 SAID35 WAPI 010600 METAR WAPI 010600Z 10012KT 9999 SCT018 29/25 Q1009=  
01-May-2015 SAID35 WAPI 012300 METAR WAPI 012300Z 11009KT 9999 SCT018 28/23 Q1012=  
02-May-2015 SAID35 WAPI 020000 METAR WAPI 020000Z 12011KT 9999 SCT018 30/23 Q1013=  
02-May-2015 SAID35 WAPI 020100 METAR WAPI 020100Z 11010KT 9999 FEW018 30/23 Q1012=  
02-May-2015 SAID35 WAPI 020300 METAR WAPI 020200Z 11008KT 9999 SCT018 31/24 Q1012=  
02-May-2015 SAID35 WAPI 020300 METAR WAPI 020300Z 10008KT 9999 BKN018 31/24 Q1011=  
02-May-2015 SAID35 WAPI 020600 METAR WAPI 020600Z 10012KT 9999 SCT018 31/24 Q1009=  
02-May-2015 SAID35 WAPI 022300 METAR WAPI 022300Z 15005KT 9999 SCT018 28/24 Q1012=  
03-May-2015 SAID35 WAPI 030000 METAR WAPI 030000Z 15007KT 9999 SCT018 29/24 Q1013=  
03-May-2015 SAID35 WAPI 030200 METAR WAPI 030200Z 14006KT 9999 BKN018 29/24 Q1013=  
03-May-2015 SAID35 WAPI 030300 METAR WAPI 030300Z 15008KT 9999 BKN018 30/23 Q1013=  
03-May-2015 SAID35 WAPI 030400 METAR WAPI 030400Z 14007KT 9999 FEW0020 31/23 Q1012=  
03-May-2015 SAID35 WAPI 030500 METAR WAPI 030500Z 15009KT 9999 SCT018 30/22 Q1011=  
03-May-2015 SAID35 WAPI 030600 METAR WAPI 030600Z 110007KT 9999 BKN018 30/23 Q1010=  
03-May-2015 SAID35 WAPI 032300 METAR WAPI 032300Z 00000KT 9999 FEW020 26/23 Q1012=  
04-May-2015 SAID35 WAPI 040000 METAR WAPI 040000Z 12007KT 9999 FEW020 28/22 Q1013=  
04-May-2015 SAID35 WAPI 040200 METAR WAPI 040200Z 12006KT 9999 FEW020 30/23 Q1013=  
04-May-2015 SAID35 WAPI 040300 METAR WAPI 040300Z 11005KT 9999 FEW020 30/22 Q1012=  
04-May-2015 SAID35 WAPI 040400 METAR WAPI 040400Z 11007KT 9999 BKN018 30822 Q1011=  
04-May-2015 SAID35 WAPI 040500 METAR WAPI 040500Z 10005KT 9999 BKN018 30/23 Q1010=  
04-May-2015 SAID35 WAPI 040600 METAR WAPI 040600Z 14006KT BKN018 30/23 Q1009=  
04-May-2015 SAID35 WAPI 042300 METAR WAPI 042300Z 00000KT 9999 FEW020 25/23 Q1011=  
05-May-2015 SAID35 WAPI 050000 METAR WAPI 050000Z 00000KT 9999 BKN017 28/23 Q1012=  
05-May-2015 SAID35 WAPI 050100 METAR WAPI 050100Z 18006KT 9999 SCT017 29/25 Q1012 NOSIG=  
05-May-2015 SAID35 WAPI 050200 METAR WAPI 050200Z 17006KT 9999 FEW017 30/22 Q1011 NOSIG=  
05-May-2015 SAID35 WAPI 050300 METAR WAPI 050300Z 15005KT 9999 FEW017 30/22 Q1011 NOSIG=  
05-May-2015 SAID35 WAPI 050400 METAR WAPI 050400Z 14006KT 9999 FEW020 30/22 Q1010=  
05-May-2015 SAID35 WAPI 050500 METAR WAPI 050500Z 16007KT 9999 FEW020 30/21 Q1009=  
05-May-2015 SAID35 WAPI 050600 METAR WAPI 050600Z 14006KT 9999 FEW020 30/21 Q1008=  
05-May-2015 SAID35 WAPI 052300 METAR WAPI 052300Z 00000KT SCT020 27/22 Q1011 NOSIG=  
06-May-2015 SAID35 WAPI 060000 METAR WAPI 060000Z 12006KT 9999 SCT020 29/22 Q1012 NOSIG=  
06-May-2015 SAID35 WAPI 060100 METAR WAPI 060100Z 12007KT 9999 BKN020 30/22 Q1012 NOSIG=  
06-May-2015 SAID35 WAPI 060200 METAR WAPI 060200Z 12007KT 9999 SCT020 30/22 Q1012 NOSIG=  
06-May-2015 SAID35 WAPI 060300 METAR WAPI 060300Z 11007KT 9999 SCT020 30/22 Q1011 NOSIG=  
06-May-2015 SAID35 WAPI 060400 METAR WAPI 060400Z 10006KT 9999 SCT020 30/23 Q1010 NOSIG=  
06-May-2015 SAID35 WAPI 060500 METAR WAPI 060500Z 11005KT 9999 SCT020 29/23 Q1009 NOSIG=  
06-May-2015 SAID35 WAPI 060600 METAR WAPI 060600Z 12005KT 9999 BKN020 30/23 Q1009 NOSIG=  
06-May-2015 SAID35 WAPI 062300 METAR WAPI 062300Z 10011KT 8000 BKN017 FEW020 OVC075 25/23 Q1013 RERA=  
07-May-2015 SAID35 WAPI 070000 METAR WAPI 070000Z 09005KT 9999 SCT017 FEW020 BKN090 27/22 Q1013 RERA=  
07-May-2015 SAID35 WAPI 070100 METAR WAPI 070100Z 10005KT 9999 SCT020 SCT090 30/24 Q1013 NOSIG=  
07-May-2015 SAID35 WAPI 070200 METAR WAPI 070200Z 12008KT 9999 SCT020 30/24 Q1012 NOSIG=  
07-May-2015 SAID35 WAPI 070300 METAR WAPI 070300Z 10006KT 9999 SCT020 30/24 Q1012 NOSIG=  
07-May-2015 SAID35 WAPI 070400 METAR WAPI 070400Z 12005KT 9999 BKN018 30/24 Q1011=  
07-May-2015 SAID35 WAPI 070500 METAR WAPI 070500Z 11006KT 9999 SCT020 31/24 Q1010 NOSIG=  
07-May-2015 SAID35 WAPI 070600 METAR WAPI 070600Z 12009KT 9999 SCT020 31/23 Q1009 NOSIG=  
07-May-2015 SAID35 WAPI 072300 METAR WAPI 072300Z 10006KT 9999 BKN018 28/24 Q1012=  
08-May-2015 SAID35 WAPI 080000 METAR WAPI 080000Z 12006KT 9999 SCT020 30/24 Q1012 NOSIG=  
08-May-2015 SAID35 WAPI 080100 METAR WAPI 080100Z 13010KT RERA 8000 BKN017 26/24 Q1012=  
08-May-2015 SAID35 WAPI 080200 METAR WAPI 080200Z 12008KT 9999 BKN017 27/23 Q1012=  
08-May-2015 SAID35 WAPI 080300 METAR WAPI 080300Z 09008KT 9999 BKN017 28/24 Q1011=  
08-May-2015 SAID35 WAPI 080400 METAR WAPI 080400Z 12009KT 9999 OVC010 27/23 Q1010=  
08-May-2015 SAID35 WAPI 080500 METAR WAPI 080500Z 11007KT 9999 OVC010 28/23 Q1009=  
08-May-2015 SAID35 WAPI 080600 METAR WAPI 080600Z 11008KT 9999 BKN018 28/23 Q1009=  
08-May-2015 SAID35 WAPI 082300 METAR WAPI 082300Z 11009KT 9999 BKN018 28/22 Q1012=  
09-May-2015 SAID35 WAPI 090100 METAR WAPI 090100Z 10013KT 9999 SCT018 29/23 Q1012=  
09-May-2015 SAID35 WAPI 090200 METAR WAPI 090200Z 09011KT 9999 SCT020 30/23 Q1012=  
09-May-2015 SAID35 WAPI 090300 METAR WAPI 090300Z 11013KT 9999 SCT020 30/23 Q1011=  
09-May-2015 SAID35 WAPI 090400 METAR WAPI 090400Z 10011KT 9999 BKN018 30/23 Q1009=  
09-May-2015 SAID35 WAPI 090500 METAR WAPI 090500Z 10011KT 9999 BKN018 30/22 Q1009=  
09-May-2015 SAID35 WAPI 090600 METAR WAPI 090600Z 10012KT 9999 BKN018 30/23 Q1009=  
09-May-2015 SAID35 WAPI 092300 METAR WAPI 092300Z 11008KT 9999 SCT020 29/24 Q1012 NOSIG=  
10-May-2015 SAID35 WAPI 100100 METAR WAPI 100100Z 10008KT 9999 BKN020 30/24 Q1012 NOSIG=  
10-May-2015 SAID35 WAPI 100200 METAR WAPI 100200Z 10008KT 9999 BKN020 31/25 Q1012 NOSIG=  
10-May-2015 SAID35 WAPI 100300 METAR WAPI 100300Z 08008KT 9999 BKN020 31/14 Q1012 NOSIG=  
10-May-2015 SAID35 WAPI 100400 METAR WAPI 100400Z 11009KT 9999 BKN020 30/24 Q1011 NOSIG=  
10-May-2015 SAID35 WAPI 100500 METAR WAPI 100500Z 10008KT 9999 BKN020 30/24 Q1010 NOSIG=  
10-May-2015 SAID35 WAPI 100600 METAR WAPI 100600Z 10009KT 9999 BKN020 30/24 Q1010 NOSIG=  
10-May-2015 SAID35 WAPI 102300 METAR WAPI 102300Z 08007KT 9999 SCT020 BKN090 28/23 Q1013=  
11-May-2015 SAID35 WAPI 110000 METAR WAPI 110000Z 09010KT 9999 SCT020 BKN090 27/23 Q1014=  
11-May-2015 SAID35 WAPI 110100 METAR WAPI 110100Z 09009KT 9999 SCT020 BKN090 28/23 Q1014 NOSIG=  
11-May-2015 SAID35 WAPI 110200 METAR WAPI 110200Z 10010KT 9999 SCT020 30/23 Q1013 NOSIG=  
11-May-2015 SAID35 WAPI 110300 METAR WAPI 110300Z 10009KT 9999 BKN020 31/23 Q1012 NOSIG=  
11-May-2015 SAID35 WAPI 110400 METAR WAPI 110400Z 10010KT 9999 SCT019 31/22 Q1012=  
11-May-2015 SAID35 WAPI 110500 METAR WAPI 110500Z 09010KT 9999 SCT019 31/22 Q1011=  
11-May-2015 SAID35 WAPI 110600 METAR WAPI 110600Z 10008KT 9999 SCT020 31/22 Q1011 NOSIG=  
11-May-2015 SAID35 WAPI 110900 METAR WAPI 110900Z 10009KT 9999 SCT020 28/23 Q1011 NOSIG=  
11-May-2015 SAID35 WAPI 112300 METAR WAPI 112300Z 10009KT 9999 SCT020 28/20 Q1013=  
12-May-2015 SAID35 WAPI 120000 METAR WAPI 120000Z 10010KT 9999 SCT020 29/21 Q1013 NOSIG=  
12-May-2015 SAID35 WAPI 120100 METAR WAPI 120100Z 09011KT 9999 SCT020 30/21 Q1013NOSIG=  
12-May-2015 SAID35 WAPI 120200 METAR WAPI 120200Z 10010KT 9999 SCT020 31/21 Q1013NOSIG=  
12-May-2015 SAID35 WAPI 120300 METAR WAPI 120300Z 10011KT 9999 SCT020 30/21 Q1012 NOSIG=  
12-May-2015 SAID35 WAPI 120400 METAR WAPI 120400Z 10011KT 9999 SCT020 31/21 Q1011 NOSIG=  
12-May-2015 SAID35 WAPI 120500 METAR WAPI 120500Z 11010KT 9999 SCT020 31/23 Q1011=  
12-May-2015 SAID35 WAPI 120600 METAR WAPI 120600Z 11009KT 9999 SCT020 30/22 Q1010 NOSIG=  
12-May-2015 SAID35 WAPI 122300 METAR WAPI 122300Z 10008KT 9999 SCT020 28/22 Q1013=  
13-May-2015 SAID35 WAPI 130000 METAR WAPI 130000Z 10010KT 9999 SCT020 28/23 Q1014=  
13-May-2015 SAID35 WAPI 130100 METAR WAPI 130100Z 10010KT 9999 SCT020 29/23 Q1014=  
13-May-2015 SAID35 WAPI 130300 METAR WAPI 130300Z 11012KT 9999 BKN018 31/23 Q1013=  
13-May-2015 SAID35 WAPI 130400 METAR WAPI 130400Z 11011KT 9999 BKN018 30/22 Q1012=  
13-May-2015 SAID35 WAPI 130500 METAR WAPI 130500Z 10009KT 9999 BKN018 31/22 Q1012=  
13-May-2015 SAID35 WAPI 130600 METAR WAPI 130600Z 11013KT 9999 SCT020 31/22 Q1011=  
13-May-2015 SAID35 WAPI 132300 METAR WAPI 132300Z 14007KT 9999 SCT020 28/22 Q1014 NOSIG=  
14-May-2015 SAID35 WAPI 140000 METAR WAPI 140000Z 14007KT 9999 SCT020 28/22 Q1014 NOSIG=  
14-May-2015 SAID35 WAPI 140100 METAR WAPI 140100Z 14008KT 9999 SCT020 30/20 Q1014 NOSIG=  
14-May-2015 SAID35 WAPI 140200 METAR WAPI 140200Z 13010KT 9999 SCT020 BKN090 30/20 Q1014 NOSIG=  
14-May-2015 SAID35 WAPI 140300 METAR WAPI 140300Z 11010KT 9999 SCT020 BKN090 29/19 Q1013 NOSIG=  
14-May-2015 SAID35 WAPI 140400 METAR WAPI 140400Z 12011KT 9999 SCT020 BKN090 30/20 Q1012 NOSIG=  
14-May-2015 SAID35 WAPI 140500 METAR WAPI 140500Z 12010KT 9999 SCT020 BKN090 30/20 Q1012 NOSIG=  
14-May-2015 SAID35 WAPI 140600 METAR WAPI 140600Z 11009KT 9999 SCT020 BKN090 30/21 Q1011 NOSIG=  
14-May-2015 SAID35 WAPI 142300 METAR WAPI 142300Z 13009KT 9999 BKN018 27/22 Q1013=  
15-May-2015 SAID35 WAPI 150000 METAR WAPI 150000Z 14008KT 9999 BKN020 BKN075 27/22 Q1014 NOSIG=  
15-May-2015 SAID35 WAPI 150400 METAR WAPI 150400Z 12009KT 9999 SCT020 29/21 Q1012=  
15-May-2015 SAID35 WAPI 150500 METAR WAPI 150500Z 14008KT 9999 BKN018 29/22 Q1011=  
15-May-2015 SAID35 WAPI 150600 METAR WAPI 150600Z 12010KT 8000 SCT020 OVC075 26/23 Q1011 RERA=  
16-May-2015 SAID35 WAPI 160000 METAR WAPI 160000Z 14007KT 9999 BKN018 27/22 Q1013=  
16-May-2015 SAID35 WAPI 160100 METAR WAPI 160100Z 14008KT 9999 BKN018 27/24 Q1013=  
16-May-2015 SAID35 WAPI 160200 METAR WAPI 160200Z 15008KT 9999 OVC010 27/23 Q1012=  
16-May-2015 SAID35 WAPI 160300 METAR WAPI 160300Z 15006KT 9000 SCT017 OVC090 26/23 Q1012 RERA=  
16-May-2015 SAID35 WAPI 160500 METAR WAPI 160500Z 12007KT 9000 SCT017 OVC090 27/23 Q1010=  
16-May-2015 SAID35 WAPI 160600 METAR WAPI 160600Z 11009KT 9999 SCT017 OVC090 28/24 Q1010=  
16-May-2015 SAID35 WAPI 162300 METAR WAPI 162300Z 10006KT 9999 BKN018 26/23 Q1013=  
17-May-2015 SAID35 WAPI 170000 METAR WAPI 170000Z 09010KT 9999 OVC010 25/24 Q1013=  
17-May-2015 SAID35 WAPI 170100 METAR WAPI 170100Z 11008KT 9999 SCT018 26/23 Q1013=  
17-May-2015 SAID35 WAPI 170200 METAR WAPI 170200Z 11007KT 9999 BKN018 27/24 Q1013=  
17-May-2015 SAID35 WAPI 170300 METAR WAPI 170300Z 13007KT 9999 BKN018 27/24 Q1013=  
17-May-2015 SAID35 WAPI 170500 METAR WAPI 170500Z 13009KT 9999 SCT0120 29/24 Q1011=  
17-May-2015 SAID35 WAPI 172300 METAR WAPI 172300Z 08006KT 9000 BKN018 28/25 Q1012 RERA=  
18-May-2015 SAID35 WAPI 180000 METAR WAPI 180000Z 08008KT 9000 VCRA SCT017 FEW020 29/25 Q1012=  
18-May-2015 SAID35 WAPI 180100 METAR WAPI 180100Z 07008KT 9000 BKN020 30/25 Q1013 NOSIG=  
18-May-2015 SAID35 WAPI 180300 METAR WAPI 180300Z 08011KT 9999 BKN020 31/24 Q1012 NOSIG=  
18-May-2015 SAID35 WAPI 180400 METAR WAPI 180400Z 08011KT 9999 BKN020 30/25 Q1012 NOSIG=  
18-May-2015 SAID35 WAPI 180600 METAR WAPI 180600Z 10008KT 9999 BKN020 30/25 Q1010 RERA=  
18-May-2015 SAID35 WAPI 182300 METAR WAPI 182300Z 09005KT 9999 BKN018 28/25 Q1013=  
19-May-2015 SAID35 WAPI 190000 METAR WAPI 190000Z 11006KT 9999 BKN018 29/25 Q1014=  
19-May-2015 SAID35 WAPI 190100 METAR WAPI 190100Z 11007KT 9999 BKN018 30/25 Q1013=  
19-May-2015 SAID35 WAPI 190200 METAR WAPI 190200Z 12008KT 9999 BKN018 30/26 Q1013=  
19-May-2015 SAID35 WAPI 190300 METAR WAPI 190300Z 11009KT 9999 BKN020 31/25 Q1012 NOSIG=  
19-May-2015 SAID35 WAPI 190500 METAR WAPI 190500Z 10010KT 9999 BKN020 30/25 Q1010 NOSIG=  
19-May-2015 SAID35 WAPI 190600 METAR WAPI 190600Z 12008KT 9999 BKN020 30/25 Q1011 NOSIG=  
19-May-2015 SAID35 WAPI 192300 METAR WAPI 192300Z 11007KT 9999 BKN018 28/25 Q1013=  
20-May-2015 SAID35 WAPI 200000 METAR WAPI 200000Z 10007KT 9999 BKN018 29/25 Q1014=  
20-May-2015 SAID35 WAPI 200100 METAR WAPI 200100Z 11008KT 9999 BKN018 30/25 Q1014=  
20-May-2015 SAID35 WAPI 200200 METAR WAPI 200200Z 10006KT 9999 BKN018 31/26 Q1014=  
20-May-2015 SAID35 WAPI 200300 METAR WAPI 200300Z 11008KT 9999 BKN018 30/25 Q1014=  
20-May-2015 SAID35 WAPI 200400 METAR WAPI 200400Z 10009KT 9999 BKN018 30/25 Q1013=  
20-May-2015 SAID35 WAPI 200500 METAR WAPI 200500Z 10008KT 9999 BKN018 31/25 Q1012=  
20-May-2015 SAID35 WAPI 200600 METAR WAPI 200600Z 11007KT 9999 BKN018 30/25 Q1012=  
20-May-2015 SAID35 WAPI 202300 METAR WAPI 202300Z 11006KT 9999 SCT020 28/24 Q1015=  
21-May-2015 SAID35 WAPI 210000 METAR WAPI 210000Z 11007KT 9999 SCT020 29/24 Q1015=  
21-May-2015 SAID35 WAPI 210100 METAR WAPI 210100Z 11008KT 9999 BKN018 30/24 Q1015=  
21-May-2015 SAID35 WAPI 210200 METAR WAPI 210200Z 10008KT 9999 BKN018 30/25 Q1015=  
21-May-2015 SAID35 WAPI 210300 METAR WAPI 210300Z 11007KT 9999 BKN018 30/24 Q1015=  
21-May-2015 SAID35 WAPI 210400 METAR WAPI 210400Z 10009KT 9999 BKN018 30/26 Q1014=  
21-May-2015 SAID35 WAPI 210500 METAR WAPI 210500Z 10010KT 9999 BKN018 30/26 Q1014=  
21-May-2015 SAID35 WAPI 210600 METAR WAPI 210600Z 10008KT 9999 BKN018 30/26 Q1012=  
22-May-2015 SAID35 WAPI 220000 METAR WAPI 220000Z 10006KT 9999 FEW018 29/23 Q1015 NOSIG=  
22-May-2015 SAID35 WAPI 220100 METAR WAPI 220100Z 10009KT 9999 SCT020 30/23 Q1014=  
22-May-2015 SAID35 WAPI 220200 METAR WAPI 220200Z 10009KT 9999 SCT020 30/23 Q1014=  
22-May-2015 SAID35 WAPI 220300 METAR WAPI 220300Z 10010KT 9999 SCT020 30/24 Q1013=  
22-May-2015 SAID35 WAPI 220400 METAR WAPI 220400Z 08010KT 9999 SCT020 30/23 Q1013=  
22-May-2015 SAID35 WAPI 220500 METAR WAPI 220500Z 09011KT 9999 SCT020 30/23 Q1012=  
22-May-2015 SAID35 WAPI 220600 METAR WAPI 220600Z 08007KT 9999 FEW020 30/23 Q1011=  
22-May-2015 SAID35 WAPI 222300 METAR WAPI 222300Z 11009KT 9999 SCT020 28/23 Q1014=  
23-May-2015 SAID35 WAPI 230000 METAR WAPI 230000Z 10010KT 9999 BKN018 28/23 Q1014 NOSIG=  
23-May-2015 SAID35 WAPI 230100 METAR WAPI 230100Z 10009KT 9999 BKN018 29/24 Q1014 NOSIG=  
23-May-2015 SAID35 WAPI 230200 METAR WAPI 230200Z 12010KT 9999 BKN018 30/24 Q1014=  
23-May-2015 SAID35 WAPI 230300 METAR WAPI 230300Z 13009KT 9999 BKN018 29/24 Q1013=  
23-May-2015 SAID35 WAPI 230400 METAR WAPI 230400Z 13008KT RA 9999 BKN018 29/23 Q1012=  
23-May-2015 SAID35 WAPI 230500 METAR WAPI 230500Z 12010KT 9999 SCT018 30/24 Q1011=  
23-May-2015 SAID35 WAPI 230600 METAR WAPI 230600Z 12009KT 9999 BKN018 30/24 Q1011=  
23-May-2015 SAID35 WAPI 230900 METAR WAPI 230900Z 11007KT 9999 SCT020 27/24 Q1011 RERA=  
23-May-2015 SAID35 WAPI 232300 METAR WAPI 232300Z 11007KT 9999 FEW020 BKN090 28/24 Q1013 NOSIG=  
24-May-2015 SAID35 WAPI 240000 METAR WAPI 240000Z 11008KT 9000 BKN017 SCT090 27/24 Q1014 NOSIG=  
24-May-2015 SAID35 WAPI 240100 METAR WAPI 240100Z 13007KT 9999 VCRA BKN017 FEW020 27/24 Q1013=  
24-May-2015 SAID35 WAPI 240200 METAR WAPI 240200Z 13007KT 9999 VCRA BKN017 FEW020 SCT090 28/25 Q1013 RERA=  
24-May-2015 SAID35 WAPI 240300 METAR WAPI 240300Z 13010KT 9999 BKN020 29/24 Q1012 RERA=  
24-May-2015 SAID35 WAPI 240400 METAR WAPI 240400Z 10013KT 9999 BKN018 30/24 Q1012=  
24-May-2015 SAID35 WAPI 240600 METAR WAPI 240600Z 11012KT 9999 SCT020 BKN090 29/23 Q1011 RERA=  
24-May-2015 SAID35 WAPI 242300 METAR WAPI 242300Z 11007KT 9999 BKN018 27/24 Q1015=  
25-May-2015 SAID35 WAPI 250000 METAR WAPI 250000Z 11008KT 9999 BKN018 28/24 Q1015=  
25-May-2015 SAID35 WAPI 250100 METAR WAPI 250100Z 11009KT 9999 SCT018 30/24 Q1015=  
25-May-2015 SAID35 WAPI 250200 METAR WAPI 250200Z 11008KT 9999 BKN018 30/24 Q1014 NOSIG=  
25-May-2015 SAID35 WAPI 250300 METAR WAPI 250300Z 11007KT 9999 BKN018 30/24 Q1014=  
25-May-2015 SAID35 WAPI 250400 METAR WAPI 250400Z 12008KT 9999 BKN018 30/24 Q1013 NOSIG=  
25-May-2015 SAID35 WAPI 250500 METAR WAPI 250500Z 10011KT 9999 BKN018 30/25 Q1012 NOSIG=  
25-May-2015 SAID35 WAPI 250600 METAR WAPI 250600Z 11008KT 9999 SCT018 29/24 Q1012 NOSIG=  
26-May-2015 SAID35 WAPI 260000 METAR WAPI 260000Z 11008KT 8000 BKN020 28/25 Q1015 RERA=  
26-May-2015 SAID35 WAPI 260100 METAR WAPI 260100Z 11010KT 8000 VCRA BKN017 29/26 Q1014=  
26-May-2015 SAID35 WAPI 260200 METAR WAPI 260200Z 10009KT 9000 VCRA BKN017 29/25 Q1014=  
26-May-2015 SAID35 WAPI 260300 METAR WAPI 260300Z 12005KT 9000 BKN017 FEW020 OVC090 30/27 Q1013 RERA=  
26-May-2015 SPID35 WAPI 260302 SPECI WAPI 260302Z 12005G25KT 1000 +RA BKN017 FEW020 OVC090 30/27 Q1013=  
26-May-2015 SAID35 WAPI 260600 METAR WAPI 260600Z 10009KT 9000 BKN017 FEW020 28/25 Q1011 RERA=  
26-May-2015 SAID35 WAPI 262300 METAR WAPI 262300Z 11010KT 9999 BKN018 27/25 Q1012=  
27-May-2015 SAID35 WAPI 270000 METAR WAPI 270000Z 10010KT 9999 BKN018 28/25 Q1012=  
27-May-2015 SAID35 WAPI 270100 METAR WAPI 270100Z 09014KT 9999 BKN018 30/24 Q1013=  
27-May-2015 SAID35 WAPI 270200 METAR WAPI 270200Z 09011KT 9999 BKN020 30/25 Q1012 NOSIG=  
27-May-2015 SAID35 WAPI 270300 METAR WAPI 270300Z 1011KT 9999 BKN020 30/25 Q1012 NOSIG=  
27-May-2015 SAID35 WAPI 270400 METAR WAPI 270400Z 11012KT 9999 BKN018 30/25 Q1011 NOSIG=  
27-May-2015 SAID35 WAPI 270600 METAR WAPI 270600Z 10005KT 8000 BKN017 SCT075 29/26 Q1009 RERA=  
27-May-2015 SAID35 WAPI 272300 METAR WAPI 272300Z 08005KT 9999 BKN018 28/24 Q1012 NOSIG=  
28-May-2015 SAID35 WAPI 280000 METAR WAPI 280000Z 10007KT 9999 BKN018 28/25 Q1013 NOSIG=  
28-May-2015 SAID35 WAPI 280100 METAR WAPI 280100Z 10007KT 9999 BKN020 29/26 Q1013 RERA=  
28-May-2015 SAID35 WAPI 280200 METAR WAPI 280200Z 07008KT 9999 BKN018 29/25 Q1012 NOSIG=  
28-May-2015 SAID35 WAPI 280300 METAR WAPI 280300Z 11008KT 9999 BKN020 30/25 Q1011 RERA=  
28-May-2015 SAID35 WAPI 280600 METAR WAPI 280600Z 11009KT 9000 BKN020 SCT075 2925 Q1009 RERA=  
28-May-2015 SAID35 WAPI 282300 METAR WAPI 282300Z 06005KT 9999 OVC010 24/23 Q1013 NOSIG=  
29-May-2015 SAID35 WAPI 290400 METAR WAPI 290400Z 13003KT 9999 OVC010 25/24 Q1012=  
29-May-2015 SAID35 WAPI 290500 METAR WAPI 290500Z 13005KT 8000 RA OVC010 25/24 Q1011 NOSIG=  
30-May-2015 SAID35 WAPI 300000 METAR WAPI 300000Z 25003KT 9000 VCRA SCT017 FEW020 SCT090 27/26 Q1011 RERA=  
30-May-2015 SAID35 WAPI 300100 METAR WAPI 300100Z 00000KT 9000 VCRA SCT017 FEW020 SCT090 29/26 Q1011=  
30-May-2015 SAID35 WAPI 300200 METAR WAPI 300200Z 22003KT 9000 SCT017 FEW020 SCT090 2826 Q1011=  
30-May-2015 SAID35 WAPI 300300 METAR WAPI 300300Z 23005KT 8000 BKN017 FEW020 SCT090 29/27 Q1010 RERA=  
30-May-2015 SAID35 WAPI 300400 METAR WAPI 300400Z 24004KT 1000 +RA BKN014 OVC075 27/26 Q1010=  
30-May-2015 SAID35 WAPI 302300 METAR WAPI 302300Z 24003KT 9999 BKN018 26/25 Q1011 NOSIG=  
31-May-2015 SAID35 WAPI 310000 METAR WAPI 310000Z 28002KT 9999 BKN018 28/25 Q1012 NOSIG=  
31-May-2015 SAID35 WAPI 310100 METAR WAPI 310100Z 27002KT 9999 BKN018 28/26 Q1012 NOSIG=  
31-May-2015 SAID35 WAPI 310200 METAR WAPI 310200Z 22003KT 9999 BKN018 29/26 Q1011 NOSIG=  
31-May-2015 SAID35 WAPI 310300 METAR WAPI 310300Z 26006KT 6000 RA SCT015CB FEW020 OVC075 27/26 Q1011=  
31-May-2015 SAID35 WAPI 310500 METAR WAPI 310500Z 23003KT 9999 BKN020 SCT090 29/26 Q1009 NOSIG=  
31-May-2015 SAID35 WAPI 310600 METAR WAPI 310600Z 05004KT 8000 BKN017 FEW020 OVC075 28/26 Q1009 RERA=  
01-Jun-2015 SAID35 WAPS 010000 METAR WAPI 010000Z 06007KT 9999 SCT020 29/24 Q1012 NOSIG=  
03-Jun-2015 SAID35 WAPS 030000 METAR WAPI 030000Z 10011KT 6000 RA BKN017 FEW020 OVC075 Q1012=  
03-Jun-2015 SAID35 WAPS 032300 METAR WAPI 032300Z 11010KT 9999 SCT020 27/23 Q1012 NOSIG=  
04-Jun-2015 SAID35 WAPS 040000 METAR WAPI 040000Z 11010KT 9999 BKN018 28/24 Q1012 NOSIG=  
04-Jun-2015 SAID35 WAPS 040300 METAR WAPI 040300Z 11014KT 9999 BKN018 25/23 Q1012=  
05-Jun-2015 SAID35 WAPI 050200 METAR WAPI 050200Z 11012KT 9999 BKN018 29/24 Q1013=  
05-Jun-2015 SAID35 WAPI 050500 METAR WAPI 050500Z 10011KT 9999 BKN018 30/24 Q1010=  
06-Jun-2015 SAID35 WAPS 062300 METAR WAPI 062300Z 13010KT 9999 SCT018 28/23 Q1012 NOSIG=  
08-Jun-2015 SAID35 WAPS 082300 METAR WAPI 082300Z 11010KT 9999 FEW020 28/22 Q1011 NOSIG=  
18-Jun-2015 SAID35 WAPS 180200 METAR WAPI 180200Z 12007KT 9999 SCT016 28/24 Q1011 NOSIG=  
19-Sep-2023 SAID35 WAPS 190700 METAR WAPI 190700Z 11008KT 9999 BKN018 28/21 Q1010=  
19-Sep-2023 SAID35 WAPS 190700 METAR WAPI 190700Z 11008KT 9999 BKN018 28/21 Q1010=  
19-Sep-2023 SAID35 WAPS 192300 METAR WAPI 192300Z 00000KT 9999 SCT019 27/24 Q1014=  
19-Sep-2023 SAID35 WAPS 192300 METAR WAPI 192300Z 00000KT 9999 SCT019 27/24 Q1014=  
20-Sep-2023 SAID35 WAPS 200000 METAR WAPI 200000Z 00000KT 9999 SCT019 28/22 Q1014=  
20-Sep-2023 SAID35 WAPS 200000 METAR WAPI 200000Z 00000KT 9999 SCT019 28/22 Q1014=  
20-Sep-2023 SAID35 WAPS 200100 METAR WAPI 200100Z 00000KT 9999 SCT019 28/23 Q1014=  
20-Sep-2023 SAID35 WAPS 200100 METAR WAPI 200100Z 00000KT 9999 SCT019 28/23 Q1014=  
20-Sep-2023 SAID35 WAPS 200200 METAR WAPI 200200Z 12006KT 9999 SCT019 29/23 Q1013=  
20-Sep-2023 SAID35 WAPS 200200 METAR WAPI 200200Z 12006KT 9999 SCT019 29/23 Q1013=  
20-Sep-2023 SAID35 WAPS 200300 METAR WAPI 200300Z 00000KT 9999 SCT019 28/22 Q1012=  
20-Sep-2023 SAID35 WAPS 200300 METAR WAPI 200300Z 00000KT 9999 SCT019 28/22 Q1012=  
