13-Jan-2015 SAID31 WARB 132300 METAR WARB 132300Z 00000KT 6000 -RA BKN017 25/24 Q1011=
14-Jan-2015 SAID31 WARB 140000 METAR WARB 140000Z 00000KT 7000 SCT018 25/24 Q1011 RERA=
14-Jan-2015 SAID31 WARB 140100 METAR WARB 140100Z 00000KT 7000 SCT018 26/24 Q1011=
14-Jan-2015 SAID31 WARB 140200 METAR WARB 140200Z 00000KT 9000 SCT018 28/24 Q1011=
14-Jan-2015 SAID31 WARB 140300 METAR WARB 140300Z 20006KT 9000 SCT018 29/24 Q1011=
14-Jan-2015 SAID31 WARB 140400 METAR WARB 140400Z 15006KT 9000 SCT018 30/25 Q1010=
14-Jan-2015 SAID31 WARB 140500 METAR WARB 140500Z 14009KT 9000 SCT018 30/25 Q1009 NOSIG=
14-Jan-2015 SAID31 WARB 140600 METAR WARB 140600Z 09010KT 9000 SCT017 29/25 Q1009=
14-Jan-2015 SAID31 WARB 140700 METAR WARB 140700Z 08007KT 9000 SCT017 29/25 Q1008=
14-Jan-2015 SAID31 WARB 140800 METAR WARB 140800Z 26003KT 9000 SCT017 30/25 Q1007=
14-Jan-2015 SAID31 WARB 140900 METAR WARB 140900Z 06007KT 9000 SCT017 30/25 Q1008=
15-Jan-2015 SAID31 WARB 150000 METAR WARB 150000Z 25007KT 7000 SCT018 25/24 Q 1011=
15-Jan-2015 SAID31 WARB 150100 METAR WARB 150100Z 27008KT 8000 SCT018 26/24 Q 1011 NOSIG=
15-Jan-2015 SAID31 WARB 150200 METAR WARB 150200Z 27010KT 8000 SCT018 27/24 Q1011 NOSIG=
15-Jan-2015 SAID31 WARB 150300 METAR WARB 150300Z 26011KT 9000 SCT018 29/24 Q1011 NOSIG=
15-Jan-2015 SAID31 WARB 150400 METAR WARB 150400Z 21010KT 8000 SCT018 30/24 Q1010 NOSIG=
15-Jan-2015 SAID31 WARB 150500 METAR WARB 150500Z 20010KT 9000 SCT018 31/24 Q1010 NOSIG=
15-Jan-2015 SAID31 WARB 150600 METAR WARB 150600Z 19010Z 9000 SCT018 31/22 Q1009=
15-Jan-2015 SAID31 WARB 150700 METAR WARB 150700Z 21014KT 9000 SCT018 31/22 Q1008=
15-Jan-2015 SAID31 WARB 150800 METAR WARB 150800Z 20014KT 9000 SCT018 31/23 Q1007=
15-Jan-2015 SAID31 WARB 150900 METAR WARB 150900Z 150900Z 21009KT 9000 SCT018 30/23 Q1007=
16-Jan-2015 SAID31 WARB 160000 METAR WARB 160000Z 27004KT 8000 FEW020 26/23 Q1011=
16-Jan-2015 SAID31 WARB 160200 METAR WARB 160200Z 22010KT 9000 FEW0020 29/22 Q1011=
16-Jan-2015 SAID31 WARB 160400 METAR WARB 160400Z 09010KT 9000 SCT020 30/24 Q1010=
16-Jan-2015 SAID31 WARB 160500 METAR WARB 160500Z 13007KT 9000 SCT018 30/24 Q1010=
16-Jan-2015 SAID31 WARB 160600 METAR WARB 160600Z 10009KT 9000 SCT018 30/24 Q1009=
16-Jan-2015 SAID31 WARB 160700 METAR WARB 160700Z 18008KT 9999 SCT020 31/22 Q1008=
16-Jan-2015 SAID31 WARB 160800 METAR WARB 160800Z 18008KT 8000 SCT018 31/22 Q1008=
16-Jan-2015 SAID31 WARB 160900 METAR WARB 160900Z 17008KT 7000 SCT018 30/23 Q1008=
17-Jan-2015 SAID31 WARB 170000 METAR WARB 170000Z 00000KT 8000 FEW018 26/23 Q1011=
17-Jan-2015 SAID31 WARB 170100 METAR WARB 170100Z 00000KT 8000 FEW017 29/23 Q1011=
17-Jan-2015 SAID31 WARB 170200 METAR WARB 170200Z 00000KT 8000 FEW017 29/24 Q1011=
17-Jan-2015 SAID31 WARB 170300 METAR WARB 170300Z 19006KT 9999 FEW017 30/24 Q1010=
17-Jan-2015 SAID31 WARB 170400 METAR WARB 170400Z 09007KT 9999 FEW017 30/24 Q1010=
17-Jan-2015 SAID31 WARB 170500 METAR WARB 170500Z 10010KT 9000 SCT017 30/24 Q1009=
17-Jan-2015 SAID31 WARB 170600 METAR WARB 170600Z 13008KT 8000 FEW017CB SCT017 29/24 Q1009=
17-Jan-2015 SAID31 WARB 170700 METAR WARB 170700Z 16004KT 8000 -RA FEW017CB SCT017 29/24 Q1008=
17-Jan-2015 SAID31 WARB 170800 METAR WARB 170800Z 20008KT 8000 RA FEW017CB BKN017 25/25 Q1008=
17-Jan-2015 SAID31 WARB 170900 METAR WARB 170900Z 00000KT 8000 TSRA FEW017CB BKN017 26/25 Q1008=
18-Jan-2015 SAID31 WARB 180000 METAR WARB 180000Z 23004KT 7000 FEW017CB SCT017 25/24 Q1011=
18-Jan-2015 SAID31 WARB 180100 METAR WARB 180100Z 00000KT 8000 BKN018 26/25 Q1011=
18-Jan-2015 SAID31 WARB 180200 METAR WARB 180200Z 24007KT 8000 BKN018 27/25 Q1012=
18-Jan-2015 SAID31 WARB 180300 METAR WARB 180300Z 22004KT 8000 SCT018 28/25 Q1012=
18-Jan-2015 SAID31 WARB 180400 METAR WARB 180400Z 22009KT 8000 SCT018 29/24 Q1011=
18-Jan-2015 SAID31 WARB 180500 METAR WARB 180500Z 23008KT 8000 SCT018 29/23 Q1011=
18-Jan-2015 SAID31 WARB 180600 METAR WARB 180600Z 22008KT 8000 SCT018 28/24 Q1010=
18-Jan-2015 SAID31 WARB 180700 METAR WARB 180700Z 24009KT 7000 FEW018CB SCT018 27/23 Q1009=
18-Jan-2015 SAID31 WARB 180800 METAR WARB 180800Z 22007KT 7000 FEW018CB SCT018 28/24 Q1009=
19-Jan-2015 SAID31 WARB 190000 METAR WARB 190000Z 00000KT 80000 SCT018 25/24 Q1012=
19-Jan-2015 SAID31 WARB 190200 METAR WARB 190200Z 21012KT 999 SCT018 29/24 Q1013=
19-Jan-2015 SAID31 WARB 190300 METAR WARB 190300Z 20008KT 8000 -RA BKN018 27/24 Q1012=
19-Jan-2015 SAID31 WARB 190400 METAR WARB 190400Z 18004KT 8000 -RA BKN018 28/24 Q1012=
19-Jan-2015 SAID31 WARB 190500 METAR WARB 190500Z 06004KT 9999 SCT018 29/25 Q1011=
19-Jan-2015 SAID31 WARB 190600 METAR WARB 190600Z 10005KT 9999 SCT018 29/25 Q1010=
19-Jan-2015 SAID31 WARB 190700 METAR WARB 190700Z 09005KT 9999 SCT018 29/25 Q1009=
19-Jan-2015 SAID31 WARB 190800 METAR WARB 190800Z 06005KT 9999 SCT018 30/25 Q1009=
19-Jan-2015 SAID31 WARB 190900 METAR WARB 190900Z 10005KT 9999 SCT018 29/25 Q1008=
20-Jan-2015 SAID31 WARB 200000 METAR WARB 200000Z 00000KT 8000 SCT020 26/24 Q1013=
20-Jan-2015 SAID31 WARB 200100 METAR WARB 200100Z 17004KT 9000 FEW020 27/23 Q1013=
20-Jan-2015 SAID31 WARB 200200 METAR WARB 200200Z 16004KT 9000 FEW020 28/23 Q1013=
20-Jan-2015 SAID31 WARB 200300 METAR WARB 200300Z 17005KT 9000 FEW020 29/24 Q1013=
20-Jan-2015 SAID31 WARB 200400 METAR WARB 200400Z 12007KT 9000 FEW020 30/24 Q1012=
20-Jan-2015 SAID31 WARB 200500 METAR WARB 200500Z 10009KT 9000 FEW017 30/24 Q1012=
20-Jan-2015 SAID31 WARB 200600 METAR WARB 200600Z 05007KT 8000 FEW017 30/25 Q1012=
20-Jan-2015 SAID31 WARB 200700 METAR WARB 200700Z 09004KT 8000 SCT017 30/24 Q1011=
20-Jan-2015 SAID31 WARB 200800 METAR WARB 200800Z 09004KT 8000 SCT017 30/24 Q1011=
20-Jan-2015 SAID31 WARB 200900 METAR WARB 200900Z 05005KT 8000 BKN017 29/24 Q1011=
20-Jan-2015 SAID31 WARB 202300 METAR WARB 202300Z 00000KT 5000 FEW020 24/23 Q1014=
21-Jan-2015 SAID31 WARB 210000 METAR WARB 210000Z 21003KT 7000 FEW020 27/25 Q1015=
21-Jan-2015 SAID31 WARB 210100 METAR WARB 210100Z 00000KT 8000 FEW020 29/25 Q1015=
21-Jan-2015 SAID31 WARB 210200 METAR WARB 210200Z 11003KT 9999 FEW020 30/25 Q1015=
21-Jan-2015 SAID31 WARB 210300 METAR WARB 210300Z 10006KT 9999 FEW019 30/25 Q1015=
21-Jan-2015 SAID31 WARB 210400 METAR WARB 210400Z 11009KT 9000 FEW019CB FEW019 30/25 Q1014=
21-Jan-2015 SAID31 WARB 210500 METAR WARB 210500Z 12009KT 9000 FEW019CB FEW019 30/25 Q1013=
21-Jan-2015 SAID31 WARB 210600 METAR WARB 210600Z 25013KT 4000 -TSRA FEW017 CB SCT018 26/24 Q1013=
21-Jan-2015 SAID31 WARB 210700 METAR WARB 210700Z 26003KT 8000 FEW018 CB FEW019 27/24 Q1012=
21-Jan-2015 SAID31 WARB 210800 METAR WARB 210800Z 25004KT 9999 FEW020 29/25 Q1011=
21-Jan-2015 SAID31 WARB 210900 METAR WARB 210900Z 23003KT 9999 FEW020 30/25 Q1011=
22-Jan-2015 SAID31 WARB 220000 METAR WARB 220000Z 00000KT 7000 FEW020 25/23 Q1013=
22-Jan-2015 SAID31 WARB 220100 METAR WARB 220100Z 23004KT 8000 FEW020CB FEW020 29/24 Q1014=
22-Jan-2015 SAID31 WARB 220200 METAR WARB 220200Z 13002KT 9000 FEW020CB FEW020 30/24 Q1014=
22-Jan-2015 SAID31 WARB 220300 METAR WARB 220300Z 12007KT 9999 SCT20 30/24 Q1013=
22-Jan-2015 SAID31 WARB 220400 METAR WARB 220400Z 14007KT 9000 FEW018CB SCT018 30/25 Q1013=
22-Jan-2015 SAID31 WARB 220500 METAR WARB 220500Z 17007KT 7000 FEW017CB SCT017 30/25 Q1011=
22-Jan-2015 SAID31 WARB 220600 METAR WARB 220600Z 19015KT 6000 FEW017CB SCT017 31/25 Q1011=
22-Jan-2015 SAID31 WARB 220700 METAR WARB 220700Z 28010KT 6000 -TSRA FEW017CB BKN016 25/23 Q1011=
22-Jan-2015 SAID31 WARB 220800 METAR WARB 220800Z 27003KT 6000 -RA FEW018CB SCT018 26/24 Q1010 RETS=
22-Jan-2015 SAID31 WARB 220900 METAR WARB 220900Z 24005KT 6000 SCT018 26/24 Q1010 RERA=
23-Jan-2015 SAID31 WARB 230000 METAR WARB 230000Z 00000KT 9000 BKN018 25/24 Q1013=
23-Jan-2015 SAID31 WARB 230100 METAR WARB 230100Z 00000KT 9000 SCT019 27/24 Q1012=
23-Jan-2015 SAID31 WARB 230200 METAR WARB 230200Z 30003KT 9999 SCT019 29/24 Q1012=
23-Jan-2015 SAID31 WARB 230300 METAR WARB 230300Z 11004KT 9000 SCT019 30/24 Q1012=
23-Jan-2015 SAID31 WARB 230400 METAR WARB 230400Z 10004KT 9000 SCT018 30/25 Q1012=
23-Jan-2015 SAID31 WARB 230500 METAR WARB 230500Z 12005KT 9000 BKN018 30/27 Q1012=
23-Jan-2015 SAID31 WARB 230600 METAR WARB 230600Z 08007KT 9000 FEW018CB SCT018 30/25 Q1010=
23-Jan-2015 SAID31 WARB 230700 METAR WARB 230700Z 30003KT 7000 -RA SCT017CB SCT017 28/23 Q1010=
23-Jan-2015 SAID31 WARB 230800 METAR WARB 230800Z 21010KT 6000 -TSRA SCT017CB SCT017 23/23 Q1010 RETS=
24-Jan-2015 SAID31 WARB 240000 METAR WARB 240000Z 00000KT 9999 FEW020 24/22 Q1012=
24-Jan-2015 SAID31 WARB 240100 METAR WARB 240100Z 18004KT 99999 FEW020 29/25 Q1012=
24-Jan-2015 SAID31 WARB 240200 METAR WARB 240200Z 18004KT 99999 FEW020 30/25 Q1012=
24-Jan-2015 SAID31 WRRX 240600 METAR WARB 240400Z 09007KT 7000 BKN017 30/26 Q1011=
24-Jan-2015 SAID31 WRRX 240600 METAR WARB 240500Z 24007KT 9000 FEW018CB SCT018 31/26 Q1010=
24-Jan-2015 SAID31 WARB 240600 METAR WARB 240600Z 23007KT 8000 FEW018CB SCT018 30/26 Q1010=
24-Jan-2015 SAID31 WARB 240700 METAR WARB 240700Z 24007KT 6000 FEW018CB SCT018 29/25 Q1009=
24-Jan-2015 SAID31 WARB 240900 METAR WARB 240900Z 00000KT 9000 SCT018 27/25 Q1009=
24-Jan-2015 SAID31 WARB 242330 METAR WARB 242330Z 00000KT 7000 FEW017 25/24 Q1011=
25-Jan-2015 SAID31 WARB 250000 METAR WARB 250000Z 18004KT 8000 FEW017 25/24 Q1011=
25-Jan-2015 SAID31 WARB 250100 METAR WARB 250100Z 24006KT 9000 FEW017CB FEW017 27/25 Q1012=
25-Jan-2015 SAID31 WARB 250200 METAR WARB 250200Z 22009KT 9000 FEW017CB FEW017 31/25 Q1012=
25-Jan-2015 SAID31 WARB 250300 METAR WARB 250300Z 21009KT 9000 FEW017 31/25 Q1011=
25-Jan-2015 SAID31 WARB 250400 METAR WARB 250400Z 20006KT 8000 SCT017 31/24 Q1012=
25-Jan-2015 SAID31 WARB 250500 METAR WARB 250500Z 09008KT 9000 FEW017CB FEW017 31/24 Q1010=
25-Jan-2015 SAID31 WARB 250600 METAR WARB 250600Z 10006KT 9000 FEW017CB FEW017 31/25 Q1009=
25-Jan-2015 SAID31 WARB 250700 METAR WARB 250700Z 09008KT 8000 FEW017CB SCT017 31/25 Q1008=
25-Jan-2015 SAID31 WARB 250800 METAR WARB 250800Z 20008KT 8000 FEW017CB SCT017 30/25 Q1008=
26-Jan-2015 SAID31 WARB 260000 METAR WARB 260000Z 00000KT 9000 FEW020 25/24 Q1011=
26-Jan-2015 SAID31 WARB 260100 METAR WARB 260100Z 00000KT 6000 FEW019 26/24 Q1012=
26-Jan-2015 SAID31 WARB 260200 METAR WARB 260200Z 11004KT 9000 FEW020 30/24 Q1011 NOSIG=
26-Jan-2015 SAID31 WARB 260300 METAR WARB 260300Z 24003KT 9000 FEW019 30/24 Q1011 NOSIG=
26-Jan-2015 SAID31 WARB 260400 METAR WARB 260400Z 00000KT 9000 FEW019 31/25 Q1010 NOSIG=
26-Jan-2015 SAID31 WARB 260500 METAR WARB 260500Z 09005KT 9000 SCT019 32/24 Q1009=
26-Jan-2015 SAID31 WARB 260600 METAR WARB 260600Z 16003KT 8000 SCT019 32/24 Q1008 NOSIG=
26-Jan-2015 SAID31 WARB 260700 METAR WARB 260700Z 08006KT 8000 SCT018 31/25 Q1008 NOSIG=
26-Jan-2015 SAID31 WARB 260800 METAR WARB 260800Z 04008KT 7000 BKN018 29/25 Q1008=
26-Jan-2015 SAID31 WARB 260900 METAR WARB 260900Z 16003KT 7000 SCT018 29/25 Q1008=
27-Jan-2015 SAID31 WARB 270000 METAR WARB 270000Z 00000KT 6000 BKN018 25/24 Q1010=
27-Jan-2015 SAID31 WARB 270100 METAR WARB 270100Z 00000KT 8000 SCT018 29/24 Q1011=
27-Jan-2015 SAID31 WARB 270200 METAR WARB 270200Z 00000KT 8000 SCT018 29/24 Q1010=
27-Jan-2015 SAID31 WARB 270300 METAR WARB 270300Z 08007KT 8000 SCT018 30/25 Q1010=
27-Jan-2015 SAID31 WARB 270400 METAR WARB 270400Z 05006KT 8000 SCT018 31/25 Q1009=
27-Jan-2015 SAID31 WARB 270600 METAR WARB 270600Z 22009KT 6000 RA FEW017CB SCT017 28/25 Q1008=
27-Jan-2015 SAID31 WARB 270700 METAR WARB 270700Z 26004KT 8000 SCT018 28/25 Q1007RERA=
27-Jan-2015 SAID31 WARB 270800 METAR WARB 270800Z 29004KT 8000 SCT018 28/25 Q1007=
27-Jan-2015 SAID31 WARB 270900 METAR WARB 270900Z 29004KT 8000 SCT018 28/25 Q1007=
28-Jan-2015 SAID31 WARB 280000 METAR WARB 280000Z 00000KT 8000 FEW020 24/23 Q1009=
28-Jan-2015 SAID31 WARB 280200 METAR WARB 280200Z 24010KT 9000 FEW020 29/24 Q1009=
28-Jan-2015 SAID31 WARB 280300 METAR WARB 280300Z 28012KT 9000 FEW020 30/25 Q1009=
28-Jan-2015 SAID31 WARB 280400 METAR WARB 280400Z 25010KT 9000 BKN018 31/25 Q1008=
28-Jan-2015 SAID31 WARB 280500 METAR WARB 280500Z 21005KT 9000 SCT018 32/26 Q1008=
28-Jan-2015 SAID31 WARB 280700 METAR WARB 280700Z 22013KT 9000 FEW018 31/25 Q1006=
28-Jan-2015 SAID31 WARB 280800 METAR WARB 280800Z 21010KT 9000 FEW018 31/24 Q1006=
28-Jan-2015 SAID31 WARB 280900 METAR WARB 280900Z 22012KT 9000 FEW018 30/24 Q1006=
29-Jan-2015 SAID31 WARB 290000 METAR WARB 290000Z 21003KT 9000 FEW020 26/23 Q1009 NOSIG=
29-Jan-2015 SAID31 WARB 290100 METAR WARB 290100Z 20006KT 9000 FEW020 28/23 Q1009 NOSIG=
29-Jan-2015 SAID31 WARB 290300 METAR WARB 290300Z 20010KT 9000 FEW019 30/24 Q1009 NOSIG=
29-Jan-2015 SAID31 WARB 290400 METAR WARB 290400Z 20010KT 9000 FEW019 31/25 Q1008=
29-Jan-2015 SAID31 WARB 290500 METAR WARB 290500Z 17005KT 8000 FEW019 32/25 Q1008=
29-Jan-2015 SAID31 WARB 290600 METAR WARB 290600Z 19006KT 8000 SCT018 32/25 Q1007=
29-Jan-2015 SAID31 WARB 290700 METAR WARB 290700Z 31006KT 280V340 7000 FEW017CB SCT018 31/25 Q1007=
29-Jan-2015 SAID31 WARB 290800 METAR WARB 290800Z 32004KT 6000 TS FEW017CB BKN018 27/24 Q1007=
29-Jan-2015 SAID31 WARB 290900 METAR WARB 290900Z 33006KT 6000 FEW017CB BKN018 27/24 Q1007 RETS=
30-Jan-2015 SAID31 WARB 300100 METAR WARB 300100Z 05004KT 7000 FEW017CB FEW017 27/24 Q1010=
30-Jan-2015 SAID31 WARB 300200 METAR WARB 300200Z 07005KT 8000 FEW017CB FEW017 27/24 Q1011=
30-Jan-2015 SAID31 WARB 300300 METAR WARB 300300Z 10004KT 9000 FEW017CB FEW017 29/25 Q1010=
30-Jan-2015 SAID31 WARB 300400 METAR WARB 300400Z 09004KT 9000 FEW017CB FEW017 30/25 Q1010=
30-Jan-2015 SAID31 WARB 300500 METAR WARB 300500Z 14005KT 8000 FEW017CB SCT017 31/25 Q1009=
30-Jan-2015 SAID31 WARB 300600 METAR WARB 300600Z 20012KT 8000 -TS FEW017CB SCT017 30/25 Q1008=
30-Jan-2015 SAID31 WARB 300700 METAR WARB 300700Z 21012KT 8000 -TS FEW017CB SCT017 28/25 Q1008=
30-Jan-2015 SAID31 WARB 300800 METAR WARB 300800Z 21010KT 8000 -TS FEW017CB SCT017 28/25 Q1008=
30-Jan-2015 SAID31 WARB 300900 METAR WARB 300900Z 19012KT 7000 -TS FEW017CB SCT017 27/25 Q1008=
31-Jan-2015 SAID31 WARB 310000 METAR WARB 310000Z 00000KT 7000 FEW020 25/24 Q1010=
31-Jan-2015 SAID31 WARB 310100 METAR WARB 310100Z 00000KT 7000 FEW020 28/25 Q1011=
31-Jan-2015 SAID31 WARB 310200 METAR WARB 310200Z 05007KT 7000 FEW020 29/25 Q1011=
31-Jan-2015 SAID31 WARB 310300 METAR WARB 310300Z 00000KT 7000 SCT017 29/25 Q1011=
31-Jan-2015 SAID31 WARB 310400 METAR WARB 310400Z 09005KT 7000 SCT017 30/25 Q1010=
31-Jan-2015 SAID31 WARB 310500 METAR WARB 310500Z 12007KT 7000 TS FEW017CB BKN017 30/25 Q1009=
31-Jan-2015 SAID31 WARB 310600 METAR WARB 310600Z 28006KT 7000 - TS RA SCT017CB BKN017 26/25 Q1009=
31-Jan-2015 SAID31 WARB 310700 METAR WARB 310700Z 00000KT 5000 - TS RA FEW017CB BKN017 25/24 Q1009=
01-Feb-2015 SAID31 WARB 010000 METAR WARB 010000Z 25004KT 8000 FEW020 24/24 Q1012=
01-Feb-2015 SAID31 WARB 010100 METAR WARB 010100Z 28004KT 9000 FEW017 26/24 Q1012=
01-Feb-2015 SAID31 WARB 010200 METAR WARB 010200Z 00000KT 9000 FEW017 27/24 Q1012=
01-Feb-2015 SAID31 WARB 010300 METAR WARB 010300Z 00000KT 9999 FEW017 29/23 Q1012=
01-Feb-2015 SAID31 WARB 010400 METAR WARB 010400Z 12006KT 9999 FEW017 30/24 Q1011=
01-Feb-2015 SAID31 WARB 010500 METAR WARB 010500Z 09008KT 9999 FEW017 30/25 Q1010=
01-Feb-2015 SAID31 WARB 010600 METAR WARB 010600Z 13008KT 8000 FEW017CB 30/25 Q1010=
01-Feb-2015 SAID31 WARB 010700 METAR WARB 010700Z 13008KT 8000 FEW017CB FEW017 29/25 Q1009=
01-Feb-2015 SAID31 WARB 010800 METAR WARB 010800Z 12008KT 8000 TS FEW017CB SCT017 28/25 Q1009=
01-Feb-2015 SAID31 WARB 012300 METAR WARB 012300Z 00000KT 8000 FEW018 24/23 Q1012=
02-Feb-2015 SAID31 WARB 020000 METAR WARB 020000Z 00000KT 8000 FEW018 25/23 Q1012=
02-Feb-2015 SAID31 WARB 020100 METAR WARB 020100Z 24004KT 9999 FEW018 28/24 Q1012=
02-Feb-2015 SAID31 WARB 020200 METAR WARB 020200Z 26006KT 9999 SCT018 29/24 Q1012=
02-Feb-2015 SAID31 WARB 020300 METAR WARB 020300Z 24005KT 9999 SCT018 30/23 Q1012=
02-Feb-2015 SAID31 WARB 020400 METAR WARB 020400Z 20007KT 9999 SCT018 31/24 Q1012=
02-Feb-2015 SAID31 WARB 020500 METAR WARB 020500Z 12007KT 9999 FEW018CB SCT018 30/24 Q1011=
02-Feb-2015 SAID31 WARB 020700 METAR WARB 020700Z 14012KT 9999 FEW018CB SCT018 30/24 Q1010=
02-Feb-2015 SAID31 WARB 020800 METAR WARB 020800Z 14005KT 9999 FEW018CB SCT018 30/24 Q1010=
02-Feb-2015 SAID31 WARB 020900 METAR WARB 020900Z 15005KT 9999 FEW018CB SCT018 29/24 Q1010=
03-Feb-2015 SAID31 WARB 030000 METAR WARB 030000Z 24003KT 9999 FEW020 26/23 Q1012=
03-Feb-2015 SAID31 WARB 030100 METAR WARB 030100Z 24003KT 9999 FEW020 28/24 Q1013=
03-Feb-2015 SAID31 WARB 030200 METAR WARB 030200Z 00000KT 9999 SCT019 29/24 Q1013=
03-Feb-2015 SAID31 WARB 030300 METAR WARB 030300Z 16005KT 9999 FEW019 31/24 Q1012=
03-Feb-2015 SAID31 WARB 030400 METAR WARB 030400Z 16005KT 9999 FEW019 31/24 Q1012=
03-Feb-2015 SAID31 WARB 030500 METAR WARB 030500Z 11008KT 9999 SCT020 31/24 Q1011=
03-Feb-2015 SAID31 WARB 030600 METAR WARB 030600Z 15008KT 9999 FEW020 31/24 Q1011=
03-Feb-2015 SAID31 WARB 030700 METAR WARB 030700Z 12010KT 9999 FEW019CB FEW020 31/24 Q1010=
03-Feb-2015 SAID31 WARB 030800 METAR WARB 030800Z 13008KT 9999 FEW019CB FEW020 30/24 Q1010=
03-Feb-2015 SAID31 WARB 030900 METAR WARB 030900Z 12006KT 9999 FEW019 30/24 Q1010=
04-Feb-2015 SAID31 WARB 040000 METAR WARB 040000Z 00000KT CAVOK 25/22 Q1012=
04-Feb-2015 SAID31 WARB 040100 METAR WARB 040100Z 27003KT 9999 FEW020 27/23 Q1013 NOSIG=
04-Feb-2015 SAID31 WARB 040200 METAR WARB 040200Z 24004KT 9999 FEW020 28/24 Q1012=
04-Feb-2015 SAID31 WARB 040300 METAR WARB 040300Z 16003KT 9000 FEW020 30/24 Q1012 NOSIG=
04-Feb-2015 SAID31 WARB 040400 METAR WARB 040400Z 12005KT 9000 FEW020 31/24 Q1011 NOSIG=
04-Feb-2015 SAID31 WARB 040500 METAR WARB 040500Z 09005KT 9000 FEW020 31/23 Q1011 NOSIG=
04-Feb-2015 SAID31 WARB 040600 METAR WARB 040600Z 12007KT 9000 FEW020 31/23 Q1010 NOSIG=
04-Feb-2015 SAID31 WARB 040700 METAR WARB 040700Z 12006KT 9000 FEW020 32/23 Q1009 NOSIG=
04-Feb-2015 SAID31 WARB 040800 METAR WARB 040800Z 13009KT 9000 FEW019 31/22 Q1009 NOSIG=
04-Feb-2015 SAID31 WARB 040900 METAR WARB 040900Z 13009KT 8000 SCT019 30/23 Q1009 NOSIG=
06-Feb-2015 SAID31 WARB 060100 METAR WARB 060100Z 18004KT 9000 FEW020 29/24 Q1012=
06-Feb-2015 SAID31 WARB 060200 METAR WARB 060200Z 18004KT 9000 FEW020 30/24 Q1012=
06-Feb-2015 SAID31 WARB 060300 METAR WARB 060300Z 14005KT 9000 FEW020 30/23 Q1012=
06-Feb-2015 SAID31 WARB 060400 METAR WARB 060400Z 10009KT 9000 FEW020 31/23 Q10012 NOSIG=
06-Feb-2015 SAID31 WARB 060500 METAR WARB 060500Z 25008KT 9000 FEW019 31/23 Q1011=
06-Feb-2015 SAID31 WARB 060600 METAR WARB 060600Z 12008 9000 SCT020 32/21 Q1010 NOSIG=
06-Feb-2015 SAID31 WARB 060700 METAR WARB 060700Z 10008KT 9000 FEW018CB FEW018 32/22 Q1010 NOSIG=
06-Feb-2015 SAID31 WARB 060800 METAR WARB 060800Z 11006KT 9000 FEW018CB FEW018 31/22 Q1009 NOSIG=
06-Feb-2015 SAID31 WARB 060900 METAR WARB 060900Z 10005KT 8000 FEW018CB SCT018 30/22 Q1009=
07-Feb-2015 SAID31 WARB 070000 METAR WARB 070000Z 25003KT 9000 FEW019 25/23 Q1011=
07-Feb-2015 SAID31 WARB 070100 METAR WARB 070100Z 00000KT 9000 FEW019 28/24 Q1012=
07-Feb-2015 SAID31 WARB 070200 METAR WARB 070200Z 00000KT 9000 FEW019 29/23 Q1012=
07-Feb-2015 SAID31 WARB 070300 METAR WARB 070300Z 12004KT 9000 SCT019 31/24 Q1011=
07-Feb-2015 SAID31 WARB 070400 METAR WARB 070400Z 09006KT 9000 SCT019 31/22 Q1011=
07-Feb-2015 SAID31 WARB 070500 METAR WARB 070500Z 12006KT 9000 SCT019 31/23 Q1010=
07-Feb-2015 SAID31 WARB 070600 METAR WARB 070600Z 12007KT 9000 SCT019 31/24 Q1009=
07-Feb-2015 SAID31 WARB 070700 METAR WARB 070700Z 14005KT 9000 SCT019 31/24 Q1009=
07-Feb-2015 SAID31 WARB 070800 METAR WARB 070800Z 12004KT 9000 SCT019 30/24 Q1008=
07-Feb-2015 SAID31 WARB 070900 METAR WARB 070900Z 09012KT 7000 TS FEW018CB FEW019 28/24 Q1008=
08-Feb-2015 SAID31 WARB 080000 METAR WARB 080000Z 00000KT 8000 FEW020 25/23 Q1013=
08-Feb-2015 SAID31 WARB 080100 METAR WARB 080100Z 00000KT 9000 FEB020 28/24 Q1013=
08-Feb-2015 SAID31 WARB 080200 METAR WARB 080200Z 08005KT 9000 FEW020 30/24 Q1012=
08-Feb-2015 SAID31 WARB 080500 METAR WARB 080500Z 08009KT 8000 SCT019 32/23 Q1010=
08-Feb-2015 SAID31 WARB 080600 METAR WARB 080600Z 01010KT 8000 FEW018 CB FEW018 32/23 Q1010=
08-Feb-2015 SAID31 WARB 080700 METAR WARB 080700Z 02009KT 8000 FEW018 CB SCT018 32/23 Q1009=
08-Feb-2015 SAID31 WARB 080800 METAR WARB 080800Z 03009KT 8000 FEW018 CB SCT018 31/23 Q1009=
08-Feb-2015 SAID31 WARB 080900 METAR WARB 080900Z 05007KT 8000 SCT018 31/23 Q1009=
09-Feb-2015 SAID31 WARB 090000 METAR WARB 090000Z 31004KT 8000 FEW017CB 24/23 Q1012=
09-Feb-2015 SAID31 WARB 090100 METAR WARB 090100Z 09003KT 8000 FEW017CB FEW017 27/25 Q1013=
09-Feb-2015 SAID31 WARB 090200 METAR WARB 090200Z 08005KT 8000 FEW017 29/24 Q1012=
09-Feb-2015 SAID31 WARB 090300 METAR WARB 090300Z 07006KT 9999 FEW017 31/23 Q1011=
09-Feb-2015 SAID31 WARB 090400 METAR WARB 090400Z 06012KT 9999 FEW017 32/23 Q1011=
09-Feb-2015 SAID31 WARB 090500 METAR WARB 090500Z 05013KT 9999 FEW017CB FEW017 32/23 Q1010=
09-Feb-2015 SAID31 WARB 090600 METAR WARB 090600Z 05015KT 8000 FEW017CB FEW017 31/24 Q1009=
09-Feb-2015 SAID31 WARB 090700 METAR WARB 090700Z 05013KT 9000 FEW017CB FEW017 31/24 Q1009=
09-Feb-2015 SAID31 WARB 090800 METAR WARB 090800Z 05013KT 9000 FEW017CB FEW017 30/24 Q1009=
09-Feb-2015 SAID31 WARB 090900 METAR WARB 090900Z 04012KT 8000 FEW017CB FEW017 30/24 Q1008=
10-Feb-2015 SAID31 WARB 100000 METAR WARB 100000Z 24003KT 9999 FEW020 26/24 Q1012=
10-Feb-2015 SAID31 WARB 100100 METAR WARB 100100Z 22004KT 9999 FEW020 28/25 Q1011=
10-Feb-2015 SAID31 WARB 100200 METAR WARB 100200Z 00000KT CAVOK 28/24 Q1012=
10-Feb-2015 SAID31 WARB 100300 METAR WARB 100300Z 00000KT 9999 FEW019 30/25 Q1010=
10-Feb-2015 SAID31 WARB 100400 METAR WARB 100400Z 12004KT 9000 SCT019 31/24 Q1010=
10-Feb-2015 SAID31 WARB 100500 METAR WARB 100500Z 09005KT 9000 FEW018CB SCT019 32/24 Q1009=
10-Feb-2015 SAID31 WARB 100600 METAR WARB 100600Z 10006KT 9000 FEW017 SCT017 32/22 Q1009 RETS=
10-Feb-2015 SAID31 WARB 100700 METAR WARB 100700Z 05004KT 9000 FEW017 SCT017 29/24 Q1008=
10-Feb-2015 SAID31 WARB 100800 METAR WARB 100800Z 04003KT 9000 FEW018CB SCT018 29/23 Q1008 =
10-Feb-2015 SAID31 WARB 100900 METAR WARB 100900Z 03004KT 9000 FEW018CB SCT018 31/23 Q1008=
11-Feb-2015 SAID31 WARB 110000 METAR WARB 110000Z 00000KT 8000 FEW020 27/25 Q1009=
11-Feb-2015 SAID31 WARB 110100 METAR WARB 110100Z 00000KT 8000 FEW020 29/25 Q1010=
11-Feb-2015 SAID31 WARB 110200 METAR WARB 110200Z 00000KT 9000 FEW020 30/24 Q1010=
11-Feb-2015 SAID31 WARB 110300 METAR WARB 110300Z 21006KT 9000 FEW020 31/24 Q1009=
11-Feb-2015 SAID31 WARB 110400 METAR WARB 110400Z 09007KT 9999 FEW020 32/25 Q1008=
11-Feb-2015 SAID31 WARB 110500 METAR WARB 110500Z 12006KT 9999 FEW020 32/25 Q1007=
11-Feb-2015 SAID31 WARB 110600 METAR WARB 110600Z 12009KT 9000 SCT018 32/26 Q1006=
11-Feb-2015 SAID31 WARB 110700 METAR WARB 110700Z 19023KT 7000 SCT018CB 28/24 Q1005=
11-Feb-2015 SAID31 WARB 110800 METAR WARB 110800Z 21004KT 7000 SCT018CB 27/25 Q1008=
11-Feb-2015 SAID31 WARB 110900 METAR WARB 110900Z 23004KT 7000 SCT017CB 27/24 Q1008=
12-Feb-2015 SAID31 WARB 120000 METAR WARB 120000Z 00000KT 9999 SCT01825/23 Q1009=
12-Feb-2015 SAID31 WARB 120100 METAR WARB 120100Z 00000KT 9999 SCT018 28/24 Q1010=
12-Feb-2015 SAID31 WARB 120200 METAR WARB 120200Z 10005KT 9999 SCT018 30/24 Q1010=
12-Feb-2015 SAID31 WARB 120300 METAR WARB 120300Z 06005KT 9999 SCT018 30/24 Q1010=
12-Feb-2015 SAID31 WARB 120400 METAR WARB 120400Z 12005KT 9999 FEW018CB SCT018 31/24 Q1009=
12-Feb-2015 SAID31 WARB 120500 METAR WARB 120500Z 30007KT 8000 -RA FEW017CB SCT017 29/25 Q1008=
12-Feb-2015 SAID31 WARB 120600 METAR WARB 120600Z 27005KT 8000 FEW017CB SCT017 28/25 Q1007=
12-Feb-2015 SAID31 WARB 120700 METAR WARB 120700Z 27005KT 8000 FEW017CB SCT017 28/25 Q1007=
12-Feb-2015 SAID31 WARB 120800 METAR WARB 120800Z 25005KT 7000 -RA FEW017CB SCT017 27/25 Q1007=
12-Feb-2015 SAID31 WARB 120900 METAR WARB 120900Z 27005KT 7000 FEW017CB SCT017 27/25 Q1008=
13-Feb-2015 SAID31 WARB 130000 METAR WARB 130000Z 00000KT 7000 SCT019 24/23 Q1010 RERA=
13-Feb-2015 SAID31 WARB 130100 METAR WARB 130100Z 00000KT 8000 SCT019 27/25 Q1010=
13-Feb-2015 SAID31 WARB 130200 METAR WARB 130200Z 04007KT 8000 SCT019 29/25 Q1010=
13-Feb-2015 SAID31 WARB 130400 METAR WARB 130400Z 06009KT 9000 SCT019 32/25 Q1009=
13-Feb-2015 SAID31 WARB 130500 METAR WARB 130500Z 01009KT 7000 -TS FEW018CB SCT019 31/25 Q1008=
13-Feb-2015 SAID31 WARB 130600 METAR WARB 130600Z 04008KT 7000 FEW018CB FEW019 32/26 Q1007 RETS=
13-Feb-2015 SAID31 WARB 130700 METAR WARB 130700Z 09004KT 7000 FEW018CB SCT019 32/25 Q1007=
13-Feb-2015 SAID31 WARB 130800 METAR WARB 130800Z 24017KT 7000 -RA FEW018CB SCT019 26/23 Q1007=
13-Feb-2015 SAID31 WARB 130900 METAR WARB 130900Z 24007KT 7000 FEW018CB SCT019 26/24 Q1007 RERA=
14-Feb-2015 SAID31 WARB 140000 METAR WARB 140000Z 00000 7000 SCT018 25/24 Q1011=
14-Feb-2015 SAID31 WARB 140100 METAR WARB 140100Z 00000KT 7000 SCT018 27/25 Q1012=
14-Feb-2015 SAID31 WARB 140200 METAR WARB 140200Z 00000KT 7000 RA FEW018CB SCT018 27/25 Q1012=
14-Feb-2015 SAID31 WARB 140300 METAR WARB 140300Z 16002KT 7000 FEW018CB SCT018 29/24 Q1012 RERA=
14-Feb-2015 SAID31 WARB 140400 METAR WARB 140400Z 10007KT 7000-RA FEW018CB SCT018 30/24 Q1011=
14-Feb-2015 SAID31 WARB 140500 METAR WARB 140500Z 11007KT 7000 FEW018CB SCT018 30/25 Q1010 RERA=
14-Feb-2015 SAID31 WARB 140600 METAR WARB 140600Z 22009KT 7000 TSRA FEW017 CB SCT018 28/25 Q1010=
14-Feb-2015 SAID31 WARB 140700 METAR WARB 140700Z 27007KT 6000 -TSRA SCT018 24/23 Q1010=
14-Feb-2015 SAID31 WARB 140800 METAR WARB 140800Z 00000KT 6000 -TSRA SCT018 24/23 Q1010=
14-Feb-2015 SAID31 WARB 140900 METAR WARB 140900Z 32005KT 5000 -RA FEW017 CB SCT018 24/23 Q1010=
15-Feb-2015 SAID31 WARB 150000 METAR WARB 150000Z 31006KT 8000 FEW017 21/23 Q1010=
15-Feb-2015 SAID31 WARB 150100 METAR WARB 150100Z 27003KT 9000 FEW017 27/25 Q1011=
15-Feb-2015 SAID31 WARB 150200 METAR WARB 150200Z 00000KT 9000 FEW017 29/24 Q1011=
15-Feb-2015 SAID31 WARB 150300 METAR WARB 150300Z 08006KT 9000 FEW017 29/24 Q1010=
15-Feb-2015 SAID31 WARB 150400 METAR WARB 150400Z 12008KT 9000 FEW017 31/24 Q1010=
15-Feb-2015 SAID31 WARB 150500 METAR WARB 150500Z 14006KT 9000 FEW017 31/24 Q1009=
15-Feb-2015 SAID31 WARB 150600 METAR WARB 150600Z 12006KT 9000 FEW017 30/24 Q1009=
15-Feb-2015 SAID31 WARB 150800 METAR WARB 150800Z 14006KT 8000 FEW017 CB017 29/24 Q1008=
15-Feb-2015 SAID31 WARB 152300 METAR WARB 152300Z 30003KT 5000 FEW018 24/23 Q1010=
16-Feb-2015 SAID31 WARB 160000 METAR WARB 160000Z 00000KT 7000 FEW020 26/24 Q1010=
16-Feb-2015 SAID31 WARB 160100 METAR WARB 160100Z 36003KT 8000 FEW020 29/25 Q1010=
16-Feb-2015 SAID31 WARB 160200 METAR WARB 160200Z 00000KT 9000 FEW020 30/25 Q1011=
16-Feb-2015 SAID31 WARB 160400 METAR WARB 160400Z 17004KT 9999 FEW020 31/24 Q1010=
16-Feb-2015 SAID31 WARB 160500 METAR WARB 160500Z 17003KT 9999 FEW020 31/23 Q1009=
16-Feb-2015 SAID31 WARB 160700 METAR WARB 160700Z 14005KT 9999 SCT020 31/23 Q1007 NOSIG=
16-Feb-2015 SAID31 WARB 160800 METAR WARB 160800Z 12007KT 9000 SCT020 31/24 Q1007 NOSIG=
16-Feb-2015 SAID31 WARB 160900 METAR WARB 160900Z 15004KT 9000 SCT020 31/23 Q1007 NOSIG=
17-Feb-2015 SAID31 WARB 170000 METAR WARB 170000Z 00000KT 7000 SCT018 26/24 Q1010 NOSIG=
17-Feb-2015 SAID31 WARB 170100 METAR WARB 170100Z 25004KT 7000 SCT018 28/25 Q1010 NOSIG=
17-Feb-2015 SAID31 WARB 170200 METAR WARB 170200Z 00000KT 8000 SCT018 30/25 Q1010 NOSIG=
17-Feb-2015 SAID31 WARB 170300 METAR WARB 170300Z 00000KT 9000 SCT018 30/25 Q1010 NOSIG=
17-Feb-2015 SAID31 WARB 170400 METAR WARB 170400Z 14005KT 9000 SCT018 31/24 Q1010 NOSIG=
17-Feb-2015 SAID31 WARB 170500 METAR WARB 170500Z 14007KT 9000 FEW020CB FEW020 31/24 Q1009 NOSIG=
17-Feb-2015 SAID31 WARB 170600 METAR WARB 170600Z 15007KT 8000 FEW020CB SCT017 31/24 Q1009 NOSIG=
17-Feb-2015 SAID31 WARB 170700 METAR WARB 170700Z 10008KT 8000 FEW020CB SCT018 31/25 Q1007 NOSIG=
17-Feb-2015 SAID31 WARB 170800 METAR WARB 170800Z 12006KT 9000 FEW020 31/24 Q1007 NOSIG=
17-Feb-2015 SAID31 WARB 170900 METAR WARB 170900Z 10006KT 8000 SCT017 31/25 Q1007 NOSIG=
17-Feb-2015 SAID31 WARB 172300 METAR WARB 172300Z 00000KT 8000 FEW020 23/22 Q1009=
18-Feb-2015 SAID31 WARB 180000 METAR WARB 180000Z 00000KT 8000 FEW020 24/22 Q1010=
18-Feb-2015 SAID31 WARB 180100 METAR WARB 180100Z 18010KT 9999 FEW020 26/23 Q1010=
18-Feb-2015 SAID31 WARB 180200 METAR WARB 180200Z 18008KT 9999 SCT018 28/25 Q1010=
18-Feb-2015 SAID31 WARB 180300 METAR WARB 180300Z 18008KT 9999 SCT018 29/25 Q1010=
18-Feb-2015 SAID31 WARB 180600 METAR WARB 180600Z 10010KT 9999 FEW018CB SCT018 31/25 Q1007=
18-Feb-2015 SAID31 WARB 180700 METAR WARB 180700Z 12008KT 9999 FEW018CB SCT018 31/25 Q1007=
18-Feb-2015 SAID31 WARB 180800 METAR WARB 180800Z 19009KT 8000 -RA FEW018CB SCT018 30/25 Q1007=
18-Feb-2015 SAID31 WARB 180900 METAR WARB 180900Z 10007KT 8000 -RA FEW018CB SCT018 29/25 Q1007=
19-Feb-2015 SAID31 WARB 190000 METAR WARB 190000Z 00000KT 8000 FEW019 25/24 Q1010=
19-Feb-2015 SAID31 WARB 190100 METAR WARB 190100Z 00000KT 8000 FEW019 28/24 Q1011=
19-Feb-2015 SAID31 WARB 190200 METAR WARB 190200Z 04004KT 8000 FEW019 30/25 Q1011=
19-Feb-2015 SAID31 WARB 190300 METAR WARB 190300Z 07007KT 8000 FEW019 31/25 Q1010=
19-Feb-2015 SAID31 WARB 190400 METAR WARB 190400Z 06010KT 9000 FEW019 32/25 Q1010=
19-Feb-2015 SAID31 WARB 190500 METAR WARB 190500Z 06010KT 9000 FEW018 32/24 Q1009=
19-Feb-2015 SAID31 WARB 190600 METAR WARB 190600Z 07014KT 9000 FEW018 32/25 Q1008=
19-Feb-2015 SAID31 WARB 190700 METAR WARB 190700Z 05014KT 9000 FEW018CB FEW018 31/25 Q1008=
19-Feb-2015 SAID31 WARB 190800 METAR WARB 190800Z 05012KT 9000 FEW018 31/25 Q1007=
19-Feb-2015 SAID31 WARB 190900 METAR WARB 190900Z 06015KT 9000 FEW018 30/24 Q1007=
20-Feb-2015 SAID31 WARB 200000 METAR WARB 200000Z 21004KT 9999 FEW020 26/23 Q1011=
20-Feb-2015 SAID31 WARB 200100 METAR WARB 200100Z 24007KT 9999 FEW020 28/24 Q1011=
20-Feb-2015 SAID31 WARB 200200 METAR WARB 200200Z 23005KT 9999 SCT019 30/25 Q1012=
20-Feb-2015 SAID31 WARB 200300 METAR WARB 200300Z 24005KT 9999 SCT019 31/25 Q1011=
20-Feb-2015 SAID31 WARB 200400 METAR WARB 200400Z 23008KT 9999 SCT019 32/25 Q1010=
20-Feb-2015 SAID31 WARB 200500 METAR WARB 200500Z 21012KT 9999 SCT019 32/25 Q1010=
20-Feb-2015 SAID31 WARB 200600 METAR WARB 200600Z 27008KT 9999 FEW018 CB SCT018 32/24 Q1009=
20-Feb-2015 SAID31 WARB 200700 METAR WARB 200700Z 24010KT 9999 FEW018 CB SCT018 32/24 Q1009=
20-Feb-2015 SAID31 WARB 200800 METAR WARB 200800Z 26008KT 9999 SCT018 31/23 Q1008=
20-Feb-2015 SAID31 WARB 200900 METAR WARB 200900Z 21004KT 9999 SCT018 31/24 Q1009=
21-Feb-2015 SAID31 WARB 210000 METAR WARB 210000Z 24005KT 9000 FEW018 25/24 Q1010=
21-Feb-2015 SAID31 WARB 210100 METAR WARB 210100Z 23009KT 9999 FEW018 28/24 Q1010=
21-Feb-2015 SAID31 WARB 210200 METAR WARB 210200Z 23009KT 9999 FEW018 29/24 Q1010=
21-Feb-2015 SAID31 WARB 210300 METAR WARB 210300Z 22009KT 9999 FEW018 30/25 Q1010=
21-Feb-2015 SAID31 WARB 210400 METAR WARB 210400Z 23010KT 9999 FEW018 32/25 Q1009=
21-Feb-2015 SAID31 WARB 210500 METAR WARB 210500Z 25010KT 9999 FEW018 32/25 Q1008=
21-Feb-2015 SAID31 WARB 210600 METAR WARB 210600Z 23011KT 9999 FEW018 32/24 Q1007=
21-Feb-2015 SAID31 WARB 210700 METAR WARB 210700Z 20012KT 9000 FEW018CB SCT018 31/24 Q1008=
21-Feb-2015 SAID31 WARB 210800 METAR WARB 210800Z 20018KT 9000 FEW018CB SCT018 30/24 Q1009=
21-Feb-2015 SAID31 WARB 210900 METAR WARB 210900Z 12029KT 4000 SCT015CB BKN015 27/24 Q1010=
22-Feb-2015 SAID31 WARB 220000 METAR WARB 220000Z 31003KT 9000 24/23 Q1009=
22-Feb-2015 SAID31 WARB 220100 METAR WARB 220100Z 03005KT 9000 FEW020 28/24 Q1010=
22-Feb-2015 SAID31 WARB 220200 METAR WARB 220200Z 02006KT 9000 FEW020 29/24 Q1010=
22-Feb-2015 SAID31 WARB 220300 METAR WARB 220300Z 05009KT 8000 FEW019 30/24 Q1009=
22-Feb-2015 SAID31 WARB 220400 METAR WARB 220400Z 03008KT 8000 FEW019 31/24 Q1009=
22-Feb-2015 SAID31 WARB 220500 METAR WARB 220500Z 05010KT 8000 FEW019 32/25 Q1008=
22-Feb-2015 SAID31 WARB 220600 METAR WARB 220600Z 05009KT 8000 SCT019 32/25 Q1007=
22-Feb-2015 SAID31 WARB 220700 METAR WARB 220700Z 05012KT 8000 SCT019 31/24 Q1007=
22-Feb-2015 SAID31 WARB 220800 METAR WARB 220800Z 05009KT 7000 FEW018CB SCT019 29/24 Q1007=
22-Feb-2015 SAID31 WARB 222300 METAR WARB 222300Z 00000KT 6000 FEW020 24/23 Q1010=
23-Feb-2015 SAID31 WARB 230000 METAR WARB 230000Z 00000KT 6000 FEW020 25/24 Q1011=
23-Feb-2015 SAID31 WARB 230100 METAR WARB 230100Z 00000KT 6000 FEW020 27/25 Q1011=
23-Feb-2015 SAID31 WARB 230200 METAR WARB 230200Z 05005KT 6000 FEW020 29/25 Q1011=
23-Feb-2015 SAID31 WARB 230300 METAR WARB 230300Z 00000KT 7000 FEW020 30/24 Q1010=
23-Feb-2015 SAID31 WARB 230400 METAR WARB 230400Z 12004KT 7000 SCT018 31/24 Q1010=
23-Feb-2015 SAID31 WARB 230500 METAR WARB 230500Z 12012KT 7000 FEW018CB SCT018 30/25 Q1009=
23-Feb-2015 SAID31 WARB 230600 METAR WARB 230600Z 12008KT 6000 FEW017CB SCT018 27/24 Q1010=
23-Feb-2015 SAID31 WARB 230700 METAR WARB 230700Z 12005KT 6000 FEW017CB SCT018 27/24 Q1009=
23-Feb-2015 SAID31 WARB 230800 METAR WARB 230800Z 00000KT 6000 FEW017CB SCT018 27/24 Q1009=
23-Feb-2015 SAID31 WARB 230900 METAR WARB 230900Z 00000KT 6000 FEW017CB SCT018 27/25 Q1009=
24-Feb-2015 SAID31 WARB 240000 METAR WARB 240000Z 21004KT 6000 BKN018 25/24 Q1011 NOSIG=
24-Feb-2015 SAID31 WARB 240100 METAR WARB 240100Z 310044KT 7000 SCT018 27/24 Q1012 NOSIG=
24-Feb-2015 SAID31 WARB 240200 METAR WARB 240200Z 35006KT 8000 SCT018 28/25 Q1012 NOSIG=
24-Feb-2015 SAID31 WARB 240300 METAR WARB 240300Z 02006KT 9000 SCT018 30/24 Q1011 NOSIG=
24-Feb-2015 SAID31 WARB 240400 METAR WARB 240400Z 09006KT 9000 SCT018 30/24 Q1011=
24-Feb-2015 SAID31 WARB 240500 METAR WARB 240500Z 09007KT 9000 SCT018 30/23 Q1010 NOSIG=
24-Feb-2015 SAID31 WARB 240600 METAR WARB 240600Z 08006KT 9000 SCT018 30/23 Q1009 NOSIG=
24-Feb-2015 SAID31 WARB 240700 METAR WARB 240700Z 05006KT 8000 FEW018CB SCT018 31/24 Q1008 NOSIG=
24-Feb-2015 SAID31 WARB 240800 METAR WARB 240800Z 09007KT 8000 FEW018CB FEW018 31/24 Q1008 NOSIG=
24-Feb-2015 SAID31 WARB 240900 METAR WARB 240900Z 08005KT 8000 FEW018CB FEW018 31/24 Q1008=
24-Feb-2015 SAID31 WARB 242300 METAR WARB 242300Z 18004KT 8000 FEW018 23/22 Q1010=
25-Feb-2015 SAID31 WARB 250000 METAR WARB 250000Z 30006KT 8000 FEW018 24/23 Q1011=
25-Feb-2015 SAID31 WARB 250100 METAR WARB 250100Z 31004KT 9000 FEW018 26/24 Q1011=
25-Feb-2015 SAID31 WARB 250200 METAR WARB 250200Z 00000KT 9999 FEW018 28/24 Q1011=
25-Feb-2015 SAID31 WARB 250300 METAR WARB 250300Z 12004KT 9999 FEW018 28/24 Q1011=
25-Feb-2015 SAID31 WARB 250400 METAR WARB 250400Z 11005KT 9000 SCT018 29/245 Q1010=
25-Feb-2015 SAID31 WARB 250500 METAR WARB 250500Z 10009KT 9000 SCT017 30/24 Q1009=
25-Feb-2015 SAID31 WARB 250600 METAR WARB 250600Z 12007KT 8000 SCT017 30/25 Q1008=
25-Feb-2015 SAID31 WARB 250700 METAR WARB 250700Z 09007KT 8000 SCT017 30/25 Q1007=
25-Feb-2015 SAID31 WARB 250800 METAR WARB 250800Z 12008KT 9000 SCT018 31/25 Q1007=
25-Feb-2015 SAID31 WARB 250900 METAR WARB 250900Z 09007KT 8000 SCT017 30/25 Q1007=
26-Feb-2015 SAID31 WARB 260000 METAR WARB 260000Z 00000KT 8000 SCT018 24/23 Q1011 NOSIG=
26-Feb-2015 SAID31 WARB 260100 METAR WARB 260100Z 35004KT 9000 FEW018 26/24 Q1011 NOSIG=
26-Feb-2015 SAID31 WARB 260200 METAR WARB 260200Z 00000KT 9000 FEW019 28/24 Q1011 NOSIG=
26-Feb-2015 SAID31 WARB 260300 METAR WARB 260300Z 08005KT 9000 SCT019 29/24 Q1010 NOSIG=
26-Feb-2015 SAID31 WARB 260400 METAR WARB 260400Z 09006KT 8000 SCT017 29/24 Q1010 NOSIG=
26-Feb-2015 SAID31 WARB 260500 METAR WARB 260500Z 15004KT 8000 SCT017 30/24 Q1009 NOSIG=
26-Feb-2015 SAID31 WARB 260600 METAR WARB 260600Z 05006KT 8000 SCT017 30/24 Q1008=
26-Feb-2015 SAID31 WARB 260700 METAR WARB 260700Z 14005KT 5000 -RA FEW016 CB SCT017 30/24 Q1007=
26-Feb-2015 SAID31 WARB 260800 METAR WARB 260800Z 28007KT 5000 -RA FEW015 CB BKN015 26/24 Q1008=
26-Feb-2015 SAID31 WARB 260900 METAR WARB 260900Z 29008KT 4000 -TSRA FEW015 CB BKN015 25/24 Q1008=
27-Feb-2015 SAID31 WARB 270000 METAR WARB 270000Z 29003KT 8000 FEW020 24/23 Q1010=
27-Feb-2015 SAID31 WARB 270100 METAR WARB 270100Z 00000KT 9000 FEW020 27/24 Q1010=
27-Feb-2015 SAID31 WARB 270200 METAR WARB 270200Z 00000KT 9000 FEW020 29/25 Q1011=
27-Feb-2015 SAID31 WARB 270300 METAR WARB 270300Z 18005KT 9000 SCT020 30/25 Q1010=
27-Feb-2015 SAID31 WARB 270400 METAR WARB 270400Z 12005KT 8000 FEW018CB SCT018 31/25 Q1009=
27-Feb-2015 SAID31 WARB 270500 METAR WARB 270500Z 18004KT 7000 TS FEW018CB SCT018 29/25 Q1009=
27-Feb-2015 SAID31 WARB 270600 METAR WARB 270600Z 09006KT 7000 -TS FEW016CB BKN018 29/24 Q1008=
27-Feb-2015 SAID31 WARB 270700 METAR WARB 270700Z 26010KT 6000-TSRA FEW015CB BKN015 26/24 Q1007=
27-Feb-2015 SAID31 WARB 270800 METAR WARB 270800Z 24005KT 7000-RA FEW017CB BSCT017 25/24 Q1007 RETS=
27-Feb-2015 SAID31 WARB 270900 METAR WARB 270900Z 26005KT 8000 SCT017 26/24 Q1007 RERA=
28-Feb-2015 SAID31 WARB 280000 METAR WARB 280000Z 00000KT 8000 FEW020 25/24 Q1010=
28-Feb-2015 SAID31 WARB 280100 METAR WARB 280100Z 00000KT 8000 FEW020 28/25 Q1011=
28-Feb-2015 SAID31 WARB 280200 METAR WARB 280200Z 00000KT 8000 SCT018 29/24 Q1011=
28-Feb-2015 SAID31 WARB 280300 METAR WARB 280300Z 08005KT 8000 SCT018 30/25 Q1010=
28-Feb-2015 SAID31 WARB 280400 METAR WARB 280400Z 09004KT 9000 SCT018 31/25 Q1009=
28-Feb-2015 SAID31 WARB 280500 METAR WARB 280500Z 06008KT 8000 SCT018 31/26 Q1008=
28-Feb-2015 SAID31 WARB 280600 METAR WARB 280600Z 06010KT 7000 SCT018 32/25 Q1007=
28-Feb-2015 SAID31 WARB 280700 METAR WARB 280700Z 22012KT 7000 TS FEW017CB SCT018 27/24 Q1007=
28-Feb-2015 SAID31 WARB 280800 METAR WARB 280800Z 35009KT 7000 TS FEW017CB SCT018 26/24 Q1008=
01-Mar-2015 SAID31 WARB 010000 METAR WARB 010000Z 33003KT 7000 FEW019 25/24 Q1010=
01-Mar-2015 SAID31 WARB 010100 METAR WARB 010100Z 00000KT 7000 FEW019 27/25 Q1010=
01-Mar-2015 SAID31 WARB 010200 METAR WARB 010200Z 00000KT 8000 SCT019 29/25 Q1011=
01-Mar-2015 SAID31 WARB 010300 METAR WARB 010300Z 11003KT 8000 SCT019 30/25 Q1010=
01-Mar-2015 SAID31 WARB 010400 METAR WARB 010400Z 08005KT 8000 SCT019 30/24 Q1010=
01-Mar-2015 SAID31 WARB 010600 METAR WARB 010600Z 21012KT 5000 TSRA FEW018CB SCT019 27/25 Q1009=
01-Mar-2015 SAID31 WARB 010700 METAR WARB 010700Z 21005KT 5000 FEW019CB SCT019 26/25 Q1008 RETS=
01-Mar-2015 SAID31 WARB 010800 METAR WARB 010800Z 28004KT 5000 SCT019 27/25 Q1008=
01-Mar-2015 SAID31 WARB 010900 METAR WARB 010900Z 25004KT 6000 SCT019 27/24 Q1007=
02-Mar-2015 SAID31 WARB 020000 METAR WARB 020000Z 00000KT 8000 FEW020 25/23 Q1010 NOSIG=
02-Mar-2015 SAID31 WARB 020200 METAR WARB 020200Z 21004KT 8000 FEW020 29/24 Q1010 NOSIG=
02-Mar-2015 SAID31 WARB 020300 METAR WARB 020300Z 12004KT 8000 FEW020 30/24 Q1010 NOSIG=
02-Mar-2015 SAID31 WARB 020400 METAR WARB 020400Z 09007KT 080V200 8000 FEW019 31/25 Q1010 NOSIG=
02-Mar-2015 SAID31 WARB 020500 METAR WARB 020500Z 09006KT 8000 FEW017CB FEW019 31/25 Q1008=
02-Mar-2015 SAID31 WARB 020600 METAR WARB 020600Z 06006KT 8000 SCT018 31/24 Q1008=
02-Mar-2015 SAID31 WARB 020700 METAR WARB 020700Z 06008KT 7000 SCT018 30/23 Q1007=
02-Mar-2015 SAID31 WARB 020800 METAR WARB 020800Z 04008KT 7000 BKN018 29/23 Q1007=
02-Mar-2015 SAID31 WARB 020900 METAR WARB 020900Z 34006KT 6000 BKN018 25/24 Q1007 RERA=
03-Mar-2015 SAID31 WARB 030000 METAR WARB 030000Z 00000KT 9999 FEW020 24/22 Q1010=
03-Mar-2015 SAID31 WARB 030100 METAR WARB 030100Z 00000KT 9999 FEW020 27/23 Q1010=
03-Mar-2015 SAID31 WARB 030600 METAR WARB 030600Z 17004KT 6000 -RA FEW018CB SCT019 29/25 Q1008=
03-Mar-2015 SAID31 WARB 030700 METAR WARB 030700Z 12004KT 6000 -TS FEW018CB BKN019 28/24 Q1007=
03-Mar-2015 SAID31 WARB 030800 METAR WARB 030800Z 05007KT 5000 -TSRA FEW017CB BKN018 26/24 Q1008=
03-Mar-2015 SAID31 WARB 030900 METAR WARB 030900Z 05007 4000 -TSRA FEW017CB BKN018 24/23 Q1008=
04-Mar-2015 SAID31 WARB 040000 METAR WARB 040000Z 00000KT 8000 FEW020 25/23 Q1009=
04-Mar-2015 SAID31 WARB 040100 METAR WARB 040100Z 03005KT 9000 FEW020 28/25 Q1009=
04-Mar-2015 SAID31 WARB 040200 METAR WARB 040200Z 02006KT 9000 FEW020 29/25 Q1009=
04-Mar-2015 SAID31 WARB 040300 METAR WARB 040300Z 05010KT 9000 FEW018 30/24 Q1009=
04-Mar-2015 SAID31 WARB 040400 METAR WARB 040400Z 05008KT 9000 SCT018 30/23 Q1009=
04-Mar-2015 SAID31 WARB 040500 METAR WARB 040500Z 08008KT 8000 SCT018 31/24 Q1008=
04-Mar-2015 SAID31 WARB 040600 METAR WARB 040600Z 12006KT 8000 SCT018 31/24 Q1007=
04-Mar-2015 SAID31 WARB 042300 METAR WARB 042300Z 00000KT 9999 SCT019 23/22 Q1010=
05-Mar-2015 SAID31 WARB 050000 METAR WARB 050000Z 00000KT 9999 SCT019 24/23 Q1011=
05-Mar-2015 SAID31 WARB 050100 METAR WARB 050100Z 00000KT 9999 SCT019 26/24 Q1011=
05-Mar-2015 SAID31 WARB 050200 METAR WARB 050200Z 00000KT 9999 SCT019 28/25 Q1011=
05-Mar-2015 SAID31 WARB 050300 METAR WARB 050300Z 08005KT 9999 SCT019 28/24 Q1011=
05-Mar-2015 SAID31 WARB 050400 METAR WARB 050400Z 09004KT 9000 SCT019 29/25 Q1010=
05-Mar-2015 SAID31 WARB 050500 METAR WARB 050500Z 04004KT 9000 FEW019 CB FEW019 31/25 Q1009=
05-Mar-2015 SAID31 WARB 050600 METAR WARB 050600Z 09004KT 9000 -TS SCT018CB FEW019 31/23 Q1008=
05-Mar-2015 SAID31 WARB 050700 METAR WARB 050700Z 21009KT 8000 -TS SCT017 CB SCT018 28/24 Q1008=
05-Mar-2015 SAID31 WARB 050800 METAR WARB 050800Z 22003KT 8000 TS SCT017 CB SCT018 26/23 Q1008=
05-Mar-2015 SAID31 WARB 050900 METAR WARB 050900Z 00000KT 8000 FEW018 CB FEW018 27/25 Q1009 RETS=
06-Mar-2015 SAID31 WARB 060000 METAR WARB 060000Z 30005KT 8000 FEW017 24/23 Q1011=
06-Mar-2015 SAID31 WARB 060100 METAR WARB 060100Z 00000KT 9000 FEW017 26/24 Q1011=
06-Mar-2015 SAID31 WARB 060200 METAR WARB 060200Z 00000KT 9000 FEW017 29/24 Q1011=
06-Mar-2015 SAID31 WARB 060300 METAR WARB 060300Z 06007KT 9000 FEW017CB SCT017 29/24 Q1011=
06-Mar-2015 SAID31 WARB 060400 METAR WARB 060400Z 06007KT 9000 FEW017CB SCT017 30/25 Q1011=
06-Mar-2015 SAID31 WARB 060500 METAR WARB 060500Z 15006KT 7000 -RA FEW017CB SCT017 29/24 Q1010=
06-Mar-2015 SAID31 WARB 060600 METAR WARB 060600Z 18005KT 8000 -TS FEW017CB SCT017 28/25 Q1009 RE RA=
06-Mar-2015 SAID31 WARB 060700 METAR WARB 060700Z 19005KT 7000 -TS FEW017CB SCT017 28/24 Q1009=
06-Mar-2015 SAID31 WARB 060800 METAR WARB 060800Z 20005KT 7000 -TSRA FEW017CB SCT017 28/25 Q1008=
06-Mar-2015 SAID31 WARB 060900 METAR WARB 060900Z 32007KT 7000 -RA FEW017CB SCT017 27/25 Q1009 RE -TS=
07-Mar-2015 SAID31 WARB 070000 METAR WARB 070000Z 00000KT 7000 FEW017 BKN020 24/23 Q1011 RERA=
07-Mar-2015 SAID31 WARB 070100 METAR WARB 070100Z 00000KT 7000 FEW017 BKN020 27/24 Q1010=
07-Mar-2015 SAID31 WARB 070200 METAR WARB 070200Z 00000KT 7000 FEW017 BKN020 29/24 Q1010=
07-Mar-2015 SAID31 WARB 070300 METAR WARB 070300Z 00000KT 8000 SCT020 30/24 Q1010=
07-Mar-2015 SAID31 WARB 070400 METAR WARB 070400Z 00000KT 7000 SCT020 30/24 Q1010 RERA=
07-Mar-2015 SAID31 WARB 070500 METAR WARB 070500Z 13004KT 7000 SCT018 BKN020 30/24 Q1010=
07-Mar-2015 SAID31 WARE 070600 METAR WARB 070600Z 12003KT 7000 -TSRA FEW017CB SCT018 BKN020 28/24 Q1008=
07-Mar-2015 SAID31 WARB 070600 METAR WARB 070600Z 12003KT 7000 -TSRA FEW017CB SCT018 BKN020 28/24 Q1008=
07-Mar-2015 SAID31 WARB 070700 METAR WARB 070700Z 06012KT 8000 SCT018 BKN020 29/24 Q1008 RERA=
07-Mar-2015 SAID31 WARB 070800 METAR WARB 070800Z 05012KT 8000 BKN018 28/24 Q1007=
07-Mar-2015 SAID31 WARB 070900 METAR WARB 070900Z 05010KT 7000 BKN018 27/24 Q1007=
07-Mar-2015 SAID31 WARB 080000 METAR WARB 072300Z 27004KT 5000 SCT016 24/24 Q1010=
08-Mar-2015 SAID31 WARB 080100 METAR WARB 080100Z 00000KT 6000 SCT017 25/24 Q1012=
08-Mar-2015 SAID31 WARB 080200 METAR WARB 080200Z 00000KT 8000 SCT017 26/24 Q1012=
08-Mar-2015 SAID31 WARB 080300 METAR WARB 080300Z 00000KT 8000 SCT017 27/25 Q1011=
08-Mar-2015 SAID31 WARB 080400 METAR WARB 080400Z 00000KT 8000 SCT017 28/25 Q1011=
08-Mar-2015 SAID31 WARB 090400 METAR WARB 080400Z 12004KT 9000 FEW019 31/25 Q1010=
08-Mar-2015 SAID31 WARB 080500 METAR WARB 080500Z 00000KT 9999 SCT017 29/25 Q1010=
08-Mar-2015 SAID31 WARB 080600 METAR WARB 080600Z 07007KT 9999 SCT017 30/24 Q1009=
08-Mar-2015 SAID31 WARB 080700 METAR WARB 080700Z 10005KT 9999 SCT017 31/24 Q1008=
09-Mar-2015 SAID31 WARB 090000 METAR WARB 090000Z 00000KT 6000 FEW019 26/24 Q1011=
09-Mar-2015 SAID31 WARB 090200 METAR WARB 090200Z 00000KT 8000 FEW019 29/25 Q1011=
09-Mar-2015 SAID31 WARB 090300 METAR WARB 090300Z 10005KT 9000 FEW019 30/25 Q1011=
09-Mar-2015 SAID31 WARB 090500 METAR WARB 090500Z 09005KT 9000 FEW019 32/24 Q1010=
09-Mar-2015 SAID31 WARB 090600 METAR WARB 090600Z 12004KT 8000 FEW017CB SCT018 32/24 Q1009=
09-Mar-2015 SAID31 WARB 090700 METAR WARB 090700Z 22007KT 7000 FEW017CB SCT018 30/25 Q1009=
09-Mar-2015 SAID31 WARB 090800 METAR WARB 090800Z 24007KT 7000 FEW017CB SCT018 27/25 Q1008=
09-Mar-2015 SAID31 WARB 090900 METAR WARB 090900Z 21007KT 8000 FEW018 28/25 Q1008=
10-Mar-2015 SAID31 WARB 100000 METAR WARB 100000Z 33004KT 6000 SCT018 26/25 Q1011=
10-Mar-2015 SAID31 WARB 100100 METAR WARB 100100Z 04004KT 7000 SCT018 28/25 Q1011=
10-Mar-2015 SAID31 WARB 100200 METAR WARB 100200Z 00000KT 7000 SCT018 28/24 Q1011=
10-Mar-2015 SAID31 WARB 100300 METAR WARB 100300Z 20004KT 8000 SCT018 30/24 Q1010=
10-Mar-2015 SAID31 WARB 100400 METAR WARB 100400Z 18006KT 8000 FEW018CB FEW018 30/24 Q1010=
10-Mar-2015 SAID31 WARB 100500 METAR WARB 100500Z 18004KT 7000 -TS FEW018CB FEW018 31/24 Q1009=
10-Mar-2015 SAID31 WARB 100600 METAR WARB 100600Z 11005KT 7000-TS FEW018CB SCT018 30/24 Q1008=
10-Mar-2015 SAID31 WARB 100700 METAR WARB 100700Z 23007KT 7000 FEW018CB SCT018 26/24 Q1008 RETS=
10-Mar-2015 SAID31 WARB 100800 METAR WARB 100800Z 26003KT 7000 FEW018CB SCT018 26/24 Q1008 RERA=
10-Mar-2015 SAID31 WARB 100900 METAR WARB 100900Z 0000KT 7000 SCT018 27/25 Q1009 =
10-Mar-2015 SAID31 WARB 102300 METAR WARB 102300Z 0000KT 5000 FEW 020 25/24 Q1011 =
11-Mar-2015 SAID31 WARB 110000 METAR WARB 110000Z 0000KT 5000 FEW020 25/24 Q1011=
11-Mar-2015 SAID31 WARB 110200 METAR WARB 110200Z 06007KT 6000 FEW018 28/26 Q1012=
11-Mar-2015 SAID31 WARB 110300 METAR WARB 110300Z 04007KT 7000 FEW020 29/25 Q1011=
11-Mar-2015 SAID31 WARB 110400 METAR WARB 110400Z 07006KT 7000 FEW020 30/25 Q1011=
11-Mar-2015 SAID31 WARB 110500 METAR WARB 110500Z 05006KT 7000 BKN018 29/25 Q1010=
11-Mar-2015 SAID31 WARB 110600 METAR WARB 110600Z 04010KT 7000TS FEW017CB BKN018 30/24 Q1009=
11-Mar-2015 SAID31 WARB 110700 METAR WARB 110700Z 06007KT 7000 FEW017CB SCT018 28/24 Q1009=
11-Mar-2015 SAID31 WARB 110800 METAR WARB 110800Z 09004KT 7000 TS FEW017CB SCT018 28/25 Q1009=
11-Mar-2015 SAID31 WARB 110900 METAR WARB 110900Z 24003KT 7000 TSFEW 017CB SCT018 28/25 Q1009=
11-Mar-2015 SAID31 WARB 112300 METAR WARB 112300Z 00000KT 8000 FG SCT018 24/23 Q1012=
12-Mar-2015 SAID31 WARB 120000 METAR WARB 120000Z 00000KT 7000 SCT017 25/24 Q1012=
12-Mar-2015 SAID31 WARB 120100 METAR WARB 120100Z 00000KT 7000 SCT017 26/25 Q1012=
12-Mar-2015 SAID31 WARB 120200 METAR WARB 120200Z 01006KT 7000 SCT017 28/25 Q1013=
12-Mar-2015 SAID31 WARB 120300 METAR WARB 120300Z 04005KT 8000 SCT017 29/25 Q1012=
12-Mar-2015 SAID31 WARB 120400 METAR WARB 120400Z 06009KT 8000 SCT017 30/25 Q1011=
12-Mar-2015 SAID31 WARB 120500 METAR WARB 120500Z 05010KT 8000 SCT017 31/26 Q1011=
12-Mar-2015 SAID31 WARB 120600 METAR WARB 120600Z 04010KT 8000 -TS FEW017 CB FEW017 30/25 Q1010=
12-Mar-2015 SAID31 WARB 120700 METAR WARB 120700Z 32008KT 7000 -TS FEW017 CB SCT017 30/25 Q1010 RETS=
12-Mar-2015 SAID31 WARB 120800 METAR WARB 120800Z 29008KT 7000 -RA FEW017 CB SCT017 26/24 Q1009 RETS=
12-Mar-2015 SAID31 WARB 120900 METAR WARB 120900Z 30005KT 7000 FEW017 CB FEW017 26/25 Q1010 RERA=
13-Mar-2015 SAID31 WARB 130000 METAR WARB 130000Z 330035KT 8000 25/24 Q1013=
13-Mar-2015 SAID31 WARB 130100 METAR WARB 130100Z 34004KT 9000 SCT 018 26/25 Q1014=
13-Mar-2015 SAID31 WARB 130200 METAR WARB 130200Z 08003KT 9000 SCT 020 28/24 Q1013=
13-Mar-2015 SAID31 WARB 130300 METAR WARB 130300Z 07004KT 9000 SCT 020 30/24 Q1013=
13-Mar-2015 SAID31 WARB 130400 METAR WARB 130400Z 09007KT 9999 SCT 020 31/25 Q1012=
13-Mar-2015 SAID31 WARB 130500 METAR WARB 130500Z 06011KT 9999 SCT 018 31/25 Q1011=
13-Mar-2015 SAID31 WARB 130600 METAR WARB 130600Z 04012KT 9000 FEW 018 CB SCT 018 31/25 Q1010=
13-Mar-2015 SAID31 WARB 130700 METAR WARB 130700Z 03010KT 8000 FEW 018 CB BKN 018 30/25 Q1010RETS=
13-Mar-2015 SAID31 WARB 130800 METAR WARB 130800Z 02010KT 8000 BKN018 29/24 Q1010=
13-Mar-2015 SAID31 WARB 130900 METAR WARB 130900Z 03009KT 8000 SCT 018 29/25 Q1009=
14-Mar-2015 SAID31 WRRX 140000 METAR WARB 140000Z 30002KT 6000 SCT1800 26/25 Q1013=
14-Mar-2015 SAID31 WARB 140200 METAR WARB 140000Z 30004KT 8000 FEW 019 30/24 Q1014=
15-Mar-2015 SAID31 WARB 150000 METAR WARB 150000Z 27004KT 9999 FEW020 25/24 Q1014=
15-Mar-2015 SAID31 WARB 150100 METAR WARB 150100Z 00000KT 9999 FEW020 27/25 Q1014=
15-Mar-2015 SAID31 WARB 150200 METAR WARB 150200Z 00000KT 9999 FEW019 29/25 Q1014=
15-Mar-2015 SAID31 WARB 150300 METAR WARB 150300Z 12006KT 9999 SCT19 30/25 Q1013=
15-Mar-2015 SAID31 WARB 150400 METAR WARB 150400Z 10007KT 9000 SCT018 30/26 Q1013=
15-Mar-2015 SAID31 WARB 150500 METAR WARB 150500Z 09008KT 8000 FEW018CB FEW018 30/25 Q1011=
15-Mar-2015 SAID31 WARB 150600 METAR WARB 150600Z 19005KT 7000 FEW018CB SCT 018 29/25 Q1011=
15-Mar-2015 SAID31 WARB 150700 METAR WARB 150700Z 32012KT 7000 TS FEW018CB FEW018 28/25 Q1010=
16-Mar-2015 SAID31 WARB 160000 METAR WARB 160000Z 00000KT 8000 FEW018 24/23 Q1013=
16-Mar-2015 SAID31 WARB 160100 METAR WARB 160100Z 00000KT 8000 FEW018 27/24 Q1013=
16-Mar-2015 SAID31 WARB 160200 METAR WARB 160200Z 09004KT 9000 FEW018 29/25 Q1014=
16-Mar-2015 SAID31 WARB 160300 METAR WARB 160300Z 01005KT 9000 FEW018 30/24 Q1014=
16-Mar-2015 SAID31 WARB 160400 METAR WARB 160400Z 06005KT 9000 SCT018 30/25 Q1013=
16-Mar-2015 SAID31 WARB 160500 METAR WARB 160500Z 06005KT 9000 SCT018 30/24 Q1012=
16-Mar-2015 SAID31 WARB 160600 METAR WARB 160600Z 07005KT 9000 SCT018 31/23 Q1011=
16-Mar-2015 SAID31 WARB 160900 METAR WARB 160900Z 02004KT 7000 RA FEW017CB SCT017 26/25 Q1010=
17-Mar-2015 SAID31 WARB 170000 METAR WARB 170000Z 00000KT 9999 FEW019 25/23 Q1012=
17-Mar-2015 SAID31 WARB 170100 METAR WARB 170100Z 00000KT 9999 FEW019 27/25 Q1012=
17-Mar-2015 SAID31 WARB 170200 METAR WARB 170200Z 00000KT 9999 SCT019 29/24 Q1013=
17-Mar-2015 SAID31 WARB 170300 METAR WARB 170300Z 09007KT 9999 SCT018 30/25 Q1012=
17-Mar-2015 SAID31 WARB 170400 METAR WARB 170400Z 12005KT 9999 FEW017CB FEW017 30/25 Q1011=
17-Mar-2015 SAID31 WARB 170600 METAR WARB 170600Z 23003KT 7000 -TSRA SCT017CB FEW017 26/25 Q1010 RETS=
17-Mar-2015 SAID31 WARB 170700 METAR WARB 170700Z 32004KT 8000 -TS FEW018CB FEW018 26/25 Q1009 RETS=
17-Mar-2015 SAID31 WARB 170800 METAR WARB 170800Z 32004KT 9999 FEW018CB FEW018 26/25 Q1008=
17-Mar-2015 SAID31 WARB 170900 METAR WARB 170900Z 03004KT 9999 FEW018CB FEW018 26/25 Q1009=
18-Mar-2015 SAID31 WARB 180100 METAR WARB 180100Z 00000KT 9999 FEW020 27/24 Q1012=
18-Mar-2015 SAID31 WARB 180200 METAR WARB 180200Z 06004KT 9999 FEW019 29/24 Q1012=
18-Mar-2015 SAID31 WARB 180300 METAR WARB 180300Z 08006KT 9999 FEW019 30/24 Q1011=
18-Mar-2015 SAID31 WARB 180400 METAR WARB 180400Z 10007KT 9999 FEW019 30/24 Q1010=
18-Mar-2015 SAID31 WARB 180500 METAR WARB 180500Z 11005KT 9999 SCT019 31/23 Q1010=
21-Jan-2017 SAID31 WARB 210600 METAR WARB 210600Z 10011KT 5000 FEW017CB SCT018 30/26 Q1009=
11-Feb-2019 SAID31 WARB 112100 METAR WARB 112100Z 25003KT 7000 SCT018 23/23 Q1012=
