16-Dec-2021 SAID33 WAHS 162200 METAR WARC 162200Z 13002KT 6000 FEW014 26/24 Q1010 NOSIG=
16-Dec-2021 SAID33 WAHS 162200 METAR WARC 162200Z 13002KT 6000 FEW014 26/24 Q1010 NOSIG=
16-Dec-2021 SAID33 WARC 162200 METAR WARC 162200Z 13002KT 6000 FEW014 26/24 Q1010 NOSIG=
16-Dec-2021 SAID33 WAHS 162230 METAR WARC 162230Z 22003KT BR 2000 FEW014 24/24 Q11008=
16-Dec-2021 SAID33 WAHS 162230 METAR WARC 162230Z 22003KT BR 2000 FEW014 24/24 Q11008=
16-Dec-2021 SAID33 WAHS 162300 METAR WARC 162300Z 26003KT BR 2000 FEW014 24/24 Q1008=
16-Dec-2021 SAID33 WAHS 162300 METAR WARC 162300Z 26003KT BR 2000 FEW014 24/24 Q1008=
16-Dec-2021 SAID33 WAHS 162330 METAR WARC 162330Z 25003KT BR 2000 FEW014 24/24 Q1008=
16-Dec-2021 SAID33 WAHS 162330 METAR WARC 162330Z 25003KT BR 2000 FEW014 24/24 Q1008=
17-Dec-2021 SAID33 WAHS 170000 METAR WARC 170000Z 23003KT BR 2500 FEW014 24/24 Q1008=
17-Dec-2021 SAID33 WAHS 170000 METAR WARC 170000Z 23003KT BR 2500 FEW014 24/24 Q1008=
17-Dec-2021 SAID33 WAHS 170030 METAR WARC 170030Z 00000KT 3000 BR FEW014 25/25 Q1009=
17-Dec-2021 SAID33 WAHS 170030 METAR WARC 170030Z 00000KT 3000 BR FEW014 25/25 Q1009=
17-Dec-2021 SAID33 WAHS 170100 METAR WARC 170100Z 19002KT 3500 BR SCT014 27/24 Q1009=
17-Dec-2021 SAID33 WAHS 170100 METAR WARC 170100Z 19002KT 3500 BR SCT014 27/24 Q1009=
17-Dec-2021 SAID33 WAHS 170130 METAR WARC 170130Z 00000KT 3000 BR FEW014 25/25 Q1009=
17-Dec-2021 SAID33 WAHS 170130 METAR WARC 170130Z 18002KT 4000 HZ SCT014 28/26 Q1009=
17-Dec-2021 SAID33 WAHS 170200 METAR WARC 170200Z 29003KT 6000 HZ SCT014 28/26 Q1009=
17-Dec-2021 SAID33 WAHS 170200 METAR WARC 170200Z 29003KT 6000 HZ SCT014 28/26 Q1009=
