03-Mar-2014 SAID33 WART 030200 METAR WART 030200Z 00000KT 9999 SCT020 29/26 Q1009 NOSIG=
12-Aug-2014 SAID33 WATR 121800 METAR WART 121800Z 11009KT 9999 FEW020 24/18 Q1014 NOSIG=
12-Aug-2014 SAID33 WATR 122100 METAR WART 122100Z 11007KT 9999 FEW020 24/18 Q1014 NOSIG=
12-Aug-2014 SAID33 WATR 122200 METAR WART 122200Z 00000KT 9999 FEW020 24/19 Q1013 NOSIG=
13-Feb-2017 SAID35 WART 130600 METAR WART 130600Z 35015KT RA 2000 SCT018CB SCT020 26/24 Q1011=
13-Feb-2017 SAID35 WART 130700 METAR WART 130700Z 33009KT RA 3000 SCT018CB SCT020 26/24 Q1010=
13-Feb-2017 SAID35 WART 130800 METAR WART 130800Z 31007KT 3000 FEW018CB SCT020 27/24 Q1009=
13-Feb-2017 SAID35 WART 130900 METAR WART 130900Z 32008KT 7000 FEW019CB FEW020 26/23 Q1010=
14-Feb-2017 SAID35 WART 140100 METAR WART 140100Z 21003KT 9999 FEW0209 27/24 Q1013=
14-Feb-2017 SAID35 WART 140200 METAR WART 140200Z 24003KT 9999 SCT020 28/25 Q1013=
14-Feb-2017 SAID35 WART 140400 METAR WART 140400Z 15002KT 8000 RERA FEW016CB BKN018 26/25 Q1012=
14-Feb-2017 SAID35 WART 140600 METAR WART 140600Z 35003KT 9999 TS SCT018CB BKN020 24/24 Q1011=
14-Feb-2017 SAID35 WART 140700 METAR WART 140700Z 02002KT 8000 TSRA SCT018CB BKN020 24/23 Q1011=
21-Feb-2017 SAID35 WART 210400 METAR WART 210400Z 03005KT 9999 FEW018CB SCT020 31/25 Q1011=
21-Feb-2017 SAID35 WART 210600 METAR WART 210600Z 20008KT 9999 TS FEW018CB SCT020 29/25 Q1010=
21-Feb-2017 SAID35 WART 210700 METAR WART 210700Z 20004KT 9999 SCT020 29/26 Q1009=
21-Feb-2017 SAID35 WART 210800 METAR WART 210800Z 20005KT 9999 FEW018CB SCT020 30/25 Q1008=
21-Feb-2017 SAID35 WART 210900 METAR WART 210900Z 25005KT 5000 RAIN FEW016CB SCT018 27/25 Q1008=
22-Feb-2017 SAID35 WART 220300 METAR WART 220300Z 10006KT 9999 SCT020 30/25 Q1012=
22-Feb-2017 SAID35 WART 220400 METAR WART 220400Z 09006KT 9999 SCT020 31/24 Q1011=
22-Feb-2017 SAID35 WART 220500 METAR WART 220500Z 10007KT 9999 SCT020 32/24 Q1010=
22-Feb-2017 SAID35 WART 220600 METAR WART 220600Z 10006KT 9999 FEW018CB SCT020 31/25 Q1009=
22-Feb-2017 SAID35 WART 220700 METAR WART 220700Z 14007KT 9999 FEW018CB SCT020 30/25 Q1009=
22-Feb-2017 SAID35 WART 220800 METAR WART 220800Z 32004KT 7000 FEW018CB SCT020 30/25 Q1008=
22-Feb-2017 SAID35 WART 220900 METAR WART 220900Z 34008KT 9999 FEW018CB SCT020 29/26 Q1009=
23-Feb-2017 SAID35 WART 230100 METAR WART 230100Z 00000KT 5000 FEW020 27/26 Q1011=
23-Feb-2017 SAID35 WART 230300 METAR WART 230300Z 00000KT 7000 FEW020 28/25 Q1010=
23-Feb-2017 SAID35 WART 230400 METAR WART 230400Z 09007KT 9999 FEW020 30/25 Q1010=
23-Feb-2017 SAID35 WART 230500 METAR WART 230500Z 12012KT 9999 FEW020 30/26 Q1009=
23-Feb-2017 SAID35 WART 230600 METAR WART 230600Z 17011KT 9999 FEW020 31/26 Q1008=
23-Feb-2017 SAID35 WART 230700 METAR WART 230700Z 15008KT 9999 FEW020 32/25 Q1008=
23-Feb-2017 SAID35 WART 230800 METAR WART 230800Z 13008KT 9999 FEW020 32/25 Q1007=
23-Feb-2017 SAID35 WART 230830 METAR WART 230830Z 14008KT 9999 FEW020 32/24 Q1007=
24-Feb-2017 SAID35 WART 240100 METAR WART 240100Z 13007KT 9999 SCT020 29/25 Q1011=
24-Feb-2017 SAID35 WART 240200 METAR WART 240200Z 10006KT 9999 SCT020 30/26 Q1011=
24-Feb-2017 SAID35 WART 240300 METAR WART 240300Z 15007KT 9999 SCT020 31/25 Q1011=
24-Feb-2017 SAID35 WART 240400 METAR WART 240400Z 19007KT 9999 SCT020 31/25 Q1010=
24-Feb-2017 SAID35 WART 240500 METAR WART 240500Z 17008KT 9999 FEW020 31/26 Q1009=
24-Feb-2017 SAID35 WART 240700 METAR WART 240700Z 19008KT 9999 FEW018 32/22 Q1008=
24-Feb-2017 SAID35 WART 240800 METAR WART 240800Z 17007KT 9999 FEW018 32/23 Q1008=
24-Feb-2017 SAID35 WART 240900 METAR WART 240900Z 32006KT 9999 FEW020 31/26 Q1008=
27-Feb-2017 SAID35 WART 270100 METAR WART 270100Z 16004KT 9999 FEW020 29/25 Q1009=
27-Feb-2017 SAID35 WART 270200 METAR WART 270200Z 20004KT 9999 FEW018CB SCT020 30/24 Q1010=
27-Feb-2017 SAID35 WART 270300 METAR WART 270300Z 21004KT 9999 FEW018CB SCT020 30/24 Q1009=
27-Feb-2017 SAID35 WART 270400 METAR WART 270400Z 05008KT 7000 FEW016CB SCT018 28/25 Q1009=
27-Feb-2017 SAID35 WART 270700 METAR WART 270700Z 29003KT 7000 SCT020 28/24 Q1007=
27-Feb-2017 SAID35 WART 270800 METAR WART 270800Z 15004KT 9999 SCT020 30/26 Q1006=
27-Feb-2017 SAID35 WART 270830 METAR WART 270830Z 18003KT 9999 FEW018CB SCT020 30/26 Q1006=
28-Feb-2017 SAID35 WART 280100 METAR WART 280100Z 28003KT 9999 FEW020 28/25 Q1010=
28-Feb-2017 SAID35 WART 280200 METAR WART 280200Z 20005KT 9999 FEW020 29/25 Q1009=
28-Feb-2017 SAID35 WART 280300 METAR WART 280300Z 22003KT 9999 SCT020 29/24 Q1009=
28-Feb-2017 SAID35 WART 280400 METAR WART 280400Z 23005KT 9999 SCT020 31/24 Q1009=
28-Feb-2017 SAID35 WART 280500 METAR WART 280500Z 16002KT 5000 FEW019CB SCT020 29/24 Q1008=
28-Feb-2017 SAID35 WART 280600 METAR WART 280600Z 28005KT 1500 RA SCT018CB 25/24 Q1007=
28-Feb-2017 SAID35 WART 280700 METAR WART 280700Z 24005KT 1500 RA SCT018CB 25/25 Q1007=
28-Feb-2017 SAID35 WART 280800 METAR WART 280800Z 23002KT 8000 FEW 019CB SCT020 26/25 Q1006=
28-Feb-2017 SAID35 WART 280900 METAR WART 280900Z 35004KT 8000 FEW019CB SCT020 28/25 Q1006=
01-Mar-2017 SAID35 WART 010100 METAR WART 010100Z 22002KT 9999 FEW020 28/25 Q1010=
01-Mar-2017 SAID35 WART 010200 METAR WART 010200Z 27002KT 9999 FEW020 29/25 Q1010=
01-Mar-2017 SAID35 WART 010300 METAR WART 010300Z 20005KT 9999 FEW020 30/25 Q1010=
01-Mar-2017 SAID35 WART 010400 METAR WART 010400Z 11004KT 8000 FEW018 CB SCT020 30/26 Q1009=
01-Mar-2017 SAID35 WART 010500 METAR WART 010500Z 02013KT 1500- TSRA SCT016CB 25/24 Q1007=
01-Mar-2017 SAID35 WART 010600 METAR WART 010600Z 34005KT 5000- FEWOI8CBSCT020 26/25 Q1008=
01-Mar-2017 SAID35 WART 010700 METAR WART 010700Z 28007KT 8000- SCT020 29/25 Q1007=
01-Mar-2017 SAID35 WART 010800 METAR WART 010800Z 04014KT 1500- RABKN016 25/24 Q1007=
01-Mar-2017 SAID35 WART 010900 METAR WART 010900Z 33001KT 5000- FEWCB018 SCT020 24/24 Q1007=
02-Mar-2017 SAID35 WART 020100 METAR WART 020100Z 27003KT 9999 FEW020 28/25 Q1009=
02-Mar-2017 SAID35 WART 020200 METAR WART 020200Z 30003KT 9999 FEW020 29/25 Q1009=
02-Mar-2017 SAID35 WART 020300 METAR WART 020300Z 18006KT 9999 SCT020 30/26 Q1009=
02-Mar-2017 SAID35 WART 020400 METAR WART 020400Z 00000KT 9999 SCT020 32/25 Q1008=
03-Mar-2017 SAID35 WART 030700 METAR WART 030700Z 35003KT 9000 FEW019CB SCT020 31/26 Q1005=
03-Mar-2017 SAID35 WART 030800 METAR WART 030800Z 05002KT 9000 FEW019CB SCT020 31/25 Q1004=
06-Mar-2017 SAID35 WART 060100 METAR WART 060100Z 27004KT 8000 FEW018CB SCT020 28/26 Q1008=
06-Mar-2017 SAID35 WART 060200 METAR WART 060200Z 24004KT 8000 FEW018CB SCT020 29/26 Q1009=
06-Mar-2017 SAID35 WART 060300 METAR WART 060300Z 20002KT 9000 SCT016CB SCT018 29/26 Q1008=
06-Mar-2017 SAID35 WART 060400 METAR WART 060400Z 28511KT 1500 BKN016 27/25 Q1008=
06-Mar-2017 SAID35 WART 060500 METAR WART 060500Z 04004KT 5000 TS SCT016CBSCT018 24/24 Q1007=
06-Mar-2017 SAID35 WART 060600 METAR WART 060600Z 29009KT 5000 TS SCT016CBSCT018 25/25 Q1007=
06-Mar-2017 SAID35 WART 060700 METAR WART 060700Z 33008KT 8000 FEW018CBSCT020 26/25 Q1005=
06-Mar-2017 SAID35 WART 060800 METAR WART 060800Z 32011KT 8000 SCT020 27/25 Q1005=
07-Mar-2017 SAID35 WART 070100 METAR WART 070100Z 30005KT 8000 FEW020 29/26 Q1009=
07-Mar-2017 SAID35 WART 070200 METAR WART 070200Z 30008KT 8000 FEW020 29/27 Q1008=
07-Mar-2017 SAID35 WART 070300 METAR WART 070300Z 29008KT 9999 SCT020 31/26 Q1008=
07-Mar-2017 SAID35 WART 070400 METAR WART 070400Z 20008KT 9999 SCT020 32/27 Q1007=
07-Mar-2017 SAID35 WART 070500 METAR WART 070500Z 22010KT 9999 FEW018CB SCT020 31/27 Q1006=
07-Mar-2017 SAID35 WART 070600 METAR WART 070600Z 26006KT 9999 FEW018CB SCT020 33/28 Q1005=
07-Mar-2017 SAID35 WART 070700 METAR WART 070700Z 36012KT 9999 SCT016CB SCT018 32/28 Q1005=
07-Mar-2017 SAID35 WART 070800 METAR WART 070800Z 33010KT 9999 SCT016CB SCT018 31/27 Q1005=
07-Mar-2017 SAID35 WART 070900 METAR WART 070900Z 32015KT 9999 FEW018CB SCT020 30/27 Q1005=
08-Mar-2017 SAID35 WART 080100 METAR WART 080100Z 29006KT 8000 SCT020 28/24 Q1009=
08-Mar-2017 SAID35 WART 080200 METAR WART 080200Z 30004KT 8000 SCT020 29/25 Q1010=
08-Mar-2017 SAID35 WART 080300 METAR WART 080300Z 31006KT 9000 SCT020 30/25 Q1010=
08-Mar-2017 SAID35 WART 080400 METAR WART 080400Z 27004KT 9999 SCT020 31/25 Q1009=
08-Mar-2017 SAID35 WART 080500 METAR WART 080500Z 22004KT 9999 FEW SCT020 31/25 Q1009=
08-Mar-2017 SAID35 WART 080600 METAR WART 080600Z 32003KT 9999 FEW SCT020 31/26 Q1007=
08-Mar-2017 SAID35 WART 080700 METAR WART 080700Z 10003KT 9999 FEW019CB SCT020 32/25 Q1006=
08-Mar-2017 SAID35 WART 080800 METAR WART 080800Z 29005KT 9999 FEW019CB SCT020 31/25 Q1006=
08-Mar-2017 SAID35 WART 080900 METAR WART 080900Z 35006KT 9999 SCT020 30/26 Q1006=
09-Mar-2017 SAID35 WART 090100 METAR WART 090100Z 17004KT 9000 FEW020 29/27 Q1009=
09-Mar-2017 SAID35 WART 090200 METAR WART 090200Z 16005KT 6000 SCT020 30/26 Q1009=
09-Mar-2017 SAID35 WART 090300 METAR WART 090300Z 21005KT 6000 SCT020 30/26 Q1009=
09-Mar-2017 SAID35 WART 090400 METAR WART 090400Z 21004KT 6000 FEW020 31/26 Q1008=
09-Mar-2017 SAID35 WART 090500 METAR WART 090500Z 10006KT 6000 FEW020 31/27 Q1007=
09-Mar-2017 SAID35 WART 090600 METAR WART 090600Z 16007KT 6000 SCT019 32/27 Q1006=
09-Mar-2017 SAID35 WART 090700 METAR WART 090700Z 16010KT BR 5000 SCT019TCU 32/27 Q1005=
09-Mar-2017 SAID35 WAPC 090800 METAR WART 090800Z 01508KT 5000 BR FEW 019CB SCT020 30/26 Q1005=
09-Mar-2017 SAID35 WART 090900 METAR WART 090900Z 00407KT 6000 FEW020 30/27 Q1005=
10-Mar-2017 SAID35 WART 100100 METAR WART 100100Z 24003KT 9999 FEW020 29/27 Q1009=
10-Mar-2017 SAID35 WART 100200 METAR WART 100200Z 18005KT 9999 SCT020 31/26 Q1009=
10-Mar-2017 SAID35 WART 100300 METAR WART 100300Z 09005KT 9999 FEW020 31/26 Q1009=
10-Mar-2017 SAID35 WART 100400 METAR WART 100400Z 15010KT 7000 FEW019CB SCT020 31/26 Q1008=
10-Mar-2017 SAID35 WART 100530 METAR WART 100530Z 01505KT 4000 RA BKN019CB SCT020 27/24 Q1008=
10-Mar-2017 SAID35 WART 100600 METAR WART 100600Z 35005KT 6000 FEW019CB SCT020 28/26 Q1007=
10-Mar-2017 SAID35 WART 100700 METAR WART 100700Z 35008KT 8000 FEW020 29/27 Q1006=
10-Mar-2017 SAID35 WART 100800 METAR WART 100800Z 01006KT 9999 FEW020 30/26 Q1006=
10-Mar-2017 SAID35 WART 100900 METAR WART 100900Z 01007KT 9999 FEW020 29/27 Q1006=
13-Mar-2017 SAID35 WART 130200 METAR WART 130200Z 18004KT 8000 SCT020 29/25 Q1011=
13-Mar-2017 SAID35 WART 130300 METAR WART 130300Z 17003KT 9000 SCT020 29/24 Q1011=
13-Mar-2017 SAID35 WART 130400 METAR WART 130400Z 10004KT 9000 SCT020 30/26 Q1010=
13-Mar-2017 SAID35 WART 130500 METAR WART 130500Z 08004KT 9999 SCT019 30/26 Q1009=
13-Mar-2017 SAID35 WART 130600 METAR WART 130600Z 08005KT 8000 FEW018CB SCT019 29/26 Q1008=
13-Mar-2017 SAID35 WART 130700 METAR WART 130700Z 29008KT 1500 TSRA BKN018CB 23/23 Q1009=
13-Mar-2017 SAID35 WART 130800 METAR WART 130800Z 08003KT 5000 RA BKN019CB 25/24 Q1008=
13-Mar-2017 SAID35 WART 130900 METAR WART 130900Z 26002KT 6000 FEW019CB FEW020 26/26 Q1008=
14-Mar-2017 SAID35 WART 140100 METAR WART 140100Z 26003KT 9999 FEW020 28/25 Q1011=
14-Mar-2017 SAID35 WART 140200 METAR WART 140200Z 28003KT 9999 FEW020 30/25 Q1011=
14-Mar-2017 SAID35 WART 140300 METAR WART 140300Z 35003KT 9999 SCT020 31/24 Q1011=
14-Mar-2017 SAID35 WART 140400 METAR WART 140400Z 02005KT 5000 FEW016CB SCT018 30/26 Q1010=
14-Mar-2017 SAID35 WART 140500 METAR WART 140500Z 23006KT 3000 -RA FEW018CB SCT020 26/25 Q1010=
14-Mar-2017 SAID35 WART 140600 METAR WART 140600Z 35006KT 9999 SCT020 29/27 Q1009=
14-Mar-2017 SAID35 WART 140700 METAR WART 140700Z 01006KT 9999 FEW018CB SCT020 32/26 Q1008=
14-Mar-2017 SAID35 WART 140800 METAR WART 140800Z 09006KT 0250 TSRA SCT016CB BKN018 25/25 Q1008=
15-Mar-2017 SAID35 WART 150100 METAR WART 150100Z 33005KT 9999 FEW019TCU SCT020 27/27 Q1010=
15-Mar-2017 SAID35 WART 150300 METAR WART 150300Z 35007KT 5000 FEW018CB SCT019 30/26 Q1010=
15-Mar-2017 SAID35 WART 150400 METAR WART 150400Z 21012KT 6000 SCT018CB BKN019 29/26 Q1010=
15-Mar-2017 SAID35 WART 150500 METAR WART 150500Z 19007KT 4000 RA SCT018CB BKN019 27/26 Q1009=
15-Mar-2017 SAID35 WART 150600 METAR WART 150600Z 27006KT 6000 FEW019CB FEW020 26/26 Q1008=
15-Mar-2017 SAID35 WART 150600 CCA METAR WART 150600Z 27006KT 6000 FEW019CB FEW020 26/26 Q1008 RERA=
15-Mar-2017 SAID35 WART 150700 METAR WART 150700Z 33005KT 5000 RA FEW019CB FEW020 27/26 Q1008=
15-Mar-2017 SAID35 WART 150800 METAR WART 150800Z 10003KT 7000 FEW020CB 27/26 Q1007 RERA=
15-Mar-2017 SAID35 WART 150900 METAR WART 150900Z 17003KT 9999 FEW020 27/26 Q1007=
16-Mar-2017 SAID35 WART 160100 METAR WART 160100Z 30002KT 9999 FEW018 SCT020 28/26 Q1010=
16-Mar-2017 SAID35 WART 160300 METAR WART 160300Z 15004KT 9999 FEW018 CB SCT020 30/25 Q1010=
16-Mar-2017 SAID35 WART 160400 METAR WART 160400Z 17008KT 9999 SCT018 CB SCT020 30/27 Q1009=
16-Mar-2017 SAID35 WART 160500 METAR WART 160500Z 07008KT 9999 SCT018 CB SCT020 30/26 Q1008=
16-Mar-2017 SAID35 WART 160600 METAR WART 160600Z 03009KT 9999 SCT018 CB SCT020 31/27 Q1007=
16-Mar-2017 SAID35 WART 160700 METAR WART 160700Z 06010KT 9999 FEW018 CB SCT020 31/27 Q1007=
16-Mar-2017 SAID35 WART 160900 METAR WART 160900Z 04007KT 9999 FEW018 CB FEW020 30/26 Q1006=
17-Mar-2017 SAID35 WART 170100 METAR WART 170100Z 02005KT 9999 FEW018 29/26 Q1011=
17-Mar-2017 SAID35 WART 170200 METAR WART 170200Z 04006KT 9999 FEW018 30/27 Q1010=
17-Mar-2017 SAID35 WART 170300 METAR WART 170300Z 16009KT 9999 FEW018 31/27 Q1010=
17-Mar-2017 SAID35 WART 170400 METAR WART 170400Z 14006KT 5000 SCT018CBSCT020 31/28 Q1010=
17-Mar-2017 SAID35 WART 170500 METAR WART 170500Z 30007KT 5000 TSRA SCT016CBSCT018 27/26 Q1009=
17-Mar-2017 SAID35 WART 170600 METAR WART 170600Z 10006KT 7000 SCT018CBSCT020 29/26 Q1008=
17-Mar-2017 SAID35 WART 170800 METAR WART 170800Z 30004KT 5000 RA SCT016CB BKN018 25/25 Q1007=
20-Mar-2017 SAID35 WART 200100 METAR WART 200100Z 33007KT 9999 SCT018CBSCT020 28/26 Q1010=
20-Mar-2017 SAID35 WART 200200 METAR WART 200200Z 28006KT 9999 SCT018CBSCT020 28/27 Q1010=
20-Mar-2017 SAID35 WART 200300 METAR WART 200300Z 28006KT 8000 SCT018SCT020 29/26 Q1009=
20-Mar-2017 SAID35 WART 200400 METAR WART 200400Z 30005KT 9999 SCT018CB SCT020 30/27 Q1008=
20-Mar-2017 SAID35 WART 200600 METAR WART 200600Z 32010KT 8000 SCT018CB SCT020 30/27 Q1007=
20-Mar-2017 SAID35 WART 200700 METAR WART 200700Z 3308KT 8000 SCT018CB SCT020 30/27 Q1006=
20-Mar-2017 SAID35 WART 200800 METAR WART 200800Z 33012KT 8000 SCT018CB SCT020 29/27 Q1006=
21-Mar-2017 SAID35 WART 210100 METAR WART 210100Z 30010KT 9999 FEW2000 28/27 Q1010=
21-Mar-2017 SAID35 WART 210200 METAR WART 210200Z 30015KT 9999 SCT018 30/27 Q1010=
21-Mar-2017 SAID35 WART 210300 METAR WART 210300Z 32015KT 9999 SCT018 31/27 Q1009=
21-Mar-2017 SAID35 WART 210400 METAR WART 210400Z 33016KT 9999 FEW016CB BKN018 26/26 Q1009=
21-Mar-2017 SAID35 WART 210500 METAR WART 210500Z 33015KT 9999 FEW018CB BKN020 30/28 Q1008=
21-Mar-2017 SAID35 WART 210600 METAR WART 210600Z 34012KT 9999 FEW020CB SCT018 29/27 Q1007=
21-Mar-2017 SAID35 WART 210700 METAR WART 210700Z 31012KT 9999 FEW020CB SCT018 30/27 Q1007=
22-Mar-2017 SAID35 WART 220100 METAR WART 220100Z 00000KT 9999 FEW020 29/27 Q1010=
22-Mar-2017 SAID35 WART 220200 METAR WART 220200Z 20004KT 9999 FEW016CB BKN018 29/28 Q1010=
22-Mar-2017 SAID35 WART 220300 METAR WART 220300Z 33012KT 9999 FEW016CB SCT018 31/27 Q1010=
22-Mar-2017 SAID35 WART 220400 METAR WART 220400Z 31015KT 9999 FEW018CB SCT020 32/27 Q1009=
22-Mar-2017 SAID35 WART 220500 METAR WART 220500Z 30010KT 9999 SCT018 32/28 Q1007=
22-Mar-2017 SAID35 WART 220600 METAR WART 220600Z 32015KT 9999 SCT018 31/28 Q1007=
22-Mar-2017 SAID35 WART 220700 METAR WART 220700Z 32012KT 9999 SCT020 31/27 Q1007=
22-Mar-2017 SAID35 WART 220800 METAR WART 220800Z 32015KT 9999 FEW020CB FEW018 30/26 Q1007=
22-Mar-2017 SAID35 WART 220900 METAR WART 220900Z 30010KT 9999 FEW020 31/26 Q1007=
23-Mar-2017 SAID35 WART 230100 METAR WART 230100Z 32002KT 8000 FEW020 28/27 Q1010=
23-Mar-2017 SAID35 WART 230200 METAR WART 230200Z 29003KT 9999 SCT020 29/27 Q1010=
23-Mar-2017 SAID35 WART 230300 METAR WART 230300Z 32005KT 9999 SCT019 30/27 Q1010=
23-Mar-2017 SAID35 WART 230400 METAR WART 230400Z 35007KT 9999 FEW018CB SCT019 30/27 Q1010=
23-Mar-2017 SAID35 WART 230500 METAR WART 230500Z 35008KT 9999 FEW018CB SCT019 31/28 Q1009=
23-Mar-2017 SAID35 WART 230600 METAR WART 230600Z 33009KT 9999 FEW019CB SCT020 31/28 Q1007=
23-Mar-2017 SAID35 WART 230700 METAR WART 230700Z 30008KT 7000 SCT018CB SCT019 31/27 Q1007=
23-Mar-2017 SAID35 WART 230800 METAR WART 230800Z 22006KT 5000 TS SCT018CB 28/26 Q1007=
23-Mar-2017 SAID35 WART 230900 METAR WART 230900Z 30004KT 8000 FEW019CB SCT020 29/27 Q1007=
24-Mar-2017 SAID35 WART 240100 METAR WART 240100Z 33003KT 8000 SCT020 29/28 Q1011=
24-Mar-2017 SAID35 WART 240200 METAR WART 240200Z 36007KT 9999 FEWCB018 SCT020 30/28 Q1011=
24-Mar-2017 SAID35 WART 240300 METAR WART 240300Z 36005KT 9999 FEW018 31/28 Q1011=
24-Mar-2017 SAID35 WART 240400 METAR WART 240400Z 34007KT 9999 SCT018 32/28 Q1010=
24-Mar-2017 SAID35 WART 240500 METAR WART 240500Z 01007KT 9999 FEW018CB SCT020 32/28 Q1009=
24-Mar-2017 SAID35 WART 240600 METAR WART 240600Z 27007KT 1500 TSRA FEW016CB SCT018 28/27 Q1009=
24-Mar-2017 SAID35 WART 240700 METAR WART 240700Z 27006KT 5000 FEW018CB SCT020 28/28 Q1008=
27-Mar-2017 SAID35 WART 270100 METAR WART 270100Z 01005KT 8000 FEW020 26/26 Q10112=
27-Mar-2017 SAID35 WART 270200 METAR WART 270200Z 03006KT 9999 FEW020 29/28 Q10112=
27-Mar-2017 SAID35 WART 270300 METAR WART 270300Z 00000KT 9999 SCT018 30/27 Q1012=
29-Mar-2017 SAID35 WART 290100 METAR WART 290100Z 30004KT 9999 FEW020 29/27 Q1011=
29-Mar-2017 SAID35 WART 290200 METAR WART 290200Z 22004KT 9999 FEW020 30/28 Q1012=
29-Mar-2017 SAID35 WART 290300 METAR WART 290300Z 17005KT 6000 FEW019CB SCT020 31/27 Q1011=
29-Mar-2017 SAID35 WART 290400 METAR WART 290400Z 16010KT 4000 BR SCT018CB SCT019 31/28 Q1011=
29-Mar-2017 SPID35 WART 290411 SPECI WART 290411Z 36012KT 4000 RA SCT018CB SCT019 27/27 Q1011=
29-Mar-2017 SAID35 WART 290500 METAR WART 290500Z 06006KT 4000 RA SCT019CB SCT020 24/24 Q1010=
29-Mar-2017 SAID35 WART 290600 METAR WART 290600Z 03003KT 4000 BR FEW019CB FEW020 26/26 Q1010=
29-Mar-2017 SAID35 WART 290700 METAR WART 290700Z 09002KT 9999 FEW020 27/27 Q1009=
29-Mar-2017 SAID35 WART 290800 METAR WART 290800Z 34008KT 9999 FEW019CB SCT020 30/28 Q1008=
29-Mar-2017 SAID35 WART 290900 METAR WART 290900Z 35008KT 9999 FEW020 30/28 Q1008=
30-Mar-2017 SAID35 WART 300100 METAR WART 300100Z 02004KT 6000 FEW020 27/27 Q1012=
30-Mar-2017 SAID35 WART 300200 METAR WART 300200Z 24005KT 9999 FEW020 28/26 Q1012=
30-Mar-2017 SAID35 WART 300600 METAR WART 300600Z 27007KT 1000 RA SCT018CB BKN019 25/25 Q1010=
30-Mar-2017 SAID35 WART 300700 METAR WART 300700Z 16005KT 4000 RA SCT019CB BKN020 24/24 Q1019=
30-Mar-2017 SAID35 WART 300800 METAR WART 300800Z 34005KT 9999 FEW019TCU 26/25 Q1008=
30-Mar-2017 SAID35 WART 300900 METAR WART 300900Z 29003KT 9999 FEW020 28/27 Q1009=
03-Apr-2017 SAID35 WART 030200 METAR WART 030200Z 36005KT 9999 FEW020 29/27 Q1007=
03-Apr-2017 SAID35 WART 030400 METAR WART 030400Z 00608KT 9999 FEW020 31/28 Q1009=
03-Apr-2017 SAID35 WART 030500 METAR WART 030500Z 35011KT 9999 FEW019CB FEW020 31/28 Q1008=
03-Apr-2017 SAID35 WART 030600 METAR WART 030600Z 36010KT 4000 TS FEW019CB FEW020 31/28 Q1008=
03-Apr-2017 SAID35 WART 030700 METAR WART 030700Z 27011KT 4000 BR SCT018CB BKN019 27/26 Q1008=
03-Apr-2017 SAID35 WART 030900 METAR WART 030900Z 34005KT 9999 FEW020 27/27 Q1008=
04-Apr-2017 SAID35 WART 040100 METAR WART 040100Z 09006KT 9999 FEW020 28/26 Q1011=
04-Apr-2017 SAID35 WART 040200 METAR WART 040200Z 06004KT 9999 FEW020 29/26 Q1011=
04-Apr-2017 SAID35 WART 040300 METAR WART 040300Z 09005KT 9999 FEW020 30/27 Q1010=
04-Apr-2017 SAID35 WART 040400 METAR WART 040400Z 00620KT 4000 RA SCT018CB BKN019 28/26 Q1010=
04-Apr-2017 SAID35 WART 040500 METAR WART 040500Z 14004KT 5000 BR FEW019CB SCT020 28/26 Q1008=
04-Apr-2017 SAID35 WART 040600 METAR WART 040600Z 18002KT 5000 BR FEW019CB SCT020 29/26 Q1008=
04-Apr-2017 SAID35 WART 040700 METAR WART 040700Z 35011KT 9999 SCT020 31/27 Q1007=
04-Apr-2017 SAID35 WART 040800 METAR WART 040800Z 02010KT 9999 SCT020 30/27 Q1007=
04-Apr-2017 SAID35 WART 040900 METAR WART 040900Z 36009KT 9999 SCT020 29/26 Q1007=
05-Apr-2017 SAID35 WART 050100 METAR WART 050100Z 23004KT 9999 FEWCB018 SCT020 28/27 Q1009=
05-Apr-2017 SAID35 WART 050200 METAR WART 050200Z 32008KT 9999 SCT020 30/27 Q1009=
05-Apr-2017 SAID35 WART 050300 METAR WART 050300Z 33010KT 9999 FEWCB018 SCT020 30/26 Q1009=
05-Apr-2017 SAID35 WART 050400 METAR WART 050400Z 33011KT 9999 FEWCB018 SCT020 31/27 Q1008=
05-Apr-2017 SAID35 WART 050500 METAR WART 050500Z 34016KT 9999 SCTCB018 SCT020 32/28 Q1006=
05-Apr-2017 SAID35 WART 050600 METAR WART 050600Z 32017KT 9999 FEWCB018 SCT020 32/28 Q1005=
05-Apr-2017 SAID35 WART 050700 METAR WART 050700Z 29010KT 9999 SCT020 32/27 Q1005=
05-Apr-2017 SAID35 WART 050800 METAR WART 050800Z 35017KT 9999 SCT020 31/28 Q1005=
06-Apr-2017 SAID35 WART 060100 METAR WART 060100Z 00000KT 9999 SCT018CB SCT020 28/26 Q1008=
06-Apr-2017 SAID35 WART 060200 METAR WART 060200Z 26006KT 8000 SCT016CB SCT018 27/26 Q1008=
06-Apr-2017 SAID35 WART 060300 METAR WART 060300Z 30005KT 8000 FEW018CB SCT020 27/26 Q1008=
06-Apr-2017 SAID35 WART 060400 METAR WART 060400Z 33008KT 9999 FEW018CB SCT020 28/27 Q1007=
06-Apr-2017 SAID35 WART 060500 METAR WART 060500Z 32020KT 0500 FEW015CB SCT018 29/28 Q1007=
06-Apr-2017 SAID35 WART 060600 METAR WART 060600Z 30006KT 5000 FEW018CB SCT020 26/26 Q1006=
06-Apr-2017 SAID35 WART 060700 METAR WART 060700Z 34006KT 9999 FEW020CB SCT018 26/26 Q1005=
07-Apr-2017 SAID35 WART 070100 METAR WART 070100Z 24002KT 8000 RA SCT019CB SCT020 24/24 Q1009=
07-Apr-2017 SAID35 WART 070200 METAR WART 070200Z 00000KT 8000 SCT019CB SCT020 25/25 Q1010 RERA=
07-Apr-2017 SAID35 WART 070400 METAR WART 070400Z 31005KT 9000 FEW019CB SCT020 29/28 Q1008=
07-Apr-2017 SAID35 WART 070500 METAR WART 070500Z 33009KT 9000 FEW019CB SCT020 29/27 Q1007=
07-Apr-2017 SAID35 WART 070600 METAR WART 070600Z 28010KT 7000 SCT018CB SCT019 29/27 Q1007=
07-Apr-2017 SAID35 WART 070700 METAR WART 070700Z 33008KT 8000 SCT018CB SCT019 30/28 Q1006=
07-Apr-2017 SAID35 WART 070800 METAR WART 070800Z 33010KT 8000 SCT018CB SCT019 30/28 Q1006=
10-Apr-2017 SAID35 WART 100100 METAR WART 100100Z 00000KT 9999 SCT020 30/28 Q1010=
10-Apr-2017 SAID35 WART 100200 METAR WART 100200Z 20005KT 9999 SCT020 31/28 Q1010=
10-Apr-2017 SAID35 WART 100300 METAR WART 100300Z 16008KT 9999 SCT020 31/28 Q1009=
10-Apr-2017 SAID35 WART 100400 METAR WART 100400Z 17008KT 9999 FEW020 31/28 Q1008=
10-Apr-2017 SAID35 WART 100500 METAR WART 100500Z 16008KT 9999 SCT020 32/28 Q1007=
10-Apr-2017 SAID35 WART 100600 METAR WART 100600Z 16008KT 9999 SCT020 32/27 Q1007=
10-Apr-2017 SAID35 WART 100700 METAR WART 100700Z 13006KT 9999 SCT018 32/28 Q1006=
10-Apr-2017 SAID35 WART 100800 METAR WART 100800Z 10008KT 9999 FEW020 32/28 Q1005=
11-Apr-2017 SAID35 WART 110100 METAR WART 110100Z 15007KT 9999 SCT020 29/27 Q1009=
11-Apr-2017 SAID35 WART 110200 METAR WART 110200Z 14008KT 9999 SCT020 29/27 Q1009=
11-Apr-2017 SAID35 WART 110400 METAR WART 110400Z 14010KT 9999 FEW020 30/26 Q1008=
11-Apr-2017 SAID35 WART 110500 METAR WART 110500Z 17014KT 9999 FEW020 31/26 Q1007=
11-Apr-2017 SAID35 WART 110600 METAR WART 110600Z 12006KT 9999 FEW020 31/27 Q1007=
11-Apr-2017 SAID35 WART 110700 METAR WART 110700Z 12006KT 9999 SCT020 31/27 Q1006=
12-Apr-2017 SAID35 WART 120100 METAR WART 120100Z 15008KT 9999 SCT020 29/27 Q1009=
12-Apr-2017 SAID35 WART 120300 METAR WART 120300Z 12008KT 9999 FEW020 31/27 Q1009=
12-Apr-2017 SAID35 WART 120400 METAR WART 120400Z 17010KT 9999 FEW020 31/26 Q1009=
12-Apr-2017 SAID35 WART 120500 METAR WART 120500Z 08008KT 9999 FEW020 31/26 Q1008=
12-Apr-2017 SAID35 WART 120600 METAR WART 120600Z 12006KT 9999 FEW020 32/27 Q1007=
12-Apr-2017 SAID35 WART 120700 METAR WART 120700Z 10006KT 9999 SCT020 31/27 Q1007=
13-Apr-2017 SAID35 WART 130100 METAR WART 130100Z 14005KT 9999 FEW020 30/25 Q1011=
13-Apr-2017 SAID35 WART 130300 METAR WART 130300Z 18009KT 9999 SCT020 31/25 Q1010=
13-Apr-2017 SAID35 WART 130400 METAR WART 130400Z 16006KT 9999 SCT020 31/25 Q1010=
17-Apr-2017 SAID35 WART 170100 METAR WART 170100Z 05004KT 9999 FEW020 29/27 Q1011=
17-Apr-2017 SAID35 WART 170200 METAR WART 170200Z 17007KT 9999 SCT020 30/27 Q1011=
17-Apr-2017 SAID35 WART 170300 METAR WART 170300Z 16004KT 9999 FEWCB018 SCT020 30/26 Q1010=
18-Apr-2017 SAID35 WART 180100 METAR WART 180100Z 01004KT 9999 FEW020 30/27 Q1011=
18-Apr-2017 SAID35 WART 180200 METAR WART 180200Z 06004KT 9999 SCT020 31/26 Q1011=
18-Apr-2017 SAID35 WART 180300 METAR WART 180300Z 1006KT 9999 FEW018CB FEW020 31/26 Q1010=
18-Apr-2017 SAID35 WART 180400 METAR WART 180400Z 31008KT 8000 FEW016CB SCT018 29/26 Q1010=
18-Apr-2017 SAID35 WART 180500 METAR WART 180500Z 07008KT 9999 TS FEW020CB SCT018 27/26 Q1009=
18-Apr-2017 SAID35 WART 180600 METAR WART 180600Z 09005KT 9999 SCT020 29/27 Q1008=
18-Apr-2017 SAID35 WART 180700 METAR WART 180700Z 03005KT 9999 SCT020 31/27 Q1008=
18-Apr-2017 SAID35 WART 180800 METAR WART 180800Z 06006KT 9999 FEW018CB SCT020 31/28 Q1007=
19-Apr-2017 SAID35 WART 190200 METAR WART 190200Z 16005KT 8000 FEW019CB SCT020 30/26 Q1011=
19-Apr-2017 SAID35 WART 190300 METAR WART 190300Z 16008KT 9999 FEW019CB SCT020 29/27 Q1011=
19-Apr-2017 SAID35 WART 190400 METAR WART 190400Z 25006KT 7000 SCT018CB SCT020 30/27 Q1010=
19-Apr-2017 SAID35 WART 190500 METAR WART 190500Z 20004KT 4000 TSRA SCT018CB FEW020 24/23 Q1010=
19-Apr-2017 SAID35 WART 190600 METAR WART 190600Z 02003KT 8000 FEW019CB SCT020 26/25 Q1009RERA=
19-Apr-2017 SAID35 WART 190700 METAR WART 190700Z 34004KT 9999 FEW020 28/27 Q1008=
19-Apr-2017 SAID35 WART 190800 METAR WART 190800Z 34003KT 9999 FEW020 29/25 Q1008=
19-Apr-2017 SAID35 WART 190900 METAR WART 190900Z 29002KT 9999 FEW020 30/26 Q1009=
20-Apr-2017 SAID35 WART 200100 METAR WART 200100Z 13003KT 9999 FEW019CB SCT020 29/27 Q1011=
20-Apr-2017 SAID35 WART 200200 METAR WART 200200Z 10004KT 9999 SCT020 30/27 Q1012=
20-Apr-2017 SAID35 WART 200300 METAR WART 200300Z 09005KT 9999 SCT020 31/27 Q1011=
20-Apr-2017 SAID35 WART 200500 METAR WART 200500Z 10006KT 9999 SCT020 31/27 Q1009=
20-Apr-2017 SAID35 WART 200600 METAR WART 200600Z 10005KT 9999 SCT020 31/27 Q1008=
20-Apr-2017 SAID35 WART 200700 METAR WART 200700Z 10007KT 9999 SCT020 31/27 Q1008=
20-Apr-2017 SAID35 WART 200800 METAR WART 200800Z 15004KT 9999 SCT020 31/27 Q1007=
20-Apr-2017 SAID35 WART 200900 METAR WART 200900Z 10004KT 9999 FEW020 30/26 Q1007=
21-Apr-2017 SAID35 WART 210100 METAR WART 210100Z 36001KT 9999 FEW020 30/28 Q1012=
21-Apr-2017 SAID35 WART 210200 METAR WART 210200Z 14005KT 9999 SCT020 30/26 Q1011=
21-Apr-2017 SAID35 WART 210300 METAR WART 210300Z 16007KT 9999 SCT020 30/26 Q1011=
21-Apr-2017 SAID35 WART 210400 METAR WART 210400Z 18008KT 9999 FEW019TCU SCT020 31/26 Q1010=
21-Apr-2017 SAID35 WART 210600 METAR WART 210600Z 10005KT 9999 FEW020 32/27 Q1008=
21-Apr-2017 SAID35 WART 210700 METAR WART 210700Z 17007KT 7000 FEW019CB FEW020 31/27 Q1007=
21-Apr-2017 SAID35 WART 210800 METAR WART 210800Z 00502KT 9999 FEW019CB FEW020 30/26 Q1007=
21-Apr-2017 SAID35 WART 210900 METAR WART 210900Z 16006KT 9999 FEW019CB FEW020 30/26 Q1007=
02-May-2017 SAID35 WART 020200 METAR WART 020200Z 10004KT 9999 FEW020 30/26 Q1011=
02-May-2017 SAID35 WART 020300 METAR WART 020300Z 19007KT 9999 SCT020 31/27 Q1011=
02-May-2017 SAID35 WART 020400 METAR WART 020400Z 17006KT 9999 SCT020 31/27 Q1010=
02-May-2017 SAID35 WART 020500 METAR WART 020500Z 15006KT 9999 SCT020 31/27 Q1009=
02-May-2017 SAID35 WART 020600 METAR WART 020600Z 18004KT 9999 SCT020 32/27 Q1008=
02-May-2017 SAID35 WART 020700 METAR WART 020700Z 11005KT 9999 SCT020 32/27 Q1008=
02-May-2017 SAID35 WART 020800 METAR WART 020800Z 10007KT 9999 FEW019CB SCT020 31/27 Q1008=
03-May-2017 SAID35 WART 030100 METAR WART 030100Z 22003KT 5000 SCT019CB BKN020 28/26 Q1012=
03-May-2017 SAID35 WART 030400 METAR WART 030400Z 10003KT 5000 TSRA SCT019CB SCT020 25/25 Q1012=
03-May-2017 SAID35 WART 030500 METAR WART 030500Z 06005KT 7000 FEW019CB SCT020 26/25 Q1011=
03-May-2017 SAID35 WART 030600 METAR WART 030600Z 12009KT 7000 FEW019CB SCT020 27/25 Q1009=
03-May-2017 SAID35 WART 030700 METAR WART 030700Z 12005KT 9999 FEW019CB FEW020 28/25 Q1008=
03-May-2017 SAID35 WART 030800 METAR WART 030800Z 09002KT 9999 FEW020 28/24 Q1008=
03-May-2017 SAID35 WART 030900 METAR WART 030900Z 00000KT 9999 FEW020 28/23 Q1010=
04-May-2017 SAID35 WART 040100 METAR WART 040100Z 15008KT 9999 FEW020 30/26 Q1012=
04-May-2017 SAID35 WART 040200 METAR WART 040200Z 12008KT 9999 FEW020 30/26 Q1012=
04-May-2017 SAID35 WART 040300 METAR WART 040300Z 11007KT 9999 FEW020 29/25 Q1012=
04-May-2017 SAID35 WART 040400 METAR WART 040400Z 11016KT 9999 FEW020 30/25 Q1011=
04-May-2017 SAID35 WART 040500 METAR WART 040500Z 11011KT 9999 FEW020 32/26 Q1010=
04-May-2017 SAID35 WART 040600 METAR WART 040600Z 11015KT 9999 FEW018 SCT019 32/27 Q1009=
04-May-2017 SAID35 WART 040700 METAR WART 040700Z 09015KT 9999 FEW019CB FEW020 30/25 Q1009=
04-May-2017 SAID35 WART 040800 METAR WART 040800Z 12005KT 9999 FEW019CB FEW020 30/26 Q1009=
04-May-2017 SAID35 WART 040900 METAR WART 040900Z 10006KT 9999 FEW019CB FEW020 29/25 Q1009=
05-May-2017 SAID35 WART 050100 METAR WART 050100Z 12008KT 9999 FEW020 29/27 Q1012=
05-May-2017 SAID35 WART 050200 METAR WART 050200Z 12008KT 9999 FEW 018 CB SCT 020 30/27 Q1012=
05-May-2017 SAID35 WART 050300 METAR WART 050300Z 09008KT 8000 FEW018CB SCT020 31/27 Q1012=
05-May-2017 SAID35 WART 050400 METAR WART 050400Z 09016KT 8000 SCT 018 CB SCT 020 31/27 Q1011=
08-May-2017 SAID35 WART 080100 METAR WART 080100Z 11003KT 8000 SCT019CB SCT020 25/24 Q1012=
08-May-2017 SAID35 WART 080200 METAR WART 080200Z 00000KT 9999 FEW019CB SCT020 27/26 Q1012=
08-May-2017 SAID35 WART 080400 METAR WART 080400Z 16004KT 8000 FEW019CB SCT020 30/27 Q1011=
08-May-2017 SAID35 WART 080500 METAR WART 080500Z 08005KT 8000 FEW019CB SCT020 30/26 Q1011=
08-May-2017 SAID35 WART 080600 METAR WART 080600Z 06006KT 9999 FEW019CB SCT020 28/25 Q1010=
08-May-2017 SAID35 WART 080700 METAR WART 080700Z 06004KT 9999 FEW019CB SCT020 29/25 Q1009=
08-May-2017 SAID35 WART 080900 METAR WART 080900Z 10004KT 9999 SCT020 30/26 Q1008=
09-May-2017 SAID35 WART 090100 METAR WART 090100Z 13015KT 9999 FEW020 29/25 Q1011=
09-May-2017 SAID35 WART 090200 METAR WART 090200Z 12010KT 9999 FEW020 29/25 Q1011=
09-May-2017 SAID35 WART 090300 METAR WART 090300Z 12012KT 9999 FEW020 30/24 Q1011=
09-May-2017 SAID35 WART 090400 METAR WART 090400Z 13010KT 9999 SCT020 30/25 Q1010=
09-May-2017 SAID35 WART 090700 METAR WART 090700Z 14013KT 9999 FEW020 31/25 Q1008=
09-May-2017 SAID35 WART 090800 METAR WART 090800Z 09007KT 9999 FEW020 31/24 Q1007=
09-May-2017 SAID35 WART 090900 METAR WART 090900Z 11009KT 9999 FEW020 30/23 Q1008=
10-May-2017 SAID35 WART 100100 METAR WART 100100Z 13008KT 9999 SCT020 27/24 Q1011=
10-May-2017 SAID35 WART 100200 METAR WART 100200Z 15004KT 9999 BKN020 28/24 Q1011=
10-May-2017 SAID35 WAGS 100300 METAR WART 100300Z 00000KT 9999 BKN009 29/25 Q1010=
10-May-2017 SAID35 WART 100300 METAR WART 100300Z 15005KT 9999 SCT020 29/24 Q1011=
10-May-2017 SAID35 WART 100400 METAR WART 100400Z 15012KT 9999 SCT018 30/24 Q1010=
10-May-2017 SAID35 WART 100500 METAR WART 100500Z 12008KT 9999 SCT018 30/24 Q1010=
10-May-2017 SAID35 WART 100600 METAR WART 100600Z 10009KT 9999 SCT018 30/24 Q1009=
12-May-2017 SAID35 WART 120100 METAR WART 120100Z 10004KT 9999 FEW020 29/25 Q1010=
12-May-2017 SAID35 WART 120200 METAR WART 120200Z 15005KT 9999 FEW020 30/25 Q1010=
12-May-2017 SAID35 WART 120300 METAR WART 120300Z 15006KT 9999 FEW020 30/23 Q1010=
12-May-2017 SAID35 WART 120400 METAR WART 120400Z 13014KT 9999 FEW020 31/24 Q1010=
12-May-2017 SAID35 WART 120600 METAR WART 120600Z 08008KT 9999 FEW020 31/25 Q1008=
12-May-2017 SAID35 WART 120700 METAR WART 120700Z 09008KT 9999 FEW020 31/25 Q1008=
15-May-2017 SAID35 WART 150100 METAR WART 150100Z 15009KT 9999 FEW020 29/25 Q1010=
15-May-2017 SAID35 WART 150200 METAR WART 150200Z 12005KT 9999 FEW020 30/24 Q1010=
15-May-2017 SAID35 WART 150300 METAR WART 150300Z 14007KT 9999 FEW019CB FEW020 30/24 Q1010=
15-May-2017 SAID35 WART 150400 METAR WART 150400Z 12010KT 9999 FEW019TCU SCT020 31/25 Q1009=
15-May-2017 SAID35 WART 150600 METAR WART 150600Z 11018KT 9999 FEW019TCU FEW020 31/26 Q1007=
15-May-2017 SAID35 WART 150700 METAR WART 150700Z 12015KT 9999 FEW020 31/25 Q1006=
15-May-2017 SAID35 WART 150800 METAR WART 150800Z 13008KT 9999 FEW020 31/26 Q1006=
15-May-2017 SAID35 WART 150900 METAR WART 150900Z 12011KT 9999 FEW020 31/26 Q1006=
16-May-2017 SAID35 WART 160100 METAR WART 160100Z 09013KT 9999 FEW020 31/26 Q1010=
16-May-2017 SAID35 WART 160200 METAR WART 160200Z 12007KT 9999 SCT020 31/25 Q1010=
16-May-2017 SAID35 WART 160300 METAR WART 160300Z 06005KT 9999 FEW020 31/25 Q1010=
16-May-2017 SAID35 WART 160400 METAR WART 160400Z 18012KT 9999 SCT020 31/26 Q1009=
16-May-2017 SAID35 WART 160500 METAR WART 160500Z 15009KT 9999 SCT020 31/24 Q1008=
16-May-2017 SAID35 WART 160600 METAR WART 160600Z 15010KT 9999 FEW020 31/24 Q1008=
16-May-2017 SAID35 WART 160700 METAR WART 160700Z 13008KT 9999 FEW020 31/25 Q1007=
16-May-2017 SAID35 WART 160800 METAR WART 160800Z 12010KT 9999 FEW020 31/25 Q1007=
16-May-2017 SAID35 WART 160900 METAR WART 160900Z 12010KT 9999 FEW020 30/24 Q1007=
17-May-2017 SAID35 WART 170100 METAR WART 170100Z 14008KT 9999 FEW020 29/22 Q1010=
17-May-2017 SAID35 WART 170200 METAR WART 170200Z 14010KT 9999 FEW020 30/22 Q1011=
17-May-2017 SAID35 WART 170300 METAR WART 170300Z 15004KT 9999 FEW020 30/23 Q1010=
17-May-2017 SAID35 WART 170400 METAR WART 170400Z 09008KT 9999 FEW020 30/22 Q1010=
17-May-2017 SAID35 WART 170500 METAR WART 170500Z 12010KT 9999 FEW020 31/23 Q1009=
17-May-2017 SAID35 WART 170600 METAR WART 170600Z 09016KT 9999 FEW020 31/22 Q1008=
17-May-2017 SAID35 WART 170700 METAR WART 170700Z 10007KT 9999 FEW020 32/22 Q1008=
17-May-2017 SAID35 WART 170800 METAR WART 170800Z 12009KT 9999 FEW020 31/23 Q1008=
18-May-2017 SAID35 WART 180100 METAR WART 180100Z 15005KT 9999 FEW020 29/23 Q1012=
18-May-2017 SAID35 WART 180200 METAR WART 180200Z 11008KT 9999 FEW020 30/22 Q1012=
18-May-2017 SAID35 WART 180300 METAR WART 180300Z 10008KT 9999 FEW020 31/22 Q1012=
18-May-2017 SAID35 WART 180400 METAR WART 180400Z 10010KT 9999 FEW020 31/22 Q1011=
18-May-2017 SAID35 WART 180500 METAR WART 180500Z 12012KT 9999 FEW020 31/21 Q1010=
18-May-2017 SAID35 WART 180800 METAR WART 180800Z 10008KT 9999 FEW020 31/23 Q1008=
19-May-2017 SAID35 WART 190300 METAR WART 190300Z 18007KT 9999 FEW020 30/23 Q1011=
19-May-2017 SAID35 WART 190400 METAR WART 190400Z 18009KT 9999 FEW020 31/23 Q1010=
19-May-2017 SAID35 WART 190700 METAR WART 190700Z 18005KT 9999 FEW020 31/23 Q1008=
19-May-2017 SAID35 WART 190800 METAR WART 190800Z 18007KT 9999 FEW020 31/22 Q1007=
22-May-2017 SAID35 WART 220100 METAR WART 220100Z 23002KT 9999 FEW020 29/25 Q1011=
22-May-2017 SAID35 WART 220200 METAR WART 220200Z 18005KT 9999 FEW020 30/25 Q1011=
22-May-2017 SAID35 WART 220300 METAR WART 220300Z 15012KT 9999 FEW020 30/24 Q1011=
22-May-2017 SAID35 WART 220400 METAR WART 220400Z 18013KT 9999 FEW020 31/24 Q1010=
22-May-2017 SAID35 WART 220700 METAR WART 220700Z 13016KT 9999 FEW020 32/22 Q1008=
22-May-2017 SAID35 WART 220800 METAR WART 220800Z 13008KT 9999 FEW020 31/23 Q1007=
22-May-2017 SAID35 WART 220900 METAR WART 220900Z 12010KT 9999 FEW020 31/23 Q1007=
23-May-2017 SAID35 WART 230100 METAR WART 230100Z 13012KT 9999 FEW020 28/23 Q1012=
23-May-2017 SAID35 WART 230400 METAR WART 230400Z 14017KT 9999 FEW020 30/22 Q1011=
23-May-2017 SAID35 WART 230500 METAR WART 230500Z 12012KT 9999 FEW020 31/21 Q1010=
26-May-2017 SAID35 WART 260100 METAR WART 260100Z 15007KT 9000 SCT020 29/25 Q1010=
26-May-2017 SAID35 WART 260200 METAR WART 260200Z 16006KT 9999 SCT020 30/24 Q1010=
26-May-2017 SAID35 WART 260300 METAR WART 260300Z 17006KT 9999 SCT020 30/24 Q1010=
26-May-2017 SAID35 WART 260500 METAR WART 260500Z 06008KT 7000 SCT019CB 29/26 Q1009=
26-May-2017 SAID35 WART 260600 METAR WART 260600Z 11007KT 9000 SCT019CB FEW020 30/25 Q1008=
26-May-2017 SAID35 WART 260700 METAR WART 260700Z 10009KT 9999 SCT020 30/25 Q1008=
31-May-2017 SAID35 WART 310100 METAR WART 310100Z 00000KT 9000 FEW019CB SCT020 28/26 Q1011=
31-May-2017 SAID35 WART 310200 METAR WART 310200Z 09007KT 9000 SCT019CB SCT020 29/25 Q1011=
31-May-2017 SAID35 WART 310300 METAR WART 310300Z 15009KT 7000 SCT018CB FEW020 29/25 Q1011=
31-May-2017 SAID35 WART 310310 METAR WART 310310Z 15007KT 4000 RA SCT018CB FEW020 28/25 Q1011=
31-May-2017 SAID35 WART 310400 METAR WART 310400Z 11003KT 8000 FEW019CB SCT020 28/26 Q1010=
31-May-2017 SAID35 WART 310500 METAR WART 310500Z 16005KT 9999 SCT020 29/26 Q1009=
31-May-2017 SAID35 WART 310600 METAR WART 310600Z 10009KT 9999 SCT020 30/25 Q1008=
31-May-2017 SAID35 WART 310700 METAR WART 310700Z 15008KT 9999 SCT020 30/25 Q1008=
02-Jun-2017 SAID35 WART 020100 METAR WART 020100Z 14009KT 9999 FEW020 29/25 Q1012=
02-Jun-2017 SAID35 WART 020200 METAR WART 020200Z 14008KT 9999 FEW020 30/24 Q1012=
02-Jun-2017 SAID35 WART 020300 METAR WART 020300Z 15005KT 9999 FEW020 29/25 Q1012=
02-Jun-2017 SAID35 WART 020400 METAR WART 020400Z 18006KT 9999 FEW020 30/25 Q1012=
02-Jun-2017 SAID35 WART 020600 METAR WART 020600Z 12007KT 9999 FEW020 31/25 Q1010=
02-Jun-2017 SAID35 WART 020700 METAR WART 020700Z 10005KT 9999 FEW020 31/23 Q1009=
02-Jun-2017 SAID35 WART 020800 METAR WART 020800Z 09009KT 9999 FEW020 31/24 Q1009=
05-Jun-2017 SAID35 WART 050100 METAR WART 050100Z 00000KT 9999 FEW020 28/25 Q1012=
05-Jun-2017 SAID35 WART 050300 METAR WART 050300Z 15005KT 9999 SCT018 30/25 Q1011=
05-Jun-2017 SAID35 WART 050400 METAR WART 050400Z 17010Z 9999 SCT018 30/24 Q1010=
05-Jun-2017 SAID35 WART 050500 METAR WART 050500Z 18010KT 9999 SCT018 31/24 Q1009=
05-Jun-2017 SAID35 WART 050600 METAR WART 050600Z 09010KT 9999 SCT018 31/24 Q1009=
05-Jun-2017 SAID35 WART 050700 METAR WART 050700Z 10008KT 9999 SCT018 31/24 Q1008=
06-Jun-2017 SAID35 WART 060100 METAR WART 060100Z 12008KT 9999 FEW020 29/24 Q1012=
06-Jun-2017 SAID35 WART 060300 METAR WART 060300Z 08009KT 9999 SCT019 31/24 Q1012=
06-Jun-2017 SAID35 WART 060400 METAR WART 060400Z 10012KT 9999 SCT019 31/24 Q1011=
06-Jun-2017 SAID35 WART 060500 METAR WART 060500Z 09011KT 9999 SCT019 31/25 Q1011=
06-Jun-2017 SAID35 WART 060600 METAR WART 060600Z 10013KT 9999 FEW019CB SCT020 31/24 Q1010=
06-Jun-2017 SAID35 WART 060700 METAR WART 060700Z 09013KT 9999 FEW019CB SCT020 31/23 Q1009=
06-Jun-2017 SAID35 WART 060800 METAR WART 060800Z 11012KT 9999 SCT020 31/23 Q1009=
07-Jun-2017 SAID35 WART 070100 METAR WART 070100Z 12010KT 9999 SCT019 29/24 Q1012=
07-Jun-2017 SAID35 WART 070200 METAR WART 070200Z 12014KT 9999 FEW019CB SCT019 30/24 Q1012=
07-Jun-2017 SAID35 WART 070300 METAR WART 070300Z 10014KT 9999 SCT019 31/24 Q1011=
07-Jun-2017 SAID35 WART 070400 METAR WART 070400Z 12011KT 9999 SCT019 31/26 Q1011=
07-Jun-2017 SAID35 WART 070500 METAR WART 070500Z 12015KT 9999 SCT019 30/24 Q1010=
07-Jun-2017 SAID35 WART 070600 METAR WART 070600Z 10012KT 9999 SCT019 31/25 Q1009=
07-Jun-2017 SAID35 WART 070700 METAR WART 070700Z 12012KT 9999 SCT019 31/24 Q1009=
07-Jun-2017 SAID35 WART 070800 METAR WART 070800Z 10011KT 9999 SCT019 30/24 Q1009=
08-Jun-2017 SAID35 WART 080100 METAR WART 080100Z 14005KT 9999 FEW018CB FEW020 28/24 Q1013=
08-Jun-2017 SAID35 WART 080200 METAR WART 080200Z 15008KT 9999 SCT018 29/25 Q1012=
08-Jun-2017 SAID35 WART 080300 METAR WART 080300Z 12007KT 9999 SCT018CB SCT020 29/25 Q1012=
08-Jun-2017 SAID35 WART 080400 METAR WART 080400Z 14009KT 9999 SCT018CB SCT020 30/25 Q1011=
08-Jun-2017 SAID35 WART 080500 METAR WART 080500Z 12018KT 9999 SCT018 30/24 Q1010=
08-Jun-2017 SAID35 WART 080700 METAR WART 080700Z 12012KT 9999 SCT018 31/24 Q1009=
08-Jun-2017 SAID35 WART 080800 METAR WART 080800Z 12014KT 9999 SCT018 30/25 Q1009=
09-Jun-2017 SAID35 WART 090100 METAR WART 090100Z 14009KT 9999 BKN020 29/24 Q1011=
09-Jun-2017 SAID35 WART 090200 METAR WART 090200Z 16009KT 9999 SCT020 30/25 Q1011=
09-Jun-2017 SAID35 WART 090300 METAR WART 090300Z 17012KT 9999 FEW020 30/24 Q1011=
09-Jun-2017 SAID35 WART 090400 METAR WART 090400Z 17006KT 9999 FEW020 30/25 Q1011=
09-Jun-2017 SAID35 WART 090600 METAR WART 090600Z 16010KT 9999 FEW020 31/24 Q1010=
09-Jun-2017 SAID35 WART 090700 METAR WART 090700Z 16011KT 9999 FEW020 31/24 Q1009=
09-Jun-2017 SAID35 WART 090800 METAR WART 090800Z 14011KT 9999 FEW020 31/24 Q1009=
12-Jun-2017 SAID35 WART 120100 METAR WART 120100Z 15014KT 8000 BKN018CB FEW020 27/24 Q1012=
12-Jun-2017 SAID35 WART 120200 METAR WART 120200Z 15010KT 7000 BKN018CB FEW020 27/24 Q1011=
12-Jun-2017 SPID35 WART 120225 SPECI WART 120225Z 16008KT 6000 RA BKN018CB 27/24 Q1011=
12-Jun-2017 SAID35 WART 120300 METAR WART 120300Z 14005KT 6000 BKN018CB 28/24 Q1011=
12-Jun-2017 SAID35 WART 120400 METAR WART 120400Z 15005KT 6000 BKN018CB 28/24 Q1011=
12-Jun-2017 SPID35 WART 120420 SPECI WART 120420Z 11003KT 4000 RA BKN018CB 28/24 Q1010=
12-Jun-2017 SAID35 WART 120500 METAR WART 120500Z 00000KT 4000 RA BKN018CB 27/25 Q1010=
12-Jun-2017 SAID35 WART 120600 METAR WART 120600Z 03011KT 1000 RA OVC018CB 24/23 Q1010=
12-Jun-2017 SAID35 WART 120700 METAR WART 120700Z 00000KT 1000 RA OVC018CB 24/24 Q1010=
12-Jun-2017 SAID35 WART 120800 METAR WART 120800Z 09003KT 1000 RA OVC018CB 25/24 Q1010=
13-Jun-2017 SAID35 WART 130100 METAR WART 130100Z 12006KT 8000 SCT019CB FEW020 26/24 Q1013=
13-Jun-2017 SAID35 WART 130200 METAR WART 130200Z 09009KT 8000 SCT019CB 27/24 Q1013=
13-Jun-2017 SAID35 WART 130300 METAR WART 130300Z 12006KT 8000 SCT019CB FEW020 27/24 Q1013=
13-Jun-2017 SAID35 WART 130400 METAR WART 130400Z 11007KT 8000 SCT019CB FEW020 27/25 Q1013=
13-Jun-2017 SAID35 WART 130500 METAR WART 130500Z 12013KT 6000 SCT019CB FEW020 27/24 Q1012=
13-Jun-2017 SAID35 WART 130600 METAR WART 130600Z 12009KT 8000 SCT019CB FEW020 27/24 Q1012=
13-Jun-2017 SAID35 WART 130700 METAR WART 130700Z 00000KT 8000 SCT019CB FEW020 27/24 Q1011=
13-Jun-2017 SAID35 WART 130800 METAR WART 130800Z 12003KT 8000 SCT019CB FEW020 27/24 Q1011=
14-Jun-2017 SAID35 WART 140100 METAR WART 140100Z 09010KT 9999 FEW020 29/24 Q1012=
14-Jun-2017 SAID35 WART 140200 METAR WART 140200Z 12011KT 9999 FEW020 29/24 Q1012=
14-Jun-2017 SAID35 WART 140300 METAR WART 140300Z 12011KT 9999 FEW018SCT020 30/24 Q1012=
14-Jun-2017 SAID35 WART 140400 METAR WART 140400Z 12010KT 9999 SCT018CBSCT020 31/25 Q1011=
14-Jun-2017 SAID35 WART 140500 METAR WART 140500Z 11010KT 7000 RA BKN018CBSCT020 27/25 Q1011=
14-Jun-2017 SAID35 WART 140600 METAR WART 140600Z 06004KT 8000 SCT018CBSCT020 29/26 Q1010=
15-Jun-2017 SAID35 WART 150100 METAR WART 150100Z 12008KT 8000 SCT019CB FEW020 27/25 Q1012=
15-Jun-2017 SAID35 WART 150200 METAR WART 150200Z 12011KT 8000 SCT019CB FEW020 29/25 Q1012=
15-Jun-2017 SAID35 WART 150300 METAR WART 150300Z 11014KT 9000 FEW019CB SCT020 30/25 Q1011=
15-Jun-2017 SAID35 WART 150400 METAR WART 150400Z 10007KT 8000 SCT019CB FEW020 30/25 Q1011=
15-Jun-2017 SAID35 WART 150500 METAR WART 150500Z 16006KT 8000 SCT019CB FEW020 29/25 Q1010=
15-Jun-2017 SPID35 WART 150515 SPECI WART 150515Z 16003KT 5000 RA SCT018CB 29/25 Q1010=
15-Jun-2017 SAID35 WART 150600 METAR WART 150600Z 10007KT 5000 RA SCT018CB FEW020 28/25 Q1010=
15-Jun-2017 SAID35 WART 150700 METAR WART 150700Z 12006KT 8000 SCT018CB FEW020 30/25 Q1009=
15-Jun-2017 SAID35 WART 150800 METAR WART 150800Z 12016KT 7000 SCT018CB FEW020 29/25 Q1010=
20-Jun-2017 SAID35 WART 200100 METAR WART 200100Z 00000KT 9999 FEW020 27/25 Q1011=
21-Jun-2017 SAID35 WART 210300 METAR WART 210300Z 13009KT 8000 SCT018 BKN020 28/24 Q1012=
28-Jun-2017 SAID35 WART 280300 METAR WART 280300Z 09010KT 9999 SCT018 30/24 Q1012=
28-Jun-2017 SAID35 WART 280400 METAR WART 280400Z 11009KT 9999 FEW020 30/24 Q1011=
12-Jul-2017 SAID35 WART 120100 METAR WART 120100Z 16008KT 9999 SCT020 28/22 Q1012=
12-Jul-2017 SAID35 WART 120200 METAR WART 120200Z 15011KT 9999 SCT020 28/22 Q1013=
12-Jul-2017 SAID35 WART 120300 METAR WART 120300Z 17010KT 9999 SCT020 29/22 Q1012=
12-Jul-2017 SAID35 WART 120400 METAR WART 120400Z 16009KT 9999 BKN020 29/23 Q1012=
12-Jul-2017 SAID35 WART 120500 METAR WART 120500Z 14008KT 9999 BKN020 29/22 Q1011=
12-Jul-2017 SAID35 WART 120600 METAR WART 120600Z 14009KT 9999 BKN020 30/22 Q1011=
12-Jul-2017 SAID35 WART 120800 METAR WART 120800Z 14012KT 9999 BKN2000 30/23 Q1010=
12-Jul-2017 SAID35 WART 120900 METAR WART 120900Z 11009KT 9999 BKN2000 29/23 Q1010=
13-Jul-2017 SAID35 WART 130100 METAR WART 130100Z 15007KT 9999 FEW020 28/23 Q1012=
13-Jul-2017 SAID35 WART 130200 METAR WART 130200Z 15010KT 9999 FEW020 29/23 Q1012=
13-Jul-2017 SAID35 WART 130300 METAR WART 130300Z 16010KT 9999 SCT020 30/24 Q1011=
13-Jul-2017 SAID35 WART 130400 METAR WART 130400Z 18009KT 9999 SCT020 31/24 Q1011=
13-Jul-2017 SAID35 WART 130500 METAR WART 130500Z 18006KT 9999 SCT020 31/24 Q1010=
13-Jul-2017 SAID35 WART 130600 METAR WART 130600Z 18007KT 9999 SCT020 31/24 Q1009=
13-Jul-2017 SAID35 WART 130700 METAR WART 130700Z 12009KT 9999 SCT020 31/24 Q1009=
13-Jul-2017 SAID35 WART 130800 METAR WART 130800Z 10005KT 9999 BKN020 30/24 Q1009=
13-Jul-2017 SAID35 WART 130900 METAR WART 130900Z 09012KT 9999 SCT020 30/24 Q1009=
14-Jul-2017 SAID35 WART 140100 METAR WART 140100Z 13007KT 9999 SCT020 29/24 Q1012=
14-Jul-2017 SAID35 WART 140200 METAR WART 140200Z 12107KT 9999 SCT020 30/24 Q1012=
14-Jul-2017 SAID35 WART 140300 METAR WART 140300Z 12011KT 9999 SCT020 30/24 Q1012=
14-Jul-2017 SAID35 WART 140600 METAR WART 140600Z 12009KT 9999 SCT020 31/23 Q1010=
14-Jul-2017 SAID35 WART 140700 METAR WART 140700Z 14015KT 9999 SCT020 31/23 Q1009=
14-Jul-2017 SAID35 WART 140800 METAR WART 140800Z 11010KT 9999 SCT020 30/24 Q1009=
14-Jul-2017 SAID35 WART 140900 METAR WART 140900Z 13008KT 9999 BKN020 30/24 Q1010=
17-Jul-2017 SAID35 WART 170100 METAR WART 170100Z 13007KT 9999 SCT020 27/22 Q1012=
17-Jul-2017 SAID35 WART 170200 METAR WART 170200Z 14015KT 9999 SCT020 28/22 Q1012=
17-Jul-2017 SAID35 WART 170300 METAR WART 170300Z 14018KT 9999 SCT020 28/22 Q1011=
17-Jul-2017 SAID35 WART 170400 METAR WART 170400Z 15012KT 9999 BKN019 28/22 Q1011=
17-Jul-2017 SAID35 WART 170500 METAR WART 170500Z 12012KT 9999 SCT019 29/22 Q1010=
17-Jul-2017 SAID35 WART 170600 METAR WART 170600Z 11012KT 9999 SCT020 30/22 Q1009=
17-Jul-2017 SAID35 WART 170700 METAR WART 170700Z 12015KT 9999 SCT020 29/20 Q1009=
17-Jul-2017 SAID35 WART 170800 METAR WART 170800Z 10015KT 9999 FEW020 29/20 Q1009=
17-Jul-2017 SAID35 WART 170900 METAR WART 170900Z 13010KT 9999 FEW020 29/20 Q1009=
18-Jul-2017 SAID35 WART 180200 METAR WART 180200Z 15008KT 9999 SCT2000 29/24 Q1014=
18-Jul-2017 SAID35 WART 180300 METAR WART 180300Z 16008KT 9999 BKN020 29/24 Q1013=
19-Jul-2017 SAID35 WART 190200 METAR WART 190200Z 13015KT 9999 FEW020 29/23 Q1012=
25-Jul-2017 SAID35 WART 250300 METAR WART 250300Z 19012KT 9999 FEW020 30/21 Q1011=
26-Jul-2017 SAID35 WART 260500 METAR WART 260500Z 18009KT 9999 FEW020 30/23 Q1009=
26-Jul-2017 SAID35 WART 260600 METAR WART 260600Z 13008KT 9999 FEW020 31/23 Q1008=
26-Jul-2017 SAID35 WART 260700 METAR WART 260700Z 10007KT 9999 OVC020 29/22 Q1008=
26-Jul-2017 SAID35 WART 260800 METAR WART 260800Z 12007KT 9999 FEW020 30/23 Q1008=
27-Jul-2017 SAID35 WART 270100 METAR WART 270100Z 07005KT 9999 BKN018 BKN020 29/21 Q1013=
27-Jul-2017 SAID35 WART 270200 METAR WART 270200Z 29004KT 7000 BKN020 25/24 Q1012=
27-Jul-2017 SAID35 WART 270300 METAR WART 270300Z 28006KT 9999 FEW020 27/24 Q1011=
27-Jul-2017 SAID35 WART 270400 METAR WART 270400Z 21009KT 9999 FEW020 29/25 Q1010=
27-Jul-2017 SAID35 WART 270600 METAR WART 270600Z 16007KT 9999 SCT020 29/24 Q1010=
27-Jul-2017 SAID35 WART 270700 METAR WART 270700Z 17004KT 9999 SCT020 29/24 Q1009=
28-Jul-2017 SAID35 WART 280300 METAR WART 280300Z 11012KT 9999 SCT020 29/24 Q1013=
31-Jul-2017 SAID35 WART 310100 METAR WART 310100Z 15013KT 9999 FEW020 27/21 Q1013=
31-Jul-2017 SAID35 WART 310200 METAR WART 310200Z 16013KT 9999 FEW020 28/21 Q1013=
31-Jul-2017 SAID35 WART 310300 METAR WART 310300Z 17014KT 9999 FEW020 28/21 Q1013=
31-Jul-2017 SAID35 WART 310400 METAR WART 310400Z 14013KT 9999 FEW020 29/22 Q1012=
31-Jul-2017 SAID35 WART 310500 METAR WART 310500Z 13010KT 9999 FEW020 29/21 Q1011=
31-Jul-2017 SAID35 WART 310600 METAR WART 310600Z 11015KT 9999 FEW020 30/21 Q1010=
31-Jul-2017 SAID35 WART 310700 METAR WART 310700Z 13015KT 9999 FEW020 30/21 Q1010=
31-Jul-2017 SAID35 WART 310800 METAR WART 310800Z 11013KT 9999 FEW020 29/21 Q1010=
31-Jul-2017 SAID35 WART 310900 METAR WART 310900Z 10008KT 9999 FEW020 29/21 Q1010=
01-Aug-2017 SAID35 WART 010100 METAR WART 010100Z 15011KT 9999 FEW020 28/21 Q1014=
01-Aug-2017 SAID35 WART 010200 METAR WART 010200Z 15011KT 9999 FEW020 28/21 Q1014=
01-Aug-2017 SAID35 WART 010300 METAR WART 010300Z 15008KT 9999 FEW020 29/22 Q1014=
01-Aug-2017 SAID35 WART 010400 METAR WART 010400Z 18009KT 9999 FEW020 30/22 Q1013=
01-Aug-2017 SAID35 WART 010500 METAR WART 010500Z 16013KT 9999 FEW020 30/22 Q1013=
01-Aug-2017 SAID35 WART 010600 METAR WART 010600Z 16020KT 9999 FEW020 30/21 Q1012=
01-Aug-2017 SAID35 WART 010700 METAR WART 010700Z 12017KT 9999 FEW020 30/21 Q1011=
01-Aug-2017 SAID35 WART 010800 METAR WART 010800Z 12015KT 9999 FEW020 30/21 Q1010=
02-Aug-2017 SAID35 WART 020100 METAR WART 020100Z 15008KT 9999 FEW020 28/22 Q1014=
02-Aug-2017 SAID35 WART 020200 METAR WART 020200Z 16008KT 9999 FEW020 29/22 Q1014=
02-Aug-2017 SAID35 WART 020300 METAR WART 020300Z 16007KT 9999 FEW020 29/23 Q1013=
02-Aug-2017 SAID35 WART 020400 METAR WART 020400Z 17006KT 9999 FEW020 30/22 Q1012=
02-Aug-2017 SAID35 WART 020500 METAR WART 020500Z 16007KT 9999 FEW020 31/23 Q1011=
02-Aug-2017 SAID35 WART 020600 METAR WART 020600Z 17008KT 9999 FEW020 31/23 Q1010=
02-Aug-2017 SAID35 WART 020700 METAR WART 020700Z 11015KT 9999 FEW020 30/21 Q1009=
02-Aug-2017 SAID35 WART 020800 METAR WART 020800Z 15018KT 9999 FEW020 30/22 Q1009=
03-Aug-2017 SAID35 WART 030200 METAR WART 030200Z 16014KT 9999 FEW020 28/22 Q1013=
03-Aug-2017 SAID35 WART 030300 METAR WART 030300Z 17015KT 9999 FEW020 28/21 Q1012=
03-Aug-2017 SAID35 WART 030400 METAR WART 030400Z 17009KT 9999 FEW020 29/21 Q1011=
03-Aug-2017 SAID35 WART 030600 METAR WART 030600Z 17009KT 9999 FEW020 30/22 Q1009=
03-Aug-2017 SAID35 WART 030700 METAR WART 030700Z 17009KT 9999 FEW020 30/22 Q1008=
04-Aug-2017 SAID35 WART 040100 METAR WART 040100Z 15009KT 9999 FEW020 28/21 Q1012=
04-Aug-2017 SAID35 WART 040200 METAR WART 040200Z 15012KT 9999 FEW020 28/22 Q1012=
04-Aug-2017 SAID35 WART 040300 METAR WART 040300Z 17012KT 9999 FEW020 28/21 Q1011=
04-Aug-2017 SAID35 WART 040400 METAR WART 040400Z 17012KT 9999 FEW020 29/22 Q1011=
04-Aug-2017 SAID35 WART 040500 METAR WART 040500Z 17010KT 9999 FEW020 30/22 Q1009=
04-Aug-2017 SAID35 WART 040700 METAR WART 040700Z 11010KT 9999 FEW020 30/22 Q1008=
04-Aug-2017 SAID35 WART 040800 METAR WART 040800Z 14010KT 9999 FEW020 30/22 Q1008=
07-Aug-2017 SAID35 WART 070100 METAR WART 070100Z 15008KT 9999 SCT020 28/23 Q1012=
07-Aug-2017 SAID35 WART 070200 METAR WART 070200Z 15010KT 9999 SCT020 27/23 Q1012=
07-Aug-2017 SAID35 WART 070300 METAR WART 070300Z 14007KT 9999 SCT020 29/23 Q1012=
07-Aug-2017 SAID35 WART 070400 METAR WART 070400Z 09008KT 9999 SCT020 30/22 Q1011=
07-Aug-2017 SAID35 WART 070500 METAR WART 070500Z 14007KT 9999 SCT020 30/23 Q1011=
07-Aug-2017 SAID35 WART 070700 METAR WART 070700Z 08009KT 9999 FEW020 30/24 Q1009=
07-Aug-2017 SAID35 WART 070800 METAR WART 070800Z 12011KT 9999 FEW020 30/23 Q1009=
08-Aug-2017 SAID35 WART 080100 METAR WART 080100Z 18008KT 9999 FEW020 29/24 Q1013=
08-Aug-2017 SAID35 WART 080200 METAR WART 080200Z 18005KT 9999 FEW020 29/23 Q1013=
08-Aug-2017 SAID35 WART 080300 METAR WART 080300Z 17007KT 9999 FEW020 30/24 Q1013=
08-Aug-2017 SAID35 WART 080400 METAR WART 080400Z 18006KT 9999 FEW020 31/24 Q1012=
08-Aug-2017 SAID35 WART 080500 METAR WART 080500Z 18008KT 9999 FEW020 31/24 Q1011=
08-Aug-2017 SAID35 WART 080600 METAR WART 080600Z 10009KT 9999 FEW020 31/23 Q1010=
08-Aug-2017 SAID35 WART 080700 METAR WART 080700Z 10011KT 9999 FEW020 31/23 Q1010=
09-Aug-2017 SAID35 WART 090100 METAR WART 090100Z 16007KT 9999 FEW020 29/23 Q1012=
09-Aug-2017 SAID35 WART 090200 METAR WART 090200Z 17010KT 9999 FEW020 30/23 Q1013=
09-Aug-2017 SAID35 WART 090300 METAR WART 090300Z 18007KT 9999 FEW020 29/23 Q1012=
09-Aug-2017 SAID35 WART 090400 METAR WART 090400Z 16012KT 9999 FEW020 29/23 Q1011=
09-Aug-2017 SAID35 WART 090500 METAR WART 090500Z 15009KT 9999 FEW020 29/23 Q1011=
09-Aug-2017 SAID35 WART 090600 METAR WART 090600Z 12008KT 9999 SCT020 30/23 Q1010=
09-Aug-2017 SAID35 WART 090700 METAR WART 090700Z 09003KT 9999 SCT020 30/23 Q1010=
09-Aug-2017 SAID35 WART 090800 METAR WART 090800Z 11010KT 9999 FEW020 30/23 Q1010=
10-Aug-2017 SAID35 WART 100100 METAR WART 100100Z 15003KT 9999 FEW020 28/23 Q1012=
10-Aug-2017 SAID35 WART 100200 METAR WART 100200Z 14006KT 9999 FEW020 29/22 Q1012=
10-Aug-2017 SAID35 WART 100300 METAR WART 100300Z 18006KT 9999 FEW020 30/23 Q1012=
10-Aug-2017 SAID35 WART 100400 METAR WART 100400Z 16008KT 9999 FEW020 30/23 Q1011=
10-Aug-2017 SAID35 WART 100500 METAR WART 100500Z 17011KT 9999 FEW020 30/23 Q1011=
10-Aug-2017 SAID35 WART 100600 METAR WART 100600Z 09012KT 9999 FEW020 30/23 Q1010=
10-Aug-2017 SAID35 WART 100700 METAR WART 100700Z 13012KT 9999 FEW020 30/21 Q1009=
10-Aug-2017 SAID35 WART 100800 METAR WART 100800Z 10010KT 9999 FEW020 30/22 Q1009=
11-Aug-2017 SAID35 WART 110100 METAR WART 110100Z 15006KT 9999 FEW020 28/22 Q1012=
11-Aug-2017 SAID35 WART 110200 METAR WART 110200Z 17005KT 9999 FEW020 29/22 Q1012=
11-Aug-2017 SAID35 WART 110300 METAR WART 110300Z 17010KT 9999 FEW020 29/22 Q1012=
11-Aug-2017 SAID35 WART 110400 METAR WART 110400Z 18006KT 9999 FEW020 31/22 Q1011=
11-Aug-2017 SAID35 WART 110700 METAR WART 110700Z 14004KT 9999 FEW020 30/22 Q1009=
14-Aug-2017 SAID35 WART 140100 METAR WART 140100Z 17005KT 9999 FEW020 29/23 Q1013=
14-Aug-2017 SAID35 WART 140200 METAR WART 140200Z 13011KT 9999 FEW020 30/22 Q1013=
14-Aug-2017 SAID35 WART 140300 METAR WART 140300Z 13012KT 9999 FEW020 30/22 Q1013=
14-Aug-2017 SAID35 WART 140500 METAR WART 140500Z 17009KT 9999 FEW020 30/23 Q1012=
14-Aug-2017 SAID35 WART 140600 METAR WART 140600Z 12006KT 9999 FEW020 31/23 Q1011=
14-Aug-2017 SAID35 WART 140700 METAR WART 140700Z 09007KT 9999 FEW020 31/22 Q1010=
14-Aug-2017 SAID35 WART 140800 METAR WART 140800Z 09007KT 9999 FEW020 30.4/22 Q1010=
15-Aug-2017 SAID35 WART 150100 METAR WART 150100Z 28002KT 9999 FEW020 28/21 Q1013=
15-Aug-2017 SAID35 WART 150200 METAR WART 150200Z 16010KT 9999 FEW020 29/20 Q1013=
15-Aug-2017 SAID35 WART 150300 METAR WART 150300Z 18006KT 9999 FEW020 29/20 Q1013=
15-Aug-2017 SAID35 WART 150400 METAR WART 150400Z 18009KT 9999 FEW020 29/20 Q1012=
15-Aug-2017 SAID35 WART 150500 METAR WART 150500Z 18007KT 9999 FEW020 30/21 Q1011=
15-Aug-2017 SAID35 WART 150600 METAR WART 150600Z 15007KT 9999 FEW020 30/21 Q1010=
16-Aug-2017 SAID35 WART 160100 METAR WART 160100Z 15002KT 9999 FEW020 28/23 Q1011=
16-Aug-2017 SAID35 WART 160200 METAR WART 160200Z 14007KT 9999 FEW020 28/22 Q1011=
16-Aug-2017 SAID35 WART 160300 METAR WART 160300Z 17010KT 9999 FEW020 28/23 Q1011=
16-Aug-2017 SAID35 WART 160400 METAR WART 160400Z 17006KT 9999 FEW020 29/23 Q1010=
16-Aug-2017 SAID35 WART 160700 METAR WART 160700Z 09010KT 9999 FEW020 30/22 Q1008=
16-Aug-2017 SAID35 WART 160800 METAR WART 160800Z 13008KT 9999 FEW020 30/22 Q1007=
21-Aug-2017 SAID35 WART 210100 METAR WART 210100Z 15008KT 9999 FEW020 28/21 Q1011=
21-Aug-2017 SAID35 WART 210200 METAR WART 210200Z 16009KT 9999 FEW020 29/21 Q1011=
21-Aug-2017 SAID35 WART 210300 METAR WART 210300Z 18014KT 9999 FEW020 29/24 Q1011=
21-Aug-2017 SAID35 WART 210400 METAR WART 210400Z 17009KT 9999 FEW020 28/21 Q1010=
21-Aug-2017 SAID35 WART 210500 METAR WART 210500Z 18010KT 9999 SCT020 28/21 Q1010=
21-Aug-2017 SAID35 WART 210600 METAR WART 210600Z 15010KT 9999 SCT020 29/21 Q1009=
21-Aug-2017 SAID35 WART 210700 METAR WART 210700Z 11012KT 9999 FEW020 29/20 Q1008=
21-Aug-2017 SAID35 WART 210800 METAR WART 210800Z 13010KT 9999 FEW020 29/20 Q1008=
22-Aug-2017 SAID35 WART 220100 METAR WART 220100Z 150113KT 9999 FEW020 28/21 Q1012=
22-Aug-2017 SAID35 WART 220200 METAR WART 220200Z 160113KT 9999 FEW020 28/21 Q1012=
22-Aug-2017 SAID35 WART 220300 METAR WART 220300Z 15011KT 9999 FEW020 29/22 Q1012=
22-Aug-2017 SAID35 WART 220500 METAR WART 220500Z 15009KT 9999 FEW020 30/21 Q1011=
22-Aug-2017 SAID35 WART 220600 METAR WART 220600Z 13015KT 9999 FEW020 31/20 Q1010=
22-Aug-2017 SAID35 WATR 220700 METAR WART 220700Z 10017KT 9999 SCT020 30/19 Q1015 NOSIG=
22-Aug-2017 SAID35 WART 220700 METAR WART 220700Z 11011KT 9999 FEW020 31/20 Q1009=
22-Aug-2017 SAID35 WATR 220800 METAR WART 220800Z 12011KT 9999 FEW020 29/20 Q1015 NOSIG=
22-Aug-2017 SAID35 WART 220800 METAR WART 220800Z 12013KT 9999 FEW020 31/20 Q1009=
23-Aug-2017 SAID35 WART 230100 METAR WART 230100Z 12010KT 9999 FEW020 28/22 Q1012=
23-Aug-2017 SAID35 WART 230200 METAR WART 230200Z 18012KT 9999 FEW020 29/23 Q1012=
23-Aug-2017 SAID35 WART 230300 METAR WART 230300Z 15010KT 9999 FEW020 29/23 Q1012=
23-Aug-2017 SAID35 WART 230400 METAR WART 230400Z 17012KT 9999 FEW020 30/23 Q1011=
23-Aug-2017 SAID35 WART 230500 METAR WART 230500Z 17011KT 9999 FEW020 30/23 Q1011=
23-Aug-2017 SAID35 WART 230600 METAR WART 230600Z 11014KT 9999 FEW020 31/21 Q1009=
23-Aug-2017 SAID35 WART 230700 METAR WART 230700Z 10017KT 9999 FEW020 30/21 Q1009=
24-Aug-2017 SAID35 WART 240100 METAR WART 240100Z 14014KT 9999 FEW020 29/23 Q1012=
24-Aug-2017 SAID35 WART 240700 METAR WART 240700Z 10014KT 9999 FEW020 30/23 Q1008=
24-Aug-2017 SAID35 WART 240800 METAR WART 240800Z 11013KT 9999 FEW020 30/22 Q1008=
24-Aug-2017 SAID35 WART 240900 METAR WART 240900Z 12011KT 9999 FEW020 29/22 Q1009=
25-Aug-2017 SAID35 WART 250100 METAR WART 250100Z 15007KT 9999 FEW020 29/22 Q1012=
25-Aug-2017 SAID35 WART 250200 METAR WART 250200Z 13007KT 9999 FEW020 29/22 Q1012=
25-Aug-2017 SAID35 WART 250300 METAR WART 250300Z 09013KT 9999 FEW020 30/22 Q1011=
28-Aug-2017 SAID35 WART 280100 METAR WART 280100Z 11019KT 9999 FEW020 29/21 Q1011=
28-Aug-2017 SAID35 WART 280200 METAR WART 280200Z 12016KT 9999 FEW020 30/22 Q1012=
28-Aug-2017 SAID35 WART 280300 METAR WART 280300Z 12017KT 9999 SCT020 30/23 Q1011=
28-Aug-2017 SAID35 WART 280400 METAR WART 280400Z 11012KT 9999 SCT020 30/23 Q1010=
28-Aug-2017 SAID35 WART 280500 METAR WART 280500Z 10020KT 9999 SCT020 31/23 Q1010=
28-Aug-2017 SAID35 WART 280600 METAR WART 280600Z 13012KT 9999 BKN020 29/23 Q1009=
28-Aug-2017 SAID35 WART 280700 METAR WART 280700Z 14013KT 9999 BKN020 30/23 Q1008=
28-Aug-2017 SAID35 WART 280800 METAR WART 280800Z 12015KT 9999 FEW020 29/22 Q1008=
28-Aug-2017 SAID35 WART 280900 METAR WART 280900Z 12016KT 9999 FEW020 30/21 Q1008=
29-Aug-2017 SAID35 WART 290100 METAR WART 290100Z 17008KT 9999 FEW020 29/23 Q1011=
29-Aug-2017 SAID35 WART 290200 METAR WART 290200Z 15014KT 9999 FEW020 29/21 Q1012=
29-Aug-2017 SAID35 WART 290300 METAR WART 290300Z 14011KT 9999 FEW020 30/21 Q1011=
29-Aug-2017 SAID35 WART 290400 METAR WART 290400Z 12015KT 9999 FEW020 30/22 Q1010=
29-Aug-2017 SAID35 WART 290500 METAR WART 290500Z 14013KT 9999 FEW020 31/23 Q1010=
29-Aug-2017 SAID35 WART 290600 METAR WART 290600Z 11013KT 9999 FEW020 31/21 Q1009=
30-Aug-2017 SAID35 WART 300100 METAR WART 300100Z 15007KT 9999 FEW020 28/22 Q1012=
30-Aug-2017 SAID35 WART 300200 METAR WART 300200Z 08007KT 9999 FEW020 29/21 Q1012=
30-Aug-2017 SAID35 WART 300300 METAR WART 300300Z 18009KT 9999 FEW020 28/21 Q1012=
30-Aug-2017 SAID35 WART 300400 METAR WART 300400Z 18011KT 9999 FEW020 29/22 Q1011=
30-Aug-2017 SAID35 WART 300500 METAR WART 300500Z 18010KT 9999 FEW020 29/22 Q1010=
30-Aug-2017 SAID35 WART 300600 METAR WART 300600Z 14012KT 9999 FEW020 29/22 Q1009=
30-Aug-2017 SAID35 WART 300700 METAR WART 300700Z 10010KT 9999 FEW020 29/22 Q1009=
30-Aug-2017 SAID35 WART 300800 METAR WART 300800Z 10012KT 9999 FEW020 29/22 Q1009=
30-Aug-2017 SAID35 WART 300900 METAR WART 300900Z 10009KT 9999 FEW020 29/23 Q1009=
31-Aug-2017 SAID35 WART 310100 METAR WART 310100Z 14009KT 9999 FEW020 28/22 Q1014=
31-Aug-2017 SAID35 WART 310200 METAR WART 310200Z 17008KT 9999 FEW020 29/23 Q1014=
31-Aug-2017 SAID35 WART 310500 METAR WART 310500Z 18011KT 9999 FEW020 30/23 Q1011=
31-Aug-2017 SAID35 WART 310600 METAR WART 310600Z 18006KT 9999 FEW020 30/23 Q1011=
31-Aug-2017 SAID35 WART 310700 METAR WART 310700Z 18010KT 9999 FEW020 30/22 Q1010=
31-Aug-2017 SAID35 WART 310800 METAR WART 310800Z 12011KT 9999 FEW020 30/20 Q1010=
31-Aug-2017 SAID35 WART 310900 METAR WART 310900Z 09006KT 9999 FEW020 30/18 Q1010=
05-Sep-2017 SAID35 WART 050100 METAR WART 050100Z 15006KT 9999 SCT020 29/23 Q1012=
05-Sep-2017 SAID35 WART 050400 METAR WART 050400Z 09011KT 9999 SCT020 31/24 Q1011=
05-Sep-2017 SAID35 WART 050500 METAR WART 050500Z 12015KT 9999 SCT020 31/24 Q1010=
06-Sep-2017 SAID35 WART 060200 METAR WART 060200Z 12009KT 9999 SCT020 29/23 Q1013=
06-Sep-2017 SAID35 WART 060300 METAR WART 060300Z 14012KT 9999 SCT020 29/23 Q1012=
06-Sep-2017 SAID35 WART 060400 METAR WART 060400Z 15015KT 9999 SCT020 30/24 Q1011=
06-Sep-2017 SAID35 WART 060500 METAR WART 060500Z 10017KT 9999 SCT020 31/24 Q1011=
06-Sep-2017 SAID35 WART 060600 METAR WART 060600Z 12017KT 9999 SCT020 31/24 Q1010=
06-Sep-2017 SAID35 WART 060700 METAR WART 060700Z 09012KT 9999 SCT020 31/24 Q1009=
06-Sep-2017 SAID35 WART 060800 METAR WART 060800Z 09009KT 9999 FEW020 30/23 Q1009=
07-Sep-2017 SAID35 WART 070200 METAR WART 070200Z 12020KT 9999 FEW020 30/23 Q1012=
07-Sep-2017 SAID35 WART 070400 METAR WART 070400Z 10015KT 9999 FEW020 31/23 Q1011=
07-Sep-2017 SAID35 WART 070500 METAR WART 070500Z 11013KT 9999 FEW020 30/23 Q1010=
07-Sep-2017 SAID35 WART 070600 METAR WART 070600Z 12019KT 9999 FEW020 30/24 Q1009=
07-Sep-2017 SAID35 WART 070700 METAR WART 070700Z 11013KT 9999 FEW020 31/23 Q1009=
07-Sep-2017 SAID35 WART 070800 METAR WART 070800Z 10010KT 9999 FEW020 31/24 Q1009=
07-Sep-2017 SAID35 WART 070900 METAR WART 070900Z 12015KT 9999 FEW020 30/24 Q1009=
08-Sep-2017 SAID35 WART 080100 METAR WART 080100Z 13015KT 9999 FEW020 30/24 Q1012=
08-Sep-2017 SAID35 WART 080300 METAR WART 080300Z 12011KT 9999 FEW020 31/23 Q1012=
08-Sep-2017 SAID35 WART 080700 METAR WART 080700Z 10014KT 9999 FEW020 31/23 Q1008=
08-Sep-2017 SAID35 WART 080900 METAR WART 080900Z 12016KT 9999 FEW020 30/23 Q1008=
11-Sep-2017 SAID35 WART 110100 METAR WART 110100Z 15010KT 9999 FEW020 29/23 Q1012=
11-Sep-2017 SAID35 WART 110200 METAR WART 110200Z 16012KT 9999 FEW020 29/23 Q1012=
11-Sep-2017 SAID35 WART 110300 METAR WART 110300Z 18007KT 9999 FEW020 30/23 Q1011=
11-Sep-2017 SAID35 WART 110400 METAR WART 110400Z 16009KT 9999 FEW020 31/24 Q1010=
11-Sep-2017 SAID35 WART 110500 METAR WART 110500Z 18010KT 9999 FEW020 31/25 Q1010=
11-Sep-2017 SAID35 WART 110600 METAR WART 110600Z 18008KT 9999 FEW020 31/24 Q1009=
11-Sep-2017 SAID35 WART 110700 METAR WART 110700Z 15009KT 9999 FEW020 31/23 Q1009=
11-Sep-2017 SAID35 WART 110800 METAR WART 110800Z 12009KT 9999 FEW020 31/20 Q1008=
12-Sep-2017 SAID35 WART 120300 METAR WART 120300Z 18007KT 9999 FEW020 31/23 Q1012=
12-Sep-2017 SAID35 WART 120400 METAR WART 120400Z 18005KT 9999 FEW020 31/23 Q1011=
12-Sep-2017 SAID35 WART 120500 METAR WART 120500Z 18008KT 9999 FEW020 31/21 Q1010=
12-Sep-2017 SAID35 WART 120600 METAR WART 120600Z 18011KT 9999 FEW020 31/21 Q1009=
12-Sep-2017 SAID35 WART 120700 METAR WART 120700Z 18007KT 9999 FEW020 31/23 Q1009=
12-Sep-2017 SAID35 WART 120800 METAR WART 120800Z 16005KT 9999 FEW020 31/22 Q1008=
13-Sep-2017 SAID35 WART 130100 METAR WART 130100Z 18002KT 9999 FEW020 29/31 Q1012=
13-Sep-2017 SAID35 WART 130200 METAR WART 130200Z 15009KT 9999 FEW020 30/24 Q1012=
13-Sep-2017 SAID35 WART 130300 METAR WART 130300Z 17007KT 9999 FEW020 30/23 Q1012=
13-Sep-2017 SAID35 WART 130400 METAR WART 130400Z 18014KT 9999 FEW020 30/23 Q1011=
13-Sep-2017 SAID35 WART 130500 METAR WART 130500Z 18011KT 9999 FEW020 31/23 Q1010=
13-Sep-2017 SAID35 WART 130600 METAR WART 130600Z 18011KT 9999 FEW020 31/22 Q1010=
13-Sep-2017 SAID35 WART 130700 METAR WART 130700Z 13013KT 9999 FEW020 31/22 Q1009=
13-Sep-2017 SAID35 WART 130800 METAR WART 130800Z 12007KT 9999 FEW020 31/20 Q1009=
14-Sep-2017 SAID35 WART 140100 METAR WART 140100Z 15010KT 9999 SCT020 29/23 Q1012=
14-Sep-2017 SAID35 WART 140300 METAR WART 140300Z 12010KT 9999 SCT020 30/22 Q1011=
14-Sep-2017 SAID35 WART 140400 METAR WART 140400Z 06005KT 9999 FEW020 32/24 Q1010=
14-Sep-2017 SAID35 WART 140500 METAR WART 140500Z 06005KT 9999 FEW020 32/24 Q1010=
14-Sep-2017 SAID35 WART 140600 METAR WART 140600Z 09007KT 9999 SCT020 31/23 Q1009=
14-Sep-2017 SAID35 WART 140700 METAR WART 140700Z 12013KT 9999 FEW020 31/24 Q1008=
14-Sep-2017 SAID35 WART 140800 METAR WART 140800Z 10007KT 9999 FEW020 31/22 Q1008=
15-Sep-2017 SAID35 WART 150100 METAR WART 150100Z 18007KT 9999 FEW020 29/24 Q1012=
15-Sep-2017 SAID35 WART 150200 METAR WART 150200Z 18009KT 9999 FEW020 30/24 Q1012=
15-Sep-2017 SAID35 WART 150300 METAR WART 150300Z 18014KT 9999 FEW020 30/25 Q1011=
15-Sep-2017 SAID35 WART 150400 METAR WART 150400Z 17011KT 9999 FEW020 31/23 Q1011=
15-Sep-2017 SAID35 WART 150500 METAR WART 150500Z 10017KT 9999 FEW020 32/21 Q1009=
15-Sep-2017 SAID35 WART 150600 METAR WART 150600Z 12019KT 9999 FEW020 32/22 Q1009=
15-Sep-2017 SAID35 WART 150700 METAR WART 150700Z 12015KT 9999 FEW020 32/22 Q1008=
15-Sep-2017 SAID35 WART 150800 METAR WART 150800Z 10012KT 9999 FEW020 31/21 Q1008=
18-Sep-2017 SAID35 WART 180100 METAR WART 180100Z 15007Z 9999 FEW020 29/22 1015=
18-Sep-2017 SAID35 WART 180200 METAR WART 180200Z 15012Z 9999 FEW020 29/22 1015=
18-Sep-2017 SAID35 WART 180300 METAR WART 180300Z 18009Z 9999 FEW020 30/22 1014=
18-Sep-2017 SAID35 WART 180400 METAR WART 180400Z 15009Z 9999 FEW020 30/22 1013=
18-Sep-2017 SAID35 WART 180500 METAR WART 180500Z 17007Z 9999 FEW020 31/23 1012=
18-Sep-2017 SAID35 WART 180600 METAR WART 180600Z 15005Z 9999 FEW020 30/25 1012=
18-Sep-2017 SAID35 WART 180700 METAR WART 180700Z 10013Z 9999 FEW020 32/21 1011=
18-Sep-2017 SAID35 WART 180800 METAR WART 180800Z 10011Z 9999 FEW020 31/21 1011=
19-Sep-2017 SAID35 WART 190200 METAR WART 190200Z 15007KT 9999 FEW020 29/21 1014=
19-Sep-2017 SAID35 WART 190300 METAR WART 190300Z 13014KT 9999 FEW020 30/21 1013=
19-Sep-2017 SAID35 WART 190400 METAR WART 190400Z 15008KT 9999 FEW020 30/22 1012=
19-Sep-2017 SAID35 WART 190500 METAR WART 190500Z 16007KT 9999 FEW020 30/21 1011=
19-Sep-2017 SAID35 WART 190600 METAR WART 190600Z 10007KT 9999 FEW020 31/22 1010=
19-Sep-2017 SAID35 WART 190700 METAR WART 190700Z 10005KT 9999 FEW020 31/21 1009=
19-Sep-2017 SAID35 WART 190800 METAR WART 190800Z 10010KT 9999 FEW020 31/21 1009=
20-Sep-2017 SAID35 WART 200400 METAR WART 200400Z 11014KT 9999 FEW020 31/20 Q1011=
20-Sep-2017 SAID35 WART 200500 METAR WART 200500Z 10015KT 9999 FEW020 32/20 Q1010=
22-Sep-2017 SAID35 WART 220100 METAR WART 220100Z 17008KT 9999 FEW020 29/24 Q1012=
22-Sep-2017 SAID35 WART 220200 METAR WART 220200Z 18009KT 9999 FEW020 31/24 Q1012=
22-Sep-2017 SAID35 WART 220300 METAR WART 220300Z 17012KT 9999 FEW020 30/23 Q1011=
22-Sep-2017 SAID35 WART 220400 METAR WART 220400Z 18012KT 9999 FEW020 31/23 Q1011=
22-Sep-2017 SAID35 WART 220500 METAR WART 220500Z 15014KT 9999 FEW020 32/23 Q1010=
22-Sep-2017 SAID35 WART 220600 METAR WART 220600Z 15017KT 9999 FEW020 31/24 Q1009=
22-Sep-2017 SAID35 WART 220700 METAR WART 220700Z 10013KT 9999 FEW020 32/26 Q1009=
22-Sep-2017 SAID35 WART 220800 METAR WART 220800Z 12009KT 9999 FEW020 32/22 Q1009=
25-Sep-2017 SAID35 WART 250100 METAR WART 250100Z 15003KT 9999 SCT020 27/25 Q1011=
25-Sep-2017 SAID35 WART 250200 METAR WART 250200Z 12013KT 9999 BKN020 28/24 Q1011=
25-Sep-2017 SAID35 WART 250300 METAR WART 250300Z 10017KT 9999 BKN020 29/25 Q1010=
25-Sep-2017 SAID35 WART 250400 METAR WART 250400Z 13010KT 9999 BKN020 31/25 Q1009=
25-Sep-2017 SAID35 WART 250500 METAR WART 250500Z 10017KT 9999 SCT020 31/24 Q1009=
25-Sep-2017 SAID35 WART 250700 METAR WART 250700Z 12012KT 9999 SCT020 31/25 Q1007=
25-Sep-2017 SAID35 WART 250800 METAR WART 250800Z 12012KT 9999 SCT020 31/24 Q1007=
25-Sep-2017 SAID35 WART 250900 METAR WART 250900Z 09007KT 9999 FEW020 31/25 Q1007=
26-Sep-2017 SAID35 WART 260100 METAR WART 260100Z 13010KT 9999 BKN020 30/24 Q1012=
26-Sep-2017 SAID35 WART 260200 METAR WART 260200Z 14010KT 9999 BKN020 31/25 Q1012=
26-Sep-2017 SAID35 WART 260300 METAR WART 260300Z 15015KT 9999 BKN020 31/25 Q1011=
26-Sep-2017 SAID35 WART 260500 METAR WART 260500Z 11012KT 9999 SCT020 32/25 Q1010=
26-Sep-2017 SAID35 WART 260700 METAR WART 260700Z 12010KT 9999 SCT020 31/24 Q1008=
26-Sep-2017 SAID35 WART 260800 METAR WART 260800Z 10007KT 9999 SCT020 31/25 Q1008=
27-Sep-2017 SAID35 WART 270100 METAR WART 270100Z 13015KT 9999 SCT020 29/25 Q1012=
27-Sep-2017 SAID63 WART 270200 METAR WART 270200Z 12017KT 9999 SCT020 31/25 Q1012=
27-Sep-2017 SAID35 WART 270300 METAR WART 270300Z 12010KT 9999 SCT020 31/25 Q1012=
27-Sep-2017 SAID35 WART 270400 METAR WART 270400Z 11020KT 9999 SCT020 32/25 Q1011=
27-Sep-2017 SAID35 WART 270500 METAR WART 270500Z 11014KT 9999 SCT020 32/25 Q1010=
27-Sep-2017 SAID35 WART 270600 METAR WART 270600Z 12011KT 9999 SCT020 32/25 Q1009=
27-Sep-2017 SAID35 WART 270700 METAR WART 270700Z 12011KT 9999 SCT020 31/25 Q1009=
28-Sep-2017 SAID35 WART 280100 METAR WART 280100Z 15007KT 9999 SCT020 30/25 Q1012=
28-Sep-2017 SAID35 WART 280200 METAR WART 280200Z 18009KT 9999 SCT020 30/25 Q1012=
28-Sep-2017 SAID35 WART 280300 METAR WART 280300Z 17012KT 9999 SCT020 30/26 Q1012=
28-Sep-2017 SAID35 WART 280400 METAR WART 280400Z 17011KT 9999 FEW020 31/26 Q1011=
28-Sep-2017 SAID35 WART 280500 METAR WART 280500Z 11010KT 9999 FEW020 32/25 Q1010=
28-Sep-2017 SAID35 WART 280600 METAR WART 280600Z 10011KT 9999 FEW020 32/24 Q1009=
28-Sep-2017 SAID35 WART 280700 METAR WART 280700Z 08010KT 9999 FEW020 32/24 Q1008=
28-Sep-2017 SAID35 WART 280800 METAR WART 280800Z 12009KT 9999 FEW020 32/24 Q1008=
28-Sep-2017 SAID35 WART 280900 METAR WART 280900Z 10007KT 9999 FEW020 31/23 Q1009=
29-Sep-2017 SAID35 WART 290100 METAR WART 290100Z 15007KT 9999 FEW020 30/26 Q1012=
29-Sep-2017 SAID63 WART 290200 METAR WART 290200Z 15009KT 9999 FEW020 30/26 Q1012=
29-Sep-2017 SAID63 WART 290300 METAR WART 290300Z 18007KT 9999 FEW020 32/26 Q1012=
29-Sep-2017 SAID63 WART 290400 METAR WART 290400Z 20012KT 9999 FEW020 32/26 Q1011=
29-Sep-2017 SAID63 WART 290500 METAR WART 290500Z 10009KT 9999 FEW020 32/24 Q1010=
29-Sep-2017 SAID63 WART 290600 METAR WART 290600Z 09014KT 9999 FEW020 32/24 Q1009=
29-Sep-2017 SAID63 WART 290700 METAR WART 290700Z 11019KT 9999 FEW020 31/25 Q1009=
29-Sep-2017 SAID63 WART 290800 METAR WART 290800Z 100114KT 9999 FEW020 31/25 Q1008=
29-Sep-2017 SAID63 WART 290900 METAR WART 290900Z 11014KT 9999 FEW020 31/25 Q1008=
30-Sep-2017 SAID35 WART 300600 METAR WART 300600Z 18008KT 9999 FEW020 32/25 Q1009=
30-Sep-2017 SAID35 WART 300700 METAR WART 300700Z 16012KT 9999 FEW020 31/25 Q1009=
30-Sep-2017 SAID35 WART 300800 METAR WART 300800Z 09015KT 9999 FEW020 32/23 Q1008=
03-Oct-2017 SAID35 WART 030300 METAR WART 030300Z 14013KT 9999 SCT020 31/24 Q1011=
03-Oct-2017 SAID35 WART 030400 METAR WART 030400Z 18010KT 9999 FEW020 32/25 Q1010=
03-Oct-2017 SAID35 WART 030500 METAR WART 030500Z 11015KT 9999 FEW020 32/23 Q1010=
03-Oct-2017 SAID35 WART 030700 METAR WART 030700Z 09006KT 9999 FEW020 33/24 Q1008=
04-Oct-2017 SAID35 WART 040100 METAR WART 040100Z 16007KT 9999 FEW020 31/25 Q1011=
04-Oct-2017 SAID35 WART 040200 METAR WART 040200Z 17011KT 9999 FEW020 31/24 Q1011=
04-Oct-2017 SAID35 WART 040300 METAR WART 040300Z 17012KT 9999 FEW020 32/24 Q1011=
04-Oct-2017 SAID35 WART 040400 METAR WART 040400Z 18011KT 9999 SCT020 32/25 Q1010=
04-Oct-2017 SAID35 WART 040500 METAR WART 040500Z 10014KT 9999 FEW020 32/24 Q1010=
04-Oct-2017 SAID35 WART 040600 METAR WART 040600Z 13010KT 9999 FEW020 33/24 Q1009=
04-Oct-2017 SAID35 WART 040700 METAR WART 040700Z 10009KT 9999 FEW020 33/24 Q1008=
04-Oct-2017 SAID35 WART 040800 METAR WART 040800Z 11010KT 9999 FEW020 33/24 Q1008=
04-Oct-2017 SAID35 WART 040900 METAR WART 040900Z 12008KT 9999 FEW020 32/23 Q1008=
05-Oct-2017 SAID35 WART 050100 METAR WART 050100Z 12009KT 9999 FEW020 31/24 Q1011=
05-Oct-2017 SAID35 WART 050200 METAR WART 050200Z 10011KT 9999 FEW020 32/25 1011=
05-Oct-2017 SAID35 WART 050300 METAR WART 050300Z 17012KT 9999 FEW020 32/25 Q1011=
05-Oct-2017 SAID35 WART 050400 METAR WART 050400Z 19008KT 9999 FEW020 32/25 Q1010=
05-Oct-2017 SAID35 WART 050500 METAR WART 050500Z 19010KT 9999 FEW020 32/25 Q1010=
05-Oct-2017 SAID35 WART 050600 METAR WART 050600Z 18010KT 9999 FEW020 32/26 Q1009=
05-Oct-2017 SAID35 WART 050700 METAR WART 050700Z 09014KT 9999 FEW020 33/25 Q1008=
05-Oct-2017 SAID35 WART 050800 METAR WART 050800Z 09008KT 9999 FEW020 32/26 Q1008=
05-Oct-2017 SAID35 WART 050900 METAR WART 050900Z 11009KT 9999 FEW020 31/26 Q1008=
06-Oct-2017 SAID35 WART 060100 METAR WART 060100Z 08005KT 9999 FEW020 31/25 Q1010=
06-Oct-2017 SAID35 WART 060200 METAR WART 060200Z 11010KT 9999 FEW020 32/25 Q1010=
06-Oct-2017 SAID35 WART 060300 METAR WART 060300Z 09011KT 9999 FEW020 32/25 Q1010=
06-Oct-2017 SAID35 WART 060400 METAR WART 060400Z 09011KT 9999 FEW020 33/25 Q1009=
06-Oct-2017 SAID35 WART 060600 METAR WART 060600Z 12009KT 9999 FEW020 33/24 Q1007=
06-Oct-2017 SAID35 WART 060700 METAR WART 060700Z 09009KT 9999 FEW020 33/24 Q1006=
06-Oct-2017 SAID35 WART 060800 METAR WART 060800Z 10007KT 9999 FEW020 32/24 Q1006=
07-Oct-2017 SAID35 WART 070030 METAR WART 070030Z 23005KT 9999 FEW020 30/25 Q1009=
07-Oct-2017 SAID35 WART 070100 METAR WART 070100Z 17004KT 9999 FEW020 31/23 Q1009=
07-Oct-2017 SAID35 WART 070200 METAR WART 070200Z 16007KT 9999 FEW020 32/25 Q1009=
07-Oct-2017 SAID35 WART 070300 METAR WART 070300Z 16008KT 9999 FEW020 32/26 Q1009=
07-Oct-2017 SAID35 WART 070400 METAR WART 070400Z 16008KT 9999 FEW020 30/26 Q1009=
07-Oct-2017 SAID35 WART 070500 METAR WART 070500Z 17010KT 9999 FEW020 32/25 Q1008=
07-Oct-2017 SAID35 WART 072300 METAR WART 072300Z 28004KT 9999 FEW020 26/24 Q1008=
08-Oct-2017 SAID35 WART 080030 METAR WART 080030Z 20003KT 9999 FEW020 29/25 Q1009=
08-Oct-2017 SAID35 WART 081200 METAR WART 081200Z 11009KT 9999 FEW020 29/23 Q1007=
09-Oct-2017 SAID35 WART 090100 METAR WART 090100Z 17011KT 9999 FEW020 30/25 Q1009=
09-Oct-2017 SAID35 WART 090200 METAR WART 090200Z 18012KT 9999 FEW020 31/25 Q1008=
09-Oct-2017 SAID35 WART 090300 METAR WART 090300Z 18013KT 9999 SCT020 31/25 Q1008=
09-Oct-2017 SAID35 WART 090400 METAR WART 090400Z 18010KT 9999 SCT020 32/26 Q1007=
09-Oct-2017 SAID35 WART 090500 METAR WART 090500Z 11010KT 9999 SCT020 33/24 Q1006=
09-Oct-2017 SAID35 WART 090900 METAR WART 090900Z 10008KT 9999 FEW020 32/24 Q1004=
10-Oct-2017 SAID35 WART 100100 METAR WART 100100Z 18007KT 9999 FEW020 31/26 Q1008=
10-Oct-2017 SAID35 WART 100200 METAR WART 100200Z 15009KT 9999 FEW020 31/26 Q1008=
10-Oct-2017 SAID35 WART 100300 METAR WART 100300Z 17011KT 9999 FEW020 32/26 Q1008=
10-Oct-2017 SAID35 WART 100400 METAR WART 100400Z 18009KT 9999 FEW020 32/26 Q1007=
10-Oct-2017 SAID35 WART 100500 METAR WART 100500Z 18010KT 9999 FEW020 33/26 Q1006=
10-Oct-2017 SAID35 WART 100600 METAR WART 100600Z 18010KT 9999 FEW020 32/26 Q1005=
10-Oct-2017 SAID35 WART 100700 METAR WART 100700Z 11012KT 9999 FEW019CB FEW020 33/25 Q1005=
10-Oct-2017 SAID35 WART 100800 METAR WART 100800Z 09008KT 9999 FEW019CB FEW020 33/25 Q1005=
10-Oct-2017 SAID35 WART 100900 METAR WART 100900Z 10006KT 9999 FEW019CB FEW020 32/25 Q1004=
11-Oct-2017 SAID35 WART 110100 METAR WART 110100Z 15009KT 9999 FEW020 31/24 Q1009=
11-Oct-2017 SAID35 WART 110200 METAR WART 110200Z 18013KT 9999 FEW020 31/26 Q1009=
11-Oct-2017 SAID35 WART 110300 METAR WART 110300Z 18010KT 9999 FEW020 31/26 Q1008=
11-Oct-2017 SAID35 WART 110400 METAR WART 110400Z 18012KT 9999 FEW020 31/26 Q1008=
11-Oct-2017 SAID35 WART 110700 METAR WART 110700Z 10012KT 9999 SCT020 32/24 Q1006=
11-Oct-2017 SAID35 WART 110900 METAR WART 110900Z 10014KT 9999 FEW020 31/22 Q1006=
12-Oct-2017 SAID35 WART 120100 METAR WART 120100Z 16009KT 9999 SCT020 30/26 Q1000=
12-Oct-2017 SAID35 WART 120300 METAR WART 120300Z 16007KT 9999 FEW020 31/25 Q1009=
12-Oct-2017 SAID35 WART 120400 METAR WART 120400Z 12013KT 9999 FEW020 33/24 Q1008=
12-Oct-2017 SAID35 WART 120500 METAR WART 120500Z 18009KT 9999 FEW020 32/25 Q1007=
12-Oct-2017 SAID35 WART 120600 METAR WART 120600Z 09008KT 9999 FEW020 33/25 Q1006=
12-Oct-2017 SAID35 WART 120700 METAR WART 120700Z 10008KT 9999 FEW020 33/26 Q1006=
12-Oct-2017 SAID35 WART 120800 METAR WART 120800Z 08007KT 9999 FEW020 33/25 Q1005=
13-Oct-2017 SAID35 WART 130100 METAR WART 130100Z 17005KT 9999 FEW020 30/24 Q1010=
13-Oct-2017 SAID35 WART 130200 METAR WART 130200Z 18012KT 9999 FEW020 31/24 Q1010=
13-Oct-2017 SAID35 WART 130300 METAR WART 130300Z 18010KT 9999 FEW020 33/25 Q1009=
13-Oct-2017 SAID35 WART 130400 METAR WART 130400Z 13010KT 9999 FEW020 33/24 Q1008=
13-Oct-2017 SAID35 WART 130500 METAR WART 130500Z 15009KT 9999 FEW020 33/25 Q1007=
13-Oct-2017 SAID35 WART 130700 METAR WART 130700Z 11011KT 9999 FEW020 33/24 Q1005=
13-Oct-2017 SAID35 WART 130800 METAR WART 130800Z 09011KT 9999 FEW020 32/23 Q1005=
16-Oct-2017 SAID35 WART 160100 METAR WART 160100Z 25004KT 9999 SCT020 30/25 Q1010=
16-Oct-2017 SAID35 WART 160300 METAR WART 160300Z 15007KT 9999 FEW019CB FEW020 31/25 Q1009=
16-Oct-2017 SAID35 WART 160400 METAR WART 160400Z 15009KT 9999 FEW019CB FEW020 32/25 Q1008=
16-Oct-2017 SAID35 WART 160500 METAR WART 160500Z 14012KT 9999 SCT020 33/25 Q1007=
16-Oct-2017 SAID35 WART 160600 METAR WART 160600Z 31017KT 9999 SCT019CB SCT020 33/25 Q1007=
16-Oct-2017 SAID35 WART 160700 METAR WART 160700Z 15006KT 9999 FEW019CBFEW020 32/24 Q1006=
17-Oct-2017 SAID35 WART 170100 METAR WART 170100Z 20007KT 9999 FEW019CB SCT020 31/26 Q1011=
17-Oct-2017 SAID35 WART 170200 METAR WART 170200Z 18011KT 9999 FEW019CB SCT020 31/26 Q1011=
17-Oct-2017 SAID35 WART 170400 METAR WART 170400Z 31006KT 6000 TS BKN019CB 26/23 Q1011=
17-Oct-2017 SAID35 WART 170500 METAR WART 170500Z 06003KT 5000 SCT019CB FEW2000 27/23 Q1010=
17-Oct-2017 SAID35 WART 170600 METAR WART 170600Z 33003KT 5000 SCT019CB FEW2000 28/25 Q1009=
17-Oct-2017 SAID35 WART 170700 METAR WART 170700Z 33005KT 7000 FEW019CB FEW2000 29/25 Q1008=
17-Oct-2017 SAID35 WART 170800 METAR WART 170800Z 31004KT 7000 FEW019CB FEW2000 29/25 Q1008=
17-Oct-2017 SAID35 WART 170900 METAR WART 170900Z 02003KT 7000 FEW019CB FEW2000 28/25 Q1007=
18-Oct-2017 SAID35 WART 180100 METAR WART 180100Z 27003KT 9999 FEW020 29/25 Q1011=
18-Oct-2017 SAID35 WART 180200 METAR WART 180200Z 20003KT 9999 FEW020 31/26 Q1010=
18-Oct-2017 SAID35 WART 180300 METAR WART 180300Z 15004KT 9999 FEW020 32/26 Q1010=
18-Oct-2017 SAID35 WART 180400 METAR WART 180400Z 18007KT 9999 FEW020 33/27 Q1009=
18-Oct-2017 SAID35 WART 180500 METAR WART 180500Z 15009KT 9999 FEW020 33/26 Q1009=
18-Oct-2017 SAID35 WART 180600 METAR WART 180600Z 18007KT 9999 FEW019CB FEW020TCU 33/26 Q1007=
18-Oct-2017 SAID35 WART 180700 METAR WART 180700Z 03004Z 9000 FEW019CB FEW020TCU 33/28 Q1007=
18-Oct-2017 SAID35 WART 180800 METAR WART 180800Z 07009KT 9999 FEW020 33/24 Q1006=
18-Oct-2017 SAID35 WART 180900 METAR WART 180900Z 08005KT 9999 FEW2000 32/25 Q1007=
19-Oct-2017 SAID35 WART 190100 METAR WART 190100Z 19008KT 9999 FEW2000 31/26 Q1012=
19-Oct-2017 SAID35 WART 190200 METAR WART 190200Z 19008KT 9999 FEW2000 31/26 Q1012=
19-Oct-2017 SAID35 WART 190300 METAR WART 190300Z 18006KT 9999 FEW2000 32/26 Q1011=
19-Oct-2017 SAID35 WART 190400 METAR WART 190400Z 18007KT 9999 FEW2000 32/25 Q1010=
19-Oct-2017 SAID35 WART 190500 METAR WART 190500Z 17009KT 9999 FEW2000 33/26 Q1009=
19-Oct-2017 SAID35 WART 190600 METAR WART 190600Z 18007KT 9999 FEW2000 33/25 Q1008=
19-Oct-2017 SAID35 WART 190700 METAR WART 190700Z 17005KT 9999 FEW2000 34/25 Q1008=
19-Oct-2017 SAID35 WART 190800 METAR WART 190800Z 09006KT 9999 FEW2000 34/24 Q1007=
19-Oct-2017 SAID35 WART 190900 METAR WART 190900Z 09005KT 9999 FEW2000 33/25 Q1007=
20-Oct-2017 SAID35 WART 200200 METAR WART 200200Z 22008KT 9999 FEW2000 32/25 Q1012=
20-Oct-2017 SAID35 WART 200300 METAR WART 200300Z 19010KT 9999 FEW2000 33/26 Q1012=
20-Oct-2017 SAID35 WART 200400 METAR WART 200400Z 21006KT 9999 FEW2000 34/24 Q1011=
20-Oct-2017 SAID35 WART 200500 METAR WART 200500Z 18014KT 9999 FEW2000 33/24 Q1010=
20-Oct-2017 SAID35 WART 200600 METAR WART 200600Z 18007KT 9999 FEW2000 33/24 Q1009=
20-Oct-2017 SAID35 WART 200700 METAR WART 200700Z 15006KT 9999 FEW2000 33/25 Q1008=
20-Oct-2017 SAID35 WART 200800 METAR WART 200800Z 15007KT 9999 FEW2000 32/24 Q1008=
23-Oct-2017 SAID35 WART 230100 METAR WART 230100Z 15013KT 9999 FEW2000 30/24 Q1011=
23-Oct-2017 SAID35 WART 230200 METAR WART 230200Z 18015KT 9999 FEW2000 30/24 Q1011=
23-Oct-2017 SAID35 WART 230300 METAR WART 230300Z 15004KT 9999 FEW2000 31/24 Q1011=
23-Oct-2017 SAID35 WART 230400 METAR WART 230400Z 18006KT 9999 FEW2000 32/24 Q1010=
23-Oct-2017 SAID35 WART 230500 METAR WART 230500Z 09007KT 9999 FEW2000 33/25 Q1009=
23-Oct-2017 SAID35 WART 230600 METAR WART 230600Z 11010KT 9999 FEW2000 33/24 Q1008=
23-Oct-2017 SAID35 WART 230700 METAR WART 230700Z 09012KT 9999 FEW2000 33/25 Q1008=
23-Oct-2017 SAID35 WART 230800 METAR WART 230800Z 09016KT 9999 FEW2000 33/22 Q1008=
23-Oct-2017 SAID35 WART 230900 METAR WART 230900Z 08010KT 9999 FEW2000 32/22 Q1008=
24-Oct-2017 SAID35 WART 240200 METAR WART 240200Z 22002KT 9999 FEW2000 33/26 Q1013=
24-Oct-2017 SAID35 WART 240300 METAR WART 240300Z 21012KT 9999 SCT2000 33/26 Q1012=
24-Oct-2017 SAID35 WART 240400 METAR WART 240400Z 34010KT 9999 SCT2000 30/22 Q1012=
24-Oct-2017 SAID35 WART 240500 METAR WART 240500Z 31018KT 9999 SCT2000 30/23 Q1011=
24-Oct-2017 SAID35 WART 240600 METAR WART 240600Z 29008KT 9999 FEW2000 33/24 Q1010=
24-Oct-2017 SAID35 WART 240700 METAR WART 240700Z 30011KT 9999 FEW2000 34/24 Q1010=
24-Oct-2017 SAID35 WART 240800 METAR WART 240800Z 06003KT 9999 SCT2000 31/25 Q1009=
25-Oct-2017 SAID35 WART 250100 METAR WART 250100Z 12006KT 9999 FEW020 31/24 Q1013=
25-Oct-2017 SAID35 WART 250200 METAR WART 250200Z 09003KT 9999 SCT020 32/25 Q1013=
25-Oct-2017 SAID35 WART 250300 METAR WART 250300Z 18006KT 9999 SCT020 33/25 Q1013=
25-Oct-2017 SAID35 WART 250400 METAR WART 250400Z 18009KT 9999 FEW020 33/25 Q1011=
26-Oct-2017 SAID35 WART 260100 METAR WART 260100Z 20004KT 9999 SCT020 30/25 Q1012=
26-Oct-2017 SAID35 WART 260200 METAR WART 260200Z 18006KT 9999 SCT020 31/25 Q1012=
26-Oct-2017 SAID35 WART 260300 METAR WART 260300Z 18006KT 9999 FEW018 CB SCT020 32/25 Q1012=
27-Oct-2017 SAID35 WART 270200 METAR WART 270200Z 19007KT 9999 FEW018CB FEW020 33/27 Q1012=
27-Oct-2017 SAID35 WART 270300 METAR WART 270300Z 18007KT 9999 FEW018CB SCT020 32/26 Q1010=
27-Oct-2017 SAID35 WART 270400 METAR WART 270400Z 15012KT 9999 FEW018CB SCT020 31/26 Q1010=
27-Oct-2017 SAID35 WART 270600 METAR WART 270600Z 18006KT 9999 SCT020 33/26 Q1008=
27-Oct-2017 SAID35 WART 270700 METAR WART 270700Z 11010KT 9999 SCT020 33/24 Q1007=
27-Oct-2017 SAID35 WART 270800 METAR WART 270800Z 09007KT 9999 FEW020 33/24 Q1007=
30-Oct-2017 SAID35 WART 300800 METAR WART 300800Z 17007KT 9999 FEW020 33/23 Q1006=
31-Oct-2017 SAID35 WART 310100 METAR WART 310100Z 23006KT 9999 FEW020 31/24 Q1010=
31-Oct-2017 SAID35 WART 310200 METAR WART 310200Z 17004KT 9999 FEW020 32/26 Q1010=
31-Oct-2017 SAID35 WART 310300 METAR WART 310300Z 17008KT 9999 FEW020 33/26 Q1009=
31-Oct-2017 SAID35 WART 310400 METAR WART 310400Z 18007KT 9999 FEW020 33/25 Q1008=
31-Oct-2017 SAID35 WART 310500 METAR WART 310500Z 15006KT 9999 FEW020 33/25 Q1008=
31-Oct-2017 SAID35 WART 310600 METAR WART 310600Z 17009KT 9999 FEW020TCU 33/25 Q1007=
31-Oct-2017 SAID35 WART 310700 METAR WART 310700Z 18008KT 9999 FEW020TCU 32/25 Q1006=
31-Oct-2017 SAID35 WART 310800 METAR WART 310800Z 18004KT 9999 FEW020TCU 32/22 Q1006=
01-Nov-2017 SAID35 WART 010100 METAR WART 010100Z 24007KT 9999 FEW020 31/24 Q1010=
01-Nov-2017 SAID35 WART 010200 METAR WART 010200Z 21004KT 9999 FEW020 32/25 Q1010=
01-Nov-2017 SAID35 WART 010500 METAR WART 010500Z 18009KT 9999 FEW020 33/25 Q1007=
01-Nov-2017 SAID35 WART 010600 METAR WART 010600Z 15013KT 9999 FEW020 33/25 Q1006=
01-Nov-2017 SAID35 WART 010700 METAR WART 010700Z 15007KT 9999 FEW020 33/25 Q1006=
01-Nov-2017 SAID35 WART 010800 METAR WART 010800Z 15007KT 9999 FEW020 33/24 Q1005=
02-Nov-2017 SAID35 WART 020100 METAR WART 020100Z 18005KT 9999 FEW020 31/26 Q1009=
02-Nov-2017 SAID35 WART 020200 METAR WART 020200Z 15006KT 9999 SCT018 32/26 Q1009=
02-Nov-2017 SAID35 WART 020300 METAR WART 020300Z 19009KT 9999 SCT2000FEWCB1800 33/26 Q1008=
02-Nov-2017 SAID35 WART 020400 METAR WART 020400Z 18009KT 9999 SCT2000FEWCB1800 33/26 Q1008=
02-Nov-2017 SAID35 WART 020500 METAR WART 020500Z 18011KT 9999 FEW018CB FEW020 33/25 Q1007=
02-Nov-2017 SAID35 WART 020600 METAR WART 020600Z 18015KT 9999 SCT017CB SCT020 34/25 Q1006=
02-Nov-2017 SAID35 WART 020700 METAR WART 020700Z 10012KT 9999 FEW017CB SCT020 34/24 Q1005=
02-Nov-2017 SAID35 WART 020800 METAR WART 020800Z 09010KT 9999 FEW018CB SCT020 32/26 Q1005=
03-Nov-2017 SAID35 WART 030100 METAR WART 030100Z 00000KT 9999 FEW020 31/26 Q1008=
03-Nov-2017 SAID35 WART 030200 METAR WART 030200Z 15006KT 9999 SCT020 32/26 Q1008=
03-Nov-2017 SAID35 WART 030300 METAR WART 030300Z 18012KT 9999 FEW018CB FEW020 32/25 Q1008=
03-Nov-2017 SAID35 WART 030400 METAR WART 030400Z 16010KT 9999 FEW019CB FEW020 32/24 Q1007=
03-Nov-2017 SAID35 WART 030500 METAR WART 030500Z 11007KT 9999 FEW019CB FEW020 33/24 Q1006=
03-Nov-2017 SAID35 WART 030600 METAR WART 030600Z 10010KT 9999 FEW019CB FEW020 34/24 Q1005=
03-Nov-2017 SAID35 WART 030700 METAR WART 030700Z 11011KT 9999 FEW020 33/24 Q1004=
03-Nov-2017 SAID35 WART 030800 METAR WART 030800Z 12013KT 9999 FEW020 33/25 Q1004=
06-Nov-2017 SAID35 WART 060100 METAR WART 060100Z 11006KT 9999 FEW020 30/25 Q1009=
06-Nov-2017 SAID35 WART 060700 METAR WART 060700Z 10013KT 9999 FEW020 32/25 Q1005=
06-Nov-2017 SAID35 WART 060800 METAR WART 060800Z 11010KT 9999 FEW020CB 31/25 Q1005=
07-Nov-2017 SAID35 WART 070100 METAR WART 070100Z 15008KT 9999 SCT020 30/26 Q1009=
07-Nov-2017 SAID35 WART 070200 METAR WART 070200Z 08010KT 9999 FEW018CBSCT020 31/26 Q1009=
07-Nov-2017 SAID35 WART 070500 METAR WART 070500Z 18008KT 9999 SCTCB020 31/26 Q1007=
07-Nov-2017 SAID35 WART 070700 METAR WART 070700Z 11010KT 9999 SCTCB020 32/26 Q1006=
08-Nov-2017 SAID35 WART 080100 METAR WART 080100Z 00000KT 9999 FEW020 28/25 Q1009=
08-Nov-2017 SAID35 WART 080200 METAR WART 080200Z 19004KT 9999 FEW020 30/26 Q1008=
08-Nov-2017 SAID35 WART 080300 METAR WART 080300Z 20006KT 9999 SCT020 31/26 Q1008=
08-Nov-2017 SAID35 WART 080400 METAR WART 080400Z 180008KT 9999 SCT020 31/26 Q1007=
08-Nov-2017 SAID35 WART 080500 METAR WART 080500Z 18009KT 9999 FEW018CB FEW020 32/26 Q1006=
08-Nov-2017 SAID35 WART 080600 METAR WART 080600Z 18006KT 9999 SCTCB018 FEW020 32/26 Q1005=
08-Nov-2017 SAID35 WART 080800 METAR WART 080800Z 12010KT 9999 FEW019CB FEW020 33/25 Q1005=
09-Nov-2017 SAID35 WART 090100 METAR WART 090100Z 21007KT 9999 FEW020 30/25 Q1008=
09-Nov-2017 SAID35 WART 090200 METAR WART 090200Z 18004KT 9999 FEW020 31/26 Q1008=
09-Nov-2017 SAID35 WART 090300 METAR WART 090300Z 18005KT 9999 FEW020 32/26 Q1008=
09-Nov-2017 SAID35 WART 090500 METAR WART 090500Z 10010KT 9999 FEW020 33/26 Q1006=
09-Nov-2017 SAID35 WART 090600 METAR WART 090600Z 17010KT 9999 FEW020 33/25 Q1006=
09-Nov-2017 SAID35 WART 090700 METAR WART 090700Z 12010KT 9999 FEW019CB FEW020 34/22 Q1005=
09-Nov-2017 SAID35 WART 090800 METAR WART 090800Z 13009KT 9999 FEW019CB FEW020 34/25 Q1005=
09-Nov-2017 SAID35 WATS 091000 METAR WART 090930Z 16006KT 9999 FEW016 31/25 Q1007=
09-Nov-2017 SAID35 WATS 091000 METAR WART 091000Z 17006KT 9999 FEW017 30/25 Q1007=
10-Nov-2017 SAID35 WART 100100 METAR WART 100100Z 21005KT 9999 FEW020 31/26 Q1009=
10-Nov-2017 SAID35 WART 100200 METAR WART 100200Z 21008KT 9999 SCT020 32/26 Q1010=
10-Nov-2017 SAID35 WART 100300 METAR WART 100300Z 18009KT 8000 SCT020 32/27 Q1009=
10-Nov-2017 SAID35 WART 100400 METAR WART 100400Z 19005KT 8000 FEW019CB SCT020 32/26 Q1008=
10-Nov-2017 SAID35 WART 100500 METAR WART 100500Z 15004KT 8000 FEW019CB SCT020 33/26 Q1007=
10-Nov-2017 SAID35 WART 100600 METAR WART 100600Z 10007KT 8000 FEW019CB SCT020 33/24 Q1007=
10-Nov-2017 SAID35 WART 100800 METAR WART 100800Z 33004KT 8000 FEW019CB SCT020 31/26 Q1006=
12-Nov-2017 SAID35 WART 120500 METAR WART 120500Z 17006KT 9999 FEW020 32/25 Q1007=
12-Nov-2017 SAID35 WART 120600 METAR WART 120600Z 17007KT 9999 FEW020 33/25 Q1005=
12-Nov-2017 SAID35 WART 120700 METAR WART 120700Z 18006KT 9999 FEW019CB 32/25 Q1005=
12-Nov-2017 SAID35 WART 120800 METAR WART 120800Z 13002KT 9999 FEW020 32/26 Q1005=
13-Nov-2017 SAID35 WART 130100 METAR WART 130100Z 30005KT 9999 SCTCB020 29/25 Q1009=
13-Nov-2017 SAID35 WART 130200 METAR WART 130200Z 27009KT 9999 SCTCB020 30/25 Q1008=
13-Nov-2017 SAID35 WART 130300 METAR WART 130300Z 24006KT 9999 SCTCB020 30/24 Q1008=
13-Nov-2017 SAID35 WART 130500 METAR WART 130500Z 31015KT 1000 TSRA BKNCB018 25/24 Q1008=
14-Nov-2017 SAID35 WART 140100 METAR WART 140100Z 06003KT 8000 FEW019CB FEW020 28/26 Q1009=
14-Nov-2017 SAID35 WART 140200 METAR WART 140200Z 09005KT 8000 FEW019CB FEW020 28/26 Q1010=
14-Nov-2017 SAID35 WART 140300 METAR WART 140300Z 09009KT 7000 RA FEW018CB SCT020 29/25 Q1009=
14-Nov-2017 SAID35 WART 140400 METAR WART 140400Z 10012KT 8000 FEW018CB SCT020 29/26 Q1009=
14-Nov-2017 SAID35 WART 140600 METAR WART 140600Z 11012KT 9999 FEW018CB SCT020 30/26 Q1007=
14-Nov-2017 SAID35 WART 140700 METAR WART 140700Z 10008KT 9999 FEW019CB SCT020 31/26 Q1006=
15-Nov-2017 SAID35 WART 150100 METAR WART 150100Z 00000KT 3000 SCT019CB FEW020 26/25 Q1011=
15-Nov-2017 SAID35 WART 150300 METAR WART 150300Z 00000KT 5000 SCT019CB FEW020 26/25 Q1010=
15-Nov-2017 SAID35 WART 150400 METAR WART 150400Z 00000KT 5000 SCT019CB FEW020 26/25 Q1010=
15-Nov-2017 SAID35 WART 150500 METAR WART 150500Z 30006KT 6000 SCT019CB FEW020 26/25 Q1009=
15-Nov-2017 SAID35 WART 150600 METAR WART 150600Z 32008KT 7000 SCT019CB FEW020 27/26 Q1008=
15-Nov-2017 SAID35 WART 150700 METAR WART 150700Z 32012KT 8000 SCT019CB FEW020 27/25 Q1007=
15-Nov-2017 SAID35 WART 150800 METAR WART 150800Z 31004KT 8000 FEW019CB FEW020 28/25 Q1007=
16-Nov-2017 SAID35 WART 160100 METAR WART 160100Z 24005KT 8000 FEW019CB SCT020 27/26 Q1010=
16-Nov-2017 SAID35 WART 160200 METAR WART 160200Z 33009KT 7000 SCT019CB FEW020 27/26 Q1009=
16-Nov-2017 SAID35 WART 160300 METAR WART 160300Z 34010KT 6000 TSRA SCT018CB FEW020 25/24 Q1010=
16-Nov-2017 SAID35 WART 160400 METAR WART 160400Z 03007KT 3000 TSRA BKN018CB 24/24 Q1010=
16-Nov-2017 SAID35 WART 160500 METAR WART 160500Z 07006KT 6000 TSRA BKN018CB 24/23 Q1009=
16-Nov-2017 SAID35 WART 160600 METAR WART 160600Z 09003KT 6000 TSRA BKN018CB 24/24 Q1008=
16-Nov-2017 SAID35 WART 160700 METAR WART 160700Z 12003KT 6000 RA BKN018CB 24/24 Q1008=
16-Nov-2017 SAID35 WART 160800 METAR WART 160800Z 27004KT 6000 RA SCT019CB FEW020 25/24 Q1007=
17-Nov-2017 SAID35 WART 170100 METAR WART 170100Z 29001KT 9999 FEW020 28/26 Q1009=
17-Nov-2017 SAID35 WART 170200 METAR WART 170200Z 16003KT 9999 FEW020 29/26 Q1009=
17-Nov-2017 SAID35 WART 170500 METAR WART 170500Z 18007KT 9999 SCT019CB 30/26 Q1007=
17-Nov-2017 SAID35 WART 170600 METAR WART 170600Z 03006KT 7000 SCT019CB 29/26 Q1007=
17-Nov-2017 SAID35 WART 170700 METAR WART 170700Z 33003KT 7000 SCT019CB 29/25 Q1006=
17-Nov-2017 SAID35 WART 170800 METAR WART 170800Z 30003KT 8000 FEW019CB 29/25 Q1006=
17-Nov-2017 SAID35 WART 170900 METAR WART 170900Z 20003KT 8000 FEW019CB 30/25 Q1006=
20-Nov-2017 SAID35 WART 200100 METAR WART 200100Z 31004KT 9999 FEW020 28/26 Q1009=
20-Nov-2017 SAID35 WART 200200 METAR WART 200200Z 00000KT 9999 FEW020 29/25 Q1009=
20-Nov-2017 SAID35 WART 200300 METAR WART 200300Z 17005KT 9999 FEW018CB FEW020 30/25 Q1009=
20-Nov-2017 SAID35 WART 200400 METAR WART 200400Z 10007KT 9999 FEW018CB SCT020 31/25 Q1008=
20-Nov-2017 SAID35 WART 200500 METAR WART 200500Z 18009KT 9999 FEW018CB SCT020 31/25 Q1007=
20-Nov-2017 SAID35 WART 200600 METAR WART 200600Z 18007KT 9999 FEW018CB FEW020 31/26 Q1006=
20-Nov-2017 SAID35 WART 200700 METAR WART 200700Z 15008KT 9999 FEW018CB FEW020 30/26 Q1006=
20-Nov-2017 SAID35 WART 200800 METAR WART 200800Z 25023KT 0500 TSRA FEW016CB SCT018 27/25 Q1006=
21-Nov-2017 SAID35 WART 210100 METAR WART 210100Z 00000KT 9999 FEW019CB SCT020 27/25 Q1008=
21-Nov-2017 SAID35 WART 210200 METAR WART 210200Z 31012KT 3000 TSRA SCT018CB FEW020 25/24 Q1009=
21-Nov-2017 SAID35 WART 210300 METAR WART 210300Z 30008KT 5000 TSRA SCT018CB FEW020 24/24 Q1009=
21-Nov-2017 SAID35 WART 210400 METAR WART 210400Z 31005KT 6000 RA SCT019CB FEW020 25/24 Q1008=
21-Nov-2017 SAID35 WART 210500 METAR WART 210500Z 30002KT 7000 FEW019CB SCT020 26/25 Q1007=
21-Nov-2017 SAID35 WART 210600 METAR WART 210600Z 33005KT 9000 FEW019CB SCT020 27/26 Q1006=
21-Nov-2017 SAID35 WART 210700 METAR WART 210700Z 33004KT 9000 FEW019CB SCT020 27/26 Q1006=
22-Nov-2017 SAID35 WART 220100 METAR WART 220100Z 00000KT 8000 FEW019CB SCT020 28/26 Q1007=
22-Nov-2017 SAID35 WART 220200 METAR WART 220200Z 33004KT 9999 FEW019CB SCT020 29/26 Q1007=
22-Nov-2017 SAID35 WART 220400 METAR WART 220400Z 00000KT 9999 FEW019CB SCT020 29/26 Q1006=
22-Nov-2017 SAID35 WART 220500 METAR WART 220500Z 33007KT 9999 FEW019CB FEW020 29/26 Q1006=
22-Nov-2017 SAID35 WART 220600 METAR WART 220600Z 32005KT 9999 FEW019CB FEW020 29/26 Q1005=
22-Nov-2017 SAID35 WART 220700 METAR WART 220700Z 34006KT 8000 FEW019CB FEW020 29/26 Q1004=
22-Nov-2017 SAID35 WART 220800 METAR WART 220800Z 33004KT 9999 SCT020 29/26 Q1004=
23-Nov-2017 SAID35 WART 230100 METAR WART 230100Z 00000KT 9999 FEW020 28/26 Q1007=
23-Nov-2017 SAID35 WART 230300 METAR WART 230300Z 34005KT 9999 FEW020 30/26 Q1006=
23-Nov-2017 SAID35 WART 230400 METAR WART 230400Z 32004KT 8000 FEW018CB SCT020 31/26 Q1006=
23-Nov-2017 SAID35 WART 230500 METAR WART 230500Z 33007KT 8000 FEW018CB SCT020 30/26 Q1005=
23-Nov-2017 SAID35 WART 230600 METAR WART 230600Z 33006KT 8000 FEW018CB SCT020 30/26 Q1004=
23-Nov-2017 SAID35 WART 230700 METAR WART 230700Z 35005KT 8000 FEW018CB SCT020 30/26 Q1003=
24-Nov-2017 SAID35 WART 240100 METAR WART 240100Z 04001KT 9999 FEW019CB SCT020 27/26 Q1008=
24-Nov-2017 SAID35 WART 240200 METAR WART 240200Z 04006KT 4000 FEW019CB SCT020 28/26 Q1008=
24-Nov-2017 SAID35 WART 240300 METAR WART 240300Z 34008KT 4000 FEW019CB SCT020 28/26 Q1008=
24-Nov-2017 SAID35 WART 240400 METAR WART 240400Z 20003KT 4000 FEW018CB SCT020 26/24 Q1008=
24-Nov-2017 SAID35 WART 240700 METAR WART 240700Z 33003KT 5000 FEW018CB BKN020 25/24 Q1007=
24-Nov-2017 SAID35 WART 240800 METAR WART 240800Z 34002KT 6000 FEW019CB SCT020 25/25 Q1006=
27-Nov-2017 SAID35 WART 270100 METAR WART 270100Z 17004KT 9999 SCT020 28/24 Q1007=
27-Nov-2017 SAID35 WART 270300 METAR WART 270300Z 00000KT 9999 FEWCB019 SCT020 28/26 Q1006=
27-Nov-2017 SAID35 WART 270400 METAR WART 270400Z 18005KT 9999 FEWCB019 SCT020 29/26 Q1005=
27-Nov-2017 SAID35 WART 270500 METAR WART 270500Z 15004KT 9999 FEWCB019 SCT020 30./25 Q1005=
27-Nov-2017 SAID35 WART 270600 METAR WART 270600Z 36004KT 9999 FEWCB019 FEW020 29/26 Q1004=
27-Nov-2017 SAID35 WART 270700 METAR WART 270700Z 23017KT 3000TS RAFEWCB018 SCT020 28./24 Q1004=
28-Nov-2017 SAID35 WART 280100 METAR WART 280100Z 35003KT 8000 FEWCB018 FEW020 27/26 Q1006=
28-Nov-2017 SAID35 WART 280300 METAR WART 280300Z 00000KT 8000 FEWCB018 FEW020 28/26 Q1007=
28-Nov-2017 SAID35 WART 280400 METAR WART 280400Z 05003KT 9000 FEWCB018 FEW020 29/27 Q1007=
28-Nov-2017 SAID35 WART 280500 METAR WART 280500Z 35002KT 9999 FEW020 30/26 Q1005=
28-Nov-2017 SAID35 WART 280700 METAR WART 280700Z 35003KT 9999 FEW020 31/25 Q1004=
29-Nov-2017 SAID35 WART 290100 METAR WART 290100Z 33002KT 9999 FEW020 28/25 Q1008=
29-Nov-2017 SAID35 WART 290200 METAR WART 290200Z 00000KT 9999 FEW020 29/25 Q1008=
29-Nov-2017 SAID35 WART 290300 METAR WART 290300Z 19004KT 9999 FEW018CB FEW020 30/26 Q1007=
29-Nov-2017 SAID35 WART 290400 METAR WART 290400Z 18004KT 9999 FEW018CB FEW020 31/27 Q1006=
29-Nov-2017 SAID35 WART 290600 METAR WART 290600Z 03004KT 8000 FEW018CB FEW020 30/27 Q1005=
30-Nov-2017 SAID35 WART 300100 METAR WART 300100Z 09002KT 9999 FEW020 28/25 Q1007=
30-Nov-2017 SAID35 WART 300200 METAR WART 300200Z 10004KT 9999 SCT020 29/26 Q1008=
30-Nov-2017 SAID35 WART 300300 METAR WART 300300Z 09008KT 9999 SCT020 30/26 Q1007=
30-Nov-2017 SAID35 WART 300400 METAR WART 300400Z 10009KT 9999 FEW020 30/26 Q1007=
30-Nov-2017 SAID35 WART 300500 METAR WART 300500Z 07004KT 9999 SCT020 31/26 Q1006=
30-Nov-2017 SAID35 WART 300600 METAR WART 300600Z 10007KT 9999 SCT020 30/26 Q1005=
30-Nov-2017 SAID35 WART 300700 METAR WART 300700Z 05002KT 9999 FEW020 31/26 Q1004=
30-Nov-2017 SAID35 WART 300800 METAR WART 300800Z 33007KT 9999 FEW020 31/26 Q1004=
01-Dec-2017 SAID35 WART 010600 METAR WART 010600Z 31023KT 1000 RA FEW017CB FEW020 25/24 Q1007=
02-Dec-2017 SAID35 WART 020500 METAR WART 020500Z 31010KT 9999 FEW018CB FEW020 30/26 Q1006=
02-Dec-2017 SAID35 WART 020700 METAR WART 020700Z 31014KT 9999 FEW018CB FEW020 31/26 Q1005=
03-Dec-2017 SAID35 WART 030500 METAR WART 030500Z AUTO 33010KT 9999 SCT020 32/24 Q1006=
04-Dec-2017 SAID35 WART 040100 METAR WART 040100Z AUTO 32006KT 9000 FEW020 31/25 Q1008=
04-Dec-2017 SAID35 WART 040200 METAR WART 040200Z AUTO 29006KT 9000 SCT020 31/26 Q1008=
04-Dec-2017 SAID35 WART 040300 METAR WART 040300Z 32006KT 290V350 9000 FEW019TCU SCT020 32/25 Q1007=
04-Dec-2017 SAID35 WART 040400 METAR WART 040400Z 31010KT 270V330 9999 FEW019TCU FEW020 33/24 Q1007=
05-Dec-2017 SAID35 WART 050100 METAR WART 050100Z AUTO 03003KT 9999 SCT020 29/26 Q1008=
05-Dec-2017 SAID35 WART 050200 METAR WART 050200Z AUTO 03003KT 140V210 8000 SCT020 30/26 Q1008=
05-Dec-2017 SAID35 WART 050300 METAR WART 050300Z AUTO 15007KT 120V180 8000 SCT020 31/26 Q1008=
05-Dec-2017 SAID35 WART 050500 METAR WART 050500Z AUTO 35002KT 8000 FEW018CB SCT020 29/23 Q1007=
05-Dec-2017 SAID35 WART 050600 METAR WART 050600Z AUTO 32002KT 240V360 8000 FEW018CB SCT020 30/26 Q1006=
05-Dec-2017 SAID35 WART 050700 METAR WART 050700Z AUTO 02004KT 8000 FEW018CB SCT020 31/26 Q1006=
05-Dec-2017 SAID35 WART 050800 METAR WART 050800Z AUTO 03006KT 8000 FEW018CB SCT020 31/26 Q1005=
06-Dec-2017 SAID35 WART 060100 METAR WART 060100Z AUTO 21004KT 9999 FEW018 30/26 Q1008=
06-Dec-2017 SAID35 WART 060200 METAR WART 060200Z AUTO 20005KT 9999 FEW018CB SCT020 32/24 Q1008=
06-Dec-2017 SAID35 WART 060300 METAR WART 060300Z AUTO 19006KT 9999 FEW018CB SCT020 32/26 Q1008=
06-Dec-2017 SAID35 WART 060400 METAR WART 060400Z AUTO 17007KT 9999 FEW018CB SCT020 31/26 Q1007=
06-Dec-2017 SAID35 WART 060500 METAR WART 060500Z AUTO 24002KT 9999 FEW018CB SCT020 30/26 Q1007=
06-Dec-2017 SAID35 WART 060600 METAR WART 060600Z AUTO 20008KT 6000 TSRA FEW018CB SCT020 27/26 Q1006=
06-Dec-2017 SAID35 WART 060700 METAR WART 060700Z AUTO 22003KT 6000 FEW018CB SCT020 28/26 Q1006=
06-Dec-2017 SAID35 WART 060800 METAR WART 060800Z AUTO 25003KT 8000 SCT020 30/25 Q1006=
07-Dec-2017 SAID35 WART 070100 METAR WART 070100Z AUTO 09001KT 9000 SCT020 30/25 Q1008=
07-Dec-2017 SAID35 WART 070200 METAR WART 070200Z AUTO 13003KT 9999 SCT020 30/25 Q1008=
07-Dec-2017 SAID35 WART 070300 METAR WART 070300Z AUTO 10006KT 9999 SCT020 32/26 Q1008=
07-Dec-2017 SAID35 WART 070400 METAR WART 070400Z AUTO 02007KT 7000 TS FEW019CB FEW020 31/26 Q1008=
07-Dec-2017 SAID35 WART 070500 METAR WART 070500Z AUTO 26010KT 4000 TSRA SCT019CB SCT020 28/26 Q1008=
07-Dec-2017 SAID35 WART 070600 METAR WART 070600Z AUTO 08006KT 6000 TSRA FEW019CB FEW020 27/25 Q1008=
07-Dec-2017 SAID35 WART 070700 METAR WART 070700Z AUTO 06002KT 7000 FEW019CB FEW020 28/25 Q1007=
07-Dec-2017 SAID35 WART 070800 METAR WART 070800Z AUTO 01005KT 9000 FEW020 29/27 Q1007=
08-Dec-2017 SAID35 WART 080200 METAR WART 080200Z AUTO VRB02KT 8000 FEWTCU018 28/25 Q1011=
08-Dec-2017 SAID35 WART 080300 METAR WART 080300Z AUTO VRB02KT 8000 FEWTCU018 30/25 Q1010=
08-Dec-2017 SAID35 WART 080400 METAR WART 080400Z AUTO 18005KT 150V230 8000 FEWTCU016 30/25 Q1009=
08-Dec-2017 SAID35 WART 080600 METAR WART 080600Z 35015KT 320V050 7000 TSRA SCT016CB 29/26 Q1008=
08-Dec-2017 SAID35 WART 080700 METAR WART 080700Z 34009KT 9000 FEW016 30/25 Q1007=
09-Dec-2017 SAID35 WART 090500 METAR WART 090500Z 22011KT 9999 SCT020 31/26 Q1008=
09-Dec-2017 SAID35 WART 090600 METAR WART 090600Z 14003KT 140V200 9999 FEW020 32/25 Q1007=
09-Dec-2017 SAID35 WART 090630 METAR WART 090630Z 23008KT 9999 FEW020 32/24 Q1007=
11-Dec-2017 SAID35 WART 110200 METAR WART 110200Z AUTO 35007KT 9999 FEW1800FT 30/25 Q1011=
11-Dec-2017 SAID35 WART 110300 METAR WART 110300Z AUTO 10005KT 9999 FEW1800FT 30/26 Q1011=
11-Dec-2017 SAID35 WART 110400 METAR WART 110400Z AUTO 11004KT 9999 FEW1800CBFT SCT2000FT 30/24 Q1010=
11-Dec-2017 SAID35 WART 110500 METAR WART 110500Z AUTO 35009KT 9999 FEW1800CBFT SCT2000FT 27/25 Q1010=
11-Dec-2017 SAID35 WART 110600 METAR WART 110600Z AUTO 34008KT 9999 FEW1800CBFT SCT2000FT 28/25 Q1009=
11-Dec-2017 SAID35 WART 110700 METAR WART 110700Z AUTO 33006KT 9999 FEW1800CBFT SCT2000FT 28/25 Q1008=
12-Dec-2017 SAID35 WART 120100 METAR WART 120100Z 00000KT 9999 SCT020 27/25 Q1012=
13-Dec-2017 SAID35 WART 130400 METAR WART 130400Z AUTO 16007KT 130V190 9999 SCT020 31/26 Q1009=
13-Dec-2017 SAID35 WART 130500 METAR WART 130500Z AUTO 31003KT 8000 FEW018CB SCT020 28/26 Q1009=
13-Dec-2017 SAID35 WART 130600 METAR WART 130600Z AUTO 13006KT 8000 FEW018CB SCT020 30/25 Q1008=
13-Dec-2017 SAID35 WART 130700 METAR WART 130700Z AUTO 06003KT 030V100 8000 FEW018CB SCT020 30/26 Q1007=
13-Dec-2017 SAID35 WART 130800 METAR WART 130800Z AUTO 34006KT 8000 FEW018CB SCT020 30/25 Q1007=
14-Dec-2017 SAID35 WART 140100 METAR WART 140100Z AUTO 10002KT 9999 RA FEW018CB 27/25 Q1010=
14-Dec-2017 SAID35 WART 140200 METAR WART 140200Z AUTO 01003KT VRB02KT 9999 RERA SCT020 28/25 Q1011=
14-Dec-2017 SAID35 WART 140300 METAR WART 140300Z AUTO 36001KT 9999 SCT020 29/24 Q1010=
14-Dec-2017 SAID35 WART 140400 METAR WART 140400Z AUTO 04001KT VRB02KT 9999 SCT020 30/25 Q1010=
14-Dec-2017 SAID35 WART 140500 METAR WART 140500Z AUTO 35003KT VRB02KT 9999 FEW018CB SCT020 31/24 Q1009=
14-Dec-2017 SAID35 WART 140600 METAR WART 140600Z AUTO 34005KT 9999 FEW018CB SCT020 31/26 Q1008=
14-Dec-2017 SAID35 WART 140700 METAR WART 140700Z AUTO 36009KT 8000 RA FEW018CB SCT020 30/26 Q1008=
14-Dec-2017 SAID35 WART 140800 METAR WART 140800Z AUTO 35008KT 8000 RERA SCT020 29/26 Q1007=
15-Dec-2017 SAID35 WART 150100 METAR WART 150100Z AUTO 26007KT 9999 FEW020 30/24 Q1010=
15-Dec-2017 SAID35 WART 150400 METAR WART 150400Z AUTO 31005KT 280V340 9999 SCT020 31/24 Q1009=
15-Dec-2017 SAID35 WART 150500 METAR WART 150500Z AUTO 30007KT 9999 SCT020 31/24 Q1008=
18-Dec-2017 SAID35 WART 180100 METAR WART 180100Z 29009KT 9999 FEW020 29/24 Q1010=
18-Dec-2017 SAID35 WART 180200 METAR WART 180200Z 28008KT 9999 SCT020 30/25 Q1010=
18-Dec-2017 SAID35 WART 180300 METAR WART 180300Z 24007KT 9999 SCT020 30/24 Q1010=
18-Dec-2017 SAID35 WART 180400 METAR WART 180400Z 22007KT 9999 FEW018CB SCT020 31/25 Q1009=
18-Dec-2017 SAID35 WART 180500 METAR WART 180500Z 34011KT 9999 FEW017CB SCT019 28/25 Q1009=
18-Dec-2017 SAID35 WART 180700 METAR WART 180700Z 35009KT 9999 FEW018CB SCT020 28/25 Q1008=
19-Dec-2017 SAID35 WART 190100 METAR WART 190100Z AUTO 28007KT 9999 FEW018 28/23 Q1009=
19-Dec-2017 SAID35 WART 190200 METAR WART 190200Z AUTO 27014KT 9999 SCT020 29/22 Q1009=
19-Dec-2017 SAID35 WART 190300 METAR WART 190300Z AUTO 28008KT 9999 SCT020 30/23 Q1009=
19-Dec-2017 SAID35 WART 190400 METAR WART 190400Z AUTO 28010KT 9999 SCT020 30/24 Q1009=
19-Dec-2017 SAID35 WART 190500 METAR WART 190500Z AUTO 32010KT 280V340 9999 SCT020 31/25 Q1008=
19-Dec-2017 SAID35 WART 190600 METAR WART 190600Z AUTO 31012KT 9999 SCT020 31/25 Q1007=
19-Dec-2017 SAID35 WART 190700 METAR WART 190700Z AUTO 29015KT 9999 FEW018TCU 31/24 Q1006=
19-Dec-2017 SAID35 WART 190800 METAR WART 190800Z AUTO 30014KT 9999 FEW018CB 31/25 Q1006=
25-Dec-2017 SAID35 WART 250500 METAR WART 250500Z AUTO 28006KT 250V300 9999 FEW020 33/20 Q1005=
25-Dec-2017 SAID35 WART 250600 METAR WART 250600Z AUTO 36011KT 9999 FEW020 33/23 Q1004=
25-Dec-2017 SAID35 WART 250700 METAR WART 250700Z AUTO 34008KT 9999 FEW020 33/22 Q1003=
27-Dec-2017 SAID35 WART 270100 METAR WART 270100Z AUTO 30008KT 8000 SCT020 28/25 Q1009=
27-Dec-2017 SAID35 WART 270200 METAR WART 270200Z AUTO 28008KT 250V320 9999 SCT020 31/26 Q1009=
27-Dec-2017 SAID35 WART 270300 METAR WART 270300Z AUTO 30011KT 9999 SCT018 31/25 Q1008=
27-Dec-2017 SAID35 WART 270400 METAR WART 270400Z AUTO 30013KT 9999 SCT018 31/25 Q1008=
27-Dec-2017 SAID35 WART 270500 METAR WART 270500Z AUTO 32014KT 9999 SCT018 31/26 Q1007=
27-Dec-2017 SAID35 WART 270600 METAR WART 270600Z AUTO 31013KT 9999 SCT019 31/25 Q1007=
28-Dec-2017 SAID35 WART 280100 METAR WART 280100Z AUTO 30005KT 9999 FEW020 28/25 Q1009=
28-Dec-2017 SAID35 WART 280200 METAR WART 280200Z AUTO 29010KT 9999 SCT020 29/25 Q1009=
28-Dec-2017 SAID35 WART 280300 METAR WART 280300Z AUTO 31010KT 9999 SCT020 29/25 Q1009=
28-Dec-2017 SAID35 WART 280400 METAR WART 280400Z AUTO 32015KT 9999 FEW020 31/25 Q1008=
28-Dec-2017 SAID35 WART 280500 METAR WART 280500Z AUTO 31015KT 9999 FEW020 31/24 Q1007=
28-Dec-2017 SAID35 WART 280600 METAR WART 280600Z AUTO 32012KT 9999 FEW020 31/25 Q1007=
28-Dec-2017 SAID35 WART 280700 METAR WART 280700Z AUTO 30013KT 9999 FEW020 31/25 Q1006=
28-Dec-2017 SAID35 WART 280800 METAR WART 280800Z AUTO 33010KT 9999 FEW020 30/25 Q1006=
02-Jan-2018 SAID35 WART 020100 METAR WART 020100Z 00000KT 9999 FEW020 29/26 Q1008=
02-Jan-2018 SAID35 WART 020400 METAR WART 020400Z 09006KT 9999 FEW018CB SCT020 29/26 Q1007=
03-Jan-2018 SAID35 WART 030600 METAR WART 030600Z 11007KT 9999 SCT020 31/27 Q1006=
03-Jan-2018 SAID35 WART 030700 METAR WART 030700Z 10008KT 9999 FEW018CB FEW020 31/27 Q1005=
05-Jan-2018 SAID35 WART 050100 METAR WART 050100Z AUTO 19904KT 9999 FEW020 29/26 Q1008=
05-Jan-2018 SAID35 WART 050200 METAR WART 050200Z AUTO 22003KT 180V250 9999 SCT020 30/25 Q1008=
05-Jan-2018 SAID35 WART 050500 METAR WART 050500Z AUTO 31003KT 270V340 9000 FEW019CB FEW020 29/25 Q1007=
05-Jan-2018 SAID35 WART 050600 METAR WART 050600Z AUTO 06006KT 020V090 7000 RA FEW019CB SCT020 28/25 Q1007=
05-Jan-2018 SAID35 WART 050700 METAR WART 050700Z AUTO 36018KT 5000 TS FEW019CB SCT020 26/25 Q1006=
05-Jan-2018 SAID35 WART 050800 METAR WART 050800Z AUTO 35005KT 6000 FEW018CB SCT020 25/25 Q1006=
08-Jan-2018 SAID35 WART 080200 METAR WART 080200Z AUTO 12003KT 9999 SCT020 29/26 Q1009=
08-Jan-2018 SAID35 WART 080300 METAR WART 080300Z AUTO 13003KT 360V170 9999 SCT020 30/26 Q1009=
08-Jan-2018 SAID35 WART 080400 METAR WART 080400Z AUTO 10003KT 040V130 9999 SCT020 30/26 Q1009=
08-Jan-2018 SAID35 WART 080500 METAR WART 080500Z AUTO 11006KT 080V140 9999 SCT019 30/27 Q1008=
08-Jan-2018 SAID35 WART 080600 METAR WART 080600Z AUTO 34009KT 9999 SCT019 31/27 Q1008=
08-Jan-2018 SAID35 WART 080700 METAR WART 080700Z AUTO 34010KT 9999 FEW019CB SCT020 30/27 Q1007=
11-Jan-2018 SAID35 WART 110100 METAR WART 110100Z AUTO 28004KT 9999 FEW019CB SCT020 28/25 Q1009=
11-Jan-2018 SAID35 WART 110200 METAR WART 110200Z AUTO 25004KT 220V280 9999 SCT020 29/25 Q1009=
11-Jan-2018 SAID35 WART 110300 METAR WART 110300Z AUTO 27008KT 9999 SCT020 29/24 Q1009=
11-Jan-2018 SAID35 WART 110400 METAR WART 110400Z AUTO 26009KT 9999 SCT020 31/25 Q1008=
11-Jan-2018 SAID35 WART 110500 METAR WART 110500Z AUTO 28009KT 9999 SCT020 31/25 Q1008=
11-Jan-2018 SAID35 WART 110700 METAR WART 110700Z AUTO 27011KT 9999 SCT020 31/24 Q1006=
12-Jan-2018 SAID35 WART 120800 METAR WART 120800Z AUTO 31008KT 9999 FEW019CB FEW020 29/25 Q1006=
15-Jan-2018 SAID35 WART 150100 METAR WART 150100Z AUTO 28005KT 210V320 9999 FEW018 29/25 Q1008=
15-Jan-2018 SAID35 WART 150200 METAR WART 150200Z AUTO 29008KT 9999 FEW018 29/25 Q1008=
18-Jan-2018 SAID35 WART 180500 METAR WART 180500Z 31004KT 290V350 9999 FEW018CB SCT020 30/26 Q1006=
24-Jan-2018 SAID35 WART 240100 METAR WART 240100Z AUTO 33009KT 8000 FEW019CB SCT020 29/27 Q1006=
28-Jan-2018 SAID35 WART 280230 METAR WART 280230Z 33008KT 9999 TS FEW018CB SCT020 25/24 Q1007=
29-Jan-2018 SAID35 WART 290100 METAR WART 290100Z AUTO 28011KT 250V310 1500 TSRA SCT018CB FEW019 26/26 Q1007=
29-Jan-2018 SAID35 WART 290200 METAR WART 290200Z AUTO 30011KT 5000 TSRA SCT018CB FEW020 26/25 Q1007=
17-Mar-2022 SAID35 WART 170800 METAR WART 170800Z 30003KT 9999 SCT020 33/27 Q1003=
17-Mar-2022 SAID35 WART 170900 METAR WART 170900Z 34004KT 9999 SCT020 30/27 Q1003 NOSIG=
07-Sep-2022 SAID35 WART 070800 METAR WART 070800Z 10011KT 9999 FEW020 31/25 Q1008 NOSIG=
07-Sep-2022 SAID35 WART 070900 METAR WART 070900Z 11012KT 9999 FEW020 31/25 Q1008 NOSIG=
09-Sep-2022 SAID35 WART 090100 METAR WART 090100Z AUTO 21005KT 200V260 9999 FEW018CB SCT020 28/28 Q1013=
09-Sep-2022 SAID35 WART 090200 METAR WART 090200Z AUTO 10005KT 160V220 9999 FEW018CB SCT020 31/28 Q1013=
09-Sep-2022 SAID35 WART 090300 METAR WART 090300Z AUTO 20010KT 150V230 9999 SCT018CB SCT020 31/26 Q1013=
09-Sep-2022 SAID35 WART 090400 METAR WART 090400Z AUTO 23005KT 200V310 9999 SCT017CB SCT018 30/26 Q1012=
09-Sep-2022 SPID35 WART 090416 SPECI WART 090416Z 34005KT 9999 TS SCT017CB SCT018 29/26 Q1012=
13-Sep-2022 SAID35 WART 130200 METAR WART 130200Z 16010KT 9999 FEW020 32/23 Q1012 NOSIG=
13-Sep-2022 SAID35 WART 130300 METAR WART 130300Z 13011KT 9999 FEW020 33/24 Q1012 NOSIG=
13-Sep-2022 SAID35 WART 130400 METAR WART 130400Z 12011KT 9999 FEW020 34/24 Q1012 NOSIG=
13-Sep-2022 SAID35 WART 130500 METAR WART 130500Z 10013KT 9999 FEW020 33/23 Q1011 NOSIG=
13-Sep-2022 SAID35 WART 130600 METAR WART 130600Z 11014KT 9999 FEW020 34/24 Q1010 NOSIG=
13-Sep-2022 SAID35 WART 130700 METAR WART 130700Z 12014KT 9999 FEW020 33/23 Q1010 NOSIG=
13-Sep-2022 SAID35 WART 130800 METAR WART 130800Z 13014KT 9999 FEW020 32/23 Q1010 NOSIG=
14-Sep-2022 SAID35 WART 140100 METAR WART 140100Z 15014KT 9999 FEW020 30/24 Q1013 NOSIG=
14-Sep-2022 SAID35 WART 140200 METAR WART 140200Z 14010KT 9999 FEW020 31/23 Q1014 NOSIG=
14-Sep-2022 SAID35 WART 140300 METAR WART 140300Z 16008KT 9999 FEW020 31/23 Q1014 NOSIG=
14-Sep-2022 SAID35 WART 140400 METAR WART 140400Z 15007KT 9999 FEW020 32/24 Q1013 NOSIG=
14-Sep-2022 SAID35 WART 140500 METAR WART 140500Z 10006KT 9999 FEW020 33/22 Q1012 NOSIG=
14-Sep-2022 SAID35 WART 140600 METAR WART 140600Z 12010KT 9999 FEW020 33/23 Q1012 NOSIG=
14-Sep-2022 SAID35 WART 140700 METAR WART 140700Z 11012KT 9999 FEW020 33/22 Q1011 NOSIG=
14-Sep-2022 SAID35 WART 140800 METAR WART 140800Z 10010KT 9999 FEW020 33/22 Q1010 NOSIG=
15-Sep-2022 SAID35 WART 150100 METAR WART 150100Z 18006KT 130V220 9999 FEW020 30/28 Q1012 NOSIG=
15-Sep-2022 SAID35 WART 150200 METAR WART 150200Z 16013KT 9999 FEW020 31/25 Q1012 NOSIG=
15-Sep-2022 SAID35 WART 150300 METAR WART 150300Z 16011KT 9999 FEW020 32/24 Q1012 NOSIG=
15-Sep-2022 SAID35 WART 150400 METAR WART 150400Z 16012KT 9999 FEW020 33/24 Q1011 NOSIG=
15-Sep-2022 SAID35 WART 150500 METAR WART 150500Z 12009KT 9999 FEW020 34/25 Q1010 NOSIG=
15-Sep-2022 SAID35 WART 150600 METAR WART 150600Z 10009KT 9999 FEW020 32/23 Q1009 NOSIG=
15-Sep-2022 SAID35 WART 150700 METAR WART 150700Z 10010KT 9999 FEW020 33/23 Q1009 NOSIG=
15-Sep-2022 SAID35 WART 150800 METAR WART 150800Z 11009KT 9999 FEW020 33/23 Q1009 NOSIG=
15-Sep-2022 SAID35 WART 150900 METAR WART 150900Z 12011KT 9999 FEW020 31/23 Q1009 NOSIG=
16-Sep-2022 SAID35 WART 160100 METAR WART 160100Z 16010KT 9999 FEW020 30/26 Q1012 NOSIG=
16-Sep-2022 SAID35 WART 160200 METAR WART 160200Z 16010KT 9999 FEW020 31/25 Q1012 NOSIG=
16-Sep-2022 SAID35 WART 160300 METAR WART 160300Z 17009KT 9999 FEW020 32/24 Q1012 NOSIG=
16-Sep-2022 SAID35 WART 160400 METAR WART 160400Z 16009KT 9999 FEW020 33/24 Q1011 NOSIG=
16-Sep-2022 SAID35 WART 160500 METAR WART 160500Z 16008KT 9999 FEW020 31/24 Q1010 NOSIG=
16-Sep-2022 SAID35 WART 160600 METAR WART 160600Z 11006KT 9999 FEW020 33/23 Q1009 NOSIG=
16-Sep-2022 SAID35 WART 160700 METAR WART 160700Z 13010KT 9999 FEW020 33/23 Q1008 NOSIG=
16-Sep-2022 SAID35 WART 160800 METAR WART 160800Z 12010KT 9999 FEW020 32/22 Q1008 NOSIG=
21-Sep-2022 SAID35 WART 210100 METAR WART 210100Z 19005KT 9999 FEW020 30/27 Q1011 NOSIG=
21-Sep-2022 SAID35 WART 210200 METAR WART 210200Z 17008KT 9999 FEW020 31/24 Q1012 NOSIG=
21-Sep-2022 SAID35 WART 210300 METAR WART 210300Z 17008KT 9999 FEW020 32/24 Q1011 NOSIG=
21-Sep-2022 SAID35 WART 210400 METAR WART 210400Z 18009KT 9999 FEW020 33/25 Q1010 NOSIG=
21-Sep-2022 SAID35 WART 210500 METAR WART 210500Z 17008KT 9999 FEW020 33/25 Q1010 NOSIG=
21-Sep-2022 SAID35 WART 210600 METAR WART 210600Z 10004KT 9999 SCT020 33/24 Q1009 NOSIG=
21-Sep-2022 SAID35 WART 210700 METAR WART 210700Z 11006KT 9999 SCT020 32/24 Q1009 NOSIG=
23-Sep-2022 SAID35 WART 230100 METAR WART 230100Z 16010KT 9999 FEW020 31/27 Q1010 NOSIG=
23-Sep-2022 SAID35 WART 230200 METAR WART 230200Z 15010KT 9999 FEW020 32/25 Q1011 NOSIG=
23-Sep-2022 SAID35 WART 230300 METAR WART 230300Z 16011KT 9999 FEW020 32/26 Q1010 NOSIG=
23-Sep-2022 SAID35 WART 230400 METAR WART 230400Z 16012KT 9999 FEW020 33/26 Q1009 NOSIG=
23-Sep-2022 SAID35 WART 230600 METAR WART 230600Z 14008KT 110V170 9999 FEW020 34/26 Q1007 NOSIG=
23-Sep-2022 SAID35 WART 230700 METAR WART 230700Z 15009KT 100V170 9999 FEW020 34/25 Q1007 NOSIG=
23-Sep-2022 SAID35 WART 230800 METAR WART 230800Z 12008KT 080V140 9999 FEW020 34/24 Q1007 NOSIG=
26-Sep-2022 SAID35 WART 260200 METAR WART 260200Z 18005KT 9999 FEW020 32/26 Q1011 NOSIG=
26-Sep-2022 SAID35 WART 260400 METAR WART 260400Z 14008KT 9999 FEW020 33/22 Q1009 NOSIG=
26-Sep-2022 SAID35 WART 260500 METAR WART 260500Z 15011KT 9999 FEW020 34/22 Q1008 NOSIG=
26-Sep-2022 SAID35 WART 260600 METAR WART 260600Z 16010KT 9999 FEW020 35/22 Q1007 NOSIG=
29-Sep-2022 SAID35 WART 290100 METAR WART 290100Z 17011KT 9999 FEW020 30/24 Q1009 NOSIG=
29-Sep-2022 SAID35 WART 290200 METAR WART 290200Z 18012KT 9999 FEW020 31/24 Q1009 NOSIG=
29-Sep-2022 SAID35 WART 290300 METAR WART 290300Z 15011KT 9999 FEW020 33/24 Q1009 NOSIG=
29-Sep-2022 SAID35 WART 290400 METAR WART 290400Z 18011KT 9999 FEW020 33/24 Q1008 NOSIG=
29-Sep-2022 SAID35 WART 290500 METAR WART 290500Z 11013KT 9999 FEW020 33/24 Q1007 NOSIG=
29-Sep-2022 SAID35 WART 290600 METAR WART 290600Z 12012KT 9999 FEW020 34/24 Q1006 NOSIG=
29-Sep-2022 SAID35 WART 290700 METAR WART 290700Z 12011KT 9999 FEW020 34/24 Q1006 NOSIG=
29-Sep-2022 SAID35 WART 290800 METAR WART 290800Z 12012KT 9999 FEW020 33/23 Q1006 NOSIG=
29-Sep-2022 SAID35 WART 290900 METAR WART 290900Z 12013KT 9999 FEW020 32/23 Q1006 NOSIG=
03-Oct-2022 SAID35 WART 030300 METAR WART 030300Z 19010KT SCT018CB SCT020 33/28 Q1009=
03-Oct-2022 SAID35 WART 030400 METAR WART 030400Z 09005KT 060V120 TS 9999 SCT017CB SCT020 30/26 Q1009=
03-Oct-2022 SPID35 WART 030419 SPECI WART 030419Z 34012KT 8000 TSRA SCT017CB SCT020 27/26 Q1008=
03-Oct-2022 SAID35 WART 030500 METAR WART 030500Z 33012KT 8000 TSRA SCT017CB SCT020 26/26 Q1008+=
03-Oct-2022 SAID35 WART 030600 METAR WART 030600Z 26005KT 240V300 9999 SCT018CB SCT020 26/26 Q1007=
03-Oct-2022 SAID35 WART 030700 METAR WART 030700Z 32003KT 9999 SCT0202 28/27 Q1006=
03-Oct-2022 SAID35 WART 030800 METAR WART 030800Z 00000KT 9999 SCT020 29/28 Q1006=
05-Oct-2022 SAID35 WART 050100 METAR WART 050100Z 22001KT 9000 SCT020 30/28 Q1011 NOSIG=
05-Oct-2022 SAID35 WART 050200 METAR WART 050200Z 20002KT 9000 SCT020 32/28 Q1011 NOSIG=
05-Oct-2022 SAID35 WART 050600 METAR WART 050600Z 34007KT 9000 BKN020 29/26 Q1008 NOSIG=
05-Oct-2022 SAID35 WART 050700 METAR WART 050700Z 01007KT 9000 FEW018CB SCT020 29/26 Q1008 NOSIG=
05-Oct-2022 SAID35 WART 050800 METAR WART 050800Z 35004KT 9000 SCT020 29/26 Q1007 NOSIG=
07-Oct-2022 SAID35 WART 070100 METAR WART 070100Z 18008KT 9999 FEW020 30/27 Q1011 NOSIG=
07-Oct-2022 SAID35 WART 070300 METAR WART 070300Z 19005KT 9999 FEW020 30/27 Q1010 NOSIG=
07-Oct-2022 SAID35 WART 070400 METAR WART 070400Z 21007KT 9999 SCT020 32/27 Q1009 NOSIG=
07-Oct-2022 SAID35 WART 070500 METAR WART 070500Z 18010KT 9999 SCT020 33/26 Q1008 NOSIG=
07-Oct-2022 SAID35 WART 070600 METAR WART 070600Z 18013KT 9999 SCT020 33/25 Q1007 NOSIG=
07-Oct-2022 SAID35 WART 070700 METAR WART 070700Z 18007KT 9999 SCT020 32/25 Q1007 NOSIG=
07-Oct-2022 SAID35 WART 070800 METAR WART 070800Z 16011KT 9999 SCT020 32/25 Q1007 NOSIG=
07-Oct-2022 SAID35 WART 070900 METAR WART 070900Z 15008KT 9999 SCT020 30/24 Q1007 NOSIG=
12-Oct-2022 SAID35 WART 120300 METAR WART 120300Z 18010KT 9999 SCT020 31/25 Q1010 NOSIG=
12-Oct-2022 SAID35 WART 120400 METAR WART 120400Z 19012KT 9999 SCT020 32/25 Q1009 NOSIG=
12-Oct-2022 SAID35 WART 120500 METAR WART 120500Z 17012KT 9999 SCT020 34/26 Q1009 NOSIG=
12-Oct-2022 SAID35 WART 120600 METAR WART 120600Z 18011KT 9999 SCT020 32/24 Q1008 NOSIG=
12-Oct-2022 SAID35 WART 120700 METAR WART 120700Z 01003KT 9999 SCT020 32/25 Q1007 NOSIG=
12-Oct-2022 SAID35 WART 120800 METAR WART 120800Z 14011KT 9999 SCT020 33/23 Q1007 NOSIG=
13-Oct-2022 SAID35 WART 130100 METAR WART 130100Z 20005KT 9999 FEW020 30/28 Q1010 NOSIG=
13-Oct-2022 SAID35 WART 130200 METAR WART 130200Z 19006KT 160V220 9999 SCT020 32/27 Q1010 NOSIG=
13-Oct-2022 SAID35 WART 130300 METAR WART 130300Z 19007KT 9999 SCT020 33/27 Q1009 NOSIG=
13-Oct-2022 SAID35 WART 130400 METAR WART 130400Z 15007KT 100V180 9999 SCT020 34/25 Q1008 NOSIG=
13-Oct-2022 SAID35 WART 130500 METAR WART 130500Z 36008KT 9999 SCT020 31/25 Q1008 NOSIG=
13-Oct-2022 SAID35 WART 130600 METAR WART 130600Z 01004KT 330V040 9999 SCT020 33/25 Q1007 NOSIG=
13-Oct-2022 SAID35 WART 130800 METAR WART 130800Z 31006KT 9999 SCT020 29/24 Q1006 NOSIG=
17-Oct-2022 SAID35 WART 170100 METAR WART 170100Z 24004KT 9999 FEW018CB SCT020 31/28 Q1011 RMK CB TO S=
17-Oct-2022 SAID35 WART 170200 METAR WART 170200Z 21007KT 9999 SCT020 32/29 Q1011 NOSIG=
17-Oct-2022 SAID35 WART 170300 METAR WART 170300Z 17005KT 9999 SCT020 32/27 Q1011 NOSIG=
17-Oct-2022 SAID35 WART 170400 METAR WART 170400Z 17006KT 9999 SCT020 3/25 Q1010 NOSIG=
17-Oct-2022 SAID35 WART 170500 METAR WART 170500Z 18006KT 9999 SCT020 34/25 Q1009 NOSIG=
17-Oct-2022 SAID35 WART 170600 METAR WART 170600Z 17009KT 9999 SCT020 33/25 Q1008 NOSIG=
17-Oct-2022 SAID35 WART 170700 METAR WART 170700Z 26006KT 9999 SCT018CB SCT020 31/25 Q1009 RMK CB TO S=
17-Oct-2022 SAID35 WART 170800 METAR WART 170800Z 03003KT 9999 SCT018CB SCT020 30/24 Q1007 RMK CB TO N=
19-Oct-2022 SAID35 WART 190200 METAR WART 190200Z 33004KT 280V010 9999 SCT018 SCT020 30/28 Q1011=
19-Oct-2022 SAID35 WART 190300 METAR WART 190300Z 28008KT 250V350 9999 SCT017 SCT018 31/26 Q1010=
19-Oct-2022 SAID35 WART 190400 METAR WART 190400Z 20008KT 9999 SCT017CB SCT018 30/27 Q1010=
19-Oct-2022 SAID35 WART 190600 METAR WART 190600Z 11008KT 9999 FEW018CB SCT020 30/26 Q1008=
19-Oct-2022 SAID35 WART 190700 METAR WART 190700Z 12005KT 070V140 9999 FEW020 31/26 Q1007=
19-Oct-2022 SAID35 WART 190800 METAR WART 190800Z 13006KT 9999 FEW020 31/25 Q1007=
21-Oct-2022 SAID35 WART 210200 METAR WART 210200Z 1106KT 9999 SCT018CB BKN020 31/29 Q1012 RMK CB TO NW AND SW=
21-Oct-2022 SAID35 WART 210300 METAR WART 210300Z 26008KT 8000 RA SCT018CB BKN020 27/27 Q1011 RMK CB OVER THE FIELD=
21-Oct-2022 SAID35 WART 210400 CCA METAR WART 210400Z 23008KT 8000 TSRA SCT018CB BKN020 25/25 Q1011 RMK CB OVER THE FIELD=
21-Oct-2022 SAID35 WART 210600 METAR WART 210600Z 18010KT 9999 SCT018CB SCT020 28/28 Q1009 RMK CB TO S AND W=
25-Oct-2022 SAID35 WART 250100 METAR WART 250100Z 21006KT 9999 FEW020 30/29 Q1010=
25-Oct-2022 SAID35 WART 250200 METAR WART 250200Z 19006KT 9999 FEW020 31/28 Q1010=
25-Oct-2022 SAID35 WART 250300 METAR WART 250300Z 17007KT 9999 FEW020 32/28 Q1009=
25-Oct-2022 SAID35 WART 250400 METAR WART 250400Z 14009KT 9999 FEW020 33/28 Q1009=
25-Oct-2022 SAID35 WART 250500 METAR WART 250500Z 02015KT 4000 TSRA SCT018CB SCT020 25/25 Q1009 RMK CB OVER THE FIELD=
25-Oct-2022 SAID35 WART 250600 METAR WART 250600Z 19003KT 8000 FEW018CB BKN020 25/25 Q1009 RMK CBTO W=
25-Oct-2022 SAID35 WART 250700 METAR WART 250700Z 28003KT 9999 BKN020 26/26 Q1007=
25-Oct-2022 SAID35 WART 250800 METAR WART 250800Z 00000KT 9999 BKN020 28/28 Q1007=
27-Oct-2022 SAID35 WART 270100 METAR WART 270100Z 07003KT 9999 FEW020 28/28 Q1008=
27-Oct-2022 SAID35 WART 270200 METAR WART 270200Z 16010KT 9999 FEW020 29/27 Q1008=
27-Oct-2022 SAID35 WART 270400 METAR WART 270400Z 11005KT 070V150 9999 SCT020 30/27 Q1008=
27-Oct-2022 SAID35 WART 270500 METAR WART 270500Z 11005KT 070V150 9999 FEW018CB SCT020 30/27 Q1007=
27-Oct-2022 SAID35 WART 270600 METAR WART 270600Z 00000KT 9999 SCT018CB SCT020 30/26 Q1007=
27-Oct-2022 SAID35 WART 270700 METAR WART 270700Z 25006KT 9999 SCT018CB SCT020 30/25 Q1006=
28-Oct-2022 SAID35 WART 280100 METAR WART 280100Z 27007KT 9999 FEW020 28/25 Q1009=
28-Oct-2022 SAID35 WART 280300 METAR WART 280300Z 22006KT 9999 FEW020 31/26 Q1009=
28-Oct-2022 SAID35 WART 280400 METAR WART 280400Z 21006KT 9999 FEW020 32/26 Q1008=
28-Oct-2022 SAID35 WART 280600 METAR WART 280600Z 21009KT 9999 SCT020 32/25 Q1006=
28-Oct-2022 SAID35 WART 280800 METAR WART 280800Z 21009KT 9999 SCT020 32/23 Q1005=
02-Nov-2022 SAID35 WART 020200 METAR WART 020200Z 18006KT 9999 FEW020 31/28 Q1011=
02-Nov-2022 SAID35 WART 020300 METAR WART 020300Z 19010KT 9999 FEW020 32/27 Q1011=
02-Nov-2022 SAID35 WART 020400 METAR WART 020400Z 18010KT 9999 FEW020 32/27 Q1009=
02-Nov-2022 SAID35 WART 020500 METAR WART 020500Z 16005KT 9999 SCT020 33/27 Q1008=
02-Nov-2022 SAID35 WART 020600 METAR WART 020600Z 08005KT 9999 SCT020 33/26 Q1007=
02-Nov-2022 SAID35 WART 020700 METAR WART 020700Z 14007KT 9999 SCT020 33/25 Q1006=
02-Nov-2022 SAID35 WART 020800 METAR WART 020800Z 11008KT 9999 SCT020 32/25 Q1006=
07-Nov-2022 SAID35 WART 070800 METAR WART 070800Z 31001KT 9000 FEW018CB SCT020 27/27 Q1009=
08-Nov-2022 SAID35 WART 080200 METAR WART 080200Z 20007KT 9999 SCT020 29/29 Q1011=
08-Nov-2022 SAID35 WART 080300 METAR WART 080300Z 20009KT 9000 FEW018CB SCT020 31/29 Q1011=
08-Nov-2022 SAID35 WART 080400 METAR WART 080400Z 25014KT 8000 -RA SCT018CB SCT020 27/26 Q1010=
08-Nov-2022 SAID35 WART 080500 METAR WART 080500Z 23003KT 8000 -RA SCT018CB SCT020 26/26 Q1009=
08-Nov-2022 SAID35 WART 080600 METAR WART 080600Z 21003KT 9000 FEW018CB SCT020 30/29 Q1008=
08-Nov-2022 SAID35 WART 080700 METAR WART 080700Z 15006KT 9000 FEW018CB SCT020 30/28 Q1007=
08-Nov-2022 SAID35 WART 080800 METAR WART 080800Z 15006KT 9000 FEW018CB SCT020 28/28 Q1007=
09-Nov-2022 SAID35 WART 090100 METAR WART 090100Z 21003KT 9999 FEW020 29/29 Q1011=
09-Nov-2022 SAID35 WART 090200 METAR WART 090200Z 19008KT 8000 SCT018CB SCT020 30/29 Q1011=
09-Nov-2022 SPID35 WART 090237 SPECI WART 090237Z 03008KT 8000 TS SCT016CB SCT018 27/27 Q1011=
09-Nov-2022 SPID35 WART 090245 SPECI WART 090245Z 36008KT 8000 TSRA SCT016CB SCT018 26/26 Q1011=
09-Nov-2022 SAID35 WART 090300 METAR WART 090300Z 36008KT 340V060 6000 TSRA SCT016CB SCT018 26/26 Q1011=
09-Nov-2022 SAID35 WART 090400 METAR WART 090400Z 02005KT 9999 SCT018CB SCT020 28/28 Q1010=
09-Nov-2022 SAID35 WART 090500 METAR WART 090500Z 12008KT 8000 TSRA SCT016CB SCT018 30/28 Q1009=
09-Nov-2022 SPID35 WART 090503 SPECI WART 090503Z 12016KT 3000 TSRA SCT016CB SCT018 28/27 Q1009=
09-Nov-2022 SAID35 WART 090600 METAR WART 090600Z 14005KT 8000 RA SCT016CB SCT018 27/27 Q1008=
09-Nov-2022 SAID35 WART 090700 METAR WART 090700Z 13005KT 080V160 9999 TS SCT018CB SCT020 28/28 Q1008=
09-Nov-2022 SAID35 WART 090800 METAR WART 090800Z 21003KT 9999 FEW018CB SCT020 28/28 Q1007=
10-Nov-2022 SAID35 WART 100100 METAR WART 100100Z 19003KT 9999 FEW020 28/28 Q1010 NOSIG=
10-Nov-2022 SAID35 WART 100300 METAR WART 100300Z 18005KT 110V210 9999 SCT020 31/29 Q1010 NOSIG=
10-Nov-2022 SAID35 WART 100400 METAR WART 100400Z 16009KT 9000 TS FEW018CB SCT020 31/29 Q1010=
10-Nov-2022 SPID35 WART 100421 SPECI WART 100421Z 36014KT 340V100 9000 TS FEW018CB SCT020 28/27 Q1009=
10-Nov-2022 SAID35 WART 100500 METAR WART 100500Z 36007KT 8000 TS FEW018CB SCT020 27/26 Q1008=
10-Nov-2022 SAID35 WART 100600 METAR WART 100600Z 31005KT 9000 SCT020 29/27 Q1008=
10-Nov-2022 SAID35 WART 100700 METAR WART 100700Z 29003KT 250V320 9999 SCT020 29/27 Q1007 NOSIG=
10-Nov-2022 SAID35 WART 100800 METAR WART 100800Z VRB02KT 9999 SCT020 30/28 Q1006 NOSIG=
13-Nov-2022 SAID35 WART 130100 METAR WART 130100Z 13002KT 9999 SCT020 29/29 Q1009 NOSIG=
13-Nov-2022 SAID35 WART 130200 METAR WART 130200Z 12002KT 9999 SCT020 31/30 Q1009 NOSIG=
13-Nov-2022 SAID35 WART 130300 METAR WART 130300Z 13008KT 9999 FEW019CB SCT020 32/29 Q1009 RMK CB TO W=
13-Nov-2022 SAID35 WART 130400 METAR WART 130400Z 12011KT 8000 FEW019CB SCT020 31/27 Q1008 RMK CB OVER THE FIELD=
13-Nov-2022 SAID35 WART 130500 METAR WART 130500Z 16004KT 8000 FEW019CB BKN020 29/27 Q1007 RMK CB OVER THE FIELD=
13-Nov-2022 SAID35 WART 130600 METAR WART 130600Z 14002KT 6000 SCT018CB BKN019 27/27 Q1006 RMK CB OVER THE FIELD=
13-Nov-2022 SAID35 WART 130700 METAR WART 130700Z 19002KT 8000 FEW019CB SCT020 30/29 Q1006 RMK CB TO THE E=
13-Nov-2022 SAID35 WART 130800 METAR WART 130800Z 15006KT 9999 SCT020 30/29 Q1006 NOSIG=
13-Nov-2022 SAID35 WART 130900 METAR WART 130900Z 15004KT 9999 SCT020 29/28 Q1006 NOSIG=
14-Nov-2022 SAID35 WART 140100 METAR WART 140100Z 08003KT 9999 SCT020 31/29 Q1009 NOSIG=
14-Nov-2022 SAID35 WART 140200 METAR WART 140200Z 10003KT 040V170 9999 SCT020 32/29 Q1009 NOSIG=
14-Nov-2022 SAID35 WART 140300 METAR WART 140300Z 11004KT 070V160 8000 FEW018CB SCT020 33/29 Q1009 NOSIG=
14-Nov-2022 SPID35 WART 140306 SPECI WART 140306Z 04005KT 5000 TS FEW018CB SCT020 32/29 Q1009=
14-Nov-2022 SAID35 WART 140400 METAR WART 140400Z VRB03KT 8000 FEW018CB SCT020 30/27 Q1008 NOSIG=
14-Nov-2022 SAID35 WART 140500 METAR WART 140500Z 20008KT 9999 SCT020 32/28 Q1007 NOSIG=
14-Nov-2022 SPID35 WART 140534 SPECI WART 140534Z 36018KT 210V010 4000 TSRA FEW017CB SCT020 28/25 Q1007=
14-Nov-2022 SPID35 WART 140544 SPECI WART 140544Z 35015KT 2000 +TSRA FEW017CB BKN020 24/24 Q1007 RMK CB OVER THE FIELD=
14-Nov-2022 SAID35 WART 140600 METAR WART 140600Z 28009KT 240V350 4000 TSRA FEW018CB SCT020 24/24 Q1006 RMK CB OVER THE FIELD=
14-Nov-2022 SAID35 WART 140700 METAR WART 140700Z 33003KT 9999 SCT020 28/28 Q1006 NOSIG=
14-Nov-2022 SAID35 WART 140800 METAR WART 140800Z 34005KT 310V020 9999 SCT020 30/30 Q1006 NOSIG=
15-Nov-2022 SAID35 WART 150100 METAR WART 150100Z 00000KT 9999 SCT018 30/25 Q1010=
15-Nov-2022 SAID35 WART 150200 METAR WART 150200Z 20002KT 9999 SCT018 30/30 Q1009=
15-Nov-2022 SAID35 WART 150300 METAR WART 150300Z 17007KT 9999 FEW018CB 30/29 Q1009=
15-Nov-2022 SAID35 WART 150400 METAR WART 150400Z 23005KT 9999 TS FEW018CB 28/28 Q1008=
15-Nov-2022 SAID35 WART 150500 METAR WART 150500Z 24006KT 9999 FEW018CB 28/28 Q1007=
15-Nov-2022 SAID35 WART 150600 METAR WART 150600Z 32008KT 9999 SCT018CB 30/28 Q1006=
15-Nov-2022 SAID35 WART 150700 METAR WART 150700Z 34008KT 9999 FEW018CB 29/28 Q1006=
15-Nov-2022 SAID35 WART 150800 METAR WART 150800Z 31006KT 9999 FEW018CB 29/28 Q1006=
16-Nov-2022 SAID35 WART 160100 METAR WART 160100Z 33011KT 9999 SCT020 29/29 Q1009=
16-Nov-2022 SAID35 WART 160200 METAR WART 160200Z 31010KT 9999 FEW018CB SCT020 28/27 Q1009=
16-Nov-2022 SAID35 WART 160300 METAR WART 160300Z 32016KT 9000 SCT018CB SCT020 28/28 Q1009=
16-Nov-2022 SAID35 WART 160400 METAR WART 160400Z 30010KT 9999 FEW018CB SCT020 28/27 Q1008=
16-Nov-2022 SAID35 WART 160500 METAR WART 160500Z 31012KT 9999 BKN020 29/27 Q1007=
16-Nov-2022 SAID35 WART 160600 METAR WART 160600Z 30011KT 9999 BKN020 29/26 Q1007=
16-Nov-2022 SAID35 WART 160700 METAR WART 160700Z 31010KT 9999 BKN020 30/27 Q1006=
16-Nov-2022 SAID35 WART 160800 METAR WART 160800Z 24007KT 9999 BKN020 29/27 Q1006=
16-Nov-2022 SAID35 WART 160900 METAR WART 160900Z 27003KT 9999 BKN020 29/27 Q1006=
17-Nov-2022 SAID35 WART 170000 METAR WART 170000Z VRB02KT 9999 SCT020 29/29 Q1008 NOSIG=
17-Nov-2022 SAID35 WART 170100 METAR WART 170100Z VRB02KT 9999 SCT020 29/29 Q1008 NOSIG=
17-Nov-2022 SAID35 WART 170200 METAR WART 170200Z 090/01KT 9999 SCT020 30/29 Q1008 NOSIG=
17-Nov-2022 SAID35 WART 170300 METAR WART 170300Z 200/04KT 150V250 9999 SCT020 31/28 Q1008 NOSIG=
17-Nov-2022 SAID35 WART 170400 METAR WART 170400Z 190/07KT 9999 SCT020 33/28 Q1007 NOSIG=
17-Nov-2022 SAID35 WART 170500 METAR WART 170500Z 180/09KT 9999 SCT020 31/28 Q1006 NOSIG=
17-Nov-2022 SAID35 WART 170600 METAR WART 170600Z 160/08KT 9999 TSRA SCT019CB SCT020 30/27 Q1005=
17-Nov-2022 SAID35 WART 170700 METAR WART 170700Z 240/06KT 8000 RA SCT019CB SCT020 27/27 Q1005=
17-Nov-2022 SAID35 WART 170800 METAR WART 170800Z VRB02KT 8000 SCT019CB SCT020 28/29 Q1005 NOSIG=
18-Nov-2022 SAID35 WART 180100 METAR WART 180100Z 26004KT 9000 SCT020 28/28 Q1009 NOSIG=
18-Nov-2022 SAID35 WART 180200 METAR WART 180200Z 21003KT 9000 SCT020 29/28 Q1009 NOSIG=
18-Nov-2022 SAID35 WART 180300 METAR WART 180300Z 20003KT 180V240 9999 SCT020 30/28 Q1009 NOSIG=
18-Nov-2022 SAID35 WART 180400 METAR WART 180400Z 21003KT 9999 SCT020 30/28 Q1008 NOSIG=
18-Nov-2022 SAID35 WART 180500 METAR WART 180500Z 27002KT 9999 SCT020 30/28 Q1007 NOSIG=
18-Nov-2022 SAID35 WART 180600 METAR WART 180600Z VRB02KT 9999 SCT020 31/26 Q1006 NOSIG=
18-Nov-2022 SAID35 WART 180700 METAR WART 180700Z 32003KT 270V360 9999 SCT020 31/27 Q1006 NOSIG=
18-Nov-2022 SAID35 WART 180800 METAR WART 180800Z 35005KT 9999 SCT020 30/26 Q1006 NOSIG=
21-Nov-2022 SAID35 WART 210100 METAR WART 210100Z 12002KT 9999 FEW020 30/29 Q1008 NOSIG=
21-Nov-2022 SAID35 WART 210200 METAR WART 210200Z 17008KT 9999 FEW020 29/29 Q1008 NOSIG=
21-Nov-2022 SAID35 WART 210300 METAR WART 210300Z 11003KT 9000 FEW019CB SCT020 29/29 Q1008 RMK CB OVER THE FIELD=
21-Nov-2022 SAID35 WART 210400 METAR WART 210400Z 15005KT 9000 FEW019CB SCT020 31/29 Q1007 RMK CB TO THE W=
21-Nov-2022 SAID35 WART 210500 METAR WART 210500Z 17006KT 9000 SCT020 31/30 Q1006 NOSIG=
21-Nov-2022 SAID35 WART 210600 METAR WART 210600Z 00000KT 9000 FEW019CB BKN020 29/27 Q1005 RMK CB OVER THE FIELD=
21-Nov-2022 SAID35 WART 210700 METAR WART 210700Z 34006KT 9000 BKN020 31/27 Q1004 NOSIG=
21-Nov-2022 SAID35 WART 210800 METAR WART 210800Z 33005KT 9999 SCT020 31/27 Q1005 NOSIG=
22-Nov-2022 SAID35 WART 220100 METAR WART 220100Z 270/05 240V360 9999 SCT020 29/28 Q1009 NOSIG=
22-Nov-2022 SAID35 WART 220200 METAR WART 220200Z 230/05 200V260 9999 SCT020 31/28 Q1008 NOSIG=
22-Nov-2022 SAID35 WART 220300 METAR WART 220300Z 320/07 290V010 9999 FEW019CB SCT020 31/28 Q1008 NOSIG=
22-Nov-2022 SAID35 WART 220400 METAR WART 220400Z 180/09 9999 FEW019CB SCT020 30/28 Q1008 NOSIG=
22-Nov-2022 SAID35 WART 220500 METAR WART 220500Z 180/10 9999 SCT020 31/29 Q1006 NOSIG=
22-Nov-2022 SAID35 WART 220600 METAR WART 220600Z 170/07 9999 FEW019CB SCT020 30/29 Q1006 NOSIG=
22-Nov-2022 SAID35 WART 220700 METAR WART 220700Z 190/09 9999 FEW019CB SCT020 28/28 Q1005 NOSIG=
22-Nov-2022 SAID35 WART 220800 METAR WART 220800Z 170/04 9999 FEW019CB SCT020 30/28 Q1005 NOSIG=
24-Nov-2022 SAID35 WART 240100 METAR WART 240100Z 00000KT 9999 FEW020 30/29 Q1010 NOSIG=
24-Nov-2022 SAID35 WART 240200 METAR WART 240200Z 18006KT 9999 FEW020 30/29 Q1010 NOSIG=
24-Nov-2022 SAID35 WART 240300 METAR WART 240300Z 17011KT 9999 FEW020 32/29 Q1010 NOSIG=
24-Nov-2022 SAID35 WART 240400 METAR WART 240400Z 32010KT 8000 TSRA SCT018CB SCT019 27/27 Q1010 RMK CB OVER THE FIELD=
24-Nov-2022 SAID35 WART 240500 METAR WART 240500Z 06003KT 8000 TSRA SCT018CB SCT019 25/25 Q1009 RMK CB OVER THE FIELD=
24-Nov-2022 SAID35 WART 240600 METAR WART 240600Z 16002KT 9000 FEW019CB SCT020 27/27 Q1009 RMK CB TO THE S=
24-Nov-2022 SAID35 WART 240700 METAR WART 240700Z 21006KT 9999 SCT020 29/29 Q1008 NOSIG=
24-Nov-2022 SAID35 WART 240800 METAR WART 240800Z 18006KT 9999 SCT020 30/29 Q1008 NOSIG=
24-Nov-2022 SAID35 WART 240900 METAR WART 240900Z 14004KT 9999 FEW020 29/28 Q1008 NOSIG=
25-Nov-2022 SAID35 WART 250200 METAR WART 250200Z 11004KT 9999 SCT020 28/28 Q1011 NOSIG=
25-Nov-2022 SAID35 WART 250300 METAR WART 250300Z 14007KT 9999 SCT020 30/29 Q1010 NOSIG=
25-Nov-2022 SAID35 WART 250400 METAR WART 250400Z 13006KT 9999 TS FEWCB018 SCT020 31/29 Q1010 RMK CB TO NW=
25-Nov-2022 SAID35 WART 250500 METAR WART 250500Z 31015KT 8000 TSRA SCTCB018 SCT020 28/24 Q1010 RMK CB ON THE FIELD=
25-Nov-2022 SAID35 WART 250600 METAR WART 250600Z 15005KT 8000 TSRA SCTCB018 SCT020 27/24 Q1010 RMK CB ON THE FIELD=
25-Nov-2022 SAID35 WART 250700 METAR WART 250700Z 22005KT 8000 FEWCB018 SCT020 27/27 Q1009 RMK CB TO E=
28-Nov-2022 SAID35 WART 280000 METAR WART 280000Z 00000KT 9999 FEW020 27/26 Q1009=
28-Nov-2022 SAID35 WART 280200 METAR WART 280200Z 20005KT 9999 FEW018CB SCT020 29/29 Q1009=
28-Nov-2022 SAID35 WART 280300 METAR WART 280300Z 21006KT 180V240 9999 SCT017CB SCT020 31/29 Q1008=
28-Nov-2022 SAID35 WART 280400 METAR WART 280400Z 17008KT 130V190 9999 FEW018CB SCT020 31/29 Q1008=
28-Nov-2022 SAID35 WART 280500 METAR WART 280500Z 18008KT 9999 FEW017CB SCT020 30/28 Q1007=
28-Nov-2022 SPID35 WART 280529 SPECI WART 280529Z 18010KT 8000 RA FEW016CB SCT018 29/28 Q1007=
28-Nov-2022 SAID35 WART 280600 METAR WART 280600Z 16008KT 9999 RA FEW018CB SCT020 29/29 Q1006=
28-Nov-2022 SAID35 WART 280700 METAR WART 280700Z 17008KT 9999 SCT018CB SCT020 30/29 Q1006=
28-Nov-2022 SPID35 WART 280726 SPECI WART 280726Z 06015KT 360V010 1000 TSRA SCT016CB SCT018 26/26 Q1006=
28-Nov-2022 SAID35 WART 280800 METAR WART 280800Z 15006KT 9999 TS SCT018CB SCT020 26/26 Q1006=
29-Nov-2022 SAID35 WART 290100 METAR WART 290100Z 17005KT 9999 SCT020 29/29 Q1009=
29-Nov-2022 SAID35 WART 290200 METAR WART 290200Z 18014KT 9000 FEW018CB SCT020 29/29 Q1009=
29-Nov-2022 SAID35 WART 290300 METAR WART 290300Z 19009KT 9999 SCT020 31/29 Q1009=
29-Nov-2022 SAID35 WART 290400 METAR WART 290400Z 18010KT 9999 SCT020 31/29 Q1008=
29-Nov-2022 SAID35 WART 290500 METAR WART 290500Z 18011KT 9000 TS FEW018CB SCT020 30/27 Q1007=
29-Nov-2022 SAID35 WART 290600 METAR WART 290600Z 29009KT 8000 TSRA FEW018CB SCT020 27/27 Q1007=
29-Nov-2022 SAID35 WART 290700 METAR WART 290700Z 36006KT 8000 TSRA FEW018CB SCT020 26/26 Q1006=
29-Nov-2022 SAID35 WART 290800 METAR WART 290800Z 32006KT 8000 RA FEW018CB SCT020 26/26 Q1006=
29-Nov-2022 SAID35 WART 290900 METAR WART 290900Z 35003KT 8000 SCT020 27/27 Q1006=
30-Nov-2022 SAID35 WART 300100 METAR WART 300100Z 32002KT 9999 SCTCB018 SCT020 26/26 Q1009 RMK CB TO NE=
30-Nov-2022 SAID35 WART 300400 METAR WART 300400Z 00000KT 9999 BKN020 29/28 Q1008=
30-Nov-2022 SAID35 WART 300500 METAR WART 300500Z 16002KT 9999 BKN020 31/28 Q1007=
30-Nov-2022 SAID35 WART 300600 METAR WART 300600Z 33002KT 8000 TSRA FEWCB018 BKN020 27/27 Q1006 RMK CB TO N=
30-Nov-2022 SAID35 WART 300700 METAR WART 300700Z 24009KT 8000 TSRA SCTCB018 SCT020 26/26 Q1006 RMK CB TO W=
02-Dec-2022 SAID35 WART 020100 METAR WART 020100Z 11003KT 9000 FEWCB018 SCT020 29/28 Q1007=
02-Dec-2022 SAID35 WART 020200 METAR WART 020200Z 20009KT 8000 TSRA SCT018CB SCT020 25/25 Q1008=
02-Dec-2022 SAID35 WART 020300 METAR WART 020300Z 35003KT 9000 TS FEW018CB SCT020 27/27 Q1007=
02-Dec-2022 SAID35 WART 020400 METAR WART 020400Z 08003KT 9000 TS FEW018CB SCT020 30/28 Q1006=
02-Dec-2022 SAID35 WART 020500 METAR WART 020500Z 22009KT 8000 TS SCT018CB SCT020 27/27 Q1006=
02-Dec-2022 SAID35 WART 020700 METAR WART 020700Z 34006KT 8000 TS FEW018CB SCT020 25/25 Q1005=
02-Dec-2022 SAID35 WART 020800 METAR WART 020800Z 30006KT 8000 SCT020 26/26 Q1004=
02-Dec-2022 SAID35 WART 020900 METAR WART 020900Z 29004KT 8000 SCT020 27/27 Q1004=
05-Dec-2022 SAID35 WART 050200 METAR WART 050200Z 14003KT 99999 SCT018 30/29 Q1009=
05-Dec-2022 SAID35 WART 050300 METAR WART 050300Z 12005KT 9999 SCT018 31/28 Q1009=
05-Dec-2022 SAID35 WART 050400 METAR WART 050400Z 14005KT 9999 SCT018CB 29/27 Q1008=
05-Dec-2022 SAID35 WART 050500 METAR WART 050500Z 23008KT 9999 TS SCT018CB 28/28 Q1008=
05-Dec-2022 SAID35 WART 050600 METAR WART 050600Z 24004KT 9999 TS SCT018CB 27/27 Q1007=
05-Dec-2022 SAID35 WART 050700 METAR WART 050700Z 19005KT 9999 SCT018 28/28 Q1006=
06-Dec-2022 SAID35 WART 060100 METAR WART 060100Z 23004KT 9999 SCT020 30/28 Q1009=
06-Dec-2022 SAID35 WART 060200 METAR WART 060200Z 14004KT 9999 SCT020 32/29 Q1009=
06-Dec-2022 SAID35 WART 060300 METAR WART 060300Z 18007KT 9999 SCT020 32/27 Q1008=
06-Dec-2022 SAID35 WART 060400 METAR WART 060400Z 13005KT 9999 SCT020 32/27 Q1007=
06-Dec-2022 SAID35 WART 060500 METAR WART 060500Z 09005KT 9999 SCT020 32/26 Q1006=
06-Dec-2022 SAID35 WART 060600 METAR WART 060600Z 11005KT 9999 BKN018 31/27 Q1006=
06-Dec-2022 SAID35 WART 060700 METAR WART 060700Z 30006KT 9999 SCT018 32/27 Q1005=
06-Dec-2022 SAID35 WART 060800 METAR WART 060800Z 35010KT 9999 SCT020 32/26 Q1004=
06-Dec-2022 SAID35 WART 060900 METAR WART 060900Z 36008KT 9999 SCT020 31/25 Q1005=
07-Dec-2022 SAID35 WART 070100 METAR WART 070100Z 00000KT 9999 FEW020 30/24 Q1009=
07-Dec-2022 SAID35 WART 070200 METAR WART 070200Z 19007KT 9999 SCT020 32/27 Q1009=
07-Dec-2022 SAID35 WART 070300 METAR WART 070300Z 18006KT 9999 SCT020 32/27 Q1008=
07-Dec-2022 SAID35 WART 070400 METAR WART 070400Z 18005KT 9999 SCT020 30/26 Q1008=
07-Dec-2022 SAID35 WART 070500 METAR WART 070500Z 16008KT 9000 SCTCB018 SCT020 32/28 Q1007 RMK CB TO W=
07-Dec-2022 SAID35 WART 070600 METAR WART 070600Z 20008KT 8000 SCTCB018 SCT020 33/27 Q1006 RMK CB TO N=
07-Dec-2022 SAID35 WART 070700 METAR WART 070700Z 36003KT 9999 BKN020 29/27 Q1005=
08-Dec-2022 SAID35 WART 080200 METAR WART 080200Z 14004KT 9999 FEW018 32/29 Q1009=
08-Dec-2022 SAID35 WART 080300 METAR WART 080300Z 19009KT 9999 FEW018 31/28 Q1008=
08-Dec-2022 SAID35 WART 080400 METAR WART 080400Z 16007KT 9999 FEW018 32/27 Q1007=
08-Dec-2022 SAID35 WART 080500 METAR WART 080500Z 18008KT 9999 FEW018 32/26 Q1007=
08-Dec-2022 SAID35 WART 080700 METAR WART 080700Z 19008KT 9999 FEW018 33/25 Q1005=
08-Dec-2022 SAID35 WART 080800 METAR WART 080800Z 20005KT 9999 FEW018 34/25 Q1004=
09-Dec-2022 SAID35 WART 090100 METAR WART 090100Z 20004KT 9999 FEW018 31/25 Q1008=
09-Dec-2022 SAID35 WART 090200 METAR WART 090200Z 17011KT 9999 FEW020 31/27 Q1008=
09-Dec-2022 SAID35 WART 090300 METAR WART 090300Z 15010KT 9999 FEW020 33/29 Q1007=
09-Dec-2022 SAID35 WART 090400 METAR WART 090400Z 08003KT 9999 FEW020 32/27 Q1007=
09-Dec-2022 SAID35 WART 090500 METAR WART 090500Z 10005KT 9999 FEW020 33/27 Q1006=
09-Dec-2022 SAID35 WART 090600 METAR WART 090600Z 11009KT 9999 FEW020 33/25 Q1005=
09-Dec-2022 SAID35 WART 090700 METAR WART 090700Z 10009KT 9999 FEW020 33/25 Q1005=
09-Dec-2022 SAID35 WART 090800 METAR WART 090800Z 08006KT 9999 FEW020 33/25 Q1005=
09-Dec-2022 SAID35 WART 090900 METAR WART 090900Z 10007KT 9999 FEW020 32/24 Q1005=
12-Dec-2022 SAID35 WART 120200 METAR WART 120200Z 24004KT 9999 FEW018 31/27 Q1009=
12-Dec-2022 SAID35 WART 120300 METAR WART 120300Z 23006KT 9999 FEW018 32/27 Q1008=
12-Dec-2022 SAID35 WART 120400 METAR WART 120400Z 19006KT 9999 FEW018 33/27 Q1007=
12-Dec-2022 SAID35 WART 120500 METAR WART 120500Z 02007KT 9999 TSRA FEW018CB SCT020 31/27 Q1007=
12-Dec-2022 SAID35 WART 120600 METAR WART 120600Z 34002KT 9999 FEW018 SCT020 32/26 Q1006=
12-Dec-2022 SAID35 WART 120800 METAR WART 120800Z 35004KT 9999 FEW018 30/27 Q1005=
13-Dec-2022 SAID35 WART 130100 METAR WART 130100Z 22002KT 9999 FEW020 30/28 Q1009=
13-Dec-2022 SAID35 WART 130200 METAR WART 130200Z 15002KT 9999 SCT020 32/28 Q1009=
13-Dec-2022 SAID35 WART 130300 METAR WART 130300Z 17015KT 9999 SCT020 31/28 Q1009=
13-Dec-2022 SAID35 WART 130500 METAR WART 130500Z 34010KT 8000 FEWCB018 SCT020 30/25 Q1008 RMK CB TO W=
13-Dec-2022 SAID35 WART 130600 METAR WART 130600Z 36006KT 9999 SCT020 32/26 Q1007=
13-Dec-2022 SAID35 WART 130800 METAR WART 130800Z 33007KT 9999 SCT020 34/27 Q1006=
13-Dec-2022 SAID35 WART 130900 METAR WART 130900Z 36008KT 9999 SCT020 32/26 Q1006=
14-Dec-2022 SAID35 WART 140100 METAR WART 140100Z 31002KT 9999 SCTCB018 SCT020 30/29 Q1009 RMK CB TO N AND E=
14-Dec-2022 SAID35 WART 140200 METAR WART 140200Z 22002KT 9999 SCTCB018 SCT020 30/28 Q1009 RMK CB TO N AND E=
14-Dec-2022 SAID35 WART 140300 METAR WART 140300Z 00000KT 9999 SCTCB018 SCT020 31/28 Q1009 RMK CB TO NE=
14-Dec-2022 SAID35 WART 140400 METAR WART 140400Z 06004KT 9999 FEWCB018 SCT020 31/27 Q1008 RMK CB TO E=
14-Dec-2022 SAID35 WART 140500 METAR WART 140500Z 00000KT 9999 FEWCB018 SCT020 32/27 Q1007 RMK CB TO NE=
14-Dec-2022 SAID35 WART 140600 METAR WART 140600Z 30011KT 6000 TSRA SCTCB018 SCT020 26/26 Q1007 RMK CB OVER THE FIELD=
14-Dec-2022 SAID35 WART 140700 METAR WART 140700Z 24007KT 9999 FEWCB018 SCT020 28/28 Q1007 RMK CB TO W=
14-Dec-2022 SAID35 WART 140800 METAR WART 140800Z 21004KT 9999 FEWCB018 SCT020 31/28 Q1005 RMK CB TO N=
16-Dec-2022 SAID35 WART 160100 METAR WART 160100Z 23003KT 9999 SCT020 29/28 Q1007=
16-Dec-2022 SAID35 WART 160200 METAR WART 160200Z 18003KT 9999 SCT020 30/28 Q1007=
16-Dec-2022 SAID35 WART 160300 METAR WART 160300Z 13008KT 9999 SCT020 30/28 Q1007=
16-Dec-2022 SAID35 WART 160400 METAR WART 160400Z 30013KT 9999 SCT018CB SCT020 27/25 Q1007 RMK CB OVER THE FIELD=
16-Dec-2022 SAID35 WART 160500 METAR WART 160500Z 04006KT 9999 TS SCT018CB SCT020 27/27 Q1006 RMK CB OVER THE FIELD=
16-Dec-2022 SAID35 WART 160600 METAR WART 160600Z 06006KT 9999 SCT018CB SCT020 27/27 Q1005 RMK CB OVER THE FIELD=
16-Dec-2022 SAID35 WART 160700 METAR WART 160700Z 32004KT 9999 SCT018CB SCT020 27/27 Q1005 RMK CB OVER THE FIELD=
16-Dec-2022 SAID35 WART 160800 METAR WART 160800Z 28005KT 9999 SCT018CB SCT020 26/26 Q1005 RMK CB OVER THE FIELD=
16-Dec-2022 SAID35 WART 160900 METAR WART 160900Z 26003KT 9999 SCT018CB SCT020 25/25 Q1005 RMK CB OVER THE FIELD=
19-Dec-2022 SAID35 WART 190200 METAR WART 190200Z 16011KT 9999 FEWCB018 SCT020 32/28 Q1007 RMK CB TO NE=
19-Dec-2022 SAID35 WART 190300 METAR WART 190300Z 22004KT 9999 FEWCB018 SCT020 29/28 Q1006 RMK CB TO N=
19-Dec-2022 SAID35 WART 190400 METAR WART 190400Z 15008KT 9999 FEWCB018 SCT020 30/27 Q1006 RMK CB TO N=
19-Dec-2022 SAID35 WART 190500 METAR WART 190500Z 22008KT 9999 SCT020 32/26 Q1005=
19-Dec-2022 SAID35 WART 190600 METAR WART 190600Z 13008KT 9999 SCT020 33/26 Q1004=
19-Dec-2022 SAID35 WART 190700 METAR WART 190700Z 03005KT 9999 SCT020 32/27 Q1004=
21-Dec-2022 SAID35 WART 210500 METAR WART 210500Z 17012KT 5000 RA SCT018CB SCT019 25/25 Q1005 RMK CB OVER THE FIELD=
21-Dec-2022 SAID35 WART 210600 METAR WART 210600Z 03002KT 8000 FEW019CB BKN019 26/26 Q1004 RMK CB TO THE W=
21-Dec-2022 SAID35 WART 210700 METAR WART 210700Z 07002KT 9000 FEW019CB SCT020 28/28 Q1003 RMK CB TO THE W=
21-Dec-2022 SAID35 WART 210800 METAR WART 210800Z 26003KT 9999 SCT020 31/29 Q1002=
21-Dec-2022 SAID35 WART 210900 METAR WART 210900Z 3203KT 9999 SCT020 31/28 Q1002=
22-Dec-2022 SAID35 WART 220100 METAR WART 220100Z 28008KT 8000 SCT020 28/28 Q1005 NOSIG=
22-Dec-2022 SAID35 WART 220200 METAR WART 220200Z 27006KT 9000 SCT020 29/28 Q1005 NOSIG=
22-Dec-2022 SAID35 WART 220300 METAR WART 220300Z 30007KT 270V330 9999 SCT020 30/28 Q1005 NOSIG=
22-Dec-2022 SAID35 WART 220400 METAR WART 220400Z 26009KT 220V290 9999 SCT020 30/27 Q1004 NOSIG=
22-Dec-2022 SAID35 WART 220500 METAR WART 220500Z 27013KT 9999 SCT020 31/27 Q1003 NOSIG=
22-Dec-2022 SAID35 WART 220600 METAR WART 220600Z 24011KT 9000 SCT020 30/27 Q1003 NOSIG=
22-Dec-2022 SAID35 WART 220700 METAR WART 220700Z 28011KT 260V330 9000 SCT020 30/27 Q1002 NOSIG=
22-Dec-2022 SAID35 WART 220800 METAR WART 220800Z 31010KT 9999 SCT020 29/27 Q1002 NOSIG=
26-Dec-2022 SAID35 WART 260100 METAR WART 260100Z 28005KT 240V340 9999 FEW020 26/26 Q1010=
26-Dec-2022 SAID35 WART 260200 METAR WART 260200Z 25004KT 9999 SCT020 27/27 Q1010=
26-Dec-2022 SAID35 WART 260300 METAR WART 260300Z 29008KT 9999 SCT018 28/27 Q1010=
28-Dec-2022 SAID35 WART 280100 METAR WART 280100Z 25003KT 9999 FEW020 29/26 Q1010=
28-Dec-2022 SAID35 WART 280200 METAR WART 280200Z 31006KT 9999 FEW020 31/27 Q1010=
28-Dec-2022 SAID35 WART 280300 METAR WART 280300Z 27011KT 9999 SCT020 31/26 Q1010=
28-Dec-2022 SAID35 WART 280400 METAR WART 280400Z 27008KT 9999 SCT020 31/26 Q1009=
28-Dec-2022 SAID35 WART 280500 METAR WART 280500Z 32012KT 9999 SCT020 31/26 Q1009=
28-Dec-2022 SAID35 WART 280600 METAR WART 280600Z 34016KT 9999 BKN020 31/26 Q1008=
28-Dec-2022 SAID35 WART 280700 METAR WART 280700Z 30015KT 9999 SCT020 32/26 Q1007=
28-Dec-2022 SAID35 WART 280800 METAR WART 280800Z 30014KT 9999 SCT020 32/26 Q1007=
29-Dec-2022 SAID35 WART 290100 METAR WART 290100Z 30016KT 6000 RA SCT018CB BKN020 26/26 Q1010 RMK CB TO NW=
29-Dec-2022 SAID35 WART 290200 METAR WART 290200Z 29007KT 4000 TSRA SCT018CB BKN019 24/24 Q1011 RMK CB ON THE FIELD=
29-Dec-2022 SAID35 WART 290300 METAR WART 290300Z 30005KT 6000 RA SCT018CB BKN019 25/25 Q1011 RMK CB ON THE FIELD=
29-Dec-2022 SAID35 WART 290400 METAR WART 290400Z 29011KT 8000 RA SCT018CB BKN019 25/25 Q1010 RMK CB ON THE FIELD=
29-Dec-2022 SAID35 WART 290500 METAR WART 290500Z 29012KT 8000 RA SCT018CB BKN019 25/25 Q1009 RMK CB ON THE FIELD=
29-Dec-2022 SAID35 WART 290600 METAR WART 290600Z 28012KT 8000 RA FEW018CB SCT020 27/27 Q1008 RMK CB TO NW=
29-Dec-2022 SAID35 WART 290700 METAR WART 290700Z 29009KT 8000 FEW018CB SCT020 27/27 Q1007 RMK CB TO NW=
29-Dec-2022 SAID35 WART 290900 METAR WART 290900Z 30008KT 9999 FEW018CB SCT020 28/28 Q1007 RMK CB TO NW=
31-Dec-2022 SAID35 WART 310200 METAR WART 310200Z 30008KT 5000 RA FEW018CB BKN019 24/24 Q1011 RMK CB OVER THE FIELD=
31-Dec-2022 SAID35 WART 310300 METAR WART 310300Z 30009KT 5000 RA FEW018CB BKN019 24/24 Q1011 RMK CB OVER THE FIELD=
31-Dec-2022 SAID35 WART 310400 METAR WART 310400Z 26005KT 8000 FEW018CB SCT020 24/24 Q1010 RMK CB OVER THE FIELD=
31-Dec-2022 SAID35 WART 310500 METAR WART 310500Z 21006KT 6000 FEW018CB BKN020 26/26 Q1009 RMK CB OVER THE FIELD=
31-Dec-2022 SPID35 WART 310508 SPECI WART 310508Z 26016KT 3000 TSRA FEW018CB BKN019 25/25 Q1009 RMK CB OVER THE FIELD=
31-Dec-2022 SAID35 WART 310600 METAR WART 310600Z 24015KT 2000 TSRA FEW018CB BKN019 24/24 Q1009 RMK CB OVER THE FIELD=
31-Dec-2022 SAID35 WART 310700 METAR WART 310700Z 26009KT 2000 TSRA FEW018CB BKN019 23/23 Q1009 RMK CB OVER THE FIELD=
31-Dec-2022 SAID35 WART 310800 METAR WART 310800Z 31003KT 7000 TSRA FEW018CB BKN019 24/24 Q1008 RMK CB OVER THE FIELD=
31-Dec-2022 SAID35 WART 310900 METAR WART 310900Z 31004KT 7000 RA FEW018CB BKN020 24/24 Q1008 RMK CB OVER THE FIELD=
01-Jan-2023 SPID35 WART 010141 SPECI WART 010141Z 29028KT 8000 RA FEW018CB BKN019 26/26 Q1011 RMK CB OVER THE FIELD=
01-Jan-2023 SAID35 WART 010200 METAR WART 010200Z 31014KT 8000 RA FEW018CB BKN019 25/25 Q1011 RMK CB OVER THE FIELD=
01-Jan-2023 SAID35 WART 010300 METAR WART 010300Z 28008KT 9999 BKN020 26/26 NOSIG=
01-Jan-2023 SAID35 WART 010400 METAR WART 010400Z 30012KT 9999 BKN020 29/28 Q1010 NOSIG=
01-Jan-2023 SAID35 WART 010500 METAR WART 010500Z 28015KT 9999 BKN020 29/26 Q1009 NOSIG=
01-Jan-2023 SAID35 WART 010700 METAR WART 010700Z 28014KT 9999 BKN019 29/26 01007 NOSIG=
01-Jan-2023 SAID35 WART 010800 METAR WART 010800Z 30012KT 280V350 9999 BKN019 28/27 01007 NOSIG=
02-Jan-2023 SAID35 WART 020100 METAR WART 020100Z 31015KT 8000 TSRA 25/23 Q1010 RMK CB OVER THE FIELD=
02-Jan-2023 SAID35 WART 020200 METAR WART 020200Z 31010KT 8000 RA SCT016CB SCT018 26/25 Q1010 RMK CB OVER THE FIELD=
02-Jan-2023 SAID35 WART 020300 METAR WART 020300Z 28009KT 9999 SCT018CB SCT020 27/27 Q1010 RMK CB OVER THE FIELD=
02-Jan-2023 SPID35 WART 020336 SPECI WART 020336Z 29023KT 9999 SCT018CB SCT020 29/27 Q1009=
02-Jan-2023 SAID35 WART 020500 METAR WART 020500Z 32021KT 9999 BKN018 31/25 Q1008=
03-Jan-2023 SAID35 WART 030100 METAR WART 030100Z 31015KT 9999 BKN018 28/24 Q1010=
03-Jan-2023 SAID35 WART 030200 METAR WART 030200Z 33007KT 9999 BKN018 29/24 Q1010=
03-Jan-2023 SAID35 WART 030300 METAR WART 030300Z 33010KT 9999 BKN018 31/23 Q1009=
03-Jan-2023 SAID35 WART 030400 METAR WART 030400Z 31011KT 9999 BKN018 32/24 Q1009=
03-Jan-2023 SAID35 WART 030500 METAR WART 030500Z 31014KT 9999 BKN018 33/24 Q1007=
03-Jan-2023 SAID35 WART 030600 METAR WART 030600Z 31015KT 9999 BKN018 33/25 Q1007=
03-Jan-2023 SAID35 WART 030700 METAR WART 030700Z 31012KT 9999 FEW018CB BKN018 31/25 Q1006 RMK CB TO THE EAST=
03-Jan-2023 SAID35 WART 030800 METAR WART 030800Z 31011KT 9999 BKN018 31/25 Q1006=
03-Jan-2023 SAID35 WART 030900 METAR WART 030900Z 30015KT 9999 BKN018 30/25 Q1006=
04-Jan-2023 SAID35 WART 040000 METAR WART 040000Z 31010KT 9000 SCT020 27/23 Q1009 NOSIG=
04-Jan-2023 SAID35 WART 040100 METAR WART 040100Z 27014KT 9999 FEW020 29/25 Q1009 NOSIG=
04-Jan-2023 SAID35 WART 040200 METAR WART 040200Z 27016KT 9999 FEW020 31/25 Q1008 NOSIG=
04-Jan-2023 SAID35 WART 040300 METAR WART 040300Z 26018KT 9999 SCT020 32/25 Q1008 NOSIG=
04-Jan-2023 SAID35 WART 040400 METAR WART 040400Z 28018KT 9999 SCT020 32/25 Q1008 NOSIG=
04-Jan-2023 SPID35 WART 040418 SPECI WART 040418Z 29017G27KT 9999 SCT020 32/24 Q1008 NOSIG=
04-Jan-2023 SAID35 WART 040500 METAR WART 040500Z 26015KT 9999 SCT020 33/25 Q1007 NOSIG=
04-Jan-2023 SAID35 WART 040600 METAR WART 040600Z 30012KT 9999 SCT020 32/26 Q1006 NOSIG=
04-Jan-2023 SAID35 WART 040700 METAR WART 040700Z 31013KT 9999 SCT020 32/27 Q1006 NOSIG=
04-Jan-2023 SAID35 WART 040800 METAR WART 040800Z 31014KT 9999 FEW020 31/26 Q1005 NOSIG=
04-Jan-2023 SAID35 WART 040900 METAR WART 040900Z 30014KT 9999 FEW020 30/26 Q1005 NOSIG=
05-Jan-2023 SAID35 WART 050100 METAR WART 050100Z 26010KT 9999 FEW020 28/25 Q1010=
05-Jan-2023 SAID35 WART 050200 METAR WART 050200Z 21007KT 9999 FEW020 30/26 Q1010=
05-Jan-2023 SAID35 WART 050300 METAR WART 050300Z 25010KT 9999 FEW020 31/25 Q1009=
05-Jan-2023 SAID35 WART 050400 METAR WART 050400Z 27005KT 9999 FEW020 33/25 Q1009=
05-Jan-2023 SAID35 WART 050500 METAR WART 050500Z 20011KT 9999 FEW020 32/26 Q1008=
05-Jan-2023 SAID35 WART 050600 METAR WART 050600Z 21009KT 9999 FEW020 33/26 Q1007=
05-Jan-2023 SAID35 WART 050700 METAR WART 050700Z 30015KT 9999 BKN020 31/26 Q1006=
05-Jan-2023 SAID35 WART 050800 METAR WART 050800Z 30010KT 9999 SCT020 32/26 Q1006=
05-Jan-2023 SAID35 WART 050900 METAR WART 050900Z 30005KT 9999 SCT020 30/26 Q1006=
06-Jan-2023 SAID35 WART 060100 METAR WART 060100Z 00000KT 9999 FEW020 29/26 Q1010=
06-Jan-2023 SAID35 WART 060200 METAR WART 060200Z 19005KT 9999 FEW020 31/26 Q1010=
06-Jan-2023 SAID35 WART 060300 METAR WART 060300Z 15009KT 9999 FEW020 32/27 Q1009=
06-Jan-2023 SAID35 WART 060400 METAR WART 060400Z 17011KT 9999 FEW020 32/27 Q1009=
06-Jan-2023 SAID35 WART 060500 METAR WART 060500Z 18005KT 9999 SCT020 31/26 Q1009=
06-Jan-2023 SAID35 WART 060600 METAR WART 060600Z 10005KT 9999 FEW018CB SCT020 30/27 Q1008 RMK CB TO N=
06-Jan-2023 SAID35 WART 060700 METAR WART 060700Z 34005KT 9999 SCT020 30/28 Q1008=
06-Jan-2023 SAID35 WART 060800 METAR WART 060800Z 26007KT 9999 SCT020 31/28 Q1006=
08-Jan-2023 SAID35 WART 080100 METAR WART 080100Z 30005KT 9999 SCT020 28/26 Q1010=
08-Jan-2023 SAID35 WART 080200 METAR WART 080200Z 31004KT 9999 SCT020 29/27 Q1010=
08-Jan-2023 SAID35 WART 080300 METAR WART 080300Z 20008KT 9999 SCT020 30/28 Q1010=
08-Jan-2023 SAID35 WART 080400 METAR WART 080400Z 21007KT 9999 SCT020 32/27 Q1009=
08-Jan-2023 SAID35 WART 080500 METAR WART 080500Z 22007KT 9999 SCT020 32/25 Q1009=
08-Jan-2023 SAID35 WART 080600 METAR WART 080600Z 34007KT 9999 SCT020 31/27 Q1008=
08-Jan-2023 SAID35 WART 080700 METAR WART 080700Z 33009KT 9999 SCT020 30/27 Q1007=
09-Jan-2023 SAID35 WART 090100 METAR WART 090100Z 13001KT 9999 FEW020 30/28 Q1012 NOSIG=
09-Jan-2023 SAID35 WART 090200 METAR WART 090200Z VRB02KT 9999 SCT020 30/27 Q1012 NOSIG=
09-Jan-2023 SAID35 WART 090300 METAR WART 090300Z 36003KT 330V030 9999 SCT020 30/27 Q1011 NOSIG=
09-Jan-2023 SAID35 WART 090400 METAR WART 090400Z 18002KT 9999 SCT020 32/26 Q1011 NOSIG=
09-Jan-2023 SAID35 WART 090500 METAR WART 090500Z 17009KT 9999 SCT020 33/27 Q1010 NOSIG=
09-Jan-2023 SAID35 WART 090600 METAR WART 090600Z 15009KT 9999 SCT020 32/27 Q1009 NOSIG=
09-Jan-2023 SAID35 WART 090700 METAR WART 090700Z 12006KT 080V140 9999 SCT020 33/27 Q1009 NOSIG=
10-Jan-2023 SAID35 WART 100100 METAR WART 100100Z 19003KT 9999 FEW018CB FEW020 29/29 Q1012 RMK CB TO THE NORTH EAST=
10-Jan-2023 SAID35 WART 100200 METAR WART 100200Z 21003KT 9999 FEW018CB FEW020 30/28 Q1012 RMK CB TO THE NORTH EAST=
10-Jan-2023 SAID35 WART 100300 METAR WART 100300Z 19006KT 9999 FEW018CB SCT020 31/27 Q1011=
10-Jan-2023 SAID35 WART 100400 METAR WART 100400Z 12004KT 080V170 9999 SCT020 32/27 Q1010=
10-Jan-2023 SAID35 WART 100500 METAR WART 100500Z 21005KT 170V250 9999 FEW020 32/25 Q1010=
10-Jan-2023 SAID35 WART 100600 METAR WART 100600Z 21005KT 9999 SCT020 33/25 Q1009=
10-Jan-2023 SAID35 WART 100700 METAR WART 100700Z 16010KT 9999 FEW018CB FEW020 34/25 Q1008=
10-Jan-2023 SAID35 WART 100800 METAR WART 100800Z 07006KT 040V130 9999 FEW018CB SCT020 32/27 Q1007=
11-Jan-2023 SAID35 WART 110200 METAR WART 110200Z 00000KT 9999 SCT018 30/25 Q1011 NOSIG=
11-Jan-2023 SAID35 WART 110300 METAR WART 110300Z 00000KT 9999 SCT018 33/26 Q1010 NOSIG=
11-Jan-2023 SAID35 WART 110400 METAR WART 110400Z 16009KT 9999 SCT018 32/26 Q1009 NOSIG=
11-Jan-2023 SAID35 WART 110500 METAR WART 110500Z 14005KT 100V200 9999 SCT018 32/26 Q1009 NOSIG=
11-Jan-2023 SAID35 WART 110600 METAR WART 110600Z 13005KT 090V150 9999 FEW018CB SCT020 32/26 Q1008 CB OVER THE FIELD=
11-Jan-2023 SAID35 WART 110700 METAR WART 110700Z 16007KT 130V190 9999 FEW018CB SCT020 33/25 Q1008 CB OVER THE NORTH=
11-Jan-2023 SAID35 WART 110800 METAR WART 110800Z 05003KT 360V120 9999 SCT018 31/27 Q1007=
12-Jan-2023 SAID35 WART 120100 METAR WART 120100Z 02001KT 9999 FEW020 30/29 Q1011 NOSIG=
12-Jan-2023 SAID35 WART 120200 METAR WART 120200Z 30003KT 230V030 9999 SCT020 32/25 Q1011 NOSIG=
12-Jan-2023 SAID35 WART 120400 METAR WART 120400Z 02003KT 330V060 9999 SCT020 32/26 Q1009 NOSIG=
12-Jan-2023 SAID35 WART 120500 METAR WART 120500Z 15009KT 110V180 9999 SCT020 31/25 Q1008 NOSIG=
12-Jan-2023 SAID35 WART 120700 METAR WART 120700Z 36005KT 9999 SCT020 29/28 Q1007 NOSIG=
12-Jan-2023 SAID35 WART 120800 METAR WART 120800Z 35005KT 320V020 9999 SCT020 30/29 Q1007 NOSIG=
13-Jan-2023 SAID35 WART 130100 METAR WART 130100Z 00000KT 9999 FEW020 30/28 Q1010=
13-Jan-2023 SAID35 WART 130200 METAR WART 130200Z 34002KT 9999 FEW020 31/26 Q1010=
13-Jan-2023 SAID35 WART 130300 METAR WART 130300Z 02007KT 9999 SCT020 30/26 Q1010=
13-Jan-2023 SAID35 WART 130400 METAR WART 130400Z 33010KT 9999 BKN020 30/26 Q1009=
13-Jan-2023 SAID35 WART 130600 METAR WART 130600Z 19004KT 8000 RA FEW018CB SCT020 28/25 Q1008 RMK CB OVER THE FIELD=
13-Jan-2023 SAID35 WART 130700 METAR WART 130700Z 28005KT 9000 SCT020 26/26 Q1008=
13-Jan-2023 SAID35 WART 130800 METAR WART 130800Z 34004KT 9999 FEW020 28/28 Q1007=
14-Jan-2023 SAID35 WART 140100 METAR WART 140100Z 26003KT 9999 FEW020 30/28 Q1010 NOSIG=
14-Jan-2023 SAID35 WART 140200 METAR WART 140200Z 21005KT 9999 FEW020 30/29 Q1010 NOSIG=
14-Jan-2023 SAID35 WART 140300 METAR WART 140300Z 21007KT 9999 SCT020 32/28 Q1009 NOSIG=
14-Jan-2023 SAID35 WART 140400 METAR WART 140400Z 23006KT 9999 SCT020 32/26 Q1008 NOSIG=
14-Jan-2023 SAID35 WART 140500 METAR WART 140500Z 20007KT 9999 SCT020 32/28 Q1007 NOSIG=
14-Jan-2023 SAID35 WART 140600 METAR WART 140600Z 15009KT 80000 RA SCT018CB SCT020 26/26 Q1007 RMK CB OVER THE FIELD=
14-Jan-2023 SAID35 WART 140700 METAR WART 140700Z 00000KT 9999 FEW018CB SCT020 30/30 Q1006 RMK CB TO SE=
16-Jan-2023 SAID35 WART 160100 METAR WART 160100Z 29007KT 9000 BKN020 28/28 Q1009=
16-Jan-2023 SAID35 WART 160200 METAR WART 160200Z 29008KT 9000 BKN020 29/29 Q1009=
16-Jan-2023 SAID35 WART 160300 METAR WART 160300Z 30009KT 9000 BKN020 29/29 Q1009=
16-Jan-2023 SAID35 WART 160400 METAR WART 160400Z 30013KT 9000 BKN020 30/29 Q1008=
16-Jan-2023 SAID35 WART 160600 METAR WART 160600Z 30013KT 9000 SCT020 32/28 Q1007=
16-Jan-2023 SAID35 WART 160700 METAR WART 160700Z 29012KT 9000 BKN020 30/26 Q1006=
17-Jan-2023 SAID35 WART 170100 METAR WART 170100Z 25006KT 9999 FEW020 30/28 Q1010 NOSIG=
17-Jan-2023 SAID35 WART 170200 METAR WART 170200Z 29008KT 9999 SCT020 31/28 Q1010 NOSIG=
17-Jan-2023 SAID35 WART 170300 METAR WART 170300Z 25006KT 9999 SCT020 31/26 Q1010 NOSIG=
17-Jan-2023 SAID35 WART 170400 METAR WART 170400Z 31010KT 9999 SCT020 30/26 Q1009 NOSIG=
17-Jan-2023 SAID35 WART 170500 METAR WART 170500Z 32008KT 9000 TS FEW019CB SCT020 32/27 Q1008=
17-Jan-2023 SAID35 WART 170600 METAR WART 170600Z 22005KT 9999 FEW019CB BKN020 29/27 Q1007 NOSIG=
17-Jan-2023 SAID35 WART 170700 METAR WART 170700Z VRB04KT 9999 TS FEW019CB BKN020 30/29 Q1007=
17-Jan-2023 SAID35 WART 170800 METAR WART 170800Z 32010KT 9999 SCT020 30/27 Q1006 NOSIG=
18-Jan-2023 SAID35 WART 180100 METAR WART 180100Z 24006KT 9999 FEW020 29/28 Q1010 NOSIG=
18-Jan-2023 SAID35 WART 180200 METAR WART 180200Z 23004KT 9999 FEW020 31/27 Q1010 NOSIG=
18-Jan-2023 SAID35 WART 180300 METAR WART 180300Z 24004KT 200V270 9999 SCT020 32/26 Q1010 NOSIG=
18-Jan-2023 SAID35 WART 180400 METAR WART 180400Z 23006KT 170V280 9999 SCT020 32/26 Q1009 NOSIG=
18-Jan-2023 SAID35 WART 180500 METAR WART 180500Z 18006KT 9999 SCT020 31/25 Q1008 NOSIG=
18-Jan-2023 SPID35 WART 180525 SPECI WART 180525Z 22010KT 9999 TS FEW018CB SCT020 32/25 Q1008 RMK CB TO N=
18-Jan-2023 SAID35 WART 180600 METAR WART 180600Z 21007KT 180V250 9000 TS FEW018CB SCT020 30/25 Q1008 RMK CB TO N=
18-Jan-2023 SPID35 WART 180620 SPECI WART 180620Z 06004KT 9000 RA FEW018CB SCT020 29/29 Q1008=
18-Jan-2023 SAID35 WART 180700 METAR WART 180700Z 10004KT 9999 SCT020 30/26 Q1007=
18-Jan-2023 SAID35 WART 180800 METAR WART 180800Z 06005KT 9999 SCT020 29/26 Q1007=
19-Jan-2023 SAID35 WART 190000 METAR WART 190000Z 31004KT 9999 FEW020 28/24 Q1011 NOSIG=
19-Jan-2023 SAID35 WART 190200 METAR WART 190200Z 32004KT 9999 SCT020 29/24 Q1010 NOSIG=
19-Jan-2023 SAID35 WART 190300 METAR WART 190300Z 25005KT 9999 BKN018 29/27 Q1010 NOSIG=
19-Jan-2023 SAID35 WART 190400 METAR WART 190400Z 24007KT 9999 BKN018 31/27 Q1009 NOSIG=
19-Jan-2023 SAID35 WART 190500 METAR WART 190500Z 22004KT 9999 BKN018 31/27 Q1009 NOSIG=
19-Jan-2023 SAID35 WART 190600 METAR WART 190600Z 35004KT 9999 BKN018 29/29 Q1008 NOSIG=
19-Jan-2023 SPID35 WART 190620 SPECI WART 190620Z 06004KT 9000 RA FEW018CB SCT020 29/29 Q1008=
19-Jan-2023 SAID35 WART 190700 METAR WART 190700Z 12004KT 8000 TSRA FEW018CB SCT020 28/26 Q1009=
20-Jan-2023 SAID35 WART 200100 METAR WART 200100Z 25004KT 9000 SCT020 28/28 Q1010 NOSIG=
20-Jan-2023 SAID35 WART 200200 METAR WART 200200Z 22004KT 9000 SCT020 31/29 Q1010 NOSIG=
20-Jan-2023 SAID35 WART 200300 METAR WART 200300Z 19008KT 9999 SCT020 32/29 Q1009 NOSIG=
20-Jan-2023 SAID35 WART 200400 METAR WART 200400Z 20011KT 9999 FEW018CB FEW020 33/28 Q1008 NOSIG RMK CB TO N=
20-Jan-2023 SPID35 WART 200421 SPECI WART 200421Z 21010KT 9000 TS FEW018CB SCT020 32/27 Q1008 RMK CB TO N=
20-Jan-2023 SAID35 WART 200800 METAR WART 200800Z 31001KT 9000 SCT020 27/27 Q1007 NOSIG=
24-Jan-2023 SAID35 WART 240200 METAR WART 240200Z 17009KT 9000 SCT020 30/30 Q1007 NOSIG=
24-Jan-2023 SAID35 WART 240300 METAR WART 240300Z 17006KT 9000 BKN020 31/30 Q1007 NOSIG=
24-Jan-2023 SAID35 WART 240500 METAR WART 240500Z 14008KT 8000 FEW018CB SCT020 32/29 Q1005 RMK CB TO W=
24-Jan-2023 SAID35 WART 240600 METAR WART 240600Z 33004KT 8000 TS FEW018CB SCT020 30/30 Q1004 RMK CB TO W=
24-Jan-2023 SAID35 WART 240700 METAR WART 240700Z 34006KT 8000 FEW018CB SCT020 32/30 Q1004 RMK CB TO E=
24-Jan-2023 SAID35 WART 240800 METAR WART 240800Z 32009KT 8000 FEW018CB SCT020 31/30 Q1003 RMK CB TO E=
24-Jan-2023 SAID35 WART 240900 METAR WART 240900Z 29006KT 8000 FEW018CB SCT020 31/29 Q1004 RMK CB TO E=
25-Jan-2023 SAID35 WART 250100 METAR WART 250100Z 31007KT 9999 SCT020 29/26 Q1007 NOSIQ=
25-Jan-2023 SAID35 WART 250200 METAR WART 250200Z VRB02KT 9999 SCT020 35/29 Q1007 NOSIG=
25-Jan-2023 SAID35 WART 250300 METAR WART 250300Z 30001KT 9999 SCT020 38/28 Q1007 NOSIG=
25-Jan-2023 SAID35 WART 250400 METAR WART 250400Z 01006KT 9999 FEW019CB BKN020 31/27 Q1006 RMK CB TO EAST=
25-Jan-2023 SAID35 WART 250500 METAR WART 250500Z 05005KT 6000 RA SCT018CB BKN020 29/29 Q1006 RMK CB OVER THE FIELD=
25-Jan-2023 SAID35 WART 250600 METAR WART 250600Z 29009KT 9999 FEW019CB BKN020 28/28 Q1005 RMK CB TO THE N=
25-Jan-2023 SAID35 WART 250700 METAR WART 250700Z 31003KT 9999 FEW019CB BKN020 31/30 Q1004 RMK CB TO THE N=
25-Jan-2023 SAID35 WART 250800 METAR WART 250800Z 32003KT 9999 FEW019CB BKN020 31/30 Q1004 RMK CB TO THE S=
26-Jan-2023 SAID35 WART 260100 METAR WART 260100Z 22003KT 9999 FEW020 28/28 Q1007=
26-Jan-2023 SAID35 WART 260200 METAR WART 260200Z 32003KT 9999 SCT020 28/25 Q1007=
26-Jan-2023 SAID35 WART 260300 METAR WART 260300Z 28003KT 240V310 9999 SCT020 29/29 Q1007=
26-Jan-2023 SAID35 WART 260400 METAR WART 260400Z 34003KT 9999 SCT020 29/29 Q1007=
26-Jan-2023 SAID35 WART 260500 METAR WART 260500Z 35005KT 9999 SCT020 29/29 Q1006=
26-Jan-2023 SAID35 WART 260600 METAR WART 260600Z 32006 9999 SCT018CB SCT020 29/29 Q1005=
27-Jan-2023 SAID35 WART 270100 METAR WART 270100Z 31005KT 9999 SCT020 27/25 Q1008 NOSIG=
27-Jan-2023 SAID35 WART 270200 METAR WART 270200Z 31007KT 9999 SCT020 29/25 Q1008 NOSIG=
27-Jan-2023 SAID35 WART 270300 METAR WART 270300Z 28009KT 9999 SCT020 SCT020 30/28 Q1007 NOSIG=
27-Jan-2023 SAID35 WART 270400 METAR WART 270400Z 28008KT 9999 SCT020 SCT020 30/28 Q1006 NOSIG=
27-Jan-2023 SAID35 WART 270500 METAR WART 270500Z 31009KT 9999 SCT020 31/28 Q1006 NOSIG=
27-Jan-2023 SAID35 WART 270700 METAR WART 270700Z 32015KT 9999 FEW018CB SCT020 30/27 Q1004=
27-Jan-2023 SAID35 WART 270800 METAR WART 270800Z 31007KT RA 8000 FEW018CB SCT020 29/26 Q1005=
27-Jan-2023 SAID35 WART 270900 METAR WART 270900Z 32010KT RA 9000 FEW018CB SCT020 28/25 Q1005=
31-Jan-2023 SAID35 WART 310100 METAR WART 310100Z 33003KT 9999 BKN020 27/25 Q1008 NOSIG=
31-Jan-2023 SAID35 WART 310200 METAR WART 310200Z 35003KT 9999 SCT020 30/29 Q1008 NOSIG=
31-Jan-2023 SAID35 WART 310300 METAR WART 310300Z 11003KT 9999 SCT020 30/29 Q1008 NOSIG=
31-Jan-2023 SAID35 WART 310500 METAR WART 310500Z 13004KT 9999 SCT020 32/28 Q1007 NOSIG=
31-Jan-2023 SAID35 WART 310700 METAR WART 310700Z 09005KT 8000 TSRA SCT018CB SCT020 27/27 Q1005 RMK CB OVER THE FIELD=
31-Jan-2023 SAID35 WART 310800 METAR WART 310800Z 36006KT 8000 FEW018CB SCT020 28/28 Q1004 RMK CB TO W=
31-Jan-2023 SAID35 WART 310900 METAR WART 310900Z 35005KT 8000 FEW018CB SCT020 28/28 Q1005 RMK CB TO W=
01-Feb-2023 SAID35 WART 010100 METAR WART 010100Z 00000KT 9999 SCT020 27/25 Q1007 NOSIG=
01-Feb-2023 SAID35 WART 010200 METAR WART 010200Z 24003KT 9999 SCT020 31/28 Q1008 NOSIG=
01-Feb-2023 SAID35 WART 010300 METAR WART 010300Z 32004KT 9999 SCT020 31/30 Q1007 NOSIG=
01-Feb-2023 SAID35 WART 010400 METAR WART 010400Z 35008KT 9999 BKN019 30/29 Q1007 NOSIG=
01-Feb-2023 SAID35 WART 010500 METAR WART 010500Z 33007KT 9999 FE019CB SCT020 30/29 Q1007 RMK CB TO THE S,E=
01-Feb-2023 SAID35 WART 010600 METAR WART 010600Z 33010KT 9000 SCT018CB FEW020 28/28 Q1005 RMK CB OVER THE FIELD=
01-Feb-2023 SAID35 WART 010700 METAR WART 010700Z 19008KT 9000 SCT018CB FEW020 28/28 Q1005 RMK CB OVER THE FIELD=
01-Feb-2023 SAID35 WART 010800 METAR WART 010800Z 21006KT 9999 FEW019CB SCT020 29/29 Q1004 RMK CB TO THE S=
02-Feb-2023 SAID35 WART 020100 METAR WART 020100Z 00000KT 8000 HZ SCT020 27/27 Q1009=
02-Feb-2023 SAID35 WART 020200 METAR WART 020200Z 25003KT 8000 HZ SCT020 29/29 Q1009=
02-Feb-2023 SAID35 WART 020300 METAR WART 020300Z 30003KT 8000 HZ SCT020 29/29 Q1008=
02-Feb-2023 SAID35 WART 020400 METAR WART 020400Z 26006KT 8000 HZ SCT020 30/30 Q1008=
02-Feb-2023 SAID35 WART 020500 METAR WART 020500Z 30010KT 8000 FEW018CB BKN020 30/30 Q1007 RMK CB TO E=
02-Feb-2023 SPID35 WART 020535 SPECI WART 020535Z 32010KT 8000 RA SCT018CB BKN020 29/29 Q1007 RMK CB OVER THE FIELD=
02-Feb-2023 SAID35 WART 020600 METAR WART 020600Z 30006KT 8000 TS SCT018CB BKN020 29/29 Q1007 RMK CB OVER THE FIELD=
02-Feb-2023 SAID35 WART 020700 METAR WART 020700Z 15008KT 6000 RA SCT018CB BKN020 27/27 Q1006 RMK CB OVER THE FIELD=
02-Feb-2023 SAID35 WART 020800 METAR WART 020800Z 04002KT 4000 TSRA SCT018CB BKN020 25/25 Q1006 RMK CB OVER THE FIELD=
02-Feb-2023 SAID35 WART 020900 METAR WART 020900Z 13002KT 2000 TSRA SCT018CB BKN020 25/25 Q1007 RMK CB OVER THE FIELD=
03-Feb-2023 SAID35 WART 030100 METAR WART 030100Z 31006KT 9000 SCT020 26/25 Q1009=
03-Feb-2023 SAID35 WART 030400 METAR WART 030400Z 29007KT 9000 SCT020 30/29 Q1007=
03-Feb-2023 SAID35 WART 030500 METAR WART 030500Z 33011KT 9000 SCT020 29/29 Q1007=
03-Feb-2023 SAID35 WART 030600 METAR WART 030600Z 29015KT 9000 SCT020 30/28 Q1006=
03-Feb-2023 SAID35 WART 030700 METAR WART 030700Z 29014KT 9000 SCT020 29/28 Q1005=
03-Feb-2023 SAID35 WART 030800 METAR WART 030800Z 30017KT 9000 SCT020 30/26 Q1005=
03-Feb-2023 SAID35 WART 030900 METAR WART 030900Z 31012KT 9999 SCT020 28/27 Q1005=
06-Feb-2023 SAID35 WART 060100 METAR WART 060100Z 28005KT 9999 FEW020 30/30 Q1008=
06-Feb-2023 SAID35 WART 060200 METAR WART 060200Z 31009KT 9999 SCT020 31/30 Q1008=
06-Feb-2023 SAID35 WART 060300 METAR WART 060300Z 30007KT 9999 SCT020 30/29 Q1008=
06-Feb-2023 SAID35 WART 060400 METAR WART 060400Z 31011KT 8000 RA SCT020 30/29 Q1008 RMK CB OVER THE FIELD=
06-Feb-2023 SAID35 WART 060500 METAR WART 060500Z 32004KT 9000 FEW019CB SCT020 28/28 Q1006 RMK CB TO E=
06-Feb-2023 SAID35 WART 060600 METAR WART 060600Z 33006KT 9000 FEW019CB SCT020 28/28 Q1006 RMK CB TO S=
06-Feb-2023 SAID35 WART 060700 METAR WART 060700Z 32009KT 9999 SCT020 29/29 Q1005=
06-Feb-2023 SAID35 WART 060800 METAR WART 060800Z 30009KT 9999 SCT020 30/30 Q1004=
06-Feb-2023 SAID35 WART 060900 METAR WART 060900Z 30010KT 9999 SCT020 29/29 Q1005=
07-Feb-2023 SAID35 WART 070200 METAR WART 070200Z 32015KT 9999 FEW020 29/25 Q1009 NOSIG=
07-Feb-2023 SAID35 WART 070300 METAR WART 070300Z 31007KT 9999 SCT018 30/28 Q1008 NOSIG=
07-Feb-2023 SAID35 WART 070400 METAR WART 070400Z 33008KT 9999 BKN018 30/30 Q1008 NOSIG=
07-Feb-2023 SAID35 WART 070500 METAR WART 070500Z 30011KT 9999 BKN018 30/29 Q1007 NOSIG=
07-Feb-2023 SAID35 WART 070600 METAR WART 070600Z 31008KT 9999 BKN018 28/28 Q1006 NOSIG=
07-Feb-2023 SAID35 WART 070700 METAR WART 070700Z 30012KT 9999 BKN018 29/28 Q1006 NOSIG=
07-Feb-2023 SAID35 WART 070800 METAR WART 070800Z 30012KT 9999 BKN018 29/28 Q1006 NOSIG=
08-Feb-2023 SAID35 WART 080200 METAR WART 080200Z 23015KT 8000 FEW018CB BKN020 29/26 Q1010 RMK CB OVER THE FIELD=
08-Feb-2023 SAID35 WART 080400 METAR WART 080400Z 33010KT 8000 SCT018CB SCT020 26/24 Q1008 RMK CB OVER THE FIELD=
08-Feb-2023 SAID35 WART 080600 METAR WART 080600Z 30010KT 9999 BKN020 29/27 Q1007 NOSIG=
08-Feb-2023 SAID35 WART 080700 METAR WART 080700Z 29008KT 9999 BKN020 29/28 Q1006 NOSIG=
08-Feb-2023 SAID35 WART 080800 METAR WART 080800Z 28014KT 9999 BKN020 28/28 Q1006 NOSIG=
08-Feb-2023 SAID35 WART 080900 METAR WART 080900Z 29011KT 9999 BKN020 28/28 Q1006 NOSIG=
09-Feb-2023 SAID35 WART 090100 METAR WART 090100Z 29007KT 9999 BKN020 27/26 Q1009 NOSIG=
09-Feb-2023 SAID35 WART 090200 METAR WART 090200Z 19006KT 9999 SCT020 28/28 Q1008 NOSIG=
09-Feb-2023 SAID35 WART 090300 METAR WART 090300Z 32013KT 9999 BKN020 30/25 Q1008 NOSIG=
09-Feb-2023 SAID35 WART 090400 METAR WART 090400Z 33019KT 9999 SCT020 30/25 Q1008 NOSIG=
09-Feb-2023 SAID35 WART 090500 METAR WART 090500Z 32011KT 9999 FEW019CB SCT020 30/29 Q1008 RMK CB TO THE S=
09-Feb-2023 SAID35 WART 090600 METAR WART 090600Z 30011KT 9999 FEW019CB SCT020 31/28 Q1006 RMK CB TO THE S.E=
09-Feb-2023 SAID35 WART 090700 METAR WART 090700Z 33010KT 9999 FEW019CB SCT020 30/29 Q1005 RMK CB TO THE S.E=
09-Feb-2023 SAID35 WART 090800 METAR WART 090800Z 31011KT 9999 FEW019CB SCT020 29/29 Q1005 RMK CB TO THE S.E=
13-Feb-2023 SAID35 WART 130100 METAR WART 130100Z 00000KT 9999 SCT020 26/25 Q1010 NOSIG=
13-Feb-2023 SAID35 WART 130200 METAR WART 130200Z 31002KT 9999 SCT020 29/29 Q1010 NOSIG=
13-Feb-2023 SAID35 WART 130300 METAR WART 130300Z 29004KT 9999 SCT020 30/29 Q1009 NOSIG=
13-Feb-2023 SAID35 WART 130400 METAR WART 130400Z 231004KT 9999 SCT020 32/29 Q1008 NOSIG=
13-Feb-2023 SAID35 WART 130500 METAR WART 130500Z 20008KT 9999 SCT020 31/26 Q1008 NOSIG=
13-Feb-2023 SAID35 WART 130600 METAR WART 130600Z 03005KT 9999 SCT018CB BKN020 28/28 Q1007=
13-Feb-2023 SAID35 WART 130700 METAR WART 130700Z 36009KT 9999 SCT018CB BKN020 27/27 Q1007 RMK CB TO N=
14-Feb-2023 SAID35 WART 140100 METAR WART 140100Z 24002KT 9999 FEW020 28/28 Q1009=
14-Feb-2023 SAID35 WART 140200 METAR WART 140200Z 27007KT 9999 FEW020 31/29 Q1008=
14-Feb-2023 SAID35 WART 140300 METAR WART 140300Z 28010KT 9999 FEW020 32/26 Q1008=
14-Feb-2023 SAID35 WART 140400 METAR WART 140400Z 30007KT 9999 SCT020 32/27 Q1007=
14-Feb-2023 SAID35 WART 140500 METAR WART 140500Z 32008KT 9000 FEW019CB SCT020 30/27 Q1006 RMK CB OVER THE FIELD=
14-Feb-2023 SAID35 WART 140600 METAR WART 140600Z 29012KT 9000 FEW019CB SCT020 31/26 Q1005 RMK CB OVER THE FIELD=
14-Feb-2023 SAID35 WART 140700 METAR WART 140700Z 30012KT 9000 FEW019CB SCT020 32/26 Q1004 RMK CB TO E=
14-Feb-2023 SAID35 WART 140800 METAR WART 140800Z 28008KT 9999 SCT020 31/25 Q1004=
14-Feb-2023 SAID35 WART 140900 METAR WART 140900Z 31008KT 9999 SCT020 30/26 Q1004=
15-Feb-2023 SAID35 WART 150300 METAR WART 150300Z 20004KT 160V240 //// ////// 31/29 Q1008 RMK TEST1=
15-Feb-2023 SAID35 WART 150330 METAR WART 150330Z AUTO 21005KT 180V250 //// ////// 32/28 Q1007=
15-Feb-2023 SAID35 WART 150400 METAR WART 150400Z 20005KT 170V340 9999 FEW020 SCT019 31/28 Q1007 RMK TEST2=
16-Feb-2023 SAID35 WART 160200 METAR WART 160200Z 00000KT 9999 BKN018 28/26 Q1010 NOSIG=
16-Feb-2023 SAID35 WART 160300 METAR WART 160300Z 29005KT 9999 RA FEW018CB SCT020 30/30 Q1010=
16-Feb-2023 SAID35 WART 160400 METAR WART 160400Z 30006KT 9999 BKN018 30/30 Q1009=
16-Feb-2023 SAID35 WART 160430 METAR WART 160430Z AUTO 30007KT 250V340 //// ////// 31/29 Q1008=
16-Feb-2023 SAID35 WART 160500 METAR WART 160500Z AUTO 32007KT //// ////// 30/29 Q1008=
16-Feb-2023 SAID35 WART 160530 METAR WART 160530Z AUTO 25005KT 220V310 //// ////// 31/29 Q1007=
16-Feb-2023 SAID35 WART 160600 METAR WART 160600Z AUTO 31006KT //// ////// 30/30 Q1007=
16-Feb-2023 SAID35 WART 160630 METAR WART 160630Z AUTO 29007KT 9999 RA FEW018CB SCT020 28/28 Q1007=
16-Feb-2023 SAID35 WART 160700 METAR WART 160700Z AUTO 28005KT 220V340 6000 TSRA FEW018CB BKN020 27/27 Q1007=
16-Feb-2023 SPID35 WART 160707 SPECI WART 160707Z AUTO 22010KT 190V250 //// ////// 25/26 Q1007=
16-Feb-2023 SAID35 WART 160730 METAR WART 160730Z AUTO 18008KT //// ////// 25/25 Q1007=
16-Feb-2023 SAID35 WART 160800 METAR WART 160800Z AUTO 22004KT 200V270 //// ////// 25/25 Q1007=
16-Feb-2023 SAID35 WART 160830 METAR WART 160830Z AUTO 24007KT //// ////// 25/25 Q1007=
16-Feb-2023 SAID35 WART 160900 METAR WART 160900Z AUTO VRB02KT //// ////// 25/25 Q1007=
16-Feb-2023 SAID35 WART 160930 METAR WART 160930Z AUTO 03001KT //// ////// 25/25 Q1007=
17-Feb-2023 SAID35 WART 170100 METAR WART 170100Z 24005KT 9999 SCT020 27/27 Q1010 NOSIG=
17-Feb-2023 SAID35 WART 170200 METAR WART 170200Z 25007KT 9999 SCT020 30/30 Q1010 NOSIG=
17-Feb-2023 SAID35 WART 170300 METAR WART 170300Z 25009KT 9999 SCT020 30/26 Q1009 NOSIG=
17-Feb-2023 SAID35 WART 170400 METAR WART 170400Z 28006KT 9999 SCT020 32/26 Q1009 NOSIG=
17-Feb-2023 SAID35 WART 170500 METAR WART 170500Z 29008KT 9999 SCT020 32/26 Q1008 NOSIG=
17-Feb-2023 SAID35 WART 170600 METAR WART 170600Z 32011KT 9999 SCT020 31/27 Q1007 NOSIG=
17-Feb-2023 SAID35 WART 170700 METAR WART 170700Z 31011KT 9999 SCT020 31/27 Q1006 NOSIG=
17-Feb-2023 SAID35 WART 170800 METAR WART 170800Z 29010KT 9999 SCT020 31/27 Q1005 NOSIG=
20-Feb-2023 SAID35 WART 200100 METAR WART 200100Z 00000KT 9999 FEW018 28/25 Q1010 NOSIG=
20-Feb-2023 SAID35 WART 200200 METAR WART 200200Z 12007KT 9999 FEW018 29/26 Q1009 NOSIG=
20-Feb-2023 SAID35 WART 200300 METAR WART 200300Z 12007KT 9999 FEW018 30/26 Q1009 NOSIG=
20-Feb-2023 SAID35 WART 200400 METAR WART 200400Z AUTO 19007KT 9999 FEW018 32/28 Q1008=
20-Feb-2023 SAID35 WART 200430 METAR WART 200430Z AUTO VRB02KT //// ////// 31/28 Q1008=
20-Feb-2023 SAID35 WART 200500 METAR WART 200500Z AUTO 31003KT 240V020 9999 FEW018 32/29 Q1007=
20-Feb-2023 SAID35 WART 200530 METAR WART 200530Z AUTO VRB02KT //// ////// 30/31 Q1007=
20-Feb-2023 SAID35 WART 200600 METAR WART 200600Z AUTO 14009KT 9999 SCT018 30/30 Q1006=
20-Feb-2023 SAID35 WART 200630 METAR WART 200630Z AUTO 13008KT //// ////// 29/29 Q1006=
20-Feb-2023 SAID35 WART 200700 METAR WART 200700Z AUTO VRB10KT //// ////// 25/25 Q1006=
20-Feb-2023 SPID35 WART 200703 SPECI WART 200703Z AUTO VRB05KT //// ////// 24/24 Q1007=
20-Feb-2023 SPID35 WART 200715 SPECI WART 200715Z AUTO 30010KT 210V350 //// ////// 23/23 Q1007=
20-Feb-2023 SAID35 WART 200730 METAR WART 200730Z AUTO 34007KT //// ////// 24/24 Q1006=
20-Feb-2023 SAID35 WART 200800 METAR WART 200800Z AUTO VRB02KT //// ////// 25/25 Q1006=
20-Feb-2023 SAID35 WART 200830 METAR WART 200830Z AUTO 24002KT 6000 TSRA FEW018CB 26/26 Q1006=
20-Feb-2023 SAID35 WART 200900 METAR WART 200900Z AUTO 26004KT //// ////// 26/26 Q1006=
20-Feb-2023 SAID35 WART 200930 METAR WART 200930Z AUTO 27004KT //// ////// 26/26 Q1006=
20-Feb-2023 SAID35 WART 201000 METAR WART 201000Z AUTO 25004KT //// ////// 26/26 Q1006=
20-Feb-2023 SAID35 WART 201030 METAR WART 201030Z AUTO VRB02KT //// ////// 26/26 Q1007=
20-Feb-2023 SAID35 WART 201100 METAR WART 201100Z AUTO 21003KT //// ////// 26/26 Q1007=
20-Feb-2023 SAID35 WART 201130 METAR WART 201130Z AUTO 28003KT //// ////// 26/26 Q1007=
20-Feb-2023 SAID35 WART 201200 METAR WART 201200Z AUTO 28002KT //// ////// 26/26 Q1008=
20-Feb-2023 SAID35 WART 201230 METAR WART 201230Z AUTO 27003KT //// ////// 26/26 Q1008=
20-Feb-2023 SAID35 WART 201300 METAR WART 201300Z AUTO 30002KT //// ////// 26/26 Q1008=
20-Feb-2023 SAID35 WART 201330 METAR WART 201330Z AUTO 27002KT //// ////// 26/26 Q1009=
20-Feb-2023 SAID35 WART 201400 METAR WART 201400Z AUTO 23002KT //// ////// 26/26 Q1009=
20-Feb-2023 SAID35 WART 201430 METAR WART 201430Z AUTO 30004KT 260V340 //// ////// 26/26 Q1009=
20-Feb-2023 SAID35 WART 201500 METAR WART 201500Z AUTO 29003KT 240V330 //// ////// 25/25 Q1009=
20-Feb-2023 SAID35 WART 201530 METAR WART 201530Z AUTO 29005KT //// ////// 25/25 Q1009=
20-Feb-2023 SAID35 WART 201600 METAR WART 201600Z AUTO 27004KT //// ////// 25/25 Q1009=
20-Feb-2023 SAID35 WART 201630 METAR WART 201630Z AUTO 26001KT //// ////// 25/25 Q1009=
20-Feb-2023 SAID35 WART 201700 METAR WART 201700Z AUTO 07001KT //// ////// 25/25 Q1009=
21-Feb-2023 SAID35 WART 210100 METAR WART 210100Z 28006KT 9999 FEW020 27/25 Q1010 NOSIG=
21-Feb-2023 SAID35 WART 210200 METAR WART 210200Z 24007KT 9999 SCT020 30/28 Q1010 NOSIG=
21-Feb-2023 SAID35 WART 210300 METAR WART 210300Z 23004KT 9999 SCT020 31/29 Q1009 NOSIG=
21-Feb-2023 SAID35 WART 210400 METAR WART 210400Z 32009KT 280V350 9999 SCT020 31/29 Q1009 NOSIG=
21-Feb-2023 SAID35 WART 210500 METAR WART 210500Z 23004KT 9000 -RA BKN019 29/29 Q1008=
21-Feb-2023 SPID35 WART 210515 SPECI WART 210515Z VRB05KT 2000 TSRA FEW018CB SCT020 27/27 Q1008 CB OVER THE FIELD=
21-Feb-2023 SAID35 WART 210600 METAR WART 210600Z 36009KT 4000 TSRA FEW018CB SCT020 25/25 Q1008 CB OVER THE FIELD=
21-Feb-2023 SAID35 WART 210700 METAR WART 210700Z 28008KT 6000 -TSRA FEW018CB SCT020 24/24 Q1007 CB TO THE WEST=
21-Feb-2023 SAID35 WART 210800 METAR WART 210800Z VRB02KT 9000 -RA BKN020 25/25 Q1007=
22-Feb-2023 SAID35 WART 220100 METAR WART 220100Z 29005KT 9999 FEW020 29/29 Q1009=
22-Feb-2023 SAID35 WART 220300 METAR WART 220300Z AUTO 28008KT 260V320 //// ////// 32/27 Q1009=
22-Feb-2023 SAID35 WART 220330 METAR WART 220330Z AUTO 29012KT //// ////// 32/26 Q1009=
22-Feb-2023 SAID35 WART 220600 METAR WART 220600Z 26014KT 9000 TS FEW018CB SCT019 32/27 Q1007 RMK CB OVER THE FIELD=
22-Feb-2023 SAID35 WART 220630 METAR WART 220630Z AUTO 29013KT //// ////// 30/27 Q1007=
22-Feb-2023 SAID35 WART 220700 METAR WART 220700Z 28016KT 9000 FEW018CB SCT019 29/26 Q1007 RMK CB OVER THE FIELD=
22-Feb-2023 SAID35 WART 220800 METAR WART 220800Z 30013KT 9999 BKN020 30/26 Q1006=
22-Feb-2023 SAID35 WART 220830 METAR WART 220830Z AUTO 29012KT 260V330 //// ////// 30/27 Q1006=
22-Feb-2023 SAID35 WART 220900 METAR WART 220900Z 30011KT 9999 SCT020 30/26 Q1006=
22-Feb-2023 SAID35 WART 220930 METAR WART 220930Z AUTO 31012KT //// ////// 29/26 Q1006=
22-Feb-2023 SAID35 WART 221000 METAR WART 221000Z AUTO 29011KT //// ////// 29/27 Q1006=
22-Feb-2023 SAID35 WART 221030 METAR WART 221030Z AUTO 29012KT //// ////// 28/27 Q1007=
22-Feb-2023 SAID35 WART 221100 METAR WART 221100Z AUTO 28011KT //// ////// 27/27 Q1007=
22-Feb-2023 SAID35 WART 221130 METAR WART 221130Z AUTO 29008KT //// ////// 27/27 Q1008=
22-Feb-2023 SAID35 WART 221200 METAR WART 221200Z AUTO 28010KT //// ////// 27/27 Q1008=
22-Feb-2023 SAID35 WART 221230 METAR WART 221230Z AUTO 27010KT //// ////// 27/27 Q1009=
22-Feb-2023 SAID35 WART 221300 METAR WART 221300Z AUTO 27008KT //// ////// 27/27 Q1009=
22-Feb-2023 SAID35 WART 221330 METAR WART 221330Z AUTO 26006KT //// ////// 27/27 Q1009=
22-Feb-2023 SAID35 WART 221400 METAR WART 221400Z AUTO 26004KT //// ////// 26/26 Q1009=
22-Feb-2023 SAID35 WART 221430 METAR WART 221430Z AUTO 26005KT //// ////// 26/26 Q1009=
22-Feb-2023 SAID35 WART 221500 METAR WART 221500Z AUTO 26004KT //// ////// 26/26 Q1009=
22-Feb-2023 SAID35 WART 221530 METAR WART 221530Z AUTO 25004KT //// ////// 26/26 Q1009=
22-Feb-2023 SAID35 WART 221600 METAR WART 221600Z AUTO 27005KT //// ////// 26/26 Q1009=
22-Feb-2023 SAID35 WART 221630 METAR WART 221630Z AUTO 23003KT //// ////// 26/26 Q1008=
22-Feb-2023 SAID35 WART 221700 METAR WART 221700Z AUTO 25003KT //// ////// 25/25 Q1008=
23-Feb-2023 SAID35 WART 230230 METAR WART 230230Z AUTO 29008KT 260V320 //// ////// 29/29 Q1008=
23-Feb-2023 SAID35 WART 230300 METAR WART 230300Z AUTO 29010KT //// ////// 29/29 Q1008=
23-Feb-2023 SAID35 WART 230330 METAR WART 230330Z AUTO 29008KT 250V340 //// ////// 30/30 Q1008=
23-Feb-2023 SAID35 WART 230400 METAR WART 230400Z AUTO 28012KT //// ////// 30/29 Q1007=
23-Feb-2023 SAID35 WART 230430 METAR WART 230430Z AUTO 29012KT //// ////// 29/29 Q1007=
23-Feb-2023 SAID35 WART 230500 METAR WART 230500Z AUTO 31009KT 270V330 //// ////// 29/29 Q1007=
23-Feb-2023 SAID35 WART 230530 METAR WART 230530Z AUTO 29011KT //// ////// 30/29 Q1006=
23-Feb-2023 SAID35 WART 230600 METAR WART 230600Z AUTO 30012KT //// ////// 31/30 Q1006=
23-Feb-2023 SAID35 WART 230630 METAR WART 230630Z AUTO 30013KT //// ////// 27/27 Q1006=
23-Feb-2023 SAID35 WART 230700 METAR WART 230700Z AUTO 29011KT //// ////// 28/28 Q1005=
27-Feb-2023 SAID35 WART 270100 METAR WART 270100Z 29011KT 9999 FEW018 29/29 Q1010 NOSIG=
27-Feb-2023 SAID35 WART 270200 METAR WART 270200Z 29013KT 9999 SCT018 29/28 Q1011=
27-Feb-2023 SAID35 WART 270300 METAR WART 270300Z 27014KT 9999 FEW018 29/29 Q1011 NOSIG=
27-Feb-2023 SAID35 WART 270400 METAR WART 270400Z 30016KT 270V330 9999 FEW018 30/28 Q1011 NOSIG=
27-Feb-2023 SPID35 WART 270430 SPECI WART 270430Z 31014KT 8000 -RA SCT017 28/29 Q1010=
27-Feb-2023 SAID35 WART 270500 METAR WART 270500Z 30014KT 8000 RA HZ BKN018 27/27 Q1010=
27-Feb-2023 SAID35 WART 270600 METAR WART 270600Z 30010KT 9999 SCT018 26/26 Q1010 RERA=
27-Feb-2023 SAID35 WART 270700 METAR WART 270700Z 30014KT 9999 FEW018 29/29 Q1009 NOSIG=
27-Feb-2023 SPID35 WART 270712 SPECI WART 270712Z 31014KT 8000 -RA BKN018 29/29 Q1009=
27-Feb-2023 SAID35 WART 270800 METAR WART 270800Z 31008KT 280V340 9999 FEW018 28/28 Q1008 RERA=
27-Feb-2023 SAID35 WART 270900 METAR WART 270900Z 30009KT 9999 FEW018 28/28 Q1008 NOSIG=
01-Mar-2023 SAID35 WART 010000 METAR WART 010000Z 30004KT 9999 SCT020 25/25 Q1010 NOSIG=
01-Mar-2023 SAID35 WART 010100 METAR WART 010100Z 32002KT 9999 FEW020 27/27 Q1011 NOSIG=
01-Mar-2023 SAID35 WART 010200 METAR WART 010200Z 24005KT 190V280 9999 FEW020 31/28 Q1011 NOSIG=
01-Mar-2023 SAID35 WART 010300 METAR WART 010300Z 26008KT 230V290 9999 FEW020 30/26 Q1010 NOSIG=
01-Mar-2023 SAID35 WART 010400 METAR WART 010400Z 30005KT 270V350 9999 SCT020 32/25 Q1010 NOSIG=
01-Mar-2023 SAID35 WART 010500 METAR WART 010500Z 23005KT 180V330 9999 FEW018CB SCT020 30/27 Q1009 NOSIG=
01-Mar-2023 SPID35 WART 010541 SPECI WART 010541Z 35007KT 9000 -RA FEW018CB SCT020 28/28 Q1009 CB OVER THE FIELD=
01-Mar-2023 SAID35 WART 010600 METAR WART 010600Z 34004KT 240V050 8000 -RA FEW018CB SCT020 27/27 Q1009 CB OVER THE FIELD=
01-Mar-2023 SAID35 WART 010700 METAR WART 010700Z 14007KT 090V170 5000 +RA SCT017CB SCT020 26/26 Q1008 CB OVER THE FIELD=
01-Mar-2023 SPID35 WART 010723 SPECI WART 010723Z 25003KT 5000 -TSRA SCT017CB SCT020 24/24 Q1008 CB OVER THE FIELD=
01-Mar-2023 SAID35 WART 010800 METAR WART 010800Z 35004KT 300V090 5000 -RA FEW018CB SCT020 25/25 Q1008 CB TO THE WEST=
02-Mar-2023 SAID35 WART 020000 METAR WART 020000Z 15001KT 9999 FEW018TCU 23/23 Q1009=
02-Mar-2023 SAID35 WART 020030 METAR WART 020030Z 29008KT 250V310 9999 FEW018TCU 28/28 Q1012=
02-Mar-2023 SAID35 WART 020100 METAR WART 020100Z 31008KT 260V340 9999 SCT018 27/27 Q1012=
02-Mar-2023 SAID35 WART 020200 METAR WART 020200Z 32008KT 9999 BKN018 27/27 Q1012=
02-Mar-2023 SPID35 WART 020242 SPECI WART 020242Z 32008KT 9999 BKN018 27/27 Q1012=
02-Mar-2023 SAID35 WART 020300 METAR WART 020300Z 33011KT 8000 -RA BKN018 26/26 Q1012=
02-Mar-2023 SPID35 WART 020300 SPECI WART 020300Z 33011KT 8000 -RA BKN018 26/26 Q1012=
02-Mar-2023 SPID35 WART 020305 SPECI WART 020305Z 33011KT 5000 RA HZ BKN017CB SCT018 26/26 Q1012 CB OVER THE FIELD=
02-Mar-2023 SAID35 WART 020600 METAR WART 020600Z 32012KT 8000 SCT017 24/24 Q1012 RERA=
02-Mar-2023 SPID35 WART 020610 SPECI WART 020610Z 32012KT 7000 RA BKN017CB SCT018 24/24 Q1012 CB TO THE SOUTH EAST=
02-Mar-2023 SAID35 WART 020700 METAR WART 020700Z 28009KT 9999 SCT018 24/24 Q1010 RERA=
02-Mar-2023 SAID35 WART 020800 METAR WART 020800Z 30008KT 270V330 9999 SCT018 26/26 Q1009 NOSIG=
03-Mar-2023 SAID35 WART 030300 METAR WART 030300Z 30007KT 260V320 9999 SCT020 TCU 32/26 Q1013=
04-Mar-2023 SAID35 WART 040000 METAR WART 040000Z 32002KT 9999 FEW020 25/25 Q1012=
06-Mar-2023 SAID35 WART 060000 METAR WART 060000Z 32002KT 9999 FEW020 25/25 Q1012=
06-Mar-2023 SAID35 WART 060100 METAR WART 060100Z 26006KT 9999 FEW020 29/29 Q1012=
06-Mar-2023 SAID35 WART 060200 METAR WART 060200Z 26006KT 9999 FEW020 28/28 Q1012 NOSIG=
06-Mar-2023 SAID35 WART 060300 METAR WART 060300Z 320006KT 9999 FEW020 31/29 Q1012 NOSIG=
06-Mar-2023 SAID35 WART 060400 METAR WART 060400Z 26006KT 9999 FEW020 33/28 Q1011 NOSIG=
06-Mar-2023 SAID35 WART 060500 METAR WART 060500Z 15008KT 9999 FEW020 32/29 Q1010 NOSIG=
06-Mar-2023 SAID35 WART 060600 METAR WART 060600Z 12006KT 9999 FEW020 33/29 Q1009 NOSIG=
06-Mar-2023 SAID35 WART 060700 METAR WART 060700Z 32007KT 9999 SCT020 32/28 Q1008 NOSIG=
06-Mar-2023 SAID35 WART 060800 METAR WART 060800Z 35005KT 9999 SCT020 30/29 Q1008 NOSIG=
07-Mar-2023 SAID35 WART 070000 METAR WART 070000Z 00000KT 9999 FEW020 26/26 Q1011 NOSIG=
07-Mar-2023 SAID35 WART 070100 METAR WART 070100Z 22003KT 9999 FEW020 28/228 Q1011 NOSIG=
07-Mar-2023 SAID35 WART 070200 METAR WART 070200Z 20007KT 9999 FEW020 30/27 Q1012 NOSIG=
07-Mar-2023 SAID35 WART 070300 METAR WART 070300Z 21007KT 9999 FEW020 32/27 Q1012 NOSIG=
07-Mar-2023 SAID35 WART 070400 METAR WART 070400Z 18007KT 9999 FEW020 32/27 Q1011 NOSIG=
07-Mar-2023 SAID35 WART 070500 METAR WART 070500Z 18009KT 9999 SCT020 32/27 Q1010 NOSIG=
07-Mar-2023 SAID35 WART 070600 METAR WART 070600Z 17007KT 9999 SCT020 32/26 Q1010 NOSIG=
07-Mar-2023 SAID35 WART 070700 METAR WART 070700Z 34006KT 9999 SCT020 31/27 Q1009 NOSIG=
07-Mar-2023 SAID35 WART 070800 METAR WART 070800Z 32005KT 9999 SCT020 31/27 Q1008 NOSIG=
07-Mar-2023 SAID35 WART 070900 METAR WART 070900Z 00000KT 9999 SCT020 31/27 Q1008 NOSIG=
08-Mar-2023 SAID35 WART 080000 METAR WART 080000Z 00000KT 9999 FEW020 27/25 Q1013 NOSIG=
08-Mar-2023 SAID35 WART 080100 METAR WART 080100Z 00000KT 9999 FEW020 28/25 Q1013 NOSIG=
08-Mar-2023 SAID35 WART 080200 METAR WART 080200Z 23004KT 9999 FEW020 30/28 Q1013 NOSIG=
08-Mar-2023 SAID35 WART 080300 METAR WART 080300Z 19005KT 9999 FEW018 31/27 Q1012 NOSIG=
08-Mar-2023 SAID35 WART 080400 METAR WART 080400Z 17010KT 9999 FEW018 32/29 Q1012 NOSIG=
08-Mar-2023 SAID35 WART 080500 METAR WART 080500Z 02006KT 9999 TSRA FEW018CB SCT020 26/26 Q1012=
08-Mar-2023 SAID35 WART 080600 METAR WART 080600Z 32005KT 9999 FEW018CB SCT020 28/28 Q1011=
08-Mar-2023 SAID35 WART 080700 METAR WART 080700Z 31011KT 9999 FEW020 30/26 Q1010 NOSIG=
08-Mar-2023 SAID53 WART 080700 METAR WART 080700Z 31011KT 9999 FEW020 30/26 Q1010 NOSIG=
08-Mar-2023 SAID35 WART 080800 METAR WART 080800Z 31006KT 9999 SCT020 31/28 Q1010 NOSIG=
08-Mar-2023 SAID35 WART 080900 METAR WART 080900Z 30007KT 9999 SCT020 30/27 Q1010 NOSIG=
09-Mar-2023 SAID35 WART 090000 METAR WART 090000Z 00000KT 9000 FEW020 26/26 Q1011 NOSIG=
09-Mar-2023 SAID35 WART 090100 METAR WART 090100Z 12001KT 9999 FEW020 31/28 Q1012 NOSIG=
09-Mar-2023 SAID35 WART 090200 METAR WART 090200Z 12004KT 090V160 9999 SCT020 33/27 Q1012 NOSIG=
09-Mar-2023 SAID35 WART 090300 METAR WART 090300Z 13005KT 100V170 9999 FEW020 34/28 Q1011 NOSIG=
09-Mar-2023 SAID35 WART 090400 METAR WART 090400Z 14009KT 9999 FEW020 33/27 Q1011 NOSIG=
09-Mar-2023 SAID35 WART 090500 METAR WART 090500Z VRB02KT 9999 SCT020 30/27 Q1010 NOSIG=
09-Mar-2023 SAID35 WART 090600 METAR WART 090600Z 11007KT 070V140 8000 FEW018CB FEW020 34/28 Q1009 NOSIG RMK CB TO THE WEST=
09-Mar-2023 SAID35 WART 090700 METAR WART 090700Z 31007KT 8000 FEW018CB FEW020 31/26 Q1009 RMK CB OVR THE FIELD=
09-Mar-2023 SAID35 WART 090800 METAR WART 090800Z 34005KT 9000 FEW018CB FEW020 31/28 Q1008 RMK CB TO N=
09-Mar-2023 SAID35 WART 090900 METAR WART 090900Z 34005KT 9999 FEW020 30/28 Q1008 NOSIG=
10-Mar-2023 SAID35 WART 100000 METAR WART 100000Z 00000KT 9999 FEW020 26/26 Q1011 NOSIG=
10-Mar-2023 SAID35 WART 100100 METAR WART 100010Z 03002KT 9999 FEW020 32/28 Q1011 NOSIG=
10-Mar-2023 SAID35 WART 100700 METAR WART 100700Z 04005KT 9000 FEW018CB SCT020 30/29 Q1007 NOSIG RMK CB TO THE WEST=
10-Mar-2023 SAID35 WART 100800 METAR WART 100800Z 25010KT 9000 FEW018CB SCT020 28/28 Q1007 NOSIG RMK CB TO THE WEST=
11-Mar-2023 SAID35 WART 110300 METAR WART 110300Z VRB02KT 9999 SCT020TCU 34/27 Q1011=
13-Mar-2023 SAID35 WART 130000 METAR WART 130000Z 32002KT 8000 SCT019CB FEW020 25/25 Q1010 NOSIG RMK CB OVER THE FIELD=
13-Mar-2023 SAID35 WART 130100 METAR WART 130100Z 01006KT 8000 RA SCT019CB FEW020 24/24 Q1010 NOSIG RMK CB OVER THE FIELD=
13-Mar-2023 SAID35 WART 130200 METAR WART 130200Z 03006KT 9999 SCT019CB FEW020 26/26 Q1010 NOSIG RMK CB OVER THE FIELD=
13-Mar-2023 SAID35 WART 130300 METAR WART 130300Z 07004KT 9999 SCT019CB FEW020 27/27 Q1009 NOSIG RMK CB OVER THE FIELD=
13-Mar-2023 SAID35 WART 130400 METAR WART 130400Z 09005KT 9999 FEW019CB SCT020 29/29 Q1009 NOSIG RMK CB TO THE EAST=
13-Mar-2023 SAID35 WART 130500 METAR WART 130500Z 12007KT 9999 FEW019CB SCT020 29/29 Q1008 NOSIG RMK CB TO THE S=
13-Mar-2023 SAID35 WART 130600 METAR WART 130600Z 12009KT 9999 SCT020 32/28 Q1007 NOSIG=
13-Mar-2023 SAID35 WART 130700 METAR WART 130700Z 12009KT 9999 SCT020 31/29 Q1007 NOSIG=
13-Mar-2023 SAID35 WART 130800 METAR WART 130800Z 11004KT 8000 FEW018CB BKN020 28/28 Q1007 RMK CB TO W=
14-Mar-2023 SAID35 WART 140000 METAR WART 140000Z 33003KT 9999 FEW020 26/25 Q1009 NOSIG=
14-Mar-2023 SAID35 WART 140100 METAR WART 140100Z 06004KT 9999 SCT020 30/29 Q1010 NOSIG=
14-Mar-2023 SAID35 WART 140200 METAR WART 140200Z 13005KT 8000 FEW018CB SCT020 30/29 Q1010 NOSIG=
14-Mar-2023 SAID35 WART 140300 METAR WART 140300Z 15007KT 8000 FEW018CB SCT020 31/299 Q1010 NOSIG=
14-Mar-2023 SAID35 WART 140400 METAR WART 140400Z 11005KT 8000 SCT018CB SCT020 29/29 Q1009 NOSIG=
14-Mar-2023 SPID35 WART 140418 SPECI WART 140418Z 14013KT 7000 RA SCT018CB SCT020 26/26 Q1009=
14-Mar-2023 SAID35 WART 140500 METAR WART 140500Z 10002KT 8000 SCT018CB SCT020 28/28 Q1008 NOSIG=
14-Mar-2023 SAID35 WART 140600 METAR WART 140600Z 09003KT 8000 FEW018CB SCT020 31/29 Q1007 NOSIG=
14-Mar-2023 SAID35 WART 140700 METAR WART 140700Z 08004KT 9999 SCT018CB FEW020 31/27 Q1007 RMK CB OVER THE FIELD=
14-Mar-2023 SPID35 WART 140723 SPECI WART 140723Z 15002KT 7000 RA SCT019CB FEW020 26/26 Q1007 RMK CB OVER THE FIELD=
14-Mar-2023 SAID35 WART 140800 METAR WART 140800Z 21004KT 8000 RA SCT018CB FEW020 26/26 Q1007 RMK CB OVER THE FIELD=
14-Mar-2023 SAID35 WART 140900 METAR WART 140900Z 22001KT 9999 SCT019CB FEW020 28/28 Q1007 RMK CB TO THE E.S=
15-Mar-2023 SAID35 WART 150000 METAR WART 150000Z 32003KT 9999 FEW020 26/25 Q1010 NOSIG=
15-Mar-2023 SAID35 WART 150100 METAR WART 150100Z 12003KT 9999 FEW020 31/28 Q1011 NOSIG=
15-Mar-2023 SAID35 WART 150200 METAR WART 150200Z 12004KT 9999 FEW020 32/27 Q1011 NOSIG=
15-Mar-2023 SAID35 WART 150300 METAR WART 150300Z 15005KT 9999 FEW020 32/25 Q1010 NOSIG=
15-Mar-2023 SAID35 WART 150400 METAR WART 150400Z 16011KT 9999 FEW020 32/28 Q1010 NOSIG=
15-Mar-2023 SAID35 WART 150500 METAR WART 150500Z 10010KT 9999 FEW020 33/27 Q1009 NOSIG=
15-Mar-2023 SAID35 WART 150600 METAR WART 150600Z 14007KT 9999 FEW020 32/25 Q1008 NOSIG=
15-Mar-2023 SAID35 WART 150700 METAR WART 150700Z 15007KT 9999 FEW020 32/25 Q1008 NOSIG=
15-Mar-2023 SAID35 WART 150800 METAR WART 150800Z 14009KT 9999 FEW020 31/25 Q1008 NOSIG=
16-Mar-2023 SAID35 WART 160000 METAR WART 160000Z 32003KT 9999 FEW020 27/25 Q1011 NOSIG=
16-Mar-2023 SAID35 WART 160100 METAR WART 160100Z 15003KT 9999 SCT20 29/29 Q1011 NOSIG=
16-Mar-2023 SAID35 WART 160200 METAR WART 160200Z 17006KT 9999 SCT20 30/30 Q1011 NOSIG=
16-Mar-2023 SAID35 WART 160300 METAR WART 160300Z 19006KT 9999 SCT20 31/29 Q1011 NOSIG=
16-Mar-2023 SAID35 WART 160400 METAR WART 160400Z 14005KT 9999 SCT20 34/26 Q1011 NOSIG=
16-Mar-2023 SAID35 WART 160500 METAR WART 160500Z 16010KT 9999 FEW018CB SCT20 33/29 Q1010 NOSIG=
16-Mar-2023 SAID35 WART 160600 METAR WART 160600Z 34003KT 9999 FEW018CB SCT20 31/25 Q1009 NOSIG=
16-Mar-2023 SAID35 WART 160700 METAR WART 160700Z 09002KT 9999 FEW018 CB SCT020 31/24 Q1008 NOSIG=
16-Mar-2023 SAID35 WART 160800 METAR WART 160800Z 10008KT 9999 FEW018 32/26 Q1008 NOSIG=
17-Mar-2023 SAID35 WART 170000 CCA METAR WART 170000Z 00000KT 9999 FEW020 27/27 Q1011 NOSIG=
17-Mar-2023 SAID35 WART 170100 METAR WART 170100Z VRB03KT 9999 SCT020 32/30 Q1011 NOSIG=
17-Mar-2023 SAID35 WART 170200 METAR WART 170200Z 20005KT 9999 SCT020 30/29 Q1011 NOSIG=
17-Mar-2023 SAID35 WART 170300 METAR WART 170300Z 17008KT 9999 SCT020 33/30 Q1011 NOSIG=
17-Mar-2023 SAID35 WART 170400 METAR WART 170400Z 16006KT 9999 SCT020 33/28 Q1011 NOSIG=
17-Mar-2023 SAID35 WART 170500 METAR WART 170500Z 13010KT 9999 SCT020 34/27 Q1007 NOSIG=
17-Mar-2023 SAID35 WART 170600 METAR WART 170600Z 13009KT 9999 FEW018CB FEW020 33/27 Q1008 NOSIG RMK CB TO THE NORTHWEST=
17-Mar-2023 SAID35 WART 170900 METAR WART 170900Z 12009KT 9999 SCT020 32/27 Q1007 NOSIG=
18-Mar-2023 SAID35 WART 180000 METAR WART 180000Z 00000KT 9999 FEW020 26/26 Q1010=
20-Mar-2023 SAID35 WART 200000 METAR WART 200000Z 34002KT 9999 FEW020 27/27 Q1009=
20-Mar-2023 SAID35 WART 200100 METAR WART 200100Z 00000KT 9999 FEW020 31/30 Q1009=
20-Mar-2023 SAID35 WART 200200 METAR WART 200200Z 00000KT 9999 SCT020 31/30 Q1009=
20-Mar-2023 SAID35 WART 200300 METAR WART 200300Z 13008KT 9999 SCT020 32/25 Q1009=
20-Mar-2023 SAID35 WART 200400 METAR WART 200400Z 10005KT 9999 SCT020 32/24 Q1009=
20-Mar-2023 SAID35 WART 200500 METAR WART 200500Z 00000KT 9999 SCT020 33/26 Q1008=
20-Mar-2023 SAID35 WART 200600 METAR WART 200600Z 10005KT 9999 SCT020 33/26 Q1007=
21-Mar-2023 SAID35 WART 210000 METAR WART 210000Z 26001KT 9999 SCT020 26/26 Q1009 NOSIG=
21-Mar-2023 SAID35 WART 210100 METAR WART 210100Z 06001KT 9999 SCT020 28/28 Q1010 NOSIG=
21-Mar-2023 SAID35 WART 210800 METAR WART 210800Z 11005 9999 SCT020 33/28 Q1005=
21-Mar-2023 SAID35 WART 210900 METAR WART 210900Z 10004KT 9999 SCT020 31/29 Q1005=
22-Mar-2023 SAID35 WART 220100 METAR WART 220100Z 17003KT 9999 SCT020 30/29 Q1009=
22-Mar-2023 SAID35 WART 220200 METAR WART 220200Z 19004KT 9999 SCT020 31/30 Q1010=
22-Mar-2023 SAID35 WART 220300 METAR WART 220300Z 26004KT 9999 RA FEW018CB SCT020 29/29 Q1009=
22-Mar-2023 SAID35 WART 220400 METAR WART 220400Z 17007KT 9999 RA FEW018CB SCT020 29/29 Q1008=
22-Mar-2023 SAID35 WART 220500 METAR WART 220500Z 32003KT 9999 FEW018CB SCT020 30/29 Q1008=
22-Mar-2023 SAID35 WART 220600 METAR WART 220600Z 00000KT 9999 SCT018 32/28 Q1006=
23-Mar-2023 SAID35 WART 230000 METAR WART 230000Z 00000KT 9999 FEW020 27/27 Q1008=
23-Mar-2023 SAID35 WART 230100 METAR WART 230100Z 00000KT 9999 FEW020 30/30 Q1009=
23-Mar-2023 SAID35 WART 230200 METAR WART 230200Z 15003KT 9999 FEW020 32/28 Q1009=
23-Mar-2023 SAID35 WART 230300 METAR WART 230300Z 16006KT 9999 SCT020 32/29 Q1009=
23-Mar-2023 SAID35 WART 230400 METAR WART 230400Z 00000KT 9999 SCT020 31/26 Q1008=
23-Mar-2023 SAID35 WART 230500 METAR WART 230500Z 18004KT 9999 FEW018CB SCT020 31/26 Q1007 RMK CB TO THE N=
23-Mar-2023 SAID35 WART 230600 METAR WART 230600Z 0000KT 8000 TSRA FEW018CB SCT020 30/26 Q1007 RMK CB OVER THE FIELD=
23-Mar-2023 SAID35 WART 230700 METAR WART 230700Z 32005KT 8000 FEW018CB SCT020 30/30 Q1006=
23-Mar-2023 SAID35 WART 230800 METAR WART 230800Z 09003KT 8000 SCT018CB SCT020 31/30 Q1006=
23-Mar-2023 SAID35 WART 230900 METAR WART 230900Z 17011KT 8000 TS SCT018CB SCT020 27/27 Q1006=
24-Mar-2023 SAID35 WART 240000 METAR WART 240000Z 00000KT 9999 FEW018 26/25 Q1009 NOSIG=
24-Mar-2023 SAID35 WART 240100 METAR WART 240100Z 00000KT 9999 FEW018 29/26 Q1009 NOSIG=
24-Mar-2023 SAID35 WART 240200 METAR WART 240200Z 00000KT 9999 FEW018 30/25 Q1010 NOSIG=
24-Mar-2023 SAID35 WART 240300 METAR WART 240300Z 19005KT 9999 FEW018 33/28 Q1009 NOSIG=
24-Mar-2023 SAID35 WART 240400 METAR WART 240400Z 19005KT 9999 FEW018 33/27 Q1008 NOSIG=
24-Mar-2023 SAID35 WART 240500 METAR WART 240500Z 09005KT 9999 FEW018 33/28 Q1008 NOSIG=
24-Mar-2023 SAID35 WART 240600 METAR WART 240600Z 33008KT 9000 SCT018 28/28 Q1007=
24-Mar-2023 SAID35 WART 240700 METAR WART 240700Z 36008KT 9999 SCT018 32/28 Q1006=
24-Mar-2023 SAID35 WART 240800 METAR WART 240800Z 33005KT 9999 SCT018 33/26 Q1006=
26-Mar-2023 SAID35 WART 260000 METAR WART 260000Z 00000KT 9999 FEW020 25/25 Q1009=
27-Mar-2023 SAID35 WART 270300 METAR WART 270300Z 33008KT 9999 SCT018TCU 31/29 Q1010=
27-Mar-2023 SAID35 WART 270700 METAR WART 270700Z 34009KT 9999 SCT020 32/28 Q1007=
27-Mar-2023 SAID35 WART 270800 METAR WART 270800Z 33011KT 9999 SCT020 31/26 Q1007=
28-Mar-2023 SAID35 WART 280000 METAR WART 280000Z 30001KT 9999 FEW018 27/27 Q1009=
28-Mar-2023 SAID35 WART 280100 METAR WART 280100Z 33002KT 290V010 9999 SCT018 30/30 Q1010=
28-Mar-2023 SAID35 WART 280200 METAR WART 280200Z 36007KT 9999 BKN018 31/29 Q1010=
28-Mar-2023 SPID35 WART 280241 SPECI WART 280241Z 36007KT 9999 TS FEW017CB SCT018 31/29 Q1010 CB TO THE SW=
28-Mar-2023 SAID35 WART 280300 METAR WART 280300Z 36007KT 9999 TS FEW017CB SCT018 31/29 Q1010 CB TO THE SW=
28-Mar-2023 SAID35 WART 280400 METAR WART 280400Z 35008KT 310V020 9999 BKN018 31/29 Q1009=
28-Mar-2023 SPID35 WART 280435 SPECI WART 280435Z 35008KT 310V020 8000 -RA BKN018 32/29 Q1009=
28-Mar-2023 SAID35 WART 280500 METAR WART 280500Z 35008KT 310V020 8000 VCRA TS FEW017CB SCT018 32/29 Q1009 RMK CB TO THE SW=
28-Mar-2023 SAID35 WART 280600 METAR WART 280600Z 19008KT 8000 -RA FEW017CB SCT018 27/27 Q1007 RMK CB OVER THE FIELD=
29-Mar-2023 SAID35 WART 290000 METAR WART 290000Z 29002KT 9999 FEW020 27/27 Q1009 NOSIG=
29-Mar-2023 SAID35 WART 290100 METAR WART 290100Z 36003KT 9999 FEW020 30/30 Q1010 NOSIG=
29-Mar-2023 SAID35 WART 290200 METAR WART 290200Z 35005KT 310V040 9999 SCT020 32/29 Q1011 NOSIG=
29-Mar-2023 SAID35 WART 290300 METAR WART 290300Z 33009KT 9999 FEW019CB SCT020 32/29 Q1010 RMX TO THE E=
29-Mar-2023 SAID35 WART 290400 METAR WART 290400Z 01007KT 9999 TS FEW019CB SCT020 27/27 Q1009 RMX TO THE S=
29-Mar-2023 SAID35 WART 290500 METAR WART 290500Z 30003KT 9999 TS FEW019CB BKN020 29/29 Q1009 RMX TO THE W=
29-Mar-2023 SAID35 WART 290600 METAR WART 290600Z 26004KT 9999 RA SCT019CB FEW020 28/28 Q1008 RMX CB OVER THE FIELD=
29-Mar-2023 SAID35 WART 290700 METAR WART 290700Z 32006KT 9999 SCT018 28/27 Q1007=
29-Mar-2023 SAID35 WART 290800 METAR WART 290800Z 32007KT 9999 FEW018 29/29 Q1006 NOSIG=
29-Mar-2023 SAID35 WART 290900 METAR WART 290900Z 30007KT 9999 FEW018 29/28 Q1006 NOSIG=
30-Mar-2023 SAID35 WART 300000 METAR WART 300000Z 31002KT 8000 -RA SCT018CB SCT020 25/25 Q1009 RMK CB TO NW=
30-Mar-2023 SAID35 WART 300100 METAR WART 300100Z 00000KT 8000 SCT020 27/27 Q1009 NOSIG=
30-Mar-2023 SAID35 WART 300200 METAR WART 300200Z 00000KT 9999 SCT020 32/30 Q1009 NOSIG=
30-Mar-2023 SAID35 WART 300300 METAR WART 300300Z 00000KT 9999 SCT020 31/28 Q1009 NOSIG=
30-Mar-2023 SAID35 WART 300400 METAR WART 300400Z 18004KT 9999 SCT020 33/29 Q1008 NOSIG=
30-Mar-2023 SAID35 WART 300500 METAR WART 300500Z 18006KT 9999 BKN020 30/30 Q1007=
30-Mar-2023 SAID35 WART 300600 METAR WART 300600Z 33026KT 6000 TSRA SVT018CB BKN020 24/24 Q1006 RMK CB ON THE FIELD=
30-Mar-2023 SAID35 WART 300700 METAR WART 300700Z 32008KT 300V010 7000 RA SVT019CB BKN020 25/25 Q1006 RMK CB OVER THE FIELD=
30-Mar-2023 SAID35 WART 300800 METAR WART 300800Z 02008KT 9999 SCT020 28/28 Q1006 NOSIG=
31-Mar-2023 SAID35 WART 310000 METAR WART 310000Z 15001KT 9999 FEW018 26/26 Q1009 NOSIG=
31-Mar-2023 SAID35 WART 310100 METAR WART 310100Z VRB02KT 9999 FEW018 28/28 Q1010 NOSIG=
31-Mar-2023 SAID35 WART 310200 METAR WART 310200Z 30005KT 9999 SCT018 30/29 Q1010 NOSIG=
31-Mar-2023 SAID35 WART 310300 METAR WART 310300Z 24003KT 170V300 9999 SCT018 32/28 Q1010 NOSIG=
31-Mar-2023 SAID35 WART 310400 METAR WART 310400Z 24006KT 210V270 9999 SCT018 29/29 Q1009=
31-Mar-2023 SPID35 WART 310403 SPECI WART 310403Z 24006KT 210V270 8000 -RA SCT017 29/29 Q1009=
31-Mar-2023 SPID35 WART 310417 SPECI WART 310417Z 24006KT 210V270 9000 TS FEW017CB SCT018 29/29 Q1009 CB TO THE NORTH=
31-Mar-2023 SAID35 WART 310500 METAR WART 310500Z VRB04KT 9000 VCRA TS FEW017CB SCT018 25/25 Q1009 RMK CB OVER THE FIELD=
31-Mar-2023 SAID35 WART 310600 METAR WART 310600Z 29010KT 250V340 7000TSRA SCT017CB BKN018 26/26 Q1008 RMK CB OVER THE FIELD=
31-Mar-2023 SAID35 WART 310700 METAR WART 310700Z 27004KT 9000 SCT019 26/26 Q1007=
31-Mar-2023 SAID35 WART 310800 METAR WART 310800Z 26005KT 9000 SCT020 28/28 Q1006=
03-Apr-2023 SAID35 WART 030000 METAR WART 030000Z 30003KT 9999 SCT020 26/26 Q1009 NOSIG=
03-Apr-2023 SAID35 WART 030100 METAR WART 030100Z 00000KT 9999 FEW020 28/28 Q1009 NOSIG=
03-Apr-2023 SAID35 WART 030200 METAR WART 030200Z 19002KT 9999 FEW020 30/30 Q1009 NOSIG=
03-Apr-2023 SAID35 WART 030300 METAR WART 030300Z 2700KT 9999 FEW020 32/30 Q1009 NOSIG=
03-Apr-2023 SAID35 WART 030400 METAR WART 030400Z 21006KT 9999 SCT020 32/30 Q1008 NOSIG=
03-Apr-2023 SAID35 WART 030500 METAR WART 030500Z 27018KT 6000 RA FEW018CB BKN020 27/27 Q1007 RMK CB ON THE FIELD=
03-Apr-2023 SAID35 WART 030600 METAR WART 030600Z 19009KT 8000 TS FEW018CB BKN020 27/27 Q1007 RMK CB ON THE FIELD=
03-Apr-2023 SAID35 WART 030700 METAR WART 030700Z 21003KT 9000 BKN019 28/28 Q1006 NOSIG=
03-Apr-2023 SAID35 WART 030800 METAR WART 030800Z 21004KT 9000 SCT020 28/28 Q1006 NOSIG=
04-Apr-2023 SAID35 WART 040000 METAR WART 040000Z 36002KT 9000 SCT020 26/25 Q1010 NOSIG=
04-Apr-2023 SAID35 WART 040200 METAR WART 040200Z 06001KT 9999 SCT020TCU 32/29 Q1010 NOSIG=
04-Apr-2023 SAID35 WART 040300 METAR WART 040300Z 31006KT 280V340 9999 SCT020TCU 31/28 Q1010 NOSIG=
04-Apr-2023 SAID35 WART 040800 METAR WART 040800Z 01006KT 9000 FEW019CB SCT020 30/29 Q1007 RMK CB OVER THE FIELD=
05-Apr-2023 SAID35 WART 050000 METAR WART 050000Z 02002KT 9999 SCT020 26/25 Q1010 NOSIG=
05-Apr-2023 SAID35 WART 050100 METAR WART 050100Z 05004KT 9999 SCT020 28/26 Q1010 NOSIG=
05-Apr-2023 SAID35 WART 050200 METAR WART 050200Z 07003KT 9999 SCT020 30/29 Q1010 NOSIG=
05-Apr-2023 SAID35 WART 050300 METAR WART 050300Z 36004KT 9999 SCT018CB SCT020 30/29 Q1010 NOSIG=
05-Apr-2023 SAID35 WART 050400 METAR WART 050400Z 14007KT 9999 SCT018CB SCT020 29/29 Q1009 RMK CB TO NORTHWEST=
05-Apr-2023 SPID35 WART 050412 SPECI WART 050412Z 04018KT 7000 TSRA SCT016CB SCT020 27/27 Q1009 RMK CB OVR THE FIELD=
05-Apr-2023 SAID35 WART 050600 METAR WART 050600Z 06003KT 9000 FEW018CB SCT020 27/27 Q1008 RMK CB TO THE WEST=
05-Apr-2023 SAID35 WART 050700 METAR WART 050700Z 04005KT 9000 FEW018CB SCT020 29/29 Q1007 RMK CB TO THE WEST=
05-Apr-2023 SAID35 WART 050800 METAR WART 050800Z 02007KT 9000 SCT020 31/27 Q1007 NOSIG=
05-Apr-2023 SAID35 WART 050900 METAR WART 050900Z 03007KT 9999 SCT020 30/28 Q1007 NOSIG=
06-Apr-2023 SAID35 WART 060000 METAR WART 060000Z 01001KT 9999 FEW020 27/27 Q1011 NOSIG=
06-Apr-2023 SAID35 WART 060100 METAR WART 060100Z VRB03KT 9999 SCT020 30/30 Q1011 NOSIG=
06-Apr-2023 SAID35 WART 060200 METAR WART 060200Z VRB02KT 9999 SCT020 29/29 Q1011 NOSIG=
06-Apr-2023 SAID35 WART 060300 METAR WART 060300Z 20006KT 9999 SCT020 31/29 Q1010 NOSIG=
06-Apr-2023 SAID35 WART 060400 METAR WART 060400Z 18005KT 9999 SCT019CB SCT020 30/27 Q1009 RMK CB TO THE W,N=
06-Apr-2023 SAID35 WART 060500 METAR WART 060500Z 04004KT 9999 FEW019CB SCT020 28/28 Q1009 RMK CB TO THE N=
06-Apr-2023 SAID35 WART 060600 METAR WART 060600Z 32001KT 9999 FEW019CB SCT020 29/28 Q1008 RMK CB TO THE W=
06-Apr-2023 SAID35 WART 060700 METAR WART 060700Z 31007KT 9999 FEW019CB SCT020 27/27 Q1007 RMK CB TO THE N=
06-Apr-2023 SAID35 WART 060800 METAR WART 060800Z 31005KT 9999 SCT020 29/28 Q1006=
07-Apr-2023 SAID35 WART 070000 METAR WART 070000Z 00000KT 9999 SCT020 27/27 Q1011 NOSIG=
07-Apr-2023 SAID35 WART 070100 METAR WART 070100Z 00000KT 9999 FEW018CB SCT020 28/28 Q1011 RMK CB TO E=
07-Apr-2023 SAID35 WART 070200 METAR WART 070200Z 00000KT 9999 FEW018CB SCT020 28/28 Q1011 RMK CB TO NE=
07-Apr-2023 SAID35 WART 070300 METAR WART 070300Z 29002KT 9999 FEW018CB SCT020 30/29 Q1011 RMK CB TO NE=
07-Apr-2023 SAID35 WART 070400 METAR WART 070400Z 28010KT 9999 FEW018CB SCT020 31/25 Q1010 RMK CB TO N=
07-Apr-2023 SAID35 WART 070500 METAR WART 070500Z 26007KT 9999 FEW018CB SCT020 31/24 Q1010 RMK CB TO N=
07-Apr-2023 SAID35 WART 070600 METAR WART 070600Z 23002KT 9999 SCT020 31/24 Q1009 NOSIG=
10-Apr-2023 SAID35 WART 100000 METAR WART 100000Z 32002KT CAVOK 28/28 Q1010 NOSIG=
10-Apr-2023 SAID35 WART 100100 METAR WART 100100Z 28004KT CAVOK 31/28 Q1010 NOSIG=
10-Apr-2023 SAID35 WART 100200 METAR WART 100200Z 33008KT 9999 FEW020 32/25 Q1010 NOSIG=
10-Apr-2023 SAID35 WART 100300 METAR WART 100300Z 33008KT 9999 FEW020 32/26 Q1010 NOSIG=
10-Apr-2023 SAID35 WART 100400 METAR WART 100400Z 31008KT 9999 SCT020 32/26 Q1009 NOSIG=
10-Apr-2023 SAID35 WART 100500 METAR WART 100500Z 29008KT 9999 SCT020 33/26 Q1008 NOSIG=
10-Apr-2023 SAID35 WART 100600 METAR WART 100600Z 32008KT 9999 SCT020 34/27 Q1007 NOSIG=
10-Apr-2023 SAID35 WART 100700 METAR WART 100700Z 32020KT 8000 TSRA FEW018CB SCT020 29/27 Q1007=
10-Apr-2023 SAID35 WART 100800 METAR WART 100800Z 29015KT 8000 TS FEW018CB SCT020 25/25 Q1007=
10-Apr-2023 SAID35 WART 100900 METAR WART 100900Z 26012KT 8000 RA FEW018CB SCT020 25/25 Q1007=
11-Apr-2023 SAID35 WART 110000 METAR WART 110000Z 31002KT 9999 FEW020 27/27 Q1009=
11-Apr-2023 SAID35 WART 110100 METAR WART 110100Z 33003KT 9999 FEW020 29/29 Q1009=
11-Apr-2023 SAID35 WART 110200 METAR WART 110200Z 25007KT 9999 FEW020 32/26 Q1009=
11-Apr-2023 SAID35 WART 110300 METAR WART 110300Z 23006KT 9999 FEW020 33/26 Q1009=
11-Apr-2023 SAID35 WART 110400 METAR WART 110400Z 21007KT 9999 FEW020 33/25 Q1009=
11-Apr-2023 SAID35 WART 110500 METAR WART 110500Z 23004KT 9999 FEW020 33/25 Q1008=
11-Apr-2023 SAID35 WART 110600 METAR WART 110600Z 15003KT 9999 FEW020 31/25 Q1006=
11-Apr-2023 SAID35 WART 110700 METAR WART 110700Z 31005KT 9999 BKN020 30/27 Q1006=
11-Apr-2023 SAID35 WART 110800 METAR WART 110800Z 06002KT 9999 -RA BKN020 31/27 Q1005=
12-Apr-2023 SAID35 WART 120100 METAR WART 120100Z 00000KT 9999 BKN020 27/26 Q1009=
12-Apr-2023 SAID35 WART 120200 METAR WART 120200Z 27003KT 9999 BKN020 29/29 Q1009 NOSIG=
12-Apr-2023 SAID35 WART 120300 METAR WART 120300Z 23005KT 9999 BKN020 30/30 Q1008 NOSIG=
12-Apr-2023 SAID35 WART 120400 METAR WART 120400Z 26005KT 9999 SCT020 31/27 Q1008 NOSIG=
12-Apr-2023 SAID35 WART 120500 METAR WART 120500Z 21005KT 9999 FEW018CB SCT020 31/27 Q1007=
12-Apr-2023 SAID35 WART 120600 METAR WART 120600Z 15003KT 9999 SCT018 30/28 Q1006=
12-Apr-2023 SAID35 WART 120700 METAR WART 120700Z 16008KT 9999 SCT020 30/28 Q1005 NOSIG=
12-Apr-2023 SAID35 WART 120800 METAR WART 120800Z 10004KT 9999 BKN020 30/30 Q1005 NOSIG=
13-Apr-2023 SAID35 WART 130000 METAR WART 130000Z 31002KT 8000 FEW019CB BKN020 25/25 Q1010=
13-Apr-2023 SAID35 WART 130100 METAR WART 130100Z 2903KT 8000 FEW019CB BKN020 25/25 Q1010=
13-Apr-2023 SAID35 WART 130200 METAR WART 130200Z 2105KT 8000 BKN020 26/26 Q1010=
13-Apr-2023 SAID35 WART 130300 METAR WART 130300Z 24005KT 8000 BKN020 28/28 Q1010=
13-Apr-2023 SAID35 WART 130400 METAR WART 130400Z 00000KT 9000 BKN020 29/29 Q1009=
13-Apr-2023 SAID35 WART 130500 METAR WART 130500Z 17005KT 9000 BKN020 30/30 Q1008=
13-Apr-2023 SAID35 WART 130600 METAR WART 130600Z 13003KT 9000 BKN020 31/30 Q1007=
14-Apr-2023 SAID35 WART 140000 METAR WART 140000Z 00000KT 9999 FEW020 27/27 Q1009 NOSIG=
14-Apr-2023 SAID35 WART 140100 METAR WART 140100Z 21003KT 180V240 9999 FEW020 28/28 Q1010 NOSIG=
14-Apr-2023 SAID35 WART 140200 METAR WART 140200Z 00000KT 9999 SCT020 31/28 Q1010 NOSIG=
14-Apr-2023 SAID35 WART 140300 METAR WART 140300Z 09001KT 9999 SCT020 32/27 Q1010 NOSIG=
14-Apr-2023 SAID35 WART 140400 METAR WART 140400Z 18004KT 100V220 9999 SCT020 33/26 Q1009 NOSIG=
14-Apr-2023 SAID35 WART 140500 METAR WART 140500Z 11006KT 9999 SCT020 31/27 Q1008 NOSIG=
14-Apr-2023 SAID35 WART 140600 METAR WART 140600Z 05005KT 9000 SCT019CB SCT020 29/29 Q1007 RMK CB TO THE W,S=
14-Apr-2023 SAID35 WART 140700 METAR WART 140700Z 31002KT 8000 SCT018CB SCT019 29/29 Q1007 RMK CB TO THE W=
14-Apr-2023 SAID35 WART 140800 METAR WART 140800Z 08002KT 9000 FEW019CB SCT020 31/28 Q1006 RMK CB TO THE W=
14-Apr-2023 SAID35 WART 140900 METAR WART 140900Z 02004KT 8000 FEW019CB SCT020 29/29 Q1006 RMK CB OVER THE FIELD=
17-Apr-2023 SAID35 WART 170100 METAR WART 170100Z AUTO 20004KT 9999 SCT020 29/29 Q1011 NOSIG=
17-Apr-2023 SAID35 WART 170300 METAR WART 170300Z 1606KT 9999 SCT01CB FEW020TCU 30/30 Q1011 NOSIG=
17-Apr-2023 SAID35 WART 170600 METAR WART 170600Z 11005KT 9999 SCT020TCU 29/29 Q1009 NOSIG=
17-Apr-2023 SAID35 WART 170700 METAR WART 170700Z 12002KT 9999 SCT020 29/29 Q1008=
17-Apr-2023 SAID35 WART 170800 METAR WART 170800Z 13005KT 9999 SCT020 30/30 Q1008=
17-Apr-2023 SAID35 WART 170900 METAR WART 170900Z 11004KT 9999 SCT020 29/29 Q1008=
18-Apr-2023 SAID35 WART 180000 METAR WART 180000Z 00000KT 9000 FEW020 27/26 Q1012 NOSIG=
18-Apr-2023 SAID35 WART 180100 METAR WART 180100Z VRB03KT 9000 SCT020 30/30 Q1012 NOSIG=
18-Apr-2023 SAID35 WART 180200 METAR WART 180200Z 11008KT 9000 SCT020 31/30 Q1012 NOSIG=
18-Apr-2023 SAID35 WART 180300 METAR WART 180300Z 11007KT 080V140 9999 SCT020 32/30 Q1012 NOSIG=
18-Apr-2023 SAID35 WART 180400 METAR WART 180400Z 16011KT 9999 SCT020 30/30 Q1011 NOSIG=
18-Apr-2023 SAID35 WART 180500 METAR WART 180500Z 14009KT 100V160 9999 SCT020 31/30 Q1010 NOSIG=
18-Apr-2023 SAID35 WART 180600 METAR WART 180600Z 10008KT 9999 FEW020 31/29 Q1009 NOSIG=
18-Apr-2023 SAID35 WART 180700 METAR WART 180700Z 12009KT 9999 FEW020 32/28 Q1009 NOSIG=
18-Apr-2023 SAID35 WART 180800 METAR WART 180800Z 12009KT 9999 FEW020 31/28 Q1008 NOSIG=
19-Apr-2023 SAID35 WART 190000 METAR WART 190000Z 00000KT 9999 FEW020 28/28 Q1010=
19-Apr-2023 SAID35 WART 190100 METAR WART 190100Z 14006KT 9999 FEW020 31/29 Q1010=
19-Apr-2023 SAID35 WART 190200 METAR WART 190200Z 14005KT 9999 FEW020 32/28 Q1010=
19-Apr-2023 SAID35 WART 190300 METAR WART 190300Z 12007KT 9999 FEW020 31/26 Q1009=
19-Apr-2023 SAID35 WART 190500 METAR WART 190500Z 13005KT 9999 FEW020 33/26 Q1008=
19-Apr-2023 SAID35 WART 190600 METAR WART 190600Z 12008KT 9999 FEW020 32/26 Q1007=
19-Apr-2023 SAID35 WART 190700 METAR WART 190700Z 10007KT 9999 FEW020 33/26 Q1006=
20-Apr-2023 SAID35 WART 200000 METAR WART 200000Z 14004KT 9999 FEW020TCU 30/29 Q1007=
22-Apr-2023 SAID35 WART 220600 METAR WART 220600Z 11011KT 9999 SCT018 32/27 Q1007 NOSIG=
22-Apr-2023 SAID35 WART 220700 METAR WART 220700Z 11009KT 9999 SCT018 32/27 Q1007 NOSIG=
26-Apr-2023 SAID35 WART 260000 METAR WART 260000Z 00000KT 9999 SCT020 28/26 Q1008 NOSIG=
26-Apr-2023 SAID35 WART 260100 METAR WART 260100Z 100/08KT 9999 FEW020 30/28 Q1009 NOSIG=
26-Apr-2023 SAID35 WART 260200 METAR WART 260200Z 120/08KT 090V150 9999 SCT020 31/29 Q1009 NOSIG=
26-Apr-2023 SPID35 WART 260222 SPECI WART 260222Z 120/07KT 7000 TS FEW018CB SCT020 28/28 Q1009 RMK CB TO THE WEST=
26-Apr-2023 SAID35 WART 260300 METAR WART 260300Z 040/03KT 010V090 9000 SCT020 27/27 Q1009 NOSIG=
26-Apr-2023 SAID35 WART 260400 METAR WART 260400Z 000/00KT 9999 SCT020 30/30 Q1008 NOSIG=
26-Apr-2023 SAID35 WART 260500 METAR WART 260500Z VRB04KT 9999 SCT020 31/29 Q1007 NOSIG=
26-Apr-2023 SAID35 WART 260600 METAR WART 260600Z 130/07KT 100V160 9999 SCT020 32/29 Q1006 NOSIG=
27-Apr-2023 SAID35 WART 270000 METAR WART 270000Z 00000KT 9999 SCT020 28/26 Q1009 NOSIG=
28-Apr-2023 SAID35 WART 280000 METAR WART 280000Z CALM KT 9999 SCT020 27/25 Q1009=
28-Apr-2023 SAID35 WART 280300 METAR WART 280300Z 16003KT 9999 SCTCB018SCT020 28/28 Q1010=
01-May-2023 SAID35 WART 010000 METAR WART 010000Z 00000KT 9999 FEW020 27/26 Q1009 NOSIG=
01-May-2023 SAID35 WART 010100 METAR WART 010100Z 02003KT 350V050 9999 FEW020 30/29 Q1009 NOSIG=
01-May-2023 SAID35 WART 010200 METAR WART 010200Z 14003KT 100V160 9999 SCT020 31/28 Q1009 NOSIG=
01-May-2023 SAID35 WART 010300 METAR WART 010300Z 11004KT 070V160 9999 SCT020 33/28 Q1008 NOSIG=
01-May-2023 SAID35 WART 010400 METAR WART 010400Z 08012KT 6000 FEW017CB SCT020 29/28 Q1007 NOSIG RMK CB TO THE WEST=
01-May-2023 SPID35 WART 010415 SPECI WART 010415Z 01012KT 4000 RA FEW017CB SCT020 28/28 Q1008 RMK CB OVER THE FIELD=
01-May-2023 SAID35 WART 010500 METAR WART 010500Z 18006KT 8000 TS FEW018CB SCT020 27/27 Q1007 RMK CB OVER THE FIELD=
01-May-2023 SAID35 WART 010600 METAR WART 010600Z 18005KT 9000 SCT020 29/28 Q1007 NOSIG=
01-May-2023 SAID35 WART 010700 METAR WART 010700Z 12008KT 9999 SCT020 31/30 Q1007 NOSIG=
01-May-2023 SAID35 WART 010800 METAR WART 010800Z 13008KT 9999 SCT020 30/28 Q1007 NOSIG=
01-May-2023 SAID35 WART 010900 METAR WART 010900Z 11003KT 9999 SCT020 30/28 Q1006 NOSIG=
03-May-2023 SAID35 WART 030000 METAR WART 030000Z 10006KT 9999 FEW018 29/27 Q1010 NOSIG=
03-May-2023 SAID35 WART 030100 METAR WART 030100Z 09008KT 9999 SCT018 30/27 Q1011 NOSIG=
03-May-2023 SAID35 WART 030200 METAR WART 030200Z 09008KT 9999 SCT018 31/28 Q1011 NOSIG=
03-May-2023 SAID35 WART 030300 METAR WART 030300Z 11007KT 9999 SCT018 31/29 Q1010 NOSIG=
03-May-2023 SAID35 WART 030400 METAR WART 030400Z 10009KT 9999 SCT018 31/29 Q1009 NOSIG=
03-May-2023 SAID35 WART 030500 METAR WART 030500Z 12010KT 9999 SCT018 31/20 Q1008 NOSIG=
03-May-2023 SAID35 WART 030600 METAR WART 030600Z 11011KT 9999 SCT018 31/29 Q1008 NOSIG=
03-May-2023 SAID35 WART 030700 METAR WART 030700Z 09011KT 9999 FEW020 31/27 Q1007 NOSIG=
04-May-2023 SAID35 WART 040000 METAR WART 040000Z 12006KT 9999 FEW020 29/28 Q1009 NOSIG=
04-May-2023 SAID35 WART 040100 METAR WART 040100Z 12008KT 9999 FEW020 31/29 Q1009 NOSIG=
04-May-2023 SAID35 WART 040200 METAR WART 040200Z 12009KT 9999 FEW020 32/28 Q1009 NOSIG=
04-May-2023 SAID35 WART 040300 METAR WART 040300Z 13008KT 9999 SCT020 32/29 Q1009 NOSIG=
04-May-2023 SAID35 WART 040400 METAR WART 040400Z 14008KT 9999 SCT020 31/29 Q1009 NOSIG=
04-May-2023 SAID35 WART 040500 METAR WART 040500Z 13010KT 9999 FEW020 32/29 Q1008 NOSIG=
04-May-2023 SAID35 WART 040600 METAR WART 040600Z 12010KT 9999 FEW020 32/28 Q1007 NOSIG=
05-May-2023 SAID35 WART 050000 METAR WART 050000Z 14004KT 9999 FEW020 29/28 Q1007=
05-May-2023 SAID35 WART 050100 METAR WART 050100Z 15009KT 9999 FEW020 30/29 Q1007=
05-May-2023 SAID35 WART 050200 METAR WART 050200Z 16012KT 9999 SCT020 30/30 Q1007=
05-May-2023 SAID35 WART 050300 METAR WART 050300Z 13008KT 9999 SCT020 32/29 Q1007=
05-May-2023 SAID35 WART 050400 METAR WART 050400Z 12006KT 9999 SCT020 33/29 Q1006=
05-May-2023 SAID35 WART 050500 METAR WART 050500Z 12010KT 9999 SCT020 32/29 Q1005=
05-May-2023 SAID35 WART 050600 METAR WART 050600Z 10008KT 9999 SCT020 32/28 Q1005=
05-May-2023 SAID35 WART 050700 METAR WART 050700Z 13007KT 090V150 9999 FEW020 33/29 Q1004 NOSIG=
05-May-2023 SAID35 WART 050800 METAR WART 050800Z 12007KT 9999 FEW020 32/28 Q1004 NOSIG=
05-May-2023 SAID35 WART 050900 METAR WART 050900Z 12009KT 9999 FEW020 31/28 Q1004 NOSIG=
08-May-2023 SAID35 WART 080000 METAR WART 080000Z 00000KT 9999 FEW020 29/25 Q1009 NOSIG=
08-May-2023 SAID35 WART 080100 METAR WART 080100Z 17003KT 9999 FEW020 30/28 Q1009 NOSIG=
08-May-2023 SAID35 WART 080200 METAR WART 080200Z 15009KT 9999 FEW020 31/28 Q1009 NOSIG=
08-May-2023 SAID35 WART 080400 METAR WART 080400Z 17006KT 9999 SCT020 32/25 Q1008 NOSIG=
08-May-2023 SAID35 WART 080500 METAR WART 080500Z 21006KT 9999 SCT020 32/25 Q1008 NOSIG=
08-May-2023 SAID35 WART 080600 METAR WART 080600Z 21006KT 9999 SCT020 32/24 Q1007 NOSIG=
08-May-2023 SAID35 WART 080700 METAR WART 080700Z 16011KT 9999 SCT020 30/29 Q1008 NOSIG=
09-May-2023 SAID35 WART 090000 METAR WART 090000Z 07001KT 8000 SCT0185 26/26 Q1009 NOSIG=
09-May-2023 SAID35 WART 090100 METAR WART 090100Z 00000KT 8000 -TSHZ FEW017CB SCT0185 27/27 Q1009 RMK CB TO THE E=
09-May-2023 SAID35 WART 090200 METAR WART 090200Z 06005KT 8000 -DZ FEW017CB SCT0185 27/27 Q1009 RMK CB TO THE E=
09-May-2023 SAID35 WART 090300 METAR WART 090300Z 13005KT 9000 BKN0185 29/29 Q1010=
10-May-2023 SAID35 WART 100000 METAR WART 100000Z 08006KT 8000 -RA FEW017CB BKN019 25/25 Q1010 RMK CB TO THE N=
10-May-2023 SAID35 WART 100100 METAR WART 100100Z 09005KT 9000 SCT019 26/26 Q1011 RERA=
10-May-2023 SAID35 WART 100200 METAR WART 100200Z 14005KT 9999 SCT018 28/28 Q1011=
10-May-2023 SAID35 WART 100300 METAR WART 100300Z 11006KT 9999 BKN018 28/28 Q1010=
10-May-2023 SPID35 WART 100334 SPECI WART 100334Z 10009KT 8000 RA BKN018 28/28 Q1010=
10-May-2023 SAID35 WART 100400 METAR WART 100400Z 11009KT 9000 SCT017 25/25 Q1010=
10-May-2023 SAID35 WART 100500 METAR WART 100500Z 08005KT 9000 SCT018 27/27 Q1009=
10-May-2023 SAID35 WART 100600 METAR WART 100600Z 10007KT 9000 SCT018 28/28 Q1009=
10-May-2023 SAID35 WART 100700 METAR WART 100700Z 09008KT 9999 SCT018 28/28 Q1008=
10-May-2023 SAID35 WART 100800 METAR WART 100800Z 12004KT 9999 FEW018 29/29 Q1008=
11-May-2023 SAID35 WART 110000 METAR WART 110000Z 12005KT 7000 TSRA FEW017CB SCT020 28/28 Q1011 CB TO THE EAST=
11-May-2023 SAID35 WART 110130 METAR WART 110130Z 17011KT 4500 TSRA SCT017CB BKN020 26/26 Q1012 CB OVER THE FIELD=
11-May-2023 SAID35 WART 110200 METAR WART 110200Z 14007KT 8000 TS FEW017CB BKN020 26/26 Q1012 CB TO THE WEST=
11-May-2023 SAID35 WART 110300 METAR WART 110300Z 15012KT 4000 RA FEW017CB BKN020 27/27 Q1012 CB OVER THE FIELD=
11-May-2023 SPID35 WART 110338 SPECI WART 110338Z 14013KT 1500 TSRA SCT017CB BKN020 27/27 Q1012 CB OVER THE FIELD=
11-May-2023 SAID35 WART 110400 METAR WART 110400Z 15008KT 4000 TSRA SCT017CB BKN020 27/27 Q1012 CB OVER THE FIELD=
11-May-2023 SAID35 WART 110500 METAR WART 110500Z 00000KT 6000 -TSRA FEW017CB BKN020 27/27 Q1011 CB OVER THE FIELD=
11-May-2023 SAID35 WART 110600 METAR WART 110600Z 14006KT 7000 -RA FEW018CB BKN020 27/27 Q1010 CB OVER THE FIELD=
12-May-2023 SAID35 WART 120000 METAR WART 120000Z 13007KT 9999 FEW020 29/29 Q1012=
12-May-2023 SAID35 WART 120100 METAR WART 120100Z 11008KT 9999 SCT020 31/30 Q1012=
12-May-2023 SAID35 WART 120200 METAR WART 120200Z 10010KT 9999 SCT020 31/30 Q1012=
12-May-2023 SAID35 WART 120300 METAR WART 120300Z 11009KT 9999 SCT020 32/30 Q1012=
12-May-2023 SAID35 WART 120400 METAR WART 120400Z 13012KT 9999 SCT020 32/30 Q1011=
12-May-2023 SAID35 WART 120500 METAR WART 120500Z 12011KT 9999 SCT020 32/30 Q1010=
12-May-2023 SAID35 WART 120600 METAR WART 120600Z 10006KT 9999 SCT020 32/30 Q1010=
12-May-2023 SAID35 WART 120700 METAR WART 120700Z 12009KT 8000 FEW018CB SCT020 29/29 Q1009 CB TO THE WEST=
12-May-2023 SAID35 WART 120800 METAR WART 120800Z 12011KT 9999 SCT020 30/30 Q1009 NOSIG=
15-May-2023 SAID35 WART 150000 METAR WART 150000Z 14005KT 9999 FEW020 27/23 Q1013 NOSIG=
15-May-2023 SAID35 WART 150100 METAR WART 150100Z 15003KT 9999 FEW020 28/23 Q1013 NOSIG=
15-May-2023 SAID35 WART 150200 METAR WART 150200Z 12008KT 9999 SCT020 30/26 Q1013 NOSIG=
15-May-2023 SAID35 WART 150300 METAR WART 150300Z 15013KT 9999 SCT020 30/25 Q1013 NOSIG=
15-May-2023 SAID35 WART 150400 METAR WART 150400Z 14013KT 9999 SCT020 30/25 Q1012 NOSIG=
15-May-2023 SAID35 WART 150500 METAR WART 150500Z 15008KT 9999 SCT020 30/25 Q1011 NOSIG=
15-May-2023 SAID35 WART 150600 METAR WART 150600Z 16009KT 9999 SCT020 31/25 Q1010 NOSIG=
15-May-2023 SAID35 WART 150700 METAR WART 150700Z 10009KT 9999 FEW020 31/26 Q1010 NOSIG=
16-May-2023 SAID35 WART 160000 METAR WART 160000Z 00000KT 9999 FEW020 26/25 Q1014 NOSIG=
16-May-2023 SAID35 WART 160100 METAR WART 160100Z 00000KT 9999 FEW020 29/27 Q1014 NOSIG=
16-May-2023 SAID35 WART 160200 METAR WART 160200Z 12003KT 9999 FEW020 30/27 Q1014 NOSIG=
16-May-2023 SAID35 WART 160300 METAR WART 160300Z 16008KT 9999 FEW020 31/27 Q1013 NOSIG=
16-May-2023 SAID35 WART 160400 METAR WART 160400Z 13005KT 9999 FEW020 31/27 Q1013 NOSIG=
16-May-2023 SAID35 WART 160500 METAR WART 160500Z 13007KT 9999 FEW020 30/25 Q1012 NOSIG=
16-May-2023 SAID35 WART 160600 METAR WART 160600Z 11007KT 9999 SCT020 29/24 Q1011 NOSIG=
16-May-2023 SAID35 WART 160800 METAR WART 160800Z 13008KT 9999 SCT020 29/25 Q1010=
17-May-2023 SAID35 WART 170000 METAR WART 170000Z 33002KT 9999 FEW018 26/25 Q1014=
17-May-2023 SAID35 WART 170100 METAR WART 170100Z 26003KT 9999 SCT020 27/25 Q1014 NOSIG=
17-May-2023 SAID35 WART 170200 METAR WART 170200Z 20003KT 9999 SCT018 29/26 Q1014 NOSIG=
17-May-2023 SAID35 WART 170300 METAR WART 170300Z 17007KT 99999 FEW020 30/26 Q1014 NOSIG=
17-May-2023 SAID35 WART 170400 METAR WART 170400Z 16007KT 99999 FEW020 30/27 Q1013 NOSIG=
17-May-2023 SAID35 WART 170500 METAR WART 170500Z 16007KT 99999 FEW020 31/26 Q1011 NOSIG=
17-May-2023 SAID35 WART 170600 METAR WART 170600Z 16008KT 99999 FEW020 31/25 Q1011 NOSIG=
18-May-2023 SAID35 WART 180000 METAR WART 180000Z 00000KT 9000 FEW020 28/28 Q1013 NOSIG=
18-May-2023 SAID35 WART 180100 METAR WART 180100Z 14008KT 9999 FEW020 29/27 Q1013 NOSIG=
18-May-2023 SAID35 WART 180200 METAR WART 180200Z 11007KT 070V150 9999 FEW020 30/27 Q1013 NOSIG=
19-May-2023 SAID35 WART 190000 METAR WART 190000Z CALMKT 9999 FEW020 27/25 Q1012=
19-May-2023 SAID35 WART 190500 METAR WART 190500Z AUTO 16011KT //// ////// 29/27 Q1012=
19-May-2023 SAID35 WART 190700 METAR WART 190700Z 16011KT 9999 FEW020 30/28 Q1010 NOSIG=
19-May-2023 SAID35 WART 190800 METAR WART 190800Z 11006KT 9999 FEW020 29/27 Q1010 NOSIG=
22-May-2023 SAID35 WART 220000 METAR WART 220000Z 15009KT 9999 FEW020 28/27 Q1013=
22-May-2023 SAID35 WART 220100 METAR WART 220100Z 15011KT 9999 FEW020 29/27 Q1014=
22-May-2023 SAID35 WART 220200 METAR WART 220200Z 16012KT 9999 FEW020 29/27 Q1014=
22-May-2023 SAID35 WART 220300 METAR WART 220300Z 15011KT 9999 SCT020 29/27 Q1013=
22-May-2023 SAID35 WART 220400 METAR WART 220400Z 11006KT 080V150 9999 FEW020 31/27 Q1013=
22-May-2023 SAID35 WART 220500 METAR WART 220500Z 11006KT 080V150 9999 FEW020 31/28 Q1012=
22-May-2023 SAID35 WART 220600 METAR WART 220600Z 12007KT 9999 FEW020 31/27 Q1011=
22-May-2023 SAID35 WART 220700 METAR WART 220700Z 08006KT 9999 FEW020 32/26 Q1011=
22-May-2023 SAID35 WART 220800 METAR WART 220800Z 11010KT 9999 FEW020 31/26 Q1011 NOSIG=
23-May-2023 SAID35 WART 230000 METAR WART 230000Z 10007KT 080V140 9999 FEW020 30/27 Q1011=
23-May-2023 SAID35 WART 230100 METAR WART 230100Z 15009KT 9999 FEW020 28/27 Q1013 NOSIG=
23-May-2023 SAID35 WART 230200 METAR WART 230200Z AUTO 13007KT //// ////// 30/28 Q1013=
23-May-2023 SAID35 WART 230300 METAR WART 230300Z 14009KT 9999 SCT019 31/28 Q1013=
23-May-2023 SAID35 WART 230400 METAR WART 230400Z 14010KT 100V160 9999 SCT019 30/28 Q1012=
23-May-2023 SAID35 WART 230500 METAR WART 230500Z AUTO 16011KT //// ////// 29/28 Q1011=
23-May-2023 SAID35 WART 230600 METAR WART 230600Z AUTO 12009KT //// ////// 31/27 Q1011=
23-May-2023 SAID35 WART 230700 METAR WART 230700Z 11009KT 080V140 9999 FEW020 31/27 Q1010=
23-May-2023 SAID35 WART 230800 METAR WART 230800Z 12010KT 9999 FEW020 30/25 Q1010=
23-May-2023 SAID35 WART 230900 METAR WART 230900Z 10007KT 9999 FEW020 29/27 Q1010=
23-May-2023 SAID35 WART 231000 METAR WART 231000Z AUTO 08004KT //// ////// 28/28 Q1011=
24-May-2023 SAID35 WART 240000 METAR WART 240000Z 00000KT 9999 FEW019 27/27 Q1014=
24-May-2023 SAID35 WART 240100 METAR WART 240100Z 12008KT 9999 SCT020 29/28 Q1014=
24-May-2023 SAID35 WART 240200 METAR WART 240200Z 12008KT 9999 SCT020 31/28 Q1014=
24-May-2023 SAID35 WART 240300 METAR WART 240300Z 12009KT 9999 SCT020 31/27 Q1014=
24-May-2023 SAID35 WART 240400 METAR WART 240400Z 12009KT 9999 FEW020 31/27 Q1013=
24-May-2023 SAID35 WART 240500 METAR WART 240500Z 12009KT 9999 FEW020 31/28 Q1013=
24-May-2023 SAID35 WART 240600 METAR WART 240600Z 12009KT 9999 FEW020 31/26 Q1012=
24-May-2023 SAID35 WART 240700 METAR WART 240700Z 12005KT 9999 FEW020 32/25 Q1011 NOSIG=
24-May-2023 SAID35 WART 240800 METAR WART 240800Z 12010KT 9999 FEW020 32/25 Q1011 NOSIG=
25-May-2023 SAID35 WART 250000 METAR WART 250000Z 13003KT 9999 FEW018 28/16 Q1014 NOSIG=
25-May-2023 SAID35 WART 250100 METAR WART 250100Z 13010KT 9999 FEW018 28/26 Q1014 NOSIG=
25-May-2023 SAID35 WART 250200 METAR WART 250200Z 12010KT 9999 FEW018 30/26 Q1014 NOSIG=
25-May-2023 SAID35 WART 250300 METAR WART 250300Z 12010KT 9999 FEW018 31/25 Q1013 NOSIG=
25-May-2023 SAID35 WART 250400 METAR WART 250400Z 15013KT 9999 FEW018 30/25 Q1012 NOSIG=
25-May-2023 SAID35 WART 250500 METAR WART 250500Z 16013KT 9999 FEW018 31/24 Q1011 NOSIG=
25-May-2023 SAID35 WART 250600 METAR WART 250600Z 13010KT 9999 FEW018 32/24 Q1011 NOSIG=
25-May-2023 SAID35 WART 250700 METAR WART 250700Z 09009KT 9999 FEW020 32/24 Q1011 NOSIG=
26-May-2023 SAID35 WART 260000 METAR WART 260000Z 16002KT 9999 FEW020 28/28 Q1013 NOSIG=
26-May-2023 SAID35 WART 260100 METAR WART 260100Z 15009KT 9999 FEW020 29/26 Q1014 NOSIG=
26-May-2023 SAID35 WART 260200 METAR WART 260200Z 15010KT 9999 FEW020 30/26 Q1013 NOSIG=
26-May-2023 SAID35 WART 260300 METAR WART 260300Z 15012KT 9999 FEW020 30/25 Q1012 NOSIG=
26-May-2023 SAID35 WART 260400 METAR WART 260400Z 15011KT 120V180 9999 FEW020 31/26 Q1012 NOSIG=
26-May-2023 SAID35 WART 260500 METAR WART 260500Z 15012KT 9999 FEW020 31/25 Q1011 NOSIG=
26-May-2023 SAID35 WART 260600 METAR WART 260600Z 12010KT 9999 FEW020 31/25 Q1010 NOSIG=
26-May-2023 SAID35 WART 260700 METAR WART 260700Z 11007KT 9999 FEW020 30/26 Q1010=
28-May-2023 SAID35 WART 280000 METAR WART 280000Z 14009KT 9999 FEW020 27/26 Q1011=
28-May-2023 SAID35 WART 280100 METAR WART 280100Z AUTO 14012KT //// ////// 28/25 Q1011=
29-May-2023 SAID35 WART 290000 METAR WART 290000Z 11004KT 9999 FEW020 26/23 Q1012=
29-May-2023 SAID35 WART 290100 METAR WART 290100Z 15011KT 9999 FEW020 29/27 Q1012=
29-May-2023 SAID35 WART 290200 METAR WART 290200Z AUTO 15013KT //// ////// 30/24 Q1012=
29-May-2023 SAID35 WART 290300 METAR WART 290300Z AUTO 15014KT //// ////// 31/24 Q1011=
29-May-2023 SAID35 WART 290400 METAR WART 290400Z AUTO 12008KT //// ////// 31/24 Q1011=
29-May-2023 SAID35 WART 290500 METAR WART 290500Z AUTO 10008KT //// ////// 30/23 Q1010=
29-May-2023 SAID35 WART 290600 METAR WART 290600Z AUTO 10007KT //// ////// 31/23 Q1009=
29-May-2023 SAID35 WART 290700 METAR WART 290700Z AUTO 11007KT 080V140 //// ////// 31/24 Q1008=
29-May-2023 SAID35 WART 290800 METAR WART 290800Z 11006KT 9999 FEW020 30/25 Q1008=
30-May-2023 SAID35 WART 300000 METAR WART 300000Z 24001KT 9999 FEW020 27/27 Q1012=
30-May-2023 SAID35 WART 300100 METAR WART 300100Z 12007KT 9999 FEW020 29/26 Q1012=
30-May-2023 SAID35 WART 300200 METAR WART 300200Z 15010KT 9999 FEW020 31/26 Q1012=
30-May-2023 SAID35 WART 300300 METAR WART 300300Z 11008KT 9999 SCT020 31/26 Q1012=
30-May-2023 SAID35 WART 300400 METAR WART 300400Z 12008KT 9999 SCT020 31/26 Q1011=
30-May-2023 SAID35 WART 300500 METAR WART 300500Z 12010KT 9999 SCT020 31/26 Q1010=
30-May-2023 SAID35 WART 300600 METAR WART 300600Z AUTO 12009KT 9999 FEW020 31/26 Q1009=
30-May-2023 SAID35 WART 300700 METAR WART 300700Z AUTO 12010KT //// ////// 31/26 Q1009=
30-May-2023 SAID35 WART 300800 METAR WART 300800Z AUTO 11007KT //// ////// 31/27 Q1009=
30-May-2023 SAID35 WART 300900 METAR WART 300900Z AUTO 11007KT //// ////// 30/26 Q1009=
31-May-2023 SAID35 WART 310000 METAR WART 310000Z 14007KT 9999 FEW020 28/28 Q1012=
31-May-2023 SAID35 WART 310100 METAR WART 310100Z 15013KT 9999 FEW020 29/28 Q1012=
31-May-2023 SAID35 WART 310200 METAR WART 310200Z 14013KT 9999 FEW020 30/28 Q1012=
31-May-2023 SAID35 WART 310300 METAR WART 310300Z 13013KT 9999 FEW020 31/27 Q1012=
31-May-2023 SAID35 WART 310400 METAR WART 310400Z 15011KT 9999 FEW020 29/28 Q1011=
31-May-2023 SAID35 WART 310500 METAR WART 310500Z 15010KT 9999 FEW020 29/28 Q1010=
31-May-2023 SAID35 WART 310600 METAR WART 310600Z 15007KT 9999 SCT020 30/28 Q1009=
31-May-2023 SAID35 WART 310700 METAR WART 310700Z 12008KT 9999 FEW020 31/27 Q1008=
31-May-2023 SAID35 WART 310800 METAR WART 310800Z 11007KT 090V150 9999 FEW020 30/29 Q1008=
31-May-2023 SAID35 WART 310900 METAR WART 310900Z AUTO 12007KT //// ////// 30/28 Q1008=
01-Jun-2023 SAID35 WART 010300 METAR WART 010300Z AUTO 16011KT //// ////// 31/25 Q1011=
01-Jun-2023 SAID35 WART 010400 METAR WART 010400Z AUTO 16011KT //// ////// 32/26 Q1011=
01-Jun-2023 SAID35 WART 010500 METAR WART 010500Z AUTO 16013KT //// ////// 31/26 Q1009=
01-Jun-2023 SAID35 WART 010600 METAR WART 010600Z AUTO 12007KT 100V160 //// ////// 32/26 Q1009=
01-Jun-2023 SAID35 WART 010800 METAR WART 010800Z 12004KT 9999 FEW020 31/25 Q1008 NOSIG=
02-Jun-2023 SAID35 WART 020000 METAR WART 020000Z 30003KT 9999 FEW020 26/25 Q1012 NOSIG=
02-Jun-2023 SAID35 WART 020100 METAR WART 020100Z 24002KT 9999 FEW020 27/26 Q1012 NOSIG=
02-Jun-2023 SAID35 WART 020200 METAR WART 020200Z 00000KT 9999 FEW020 29/25 Q1012 NOSIG=
02-Jun-2023 SAID35 WART 020300 METAR WART 020300Z 00000KT 9999 FEW020 30/25 Q1012 NOSIG=
02-Jun-2023 SAID35 WART 020400 METAR WART 020400Z 00000KT 9999 FEW018 31/25 Q1011 NOSIG=
02-Jun-2023 SAID35 WART 020500 METAR WART 020500Z 16005KT 9999 SCT018 31/26 Q1010 NOSIG=
05-Jun-2023 SAID35 WART 050000 METAR WART 050000Z 00000KT 9999 FEW020 28/28 Q1011=
05-Jun-2023 SAID35 WART 050100 METAR WART 050100Z 13005KT 9999 FEW020 30/29 Q1011=
05-Jun-2023 SAID35 WART 050200 METAR WART 050200Z 16013KT 9999 FEW020 31/28 Q1010=
05-Jun-2023 SAID35 WART 050300 METAR WART 050300Z 16008KT 9999 FEW020 31/28 Q1010=
05-Jun-2023 SAID35 WART 050400 METAR WART 050400Z 17012KT 9999 FEW020 32/26 Q1010=
05-Jun-2023 SAID35 WART 050500 METAR WART 050500Z 12007KT 9999 FEW020 32/26 Q1009=
05-Jun-2023 SAID35 WART 050600 METAR WART 050600Z 17010KT 9999 FEW020 32/25 Q1009=
06-Jun-2023 SAID35 WART 060000 METAR WART 060000Z 14004KT 9999 FEW020 27/25 Q1010=
06-Jun-2023 SAID35 WART 060100 METAR WART 060100Z 15010KT 9999 FEW020 30/28 Q1011=
06-Jun-2023 SAID35 WART 060200 METAR WART 060200Z 16012KT 9999 FEW020 30/28 Q1011=
06-Jun-2023 SAID35 WART 060300 METAR WART 060300Z AUTO 10008KT //// ////// 31/29 Q1011=
06-Jun-2023 SAID35 WART 060400 METAR WART 060400Z AUTO 11009KT //// ////// 31/28 Q1010=
06-Jun-2023 SAID35 WART 060500 METAR WART 060500Z 11011KT 9999 FEW020 31/29 Q1009=
06-Jun-2023 SAID35 WART 060600 METAR WART 060600Z AUTO 11009KT //// ////// 31/29 Q1009=
06-Jun-2023 SAID35 WART 060700 METAR WART 060700Z AUTO 11007KT //// ////// 31/29 Q1008=
06-Jun-2023 SAID35 WART 060800 METAR WART 060800Z AUTO 12009KT //// ////// 30/28 Q1008=
07-Jun-2023 SAID35 WART 070000 METAR WART 070000Z 15007KT 9999 FEW020 29/29 Q1012 NOSIG=
07-Jun-2023 SAID35 WART 070100 METAR WART 070100Z 14011KT 9999 SCT020 30/29 Q1012 NOSIG=
07-Jun-2023 SAID35 WART 070200 METAR WART 070200Z 16012KT 9999 SCT020 29/29 Q1012 NOSIG=
07-Jun-2023 SAID35 WART 070300 METAR WART 070300Z 15013KT 9999 SCT020 31/28 Q1012 NOSIG=
07-Jun-2023 SAID35 WART 070400 METAR WART 070400Z AUTO 11008KT 9999 SCT020 28/28 Q1012=
07-Jun-2023 SAID35 WART 070500 METAR WART 070500Z 11008KT 9999 SCT020 28/28 Q1011=
07-Jun-2023 SAID35 WART 070600 METAR WART 070600Z 12012KT 9999 RA FEW019CB SCT020 29/29 Q1010=
08-Jun-2023 SAID35 WART 080000 METAR WART 080000Z 12007KT 9999 FEW020 28/26 Q1012 NOSIG=
08-Jun-2023 SAID35 WART 080100 METAR WART 080100Z 12008KT 9999 FEW020 29/29 Q1009=
08-Jun-2023 SAID35 WART 080200 METAR WART 080200Z 14009KT 9999 SCT020 31/28 Q1012 NOSIG=
08-Jun-2023 SAID35 WART 080300 METAR WART 080300Z 12009KT 9999 SCT020 32/29 Q1012=
08-Jun-2023 SAID35 WART 080400 METAR WART 080400Z 12008KT 9999 SCT020 30/28 Q1011=
08-Jun-2023 SAID35 WART 080500 METAR WART 080500Z 15010KT 9999 SCT020 31/29 Q1010=
08-Jun-2023 SAID35 WART 080600 METAR WART 080600Z 15012KT 9999 BKN020 31/29 Q1009=
08-Jun-2023 SAID35 WART 080700 METAR WART 080700Z 15013KT 9999 SCT020 30/29 Q1009=
08-Jun-2023 SAID35 WART 080800 METAR WART 080800Z 12011KT 9999 SCT020 30/29 Q1009=
09-Jun-2023 SAID35 WART 090000 METAR WART 090000Z 16001KT 9999 FEW020 27/27 Q1011=
09-Jun-2023 SAID35 WART 090100 METAR WART 090100Z 15005KT 9999 FEW020 29/29 Q1012 NOSIG=
09-Jun-2023 SAID35 WART 090400 METAR WART 090400Z 17007KT 9999 FEW020 30/25 Q1011 NOSIG=
09-Jun-2023 SAID35 WART 090500 METAR WART 090500Z 15009KT 9999 FEW020 31/25 Q1010 NOSIG=
11-Jun-2023 SAID35 WART 110400 METAR WART 110400Z AUTO 11008KT //// ////// 31/29 Q1009=
12-Jun-2023 SAID35 WART 120400 METAR WART 120400Z 13006KT 9999 SCT020 30/30 Q1010 NOSIG=
12-Jun-2023 SAID35 WART 120700 METAR WART 120700Z 11009KT 9999 FEW020 31/30 Q1008 NOSIG=
13-Jun-2023 SAID35 WART 130000 METAR WART 130000Z 15009KT 9999 SCT020 27/27 Q1011=
13-Jun-2023 SAID35 WART 130100 METAR WART 130100Z 14008KT 9999 FEW020 30/28 Q1011=
13-Jun-2023 SAID35 WART 130200 METAR WART 130200Z 12011KT 9999 SCT020 30/28 Q1011=
13-Jun-2023 SAID35 WART 130300 METAR WART 130300Z 11013KT 9999 SCT020 30/29 Q1011=
13-Jun-2023 SAID35 WART 130400 METAR WART 130400Z 12011KT 9999 SCT020 31/28 Q1010=
13-Jun-2023 SAID35 WART 130500 METAR WART 130500Z 11010KT 9999 SCT020 31/29 Q1010=
13-Jun-2023 SAID35 WART 130600 METAR WART 130600Z 11010KT 9999 SCT020 30/27 Q1009=
14-Jun-2023 SAID35 WART 140200 METAR WART 140200Z 15014KT 9999 SCT020 29/27 Q1012=
14-Jun-2023 SAID35 WART 140300 METAR WART 140300Z 14014KT 9999 SCT020 30/27 Q1012=
14-Jun-2023 SAID35 WART 140400 METAR WART 140400Z 15015KT 9999 SCT020 31/27 Q1011=
14-Jun-2023 SAID35 WART 140500 METAR WART 140500Z 15015KT 9999 SCT020 30/24 Q1009=
14-Jun-2023 SAID35 WART 140800 METAR WART 140800Z 14008KT 9999 SCT020 29/24 Q1009=
15-Jun-2023 SAID35 WART 150000 METAR WART 150000Z 23001KT 9999 SCT020 25/25 Q1012=
15-Jun-2023 SAID35 WART 150100 METAR WART 150100Z 00000KT 9999 SCT020 27/27 Q1012=
15-Jun-2023 SAID35 WART 150200 METAR WART 150200Z 19005KT 150V220 8888 FEW020 30/29 Q1012=
15-Jun-2023 SAID35 WART 150300 METAR WART 150300Z 10007KT 9999 FEW020 30/27 Q1012=
15-Jun-2023 SAID35 WART 150400 METAR WART 150400Z 10007KT 9999 FEW020 31/27 Q1011=
15-Jun-2023 SPID35 WART 150449 SPECI WART 150449Z 16012KT 9999 FEW020 30/26 Q1011=
15-Jun-2023 SAID35 WART 150600 METAR WART 150600Z 12007KT 090V150 9999 FEW020 32/26 Q1010=
15-Jun-2023 SAID35 WART 150700 METAR WART 150700Z 12012KT 9999 SCT020 30/25 Q1009=
15-Jun-2023 SAID35 WART 150800 METAR WART 150800Z 11011KT 9999 SCT020 29/25 Q1008=
16-Jun-2023 SAID35 WART 160000 METAR WART 160000Z 23003KT 9999 FEW020 24/24 Q1011 NOSIG=
16-Jun-2023 SAID35 WART 160100 METAR WART 160100Z 14001KT 9999 FEW020 28/28 Q1012 NOSIG=
16-Jun-2023 SAID35 WART 160200 METAR WART 160200Z 16007KT 9999 SCT019 28/27 Q1012=
16-Jun-2023 SAID35 WART 160300 METAR WART 160300Z 15004KT 9999 SCT019 29/25 Q1012 NOSIG=
16-Jun-2023 SAID35 WART 160400 METAR WART 160400Z 14009KT 090V160 9999 SCT019 31/27 Q1012 NOSIG=
16-Jun-2023 SAID35 WART 160500 METAR WART 160500Z 15011KT 9999 FEW020 30/26 Q1010 NOSIG=
16-Jun-2023 SAID35 WART 160600 METAR WART 160600Z 11007KT 9999 FEW020 31/26 Q1010 NOSIG=
16-Jun-2023 SAID35 WART 160700 METAR WART 160700Z 11008KT 9999 FEW020 29/27 Q1008=
16-Jun-2023 SAID35 WART 160800 METAR WART 160800Z 15009KT 9999 FEW020 28/27 Q1008=
19-Jun-2023 SAID35 WART 190000 METAR WART 190000Z 22002KT 9999 FEW020 25/25 Q1011 NOSIG=
19-Jun-2023 SAID35 WART 190100 METAR WART 190100Z 10001KT 9999 FEW020 29/29 Q1011 NOSIG=
19-Jun-2023 SAID35 WART 190200 METAR WART 190200Z 10005KT 070V150 9999 FEW020 30/28 Q1011 NOSIG=
19-Jun-2023 SAID35 WART 190300 METAR WART 190300Z 16005KT 110V190 9999 FEW020 31/28 Q1011 NOSIG=
19-Jun-2023 SAID35 WART 190400 METAR WART 190400Z 17008KT 9999 FEW020 31/27 Q1010 NOSIG=
19-Jun-2023 SAID35 WART 190500 METAR WART 190500Z 17009KT 9999 FEW020 31/27 Q1010 NOSIG=
19-Jun-2023 SAID35 WART 190600 METAR WART 190600Z 16011KT 9999 FEW020 31/27 Q1009 NOSIG=
19-Jun-2023 SAID35 WART 190700 METAR WART 190700Z 14004KT 9999 FEW018 30/26 Q1009 NOSIG=
20-Jun-2023 SAID35 WART 200000 METAR WART 200000Z 16001KT 9999 FEW020TCU 25/25 Q1012=
20-Jun-2023 SAID35 WART 200100 METAR WART 200100Z VRB02KT 9999 FEW020TCU 28/28 Q1012=
20-Jun-2023 SAID35 WART 200700 METAR WART 200700Z 12009KT 9999 FEW020 31/26 Q1010 NOSIG=
20-Jun-2023 SAID35 WART 200800 METAR WART 200800Z 10007KT 9999 FEW020 30/25 Q1010 NOSIG=
21-Jun-2023 SAID35 WART 210000 METAR WART 210000Z 14008KT 9999 SCT020 27/27 Q1011=
21-Jun-2023 SAID35 WART 210100 METAR WART 210100Z 14012KT 9999 FEW020 29/27 Q1012=
21-Jun-2023 SAID35 WART 210200 METAR WART 210200Z 15010KT 9999 FEW020 31/28 Q1012=
21-Jun-2023 SAID35 WART 210300 METAR WART 210300Z 12012KT 9999 FEW020 30/29 Q1011=
21-Jun-2023 SAID35 WART 210400 METAR WART 210400Z 10007KT 9999 FEW020 31/28 Q1011=
21-Jun-2023 SAID35 WART 210500 METAR WART 210500Z 12006KT 9999 FEW020 31/28 Q1010=
21-Jun-2023 SAID35 WART 210600 METAR WART 210600Z 10008KT 9999 FEW020 31/28 Q1010=
21-Jun-2023 SAID35 WART 210700 METAR WART 210700Z AUTO 10008KT //// ////// 31/29 Q1009=
22-Jun-2023 SAID35 WART 220000 METAR WART 220000Z 16008KT 9999 FEW020 27/25 Q1012=
22-Jun-2023 SAID35 WART 220100 METAR WART 220100Z 16015KT 9999 FEW020 29/26 Q1012=
22-Jun-2023 SAID35 WART 220200 METAR WART 220200Z 15011KT 9999 FEW020 30/27 Q1012=
22-Jun-2023 SAID35 WART 220300 METAR WART 220300Z 16013KT 9999 FEW020 30/27 Q1011=
22-Jun-2023 SAID35 WART 220400 METAR WART 220400Z 10011KT 9999 FEW020 31/27 Q1010=
22-Jun-2023 SAID35 WART 220500 METAR WART 220500Z 10010KT 9999 FEW020 30/26 Q1009=
22-Jun-2023 SAID35 WART 220600 METAR WART 220600Z 12009KT 9999 FEW020 31/26 Q1009=
22-Jun-2023 SAID35 WART 220700 METAR WART 220700Z 10007KT 9999 FEW020 30/26 Q1008=
22-Jun-2023 SAID35 WART 220800 METAR WART 220800Z 10010KT 9999 FEW020 30/24 Q1008=
23-Jun-2023 SAID35 WART 230000 METAR WART 230000Z 22001KT 9999 FEW020 25/25 Q1011=
23-Jun-2023 SAID35 WART 230100 METAR WART 230100Z 13007KT 9999 FEW020 29/28 Q1011=
23-Jun-2023 SAID35 WART 230200 METAR WART 230200Z 12008KT 9999 FEW020 30/26 Q1011=
23-Jun-2023 SAID35 WART 230300 METAR WART 230300Z 15009KT 120V180 9999 FEW020 31/27 Q1011=
23-Jun-2023 SAID35 WART 230400 METAR WART 230400Z 16010KT 9999 FEW020 30/27 Q1010=
23-Jun-2023 SAID35 WART 230500 METAR WART 230500Z 17009KT 9999 FEW020 31/27 Q1009=
23-Jun-2023 SAID35 WART 230600 METAR WART 230600Z 16011KT 9999 FEW020 31/27 Q1009=
23-Jun-2023 SAID35 WART 230700 METAR WART 230700Z 18010KT 9999 FEW020 30/26 Q1008 NOSIG=
23-Jun-2023 SAID35 WART 230800 METAR WART 230800Z 16008KT 9999 FEW020 31/24 Q1008 NOSIG=
23-Jun-2023 SAID35 WART 230900 METAR WART 230900Z 10005KT 9999 FEW020 29/23 Q1008 NOSIG=
23-Jun-2023 SAID35 WART 231000 METAR WART 231000Z 10005KT 9999 FEW020 27/25 Q1008 NOSIG=
26-Jun-2023 SAID35 WART 260000 METAR WART 260000Z 10005KT 9999 FEW020 27/25 Q1008 NOSIG=
26-Jun-2023 SAID35 WART 260100 METAR WART 260100Z 10001KT 9999 FEW020 28/28 Q1011 NOSIG=
26-Jun-2023 SAID35 WART 260200 METAR WART 260200Z 18006KT 9999 FEW020 29/28 Q1011 NOSIG=
26-Jun-2023 SAID35 WART 260300 METAR WART 260300Z 16008KT 9999 FEW020 30/28 Q1010 NOSIG=
26-Jun-2023 SAID35 WART 260400 METAR WART 260400Z 18009KT 9999 FEW020 31/28 Q1009 NOSIG=
26-Jun-2023 SAID35 WART 260500 METAR WART 260500Z 17008KT 9999 FEW020 30/27 Q1009 NOSIG=
26-Jun-2023 SAID35 WART 260600 METAR WART 260600Z AUTO 18009KT //// ////// 31/27 Q1008=
26-Jun-2023 SAID35 WART 260700 METAR WART 260700Z 16008KT 9999 FEW020 31/27 Q1008 NOSIG=
26-Jun-2023 SAID35 WART 260800 METAR WART 260800Z 16004KT 9999 FEW020 30/26 Q1008 NOSIG=
27-Jun-2023 SAID35 WART 270000 METAR WART 270000Z 27001KT 9999 FEW020 25/25 Q1011 NOSIG=
27-Jun-2023 SAID35 WART 270100 METAR WART 270100Z 24004KT 9000 FEW020 28/28 Q1011 NOSIG=
27-Jun-2023 SAID35 WART 270200 METAR WART 270200Z 22003KT 180V250 9999 FEW020 30/26 Q1011 NOSIG=
27-Jun-2023 SAID35 WART 270300 METAR WART 270300Z 20006KT 9999 FEW020 31/27 Q1011 NOSIG=
27-Jun-2023 SAID35 WART 270400 METAR WART 270400Z 18007KT 110V190 9999 FEW020 32/24 Q1010 NOSIG=
27-Jun-2023 SAID35 WART 270500 METAR WART 270500Z 17007KT 130V190 9999 FEW020 32/23 Q1010 NOSIG=
27-Jun-2023 SAID35 WART 270600 METAR WART 270600Z 15008KT 9999 FEW020 33/24 Q1009 NOSIG=
27-Jun-2023 SAID35 WART 270700 METAR WART 270700Z 11006KT 9999 FEW020 32/23 Q1010 NOSIG=
29-Jun-2023 SAID35 WART 290300 METAR WART 290300Z 19008KT 9999 FEW020 31/28 Q1011=
29-Jun-2023 SAID35 WART 290700 METAR WART 290700Z 12005KT 9999 FEW020 30/26 Q1008=
29-Jun-2023 SAID35 WART 290800 METAR WART 290800Z 12004KT 9999 FEW020 31/25 Q1008 NOSIG=
30-Jun-2023 SAID35 WART 300000 METAR WART 300000Z 33003KT 9999 FEW020 26/25 Q1012 NOSIG=
30-Jun-2023 SAID35 WART 300100 METAR WART 300100Z 20005KT 9999 FEW020 29/28 Q1011 NOSIG=
30-Jun-2023 SAID35 WART 300200 METAR WART 300200Z 18007KT 140V200 9999 FEW020 31/28 Q1011 NOSIG=
30-Jun-2023 SAID35 WART 300300 METAR WART 300300Z 16007KT 120V180 9999 FEW020 32/27 Q1011 NOSIG=
30-Jun-2023 SAID35 WART 300400 METAR WART 300400Z 17009KT 9999 FEW020 32/26 Q1011 NOSIG=
30-Jun-2023 SAID35 WART 300500 METAR WART 300500Z 21012KT 9999 FEW020 32/26 Q1011 NOSIG=
01-Jul-2023 SAID35 WART 010900 METAR WART 310900Z AUTO 12007KT //// ////// 30/28 Q1008=
01-Jul-2023 SAID35 WART 012330 METAR WART 012330Z 18003KT 9999 FEW020 25/25 Q1011=
03-Jul-2023 SAID35 WART 030000 METAR WART 030000Z 02001KT 9999 SCT020 26/26 Q1012=
03-Jul-2023 SAID35 WART 030100 METAR WART 030100Z 00000KT 9999 SCT020 27/27 Q1011=
03-Jul-2023 SAID35 WART 030200 METAR WART 030200Z 16006KT 120V180 9999 FEW020 30/26 Q1012=
03-Jul-2023 SAID35 WART 030700 METAR WART 030700Z 13006KT 9999 SCT020 31/25 Q1009=
03-Jul-2023 SAID35 WART 030800 METAR WART 030800Z 11006KT 9999 SCT020 29/27 Q1009=
04-Jul-2023 SAID35 WART 040000 METAR WART 040000Z 00000KT 9000 FEW018CB 26/25 Q1011=
04-Jul-2023 SAID35 WART 040100 METAR WART 040100Z 00000KT 9000 FEW018CB 27/26 Q1011=
04-Jul-2023 SAID35 WART 040200 METAR WART 040200Z 15004KT 9999 SCT018 29/26 Q1011=
04-Jul-2023 SAID35 WART 040300 METAR WART 040300Z 18004KT 9999 SCT018 29/27 Q1011=
04-Jul-2023 SAID35 WART 040400 METAR WART 040400Z 17009KT 9999 FEW018 31/28 Q1010=
04-Jul-2023 SAID35 WART 040500 METAR WART 040500Z 15009KT 9999 FEW018 31/28 Q1009=
04-Jul-2023 SAID35 WART 040600 METAR WART 040600Z 16008KT 9999 FEW018 32/28 Q1009=
04-Jul-2023 SAID35 WART 040700 METAR WART 040700Z 17009KT 9999 FEW018 31/28 Q1008=
04-Jul-2023 SAID35 WART 040800 METAR WART 040800Z 11006KT 9999 FEW018 30/27 Q1008=
05-Jul-2023 SAID35 WART 050000 METAR WART 050000Z 15005KT 9999 FEW020 27/27 Q1010 NOSIG=
05-Jul-2023 SAID35 WART 050100 METAR WART 050100Z 14007KT 9999 FEW020 30/29 Q1010 NOSIG=
05-Jul-2023 SAID35 WART 050200 METAR WART 050200Z 13010KT 9999 FEW020 30/27 Q1010 NOSIG=
05-Jul-2023 SAID35 WART 050300 METAR WART 050300Z 17014KT 9999 FEW020 30/28 Q1010 NOSIG=
05-Jul-2023 SAID35 WART 050400 METAR WART 050400Z 16011KT 9999 FEW020 29/27 Q1009 NOSIG=
05-Jul-2023 SAID35 WART 050500 METAR WART 050500Z 16013KT 9999 FEW020 31/27 Q1009 NOSIG=
05-Jul-2023 SAID35 WART 050600 METAR WART 050600Z 16011KT 9999 FEW020 31/28 Q1008 NOSIG=
05-Jul-2023 SAID35 WART 050800 METAR WART 050800Z 15007KT 9999 FEW020 32/26 Q1008 NOSIG=
05-Jul-2023 SAID35 WART 050900 METAR WART 050900Z 13007KT 9999 FEW020 31/24 Q1008 NOSIG=
06-Jul-2023 SAID35 WART 060000 METAR WART 060000Z 160/11KT 9999 FEW020 29/29 Q1011=
06-Jul-2023 SAID35 WART 060100 METAR WART 060100Z 16010KT 9999 FEW020TCU 30/28 Q1011=
06-Jul-2023 SAID35 WART 060300 METAR WART 060300Z 16009KT 120V180 9999 FEW020TCU 32/28 Q1011=
06-Jul-2023 SAID35 WART 060400 METAR WART 060400Z AUTO 17009KT //// ////// 32/28 Q1011=
06-Jul-2023 SAID35 WART 060700 METAR WART 060700Z 10008KT 9999 FEW020 31/28 Q1009 NOSIG=
06-Jul-2023 SAID35 WART 060800 METAR WART 060800Z 11008KT 9999 FEW020 31/27 Q1008 NOSIG=
07-Jul-2023 SAID35 WART 070000 METAR WART 070000Z 13002KT 9999 SCT018 27/26 Q1012=
07-Jul-2023 SAID35 WART 070100 METAR WART 070100Z 16006KT 9999 SCT018 26/26 Q1013=
07-Jul-2023 SAID35 WART 070200 METAR WART 070200Z 18011KT 9999 SCT018 30/26 Q1013=
07-Jul-2023 SAID35 WART 070300 METAR WART 070300Z 17010KT 9999 SCT018 30/28 Q1012=
07-Jul-2023 SAID35 WART 070400 METAR WART 070400Z 17010KT 9999 SCT018 31/29 Q1012=
07-Jul-2023 SAID35 WART 070500 METAR WART 070500Z 18008KT 9999 SCT018 30/29 Q1011=
07-Jul-2023 SAID35 WART 070600 METAR WART 070600Z 18006KT 9999 SCT018 32/27 Q1010=
10-Jul-2023 SAID35 WART 100100 METAR WART 100100Z 15007KT 9999 SCT020 29/29 Q1011=
10-Jul-2023 SAID35 WART 100200 METAR WART 100200Z 11011KT 9999 SCT020 31/29 Q1011=
10-Jul-2023 SAID35 WART 100300 METAR WART 100300Z 16013KT 9999 SCT020 29/29 Q1011=
10-Jul-2023 SAID35 WART 100400 METAR WART 100400Z 16012KT 9999 BKN020 29/29 Q1010=
10-Jul-2023 SAID35 WART 100500 METAR WART 100500Z 13010KT 9999 BKN020 30/27 Q1010=
10-Jul-2023 SAID35 WART 100600 METAR WART 100600Z 12009KT 090V150 9999 SCT020 31/28 Q1009 NOSIG=
10-Jul-2023 SAID35 WART 100700 METAR WART 100700Z 14010KT 9999 FEW020 30/28 Q1008=
10-Jul-2023 SAID35 WART 100800 METAR WART 100800Z 11008KT 9999 FEW020 30/28 Q1008=
11-Jul-2023 SAID35 WART 110000 METAR WART 110000Z 12005KT 9999 FEW020 26/22 Q1013 NOSIG=
11-Jul-2023 SAID35 WART 110100 METAR WART 110100Z 15011KT 9999 FEW020 29/25 Q1012 NOSIG=
11-Jul-2023 SAID35 WART 110200 METAR WART 110200Z 15012KT 9999 FEW020 30/25 Q1012 NOSIG=
11-Jul-2023 SAID35 WART 110300 METAR WART 110300Z 14012KT 9999 FEW020 31/23 Q1012 NOSIG=
11-Jul-2023 SAID35 WART 110400 METAR WART 110400Z 12009KT 090V160 9999 FEW020 31/23 Q1011 NOSIG=
11-Jul-2023 SAID35 WART 110500 METAR WART 110500Z 11008KT 080V140 9999 SCT020 30/25 Q1011 NOSIG=
11-Jul-2023 SAID35 WART 110600 METAR WART 110600Z 09007KT 9999 FEW020 30/24 Q1010 NOSIG=
11-Jul-2023 SAID35 WART 110700 METAR WART 110700Z 12006KT 9999 SCT020 30/24 Q1009 NOSIG=
12-Jul-2023 SAID35 WART 120000 METAR WART 120000Z 30001KT 9999 FEW020 23/23 Q1011 NOSIG=
12-Jul-2023 SAID35 WART 120100 METAR WART 120100Z VRB02KT 9999 FEW020 27/27 Q1011 NOSIG=
12-Jul-2023 SAID35 WART 120200 METAR WART 120200Z 17003KT 140V220 9999 FEW020 29/26 Q1011 NOSIG=
12-Jul-2023 SAID35 WART 120300 METAR WART 120300Z 19006KT 9999 FEW020 30/23 Q1011 NOSIG=
12-Jul-2023 SAID35 WART 120400 METAR WART 120400Z 17003KT 100V200 9999 FEW020 31/23 Q1011=
12-Jul-2023 SAID35 WART 120500 METAR WART 120500Z 11005KT 9999 FEW020 31/22 Q1011=
12-Jul-2023 SAID35 WART 120600 METAR WART 120600Z 06003KT 9999 FEW020 31/22 Q1010=
12-Jul-2023 SAID35 WART 120700 METAR WART 120700Z 09006KT 9999 FEW020 32/22 Q1009=
12-Jul-2023 SAID35 WART 120800 METAR WART 120800Z 08006KT 9999 FEW020 32/21 Q1009 NOSIG=
13-Jul-2023 SAID35 WART 130000 METAR WART 130000Z 10001KT 9000 SCT020 26/26 Q1012 NOSIG=
13-Jul-2023 SAID35 WART 130100 METAR WART 130100Z 21002KT 9999 SCT020 27/27 Q1012 NOSIG=
13-Jul-2023 SAID35 WART 130200 METAR WART 130200Z 21003KT 9999 SCT020 29/28 Q1012 NOSIG=
13-Jul-2023 SAID35 WART 130300 METAR WART 130300Z 15007KT 9999 SCT020 30/27 Q1011 NOSIG=
13-Jul-2023 SAID35 WART 130400 METAR WART 130400Z 16010KT 9999 SCT020 31/26 Q1011 NOSIG=
13-Jul-2023 SAID35 WART 130500 METAR WART 130500Z 17009KT 9999 FEW020 32/26 Q1010 NOSIG=
13-Jul-2023 SAID35 WART 130600 METAR WART 130600Z 15008KT 9999 FEW020 32/25 Q1009 NOSIG=
13-Jul-2023 SAID35 WART 130700 METAR WART 130700Z 18008KT 9999 FEW020 31/24 Q1009 NOSIG=
13-Jul-2023 SAID35 WART 130800 METAR WART 130800Z 16004KT 9999 FEW020 31/24 Q1008 NOSIG=
14-Jul-2023 SAID35 WART 140000 METAR WART 140000Z CALM KT 9999 BKN018TCU 26/24 Q1012=
14-Jul-2023 SAID35 WART 140700 METAR WART 140700Z 16010KT 9999 SCT020 30/23 Q1009 NOSIG=
14-Jul-2023 SAID35 WART 140800 METAR WART 140800Z 10006KT 9999 SCT020 30/25 Q1009 NOSIG=
17-Jul-2023 SAID35 WART 170000 METAR WART 170000Z 21004KT 9999 FEW020 27/27 Q1011 NOSIG=
17-Jul-2023 SAID35 WART 170100 METAR WART 170100Z 15010KT 9999 FEW020 29/24 Q1012 NOSIG=
17-Jul-2023 SAID35 WART 170200 METAR WART 170200Z 15010KT 9999 FEW020 30/23 Q1012 NOSIG=
17-Jul-2023 SAID35 WART 170300 METAR WART 170300Z 13008KT 9999 FEW020 31/22 Q1012 NOSIG=
17-Jul-2023 SAID35 WART 170400 METAR WART 170400Z 11009KT 9999 FEW020 31/22 Q1011 NOSIG=
17-Jul-2023 SAID35 WART 170500 METAR WART 170500Z 10010KT 9999 FEW020 30/23 Q1010 NOSIG=
17-Jul-2023 SAID35 WART 170600 METAR WART 170600Z 11009KT 9999 FEW020 31/22 Q1009 NOSIG=
17-Jul-2023 SAID35 WART 170700 METAR WART 170700Z 09010KT 9999 FEW020 31/22 Q1009 NOSIG=
17-Jul-2023 SAID35 WART 172300 METAR WART 172300Z 16030KT 9999 FEW020 24/24 Q1011 NOSIG=
18-Jul-2023 SAID35 WART 180000 METAR WART 180000Z 15010KT 9999 FEW020 27/25 Q1012 NOSIG=
18-Jul-2023 SAID35 WART 180100 METAR WART 180100Z 15010KT 9999 FEW020 28/25 Q1012 NOSIG=
18-Jul-2023 SAID35 WART 180200 METAR WART 180200Z 15014KT 9999 FEW020 30/25 Q1012 NOSIG=
18-Jul-2023 SAID35 WART 180300 METAR WART 180300Z 16017KT 9999 FEW020 30/25 Q1011 NOSIG=
18-Jul-2023 SAID35 WART 180400 METAR WART 180400Z 15015KT 9999 FEW020 31/24 Q1011 NOSIG=
18-Jul-2023 SAID35 WART 180500 METAR WART 180500Z 15015KT 9999 FEW020 30/24 Q1010 NOSIG=
18-Jul-2023 SAID35 WART 180600 METAR WART 180600Z 16011KT 9999 FEW020 31/24 Q1009 NOSIG=
18-Jul-2023 SAID35 WART 180700 METAR WART 180700Z 12009KT 9999 FEW020 31/24 Q1008 NOSIG=
18-Jul-2023 SAID35 WART 180800 METAR WART 180800Z 11008KT 070V140 9999 FEW020 30/23 Q1008 NOSIG=
19-Jul-2023 SAID35 WART 190000 METAR WART 190000Z 18010KT 9999 FEW020 27/24 Q1011 NOSIG=
19-Jul-2023 SAID35 WART 190100 METAR WART 190100Z 16014KT 9999 FEW020 29/23 Q1012 NOSIG=
19-Jul-2023 SAID35 WART 190200 METAR WART 190200Z 15011KT 9999 FEW020 29/23 Q1012 NOSIG=
19-Jul-2023 SAID35 WART 190400 METAR WART 190400Z 15015KT 9999 FEW020 30/23 Q1010 NOSIG=
19-Jul-2023 SAID35 WART 190500 METAR WART 190500Z 14014KT 9999 FEW020 31/23 Q1010 NOSIG=
19-Jul-2023 SAID35 WART 190600 METAR WART 190600Z 12012KT 9999 FEW020 32/20 Q1009 NOSIG=
19-Jul-2023 SAID35 WART 190700 METAR WART 190700Z 11011KT 9999 FEW020 32/19 Q1008=
19-Jul-2023 SAID35 WART 190800 METAR WART 190800Z 10009KT 9999 FEW020 32/22 Q1008=
20-Jul-2023 SAID35 WART 200000 METAR WART 200000Z 16009KT 9999 FEW020 26/24 Q1010 NOSIG=
20-Jul-2023 SAID35 WART 200100 METAR WART 200100Z 15013KT 9999 FEW020 28/22 Q1011 NOSIG=
20-Jul-2023 SAID35 WART 200200 METAR WART 200200Z 15013KT CAVOK 29/22 Q1011=
20-Jul-2023 SAID35 WART 200300 METAR WART 200300Z 14014KT CAVOK 30/22 Q1011 NOSIG=
20-Jul-2023 SAID35 WART 200400 METAR WART 200400Z 14014KT CAVOK 31/21 Q1010 NOSIG=
20-Jul-2023 SAID35 WART 200500 METAR WART 200500Z 15013KT CAVOK 31/21 Q1009 NOSIG=
20-Jul-2023 SAID35 WART 200600 METAR WART 200600Z 16010KT CAVOK 31/22 Q1009 NOSIG=
20-Jul-2023 SAID35 WART 200700 METAR WART 200700Z 15011KT 9999 FEW020 32/20 Q1008 NOSIG=
20-Jul-2023 SAID35 WART 200800 METAR WART 200800Z 11010KT 9999 FEW020 31/20 Q1008 NOSIG=
21-Jul-2023 SAID35 WART 210000 METAR WART 210000Z 180/10KT 9999 FEW020 26/21 Q1013=
21-Jul-2023 SAID35 WART 210700 METAR WART 210700Z 17009KT 9999 FEW020 31/21 Q1011 NOSIG=
21-Jul-2023 SAID35 WART 210800 METAR WART 210800Z 16007KT 9999 FEW020 31/21 Q1011 NOSIG=
22-Jul-2023 SAID35 WART 220000 METAR WART 220000Z 15012KT 9999 FEW020 28/24 Q1013=
24-Jul-2023 SAID35 WART 240000 METAR WART 240000Z 14007KT 9999 FEW020 26/24 Q1013 NOSIQ=
24-Jul-2023 SAID35 WART 240100 METAR WART 240100Z 12008KT 9999 SCT019 27/27 Q1013=
24-Jul-2023 SAID35 WART 240200 METAR WART 240200Z 11009KT 9999 SCT020 30/27 Q1013=
24-Jul-2023 SAID35 WART 240300 METAR WART 240300Z 13009KT 100V160 9999 SCT020 31/27 Q1013=
24-Jul-2023 SAID35 WART 240400 METAR WART 240400Z 11010KT 9999 FEW020 31/26 Q1012=
24-Jul-2023 SAID35 WART 240500 METAR WART 240500Z AUTO 12011KT 9999 FEW020 32/26 Q1011=
24-Jul-2023 SAID35 WART 240600 METAR WART 240600Z 11009KT 9999 FEW020 32/24 Q1011=
24-Jul-2023 SAID35 WART 240700 METAR WART 240700Z 14010KT 9999 SCT020 30/24 Q1010 NOSIQ=
24-Jul-2023 SAID35 WART 240800 METAR WART 240800Z 10010KT 9999 FEW020 30/24 Q1009=
24-Jul-2023 SAID35 WART 240900 METAR WART 240900Z 10010KT 9999 FEW020 29/24 Q1009=
25-Jul-2023 SAID35 WART 250000 METAR WART 250000Z 16002KT 9999 SCT020 26/26 Q1013=
25-Jul-2023 SAID35 WART 250100 METAR WART 250100Z 11010KT 9999 FEW020 29/27 Q1014=
25-Jul-2023 SAID35 WART 250200 METAR WART 250200Z 10009KT 9999 FEW020 30/27 Q1013=
25-Jul-2023 SAID35 WART 250300 METAR WART 250300Z 11008KT 9999 FEW020 31/27 Q1013=
25-Jul-2023 SAID35 WART 250400 METAR WART 250400Z 10009KT 9999 FEW020 31/27 Q1012=
25-Jul-2023 SAID35 WART 250500 METAR WART 250500Z 11009KT 9999 SCT020 31/27 Q1011=
25-Jul-2023 SAID35 WART 250600 METAR WART 250600Z 09011KT 9999 SCT020 31/26 Q1010=
25-Jul-2023 SAID35 WART 250700 METAR WART 250700Z 11011KT 9999 FEW020 31/26 Q1010=
25-Jul-2023 SAID35 WART 250800 METAR WART 250800Z 12010KT 9999 FEW020 30/26 Q1009=
26-Jul-2023 SAID35 WART 260100 METAR WART 260100Z 15007KT 9999 SCT020 28/26 Q1014=
26-Jul-2023 SAID35 WART 260200 METAR WART 260200Z 15013KT 9999 SCT020 30/25 Q1014=
26-Jul-2023 SAID35 WART 260300 METAR WART 260300Z 15013KT 9999 SCT020 30/24 Q1013=
26-Jul-2023 SAID35 WART 260400 METAR WART 260400Z 16014KT 9999 SCT020 31/23 Q1013=
26-Jul-2023 SAID35 WART 260500 METAR WART 260500Z 17009KT 9999 SCT020 31/24 Q1012=
26-Jul-2023 SAID35 WART 260600 METAR WART 260600Z 18008KT 9999 SCT020 32/21 Q1011=
26-Jul-2023 SAID35 WART 260700 METAR WART 260700Z 15008KT 9999 FEW020 32/23 Q1010=
27-Jul-2023 SAID35 WART 270600 METAR WART 270600Z 16012KT 9999 FEW020 31/23 Q1011=
27-Jul-2023 SPID35 WART 270728 SPECI WART 270728Z 10007KT 9999 FEW020 30/22 Q1010=
27-Jul-2023 SAID35 WART 270800 METAR WART 270800Z 11007KT 9999 FEW020 31/22 Q1010=
28-Jul-2023 SAID35 WART 280000 METAR WART 280000Z 21004KT 9999 FEW020 25/25 Q1014 NOSIG=
28-Jul-2023 SAID35 WART 280100 METAR WART 280100Z 17010KT 9999 FEW020 29/24 Q1014 NOSIG=
28-Jul-2023 SAID35 WART 280200 METAR WART 280200Z 18011KT 9999 SCT020 29/23 Q1014 NOSIG=
28-Jul-2023 SAID35 WART 280300 METAR WART 280300Z 16012KT 9999 FEW020 30/21 Q1013 NOSIG=
28-Jul-2023 SAID35 WART 280400 METAR WART 280400Z 16011KT 9999 FEW020 30/21 Q1012 NOSIG=
28-Jul-2023 SAID35 WART 280500 METAR WART 280500Z 16012KT 9999 FEW020 31/21 Q1011 NOSIG=
28-Jul-2023 SAID35 WART 280600 METAR WART 280600Z 16013KT 9999 FEW020 31/21 Q1010 NOSIG=
28-Jul-2023 SAID35 WART 280700 METAR WART 280700Z 11008KT 080V140 9999 FEW020 31/21 Q1009=
28-Jul-2023 SAID35 WART 280800 METAR WART 280800Z 09009KT 9999 FEW020 29/21 Q1010=
30-Jul-2023 SAID35 WART 300000 METAR WART 300000Z 16012KT 9999 FEW020 27/23 Q1014=
31-Jul-2023 SAID35 WART 310000 METAR WART 310000Z 15006KT 9999 FEW020 27/24 Q1013=
31-Jul-2023 SAID35 WART 310200 METAR WART 310200Z 17010KT 9999 FEW020 30/22 Q1013=
31-Jul-2023 SAID35 WART 310300 METAR WART 310300Z 17014KT 9999 FEW020 31/23 Q1013=
31-Jul-2023 SAID35 WART 310400 METAR WART 310400Z 17014KT 9999 FEW020 31/23 Q1012=
31-Jul-2023 SAID35 WART 310500 METAR WART 310500Z 15014KT 9999 FEW020 31/23 Q1011=
31-Jul-2023 SAID35 WART 310600 METAR WART 310600Z 14016KT 9999 FEW020 32/23 Q1010=
01-Aug-2023 SAID35 WART 010000 METAR WART 010000Z 13010KT 9999 FEW020 27/27 Q1010=
01-Aug-2023 SAID35 WART 010100 METAR WART 010100Z 13009KT 9999 SCT020 29/28 Q1013=
01-Aug-2023 SAID35 WART 010200 METAR WART 010200Z 12010KT 9999 FEW020 30/27 Q1013=
01-Aug-2023 SAID35 WART 010300 METAR WART 010300Z 12011KT 9999 FEW020 31/26 Q1013=
01-Aug-2023 SAID35 WART 010400 METAR WART 010400Z 11010KT 9999 FEW020 32/26 Q1012=
01-Aug-2023 SAID35 WART 010500 METAR WART 010500Z 11011KT 9999 SCT020 31/25 Q1011=
01-Aug-2023 SAID35 WART 010600 METAR WART 010600Z 10011KT 9999 SCT020 31/25 Q1010=
02-Aug-2023 SAID35 WART 020000 METAR WART 020000Z 14005KT 9999 FEW020 27/24 Q1013 NOSIG=
02-Aug-2023 SAID35 WART 020100 METAR WART 020100Z 12010KT 9999 FEW020 30/28 Q1014=
02-Aug-2023 SAID35 WART 020200 METAR WART 020200Z 11008KT 9999 FEW020 30/27 Q1014=
02-Aug-2023 SAID35 WART 020300 METAR WART 020300Z 16010KT 9999 SCT020 31/28 Q1013=
02-Aug-2023 SPID35 WART 020335 SPECI WART 020335Z AUTO 10009KT 080V140 //// ////// 32/27 Q1013=
02-Aug-2023 SAID35 WART 020400 METAR WART 020400Z 11009KT 9999 SCT020 32/27 Q1013=
02-Aug-2023 SAID35 WART 020500 METAR WART 020500Z 12012KT 9999 SCT020 31/27 Q1012=
02-Aug-2023 SAID35 WART 020600 METAR WART 020600Z AUTO 11011KT //// ////// 31/26 Q1012=
02-Aug-2023 SAID35 WART 020700 METAR WART 020700Z 12012KT 9999 FEW020 31/27 Q1011=
02-Aug-2023 SAID35 WART 020800 METAR WART 020800Z 12012KT 9999 FEW020 31/26 Q1011=
03-Aug-2023 SAID35 WART 030000 METAR WART 030000Z AUTO 15007KT 9999 FEW020 28/28 Q1014=
03-Aug-2023 SAID35 WART 030100 METAR WART 030100Z AUTO 12008KT 9999 SCT020 30/27 Q1014=
03-Aug-2023 SAID35 WART 030200 METAR WART 030200Z AUTO 12010KT 9999 SCT020 31/26 Q1014=
03-Aug-2023 SAID35 WART 030300 METAR WART 030300Z 12010KT 9999 BKN018 30/27 Q1014=
03-Aug-2023 SAID35 WART 030400 METAR WART 030400Z 15012KT 9999 SCT018 32/27 Q1013=
03-Aug-2023 SAID35 WART 030500 METAR WART 030500Z 10010KT 9999 SCT018 32/25 Q1013=
03-Aug-2023 SAID35 WART 030600 METAR WART 030600Z 10010KT 9999 SCT018 31/26 Q1012=
04-Aug-2023 SAID35 WART 040000 METAR WART 040000Z 25002KT 9999 FEW018 25/25 Q1016=
04-Aug-2023 SAID35 WART 040100 METAR WART 040100Z 25003KT 9999 FEW018 27/26 Q1017=
04-Aug-2023 SAID35 WART 040200 METAR WART 040200Z 17005KT 9999 FEW018 28/25 Q1016=
04-Aug-2023 SAID35 WART 040300 METAR WART 040300Z 15010KT 9999 FEW018 30/26 Q1016=
04-Aug-2023 SAID35 WART 040400 METAR WART 040400Z 16013KT 9999 FEW020 31/27 Q1016=
04-Aug-2023 SAID35 WART 040600 METAR WART 040600Z 18009KT 9999 FEW018 31/25 Q1014 NOSIG=
05-Aug-2023 SAID35 WART 050100 METAR WART 050100Z 14012KT 9999 FEW020 30/26 Q1016 NOSIG=
07-Aug-2023 SAID35 WART 070000 METAR WART 070000Z 13008KT 9999 FEW020 28/27 Q1013=
07-Aug-2023 SAID35 WART 070100 METAR WART 070100Z 11010KT 9999 FEW020 29/26 Q1013=
07-Aug-2023 SAID35 WART 070200 METAR WART 070200Z 12011KT 9999 FEW020 31/26 Q1013=
07-Aug-2023 SAID35 WART 070300 METAR WART 070300Z 13010KT 9999 FEW020 31/26 Q1013=
07-Aug-2023 SAID35 WART 070400 METAR WART 070400Z 11011KT 9999 FEW020 31/26 Q1012=
07-Aug-2023 SAID35 WART 070500 METAR WART 070500Z 12012KT 9999 FEW020 31/25 Q1012=
07-Aug-2023 SAID35 WART 070600 METAR WART 070600Z 12014KT 9999 FEW020 31/25 Q1011=
08-Aug-2023 SAID35 WART 080000 METAR WART 080000Z 15007KT 9999 FEW020 27/27 Q1013=
08-Aug-2023 SAID35 WART 080200 METAR WART 080200Z 12012KT 9999 SCT020 30/24 Q1014=
08-Aug-2023 SAID35 WART 080300 METAR WART 080300Z 12012KT 9999 FEW020 31/23 Q1014=
08-Aug-2023 SAID35 WART 080400 METAR WART 080400Z 11012KT 9999 FEW020 31/23 Q1013=
08-Aug-2023 SAID35 WART 080500 METAR WART 080500Z 11012KT 9999 FEW020 31/23 Q1012=
08-Aug-2023 SAID35 WART 080600 METAR WART 080600Z 11011KT 9999 FEW020 31/22 Q1012=
08-Aug-2023 SAID35 WART 080700 METAR WART 080700Z 10010KT 9999 FEW020 31/23 Q1011=
08-Aug-2023 SAID35 WART 080800 METAR WART 080800Z 11011KT 9999 FEW020 30/23 Q1011=
08-Aug-2023 SAID35 WART 080900 METAR WART 080900Z 12009KT 9999 FEW020 30/23 Q1011=
09-Aug-2023 SAID35 WART 090000 METAR WART 090000Z 15005KT 9999 FEW020 24/24 Q1014 NOSIG=
09-Aug-2023 SAID35 WART 090100 METAR WART 090100Z 15012KT 9999 FEW020 28/24 Q1015 NOSIG=
09-Aug-2023 SAID35 WART 090200 METAR WART 090200Z 16012KT 9999 FEW020 29/24 Q1015 NOSIG=
09-Aug-2023 SAID35 WART 090300 METAR WART 090300Z 16012KT 9999 FEW020 29/23 Q1015 NOSIG=
09-Aug-2023 SAID35 WART 090400 METAR WART 090400Z 16016KT 9999 FEW020 29/23 Q1014 NOSIG=
09-Aug-2023 SAID35 WART 090500 METAR WART 090500Z 16016KT 9999 SCT020 30/23 Q1013 NOSIG=
09-Aug-2023 SAID35 WART 090600 METAR WART 090600Z 13010KT 9999 SCT020 31/23 Q1013 NOSIG=
09-Aug-2023 SAID35 WART 090700 METAR WART 090700Z 10011KT 9999 SCT020 30/22 Q1012 NOSIG=
09-Aug-2023 SAID35 WART 090800 METAR WART 090800Z 10010KT 9999 SCT020 30/22 Q1012 NOSIG=
10-Aug-2023 SAID35 WART 100000 METAR WART 100000Z 15007KT 9999 FEW020 25/24 Q1015 NOSIG=
10-Aug-2023 SAID35 WART 100100 METAR WART 100100Z 15010KT 9999 FEW020 27/24 Q1015 NOSIG=
10-Aug-2023 SAID35 WART 100200 METAR WART 100200Z 15012KT 9999 SCT020 29/23 Q1015 NOSIG=
10-Aug-2023 SAID35 WART 100300 METAR WART 100300Z 16013KT 9999 SCT020 30/23 Q1014 NOSIG=
10-Aug-2023 SAID35 WART 100400 METAR WART 100400Z 15010KT 9999 FEW020 31/23 Q1013 NOSIG=
10-Aug-2023 SAID35 WART 100500 METAR WART 100500Z 11010KT 9999 SCT020 31/21 Q1012=
10-Aug-2023 SAID35 WART 100600 METAR WART 100600Z AUTO 10009KT 070V130 //// ////// 31/19 Q1012=
10-Aug-2023 SAID35 WART 100700 METAR WART 100700Z 10010KT 070V140 9999 FEW020 31/21 Q1011=
10-Aug-2023 SAID35 WART 100800 METAR WART 100800Z 09009KT 9999 FEW020 30/22 Q1011=
11-Aug-2023 SAID35 WART 110000 METAR WART 110000Z AUTO 00000KT 9999 FEW020 25/25 Q1014=
11-Aug-2023 SAID35 WART 110100 METAR WART 110100Z AUTO 14017KT 9999 FEW020 28/23 Q1014=
11-Aug-2023 SAID35 WART 110200 METAR WART 110200Z AUTO 15012KT 9999 FEW020 29/22 Q1014=
11-Aug-2023 SAID35 WART 110300 METAR WART 110300Z AUTO 15012KT 110V170 9999 FEW020 30/22 Q1013=
11-Aug-2023 SAID35 WART 110400 METAR WART 110400Z AUTO 12010KT 9999 SCT020 30/22 Q1013=
14-Aug-2023 SAID35 WART 140000 METAR WART 140000Z 150/06KT 9999 FEW020 26/22 Q1013=
14-Aug-2023 SAID35 WART 140700 METAR WART 140700Z 11009KT 9999 FEW020 32/22 Q1009 NOSIG=
14-Aug-2023 SAID35 WART 140800 METAR WART 140800Z 10009KT 9999 FEW020 31/23 Q1009 NOSIG=
15-Aug-2023 SAID35 WART 150000 METAR WART 150000Z 240/03KT 9999 FEW020 26/23 Q1014=
15-Aug-2023 SAID35 WART 150100 METAR WART 150100Z 160/05KT 9999 FEW020 28/24 Q1015=
15-Aug-2023 SAID35 WART 150300 METAR WART 150300Z 160/14KT 9999 FEW020 31/23 Q1014=
15-Aug-2023 SAID35 WART 150400 METAR WART 150400Z 170/15KT 9999 FEW020 32/24 Q1013=
15-Aug-2023 SAID35 WART 150500 METAR WART 150500Z 160/15KT 9999 FEW020 32/23 Q1012=
15-Aug-2023 SAID35 WART 150600 METAR WART 150600Z 160/15KT 9999 FEW020 32/23 Q1012=
16-Aug-2023 SAID35 WART 160000 METAR WART 160000Z 150/09KT 9999 FEW020 27/21 Q1015=
16-Aug-2023 SAID35 WART 160100 METAR WART 160100Z 16011KT 9999 FEW020 29/23 Q1015=
16-Aug-2023 SAID35 WART 160200 METAR WART 160200Z 15013KT 9999 FEW020 30/22 Q1015=
16-Aug-2023 SAID35 WART 160300 METAR WART 160300Z 16013KT 9999 FEW020 31/22 Q1014=
16-Aug-2023 SAID35 WART 160400 METAR WART 160400Z 16013KT 9999 FEW020 32/21 Q1013=
16-Aug-2023 SAID35 WART 160500 METAR WART 160500Z 11007KT 080V160 9999 FEW020 32/22 Q1013=
16-Aug-2023 SAID35 WART 160600 METAR WART 160600Z 11010KT 080V140 9999 FEW020 32/21 Q1012=
16-Aug-2023 SAID35 WART 160700 METAR WART 160700Z 08009KT 9999 FEW020 31/22 Q1011=
16-Aug-2023 SAID35 WART 160800 METAR WART 160800Z 11010KT 9999 FEW020 31/22 Q1010=
17-Aug-2023 SAID35 WART 170000 METAR WART 170000Z 20006KT 9999 FEW020 26/26 Q1013=
17-Aug-2023 SAID35 WART 170100 METAR WART 170100Z 14011KT 9999 FEW020 29/23 Q1013=
17-Aug-2023 SAID35 WART 170200 METAR WART 170200Z 13008KT 9999 FEW020 31/21 Q1014=
17-Aug-2023 SAID35 WART 170300 METAR WART 170300Z 13009KT 9999 FEW020 32/20 Q1013=
17-Aug-2023 SAID35 WART 170400 METAR WART 170400Z 15012KT 9999 FEW020 32/20 Q1013=
17-Aug-2023 SAID35 WART 170500 METAR WART 170500Z 16008KT 9999 FEW020 31/20 Q1012=
18-Aug-2023 SAID35 WART 180000 METAR WART 180000Z 18009KT 9999 FEW020 26/22 Q1013=
18-Aug-2023 SAID35 WART 180100 METAR WART 180100Z 19009KT 9999 FEW020 28/22 Q1013=
18-Aug-2023 SAID35 WART 180200 METAR WART 180200Z 15009KT 9999 FEW020 30/23 Q1013=
18-Aug-2023 SAID35 WART 180300 METAR WART 180300Z 15015KT 9999 FEW020 30/22 Q1012=
18-Aug-2023 SAID35 WART 180500 METAR WART 180500Z 16013KT 9999 FEW020 32/23 Q1010=
18-Aug-2023 SAID35 WART 180700 METAR WART 180700Z 11012KT 9999 FEW020 32/22 Q1009=
18-Aug-2023 SAID35 WART 180800 METAR WART 180800Z 10012KT 9999 FEW020 31/21 Q1009=
19-Aug-2023 SAID35 WART 190000 METAR WART 190000Z AUTO 20003KT 9999 FEW020 26/26 Q1013=
19-Aug-2023 SPID35 WART 190013 SPECI WART 190013Z AUTO 14010KT //// ////// 27/26 Q1013=
21-Aug-2023 SAID35 WART 210000 METAR WART 210000Z 16008KT 9000 SCT019 26/26 Q1012 NOSIG=
21-Aug-2023 SAID35 WART 210100 METAR WART 210100Z 15012KT 9000 SCT019 26/26 Q1013 NOSIG=
21-Aug-2023 SAID35 WART 210200 METAR WART 210200Z 15015KT 9000 BKN019 26/26 Q1013 NOSIG=
21-Aug-2023 SAID35 WART 210300 METAR WART 210300Z 14011KT 9000 SCT020 29/27 Q1012 NOSIG=
21-Aug-2023 SAID35 WART 210400 METAR WART 210400Z 13012KT 9999 SCT020 30/24 Q1011 NOSIG=
21-Aug-2023 SAID35 WART 210500 METAR WART 210500Z 10008KT 9999 FEW020 31/24 Q1011 NOSIG=
21-Aug-2023 SAID35 WART 210600 METAR WART 210600Z 12011KT 090V150 9999 FEW020 32/25 Q1010 NOSIG=
22-Aug-2023 SAID35 WART 220000 METAR WART 220000Z 150/10 KT 9999 FEW020 27/22 Q1012=
22-Aug-2023 SAID35 WART 220700 METAR WART 220700Z 11011KT 9999 FEW020 31/22 Q1010 NOSIG=
22-Aug-2023 SAID35 WART 220800 METAR WART 220800Z 10012KT 9999 FEW020 30/23 Q1010 NOSIG=
23-Aug-2023 SAID35 WART 230000 METAR WART 230000Z 16006KT 9999 FEW020 27/25 Q1013=
23-Aug-2023 SAID35 WART 230100 METAR WART 230100Z 14007KT //// FEW020 29/24 Q1013=
23-Aug-2023 SAID35 WART 230200 METAR WART 230200Z 15008KT 9999 FEW020 30/23 Q1013=
23-Aug-2023 SAID35 WART 230300 METAR WART 230300Z 16008KT 9999 FEW020 30/23 Q1013=
23-Aug-2023 SAID35 WART 230400 METAR WART 230400Z 14007KT 9999 FEW020 32/23 Q1012=
23-Aug-2023 SAID35 WART 230500 METAR WART 230500Z 09005KT 9999 FEW020 31/23 Q1011=
24-Aug-2023 SAID35 WART 240000 METAR WART 240000Z 12008KT 9999 FEW020 28/25 Q1013=
24-Aug-2023 SAID35 WART 240100 METAR WART 240100Z 11009KT 9999 FEW020 30/25 Q1013=
24-Aug-2023 SAID35 WART 240200 METAR WART 240200Z 11010KT 9999 FEW020 31/24 Q1013=
24-Aug-2023 SAID35 WART 240300 METAR WART 240300Z 15012KT 9999 FEW020 31/24 Q1013=
24-Aug-2023 SAID35 WART 240400 METAR WART 240400Z 16015KT 9999 FEW020 30/23 Q1012=
24-Aug-2023 SAID35 WART 240500 METAR WART 240500Z 14010KT 9999 FEW020 32/24 Q1011=
24-Aug-2023 SAID35 WART 240600 METAR WART 240600Z 11010KT 080V140 9999 FEW020 32/23 Q1010=
24-Aug-2023 SAID35 WART 240700 METAR WART 240700Z 11005KT 9999 FEW020 32/22 Q1009=
24-Aug-2023 SAID35 WART 240800 METAR WART 240800Z 12006KT 9999 FEW020 32/22 Q1009=
25-Aug-2023 SAID35 WART 250000 METAR WART 250000Z 15006KT 9999 FEW020 27/25 Q1012 NOSIG=
25-Aug-2023 SAID35 WART 250100 METAR WART 250100Z 14006KT 9999 FEW020 30/25 Q1009=
25-Aug-2023 SAID35 WART 250200 METAR WART 250200Z 16013KT 9999 SCT020 30/25 Q1012=
25-Aug-2023 SAID35 WART 250300 METAR WART 250300Z 16012KT 9999 SCT020 31/25 Q1012=
25-Aug-2023 SAID35 WART 250400 METAR WART 250400Z 10010KT 9999 FEW020 32/23 Q1011=
25-Aug-2023 SAID35 WART 250700 METAR WART 250700Z 12010KT 9999 SCT020 31/24 Q1009 NOSIG=
25-Aug-2023 SAID35 WART 250800 METAR WART 250800Z 11010KT 9999 SCT020 32/24 Q1009 NOSIG=
26-Aug-2023 SAID35 WART 260000 METAR WART 260000Z AUTO 06001KT 9999 FEW020 27/27 Q1012=
28-Aug-2023 SAID35 WART 280000 METAR WART 280000Z 14005KT 9999 FEW020 28/25 Q1012 NOSIG=
28-Aug-2023 SAID35 WART 280100 METAR WART 280100Z 12008KT 9999 FEW020 30/24 Q1012 NOSIG=
28-Aug-2023 SAID35 WART 280200 METAR WART 280200Z 15007KT 9999 FEW020 30/23 Q1012 NOSIG=
28-Aug-2023 SAID35 WART 280300 METAR WART 280300Z 15006KT 9999 FEW020 31/24 Q1011 NOSIG=
28-Aug-2023 SAID35 WART 280400 METAR WART 280400Z 10011KT 9999 FEW020 31/23 Q1011 NOSIG=
28-Aug-2023 SAID35 WART 280500 METAR WART 280500Z 11011KT 9999 FEW020 32/23 Q1010 NOSIG=
28-Aug-2023 SAID35 WART 280600 METAR WART 280600Z 10014KT 9999 FEW020 31/24 Q1009 NOSIG=
28-Aug-2023 SAID35 WART 280700 METAR WART 280700Z 10010KT 9999 FEW020 31/24 Q1008 NOSIG=
29-Aug-2023 SAID35 WART 290100 METAR WART 290100Z 180/08KT 9999 FEW020 28/23 Q1013=
29-Aug-2023 SAID35 WART 290700 METAR WART 290700Z 10011KT 9999 FEW020 31/22 Q1008 NOSIG=
29-Aug-2023 SAID35 WART 290800 METAR WART 290800Z 10010KT 9999 FEW020 31/23 Q1008 NOSIG=
30-Aug-2023 SAID35 WART 300000 METAR WART 300000Z 15011KT 9999 SCT020 27/26 Q1012=
30-Aug-2023 SAID35 WART 300100 METAR WART 300100Z 13013KT 9999 FEW020 28/25 Q1013=
30-Aug-2023 SAID35 WART 300200 METAR WART 300200Z 16014KT 9999 FEW020 29/25 Q1013=
30-Aug-2023 SAID35 WART 300300 METAR WART 300300Z 14011KT 9999 FEW020 30/24 Q1012=
30-Aug-2023 SAID35 WART 300400 METAR WART 300400Z 12014KT 9999 FEW020 32/24 Q1012=
30-Aug-2023 SAID35 WART 300500 METAR WART 300500Z 12010KT 9999 FEW020 32/24 Q1011=
30-Aug-2023 SAID35 WART 300600 METAR WART 300600Z 13011KT 100V160 //// ////// 32/23 Q1010=
31-Aug-2023 SAID35 WART 310000 METAR WART 310000Z 16008KT 9999 FEW020 27/25 Q1014=
31-Aug-2023 SAID35 WART 310100 METAR WART 310100Z 15009KT 9999 FEW020 30/25 Q1013 NOSIG=
31-Aug-2023 SAID35 WART 310200 METAR WART 310200Z 16012KT 9999 FEW020 29/24 Q1014 NOSIG=
31-Aug-2023 SAID35 WART 310300 METAR WART 310300Z 17013KT 9999 SCT019 30/24 Q1013=
31-Aug-2023 SAID35 WART 310400 METAR WART 310400Z 17013KT 9999 SCT019 30/24 Q1013=
31-Aug-2023 SAID35 WART 310500 METAR WART 310500Z 15014KT 9999 SCT020 31/24 Q1012=
31-Aug-2023 SAID35 WART 310600 METAR WART 310600Z 15017KT 9999 SCT019 29/24 Q1011=
31-Aug-2023 SAID35 WART 310700 METAR WART 310700Z 14010KT 9999 SCT020 30/23 Q1010=
31-Aug-2023 SAID35 WART 310800 METAR WART 310800Z 12011KT 9999 SCT020 31/24 Q1009=
01-Sep-2023 SAID35 WART 010000 METAR WART 010000Z 13007KT 9999 FEW020 28/25 Q1013=
01-Sep-2023 SAID35 WART 010100 METAR WART 010100Z 14010KT 9999 FEW020 29/23 Q1013=
01-Sep-2023 SAID35 WART 010200 METAR WART 010200Z 16014KT 9999 FEW020 30/22 Q1013=
01-Sep-2023 SAID35 WART 010300 METAR WART 010300Z 16013KT 9999 FEW012 31/21 Q1013=
01-Sep-2023 SAID35 WART 010400 METAR WART 010400Z 17016KT 9999 FEW020 31/22 Q1012=
01-Sep-2023 SAID35 WART 010500 METAR WART 010500Z 16014KT 9999 FEW020 31/23 Q1011=
02-Sep-2023 SAID35 WART 020000 METAR WART 020000Z AUTO 16007KT 9999 FEW020 27/22 Q1012=
04-Sep-2023 SAID35 WART 040000 METAR WART 040000Z 16011KT 9999 FEW020 27/20 Q1011 NOSIG=
04-Sep-2023 SAID35 WART 040100 METAR WART 040100Z 15011KT 9999 FEW020 29/21 Q1012 NOSIG=
04-Sep-2023 SAID35 WART 040200 METAR WART 040200Z 16012KT 9999 FEW020 30/20 Q1012 NOSIG=
04-Sep-2023 SAID35 WART 040300 METAR WART 040300Z 16012KT 9999 FEW020 30/20 Q1011 NOSIG=
04-Sep-2023 SAID35 WART 040400 METAR WART 040400Z 17013KT 9999 FEW020 30/20 Q1010 NOSIG=
04-Sep-2023 SAID35 WART 040500 METAR WART 040500Z 16012KT 9999 FEW020 31/21 Q1009 NOSIG=
04-Sep-2023 SPID35 WART 040535 SPECI WART 040535Z 10009KT 9999 FEW020 32/19 Q1009 NOSIG=
04-Sep-2023 SAID35 WART 040600 METAR WART 040600Z 10010KT 9999 FEW020 31/19 Q1009 NOSIG=
06-Sep-2023 SAID35 WART 060100 METAR WART 060100Z AUTO 10007KT 9999 FEW020 29/23 Q1012=
06-Sep-2023 SAID35 WART 060200 METAR WART 060200Z AUTO 11010KT 9999 FEW020 31/23 Q1013=
06-Sep-2023 SAID35 WART 060300 METAR WART 060300Z AUTO 10012KT 9999 FEW020 31/21 Q1012=
06-Sep-2023 SAID35 WART 060400 METAR WART 060400Z AUTO 10013KT 9999 FEW020 32/23 Q1012=
06-Sep-2023 SAID35 WART 060500 METAR WART 060500Z AUTO 10014KT 9999 FEW020 32/23 Q1011=
06-Sep-2023 SAID35 WART 060600 METAR WART 060600Z AUTO 11013KT 9999 FEW020 32/21 Q1010=
07-Sep-2023 SAID35 WART 070000 METAR WART 070000Z AUTO 14007KT 9999 SCT020 28/27 Q1013=
07-Sep-2023 SAID35 WART 070100 METAR WART 070100Z 17010KT 9999 FEW020 29/26 Q1013=
07-Sep-2023 SAID35 WART 070200 METAR WART 070200Z 16013KT 9999 FEW020 30/24 Q1013=
07-Sep-2023 SAID35 WART 070300 METAR WART 070300Z 15011KT 9999 FEW020 31/23 Q1013=
07-Sep-2023 SAID35 WART 070400 METAR WART 070400Z 13009KT 100V180 9999 FEW020 33/23 Q1012=
07-Sep-2023 SAID35 WART 070500 METAR WART 070500Z VRB10KT 9999 FEW020 32/24 Q1011=
07-Sep-2023 SAID35 WART 070600 METAR WART 070600Z 10010KT 9999 FEW020 33/22 Q1011=
07-Sep-2023 SAID35 WART 070700 METAR WART 070700Z 12011KT 9999 FEW020 32/22 Q1010=
07-Sep-2023 SAID35 WART 070800 METAR WART 070800Z 09012KT 9999 FEW020 31/22 Q1010=
08-Sep-2023 SAID35 WART 080000 METAR WART 080000Z 12006KT 9999 FEW020 27/26 Q1013 NOSIG=
08-Sep-2023 SAID35 WART 080100 METAR WART 080100Z 11009KT 9999 FEW020 30/23 Q1014 NOSIG=
08-Sep-2023 SAID35 WART 080200 METAR WART 080200Z 16012KT 9999 FEW020 31/23 Q1014 NOSIG=
08-Sep-2023 SAID35 WART 080300 METAR WART 080300Z 16014KT 9999 FEW020 31/21 Q1013 NOSIG=
08-Sep-2023 SAID35 WART 080400 METAR WART 080400Z 16013KT 9999 FEW020 31/22 Q1012 NOSIG=
08-Sep-2023 SAID35 WART 080700 METAR WART 080700Z 12009KT 070V180 9999 SCT020 31/23 Q1010=
10-Sep-2023 SAID35 WART 100000 METAR WART 100000Z 16009KT 9999 FEW020 28/23 Q1013 NOSIG=
10-Sep-2023 SAID35 WART 100100 METAR WART 100100Z 17010KT 9999 FEW020 30/21 Q1013 NOSIG=
10-Sep-2023 SAID35 WART 100200 METAR WART 100200Z 16011KT CAVOK 31/21 Q1014 NOSIG=
10-Sep-2023 SAID35 WART 100300 METAR WART 100300Z 17011KT CAVOK 32/21 Q1013 NOSIG=
10-Sep-2023 SAID35 WART 100400 METAR WART 100400Z 16010KT CAVOK 32/22 Q1012 NOSIG=
10-Sep-2023 SAID35 WART 100500 METAR WART 100500Z 16013KT CAVOK 32/21 Q1011 NOSIG=
11-Sep-2023 SAID35 WART 110000 METAR WART 110000Z 14009KT 9999 FEW020 29/26 Q1012=
11-Sep-2023 SAID35 WART 110100 METAR WART 110100Z 15012KT 9999 FEW020 30/23 Q1013=
11-Sep-2023 SAID35 WART 110200 METAR WART 110200Z 16015KT 9999 FEW020 31/23 Q1013=
11-Sep-2023 SPID35 WART 110247 SPECI WART 110247Z 12013KT 9999 FEW020 32/22 Q1012=
11-Sep-2023 SAID35 WART 110300 METAR WART 110300Z 12013KT 9999 FEW020 32/22 Q1012=
11-Sep-2023 SAID35 WART 110400 METAR WART 110400Z 11011KT 9999 FEW020 32/23 Q1011=
11-Sep-2023 SAID35 WART 110500 METAR WART 110500Z 10012KT 9999 FEW020 32/23 Q1011=
11-Sep-2023 SAID35 WART 110700 METAR WART 110700Z 10009KT 9999 FEW020 33/23 Q1010 NOSIG=
11-Sep-2023 SAID35 WART 110800 METAR WART 110800Z 10008KT 9999 FEW020 32/23 Q1009 NOSIG=
12-Sep-2023 SAID35 WART 120000 METAR WART 120000Z 18009KT 9999 FEW020 28/24 Q1013 NOSIG=
12-Sep-2023 SAID35 WART 120100 METAR WART 120100Z 18007KT 9999 FEW020 29/24 Q1014 NOSIG=
12-Sep-2023 SAID35 WART 120200 METAR WART 120200Z 15014KT 9999 FEW020 31/24 Q1014=
12-Sep-2023 SAID35 WART 120300 METAR WART 120300Z 16015KT 9999 FEW020 31/24 Q1013 NOSIG=
12-Sep-2023 SAID35 WART 120400 METAR WART 120400Z 13011KT 9999 FEW020 31/25 Q1013 NOSIG=
13-Sep-2023 SAID35 WART 130000 METAR WART 130000Z 16009KT 9999 FEW020 28/27 Q1013=
13-Sep-2023 SAID35 WART 130100 METAR WART 130100Z 15013KT 9999 FEW020 30/26 Q1014=
13-Sep-2023 SAID35 WART 130200 METAR WART 130200Z 16013KT 9999 FEW020 31/25 Q1014=
13-Sep-2023 SAID35 WART 130300 METAR WART 130300Z 16015KT 9999 FEW020 31/24 Q1013=
13-Sep-2023 SAID35 WART 130400 METAR WART 130400Z 17010KT 9999 FEW020 31/25 Q1013=
13-Sep-2023 SAID35 WART 130500 METAR WART 130500Z 12012KT 9999 FEW020 32/24 Q1012=
13-Sep-2023 SAID35 WART 130700 METAR WART 130700Z 11010KT 9999 FEW020 32/24 Q1010=
13-Sep-2023 SAID35 WART 130800 METAR WART 130800Z 10010KT 9999 FEW020 31/24 Q1009=
14-Sep-2023 SAID35 WART 140000 METAR WART 140000Z 13009KT 9999 FEW020 27/23 Q1013 NOSIG=
14-Sep-2023 SAID35 WART 140200 METAR WART 140200Z 15015KT 9999 SCT020 30/28 Q1014 NOSIG=
14-Sep-2023 SAID35 WART 140300 METAR WART 140300Z AUTO 16014KT //// ////// 31/25 Q1014=
14-Sep-2023 SAID35 WART 140500 METAR WART 140500Z 14012KT 9999 SCT020 31/25 Q1013 NOSIG=
14-Sep-2023 SAID35 WART 140600 METAR WART 140600Z 13010KT 9999 SCT020 31/24 Q1012 NOSIG=
14-Sep-2023 SAID35 WART 140700 METAR WART 140700Z 15014KT 9999 SCT020 32/24 Q1011=
14-Sep-2023 SAID35 WART 140800 METAR WART 140800Z 15010KT 9999 FEW020 31/23 Q1011=
14-Sep-2023 SAID35 WART 141300 METAR WART 141300Z 14010KT 8000 FEW020 28/23 Q1012=
14-Sep-2023 SAID35 WART 141400 METAR WART 141400Z 12010KT 8000 FEW020 27/23 Q1013=
15-Sep-2023 SAID35 WART 150000 METAR WART 150000Z 14010KT 9999 FEW020 28/22 Q1013=
15-Sep-2023 SAID35 WART 150700 METAR WART 150700Z 14012KT 9999 FEW020 32/24 Q1010=
15-Sep-2023 SAID35 WART 150800 METAR WART 150800Z 12012KT 9999 FEW020 32/23 Q1010=
16-Sep-2023 SAID35 WART 160200 METAR WART 160200Z 16011KT //// ////// 31/23 Q1013=
19-Sep-2023 SAID35 WART 190000 METAR WART 190000Z 07001KT 9999 FEW020 28/27 Q1012=
19-Sep-2023 SAID35 WART 190100 METAR WART 190100Z 12008KT 090V150 9999 FEW020 30/23 Q1012=
19-Sep-2023 SAID35 WART 190200 METAR WART 190200Z 10007KT 9999 FEW020 31/23 Q1012=
19-Sep-2023 SAID35 WART 190300 METAR WART 190300Z 10009KT 9999 FEW020 31/21 Q1012=
19-Sep-2023 SAID35 WART 190330 METAR WART 190330Z 16017KT 9999 FEW020 32/22 Q1011 NOSIG=
19-Sep-2023 SAID35 WART 190400 METAR WART 190400Z 16013KT 9999 FEW020 32/22 Q1011=
19-Sep-2023 SAID35 WART 190500 METAR WART 190500Z 16012KT 9999 FEW020 32/23 Q1010=
19-Sep-2023 SPID35 WART 190511 SPECI WART 190511Z 10009KT 070V130 9999 FEW020 32/22 Q1010=
19-Sep-2023 SAID35 WART 190600 METAR WART 190600Z AUTO 11009KT 070V140 9999 FEW020 33/20 Q1010=
19-Sep-2023 SAID35 WART 190700 METAR WART 190700Z AUTO 14011KT 110V180 //// ////// 33/22 Q1009=
20-Sep-2023 SAID35 WART 200000 METAR WART 200000Z 15004KT 9999 FEW020 27/22 Q1012=
20-Sep-2023 SAID35 WART 200100 METAR WART 200100Z 17012KT 9999 FEW020 30/23 Q1013=
20-Sep-2023 SAID35 WART 200200 METAR WART 200200Z 17010KT 9999 FEW020 31/23 Q1013=
20-Sep-2023 SAID35 WART 200300 METAR WART 200300Z 16013KT 9999 FEW020 31/23 Q1012=
20-Sep-2023 SAID35 WART 200400 METAR WART 200400Z 10007KT 9999 FEW020 32/23 Q1011=
20-Sep-2023 SAID35 WART 200500 METAR WART 200500Z 12007KT 9999 FEW020 33/24 Q1010=
20-Sep-2023 SAID35 WART 200600 METAR WART 200600Z 13010KT 9999 FEW020 33/24 Q1010=
21-Sep-2023 SAID35 WART 210000 METAR WART 210000Z 13007KT 9999 FEW020 27/23 Q1014 NOSIG=
21-Sep-2023 SAID35 WART 210100 METAR WART 210100Z 14013KT 9999 FEW020 30/24 Q1013 NOSIG=
21-Sep-2023 SAID35 WART 210200 METAR WART 210200Z 16014KT 9999 FEW020 30/24 Q1013 NOSIG=
21-Sep-2023 SAID35 WART 210300 METAR WART 210300Z 16014KT 9999 FEW020 31/23 Q1012 NOSIG=
21-Sep-2023 SAID35 WART 210400 METAR WART 210400Z 16013KT 9999 FEW020 32/23 Q1011 NOSIG=
21-Sep-2023 SAID35 WART 210415 METAR WART 210415Z 10009KT 060V140 9999 FEW020 32/23 Q1011 NOSIG=
21-Sep-2023 SAID35 WART 210500 METAR WART 210500Z 10009KT 060V140 9999 FEW020 32/23 Q1011 NOSIG=
21-Sep-2023 SAID35 WART 210600 METAR WART 210600Z 10010KT 070V130 9999 FEW020 31/23 Q1009 NOSIG=
21-Sep-2023 SAID35 WART 210700 METAR WART 210700Z 12008KT 9999 FEW020 32/23 Q1009=
21-Sep-2023 SAID35 WART 210800 METAR WART 210800Z 11006KT 9999 FEW020 32/23 Q1009=
22-Sep-2023 SAID35 WART 220000 METAR WART 220000Z 18008KT 9999 FEW020 26/22 Q1013=
22-Sep-2023 SAID35 WART 220100 METAR WART 220100Z 16010KT 9999 FEW020 29/21 Q1013=
22-Sep-2023 SAID35 WART 220200 METAR WART 220200Z 16013KT 9999 FEW020 30/20 Q1013=
22-Sep-2023 SAID35 WART 220300 METAR WART 220300Z AUTO 16013KT 9999 FEW020 31/19 Q1012=
22-Sep-2023 SAID35 WART 220400 METAR WART 220400Z AUTO 16013KT 9999 FEW020 31/20 Q1011=
22-Sep-2023 SAID35 WART 220600 METAR WART 220600Z AUTO 16012KT 9999 FEW020 33/21 Q1009=
25-Sep-2023 SAID35 WART 250000 METAR WART 250000Z 280/02KT 9999 FEW020 27/23 Q1013=
25-Sep-2023 SAID35 WART 250600 METAR WART 250600Z AUTO 14009KT 090V170 //// ////// 34/23 Q1010=
25-Sep-2023 SAID35 WART 250700 METAR WART 250700Z 100/10KT 9999 FEW020 34/24 Q1009 NOSIG=
25-Sep-2023 SAID35 WART 250800 METAR WART 250800Z 110/08KT 9999 FEW020 34/23 Q1008 NOSIG=
26-Sep-2023 SAID35 WART 260000 METAR WART 260000Z 14005KT 9999 FEW020 30/22 Q1012=
26-Sep-2023 SAID35 WART 260100 METAR WART 260100Z 11007KT 080V140 9999 FEW020 31/21 Q1012
26-Sep-2023 SAID35 WART 260200 METAR WART 260200Z 10010KT 9999 FEW020 31/22 Q1012=
26-Sep-2023 SAID35 WART 260300 METAR WART 260300Z 10009KT 9999 FEW020 33/22 Q1012=
26-Sep-2023 SAID35 WART 260400 METAR WART 260400Z 10010KT 9999 FEW020 33/22 Q1010=
26-Sep-2023 SAID35 WART 260500 METAR WART 260500Z 10010KT 9999 FEW020 32/22 Q1009=
26-Sep-2023 SAID35 WART 260600 METAR WART 260600Z 10010KT 9999 FEW020 33/21 Q1009=
27-Sep-2023 SAID35 WART 270000 METAR WART 270000Z 14007KT 9999 FEW020 28/23 Q1013=
27-Sep-2023 SAID35 WART 270100 METAR WART 270100Z AUTO 15012KT 9999 FEW020 31/24 Q1013=
27-Sep-2023 SAID35 WART 270200 METAR WART 270200Z 15017KT 9999 FEW020 32/23 Q1013=
27-Sep-2023 SAID35 WART 270300 METAR WART 270300Z 14015KT 9999 FEW020 32/23 Q1013=
27-Sep-2023 SAID35 WART 270400 METAR WART 270400Z AUTO 12013KT 9999 FEW020 32/23 Q1012=
27-Sep-2023 SAID35 WART 270500 METAR WART 270500Z AUTO 12012KT 9999 FEW020 32/23 Q1011=
27-Sep-2023 SAID35 WART 270600 METAR WART 270600Z 11010KT 9999 FEW020 33/23 Q1010=
27-Sep-2023 SAID35 WART 270700 METAR WART 270700Z 09011KT 9999 FEW020 31/24 Q1009=
27-Sep-2023 SAID35 WART 270800 METAR WART 270800Z 11010KT 9999 FEW020 31/23 Q1009=
28-Sep-2023 SAID35 WART 280000 METAR WART 280000Z 15008KT 9999 FEW020 28/24 Q1013 NOSIG=
28-Sep-2023 SAID35 WART 280100 METAR WART 280100Z 13011KT 9999 FEW020 31/23 Q1013=
28-Sep-2023 SAID35 WART 280200 METAR WART 280200Z 16012KT 9999 FEW020 31/23 Q1013=
28-Sep-2023 SAID35 WART 280300 METAR WART 280300Z 13011KT 9999 FEW020 33/24 Q1013=
28-Sep-2023 SAID35 WART 280400 METAR WART 280400Z 11011KT 9999 FEW020 33/24 Q1012=
28-Sep-2023 SAID35 WART 280500 METAR WART 280500Z 09010KT 9999 FEW020 32/24 Q1011=
28-Sep-2023 SAID35 WART 280600 METAR WART 280600Z 10011KT 070V130 9999 FEW020 32/24 Q1010=
