01-Jul-2021 SAID33 WATB 010600 METAR WATB 010600Z 12004KT 9999 FEW020 29/18 Q1014 NOSIG=  
01-Jul-2021 SAID33 WATB 010700 METAR WATB 010700Z AUTO ///// //// ////// ///// Q////=  
02-Jul-2021 SAID33 WATB 020000 METAR WATB 020000Z 17003KT 9999 FEW020 25/19 Q1014 NOSIG=  
02-Jul-2021 SAID33 WATB 020100 METAR WATB 020100Z 15002KT 9999 BKN018 26/20 Q1016 NOSIG=  
02-Jul-2021 SAID33 WATB 020200 METAR WATB 020200Z 17004KT 9999 SCT018 28/20 Q1015 NOSIG=  
02-Jul-2021 SAID33 WATB 020300 METAR WATB 020300Z 16006KT 9999 SCT018 29/19 Q1015 NOSIG=  
02-Jul-2021 SAID33 WATB 020400 METAR WATB 020400Z 11006KT 9999 SCT018 30/19 Q1014 NOSIG=  
02-Jul-2021 SAID33 WATB 020500 METAR WATB 020500Z 16006KT 9999 SCT018 30/18 Q1013 NOSIG=  
02-Jul-2021 SAID33 WATB 020600 METAR WATB 020600Z 17005KT 9999 SCT018 30/17 Q1012 NOSIG=  
03-Jul-2021 SAID33 WATB 030000 METAR WATB 030000Z 11002KT 9999 SCT018 26/20 Q1016 NOSIG=  
03-Jul-2021 SPID33 WATB 030100 SPECI WATB 030100Z 11003KT 9999 FEW018 28/21 Q1016 NOSIG=  
03-Jul-2021 SAID33 WATB 030100 METAR WATB 030100Z 11003KT 9999 FEW018 28/21 Q1016 NOSIG=  
03-Jul-2021 SAID33 WATB 030200 METAR WATB 030200Z 14006KT 9999 SCT017 29/19 Q1016 NOSIG=  
03-Jul-2021 SAID33 WATB 030300 METAR WATB 030300Z 16006KT 9999 SCT017 29/18 Q1015 NOSIG=  
03-Jul-2021 SAID33 WATB 030400 METAR WATB 030400Z 15005KT 9999 SCT017 30/18 Q1014 NOSIG=  
03-Jul-2021 SAID33 WATB 030500 METAR WATB 030500Z 20005KT 9999 SCT018 29/19 Q1014 NOSIG=  
03-Jul-2021 SAID33 WATB 030600 METAR WATB 030600Z 18005KT 9999 SCT018 29/18 Q1013 NOSIG=  
04-Jul-2021 SAID33 WATB 040200 METAR WATB 040200Z 10005KT 9999 SCT017 28/19 Q1016 NOSIG=  
04-Jul-2021 SAID33 WATB 040300 METAR WATB 040300Z 10010KT 9999 SCT017 28/19 Q1015 NOSIG=  
04-Jul-2021 SAID33 WATB 040400 METAR WATB 040400Z 12010KT 9999 SCT017 29/19 Q1015 NOSIG=  
04-Jul-2021 SAID33 WATB 040500 METAR WATB 040500Z 13008KT 9999 SCT017 27/18 Q1014 NOSIG=  
04-Jul-2021 SAID33 WATB 040600 METAR WATB 040600Z 10010KT 9999 SCT017 27/18 Q1013 NOSIG=  
05-Jul-2021 SAID33 WATB 050000 METAR WATB 050000Z 32003KT 9999 FEW020 20/17 Q1015 NOSIG=  
05-Jul-2021 SAID33 WATB 050100 METAR WATB 050100Z 10002KT 9999 FEW020 26/18 Q1015 NOSIG=  
05-Jul-2021 SAID33 WATB 050300 METAR WATB 050300Z 16006KT 9999 SCT017 29/18 Q1014 NOSIG=  
07-Jul-2021 SAID33 WATB 070100 METAR WATB 070100Z 16002KT 9999 BKN018 25/21 Q1016 NOSIG=  
07-Jul-2021 SAID33 WATB 070400 METAR WATB 070400Z 17002KT 9999 SCT018 30/19 Q1013 NOSIG=  
07-Jul-2021 SAID33 WATB 070500 METAR WATB 070500Z 14005KT 9999 BKN018 29/20 Q1012 NOSIG=  
07-Jul-2021 SAID33 WATB 070600 METAR WATB 070600Z 12006KT 9999 BKN018 27/21 Q1012 NOSIG=  
08-Jul-2021 SAID33 WATB 080000 METAR WATB 080000Z 12002KT 9999 BKN018 23/21 Q1015 NOSIG=  
08-Jul-2021 SAID33 WATB 080100 METAR WATB 080100Z VRB02KT 9999 BKN018 26/21 Q1016 NOSIG=  
08-Jul-2021 SAID33 WATB 080200 METAR WATB 080200Z 17004KT 9999 SCT018 28/22 Q1015 NOSIG=  
08-Jul-2021 SAID33 WATB 080300 METAR WATB 080300Z 17004KT 9999 BKN017 28/21 Q1015 NOSIG=  
08-Jul-2021 SAID33 WATB 080400 METAR WATB 080400Z 17008KT 7000 BKN017 27/21 Q1014 NOSIG=  
08-Jul-2021 SAID33 WATB 080500 METAR WATB 080500Z 14005KT 7000 BKN017 25/21 Q1014 NOSIG=  
08-Jul-2021 SAID33 WATB 080600 METAR WATB 080600Z VRB02KT 7000 BKN017 25/21 Q1013 NOSIG=  
09-Jul-2021 SAID33 WATB 090000 METAR WATB 090000Z 18002KT 9999 SCT018 24/21 Q1015 NOSIG=  
09-Jul-2021 SAID33 WATB 090100 METAR WATB 090100Z 20003KT 9999 BKN018 26/22 Q1015 NOSIG=  
09-Jul-2021 SAID33 WATB 090200 METAR WATB 090200Z 15008KT 9999 BKN017 28/22 Q1015 NOSIG=  
09-Jul-2021 SAID33 WATB 090300 METAR WATB 090300Z 18005KT 9999 BKN017 26/20 Q1015 NOSIG=  
09-Jul-2021 SAID33 WATB 090400 METAR WATB 090400Z 05005KT 8000 BKN017 26/22 Q1014 NOSIG=  
09-Jul-2021 SAID33 WATB 090500 METAR WATB 090500Z 04003KT 7000 RA BKN017 26/22 Q1014=  
09-Jul-2021 SAID33 WATB 090600 METAR WATB 090600Z 30003KT 8000 BKN018 25/22 Q1012 RERA=  
10-Jul-2021 SAID33 WATB 100000 METAR WATB 100000Z 20002KT 9999 FEW020 23/20 Q1015 NOSIG=  
10-Jul-2021 SAID33 WATB 100100 METAR WATB 100100Z 11002KT 9999 FEW020 25/20 Q1015 NOSIG=  
10-Jul-2021 SAID33 WATB 100200 METAR WATB 100200Z 16004KT 9999 FEW020 28/20 Q1015 NOSIG=  
10-Jul-2021 SAID33 WATB 100300 METAR WATB 100300Z 09005KT 9999 FEW018 29/20 Q1014 NOSIG=  
10-Jul-2021 SAID33 WATB 100400 METAR WATB 100400Z 09004KT 9999 SCT018 29/20 Q1013 NOSIG=  
10-Jul-2021 SAID33 WATB 100500 METAR WATB 100500Z 06003KT 9999 FEW018 31/20 Q1013 NOSIG=  
10-Jul-2021 SAID33 WATB 100600 METAR WATB 100600Z 05004KT 9999 FEW020 30/18 Q1011 NOSIG=  
11-Jul-2021 SAID33 WATB 110000 METAR WATB 110000Z 05002KT 9999 FEW020 24/19 Q1016 NOSIG=  
11-Jul-2021 SAID33 WATB 110100 METAR WATB 110100Z 35003KT 9999 FEW020 27/19 Q1016 NOSIG=  
11-Jul-2021 SAID33 WATB 110200 METAR WATB 110200Z 04002KT 9999 FEW020 28/19 Q1016 NOSIG=  
11-Jul-2021 SAID33 WATB 110500 METAR WATB 110500Z 12007KT 9999 SCT018 31/18 Q1014 NOSIG=  
11-Jul-2021 SAID33 WATB 110600 METAR WATB 110600Z 11009KT 9999 FEW018 30/16 Q1013 NOSIG=  
12-Jul-2021 SAID33 WATB 120000 METAR WATB 120000Z 05002KT 9999 FEW020 23/18 Q1016 NOSIG=  
12-Jul-2021 SAID33 WATB 120100 METAR WATB 120100Z 09003KT 9999 FEW020 25/16 Q1016 NOSIG=  
12-Jul-2021 SAID33 WATB 120200 METAR WATB 120200Z 04002KT 9999 FEW020 28/16 Q1016 NOSIG=  
12-Jul-2021 SAID33 WATB 120300 METAR WATB 120300Z 15003KT 9999 FEW020 29/16 Q1015 NOSIG=  
12-Jul-2021 SAID33 WATB 120400 METAR WATB 120400Z 06005KT 9999 FEW020 30/15 Q1014 NOSIG=  
12-Jul-2021 SAID33 WATB 120500 METAR WATB 120500Z 12005KT 9999 FEW020 31/14 Q1014 NOSIG=  
12-Jul-2021 SAID33 WATB 120600 METAR WATB 120600Z 09005KT 9999 FEW020 31/15 Q1013 NOSIG=  
13-Jul-2021 SAID33 WATB 130000 METAR WATB 130000Z 10002KT 9999 FEW020 26/18 Q1014 NOSIG=  
13-Jul-2021 SAID33 WATB 130100 METAR WATB 130100Z 14004KT 9999 FEW220 27/18 Q1014 NOSIG=  
13-Jul-2021 SAID33 WATB 130200 METAR WATB 130200Z 18004KT 9999 FEW020 29/18 Q1014 NOSIG=  
14-Jul-2021 SAID33 WATB 140000 METAR WATB 140000Z 22002KT 9999 FEW020 26/19 Q1015 NOSIG=  
14-Jul-2021 SAID33 WATB 140100 METAR WATB 140100Z 16003KT 9999 FEW020 27/18 Q1015 NOSIG=  
14-Jul-2021 SAID33 WATB 140200 METAR WATB 140200Z 14007KT 9999 FEW020 28/18 Q1015 NOSIG=  
14-Jul-2021 SAID33 WATB 140300 METAR WATB 140300Z 17006KT 9999 FEW020 29/17 Q1014 NOSIG=  
14-Jul-2021 SAID33 WATB 140400 METAR WATB 140400Z 17006KT 9999 FEW020 29/16 Q1013 NOSIG=  
14-Jul-2021 SAID33 WATB 140500 METAR WATB 140500Z 15006KT 9999 FEW020 29/15 Q1012 NOSIG=  
14-Jul-2021 SAID33 WATB 140600 METAR WATB 140600Z 18005KT 9999 FEW020 29/16 Q1011 NOSIG=  
15-Jul-2021 SAID33 WATT 150000 METAR WATB 150000Z 22002KT 9999 FEW020 25/20 Q1015 NOSIG=  
15-Jul-2021 SAID33 WATT 150100 METAR WATB 150100Z 16004KT 9999 SCT018 27/21 Q1016 NOSIG=  
15-Jul-2021 SAID33 WATT 150200 METAR WATB 150200Z 16005KT 9999 SCT018 28/20 Q1016 NOSIG=  
16-Jul-2021 SAID33 WATT 160000 METAR WATB 160000Z 33005KT 9999 FEW020 24/18 Q1016 NOSIG=  
16-Jul-2021 SAID33 WATT 160100 METAR WATB 160100Z 11005KT 9999 SCT018 27/29 Q1017 NOSIG=  
16-Jul-2021 SAID33 WATT 160200 METAR WATB 160200Z 11005KT 9999 SCT018 27/18 Q1017 NOSIG=  
16-Jul-2021 SAID33 WATT 160300 METAR WATB 160300Z 12004KT 9999 SCT018 28/19 Q1016 NOSIG=  
16-Jul-2021 SAID33 WATT 160400 METAR WATB 160400Z 16006KT 9999 SCT018 29/18 Q1015 NOSIG=  
16-Jul-2021 SAID33 WATT 160500 METAR WATB 160500Z 10008KT 9999 FEW020 29/18 Q1015 NOSIG=  
16-Jul-2021 SAID33 WATT 160600 METAR WATB 160600Z 10006KT 9999 FEW020 30/17 Q1013 NOSIG=  
17-Jul-2021 SAID33 WATB 170000 METAR WATB 170000Z 10003KT 9999 FEW020 24/18 Q1017 NOSIG=  
17-Jul-2021 SAID33 WATB 170100 METAR WATB 170100Z 20003KT 9999 FEW020 26/18 Q1017 NOSIG=  
17-Jul-2021 SAID33 WATB 170400 METAR WATB 170400Z 26003KT 9999 FEW020 30/15 Q1015 NOSIG=  
17-Jul-2021 SAID33 WATB 170500 METAR WATB 170500Z 24002KT 9999 FEW020 30/15 Q1014 NOSIG=  
17-Jul-2021 SAID33 WATB 170600 METAR WATB 170600Z 11008KT 9999 SCT018 29/20 Q1013 NOSIG=  
18-Jul-2021 SAID33 WATT 180000 METAR WATB 180000Z 11002KT 9999 FEW018 26/19 Q1015 NOSIG=  
18-Jul-2021 SAID33 WATT 180100 METAR WATB 180100Z 11008KT 9999 FEW018 27/20 Q1015 NOSIG=  
18-Jul-2021 SAID33 WATT 180200 METAR WATB 180200Z 16006KT 9999 FEW018 29/19 Q1015 NOSIG=  
18-Jul-2021 SAID33 WATT 180300 METAR WATB 180300Z 15006KT 9999 FEW018 30/18 Q1014 NOSIG=  
18-Jul-2021 SAID33 WATB 180300 METAR WATB 180300Z 15006KT 9999 FEW018 30/18 Q1014 NOSIG=  
18-Jul-2021 SAID33 WATT 180400 METAR WATB 180400Z 16009KT 9999 FEW018 30/17 Q1013 NOSIG=  
18-Jul-2021 SAID33 WATT 180500 METAR WATB 180500Z 14005KT 9999 FEW018 30/17 Q1012 NOSIG=  
19-Jul-2021 SAID33 WATT 190000 METAR WATB 190000Z 08003KT 9999 FEW020 24/19 Q1016 NOSIG=  
19-Jul-2021 SAID33 WATT 190100 METAR WATB 190100Z 15002KT 9999 FEW020 26/18 Q1016 NOSIG=  
19-Jul-2021 SAID33 WATT 190200 METAR WATB 190200Z 16002KT 9999 FEW020 28/16 Q1016 NOSIG=  
19-Jul-2021 SAID33 WATB 190300 METAR WATB 190300Z 10008KT 9999 FEW020 29/18 Q1016 NOSIG=  
19-Jul-2021 SAID33 WATB 190400 METAR WATB 190400Z 08007KT 9999 FEW018 31/17 Q1014 NOSIG=  
19-Jul-2021 SAID33 WATB 190500 METAR WATB 190500Z 07006KT 9999 FEW018 32/16 Q1013 NOSIG=  
19-Jul-2021 SAID33 WATB 190600 METAR WATB 190600Z 12007KT 9999 FEW018 32/17 Q1012 NOSIG=  
20-Jul-2021 SAID33 WATB 200000 METAR WATB 200000Z 31003KT CAVOK 32/18 Q1012 NOSIG=  
20-Jul-2021 SAID33 WATB 200100 METAR WATB 200100Z 06004KT 9999 FEW020 26/18 Q1017 NOSIG=  
20-Jul-2021 SAID33 WATB 200200 METAR WATB 200200Z 27004KT 9999 FEW018 28/19 Q1017 NOSIG=  
20-Jul-2021 SAID33 WATB 200300 METAR WATB 200300Z 36006KT 9999 FEW018 30/17 Q1016 NOSIG=  
20-Jul-2021 SAID33 WATB 200400 METAR WATB 200400Z 01005KT 9999 SCT018 30/17 Q1015 NOSIG=  
20-Jul-2021 SAID33 WATB 200500 METAR WATB 200500Z 01006KT 9999 SCT018 31/17 Q1014 NOSIG=  
20-Jul-2021 SAID33 WATB 200600 METAR WATB 200600Z 01006KT 9999 SCT018 31/17 Q1013 NOSIG=  
21-Jul-2021 SAID33 WATB 210000 METAR WATB 210000Z 19002KT 9999 SCT018 23/19 Q1017 NOSIG=  
21-Jul-2021 SAID33 WATB 210100 METAR WATB 210100Z 12004KT 9999 SCT018 26/21 Q1018 NOSIG=  
21-Jul-2021 SAID33 WATB 210200 METAR WATB 210200Z 14003KT 9999 SCT018 29/21 Q1017 NOSIG=  
21-Jul-2021 SAID33 WATB 210300 METAR WATB 210300Z 14009KT 9999 SCT018 29/21 Q1017 NOSIG=  
21-Jul-2021 SAID33 WATB 210400 METAR WATB 210400Z 04009KT 9999 SCT018 29/20 Q1016 NOSIG=  
21-Jul-2021 SAID33 WATB 210500 METAR WATB 210500Z 14014KT 9999 SCT018 29/20 Q1015 NOSIG=  
21-Jul-2021 SAID33 WATB 210600 METAR WATB 210600Z 10012KT 9999 SCT018 29/18 Q1014 NOSIG=  
22-Jul-2021 SAID33 WATB 220000 METAR WATB 220000Z 16002KT 9999 FEW018 25/19 Q1017 NOSIG=  
22-Jul-2021 SAID33 WATB 220100 METAR WATB 220100Z 07004KT 9999 FEW020 26/19 Q1017 NOSIG=  
22-Jul-2021 SAID33 WATB 220200 METAR WATB 220200Z 21005KT 9999 SCT018 28/19 Q1017 NOSIG=  
22-Jul-2021 SAID33 WATB 220300 METAR WATB 220300Z 28005KT 9999 SCT018 28/19 Q1016 NOSIG=  
22-Jul-2021 SAID33 WATB 220400 METAR WATB 220400Z 09004KT 9999 SCT018 30/18 Q1016 NOSIG=  
22-Jul-2021 SAID33 WATB 220500 METAR WATB 220500Z 06004KT 9999 SCT018 30/18 Q1014 NOSIG=  
23-Jul-2021 SAID33 WATB 230000 METAR WATB 230000Z 20002KT 9999 FEW020 23/18 Q1016 NOSIG=  
23-Jul-2021 SAID33 WATB 230100 METAR WATB 230100Z 13004KT 9999 FEW018 25/18 Q1016 NOSIG=  
23-Jul-2021 SAID33 WATB 230200 METAR WATB 230200Z 06004KT 9999 FEW018 27/19 Q1016 NOSIG=  
23-Jul-2021 SAID33 WATB 230300 METAR WATB 230300Z 04009KT 9999 FEW018 29/18 Q1016 NOSIG=  
23-Jul-2021 SAID33 WATB 230500 METAR WATB 230500Z 15007KT 9999 FEW018 30/17 Q1014 NOSIG=  
23-Jul-2021 SAID33 WATB 230600 METAR WATB 230600Z 16005KT 9999 FEW018 31/18 Q1013 NOSIG=  
24-Jul-2021 SAID33 WATB 240000 METAR WATB 240000Z 05003KT 9999 FEW018 24/17 Q1017 NOSIG=  
24-Jul-2021 SAID33 WATB 240100 METAR WATB 240100Z 36004KT 9999 FEW018 25/17 Q1017 NOSIG=  
24-Jul-2021 SAID33 WATB 240200 METAR WATB 240200Z 08005KT 9999 FEW018 28/17 Q1016 NOSIG=  
24-Jul-2021 SAID33 WATB 240300 METAR WATB 240300Z 08005KT 9999 FEW018 31/14 Q1016 NOSIG=  
24-Jul-2021 SAID33 WATB 240400 METAR WATB 240400Z 19006KT 9999 FEW018 32/13 Q1015 NOSIG=  
24-Jul-2021 SAID33 WATB 240500 METAR WATB 240500Z 14006KT 9999 FEW018 33/14 Q1015 NOSIG=  
24-Jul-2021 SAID33 WATB 240600 METAR WATB 240600Z 04007KT 9999 FEW018 32/16 Q1014 NOSIG=  
25-Jul-2021 SAID33 WATB 250000 METAR WATB 250000Z 17002KT 9999 FEW020 23/15 Q1018 NOSIG=  
25-Jul-2021 SAID33 WATB 250100 METAR WATB 250100Z 02004KT 9999 FEW018 25/16 Q1018 NOSIG=  
25-Jul-2021 SAID33 WATB 250200 METAR WATB 250200Z 01005KT 9999 FEW018 27/18 Q1018 NOSIG=  
25-Jul-2021 SAID33 WATB 250300 METAR WATB 250300Z 25005KT 9999 FEW018 29/17 Q1017 NOSIG=  
26-Jul-2021 SAID33 WATB 260000 METAR WATB 260000Z 22002KT 9999 FEW020 23/14 Q1016 NOSIG=  
26-Jul-2021 SAID33 WATB 260300 METAR WATB 260300Z 10008KT CAVOK 30/13 Q1016 NOSIG=  
26-Jul-2021 SAID33 WATB 260400 METAR WATB 260400Z 10010KT CAVOK 31/13 Q1015 NOSIG=  
26-Jul-2021 SAID33 WATB 260500 METAR WATB 260500Z 04009KT CAVOK 32/11 Q1014 NOSIG=  
26-Jul-2021 SAID33 WATB 260600 METAR WATB 260600Z 04006KT CAVOK 32/10 Q1013 NOSIG=  
27-Jul-2021 SAID33 WATB 270000 METAR WATB 270000Z 14002KT 9999 FEW018 24/17 Q1016 NOSIG=  
27-Jul-2021 SAID33 WATB 270100 METAR WATB 270100Z 11004KT 9999 FEW018 26/17 Q1017 NOSIG=  
27-Jul-2021 SAID33 WATB 270200 METAR WATB 270200Z 21003KT 9999 FEW018 28/18 Q1016 NOSIG=  
27-Jul-2021 SAID33 WATB 270300 METAR WATB 270300Z 20006KT 9999 FEW018 29/18 Q1016 NOSIG=  
27-Jul-2021 SAID33 WATB 270400 METAR WATB 270400Z 03005KT 9999 FEW018 31/18 Q1015 NOSIG=  
27-Jul-2021 SAID33 WATB 270500 METAR WATB 270500Z 02007KT 9999 SCT018 31/17 Q1014 NOSIG=  
27-Jul-2021 SAID33 WATB 270600 METAR WATB 270600Z 15008KT 9999 SCT018 30/18 Q1013 NOSIG=  
28-Jul-2021 SAID33 WATB 280000 METAR WATB 280000Z 20002KT 9999 FEW020 23/19 Q1016 NOSIG=  
28-Jul-2021 SAID33 WATB 280100 METAR WATB 280100Z 06004KT 9999 FEW020 24/18 Q1017 NOSIG=  
28-Jul-2021 SAID33 WATB 280200 METAR WATB 280200Z 14003KT 9999 FEW018 27/18 Q1017 NOSIG=  
28-Jul-2021 SAID33 WATB 280300 METAR WATB 280300Z 06005KT 9999 FEW020 30/17 Q1015 NOSIG=  
28-Jul-2021 SAID33 WATB 280400 METAR WATB 280400Z 28006KT 9999 SCT020 30/17 Q1015 NOSIG=  
28-Jul-2021 SAID33 WATB 280500 METAR WATB 280500Z 06007KT 9999 SCT018 30/18 Q1014 NOSIG=  
29-Jul-2021 SAID33 WATB 290000 METAR WATB 290000Z 14003KT 9999 FEW020 26/20 Q1017 NOSIG=  
29-Jul-2021 SAID33 WATB 290100 METAR WATB 290100Z 13003KT 9999 FEW018 28/20 Q1017 NOSIG=  
29-Jul-2021 SAID33 WATB 290200 METAR WATB 290200Z 16006KT 9999 FEW018 29/19 Q1017 NOSIG=  
29-Jul-2021 SAID33 WATB 290300 METAR WATB 290300Z 16006KT 9999 FEW018 30/19 Q1017 NOSIG=  
29-Jul-2021 SAID33 WATB 290400 METAR WATB 290400Z 19007KT 9999 FEW018 31/19 Q1016 NOSIG=  
29-Jul-2021 SAID33 WATB 290500 METAR WATB 290500Z 18006KT 9999 FEW018 31/18 Q1015 NOSIG=  
29-Jul-2021 SAID33 WATB 290600 METAR WATB 290600Z 13006KT 9999 FEW018 31/17 Q1014 NOSIG=  
30-Jul-2021 SAID33 WATB 300000 METAR WATB 300000Z 13003KT 9999 FEW018 27/20 Q1017 NOSIG=  
30-Jul-2021 SAID33 WATB 300100 METAR WATB 300100Z 08006KT 9999 FEW018 28/20 Q1017 NOSIG=  
30-Jul-2021 SAID33 WATB 300200 METAR WATB 300200Z 18004KT 9999 SCT018 28/19 Q1017 NOSIG=  
30-Jul-2021 SAID33 WATB 300300 METAR WATB 300300Z 11008KT 9999 SCT018 28/19 Q1016 NOSIG=  
30-Jul-2021 SAID33 WATB 300400 METAR WATB 300400Z 11006KT 9999 SCT018 30/19 Q1015 NOSIG=  
30-Jul-2021 SAID33 WATB 300500 METAR WATB 300500Z 22006KT 9999 SCT018 29/19 Q1014 NOSIG=  
30-Jul-2021 SAID33 WATB 300600 METAR WATB 300600Z 18007KT 9999 SCT018 31/19 Q1014 NOSIG=  
31-Jul-2021 SAID33 WATB 310000 METAR WATB 310000Z 15006KT 9999 FEW018 26/21 Q1017 NOSIG=  
31-Jul-2021 SAID33 WATB 310100 METAR WATB 310100Z 18009KT 9999 SCT018 27/20 Q1017 NOSIG=  
31-Jul-2021 SAID33 WATB 310130 METAR WATB 310130Z 30005KT 9999 FEW015 27/20 Q1020 NOSIG=  
31-Jul-2021 SAID33 WATB 310200 METAR WATB 310200Z 13010KT 9999 BKN017 27/21 Q1017 NOSIG=  
31-Jul-2021 SAID33 WATB 310300 METAR WATB 310300Z 20005KT 9999 SCT018 30/20 Q1016 NOSIG=  
31-Jul-2021 SAID33 WATB 310400 METAR WATB 310400Z 17008KT 9999 BKN017 28/20 Q1016 NOSIG=  
31-Jul-2021 SAID33 WATB 310500 METAR WATB 310500Z 16007KT 9999 SCT018 29/21 Q1015 NOSIG=  
31-Jul-2021 SAID33 WATB 310600 METAR WATB 310600Z 16007KT 9999 SCT018 28/21 Q1014 NOSIG=  
01-Aug-2021 SAID33 WATB 010000 METAR WATB 010000Z 00000KT 8000 BKN016 21/21 Q1017 NOSIG=  
01-Aug-2021 SAID33 WATB 010100 METAR WATB 010100Z 24002KT 8000 BKN018 23/22 Q1017 NOSIG=  
01-Aug-2021 SAID33 WATB 010200 METAR WATB 010200Z 19002KT 9999 BKN018 25/22 Q1017 NOSIG=  
01-Aug-2021 SAID33 WATB 010300 METAR WATB 010300Z 09007KT 8000 -RA BKN017 24/22 Q1016=  
01-Aug-2021 SAID33 WATB 010500 METAR WATB 010500Z 15004KT 9999 SCT020 28/22 Q1014 NOSIG=  
01-Aug-2021 SAID33 WATB 010600 METAR WATB 010600Z 15006KT 9999 SCT018 26/21 Q1013 NOSIG=  
02-Aug-2021 SAID33 WATB 020000 METAR WATB 020000Z 15002KT 9999 BKN018 23/21 Q1016 NOSIG=  
02-Aug-2021 SAID33 WATB 020100 METAR WATB 020100Z 15004KT 9999 SCT018 25/22 Q1017 NOSIG=  
02-Aug-2021 SAID33 WATB 020200 METAR WATB 020200Z 17005KT 9999 SCT018 26/22 Q1016 NOSIG=  
02-Aug-2021 SAID33 WATB 020300 METAR WATB 020300Z 13007KT 9999 SCT018 29/22 Q1016 NOSIG=  
02-Aug-2021 SAID33 WATB 020400 METAR WATB 020400Z 19003KT 9999 FEW018 29/22 Q1015 NOSIG=  
02-Aug-2021 SAID33 WATB 020500 METAR WATB 020500Z 19007KT 9999 FEW018 29/21 Q1014 NOSIG=  
02-Aug-2021 SAID33 WATB 020600 METAR WATB 020600Z 18006KT 9999 FEW020 29/22 Q1013 NOSIG=  
03-Aug-2021 SAID33 WATB 030200 METAR WATB 030200Z 13006KT 9999 FEW020 29/21 Q1018 NOSIG=  
03-Aug-2021 SAID33 WATB 030300 METAR WATB 030300Z 16004KT 9999 FEW020 30/21 Q1017 NOSIG=  
03-Aug-2021 SAID33 WATB 030400 METAR WATB 030400Z 13010KT 100V240 9999 FEW020 30/20 Q1016 NOSIG=  
03-Aug-2021 SAID33 WATB 030500 METAR WATB 030500Z 18006KT 9999 FEW020 30/20 Q1015 NOSIG=  
03-Aug-2021 SAID33 WATB 030600 METAR WATB 030600Z 17007KT 9999 FEW020 31/20 Q1014 NOSIG=  
04-Aug-2021 SAID33 WATB 040000 METAR WATB 040000Z 04005KT 9999 FEW020 31/20 Q1014 NOSIG=  
04-Aug-2021 SAID33 WATB 040100 METAR WATB 040100Z 12004KT 9999 FEW020 27/20 Q1019 NOSIG=  
04-Aug-2021 SAID33 WATB 040200 METAR WATB 040200Z 07010KT 9999 FEW020 29/17 Q1018 NOSIG=  
04-Aug-2021 SAID33 WATB 040300 METAR WATB 040300Z 01004KT 9999 FEW020 29/18 Q1018 NOSIG=  
04-Aug-2021 SAID33 WATB 040400 METAR WATB 040400Z 10005KT 9999 FEW020 30/18 Q1017 NOSIG=  
05-Aug-2021 SAID33 WATB 050000 METAR WATB 050000Z 14002KT 9999 FEW020 25/22 Q1018 NOSIG=  
05-Aug-2021 SAID33 WATB 050100 METAR WATB 050100Z 10004KT 9999 FEW020 27/21 Q1018 NOSIG=  
05-Aug-2021 SAID33 WATB 050200 METAR WATB 050200Z 09005KT 9999 FEW020 27/20 Q1018 NOSIG=  
05-Aug-2021 SAID33 WATB 050300 METAR WATB 050300Z 01009KT 9999 FEW020 30/19 Q1017 NOSIG=  
05-Aug-2021 SAID33 WATB 050400 METAR WATB 050400Z 08004KT 9999 FEW020 29/19 Q1016 NOSIG=  
05-Aug-2021 SAID33 WATB 050500 METAR WATB 050500Z 10004KT 9999 FEW020 32/18 Q1016 NOSIG=  
05-Aug-2021 SAID33 WATB 050600 METAR WATB 050600Z VRB05KT 9999 FEW020 31/21 Q1015 NOSIG=  
06-Aug-2021 SAID33 WATB 060000 METAR WATB 060000Z 01005KT 9999 FEW020 26/20 Q1019 NOSIG=  
06-Aug-2021 SAID33 WATB 060100 METAR WATB 060100Z 09003KT 9999 FEW020 27/20 Q1019 NOSIG=  
06-Aug-2021 SAID33 WATB 060200 METAR WATB 060200Z 10003KT 9999 FEW020 28/19 Q1019 NOSIG=  
06-Aug-2021 SAID33 WATB 060300 METAR WATB 060300Z 08005KT 9999 FEW020 30/18 Q1018 NOSIG=  
06-Aug-2021 SAID33 WATB 060400 METAR WATB 060400Z 10005KT 9999 FEW020 29/19 Q1017 NOSIG=  
06-Aug-2021 SAID33 WATB 060500 METAR WATB 060500Z 13005KT 9999 FEW018 30/19 Q1016 NOSIG=  
06-Aug-2021 SAID33 WATB 060600 METAR WATB 060600Z 16005KT 9999 FEW018 30/20 Q1015 NOSIG=  
07-Aug-2021 SAID33 WATB 070000 METAR WATB 070000Z 16005KT 9999 FEW020 24/19 Q1018 NOSIG=  
07-Aug-2021 SAID33 WATB 070100 METAR WATB 070100Z 09002KT 9999 FEW020 27/20 Q1018 NOSIG=  
07-Aug-2021 SAID33 WATB 070200 METAR WATB 070200Z 10005KT 9999 FEW020 28/19 Q1018 NOSIG=  
07-Aug-2021 SAID33 WATB 070400 METAR WATB 070400Z 11006KT 9999 FEW020 32/19 Q1016 NOSIG=  
07-Aug-2021 SAID33 WATB 070500 METAR WATB 070500Z 09006KT 020V140 9999 FEW020 31/19 Q1015 NOSIG=  
07-Aug-2021 SAID33 WATB 070600 METAR WATB 070600Z 09007KT 9999 FEW020 31/19 Q1015 NOSIG=  
07-Aug-2021 SAID33 WATB 072300 METAR WATB 072300Z 09007KT 9999 FEW020 31/19 Q1015 NOSIG=  
08-Aug-2021 SAID33 WATB 080000 METAR WATB 080000Z 12003KT 9999 FEW020 22/18 Q1018 NOSIG=  
08-Aug-2021 SAID33 WATB 080100 METAR WATB 080100Z 09002KT 9999 FEW018 26/19 Q1019 NOSIG=  
08-Aug-2021 SAID33 WATB 080200 METAR WATB 080200Z 02002KT 9999 FEW020 28/19 Q1018 NOSIG=  
08-Aug-2021 SAID33 WATB 080300 METAR WATB 080300Z 17004KT 9999 FEW020 28/18 Q1018 NOSIG=  
08-Aug-2021 SAID33 WATB 080400 METAR WATB 080400Z 11004KT 040V150 9999 FEW020 30/18 Q1017 NOSIG=  
08-Aug-2021 SAID33 WATB 080500 METAR WATB 080500Z 10007KT 9999 FEW020 30/19 Q1015 NOSIG=  
08-Aug-2021 SAID33 WATB 080600 METAR WATB 080600Z 14006KT 9999 SCT018 29/19 Q1014 NOSIG=  
09-Aug-2021 SAID33 WATB 090000 METAR WATB 090000Z 06002KT 9999 FEW020 23/18 Q1018 NOSIG=  
09-Aug-2021 SAID33 WATB 090100 METAR WATB 090100Z 10003KT 9999 FEW020 26/19 Q1018 NOSIG=  
09-Aug-2021 SAID33 WATB 090200 METAR WATB 090200Z 10004KT 9999 FEW020 28/16 Q1017 NOSIG=  
09-Aug-2021 SAID33 WATB 090300 METAR WATB 090300Z 08004KT 9999 FEW020 29/16 Q1016 NOSIG=  
09-Aug-2021 SAID33 WATB 090400 METAR WATB 090400Z 35008KT 9999 FEW020 29/16 Q1015 NOSIG=  
09-Aug-2021 SPID33 WATB 090500 SPECI WATB 090500Z 10006KT 9999 FEW020 31/16 Q1015 NOSIG=  
09-Aug-2021 SAID33 WATB 090600 METAR WATB 090600Z 05004KT 9999 SCT020 29/17 Q1013 NOSIG=  
10-Aug-2021 SAID33 WATB 100000 METAR WATB 100000Z 05004KT 9999 FEW020 25/17 Q1013 NOSIG=  
10-Aug-2021 SAID33 WATB 100100 METAR WATB 100100Z 36002KT 9999 FEW020 27/18 Q1017 NOSIG=  
10-Aug-2021 SAID33 WATB 100200 METAR WATB 100200Z 10004KT 9999 FEW020 28/18 Q1017 NOSIG=  
10-Aug-2021 SAID33 WATB 100300 METAR WATB 100300Z 07006KT 9999 FEW020 29/16 Q1016 NOSIG=  
10-Aug-2021 SAID33 WATB 100400 METAR WATB 100400Z 11004KT 070V180 9999 FEW020 31/15 Q1016 NOSIG=  
10-Aug-2021 SAID33 WATB 100500 METAR WATB 100500Z 06005KT 020V110 9999 FEW018 31/16 Q1015 NOSIG=  
10-Aug-2021 SAID33 WATB 100600 METAR WATB 100600Z 07007KT 020V110 9999 FEW018 31/16 Q1014 NOSIG=  
11-Aug-2021 SAID33 WATB 110000 METAR WATB 110000Z 06002KT 9999 FEW020 25/18 Q1018 NOSIG=  
11-Aug-2021 SAID33 WATB 110100 METAR WATB 110100Z 11003KT 9999 FEW020 28/19 Q1018 NOSIG=  
11-Aug-2021 SAID33 WATB 110200 METAR WATB 110200Z 10005KT 9999 FEW020 30/18 Q1018 NOSIG=  
11-Aug-2021 SAID33 WATB 110300 METAR WATB 110300Z 12005KT 9999 FEW020 30/19 Q1017 NOSIG=  
11-Aug-2021 SAID33 WATB 110400 METAR WATB 110400Z 15006KT 9999 FEW020 31/18 Q1016 NOSIG=  
11-Aug-2021 SAID33 WATB 110500 METAR WATB 110500Z 08004KT 9999 FEW020 31/17 Q1016 NOSIG=  
11-Aug-2021 SAID33 WATB 110600 METAR WATB 110600Z 16005KT 9999 FEW020 31/19 Q1015 NOSIG=  
12-Aug-2021 SAID33 WATB 120000 METAR WATB 120000Z 16005KT 9999 FEW020 27/22 Q1018 NOSIG=  
12-Aug-2021 SAID33 WATB 120100 METAR WATB 120100Z 11004KT 9999 FEW020 28/21 Q1018 NOSIG=  
12-Aug-2021 SAID33 WATB 120200 METAR WATB 120200Z 12005KT 9999 FEW020 30/20 Q1017 NOSIG=  
12-Aug-2021 SAID33 WATB 120300 METAR WATB 120300Z 15005KT 110V200 9999 FEW020 31/21 Q1017 NOSIG=  
12-Aug-2021 SAID33 WATB 120400 METAR WATB 120400Z 16004KT 9999 FEW020 31/21 Q1016 NOSIG=  
12-Aug-2021 SAID33 WATB 120500 METAR WATB 120500Z 17005KT 100V240 9999 FEW020 32/19 Q1015 NOSIG=  
12-Aug-2021 SAID33 WATB 120600 METAR WATB 120600Z 09009KT 9999 FEW020 31/19 Q1014 NOSIG=  
13-Aug-2021 SAID33 WATB 130000 METAR WATB 130000Z 09002KT 9999 FEW020 27/21 Q1016 NOSIG=  
13-Aug-2021 SAID33 WATB 130200 METAR WATB 130200Z 12005KT 090V160 9999 FEW020 29/19 Q1016 NOSIG=  
13-Aug-2021 SAID33 WATB 130247 METAR WATB 130247Z 14004KT 9999 FEW020 31/19 Q1015 NOSIG=  
13-Aug-2021 SAID33 WATB 130300 METAR WATB 130300Z 14005KT 9999 FEW020 31/19 Q1015 NOSIG=  
13-Aug-2021 SAID33 WATB 130400 METAR WATB 130400Z 10005KT 040V150 9999 FEW020 32/17 Q1014 NOSIG=  
13-Aug-2021 SAID33 WATB 130500 METAR WATB 130500Z 03006KT 9999 FEW020 33/18 Q1013 NOSIG=  
13-Aug-2021 SAID33 WATB 130600 METAR WATB 130600Z 04007KT 9999 FEW018 33/16 Q1012 NOSIG=  
14-Aug-2021 SAID33 WATB 140100 METAR WATB 140100Z 12004KT 9999 FEW020 28/18 Q1016 NOSIG=  
14-Aug-2021 SAID33 WATB 140200 METAR WATB 140200Z 10004KT 9999 FEW020 28/16 Q1016 NOSIG=  
14-Aug-2021 SAID33 WATB 140500 METAR WATB 140500Z 07005KT 9999 FEW020 32/17 Q1013 NOSIG=  
14-Aug-2021 SAID33 WATB 140600 METAR WATB 140600Z 05010KT 9999 FEW020 32/17 Q1012 NOSIG=  
15-Aug-2021 SAID33 WATB 150000 METAR WATB 150000Z 19007KT 9999 FEW020 26/18 Q1017 NOSIG=  
15-Aug-2021 SAID33 WATB 150100 METAR WATB 150100Z 10007KT 9999 FEW020 28/19 Q1017 NOSIG=  
15-Aug-2021 SAID33 WATB 150200 METAR WATB 150200Z 11007KT 9999 FEW020 29/17 Q1017 NOSIG=  
15-Aug-2021 SAID33 WATB 150300 METAR WATB 150300Z 16007KT 9999 FEW020 29/18 Q1016 NOSIG=  
15-Aug-2021 SAID33 WATB 150400 METAR WATB 150400Z 16007KT 9999 FEW020 30/17 Q1015 NOSIG=  
15-Aug-2021 SAID33 WATB 150500 METAR WATB 150500Z 16007KT 9999 FEW020 29/18 Q1015 NOSIG=  
15-Aug-2021 SAID33 WATB 150600 METAR WATB 150600Z 10010KT 9999 FEW018 29/18 Q1014 NOSIG=  
16-Aug-2021 SAID33 WATB 160000 METAR WATB 160000Z 05002KT 9999 FEW020 25/16 Q1018 NOSIG=  
16-Aug-2021 SAID33 WATB 160100 METAR WATB 160100Z 06003KT 9999 FEW020 28/18 Q1018 NOSIG=  
16-Aug-2021 SAID33 WATB 160300 METAR WATB 160300Z 17003KT 9999 FEW020 31/19 Q1017 NOSIG=  
18-Aug-2021 SAID33 WATB 180100 METAR WATB 180100Z 15005KT 9999 SCT018 28/19 Q1016 NOSIG=  
18-Aug-2021 SAID33 WATB 180200 METAR WATB 180200Z 17004KT 9999 SCT018 28/19 Q1015 NOSIG=  
18-Aug-2021 SAID33 WATB 180300 METAR WATB 180300Z 16006KT 9999 SCT018 30/18 Q1014 NOSIG=  
18-Aug-2021 SAID33 WATB 180400 METAR WATB 180400Z 13006KT 9999 SCT018 31/17 Q1013 NOSIG=  
18-Aug-2021 SAID33 WATB 180500 METAR WATB 180500Z 16006KT 9999 SCT018 31/17 Q1012 NOSIG=  
18-Aug-2021 SAID33 WATB 180600 METAR WATB 180600Z 15006KT 9999 SCT018 31/17 Q1011 NOSIG=  
19-Aug-2021 SAID33 WATB 190000 METAR WATB 190000Z 09002KT 9999 FEW020 25/19 Q1015 NOSIG=  
19-Aug-2021 SAID33 WATB 190100 METAR WATB 190100Z 07002KT 9999 FEW020 27/19 Q1015 NOSIG=  
19-Aug-2021 SAID33 WATB 190200 METAR WATB 190200Z 08004KT 9999 FEW020 28/18 Q1015 NOSIG=  
19-Aug-2021 SAID33 WATB 190300 METAR WATB 190300Z 10004KT 9999 FEW020 30/18 Q1014 NOSIG=  
19-Aug-2021 SAID33 WATB 190400 METAR WATB 190400Z 09005KT 9999 SCT018 31/18 Q1013 NOSIG=  
19-Aug-2021 SAID33 WATB 190500 METAR WATB 190500Z 02003KT 9999 SCT018 32/17 Q1012 NOSIG=  
19-Aug-2021 SAID33 WATB 190600 METAR WATB 190600Z 14006KT 9999 SCT018 31/18 Q1011 NOSIG=  
20-Aug-2021 SAID33 WATB 200000 METAR WATB 200000Z 14006KT 9999 FEW020 25/20 Q1016 NOSIG=  
20-Aug-2021 SAID33 WATB 200100 METAR WATB 200100Z 06003KT 9999 FEW020 27/20 Q1016 NOSIG=  
20-Aug-2021 SAID33 WATB 200200 METAR WATB 200200Z 08005KT 9999 FEW020 29/20 Q1016 NOSIG=  
20-Aug-2021 SAID33 WATB 200300 METAR WATB 200300Z 03004KT 9999 FEW020 30/18 Q1015 NOSIG=  
20-Aug-2021 SAID33 WATB 200400 METAR WATB 200400Z 10005KT 9999 SCT018 32/19 Q1014 NOSIG=  
20-Aug-2021 SAID33 WATB 200500 METAR WATB 200500Z 12004KT 9999 SCT018 32/18 Q1013 NOSIG=  
20-Aug-2021 SAID33 WATB 200600 METAR WATB 200600Z 13007KT 9999 SCT018 31/19 Q1013 NOSIG=  
21-Aug-2021 SAID33 WATB 210000 METAR WATB 210000Z 09003KT 9999 FEW020 26/19 Q1016 NOSIG=  
21-Aug-2021 SAID33 WATB 210100 METAR WATB 210100Z 09004KT 9999 FEW020 27/19 Q1016 NOSIG=  
21-Aug-2021 SAID33 WATB 210200 METAR WATB 210200Z 10004KT 9999 FEW020 30/20 Q1016 NOSIG=  
21-Aug-2021 SAID33 WATB 210300 METAR WATB 210300Z 10004KT 9999 FEW020 30/20 Q1016 NOSIG=  
21-Aug-2021 SAID33 WATB 210400 METAR WATB 210400Z 17004KT 9999 SCT018 32/19 Q1015 NOSIG=  
21-Aug-2021 SAID33 WATB 210500 METAR WATB 210500Z 15005KT 9999 SCT018 32/18 Q1014 NOSIG=  
21-Aug-2021 SAID33 WATB 210600 METAR WATB 210600Z 15006KT 9999 SCT018 32/18 Q1013 NOSIG=  
22-Aug-2021 SAID33 WATB 220000 METAR WATB 220000Z 04001KT 9999 FEW020 25/19 Q1016 NOSIG=  
22-Aug-2021 SAID33 WATB 220100 METAR WATB 220100Z 12003KT 9999 FEW020 27/20 Q1017 NOSIG=  
22-Aug-2021 SAID33 WATB 220200 METAR WATB 220200Z 15005KT 9999 SCT018 28/18 Q1016 NOSIG=  
22-Aug-2021 SAID33 WATB 220300 METAR WATB 220300Z 19004KT 9999 SCT018 30/17 Q1016 NOSIG=  
22-Aug-2021 SAID33 WATB 220400 METAR WATB 220400Z 15005KT 9999 SCT018 30/17 Q1015 NOSIG=  
22-Aug-2021 SAID33 WATB 220500 METAR WATB 220500Z 16008KT 9999 SCT018 30/16 Q1014 NOSIG=  
22-Aug-2021 SAID33 WATB 220600 METAR WATB 220600Z 16005KT 9999 SCT018 32/15 Q1013 NOSIG=  
23-Aug-2021 SAID33 WATB 230000 METAR WATB 230000Z 13002KT 9999 FEW020 26/19 Q1016 NOSIG=  
23-Aug-2021 SAID33 WATB 230100 METAR WATB 230100Z 13003KT 9999 FEW020 27/19 Q1016 NOSIG=  
23-Aug-2021 SAID33 WATB 230200 METAR WATB 230200Z 13003KT 9999 FEW020 28/18 Q1016 NOSIG=  
23-Aug-2021 SAID33 WATB 230300 METAR WATB 230300Z 10005KT 9999 FEW020 30/17 Q1015 NOSIG=  
23-Aug-2021 SAID33 WATB 230400 METAR WATB 230400Z 34005KT 9999 FEW020 31/16 Q1014 NOSIG=  
23-Aug-2021 SAID33 WATB 230500 METAR WATB 230500Z 12004KT 9999 FEW020 30/16 Q1013 NOSIG=  
23-Aug-2021 SPID33 WATB 230600 SPECI WATB 230600Z 09004KT 9999 FEW020 32/17 Q1013 NOSIG=  
24-Aug-2021 SAID33 WATB 240000 METAR WATB 240000Z 08002KT 9999 FEW020 25/18 Q1015 NOSIG=  
24-Aug-2021 SAID33 WATB 240100 METAR WATB 240100Z 15007KT 9999 FEW020 27/18 Q1016 NOSIG=  
24-Aug-2021 SAID33 WATB 240200 METAR WATB 240200Z 07005KT 9999 FEW020 29/18 Q1015 NOSIG=  
24-Aug-2021 SAID33 WATB 240300 METAR WATB 240300Z 14007KT 9999 FEW020 30/17 Q1015 NOSIG=  
24-Aug-2021 SAID33 WATB 240400 METAR WATB 240400Z 12003KT 9999 FEW020 32/15 Q1013=  
24-Aug-2021 SPID33 WATB 240500 SPECI WATB 240500Z 02006KT 9999 FEW020 32/16 Q1012 NOSIG=  
24-Aug-2021 SAID33 WATB 240500 METAR WATB 240500Z 24005KT 9999 FEW020 32/15 Q1012 NOSIG=  
24-Aug-2021 SAID33 WATB 240600 METAR WATB 240600Z 08006KT 9999 SCT018 32/16 Q1012 NOSIG=  
25-Aug-2021 SAID33 WATB 250000 METAR WATB 250000Z 02003KT 9999 FEW020 26/18 Q1016 NOSIG=  
25-Aug-2021 SAID33 WATB 250100 METAR WATB 250100Z 14004KT 9999 FEW020 28/19 Q1016 NOSIG=  
25-Aug-2021 SAID33 WATB 250200 METAR WATB 250200Z 13005KT 9999 FEW020 30/19 Q1016 NOSIG=  
25-Aug-2021 SAID33 WATB 250300 METAR WATB 250300Z 14006KT 9999 FEW020 30/18 Q1015 NOSIG=  
25-Aug-2021 SAID33 WATB 250400 METAR WATB 250400Z 14006KT 9999 SCT018 31/18 Q1014 NOSIG=  
25-Aug-2021 SAID33 WATB 250500 METAR WATB 250500Z 14004KT 9999 SCT018 32/18 Q1013 NOSIG=  
25-Aug-2021 SAID33 WATB 250600 METAR WATB 250600Z 07004KT 9999 SCT018 31/18 Q1012 NOSIG=  
26-Aug-2021 SAID33 WATB 260000 METAR WATB 260000Z 28002KT 5000 RA BKN017 20/20 Q1015=  
26-Aug-2021 SAID33 WATB 260100 METAR WATB 260100Z 28002KT 5000 -RA BKN017 21/21 Q1016=  
26-Aug-2021 SAID33 WATB 260200 METAR WATB 260200Z 29002KT 8000 BKN017 23/21 Q1015 NOSIG=  
26-Aug-2021 SAID33 WATB 260300 METAR WATB 260300Z 35003KT 8000 BKN017 25/22 Q1015 NOSIG=  
26-Aug-2021 SAID33 WATB 260400 METAR WATB 260400Z 16004KT 8000 BKN017 27/21 Q1014 NOSIG=  
26-Aug-2021 SAID33 WATB 260500 METAR WATB 260500Z 17004KT 9999 BKN018 29/21 Q1013 NOSIG=  
26-Aug-2021 SAID33 WATB 260600 METAR WATB 260600Z 15005KT 9999 SCT018 29/20 Q1012 NOSIG=  
27-Aug-2021 SAID33 WATB 270000 METAR WATB 270000Z 15005KT 9999 FEW020 27/21 Q1015 NOSIG=  
27-Aug-2021 SAID33 WATB 270100 METAR WATB 270100Z 16003KT 9999 FEW020 28/21 Q1015 NOSIG=  
27-Aug-2021 SPID33 WATB 270200 SPECI WATB 270200Z 13005KT 9999 FEW020 30/20 Q1014 NOSIG=  
27-Aug-2021 SAID33 WATB 270200 METAR WATB 270200Z 13005KT 9999 SCT018 30/20 Q1014 NOSIG=  
27-Aug-2021 SAID33 WATB 270300 METAR WATB 270300Z 17004KT 9999 SCT018 31/20 Q1014 NOSIG=  
27-Aug-2021 SAID33 WATB 270500 METAR WATB 270500Z 19005KT 9999 BKN018 31/20 Q1013 NOSIG=  
27-Aug-2021 SAID33 WATB 270600 METAR WATB 270600Z 17004KT 9999 SCT018 29/19 Q1012 NOSIG=  
28-Aug-2021 SAID33 WATB 280000 METAR WATB 280000Z 29002KT 9999 BKN018 22/20 Q1014 NOSIG=  
28-Aug-2021 SAID33 WATB 280100 METAR WATB 280100Z 11002KT 9999 SCT018 27/20 Q1014 NOSIG=  
28-Aug-2021 SAID33 WATB 280200 METAR WATB 280200Z 16003KT 9999 SCT018 29/19 Q1015 NOSIG=  
28-Aug-2021 SAID33 WATB 280300 METAR WATB 280300Z 12003KT 9999 SCT018 31/19 Q1014 NOSIG=  
28-Aug-2021 SAID33 WATB 280400 METAR WATB 280400Z 08005KT 9999 BKN018 30/19 Q1013 NOSIG=  
28-Aug-2021 SAID33 WATB 280500 METAR WATB 280500Z 11007KT 8000 BKN018 30/19 Q1012 NOSIG=  
28-Aug-2021 SAID33 WATB 280600 METAR WATB 280600Z 11011KT 8000 SCT018 31/19 Q1012 NOSIG=  
29-Aug-2021 SAID33 WATB 290000 METAR WATB 290000Z 26001KT 9999 FEW020 22/21 Q1014 NOSIG=  
29-Aug-2021 SAID33 WATB 290100 METAR WATB 290100Z 11002KT 9999 FEW020 26/20 Q1014 NOSIG=  
29-Aug-2021 SAID33 WATB 290200 METAR WATB 290200Z 09002KT 9999 FEW020 28/21 Q1015 NOSIG=  
29-Aug-2021 SAID33 WATB 290300 METAR WATB 290300Z 14004KT 9999 SCT018 30/20 Q1014 NOSIG=  
29-Aug-2021 SAID33 WATB 290400 METAR WATB 290400Z 14004KT 9999 SCT018 32/19 Q1013 NOSIG=  
29-Aug-2021 SAID33 WATB 290500 METAR WATB 290500Z 20005KT 9999 SCT018 31/17 Q1012 NOSIG=  
29-Aug-2021 SAID33 WATB 290600 METAR WATB 290600Z 16005KT 9999 SCT018 32/18 Q1011 NOSIG=  
30-Aug-2021 SAID33 WATB 300300 METAR WATB 300300Z 18004KT 9999 FEW020 30/19 Q1015 NOSIG=  
30-Aug-2021 SAID33 WATB 300400 METAR WATB 300400Z 14006KT 9999 FEW020 31/18 Q1014 NOSIG=  
30-Aug-2021 SAID33 WATB 300500 METAR WATB 300500Z 13006KT 9999 FEW020 32/15 Q1013 NOSIG=  
30-Aug-2021 SAID33 WATB 300600 METAR WATB 300600Z 14006KT 9999 FEW020 33/13 Q1012 NOSIG=  
31-Aug-2021 SAID33 WATB 310000 METAR WATB 310000Z 06003KT 9999 FEW020 25/18 Q1016 NOSIG=  
31-Aug-2021 SAID33 WATB 310100 METAR WATB 310100Z 07004KT 9999 FEW020 27/17 Q1016 NOSIG=  
31-Aug-2021 SAID33 WATB 310200 METAR WATB 310200Z 11008KT 9999 FEW020 28/19 Q1015 NOSIG=  
31-Aug-2021 SAID33 WATB 310300 METAR WATB 310300Z 16005KT 9999 FEW020 31/18 Q1015 NOSIG=  
31-Aug-2021 SAID33 WATB 310400 METAR WATB 310400Z 17011KT 9999 FEW0020 32/16 Q1014 NOSIG=  
31-Aug-2021 SAID33 WATB 310500 METAR WATB 310500Z 07004KT 9999 FEW0020 31/14 Q1013 NOSIG=  
31-Aug-2021 SAID33 WATB 310600 METAR WATB 310600Z 19007KT 9999 FEW020 33/14 Q1013 NOSIG=  
01-Sep-2021 SAID33 WATB 010000 METAR WATB 010000Z 10002KT 9999 FEW020 26/19 Q1016 NOSIG=  
01-Sep-2021 SAID33 WATB 010200 METAR WATB 010200Z 07005KT 9999 FEW020 29/18 Q1015 NOSIG=  
01-Sep-2021 SAID33 WATB 010300 METAR WATB 010300Z 03004KT 9999 FEW020 30/18 Q1014 NOSIG=  
01-Sep-2021 SAID33 WATB 010400 METAR WATB 010400Z 10007KT 9999 FEW020 31/18 Q1013 NOSIG=  
01-Sep-2021 SPID33 WATB 010416 SPECI WATB 010416Z 13003KT 9999 FEW020 33/18 Q1013 NOSIG=  
01-Sep-2021 SAID33 WATB 010500 METAR WATB 010500Z 07006KT 9999 FEW020 32/16 Q1013 NOSIG=  
01-Sep-2021 SAID33 WATB 010600 METAR WATB 010600Z 14005KT 9999 FEW020 34/17 Q1012 NOSIG=  
02-Sep-2021 SAID33 WATB 020000 METAR WATB 020000Z 17003KT 9999 FEW020 27/20 Q1015 NOSIG=  
02-Sep-2021 SAID33 WATB 020100 METAR WATB 020100Z 15005KT 9999 FEW020 28/20 Q1016 NOSIG=  
02-Sep-2021 SAID33 WATB 020200 METAR WATB 020200Z 14006KT 9999 FEW020 31/20 Q1016 NOSIG=  
02-Sep-2021 SAID33 WATB 020300 METAR WATB 020300Z 14007KT 9999 FEW020 32/19 Q1015 NOSIG=  
02-Sep-2021 SAID33 WATB 020400 METAR WATB 020400Z 15005KT 9999 FEW020 30/20 Q1014 NOSIG=  
02-Sep-2021 SAID33 WATB 020500 METAR WATB 020500Z 12008KT 9999 SCT020 31/20 Q1013 NOSIG=  
02-Sep-2021 SAID33 WATB 020600 METAR WATB 020600Z 16004KT 9999 SCT020 31/19 Q1013 NOSIG=  
03-Sep-2021 SAID33 WATB 030000 METAR WATB 030000Z 15003KT 9999 FEW020 28/21 Q1015 NOSIG=  
03-Sep-2021 SAID33 WATB 030100 METAR WATB 030100Z 15006KT 9999 FEW020 28/21 Q1015 NOSIG=  
03-Sep-2021 SAID33 WATB 030200 METAR WATB 030200Z 16008KT 9999 SCT020 28/21 Q1015 NOSIG=  
03-Sep-2021 SAID33 WATB 030300 METAR WATB 030300Z 15006KT 9999 BKN020 29/21 Q1014 NOSIG=  
03-Sep-2021 SAID33 WATB 030400 METAR WATB 030400Z 15007KT 9999 BKN020 30/20 Q1013 NOSIG=  
03-Sep-2021 SAID33 WATB 030500 METAR WATB 030500Z 15006KT 9999 BKN020 30/20 Q1013 NOSIG=  
03-Sep-2021 SAID33 WATB 030600 METAR WATB 030600Z 17005KT 9999 BKN020 29/20 Q1012 NOSIG=  
04-Sep-2021 SAID33 WATB 040000 METAR WATB 040000Z 15003KT 9999 FEW020 27/21 Q1015 NOSIG=  
04-Sep-2021 SAID33 WATB 040100 METAR WATB 040100Z 15004KT 9999 FEW020 28/21 Q1015 NOSIG=  
04-Sep-2021 SAID33 WATB 040200 METAR WATB 040200Z 15007KT 9999 FEW020 29/21 Q1015 NOSIG=  
04-Sep-2021 SAID33 WATB 040300 METAR WATB 040300Z 15006KT 9999 FEW020 30/21 Q1014 NOSIG=  
04-Sep-2021 SAID33 WATB 040400 METAR WATB 040400Z 12007KT 9999 FEW020 30/20 Q1014 NOSIG=  
04-Sep-2021 SAID33 WATB 040500 METAR WATB 040500Z 15006KT 9999 SCT020 30/20 Q1013 NOSIG=  
04-Sep-2021 SAID33 WATB 040600 METAR WATB 040600Z 10006KT 9999 SCT020 31/19 Q1012 NOSIG=  
05-Sep-2021 SAID33 WATB 050000 METAR WATB 050000Z 12003KT 9999 SCT020 27/21 Q1015 NOSIG=  
05-Sep-2021 SAID33 WATB 050100 METAR WATB 050100Z 17006KT 9999 FEW020 29/22 Q1015 NOSIG=  
05-Sep-2021 SAID33 WATB 050200 METAR WATB 050200Z 14007KT 9999 SCT020 30/22 Q1015 NOSIG=  
05-Sep-2021 SAID33 WATB 050300 METAR WATB 050300Z 16006KT 9999 SCT020 30/21 Q1015 NOSIG=  
05-Sep-2021 SAID33 WATB 050400 METAR WATB 050400Z 16007KT 9999 BKN020 30/21 Q1014 NOSIG=  
05-Sep-2021 SAID33 WATB 050500 METAR WATB 050500Z 13005KT 9999 BKN020 31/20 Q1013 NOSIG=  
06-Sep-2021 SAID33 WATB 060000 METAR WATB 060000Z 01002KT 9999 FEW020 28/20 Q1017 NOSIG=  
06-Sep-2021 SAID33 WATB 060100 METAR WATB 060100Z 11005KT 9999 FEW020 28/20 Q1017 NOSIG=  
06-Sep-2021 SAID33 WATB 060200 METAR WATB 060200Z 11007KT 9999 FEW020 29/19 Q1017 NOSIG=  
06-Sep-2021 SAID33 WATB 060300 METAR WATB 060300Z 10010KT 9999 SCT020 32/18 Q1016 NOSIG=  
06-Sep-2021 SAID33 WATB 060400 METAR WATB 060400Z 09010KT 9999 FEW020 32/16 Q1014 NOSIG=  
06-Sep-2021 SAID33 WATB 060500 METAR WATB 060500Z 09010KT 9999 FEW020 32/16 Q1014 NOSIG=  
06-Sep-2021 SAID33 WATB 060600 METAR WATB 060600Z 17005KT 9999 FEW020 31/19 Q1013 NOSIG=  
07-Sep-2021 SAID33 WATB 070000 METAR WATB 070000Z 15002KT 9999 SCT020 27/21 Q1016 NOSIG=  
07-Sep-2021 SAID33 WATB 070100 METAR WATB 070100Z 16006KT 9999 SCT020 26/20 Q1017 NOSIG=  
07-Sep-2021 SPID33 WATB 070147 SPECI WATB 070147Z 17007KT 9999 BKN018 28/20 Q1017 NOSIG=  
07-Sep-2021 SAID33 WATB 070200 METAR WATB 070200Z 17007KT 9999 BKN018 28/19 Q1017 NOSIG=  
07-Sep-2021 SAID33 WATB 070300 METAR WATB 070300Z 15009KT 9999 SCT020 29/19 Q1016 NOSIG=  
07-Sep-2021 SAID33 WATB 070400 METAR WATB 070400Z 17008KT 9999 FEW020 28/19 Q1015 NOSIG=  
07-Sep-2021 SPID33 WATB 070409 SPECI WATB 070409Z 15007KT 120V180 9999 FEW020 30/19 Q1015 NOSIG=  
07-Sep-2021 SAID33 WATB 070500 METAR WATB 070500Z 18006KT 9999 FEW020 30/19 Q1014 NOSIG=  
07-Sep-2021 SAID33 WATB 070600 METAR WATB 070600Z 17006KT 9999 FEW020 30/19 Q1014 NOSIG=  
08-Sep-2021 SAID33 WATB 080000 METAR WATB 080000Z 14005KT 9999 FEW020 25/19 Q1016 NOSIG=  
08-Sep-2021 SPID33 WATB 080100 SPECI WATB 080100Z 14004KT 9999 SCT018 27/19 Q1016 NOSIG=  
08-Sep-2021 SAID33 WATB 080200 METAR WATB 080200Z 15005KT 9999 SCT020 29/19 Q1016 NOSIG=  
08-Sep-2021 SAID33 WATB 080300 METAR WATB 080300Z 17006KT 9999 SCT018 27/19 Q1015 NOSIG=  
08-Sep-2021 SAID33 WATB 080400 METAR WATB 080400Z 14006KT 9999 BKN018 27/19 Q1015 NOSIG=  
08-Sep-2021 SAID33 WATB 080600 METAR WATB 080600Z 15005KT 9999 BKN018 28/19 Q1013 NOSIG=  
09-Sep-2021 SAID33 WATB 090000 METAR WATB 090000Z 14006KT 9999 FEW020 27/18 Q1016 NOSIG=  
09-Sep-2021 SAID33 WATB 090100 METAR WATB 090100Z 10005KT 9999 FEW020 29/18 Q1016 NOSIG=  
09-Sep-2021 SAID33 WATB 090200 METAR WATB 090200Z 12005KT 9999 FEW020 29/18 Q1016 NOSIG=  
09-Sep-2021 SAID33 WATB 090300 METAR WATB 090300Z 14003KT 9999 FEW020 31/18 Q1015 NOSIG=  
09-Sep-2021 SAID33 WATB 090400 METAR WATB 090400Z 15006KT 9999 FEW020 30/17 Q1015 NOSIG=  
09-Sep-2021 SPID33 WATB 090500 SPECI WATB 090500Z 13007KT 9999 FEW020 32/17 Q1014 NOSIG=  
09-Sep-2021 SAID33 WATB 090600 METAR WATB 090600Z 15007KT 9999 FEW020 32/18 Q1013 NOSIG=  
10-Sep-2021 SAID33 WATB 100000 METAR WATB 100000Z 07002KT 9999 BKN018 26/20 Q1016 NOSIG=  
10-Sep-2021 SAID33 WATB 100100 METAR WATB 100100Z 10003KT 8000 BKN018 26/20 Q1017 NOSIG=  
10-Sep-2021 SAID33 WATB 100200 METAR WATB 100200Z 06002KT 9999 BKN018 28/21 Q1017 NOSIG=  
10-Sep-2021 SAID33 WATB 100300 METAR WATB 100300Z 13004KT 5000 -RA OVC017 26/21 Q1016=  
10-Sep-2021 SAID33 WATB 100400 METAR WATB 100400Z 07001KT 6000 RA OVC017 26/22 Q1015=  
10-Sep-2021 SAID33 WATB 100500 METAR WATB 100500Z 04002KT 5000 -RA OVC017 27/22 Q1014 NOSIG=  
10-Sep-2021 SAID33 WATB 100600 METAR WATB 100600Z 21002KT 5000 RA OVC017 26/21 Q1014=  
11-Sep-2021 SAID33 WATB 110000 METAR WATB 110000Z 07002KT 9999 FEW020 27/20 Q1015 NOSIG=  
11-Sep-2021 SAID33 WATB 110100 METAR WATB 110100Z 07002KT 9999 FEW020 30/17 Q1015 NOSIG=  
11-Sep-2021 SAID33 WATB 110200 METAR WATB 110200Z 06005KT 9999 FEW020 30/16 Q1015 NOSIG=  
11-Sep-2021 SAID33 WATB 110300 METAR WATB 110300Z 10005KT 9999 FEW020 32/17 Q1014 NOSIG=  
11-Sep-2021 SAID33 WATB 110400 METAR WATB 110400Z 10004KT 9999 FEW020 32/18 Q1013 NOSIG=  
11-Sep-2021 SAID33 WATB 110500 METAR WATB 110500Z 11008KT 9999 SCT020 31/18 Q1012 NOSIG=  
11-Sep-2021 SAID33 WATB 110600 METAR WATB 110600Z 10010KT 9999 SCT020 31/19 Q1012 NOSIG=  
12-Sep-2021 SAID33 WATB 120000 METAR WATB 120000Z 05002KT 9999 FEW020 27/20 Q1015 NOSIG=  
12-Sep-2021 SAID33 WATB 120100 METAR WATB 120100Z 11004KT 9999 FEW020 27/20 Q1015 NOSIG=  
12-Sep-2021 SAID33 WATB 120200 METAR WATB 120200Z 16003KT 9999 FEW020 29/20 Q1014 NOSIG=  
12-Sep-2021 SAID33 WATB 120300 METAR WATB 120300Z 10006KT 9999 BKN020 30/20 Q1014 NOSIG=  
12-Sep-2021 SAID33 WATB 120400 METAR WATB 120400Z 07006KT 9999 SCT020 31/19 Q1012 NOSIG=  
12-Sep-2021 SAID33 WATB 120500 METAR WATB 120500Z 07006KT 9999 SCT020 32/19 Q1011 NOSIG=  
12-Sep-2021 SAID33 WATB 120600 METAR WATB 120600Z 10011KT 9999 SCT020 31/19 Q1011 NOSIG=  
13-Sep-2021 SAID33 WATB 130000 METAR WATB 130000Z 10002KT 9999 FEW020 27/20 Q1016 NOSIG=  
13-Sep-2021 SAID33 WATB 130100 METAR WATB 130100Z 13002KT 9999 FEW020 29/20 Q1016 NOSIG=  
13-Sep-2021 SAID33 WATB 130200 METAR WATB 130200Z 10006KT 9999 FEW020 30/20 Q1016 NOSIG=  
13-Sep-2021 SAID33 WATB 130300 METAR WATB 130300Z 12005KT 9999 FEW020 32/20 Q1015 NOSIG=  
13-Sep-2021 SAID33 WATB 130400 METAR WATB 130400Z 10006KT 9999 FEW020 31/19 Q1014 NOSIG=  
13-Sep-2021 SAID33 WATB 130500 METAR WATB 130500Z 10007KT 9999 SCT020 33/20 Q1013 NOSIG=  
13-Sep-2021 SAID33 WATB 130600 METAR WATB 130600Z 07006KT 9999 SCT020 33/19 Q1012 NOSIG=  
14-Sep-2021 SAID33 WATB 140300 METAR WATB 140300Z 07006KT 9999 FEW020 32/19 Q1015 NOSIG=  
14-Sep-2021 SAID33 WATB 140400 METAR WATB 140400Z 10007KT 9999 FEW020 33/17 Q1014 NOSIG=  
14-Sep-2021 SAID33 WATB 140500 METAR WATB 140500Z 10010KT 9999 FEW020 34/16 Q1013 NOSIG=  
14-Sep-2021 SAID33 WATB 140600 METAR WATB 140600Z 10008KT 9999 FEW020 34/17 Q1012 NOSIG=  
15-Sep-2021 SAID33 WATB 150000 METAR WATB 150000Z 12002KT 9999 FEW020 27/20 Q1017 NOSIG=  
15-Sep-2021 SAID33 WATB 150100 METAR WATB 150100Z 14004KT 9999 FEW020 29/20 Q1017 NOSIG=  
15-Sep-2021 SAID33 WATB 150200 METAR WATB 150200Z 10005KT 9999 FEW020 31/20 Q1017 NOSG=  
15-Sep-2021 SAID33 WATB 150300 METAR WATB 150300Z 18006KT 9999 SCT020 30/20 Q1016 NOSIG=  
15-Sep-2021 SAID33 WATB 150400 METAR WATB 150400Z 16006KT 9999 SCT020 32/21 Q1015 NOSIG=  
15-Sep-2021 SAID33 WATB 150500 METAR WATB 150500Z 13008KT 9999 SCT020 33/21 Q1014 NOSIG=  
15-Sep-2021 SAID33 WATB 150600 METAR WATB 150600Z 12005KT //// SCT020 33/20 Q1013 NOSIG=  
16-Sep-2021 SAID33 WATB 160000 METAR WATB 160000Z 11005KT 9999 FEW020 28/22 Q1016 NOSIG=  
16-Sep-2021 SAID33 WATB 160100 METAR WATB 160100Z 14010KT 9999 FEW020 28/22 Q1016 NOSIG=  
16-Sep-2021 SAID33 WATB 160200 METAR WATB 160200Z 05003KT 9999 SCT020 30/21 Q1016 NOSIG=  
16-Sep-2021 SAID33 WATB 160300 METAR WATB 160300Z 08011KT 9999 SCT020 32/19 Q1015 NOSIG=  
16-Sep-2021 SAID33 WATB 160400 METAR WATB 160400Z 09005KT 9999 SCT020 33/18 Q1014 NOSIG=  
16-Sep-2021 SAID33 WATB 160500 METAR WATB 160500Z 11009KT 9999 SCT020 33/18 Q1013 NOSIG=  
16-Sep-2021 SAID33 WATB 160600 METAR WATB 160600Z 08008KT 9999 BKN020 32/20 Q1012 NOSIG=  
17-Sep-2021 SAID33 WATB 170000 METAR WATB 170000Z 09003KT 9999 FEW020 27/22 Q1016 NOSIG=  
17-Sep-2021 SAID33 WATB 170100 METAR WATB 170100Z 12009KT 9999 FEW020 29/22 Q1016 NOSIG=  
17-Sep-2021 SAID33 WATB 170200 METAR WATB 170200Z 13007KT 9999 FEW020 30/20 Q1016 NOSIG=  
17-Sep-2021 SAID33 WATB 170300 METAR WATB 170300Z 23005KT 9999 FEW020 32/19 Q1015 NOSIG=  
17-Sep-2021 SAID33 WATB 170400 METAR WATB 170400Z 10010KT 9999 FEW020 33/18 Q1014 NOSIG=  
17-Sep-2021 SAID33 WATB 170500 METAR WATB 170500Z 05006KT 9999 SCT020 31/16 Q1013 NOSIG=  
17-Sep-2021 SAID33 WATB 170600 METAR WATB 170600Z 10013KT 9999 SCT020 33/16 Q1012 NOSIG=  
18-Sep-2021 SAID33 WATB 180000 METAR WATB 180000Z 11004KT 9999 FEW020 27/18 Q1016 NOSIG=  
18-Sep-2021 SAID33 WATB 180100 METAR WATB 180100Z 08003KT 9999 FEW020 30/16 Q1016 NOSIG=  
18-Sep-2021 SAID33 WATB 180200 METAR WATB 180200Z 10008KT 9999 FEW020 31/15 Q1016 NOSIG=  
18-Sep-2021 SAID33 WATB 180300 METAR WATB 180300Z 10018KT 9999 FEW020 32/15 Q1016 NOSIG=  
18-Sep-2021 SAID33 WATB 180400 METAR WATB 180400Z 12015KT 9999 FEW020 32/12 Q1015 NOSIG=  
18-Sep-2021 SAID33 WATB 180500 METAR WATB 180500Z 13013KT 9999 FEW020 32/13 Q1014 NOSIG=  
18-Sep-2021 SAID33 WATB 180600 METAR WATB 180600Z 12010KT 9999 FEW020 32/14 Q1013 NOSIG=  
19-Sep-2021 SAID33 WATB 190000 METAR WATB 190000Z 11005KT 9999 FEW020 26/19 Q1016 NOSIG=  
19-Sep-2021 SAID33 WATB 190100 METAR WATB 190100Z 17007KT 9999 FEW020 29/17 Q1016 NOSIG=  
19-Sep-2021 SAID33 WATB 190200 METAR WATB 190200Z 10004KT 9999 FEW020 30/17 Q1017 NOSIG=  
19-Sep-2021 SAID33 WATB 190300 METAR WATB 190300Z 12006KT 9999 FEW020 31/16 Q1016 NOSIG=  
19-Sep-2021 SAID33 WATB 190400 METAR WATB 190400Z 16009KT 9999 FEW020 32/17 Q1015 NOSIG=  
19-Sep-2021 SAID33 WATB 190500 METAR WATB 190500Z 24005KT 9999 FEW020 31/17 Q1014 NOSIG=  
19-Sep-2021 SAID33 WATB 190600 METAR WATB 190600Z 16008KT 9999 FEW020 31/18 Q1013 NOSIG=  
20-Sep-2021 SAID33 WATB 200000 METAR WATB 200000Z 34003KT 9999 FEW020 25/20 Q1016 NOSIG=  
20-Sep-2021 SAID33 WATB 200100 METAR WATB 200100Z 15006KT 8000 BKN018 28/20 Q1016 NOSIG=  
20-Sep-2021 SAID33 WATB 200200 METAR WATB 200200Z 14005KT 9999 BKN018 29/17 Q1016 NOSIG=  
20-Sep-2021 SAID33 WATB 200300 METAR WATB 200300Z 15009KT 9999 BKN018 31/10 Q1015 NOSIG=  
20-Sep-2021 SAID33 WATB 200400 METAR WATB 200400Z 13010KT 9999 BKN018 31/10 Q1015 NOSIG=  
20-Sep-2021 SAID33 WATB 200500 METAR WATB 200500Z 12010KT 9999 BNK018 32/13 Q1014 NOSIG=  
20-Sep-2021 SAID33 WATB 200600 METAR WATB 200600Z 13009KT 9999 BKN018 31/13 Q1013 NOSIG=  
21-Sep-2021 SAID33 WATB 210000 METAR WATB 210000Z 22002KT 9999 BKN018 25/20 Q1016 NOSIG=  
21-Sep-2021 SAID33 WATB 210100 METAR WATB 210100Z 13005KT 9999 SCT020 29/16 Q1016 NOSIG=  
21-Sep-2021 SAID33 WATB 210200 METAR WATB 210200Z 06009KT 9999 SCT020 31/17 Q1016 NOSIG=  
21-Sep-2021 SAID33 WATB 210400 METAR WATB 210400Z 13009KT 9999 FEW020 34/14 Q1013 NOSIG=  
21-Sep-2021 SAID33 WATB 210500 METAR WATB 210500Z 13014KT 9999 FEW020 33/15 Q1012 NOSIG=  
21-Sep-2021 SAID33 WATB 210600 METAR WATB 210600Z 17010KT 9999 SCT020 31/18 Q1012 NOSIG=  
22-Sep-2021 SAID33 WATB 220000 METAR WATB 220000Z 09003KT 9999 FEW020 28/20 Q1016 NOSIG=  
22-Sep-2021 SAID33 WATB 220200 METAR WATB 220200Z 11008KT 9999 FEW020 31/18 Q1016 NOSIG=  
22-Sep-2021 SAID33 WATB 220300 METAR WATB 220300Z 06007KT 9999 SCT020 32/17 Q1014 NOSIG=  
22-Sep-2021 SAID33 WATB 220400 METAR WATB 220400Z 10012KT 9999 BKN020 33/17 Q1014 NOSIG=  
22-Sep-2021 SAID33 WATB 220600 METAR WATB 220600Z 08010KT 9999 BKN020 29/19 Q1013 NOSIG=  
23-Sep-2021 SAID33 WATB 230000 METAR WATB 230000Z 04002KT 9999 FEW020 24/19 Q1016 NOSIG=  
23-Sep-2021 SAID33 WATB 230100 METAR WATB 230100Z 18003KT 9999 FEW020 28/19 Q1016 NOSIG=  
23-Sep-2021 SAID33 WATB 230200 METAR WATB 230200Z 10007KT 9999 FEW020 30/17 Q1016 NOSIG=  
23-Sep-2021 SAID33 WATB 230230 METAR WATB 230230Z 11008KT 9999 FEW020 31/18 Q1015 NOSIG=  
23-Sep-2021 SAID33 WATB 230300 METAR WATB 230300Z 11008KT 9999 FEW020 31/18 Q1015 NOSIG=  
23-Sep-2021 SAID33 WATB 230400 METAR WATB 230400Z 11006KT 9999 SCT020 30/17 Q1014 NOSIG=  
23-Sep-2021 SAID33 WATB 230500 METAR WATB 230500Z 11009KT 9999 SCT020 30/18 Q1013 NOSIG=  
23-Sep-2021 SAID33 WATB 230600 METAR WATB 230600Z 12012KT 9999 BKN020 30/20 Q1013 NOSIG=  
24-Sep-2021 SAID33 WATB 240000 METAR WATB 240000Z 06003KT 9999 FEW020 27/18 Q1015 NOSIG=  
24-Sep-2021 SAID33 WATB 240100 METAR WATB 240100Z 13007KT 9999 FEW020 29/18 Q1016 NOSIG=  
24-Sep-2021 SAID33 WATB 240200 METAR WATB 240200Z 01002KT 9999 FEW020 29/18 Q1015 NOSIG=  
24-Sep-2021 SAID33 WATB 240300 METAR WATB 240300Z 05006KT 9999 SCT020 30/16 Q1014 NOSIG=  
24-Sep-2021 SAID33 WATB 240400 METAR WATB 240400Z 10006KT 9999 SCT020 32/15 Q1014 NOSIG=  
24-Sep-2021 SAID33 WATB 240500 METAR WATB 240500Z 08008KT 9999 SCT020 31/16 Q1013 NOSIG=  
24-Sep-2021 SAID33 WATB 240600 METAR WATB 240600Z 17009KT 9999 BKN020 29/20 Q1012 NOSIG=  
25-Sep-2021 SAID33 WATB 250000 METAR WATB 250000Z 11004KT 9999 BKN020 24/20 Q1015 NOSIG=  
25-Sep-2021 SAID33 WATB 250100 METAR WATB 250100Z 12003KT 9999 BKN020 26/19 Q1015 NOSIG=  
25-Sep-2021 SAID33 WATB 250200 METAR WATB 250200Z 31002KT 9999 BKN020 27/20 Q1014 NOSIG=  
25-Sep-2021 SAID33 WATB 250300 METAR WATB 250300Z 16005KT 9999 SCT020 31/17 Q1013 NOSIG=  
25-Sep-2021 SAID33 WATB 250400 METAR WATB 250400Z 09007KT 9999 SCT020 30/17 Q1012 NOSIG=  
25-Sep-2021 SAID33 WATB 250500 METAR WATB 250500Z 07005KT 9999 BKN020 31/16 Q1012 NOSIG=  
25-Sep-2021 SAID33 WATB 250600 METAR WATB 250600Z 11008KT 9999 BKN020 29/21 Q1011 NOSIG=  
26-Sep-2021 SAID33 WATB 260000 METAR WATB 260000Z 12003KT 9999 FEW020 26/15 Q1014 NOSIG=  
26-Sep-2021 SAID33 WATB 260100 METAR WATB 260100Z 03004KT 9999 FEW020 28/16 Q1014 NOSIG=  
26-Sep-2021 SAID33 WATB 260200 METAR WATB 260200Z 03007KT 9999 FEW020 29/13 Q1014 NOSIG=  
26-Sep-2021 SAID33 WATB 260300 METAR WATB 260300Z 05004KT 9999 FEW020 31/14 Q1013 NOSIG=  
26-Sep-2021 SAID33 WATB 260400 METAR WATB 260400Z 04003KT 9999 FEW020 32/14 Q1012 NOSIG=  
26-Sep-2021 SAID33 WATB 260500 METAR WATB 260500Z 11013KT 9999 SCT020 32/18 Q1011 NOSIG=  
26-Sep-2021 SAID33 WATB 260600 METAR WATB 260600Z 09010KT 9999 BKN018 30/18 Q1011 NOSIG=  
27-Sep-2021 SAID33 WATB 270000 METAR WATB 270000Z 10002KT 9999 FEW020 27/20 Q1015 NOSIG=  
27-Sep-2021 SAID33 WATB 270100 METAR WATB 270100Z 06005KT 9999 FEW020 29/20 Q1015 NOSIG=  
27-Sep-2021 SAID33 WATB 270200 METAR WATB 270200Z 16007KT 9999 FEW020 29/20 Q1014 NOSIG=  
27-Sep-2021 SPID33 WATB 270300 SPECI WATB 270202Z AUTO VRB03KT //// ////// 30/20 Q1014=  
27-Sep-2021 SAID33 WATB 270300 METAR WATB 270300Z 20002KT 9999 SCT020 31/20 Q1013 NOSIG=  
27-Sep-2021 SAID33 WATB 270400 METAR WATB 270400Z 16011KT 9999 SCT020 31/21 Q1013 NOSIG=  
27-Sep-2021 SAID33 WATB 270500 METAR WATB 270500Z 17008KT 9999 BKN018 30/21 Q1012 NOSIG=  
27-Sep-2021 SAID33 WATB 270600 METAR WATB 270600Z 18010KT 9999 BKN018 29/21 Q1011 NOSIG=  
28-Sep-2021 SAID33 WATB 280000 METAR WATB 280000Z 06002KT 9999 FEW020 26/19 Q1014 NOSIG=  
28-Sep-2021 SAID33 WATB 280100 METAR WATB 280100Z 17006KT 9999 FEW020 29/21 Q1014 NOSIG=  
28-Sep-2021 SPID33 WATB 280200 SPECI WATB 280120Z AUTO VRB03KT //// ////// 30/21 Q1014=  
28-Sep-2021 SAID33 WATB 280200 METAR WATB 280200Z 13005KT 9999 SCT020 28/21 Q1014 NOSIG=  
28-Sep-2021 SAID33 WATB 280300 METAR WATB 280300Z 13013KT 9999 SCT020 32/21 Q1013 NOSIG=  
28-Sep-2021 SAID33 WATB 280400 METAR WATB 280400Z 16008KT 9999 SCT020 32/21 Q1012 NOSIG=  
28-Sep-2021 SAID33 WATB 280500 METAR WATB 280500Z 16008KT 9999 BKN020 32/21 Q1011 NOSIG=  
28-Sep-2021 SAID33 WATB 280600 METAR WATB 280600Z 18013KT 9999 BKN020 31/21 Q1011 NOSIG=  
29-Sep-2021 SAID33 WATB 290000 METAR WATB 290000Z 05005KT 9999 FEW020 27/20 Q1015 NOSIG=  
29-Sep-2021 SAID33 WATB 290100 METAR WATB 290100Z 10005KT 9999 FEW020 29/20 Q1015 NOSIG=  
29-Sep-2021 SAID33 WATB 290200 METAR WATB 290200Z 09008KT 9999 FEW020 31/19 Q1015 NOSIG=  
29-Sep-2021 SAID33 WATB 290300 METAR WATB 290300Z 14004KT 9999 FEW020 33/18 Q1013 NOSIG=  
29-Sep-2021 SAID33 WATB 290400 METAR WATB 290400Z 03005KT 9999 FEW020 33/18 Q1013 NOSIG=  
29-Sep-2021 SAID33 WATB 290500 METAR WATB 290500Z 12011KT 9999 SCT020 34/19 Q1012 NOSIG=  
29-Sep-2021 SAID33 WATB 290600 METAR WATB 290600Z 06010KT 9999 SCT020 34/18 Q1011 NOSIG=  
30-Sep-2021 SAID33 WATB 300000 METAR WATB 300000Z 09002KT 9999 FEW020 27/20 Q1016 NOSIG=  
30-Sep-2021 SAID33 WATB 300008 METAR WATB 300008Z 09002KT 9999 FEW020 27/20 Q1016 NOSIG=  
30-Sep-2021 SAID33 WATB 300100 METAR WATB 300100Z 11006KT 9999 FEW020 29/19 Q1016 NOSIG=  
30-Sep-2021 SAID33 WATB 300200 METAR WATB 300200Z 11008KT 9999 FEW020 30/19 Q1016 NOSIG=  
30-Sep-2021 SAID33 WATB 300300 METAR WATB 300300Z 11009KT 9999 SCT020 32/19 Q1015 NOSIG=  
30-Sep-2021 SAID33 WATB 300400 METAR WATB 300400Z 07007KT 9999 SCT020 32/17 Q1014 NOSIG=  
30-Sep-2021 SAID33 WATB 300600 METAR WATB 300600Z 33006KT 9999 SCT020 34/17 Q1011 NOSIG=  
01-Oct-2021 SAID33 WATB 010000 METAR WATB 010000Z 13004KT 9999 FEW018 28/21 Q1015 NOSIG=  
01-Oct-2021 SAID33 WATB 010100 METAR WATB 010100Z 12006KT 9999 SCT020 29/21 Q1015 NOSIG=  
01-Oct-2021 SAID33 WATB 010200 METAR WATB 010200Z 13004KT 9999 SCT020 30/20 Q1015 NOSIG=  
01-Oct-2021 SAID33 WATB 010300 METAR WATB 010300Z 09007KT 9999 SCT020 32/19 Q1014 NOSIG=  
01-Oct-2021 SAID33 WATB 010400 METAR WATB 010400Z 11008KT 9999 SCT020 32/17 Q1013 NOSIG=  
01-Oct-2021 SAID33 WATB 010500 METAR WATB 010500Z 11009KT 9999 SCT020 34/16 Q1011 NOSIG=  
01-Oct-2021 SPID33 WATB 010600 SPECI WATB 010502Z AUTO 11007KT 080V140 //// ////// 34/16 Q1011=  
01-Oct-2021 SAID33 WATB 010600 METAR WATB 010600Z 12009KT 9999 SCT020 36/18 Q1010 NOSIG=  
02-Oct-2021 SAID33 WATB 020000 METAR WATB 020000Z 12005KT 9999 FEW020 27/21 Q1016 NOSIG=  
02-Oct-2021 SAID33 WATB 020100 METAR WATB 020100Z 15005KT 9999 SCT020 29/20 Q1015 NOSIG=  
02-Oct-2021 SAID33 WATB 020200 METAR WATB 020200Z 12007KT 9999 BKN020 31/21 Q1015 NOSIG=  
02-Oct-2021 SPID33 WATB 020300 SPECI WATB 020235Z AUTO VRB05KT //// ////// 32/19 Q1014=  
02-Oct-2021 SAID33 WATB 020300 METAR WATB 020300Z 12007KT 9999 BKN020 31/19 Q1014 NOSIG=  
02-Oct-2021 SAID33 WATB 020400 METAR WATB 020400Z 13006KT 9999 BKN020 33/20 Q1013 NOSIG=  
02-Oct-2021 SAID33 WATB 020500 METAR WATB 020500Z 13010KT 9999 BKN020 33/19 Q1011 NOSIG=  
02-Oct-2021 SAID33 WATB 020600 METAR WATB 020600Z 10008KT 9999 BKN020 34/20 Q1010 NOSIG=  
03-Oct-2021 SAID33 WATB 030000 METAR WATB 030000Z 12003KT 9999 BKN018 25/21 Q1015 NOSIG=  
03-Oct-2021 SAID33 WATB 030100 METAR WATB 030100Z 13004KT 9999 BKN017 27/20 Q1015 NOSIG=  
03-Oct-2021 SPID33 WATB 030300 SPECI WATB 030158Z AUTO 15005KT 110V200 //// ////// 30/17 Q1014=  
03-Oct-2021 SAID33 WATB 030200 METAR WATB 030200Z 15009KT 9999 BKN017 30/17 Q1014 NOSIG=  
03-Oct-2021 SAID33 WATB 030300 METAR WATB 030300Z 17009KT 9999 BKN017 29/19 Q1014 NOSIG=  
03-Oct-2021 SAID33 WATB 030400 METAR WATB 030400Z 16007KT 9999 BKN017 29/20 Q1013 NOSIG=  
03-Oct-2021 SPID33 WATB 030500 SPECI WATB 030414Z AUTO 14009KT 120V190 //// ////// 31/20 Q1012=  
03-Oct-2021 SAID33 WATB 030500 METAR WATB 030500Z 17008KT 9999 BKN017 30/20 Q1012 NOSIG=  
03-Oct-2021 SAID33 WATB 030600 METAR WATB 030600Z 12009KT 9999 BKN017 30/20 Q1011 NOSIG=  
04-Oct-2021 SAID33 WATB 040000 METAR WATB 040000Z 05006KT 9999 FEW020 27/20 Q1014 NOSIG=  
04-Oct-2021 SAID33 WATB 040100 METAR WATB 040100Z 11004KT 9999 FEW020 29/20 Q1014 NOSIG=  
04-Oct-2021 SAID33 WATB 040200 METAR WATB 040200Z 11006KT 9999 SCT020 29/20 Q1013 NOSIG=  
04-Oct-2021 SPID33 WATB 040300 SPECI WATB 040203Z AUTO VRB04KT //// ////// 31/20 Q1013=  
04-Oct-2021 SAID33 WATB 040300 METAR WATB 040300Z 13006KT 9999 SCT020 32/20 Q1012 NOSIG=  
04-Oct-2021 SAID33 WATB 040400 METAR WATB 040400Z 17006KT 9999 SCT020 32/20 Q1011 NOSIG=  
04-Oct-2021 SAID33 WATB 040500 METAR WATB 040500Z 12009KT 9999 SCT020 32/20 Q1010 NOSIG=  
04-Oct-2021 SAID33 WATB 040600 METAR WATB 040600Z 12006KT 9999 SCT020 31/21 Q1010 NOSIG=  
05-Oct-2021 SAID33 WATB 050000 METAR WATB 050000Z 34006KT 9999 FEW020 28/21 Q1015 NOSIG=  
05-Oct-2021 SAID33 WATB 050100 METAR WATB 050100Z 34009KT 9999 SCT020 29/20 Q1015 NOSIG=  
05-Oct-2021 SAID33 WATB 050200 METAR WATB 050200Z 15007KT 9999 SCT020 30/20 Q1014 NOSIG=  
05-Oct-2021 SAID33 WATB 050300 METAR WATB 050300Z 18009KT 9999 FEW020 31/20 Q1013 NOSIG=  
05-Oct-2021 SAID33 WATB 050400 METAR WATB 050400Z 09010KT 9999 SCT020 33/19 Q1012 NOSIG=  
05-Oct-2021 SAID33 WATB 050500 METAR WATB 050500Z 11009KT 9999 SCT020 32/20 Q1011 NOSIG=  
05-Oct-2021 SAID33 WATB 050600 METAR WATB 050600Z 15010KT 9999 SCT020 32/21 Q1010 NOSIG=  
06-Oct-2021 SAID33 WATB 060000 METAR WATB 060000Z 07004KT 9999 FEW020 27/20 Q1015 NOSIG=  
06-Oct-2021 SAID33 WATB 060100 METAR WATB 060100Z 12004KT 9999 SCT018 28/21 Q1015 NOSIG=  
06-Oct-2021 SAID33 WATB 060200 METAR WATB 060200Z 10007KT 9999 SCT018 30/20 Q1015 NOSIG=  
06-Oct-2021 SAID33 WATB 060300 METAR WATB 060300Z 14008KT 9999 BKN018 31/20 Q1014 NOSIG=  
06-Oct-2021 SAID33 WATB 060400 METAR WATB 060400Z 15005KT 9999 BKN018 30/20 Q1013 NOSIG=  
06-Oct-2021 SAID33 WATB 060500 METAR WATB 060500Z 13010KT 9999 BKN018 30/21 Q1012 NOSIG=  
06-Oct-2021 SAID33 WATB 060600 METAR WATB 060600Z 18011KT 9999 BKN018 31/20 Q1012 NOSIG=  
07-Oct-2021 SAID33 WATB 070000 METAR WATB 070000Z 09005KT 9999 FEW020 28/20 Q1015 NOSIG=  
07-Oct-2021 SAID33 WATB 070100 METAR WATB 070100Z 21002KT 9999 SCT020 29/20 Q1015 NOSIG=  
07-Oct-2021 SAID33 WATB 070200 METAR WATB 070200Z 12007KT 9999 SCT020 30/19 Q1015 NOSIG=  
07-Oct-2021 SAID33 WATB 070300 METAR WATB 070300Z 19006KT 9999 SCT020 30/19 Q1013 NOSIG=  
07-Oct-2021 SAID33 WATB 070400 METAR WATB 070400Z 11003KT 9999 SCT020 32/20 Q1012 NOSIG=  
07-Oct-2021 SAID33 WATB 070500 METAR WATB 070500Z 16002KT 9999 SCT018 32/19 Q1012 NOSIG=  
07-Oct-2021 SAID33 WATB 070600 METAR WATB 070600Z 11008KT 9999 SCT018 33/20 Q1011 NOSIG=  
08-Oct-2021 SAID33 WATB 080000 METAR WATB 080000Z 12005KT 9999 FEW020 28/20 Q1015 NOSIG=  
08-Oct-2021 SAID33 WATB 080100 METAR WATB 080100Z 12002KT 9999 FEW020 30/20 Q1015 NOSIG=  
08-Oct-2021 SAID33 WATB 080200 METAR WATB 080200Z 15003KT 9999 FEW020 31/20 Q1014 NOSIG=  
08-Oct-2021 SAID33 WATB 080300 METAR WATB 080300Z 11006KT 9999 FEW020 32/19 Q1013 NOSIG=  
08-Oct-2021 SAID33 WATB 080400 METAR WATB 080400Z 13007KT 9999 FEW020 33/20 Q1012 NOSIG=  
08-Oct-2021 SAID33 WATB 080500 METAR WATB 080500Z 08007KT 9999 FEW020 32/20 Q1012 NOSIG=  
08-Oct-2021 SAID33 WATB 080600 METAR WATB 080600Z 12007KT 9999 SCT020 32/20 Q1011 NOSIG=  
09-Oct-2021 SAID33 WATB 090000 METAR WATB 090000Z 12006KT 9999 FEW020 28/20 Q1014 NOSIG=  
09-Oct-2021 SAID33 WATB 090100 METAR WATB 090100Z 17006KT 9999 FEW020 30/20 Q1014 NOSIG=  
09-Oct-2021 SAID33 WATB 090200 METAR WATB 090200Z 16007KT 9999 FEW020 30/20 Q1014 NOSIG=  
09-Oct-2021 SAID33 WATB 090300 METAR WATB 090300Z 15010KT 9999 FEW020 31/19 Q1013 NOSIG=  
09-Oct-2021 SAID33 WATB 090400 METAR WATB 090400Z 14006KT 9999 FEW020 32/19 Q1013 NOSIG=  
09-Oct-2021 SAID33 WATB 090500 METAR WATB 090500Z 15006KT 9999 FEW020 32/18 Q1012 NOSIG=  
09-Oct-2021 SAID33 WATB 090600 METAR WATB 090600Z 09008KT 9999 FEW020 32/16 Q1011 NOSIG=  
10-Oct-2021 SAID33 WATB 100000 METAR WATB 100000Z 12007KT 9999 FEW020 29/19 Q1014 NOSIG=  
10-Oct-2021 SAID33 WATB 100100 METAR WATB 100100Z 15009KT 9999 FEW020 28/19 Q1014 NOSIG=  
10-Oct-2021 SAID33 WATB 100200 METAR WATB 100200Z 14007KT 9999 SCT020 30/19 Q1014 NOSIG=  
10-Oct-2021 SAID33 WATB 100300 METAR WATB 100300Z 06007KT 9999 SCT020 32/17 Q1013 NOSIG=  
10-Oct-2021 SAID33 WATB 100400 METAR WATB 100400Z 16010KT 9999 SCT020 32/18 Q1012 NOSIG=  
10-Oct-2021 SAID33 WATB 100500 METAR WATB 100500Z 17010KT 9999 SCT020 33/18 Q1011 NOSIG=  
10-Oct-2021 SAID33 WATB 100600 METAR WATB 100600Z 14006KT 9999 SCT020 33/17 Q1011 NOSIG=  
11-Oct-2021 SAID33 WATB 110000 METAR WATB 110000Z 03004KT 9999 FEW020 27/18 Q1014 NOSIG=  
11-Oct-2021 SAID33 WATB 110100 METAR WATB 110100Z 07002KT 9999 FEW020 29/18 Q1014 NOSIG=  
11-Oct-2021 SPID33 WATB 110200 SPECI WATB 110143Z AUTO 03005KT 310V100 //// ////// 31/16 Q1014=  
11-Oct-2021 SAID33 WATB 110200 METAR WATB 110200Z 05004KT 9999 FEW020 31/16 Q1013 NOSIG=  
11-Oct-2021 SAID33 WATB 110300 METAR WATB 110300Z 02006KT 9999 FEW020 33/17 Q1012 NOSIG=  
11-Oct-2021 SAID33 WATB 110400 METAR WATB 110400Z 12007KT 9999 SCT020 34/16 Q1011 NOSIG=  
11-Oct-2021 SAID33 WATB 110500 METAR WATB 110500Z 19009KT 9999 SCT020 34/15 Q1010 NOSIG=  
11-Oct-2021 SAID33 WATB 110600 METAR WATB 110600Z 16008KT 9999 SCT020 34/13 Q1010 NOSIG=  
12-Oct-2021 SAID33 WATB 120000 METAR WATB 120000Z 05002KT 9999 FEW020 28/18 Q1014 NOSIG=  
12-Oct-2021 SAID33 WATB 120100 METAR WATB 120100Z 09005KT 9999 FEW020 30/17 Q1013 NOSIG=  
12-Oct-2021 SAID33 WATB 120200 METAR WATB 120200Z 12005KT 9999 FEW020 32/17 Q1013 NOSIG=  
12-Oct-2021 SAID33 WATB 120300 METAR WATB 120300Z 17003KT 9999 FEW020 34/17 Q1012 NOSIG=  
12-Oct-2021 SAID33 WATB 120400 METAR WATB 120400Z 16004KT 9999 SCT020 34/15 Q1011 NOSIG=  
12-Oct-2021 SAID33 WATB 120500 METAR WATB 120500Z 15009KT 9999 SCT020 35/15 Q1010 NOSIG=  
12-Oct-2021 SAID33 WATB 120600 METAR WATB 120600Z 16009KT 9999 SCT020 33/15 Q1010 NOSIG=  
13-Oct-2021 SAID33 WATB 130000 METAR WATB 130000Z 02003KT 9999 FEW020 28/16 Q1013 NOSIG=  
13-Oct-2021 SAID33 WATB 130100 METAR WATB 130100Z 03005KT 9999 FEW020 31/16 Q1013 NOSIG =  
13-Oct-2021 SAID33 WATB 130200 METAR WATB 130200Z 01004KT 9999 FEW020 33/15 Q1012 NOSIG=  
13-Oct-2021 SPID33 WATB 130300 SPECI WATB 130242Z AUTO VRB04KT //// ////// 35/16 Q1012=  
13-Oct-2021 SAID33 WATB 130300 METAR WATB 130300Z 05008KT 9999 FEW020 34/15 Q1012 NOSIG =  
13-Oct-2021 SAID33 WATB 130400 METAR WATB 130400Z 12003KT 9999 FEW020 34/11 Q1011 NOSIG =  
13-Oct-2021 SAID33 WATB 130500 METAR WATB 130500Z 08003KT 9999 FEW020 35/13 Q1009 NOSIG =  
13-Oct-2021 SAID33 WATB 130600 METAR WATB 130600Z 11005KT 9999 FEW020 35/17 Q1009 NOSIG=  
14-Oct-2021 SAID33 WATB 140000 METAR WATB 140000Z 03004KT 9999 FEW020 28/21 Q1014 NOSIG=  
14-Oct-2021 SAID33 WATB 140100 METAR WATB 140100Z 14002KT 9999 FEW020 30/20 Q1014 NOSIG=  
14-Oct-2021 SAID33 WATB 140200 METAR WATB 140200Z 34002KT 9999 SCT018 31/20 Q1013 NOSIG=  
14-Oct-2021 SAID33 WATB 140300 METAR WATB 140300Z 01005KT 9999 BKN017 32/19 Q1013 NOSIG=  
14-Oct-2021 SAID33 WATB 140400 METAR WATB 140400Z 15004KT 9999 BKN016 32/21 Q1012 NOSIG=  
14-Oct-2021 SPID33 WATB 140428 SPECI WATB 140428Z 04005KT 7000 -RA BKN016 30/22 Q1011=  
14-Oct-2021 SPID33 WATB 140445 SPECI WATB 140445Z 04005KT 6000 TSRA FEW014CB BKN015 27/23 Q1011=  
14-Oct-2021 SAID33 WATB 140500 METAR WATB 140500Z 04005KT 6000 TSRA FEW014CB BKN015 27/23 Q1011=  
14-Oct-2021 SAID33 WATB 140600 METAR WATB 140600Z 13005KT 4000 TSRA FEW012CB BKN013 23/22 Q1011=  
15-Oct-2021 SAID33 WATB 150000 METAR WATB 150000Z 29002KT 9999 BKN016 28/22 Q1013 NOSIG=  
15-Oct-2021 SAID33 WATB 150100 METAR WATB 150100Z 29002KT 9999 BKN016 27/22 Q1014 NOSIG=  
15-Oct-2021 SAID33 WATB 150200 METAR WATB 150200Z 11004KT 9999 BKN016 29/22 Q1013 NOSIG=  
15-Oct-2021 SAID33 WATB 150300 METAR WATB 150300Z 06005KT 9999 BKN016 31/21 Q1012 NOSIG=  
15-Oct-2021 SAID33 WATB 150400 METAR WATB 150400Z 16004KT 9999 BKN016 32/21 Q1011=  
15-Oct-2021 SAID33 WATB 150500 METAR WATB 150500Z 11007KT 9999 BKN016 32/22 Q1010 NOSIG=  
15-Oct-2021 SAID33 WATB 150600 METAR WATB 150600Z 07006KT 9999 BKN016 29/22 Q1009 NOSIG=  
16-Oct-2021 SAID33 WATB 160000 METAR WATB 160000Z 09002KT 9999 FEW020 28/22 Q1014 NOSIG=  
16-Oct-2021 SAID33 WATB 160100 METAR WATB 160100Z 09003KT 9999 FEW020 31/20 Q1014 NOSIG=  
16-Oct-2021 SAID33 WATB 160200 METAR WATB 160200Z 05006KT 9999 FEW020 31/20 Q1014 NOSIG=  
16-Oct-2021 SAID33 WATB 160300 METAR WATB 160300Z 08005KT 9999 SCT020 33/20 Q1013 NOSIG=  
16-Oct-2021 SAID33 WATB 160400 METAR WATB 160400Z 05007KT 9999 SCT020 34/19 Q1011 NOSIG=  
16-Oct-2021 SAID33 WATB 160500 METAR WATB 160500Z 05006KT 9999 SCT018 33/20 Q1011 NOSIG=  
16-Oct-2021 SAID33 WATB 160600 METAR WATB 160600Z 05010KT 9999 SCT018 33/21 Q1010 NOSIG=  
17-Oct-2021 SAID33 WATB 170000 METAR WATB 170000Z 11004KT 9999 FEW018 29/21 Q1015=  
17-Oct-2021 SAID33 WATB 170100 METAR WATB 170100Z 07005KT 9999 FEW018 29/21 Q1015 NOSIG=  
17-Oct-2021 SAID33 WATB 170200 METAR WATB 170200Z 03007KT 9999 SCT018 31/20 Q1015 NOSIG=  
17-Oct-2021 SAID33 WATB 170300 METAR WATB 170300Z 06007KT 9999 SCT018 31/20 Q1015 NOSIG=  
17-Oct-2021 SAID33 WATB 170400 METAR WATB 170400Z 05007KT 9999 SCT018 32/20 Q1014 NOSIG=  
17-Oct-2021 SAID33 WATB 170500 METAR WATB 170500Z 05007KT 9999 SCT018 32/20 Q1013 NOSIG=  
17-Oct-2021 SPID33 WATB 170515 SPECI WATB 170515Z 05007KT 9999 TS FEW017CB SCT018 32/20 Q1013 RMK CB TO E=  
17-Oct-2021 SAID33 WATB 170600 METAR WATB 170600Z 05006KT 9999 TS FEW017CB SCT018 33/20 Q1013=  
18-Oct-2021 SAID33 WATB 180000 METAR WATB 180000Z 04003KT 9999 FEW020 28/22 Q1016 NOSIG=  
18-Oct-2021 SAID33 WATB 180100 METAR WATB 180100Z 09009KT 9999 FEW018 30/21 Q1016 NOSIG=  
18-Oct-2021 SAID33 WATB 180200 METAR WATB 180200Z 06005KT 9999 SCT018 31/20 Q1015 NOSIG=  
18-Oct-2021 SAID33 WATB 180300 METAR WATB 180300Z 35010KT 9999 SCT018 32/20 Q1015 NOSIG=  
18-Oct-2021 SAID33 WATB 180400 METAR WATB 180400Z 06010KT 9999 SCT017 33/19 Q1014 NOSIG=  
18-Oct-2021 SAID33 WATB 180500 METAR WATB 180500Z 06009KT 9999 SCT017 34/19 Q1013 NOSIG=  
18-Oct-2021 SAID33 WATB 180600 METAR WATB 180600Z 05009KT 9999 SCT018 34/20 Q1013 NOSIG=  
19-Oct-2021 SAID33 WATB 190000 METAR WATB 190000Z 02003KT 9999 FEW020 28/20 Q1018 NOSIG=  
19-Oct-2021 SAID33 WATB 190100 METAR WATB 190100Z 06006KT 9999 FEW020 30/21 Q1018 NOSIG=  
19-Oct-2021 SAID33 WATB 190200 METAR WATB 190200Z 16007KT 9999 SCT018 32/20 Q1018 NOSIG=  
19-Oct-2021 SAID33 WATB 190300 METAR WATB 190300Z 19011KT 9999 SCT018 32/21 Q1017 NOSIG=  
19-Oct-2021 SAID33 WATB 190400 METAR WATB 190400Z 16005KT 9999 SCT018 32/20 Q1016 NOSIG=  
19-Oct-2021 SAID33 WATB 190500 METAR WATB 190500Z 07008KT 9999 SCT018 33/21 Q1015 NOSIG=  
19-Oct-2021 SAID33 WATB 190600 METAR WATB 190600Z 10013KT 8000 BKN016 32/22 Q1014=  
20-Oct-2021 SAID33 WATB 200000 METAR WATB 200000Z 11002KT 9999 FEW020 29/22 Q1017 NOSIG=  
20-Oct-2021 SAID33 WATB 200100 METAR WATB 200100Z 14006KT 9999 FEW018 30/21 Q1017 NOSIG=  
20-Oct-2021 SAID33 WATB 200200 METAR WATB 200200Z 15011KT 9999 SCT018 30/21 Q1017 NOSIG=  
20-Oct-2021 SAID33 WATB 200300 METAR WATB 200300Z 16009KT 9999 SCT018 31/20 Q1016 NOSIG=  
20-Oct-2021 SAID33 WATB 200400 METAR WATB 200400Z 14012KT 9999 SCT018 33/20 Q1016 NOSIG=  
20-Oct-2021 SAID33 WATB 200500 METAR WATB 200500Z 14007KT 9999 SCT018 33/20 Q1014 NOSIG=  
20-Oct-2021 SAID33 WATB 200600 METAR WATB 200600Z 16012KT 9999 SCT018 31/21 Q1014 NOSIG=  
21-Oct-2021 SAID33 WATB 210000 METAR WATB 210000Z 11005KT 9999 FEW020 28/20 Q1016 NOSIG=  
21-Oct-2021 SAID33 WATB 210100 METAR WATB 210100Z 05004KT 9999 FEW020 30/19 Q1016 NOSIG=  
21-Oct-2021 SAID33 WATB 210200 METAR WATB 210200Z 06008KT 9999 FEW020 32/18 Q1015 NOSIG=  
21-Oct-2021 SAID33 WATB 210300 METAR WATB 210300Z 16008KT 9999 FEW020 34/17 Q1015 NOSIG=  
21-Oct-2021 SAID33 WATB 210400 METAR WATB 210400Z 20007KT 9999 SCT020 35/18 Q1014 NOSIG=  
21-Oct-2021 SAID33 WATB 210500 METAR WATB 210500Z 13008KT 9999 SCT020 35/17 Q1013 NOSIG=  
21-Oct-2021 SAID33 WATB 210600 METAR WATB 210600Z 12010KT 9999 SCT018 36/17 Q1012 NOSIG=  
22-Oct-2021 SAID33 WATB 220000 METAR WATB 220000Z 06004KT 9999 FEW020 28/21 Q1016 NOSIG=  
22-Oct-2021 SAID33 WATB 220100 METAR WATB 220100Z 06004KT 9999 FEW020 30/20 Q1016 NOSIG=  
22-Oct-2021 SAID33 WATB 220200 METAR WATB 220200Z 09010KT 9999 FEW020 31/21 Q1016 NOSIG=  
22-Oct-2021 SAID33 WATB 220300 METAR WATB 220300Z 05004KT 9999 FEW020 33/19 Q1015 NOSIG=  
22-Oct-2021 SAID33 WATB 220400 METAR WATB 220400Z 07006KT 9999 FEW020 34/18 Q1014 NOSIG=  
22-Oct-2021 SAID33 WATB 220500 METAR WATB 220500Z 17008KT 9999 SCT018 35/17 Q1013 NOSIG=  
22-Oct-2021 SAID33 WATB 220600 METAR WATB 220600Z 15008KT 9999 FEW020 35/14 Q1012 NOSIG=  
23-Oct-2021 SAID33 WATB 230000 METAR WATB 230000Z 35002KT 9999 FEW020 28/17 Q1016 NOSIG=  
23-Oct-2021 SAID33 WATB 230100 METAR WATB 230100Z 07005KT 9999 FEW020 29/17 Q1016 NOSIG=  
23-Oct-2021 SAID33 WATB 230200 METAR WATB 230200Z 15004KT 9999 FEW020 32/15 Q1015 NOSIG=  
23-Oct-2021 SAID33 WATB 230300 METAR WATB 230300Z 01009KT 9999 FEW020 33/14 Q1015 NOSIG=  
23-Oct-2021 SAID33 WATB 230400 METAR WATB 230400Z 13007KT 9999 FEW020 34/16 Q1014 NOSIG=  
23-Oct-2021 SAID33 WATB 230500 METAR WATB 230500Z 10011KT 9999 SCT020 33/20 Q1013 NOSIG=  
23-Oct-2021 SAID33 WATB 230600 METAR WATB 230600Z 08011KT 9999 SCT020 32/21 Q1013 NOSIG=  
24-Oct-2021 SAID33 WATB 240000 METAR WATB 240000Z 01003KT 9999 FEW020 27/18 Q1015 NOSIG=  
24-Oct-2021 SAID33 WATB 240100 METAR WATB 240100Z 01006KT 9999 FEW020 30/17 Q1015 NOSIG=  
24-Oct-2021 SAID33 WATB 240200 METAR WATB 240200Z 04006KT 9999 FEW020 32/18 Q1015 NOSIG=  
24-Oct-2021 SAID33 WATB 240300 METAR WATB 240300Z 08007KT 9999 FEW020 33/20 Q1014 NOSIG=  
24-Oct-2021 SAID33 WATB 240400 METAR WATB 240400Z 06009KT 9999 FEW020 34/20 Q1013 NOSIG=  
24-Oct-2021 SAID33 WATB 240500 METAR WATB 240500Z 07011KT 9999 FEW020 33/21 Q1012 NOSIG=  
24-Oct-2021 SAID33 WATB 240600 METAR WATB 240600Z 04008KT 9999 FEW020 33/20 Q1012 NOSIG=  
25-Oct-2021 SAID33 WATB 250000 METAR WATB 250000Z 06004KT 9999 FEW020 27/22 Q1015 NOSIG=  
25-Oct-2021 SAID33 WATB 250100 METAR WATB 250100Z 03006KT 9999 FEW020 30/19 Q1015 NOSIG=  
25-Oct-2021 SAID33 WATB 250200 METAR WATB 250200Z 10009KT 9999 SCT020 32/19 Q1014 NOSIG=  
25-Oct-2021 SAID33 WATB 250300 METAR WATB 250300Z 17004KT 9999 SCT018 32/19 Q1013 NOSIG=  
25-Oct-2021 SAID33 WATB 250400 METAR WATB 250400Z 14008KT 9999 BKN018 33/20 Q1012 NOSIG=  
25-Oct-2021 SAID33 WATB 250500 METAR WATB 250500Z 08010KT 9999 BKN017 32/20 Q1012 NOSIG=  
25-Oct-2021 SAID33 WATB 250600 METAR WATB 250600Z 13012KT 9999 BKN017 31/21 Q1011 NOSIG=  
26-Oct-2021 SAID33 WATB 260000 METAR WATB 260000Z 07003KT 9999 FEW018 27/23 Q1015 NOSIG=  
26-Oct-2021 SAID33 WATB 260100 METAR WATB 260100Z 10005KT 9999 FEW018 28/23 Q1015 NOSIG=  
26-Oct-2021 SAID33 WATB 260200 METAR WATB 260200Z 12004KT 9999 SCT018 30/22 Q1015 NOSIG=  
26-Oct-2021 SAID33 WATB 260300 METAR WATB 260300Z 13010KT 9999 SCT018 31/21 Q1014 NOSIG=  
26-Oct-2021 SAID33 WATB 260400 METAR WATB 260400Z 10009KT 9999 SCT018 33/20 Q1013 NOSIG=  
26-Oct-2021 SAID33 WATB 260600 METAR WATB 260600Z 09015KT 9999 SCT017 33/21 Q1012 NOSIG=  
27-Oct-2021 SAID33 WATB 270000 METAR WATB 270000Z 07003KT 9999 FEW020 29/22 Q1016 NOSIG=  
27-Oct-2021 SAID33 WATB 270000 METAR WATB 270000Z 07003KT 9999 FEW020 29/22 Q1016 NOSIG=  
27-Oct-2021 SAID33 WATB 270100 METAR WATB 270100Z 12004KT 9999 FEW018 30/21 Q1016 NOSIG=  
27-Oct-2021 SAID33 WATB 270100 METAR WATB 270100Z 12004KT 9999 FEW018 30/21 Q1016 NOSIG=  
27-Oct-2021 SAID33 WATB 270200 METAR WATB 270200Z 10009KT 9999 SCT018 30/21 Q1015 NOSIG=  
27-Oct-2021 SAID33 WATB 270200 METAR WATB 270200Z 10009KT 9999 SCT018 30/21 Q1015 NOSIG=  
27-Oct-2021 SAID33 WATB 270300 METAR WATB 270300Z 11008KT 9999 SCT018 32/21 Q1014 NOSIG=  
27-Oct-2021 SAID33 WATB 270300 METAR WATB 270300Z 11008KT 9999 SCT018 32/21 Q1014 NOSIG=  
27-Oct-2021 SAID33 WATB 270400 METAR WATB 270400Z 05009KT 9999 BKN017 32/21 Q1014 NOSIG=  
27-Oct-2021 SAID33 WATB 270400 METAR WATB 270400Z 05009KT 9999 BKN017 32/21 Q1014 NOSIG=  
27-Oct-2021 SAID33 WATB 270500 METAR WATB 270500Z 08014KT 9999 BKN018 33/21 Q1013 NOSIG=  
27-Oct-2021 SAID33 WATB 270500 METAR WATB 270500Z 08014KT 9999 BKN018 33/21 Q1013 NOSIG=  
27-Oct-2021 SAID33 WATB 270600 METAR WATB 270600Z 08013KT 9999 BKN017 33/21 Q1012 NOSIG=  
27-Oct-2021 SAID33 WATB 270600 METAR WATB 270600Z 08013KT 9999 BKN017 33/21 Q1012 NOSIG=  
28-Oct-2021 SAID33 WATB 280000 METAR WATB 280000Z 32003KT 9999 FEW020 28/21 Q1015 NOSIG=  
28-Oct-2021 SAID33 WATB 280000 METAR WATB 280000Z 32003KT 9999 FEW020 28/21 Q1015 NOSIG=  
28-Oct-2021 SAID33 WATB 280100 METAR WATB 280100Z 15008KT 9999 FEW020 31/21 Q1015 NOSIG=  
28-Oct-2021 SAID33 WATB 280100 METAR WATB 280100Z 15008KT 9999 FEW020 31/21 Q1015 NOSIG=  
28-Oct-2021 SAID33 WATB 280200 METAR WATB 280200Z 12006KT 9999 SCT018 31/22 Q1015 NOSIG=  
28-Oct-2021 SAID33 WATB 280200 METAR WATB 280200Z 12006KT 9999 SCT018 31/22 Q1015 NOSIG=  
28-Oct-2021 SAID33 WATB 280300 METAR WATB 280300Z 20005KT 9999 SCT018 32/21 Q1014 NOSIG=  
28-Oct-2021 SAID33 WATB 280300 METAR WATB 280300Z 20005KT 9999 SCT018 32/21 Q1014 NOSIG=  
28-Oct-2021 SAID33 WATB 280400 METAR WATB 280400Z 12008KT 9999 SCT018 32/21 Q1013 NOSIG=  
28-Oct-2021 SAID33 WATB 280400 METAR WATB 280400Z 12008KT 9999 SCT018 32/21 Q1013 NOSIG=  
28-Oct-2021 SAID33 WATB 280500 METAR WATB 280500Z 11009KT 9999 FEW018 33/21 Q1012 NOSIG=  
28-Oct-2021 SAID33 WATB 280500 METAR WATB 280500Z 11009KT 9999 FEW018 33/21 Q1012 NOSIG=  
28-Oct-2021 SAID33 WATB 280600 METAR WATB 280600Z 16011KT 9999 FEW020 33/21 Q1012 NOSIG=  
28-Oct-2021 SAID33 WATB 280600 METAR WATB 280600Z 16011KT 9999 FEW020 33/21 Q1012 NOSIG=  
29-Oct-2021 SAID33 WATB 290000 METAR WATB 290000Z 05003KT 9999 FEW020 29/21 Q1016 NOSIG=  
29-Oct-2021 SAID33 WATB 290000 METAR WATB 290000Z 05003KT 9999 FEW020 29/21 Q1016 NOSIG=  
29-Oct-2021 SAID33 WATB 290100 METAR WATB 290100Z 07004KT 9999 FEW020 30/21 Q1016 NOSIG=  
29-Oct-2021 SAID33 WATB 290100 METAR WATB 290100Z 07004KT 9999 FEW020 30/21 Q1016 NOSIG=  
29-Oct-2021 SAID33 WATB 290200 METAR WATB 290200Z 08006KT 9999 FEW018 31/20 Q1015 NOSIG=  
29-Oct-2021 SAID33 WATB 290200 METAR WATB 290200Z 08006KT 9999 FEW018 31/20 Q1015 NOSIG=  
29-Oct-2021 SAID33 WATB 290300 METAR WATB 290300Z 12009KT 9999 SCT018 32/20 Q1015 NOSIG=  
29-Oct-2021 SAID33 WATB 290300 METAR WATB 290300Z 12009KT 9999 SCT018 32/20 Q1015 NOSIG=  
29-Oct-2021 SAID33 WATB 290400 METAR WATB 290400Z 11007KT 9999 BKN018 33/21 Q1014 NOSIG=  
29-Oct-2021 SAID33 WATB 290400 METAR WATB 290400Z 11007KT 9999 BKN018 33/21 Q1014 NOSIG=  
29-Oct-2021 SAID33 WATB 290500 METAR WATB 290500Z 08006KT 8000 -TSRA FEW016CB SCT017 32/22 Q1013 TEMPO TL0530 TSRA RMK CB IN APCH=  
29-Oct-2021 SAID33 WATB 290500 METAR WATB 290500Z 08006KT 8000 -TSRA FEW016CB SCT017 32/22 Q1013 TEMPO TL0530 TSRA RMK CB IN APCH=  
29-Oct-2021 SAID33 WATB 290600 METAR WATB 290600Z 24006KT 9999 TS FEW016CB SCT017 25/23 Q1013 TEMPO TL0630 TS RMK CB TO W=  
29-Oct-2021 SAID33 WATB 290600 METAR WATB 290600Z 24006KT 9999 TS FEW016CB SCT017 25/23 Q1013 TEMPO TL0630 TS RMK CB TO W=  
30-Oct-2021 SAID33 WATB 300000 METAR WATB 300000Z 32003KT 9999 FEW020 27/21 Q1016 NOSIG=  
30-Oct-2021 SAID33 WATB 300000 METAR WATB 300000Z 32003KT 9999 FEW020 27/21 Q1016 NOSIG=  
30-Oct-2021 SAID33 WATB 300100 METAR WATB 300100Z 05003KT 9999 FEW020 29/22 Q1016 NOSIG=  
30-Oct-2021 SAID33 WATB 300100 METAR WATB 300100Z 05003KT 9999 FEW020 29/22 Q1016 NOSIG=  
30-Oct-2021 SAID33 WATB 300200 METAR WATB 300200Z 04007KT 9999 FEW020 31/20 Q1016 NOSIG=  
30-Oct-2021 SAID33 WATB 300200 METAR WATB 300200Z 04007KT 9999 FEW020 31/20 Q1016 NOSIG=  
30-Oct-2021 SAID33 WATB 300300 METAR WATB 300300Z 32005KT 9999 FEW020 33/19 Q1015 NOSIG=  
30-Oct-2021 SAID33 WATB 300300 METAR WATB 300300Z 32005KT 9999 FEW020 33/19 Q1015 NOSIG=  
30-Oct-2021 SAID33 WATB 300400 METAR WATB 300400Z 06009KT 8000 TS FEW015CB SCT016 29/22 Q1014 TEMPO TL0430 TS RMK CB TO NE=  
30-Oct-2021 SAID33 WATB 300400 METAR WATB 300400Z 06009KT 8000 TS FEW015CB SCT016 29/22 Q1014 TEMPO TL0430 TS RMK CB TO NE=  
30-Oct-2021 SAID33 WATB 300500 METAR WATB 300500Z 06005KT 9999 TS FEW016CB SCT017 32/22 Q1013 TEMPO TL0530 TS RMK CB TO E=  
30-Oct-2021 SAID33 WATB 300500 METAR WATB 300500Z 06005KT 9999 TS FEW016CB SCT017 32/22 Q1013 TEMPO TL0530 TS RMK CB TO E=  
30-Oct-2021 SAID33 WATB 300600 METAR WATB 300600Z 01014KT 6000 TS SCT012CB SCT013 29/22 Q1013 TEMPO TL0630 TS RMK CB OVER THE FIELD=  
30-Oct-2021 SAID33 WATB 300600 METAR WATB 300600Z 01014KT 6000 TS SCT012CB SCT013 29/22 Q1013 TEMPO TL0630 TS RMK CB OVER THE FIELD=  
31-Oct-2021 SAID33 WATB 310000 METAR WATB 310000Z 07004KT 9999 FEW020 26/23 Q1016 NOSIG=  
31-Oct-2021 SAID33 WATB 310000 METAR WATB 310000Z 07004KT 9999 FEW020 26/23 Q1016 NOSIG=  
31-Oct-2021 SAID33 WATB 310100 METAR WATB 310100Z 08006KT 9999 FEW018 28/23 Q1016 NOSIG=  
31-Oct-2021 SAID33 WATB 310100 METAR WATB 310100Z 08006KT 9999 FEW018 28/23 Q1016 NOSIG=  
31-Oct-2021 SAID33 WATB 310200 METAR WATB 310200Z 08006KT 9999 FEW018 31/22 Q1015 NOSIG=  
31-Oct-2021 SAID33 WATB 310200 METAR WATB 310200Z 08006KT 9999 FEW018 31/22 Q1015 NOSIG=  
31-Oct-2021 SAID33 WATB 310300 METAR WATB 310300Z 09005KT 9999 FEW018 31/20 Q1014 NOSIG=  
31-Oct-2021 SAID33 WATB 310300 METAR WATB 310300Z 09005KT 9999 FEW018 31/20 Q1014 NOSIG=  
31-Oct-2021 SAID33 WATB 310400 METAR WATB 310400Z 10007KT 9999 SCT018 32/20 Q1013 NOSIG=  
31-Oct-2021 SAID33 WATB 310400 METAR WATB 310400Z 10007KT 9999 SCT018 32/20 Q1013 NOSIG=  
01-Nov-2021 SAID33 WATB 010000 METAR WATB 010000Z 06001KT 9999 FEW018 26/23 Q1016 NOSIG=  
01-Nov-2021 SAID33 WATB 010100 METAR WATB 010100Z 29004KT 9999 SCT018 26/23 Q1016 NOSIG=  
01-Nov-2021 SAID33 WATB 010100 METAR WATB 010100Z 29004KT 9999 SCT018 26/23 Q1016 NOSIG=  
01-Nov-2021 SAID33 WATB 010200 METAR WATB 010200Z 07004KT 9999 BKN018 28/23 Q1016 NOSIG=  
01-Nov-2021 SAID33 WATB 010200 METAR WATB 010200Z 07004KT 9999 BKN018 28/23 Q1016 NOSIG=  
01-Nov-2021 SAID33 WATB 010300 METAR WATB 010300Z 10003KT 9999 -RA BKN018 30/23 Q1015 TEMPO TL0330 -RA=  
01-Nov-2021 SAID33 WATB 010300 METAR WATB 010300Z 10003KT 9999 -RA BKN018 30/23 Q1015 TEMPO TL0330 -RA=  
01-Nov-2021 SAID33 WATB 010400 METAR WATB 010400Z 04005KT 9999 BKN018 30/22 Q1014 RERA=  
01-Nov-2021 SAID33 WATB 010400 METAR WATB 010400Z 04005KT 9999 BKN018 30/22 Q1014 RERA=  
01-Nov-2021 SAID33 WATB 010500 METAR WATB 010500Z 11004KT 9999 BKN018 31/23 Q1013 NOSIG=  
01-Nov-2021 SAID33 WATB 010500 METAR WATB 010500Z 11004KT 9999 BKN018 31/23 Q1013 NOSIG=  
01-Nov-2021 SAID33 WATB 010600 METAR WATB 010600Z 10007KT 9999 SCT018 30/22 Q1012 NOSIG=  
01-Nov-2021 SAID33 WATB 010600 METAR WATB 010600Z 10007KT 9999 SCT018 30/22 Q1012 NOSIG=  
02-Nov-2021 SAID33 WATB 020000 METAR WATB 020000Z 10002KT 9999 FEW020 27/22 Q1016 NOSIG=  
02-Nov-2021 SAID33 WATB 020000 METAR WATB 020000Z 10002KT 9999 FEW020 27/22 Q1016 NOSIG=  
02-Nov-2021 SAID33 WATB 020100 METAR WATB 020100Z 15004KT 9999 FEW020 29/22 Q1016 NOSIG=  
02-Nov-2021 SAID33 WATB 020100 METAR WATB 020100Z 15004KT 9999 FEW020 29/22 Q1016 NOSIG=  
02-Nov-2021 SAID33 WATB 020200 METAR WATB 020200Z 09005KT 9999 FEW019 30/20 Q1015 NOSIG=  
02-Nov-2021 SAID33 WATB 020200 METAR WATB 020200Z 09005KT 9999 FEW019 30/20 Q1015 NOSIG=  
02-Nov-2021 SAID33 WATB 020300 METAR WATB 020300Z 15003KT 9999 SCT018 32/20 Q1014 NOSIG=  
02-Nov-2021 SAID33 WATB 020300 METAR WATB 020300Z 15003KT 9999 SCT018 32/20 Q1014 NOSIG=  
02-Nov-2021 SAID33 WATB 020400 METAR WATB 020400Z 02012KT 9999 SCT018 32/22 Q1013 NOSIG=  
02-Nov-2021 SAID33 WATB 020400 METAR WATB 020400Z 02012KT 9999 SCT018 32/22 Q1013 NOSIG=  
02-Nov-2021 SAID33 WATB 020500 METAR WATB 020500Z 16007KT 9999 SCT018 31/22 Q1013 NOSIG=  
02-Nov-2021 SAID33 WATB 020500 METAR WATB 020500Z 16007KT 9999 SCT018 31/22 Q1013 NOSIG=  
02-Nov-2021 SAID33 WATB 020600 METAR WATB 020600Z 09005KT 9999 SCT018 33/22 Q1011 NOSIG=  
02-Nov-2021 SAID33 WATB 020600 METAR WATB 020600Z 09005KT 9999 SCT018 33/22 Q1011 NOSIG=  
03-Nov-2021 SAID33 WATB 030000 METAR WATB 030000Z 14002KT 9999 SCT020 28/22 Q1015 NOSIG=  
03-Nov-2021 SAID33 WATB 030100 METAR WATB 030100Z 10003KT 9999 SCT020 28/23 Q1015 NOSIG=  
03-Nov-2021 SAID33 WATB 030200 METAR WATB 030200Z 16002KT 9999 SCT018 30/23 Q1015 NOSIG=  
03-Nov-2021 SAID33 WATB 030300 METAR WATB 030300Z 12002KT 9999 SCT018 31/22 Q1014 NOSIG=  
03-Nov-2021 SAID33 WATB 030400 METAR WATB 030400Z 09004KT 9999 BKN018 31/22 Q1013 NOSIG=  
03-Nov-2021 SAID33 WATB 030500 METAR WATB 030500Z 08006G17KT 9999 BKN018 31/22 Q1012 NOSIG=  
03-Nov-2021 SPID33 WATB 030530 SPECI WATB 030530Z 35010KT 5000 RA FEW013CB BKN014 25/23 Q1012 BECMG TL0550 2000 TSRA RMK CB TO E=  
03-Nov-2021 SAID33 WATB 030600 METAR WATB 030600Z 21004KT 5000 TSRA FEW015CB BKN016 24/23 Q1012 TEMPO TL 0630 TSRA RMK CB TO E=  
04-Nov-2021 SAID33 WATB 040000 METAR WATB 040000Z 33002KT 9999 FEW020 28/23 Q1014 NOSIG=  
04-Nov-2021 SAID33 WATB 040100 METAR WATB 040100Z 08003KT 9999 FEW019 29/22 Q1015 NOSIG=  
04-Nov-2021 SAID33 WATB 040200 METAR WATB 040200Z 09005KT 9999 SCT018 30/22 Q1015 NOSIG=  
04-Nov-2021 SAID33 WATB 040300 METAR WATB 040300Z 07008KT 9999 BKN018 30/22 Q1014 NOSIG=  
04-Nov-2021 SAID33 WATB 040400 METAR WATB 040400Z 05007KT 9999 BKN018 30/22 Q1013 NOSIG=  
04-Nov-2021 SAID33 WATB 040500 METAR WATB 040500Z 06008KT 9999 SCT018 31/22 Q1012 NOSIG=  
04-Nov-2021 SAID33 WATB 040600 METAR WATB 040600Z 05006KT 9999 SCT018 32/20 Q1011 NOSIG=  
05-Nov-2021 SAID33 WATB 050000 METAR WATB 050000Z 13003KT 9999 FEW020 28/22 Q1014 NOSIG=  
05-Nov-2021 SAID33 WATB 050100 METAR WATB 050100Z 09002KT 9999 FEW019 30/22 Q1014 NOSIG=  
05-Nov-2021 SAID33 WATB 050200 METAR WATB 050200Z 10004KT 9999 SCT018 31/21 Q1014 NOSIG=  
05-Nov-2021 SAID33 WATB 050300 METAR WATB 050300Z 10004KT 9999 SCT018 32/21 Q1013 NOSIG=  
05-Nov-2021 SAID33 WATB 050400 METAR WATB 050400Z 35004KT 9999 SCT018 31/21 Q1012 NOSIG=  
05-Nov-2021 SAID33 WATB 050500 METAR WATB 050500Z 30003KT 9999 SCT018 33/22 Q1011 NOSIG=  
05-Nov-2021 SAID33 WATB 050600 METAR WATB 050600Z 10004KT 9999 SCT018 32/22 Q1010 NOSIG=  
06-Nov-2021 SAID33 WATB 060000 METAR WATB 060000Z 01004KT 9999 FEW020 25/23 Q1012 NOSIG=  
06-Nov-2021 SAID33 WATB 060100 METAR WATB 060100Z 05002KT 9999 SCT019 27/23 Q1012 NOSIG=  
06-Nov-2021 SAID33 WATB 060300 METAR WATB 060300Z 08005KT 9999 SCT018 29/23 Q1012 NOSIG=  
06-Nov-2021 SAID33 WATB 060400 METAR WATB 060400Z 07002KT 9999 BKN018 29/23 Q1011 NOSIG=  
06-Nov-2021 SAID33 WATB 060500 METAR WATB 060500Z 12007KT 6000 -TSRA FEW016CB BKN017 29/23 Q1011 TEMPO TL0545 5000 TSRA RMK CB TO NE=  
06-Nov-2021 SAID33 WATB 060600 METAR WATB 060600Z 09008KT 6000 -TSRA FEW015CB BKN016 29/23 Q1011 TEMPO TL0630 -TSRA RMK CB IN APCH=  
07-Nov-2021 SAID33 WATB 070000 METAR WATB 070000Z 35002KT //// FEW020 26/23 Q1012 NOSIG=  
07-Nov-2021 SAID33 WATB 070100 METAR WATB 070100Z 08002KT 9999 FEW020 28/22 Q1012 NOSIG=  
07-Nov-2021 SAID33 WATB 070200 METAR WATB 070200Z 10003KT 9999 FEW019 29/22 Q1012 NOSIG=  
07-Nov-2021 SAID33 WATB 070300 METAR WATB 070300Z 01006KT 9999 FEW018 30/21 Q1011 NOSIG=  
07-Nov-2021 SAID33 WATB 070400 METAR WATB 070400Z 15003KT 9999 SCT018 33/21 Q1009 NOSIG=  
07-Nov-2021 SAID33 WATB 070500 METAR WATB 070500Z 36004KT 9999 SCT018 32/22 Q1009 NOSIG=  
07-Nov-2021 SAID33 WATB 070600 METAR WATB 070600Z 04007KT 9999 SCT018 30/22 Q1008 NOSIG=  
08-Nov-2021 SAID33 WATB 080000 METAR WATB 080000Z 10002KT 9999 FEW020 27/23 Q1013 NOSIG=  
08-Nov-2021 SAID33 WATB 080100 METAR WATB 080100Z 08002KT 9999 FEW019 29/23 Q1013 NOSIG=  
08-Nov-2021 SAID33 WATB 080600 METAR WATB 080600Z 15004KT 8000 TSRA FEW016CB SCT017 26/23 Q1010 CB TO NW AND S RMK TEMPO TL0630 -TSRA=  
09-Nov-2021 SAID33 WATB 090000 METAR WATB 090000Z 10002KT 9999 FEW020 27/23 Q1013 NOSIG=  
09-Nov-2021 SAID33 WATB 090100 METAR WATB 090100Z 36005KT 9999 FEW020 28/22 Q1013 NOSIG=  
09-Nov-2021 SAID33 WATB 090200 METAR WATB 090200Z 10003KT 9999 FEW018 30/22 Q1012 NOSIG=  
09-Nov-2021 SAID33 WATB 090300 METAR WATB 090300Z VRB03KT 9999 SCT018 31/22 Q1011 NOSIG=  
09-Nov-2021 SAID33 WATB 090400 METAR WATB 090400Z 11008KT 9999 SCT018 29/24 Q1011 NOSIG=  
09-Nov-2021 SAID33 WATB 090500 METAR WATB 090500Z 05005KT 9999 SCT018 31/23 Q1010 NOSIG=  
10-Nov-2021 SAID33 WATB 100000 METAR WATB 100000Z 04003KT 9999 FEW020 25/23 Q1014 NOSIG=  
10-Nov-2021 SAID33 WATB 100100 METAR WATB 100100Z 35002KT 9999 FEW019 28/23 Q1014 NOSIG=  
10-Nov-2021 SAID33 WATB 100200 METAR WATB 100200Z 14004KT 9999 FEW018 30/22 Q1013 NOSIG=  
11-Nov-2021 SAID33 WATB 110000 METAR WATB 110000Z 10003KT 9999 FEW020 26/23 Q1013 NOSIG=  
11-Nov-2021 SAID33 WATB 110100 METAR WATB 110100Z 02005KT 9999 FEW020 28/23 Q1013 NOSIG=  
11-Nov-2021 SAID33 WATB 110200 METAR WATB 110200Z 13003KT 9999 FEW019 30/23 Q1013 NOSIG=  
11-Nov-2021 SAID33 WATB 110300 METAR WATB 110300Z 03004KT 9999 FEW018 31/20 Q1012 NOSIG=  
11-Nov-2021 SAID33 WATB 110400 METAR WATB 110400Z 14003KT 9999 SCT018 32/22 Q1010 NOSIG=  
11-Nov-2021 SAID33 WATB 110500 METAR WATB 110500Z 06014KT 060V140 8000 BKN017 29/24 Q1010 NOSIG=  
11-Nov-2021 SAID33 WATB 110600 METAR WATB 110600Z 01003KT 8000 RA BKN017 26/23 Q1010 NOSIG=  
12-Nov-2021 SAID33 WATB 120000 METAR WATB 120000Z 35003KT 9999 FEW020 26/23 Q1013 NOSIG=  
12-Nov-2021 SAID33 WATB 120100 METAR WATB 120100Z 06004KT 9999 FEW019 28/23 Q1013 NOSIG=  
12-Nov-2021 SAID33 WATB 120200 METAR WATB 120200Z 10005KT 9999 SCT018 29/22 Q1013 NOSIG=  
12-Nov-2021 SAID33 WATB 120300 METAR WATB 120300Z 12003KT 9999 SCT018 32/22 Q1012 NOSIG=  
12-Nov-2021 SAID33 WATB 120400 METAR WATB 120400Z 12004KT 9999 BKN018 29/24 Q1011 NOSIG=  
12-Nov-2021 SAID33 WATB 120500 METAR WATB 120500Z 01004KT 9999 RA BKN018 25/24 Q1011 TEMPO TL0630 RA=  
12-Nov-2021 SAID33 WATB 120600 METAR WATB 120600Z 17002KT 9999 BKN018 27/24 Q1010 RERA=  
13-Nov-2021 SAID33 WATB 130000 METAR WATB 130000Z 08002KT 9999 SCT019 27/23 Q1014 NOSIG=  
13-Nov-2021 SAID33 WATB 130100 METAR WATB 130100Z 07003KT 9999 FEW019 28/24 Q1014 NOSIG=  
13-Nov-2021 SAID33 WATB 130200 METAR WATB 130200Z 10004KT 9999 SCT018 29/24 Q1013 NOSIG=  
13-Nov-2021 SAID33 WATB 130600 METAR WATB 130600Z 36005KT 4000 TSRA FEW014CB BKN015 22/22 Q1012 TEMPO TL0630 TSRA RMK CB OVER THE FIELD=  
14-Nov-2021 SAID33 WATB 140000 METAR WATB 140000Z 08002KT 9999 FEW019 24/23 Q1015 NOSIG=  
14-Nov-2021 SAID33 WATB 140100 METAR WATB 140100Z 16001KT 9999 FEW019 26/23 Q1015 NOSIG=  
14-Nov-2021 SAID33 WATB 140200 METAR WATB 140200Z 09002KT 9999 FEW019 28/23 Q1014 NOSIG=  
14-Nov-2021 SAID33 WATB 140300 METAR WATB 140300Z 06004KT 9999 SCT019 30/24 Q1013 NOSIG=  
14-Nov-2021 SAID33 WATB 140400 METAR WATB 140400Z 02004KT 9999 SCT018 30/23 Q1012 NOSIG=  
14-Nov-2021 SAID33 WATB 140500 METAR WATB 140500Z 09004KT 010V130 9999 BKN017 30/23 Q1011 NOSIG=  
14-Nov-2021 SAID33 WATB 140600 METAR WATB 140600Z 10007KT 8000 TS FEW015CB SCT016 27/24 Q1011 TEMPO TL0630 TS RMK CB OVER THE FIELD=  
15-Nov-2021 SAID33 WATB 150000 METAR WATB 150000Z 32002KT 9999 FEW020 25/22 Q1014 NOSIG=  
15-Nov-2021 SAID33 WATB 150100 METAR WATB 150100Z 23002KT 9999 FEW020 27/23 Q1014 NOSIG=  
15-Nov-2021 SAID33 WATB 150200 METAR WATB 150200Z 02002KT 9999 FEW018 29/22 Q1013 NOSIG=  
15-Nov-2021 SAID33 WATB 150300 METAR WATB 150300Z 04004KT 9999 SCT019 29/22 Q1013 NOSIG=  
15-Nov-2021 SAID33 WATB 150400 METAR WATB 150400Z 08005KT 9999 FEW018 30/24 Q1012 NOSIG=  
15-Nov-2021 SAID33 WATB 150500 METAR WATB 150500Z 06004KT 9999 SCT019 31/22 Q1011 NOSIG=  
15-Nov-2021 SAID33 WATB 150600 METAR WATB 150600Z 15010KT 9999 -RA SCT018 25/23 Q1011 TEMPO TL0630 RA=  
16-Nov-2021 SAID33 WATB 160000 METAR WATB 160000Z 00000KT 9999 SCT020 26/23 Q1014 NOSIG=  
16-Nov-2021 SAID33 WATB 160100 METAR WATB 160100Z 14002KT 9999 SCT019 27/23 Q1014 NOSIG=  
16-Nov-2021 SAID33 WATB 160200 METAR WATB 160200Z 17002KT 9999 SCT018 29/22 Q1014 NOSIG=  
16-Nov-2021 SAID33 WATB 160300 METAR WATB 160300Z 13006KT 9999 SCT018 29/22 Q1013 NOSIG=  
16-Nov-2021 SAID33 WATB 160400 METAR WATB 160400Z 05003KT 9999 SCT018 29/22 Q1012 NOSIG=  
16-Nov-2021 SAID33 WATB 160500 METAR WATB 160500Z 17006KT 9999 FEW017CB BKN018 29/22 Q1011 NOSIG RMK CB TO E AND SE=  
16-Nov-2021 SPID33 WATB 160515 SPECI WATB 160515Z 13013KT 2000 TSRA FEW015CB BKN016 23/22 Q1013 BECMG TL0615 TSRA RMK CB OVR THE FIELD=  
16-Nov-2021 SAID33 WATB 160600 METAR WATB 160600Z 20006KT 6000 TS FEW015CB BKN016 22/21 Q1012 TEMPO TL0630CTS RMK CB TO E AND NE=  
17-Nov-2021 SAID33 WATB 170000 METAR WATB 170000Z 01004KT 9999 FEW020 26/22 Q1014 NOSIG=  
17-Nov-2021 SAID33 WATB 170100 METAR WATB 170100Z 08003KT 9999 FEW020 28/23 Q1014 NOSIG=  
17-Nov-2021 SAID33 WATB 170200 METAR WATB 170200Z 08002KT 9999 FEW019 29/21 Q1013 NOSIG=  
17-Nov-2021 SAID33 WATB 170300 METAR WATB 170300Z 13003KT 9999 SCT019 30/22 Q1013 NOSIG=  
17-Nov-2021 SAID33 WATB 170400 METAR WATB 170400Z 10003KT 9999 SCT018 32/21 Q1013 NOSIG=  
17-Nov-2021 SAID33 WATB 170500 METAR WATB 170500Z 12004KT 9999 SCT018 32/22 Q1011 NOSIG=  
17-Nov-2021 SAID33 WATB 170600 METAR WATB 170600Z 09008KT 9999 SCT018 31/23 Q1011 NOSIG=  
18-Nov-2021 SAID33 WATB 180100 METAR WATB 180100Z 02002KT 9999 FEW020 28/21 Q1013 NOSIG=  
18-Nov-2021 SAID33 WATB 180200 METAR WATB 180200Z 15002KT 9999 FEW020 29/21 Q1013 NOSIG=  
18-Nov-2021 SAID33 WATB 180300 METAR WATB 180300Z 04002KT 9999 FEW019 30/20 Q1012 NOSIG=  
18-Nov-2021 SAID33 WATB 180400 METAR WATB 180400Z 16002KT 9999 SCT018 30/22 Q1011 NOSIG=  
18-Nov-2021 SAID33 WATB 180500 METAR WATB 180500Z 12003KT 9999 SCT018 32/23 Q1010 NOSIG=  
18-Nov-2021 SAID33 WATB 180600 METAR WATB 180600Z 15005KT 9999 SCT018 31/22 Q1009 NOSIG=  
19-Nov-2021 SAID33 WATB 190000 METAR WATB 190000Z 36002KT 9999 SCT018 25/23 Q1012 NOSIG=  
19-Nov-2021 SAID33 WATB 190100 METAR WATB 190100Z 08003KT 8000 BKN018 27/24 Q1012 NOSIG=  
19-Nov-2021 SAID33 WATB 190300 METAR WATB 190300Z 04006KT 6000 RA BKN018 25/23 Q1012 BECMG TL0600 RA=  
19-Nov-2021 SAID33 WATB 190400 METAR WATB 190400Z 23002KT 9999 BKN019 26/23 Q1012 RERA=  
19-Nov-2021 SAID33 WATB 190600 METAR WATB 190600Z 08006KT 9999 BKN018 28/23 Q1011 NOSIG=  
20-Nov-2021 SAID33 WATB 200000 METAR WATB 200000Z 36004KT 9999 FEW020 28/23 Q1012 NOSIG=  
20-Nov-2021 SAID33 WATB 200100 METAR WATB 200100Z 01005KT 9999 BKN018 29/23 Q1013 NOSIG=  
20-Nov-2021 SAID33 WATB 200200 METAR WATB 200200Z 07007KT 9999 SCT018 29/23 Q1012 NOSIG=  
20-Nov-2021 SAID33 WATB 200300 METAR WATB 200300Z 06007KT 9999 BKN018 29/22 Q1012 NOSIG=  
20-Nov-2021 SAID33 WATB 200400 METAR WATB 200400Z 08007KT 9999 BKN018 29/23 Q1012 NOSIG=  
20-Nov-2021 SAID33 WATB 200500 METAR WATB 200500Z 06008KT 9999 SCT018 30/23 Q1011 NOSIG=  
20-Nov-2021 SAID33 WATG 200600 METAR WATB 200600Z 04006KT 9999 SCT018 30/23 Q1010 NOSIG=  
20-Nov-2021 SAID33 WATG 200600 METAR WATB 200600Z 04006KT 9999 SCT018 30/23 Q1010 NOSIG=  
20-Nov-2021 SAID33 WATB 200600 METAR WATB 200600Z 04006KT 9999 SCT018 30/23 Q1010 NOSIG=  
21-Nov-2021 SAID33 WATB 210000 METAR WATB 210000Z 06002KT 9999 BKN018 24/23 Q1015 NOSIG=  
21-Nov-2021 SAID33 WATB 210100 METAR WATB 210100Z 36002KT 4000 -RA BKN016 25/23 Q1015 TEMPO TL0200 2000 BKN1400 RA=  
21-Nov-2021 SAID33 WATB 210200 METAR WATB 210200Z 10005KT 2000 -RA BKN013 23/23 Q1015 TEMPO TL0230 -RA=  
21-Nov-2021 SAID33 WATB 210300 METAR WATB 210300Z 11003KT 4000 BKN015 24/23 Q1015 RERA=  
21-Nov-2021 SAID33 WATB 210400 METAR WATB 210400Z 15003KT 5000 BKN015 24/24 Q1014 NOSIG=  
21-Nov-2021 SAID33 WATB 210500 METAR WATB 210500Z 36003KT 8000 -RA BKN016 25/24 Q1013 NOSIG=  
21-Nov-2021 SAID33 WATB 210600 METAR WATB 210600Z 13004KT 8000 BKN018 26/24 Q1012 NOSIG=  
22-Nov-2021 SAID33 WATB 220200 METAR WATB 220200Z 03004KT 9999 FEW020 30/22 Q1013 NOSIG=  
22-Nov-2021 SAID33 WATB 220300 METAR WATB 220300Z 35002KT 9999 FEW019 31/22 Q1013 NOSIG=  
22-Nov-2021 SAID33 WATB 220400 METAR WATB 220400Z 02003KT 9999 SCT019 31/21 Q1012 NOSIG=  
22-Nov-2021 SAID33 WATB 220600 METAR WATB 220600Z 07007KT 9999 SCT019 31/24 Q1010 NOSIG=  
23-Nov-2021 SAID33 WATB 230000 METAR WATB 230000Z 35002KT 9999 FEW020 24/22 Q1013 NOSIG=  
23-Nov-2021 SAID33 WATB 230100 METAR WATB 230100Z 07002KT 9999 FEW020 26/22 Q1013 NOSIG=  
23-Nov-2021 SAID33 WATB 230200 METAR WATB 230200Z 08004KT 9999 FEW020 28/22 Q1013 NOSG=  
23-Nov-2021 SAID33 WATB 230300 METAR WATB 230300Z 07003KT 9999 FEW019 30/21 Q1013 NOSIG=  
23-Nov-2021 SAID33 WATB 230400 METAR WATB 230400Z 02004KT 9999 FEW019 31/20 Q1011 NOSIG=  
23-Nov-2021 SAID33 WATB 230500 METAR WATB 230500Z 04003KT 9999 SCT019 32/20 Q1010 NOSIG=  
23-Nov-2021 SAID33 WATB 230600 METAR WATB 230600Z 10004KT 9999 SCT018 33/21 Q1009 NOSIG=  
24-Nov-2021 SAID33 WATB 240000 METAR WATB 240000Z 02002KT 9999 FEW020 28/21 Q1013 NOSIG=  
24-Nov-2021 SAID33 WATB 240100 METAR WATB 240100Z 13002KT 9999 FEW020 30/21 Q1013 NOSIG=  
24-Nov-2021 SAID33 WATB 240200 METAR WATB 240200Z 09003KT 9999 FEW019 30/20 Q1013 NOSIG=  
24-Nov-2021 SAID33 WATB 240300 METAR WATB 240300Z 12004KT 9999 SCT018 30/21 Q1012 NOSIG=  
24-Nov-2021 SAID33 WATB 240400 METAR WATB 240400Z 10004KT 9999 SCT018 32/22 Q1011 NOSIG=  
24-Nov-2021 SAID33 WATB 240500 METAR WATB 240500Z 35003KT 9999 FEW017CB BKN018 31/22 Q1010 RMK CB TO NW AND N=  
24-Nov-2021 SAID33 WATB 240600 METAR WATB 240600Z 10003KT 7000 FEW016CB BKN017 27/23 Q1010 RMK CB TO NW AND N=  
25-Nov-2021 SAID33 WATB 250000 METAR WATB 250000Z 06003KT 9999 FEW020 27/23 Q1010 NOSIG=  
25-Nov-2021 SAID33 WATB 250100 METAR WATB 250100Z 10006KT 7000 FEW018CB SCT019 27/23 Q1013 RMK CB TO S AND SE=  
25-Nov-2021 SAID33 WATB 250300 METAR WATB 250300Z 06004KT 9999 SCT019 29/23 Q1011 NOSIG=  
25-Nov-2021 SAID33 WATB 250400 METAR WATB 250400Z 10004KT 9999 SCT018 31/22 Q1011 NOSIG=  
25-Nov-2021 SAID33 WATB 250600 METAR WATB 250600Z 12004KT 9999 SCT018 32/23 Q1009 NOSIG=  
26-Nov-2021 SAID33 WATB 260000 METAR WATB 260000Z 13002KT 9999 FEW020 28/23 Q1012 NOSIG=  
26-Nov-2021 SAID33 WATB 260200 METAR WATB 260200Z 05003KT 9999 SCT019 31/23 Q1012 NOSIG=  
26-Nov-2021 SAID33 WATB 260300 METAR WATB 260300Z 09005KT 9999 SCT019 32/21 Q1011 NOSIG=  
26-Nov-2021 SAID33 WATB 260400 METAR WATB 260400Z 10004KT 9999 SCT018 31/22 Q1010 NOSIG=  
26-Nov-2021 SAID33 WATB 260500 METAR WATB 260500Z 09007KT 9999 BKN018 31/23 Q1009 NOSIG=  
26-Nov-2021 SAID33 WATB 260545 METAR WATB 260545Z 31010KT 8000 -TSRA FEW015CB BKN016 27/23 Q1009 TEMPO TL0630 -TSRA RMK CB OVER THE FIELD=  
26-Nov-2021 SAID33 WATB 260600 METAR WATB 260600Z 30008KT 8000 -TSRA FEW015CB BKN016 27/23 Q1009 TEMPO TL0630 -TSRA RMK CB OVER THE FIELD=  
27-Nov-2021 SAID33 WATB 270000 METAR WATB 270000Z 07002KT 9999 FEW020 26/24 Q1013 NOSIG=  
27-Nov-2021 SAID33 WATB 270100 METAR WATB 270100Z 11003KT 9999 FEW020 28/23 Q1013 NOSIG=  
27-Nov-2021 SAID33 WATB 270200 METAR WATB 270200Z 08003KT 9999 FEW018 29/23 Q1013 NOSIG=  
27-Nov-2021 SAID33 WATB 270300 METAR WATB 270300Z 07003KT 9999 SCT018 30/23 Q1012 NOSIG=  
27-Nov-2021 SAID33 WATB 270400 METAR WATB 270400Z 02004KT 9999 SCT018 29/24 Q1011 NOSIG=  
27-Nov-2021 SAID33 WATB 270500 METAR WATB 270500Z 06002KT 8000 BKN018 31/24 Q1010 NOSIG=  
27-Nov-2021 SAID33 WATB 270600 METAR WATB 270600Z 23003KT 9999 SCT018 27/22 Q1010 NOSIG=  
28-Nov-2021 SAID33 WATB 280000 METAR WATB 280000Z 04004KT 9999 FEW020 27/24 Q1013 NOSIG=  
28-Nov-2021 SAID33 WATB 280100 METAR WATB 280100Z 08004KT 9999 FEW019 29/23 Q1013 NOSIG=  
28-Nov-2021 SAID33 WATB 280200 METAR WATB 280200Z 05003KT 9999 SCT018 29/23 Q1013 NOSIG=  
28-Nov-2021 SAID33 WATB 280600 METAR WATB 280600Z 16004KT 8000 FEW017CB BKN018 27/21 Q1010 NOSIG RMK CB OVER THE FIELD=  
29-Nov-2021 SAID33 WATB 290000 METAR WATB 290000Z 20003KT 3000 RA BKN015 22/22 Q1014 TEMPO TL 0030 RA=  
29-Nov-2021 SAID33 WATB 290100 METAR WATB 290100Z 17002KT 4000 RA BKN015 23/22 Q1014 TEMPO TL0130 RA=  
29-Nov-2021 SAID33 WATB 290200 METAR WATB 290200Z 18002KT 6000 -RA BKN015 23/23 Q1014 TEMPO TL0230 -RA=  
29-Nov-2021 SAID33 WATB 290300 METAR WATB 290300Z 02002KT 7000 -RA BKN016 23/22 Q1013 TEMPO TL0330 -RA=  
29-Nov-2021 SAID33 WATB 290400 METAR WATB 290400Z 36002KT 8000 BKN018 25/24 Q1012 NOSIG=  
29-Nov-2021 SAID33 WATB 290500 METAR WATB 290500Z 35004KT 9999 SCT018 25/23 Q1011 NOSIG=  
29-Nov-2021 SAID33 WATB 290600 METAR WATB 290600Z 12002KT 9999 SCT019 26/23 Q1010 NOSIG=  
30-Nov-2021 SAID33 WATB 300000 METAR WATB 300000Z 01002KT 9999 FEW020 27/22 Q1013 NOSIG=  
30-Nov-2021 SAID33 WATB 300100 METAR WATB 300100Z 05003KT 9999 FEW020 29/22 Q1013 NOSIG=  
30-Nov-2021 SAID33 WATB 300200 METAR WATB 300200Z 08003KT 9999 FEW019 30/21 Q1013 NOSIG=  
30-Nov-2021 SAID33 WATB 300300 METAR WATB 300300Z 19002KT 9999 SCT019 31/22 Q1012 NOSIG=  
30-Nov-2021 SAID33 WATB 300400 METAR WATB 300400Z 12003KT 9999 SCT018 30/22 Q1011 NOSIG=  
30-Nov-2021 SAID33 WATB 300500 METAR WATB 300500Z 09005KT 9999 31/23 Q1011 NOSIG=  
30-Nov-2021 SAID33 WATB 300600 METAR WATB 300600Z 12003KT 8000 -RA BKN017 30/24 Q1010 TEMPO TL0700 RERA=  
01-Dec-2021 SAID33 WATB 010000 METAR WATB 010000Z 06001KT 9999 FEW018 26/23 Q1016 NOSIG=  
01-Dec-2021 SAID33 WATB 010000 METAR WATB 010000Z 06001KT 9999 FEW018 26/23 Q1016 NOSIG=  
01-Dec-2021 SAID33 WATB 010100 METAR WATB 010100Z 12002KT 9999 SCT019 28/23 Q1015 NOSIG=  
01-Dec-2021 SAID33 WATB 010200 METAR WATB 010200Z 05005KT 9999 28/23 Q1014 NOSIG=  
01-Dec-2021 SAID33 WATB 010300 METAR WATB 010300Z 36006KT 9999 28/22 Q1013 NOSIG=  
01-Dec-2021 SAID33 WATB 010400 METAR WATB 010400Z 33013KT 9999 30/23 Q1012 NOSIG=  
01-Dec-2021 SAID33 WATB 010500 METAR WATB 010500Z 02008KT 9999 29/22 Q1012 NOSIG=  
01-Dec-2021 SAID33 WATB 010600 METAR WATB 010600Z 03007KT 9999 BKN018 29/22 Q1011 NOSIG=  
02-Dec-2021 SAID33 WATB 020000 METAR WATB 020000Z 01003KT 9999 FEW020 28/21 Q1014 NOSIG=  
02-Dec-2021 SAID33 WATB 020100 METAR WATB 020100Z 10003KT 9999 29/21 Q1014 NOSIG=  
02-Dec-2021 SAID33 WATB 020200 METAR WATB 020200Z 10003KT 9999 29/21 Q1014 NOSIG=  
02-Dec-2021 SAID33 WATB 020300 METAR WATB 020300Z 03005KT 9999 FEW020 29/22 Q1013 NOSIG=  
02-Dec-2021 SAID33 WATB 020400 METAR WATB 020400Z 07004KT 9999 SCT019 31/22 Q1013 NOSIG=  
02-Dec-2021 SAID33 WATB 020500 METAR WATB 020500Z 07004KT 9999 SCT019 31/22 Q1013 NOSIG=  
03-Dec-2021 SAID33 WATB 030000 METAR WATB 030000Z 08003KT 9999 SCT019 28/21 Q1014 NOSIG=  
03-Dec-2021 SAID33 WATB 030100 METAR WATB 030100Z 10004KT 9999 SCT019 28/21 Q1014 NOSIG=  
03-Dec-2021 SAID33 WATB 030200 METAR WATB 030200Z 03005KT 9999 FEW020 29/22 Q1013 NOSIG=  
03-Dec-2021 SAID33 WATB 030300 METAR WATB 030300Z 09005KT 9999 SCT019 31/20 Q1012 NOSIG=  
03-Dec-2021 SAID33 WATB 030400 METAR WATB 030400Z 10003KT 9999 SCT019 32/21 Q1012 NOSIG=  
03-Dec-2021 SAID33 WATB 030500 METAR WATB 030500Z 11007KT 9999 SCT018 32/23 Q1012 NOSIG=  
03-Dec-2021 SAID33 WATB 030600 METAR WATB 030600Z 07011KT SCT018 32/23 Q1011 NOSIG=  
04-Dec-2021 SAID33 WATB 040000 METAR WATB 040000Z 08004KT 9999 SCT019 25/23 Q1013 NOSIG=  
04-Dec-2021 SAID33 WATB 040100 METAR WATB 040100Z 00000KT 9999 SCT019 29/23 Q1013 NOSIG=  
04-Dec-2021 SAID33 WATB 040200 METAR WATB 040200Z 09005KT 9999 FEW020 30/23 Q1013 NOSIG=  
04-Dec-2021 SAID33 WATB 040300 METAR WATB 040300Z 06006KT 9999 SCT019 31/22 Q1012 NOSIG=  
04-Dec-2021 SAID33 WATB 040400 METAR WATB 040400Z 08003KT 9999 SCT019 31/22 Q1012 NOSIG=  
04-Dec-2021 SAID33 WATB 040500 METAR WATB 040500Z 05008KT 9999 BKN018 30/23 Q1011 NOSIG=  
04-Dec-2021 SAID33 WATB 040600 METAR WATB 040600Z 08009KT 9999 FEW017CB BKN018 29/24 Q1010 NOSIG=  
05-Dec-2021 SAID33 WATB 050000 METAR WATB 050000Z 34004KT 9999 BKN019 26/23 Q1013 NOSIG=  
05-Dec-2021 SAID33 WATB 050100 METAR WATB 050100Z 05003KT 9999 SCT020 28/22 Q1013 NOSIG=  
05-Dec-2021 SPID33 WATB 050200 SPECI WATB 050138Z AUTO 10003KT 360V140 //// ////// 29/21 Q1013=  
05-Dec-2021 SAID33 WATB 050300 METAR WATB 050300Z 10004KT 9999 SCT018 32/21 Q1012 NOSIG=  
05-Dec-2021 SAID33 WATB 050400 METAR WATB 050400Z 32007KT 9999 BKN018 29/23 Q1011 NOSIG=  
05-Dec-2021 SAID33 WATB 050500 METAR WATB 050500Z 07003KT 9999 FEW017CB SCT018 31/22 Q1010 NOSIG=  
05-Dec-2021 SAID33 WATB 050600 METAR WATB 050600Z 02007KT 9999 FEW017CB BKN018 29/23 Q1009 NOSIG=  
06-Dec-2021 SAID33 WATB 060400 METAR WATB 060400Z 32007KT 9999 SCT019 30/27 Q1046 NOSIG=  
06-Dec-2021 SAID33 WATB 060500 METAR WATB 060500Z 07006KT 9999 BKN018 31/24 Q1010 NOSIG=  
06-Dec-2021 SAID33 WATB 060600 METAR WATB 060600Z 07005KT 9999 BKN018 29/25 Q1009 NOSIG=  
07-Dec-2021 SAID33 WATB 070000 METAR WATB 070000Z 12002KT 9999 BKN019 24/22 Q1013 NOSIG=  
07-Dec-2021 SAID33 WATB 070100 METAR WATB 070100Z 15004KT 9999 BKN018 25/22 Q1014 NOSIG=  
07-Dec-2021 SAID33 WATB 070200 METAR WATB 070200Z 17002KT 9999 BKN019 26/22 Q1013 NOSIG=  
07-Dec-2021 SAID33 WATB 070300 METAR WATB 070300Z 32002KT 9999 SCT019 29/21 Q1013 NOSIG=  
07-Dec-2021 SAID33 WATB 070400 METAR WATB 070400Z 03002KT 9999 BKN019 30/21 Q1012 NOISIG=  
07-Dec-2021 SAID33 WATB 070500 METAR WATB 070500Z 21002KT 9999 BKN019 31/24 Q1011 NOSIG=  
07-Dec-2021 SAID33 WATB 070600 METAR WATB 070600Z 28009KT 9999 BKN019 30/22 Q1011 NOSIG=  
08-Dec-2021 SAID33 WATB 080000 METAR WATB 080000Z 11002KT 9999 SCT020 25/21 Q1013 NOSIG=  
08-Dec-2021 SAID33 WATB 080100 METAR WATB 080100Z 09002KT 9999 SCT020 27/23 Q1014 NOSIG=  
08-Dec-2021 SAID33 WATB 080200 METAR WATB 080200Z 24007KT 9999 SCT019 31/25 Q1014 NOSIG=  
08-Dec-2021 SAID33 WATB 080300 METAR WATB 080300Z 25008KT 9999 SCT019 30/25 Q1014=  
08-Dec-2021 SAID33 WATB 080500 METAR WATB 080500Z 35007KT 9999 SCT019 31/22 Q1011 NOSIG=  
08-Dec-2021 SAID33 WATB 080600 METAR WATB 080600Z 04004KT 9999 SCT018 30/21 Q1011 NOSIG=  
09-Dec-2021 SAID33 WATB 090000 METAR WATB 090000Z 09004KT 8000 SCT019 25/23 Q1014 NOSIG=  
09-Dec-2021 SAID33 WATB 090100 METAR WATB 090100Z 12004KT 9999 SCT019 28/24 Q1014 NOSIG=  
09-Dec-2021 SPID33 WATB 090200 SPECI WATB 090122Z AUTO 11003KT 050V170 //// ////// 29/24 Q1013=  
09-Dec-2021 SAID33 WATB 090200 METAR WATB 090200Z 07006KT 9999 SCT019 30/23 Q1013 NOSIG=  
09-Dec-2021 SAID33 WATB 090300 METAR WATB 090300Z 01003KT SCT019 31/22 Q1012 NOSIG=  
09-Dec-2021 SAID33 WATB 090400 METAR WATB 090400Z 02010KT 9999 -TSRA FEW017CB BKN018 25/23 Q1012 TEMPO FM0400 TL0500 TSRA=  
09-Dec-2021 SAID33 WATB 090500 METAR WATB 090500Z 32004KT 8000 -RA FEW017CB BKN018 24/23 Q1012 NOSIG=  
09-Dec-2021 SAID33 WATB 090600 METAR WATB 090600Z 01003KT 9999 BKN018 26/23 Q1011 NOSIG=  
10-Dec-2021 SAID33 WATB 100000 METAR WATB 100000Z 06003KT 9999 FEW020 27/22 Q1013 NOSIG=  
10-Dec-2021 SAID33 WATB 100100 METAR WATB 100100Z 05006KT 9999 FEW020 29/21 Q1013 NOSIG=  
10-Dec-2021 SAID33 WATB 100200 METAR WATB 100200Z 07005KT 9999 SCT020 29/22 Q1013 NOSIG=  
10-Dec-2021 SAID33 WATB 100300 METAR WATB 100300Z 12007KT 9999 SCT019 31/22 Q1013 NOSIG=  
10-Dec-2021 SAID33 WATB 100400 METAR WATB 100400Z 08006KT 9999 BKN018 28/23 Q1012 NOSIG=  
10-Dec-2021 SAID33 WATB 100500 METAR WATB 100500Z 04005KT 9999 BKN018 29/23 Q1011 NOSIG=  
10-Dec-2021 SAID33 WATB 100600 METAR WATB 100600Z 10009KT 8000 BKN018 27/23 Q1010 NOSIG=  
11-Dec-2021 SAID33 WATB 110000 METAR WATB 110000Z 12002KT 9999 FEW020 27/22 Q1013 NOSIG=  
11-Dec-2021 SAID33 WATB 110005 METAR WATB 110005Z 09003KT 9999 FEW020 29/23 Q1013 NOSIG=  
11-Dec-2021 SAID33 WATB 110100 METAR WATB 110100Z 09003KT 9999 FEW020 29/23 Q1013 NOSIG=  
11-Dec-2021 SAID33 WATB 110200 METAR WATB 110200Z 13002KT 9999 SCT020 30/22 Q1013 NOSIG=  
11-Dec-2021 SAID33 WATB 110300 METAR WATB 110300Z 36006KT 9999 SCT020 31/22 Q1012 NOSIG=  
11-Dec-2021 SAID33 WATB 110400 METAR WATB 110400Z 32004KT 9999 SCT019 32/22 Q1011 NOSIG=  
11-Dec-2021 SAID33 WATB 110500 METAR WATB 110500Z 15010KT 9999 SCT019 33/23 Q1010 NOSIG=  
11-Dec-2021 SAID33 WATB 110600 METAR WATB 110600Z 07012KT 9999 FEW017CB SCT018 30/24 Q1010 NOSIG=  
12-Dec-2021 SAID33 WATB 120000 METAR WATB 120000Z 15002KT 9999 SCT020 25/23 Q1013 NOSIG=  
12-Dec-2021 SAID33 WATB 120100 METAR WATB 120100Z 12003KT 9999 SCT020 26/24 Q1013 NOSIG=  
12-Dec-2021 SAID33 WATB 120200 METAR WATB 120200Z 07003KT 9999 SCT020 28/23 Q1013 NOSIG=  
12-Dec-2021 SAID33 WATB 120300 METAR WATB 120300Z 05004KT SCT019 29/23 Q1013 NOSIG=  
12-Dec-2021 SAID33 WATB 120400 METAR WATB 120400Z 10004KT 9999 FEW018CB SCT019 31/22 Q1012 NOSIG=  
12-Dec-2021 SAID33 WATB 120500 METAR WATB 120500Z 09009KT 9999 FEW017CB FEW017TCU BKN018 31/24 Q1010 NOSIG=  
12-Dec-2021 SAID33 WATB 120600 METAR WATB 120600Z 30012KT 6000 -TSRA FEW015CB BKN016 24/22 Q1012 NOSIG=  
13-Dec-2021 SAID33 WATB 130000 METAR WATB 130000Z 03004KT 9999 FEW020 26/22 Q1012 NOSIG=  
13-Dec-2021 SAID33 WATB 130100 METAR WATB 130100Z 08003KT 9999 FEW020 28/23 Q1012 NOSIG=  
13-Dec-2021 SAID33 WATB 130200 METAR WATB 130200Z 04005KT 9999 SCT020 29/23 Q1012 NOSIG=  
13-Dec-2021 SAID33 WATB 130300 METAR WATB 130300Z 04007KT 9999 SCT020 31/23 Q1011 NOSIG=  
13-Dec-2021 SAID33 WATB 130400 METAR WATB 130400Z 05008KT 9999 SCT019 31/22 Q1010 NOSIG=  
13-Dec-2021 SAID33 WATB 130500 METAR WATB 130500Z 09012KT 9999 TS FEW017CB SCT018 31/25 Q1010 TEMPO FM0600 TL0800 TSRA 5000=  
13-Dec-2021 SAID33 WATB 130600 METAR WATB 130600Z 09006KT 6000 -TSRA FEW016CB BKN017 25/23 Q1010 NOSIG=  
14-Dec-2021 SAID33 WATB 140000 METAR WATB 140000Z 03002KT 9999 FEW020 27/22 Q1012 NOSIG=  
14-Dec-2021 SAID33 WATB 140100 METAR WATB 140100Z 09004KT 999 FEW020 28/23 Q1012 NOSIG=  
14-Dec-2021 SAID33 WATB 140200 METAR WATB 140200Z 05003KT 9999 FEW020 29/23 Q1012 NOSIG=  
14-Dec-2021 SAID33 WATB 140300 METAR WATB 140300Z 07005KT 9999 SCT020 31/22 Q1011 NOSIG=  
14-Dec-2021 SAID33 WATB 140400 METAR WATB 140400Z 07007KT 9999 SCT19 31/23 Q1010 NOSIG=  
14-Dec-2021 SAID33 WATB 140600 METAR WATB 140600Z 06008KT 9999 FEW018CB SCT018 30/23 Q1009 NOSIG=  
15-Dec-2021 SAID33 WATB 150000 METAR WATB 150000Z 10004KT 9999 FEW020 27/23 Q1013 NOSIG=  
15-Dec-2021 SAID33 WATB 150100 METAR WATB 150100Z 01004KT 9999 FEW020 29/23 Q1013 NOSIG=  
15-Dec-2021 SAID33 WATB 150200 METAR WATB 150200Z 07004KT 9999 FEW020 30/23 Q1013 NOSIG=  
15-Dec-2021 SAID33 WATB 150300 METAR WATB 150300Z 05007KT 9999 SCT020 31/22 Q1012 NOSIG=  
15-Dec-2021 SAID33 WATB 150400 METAR WATB 150400Z 32007KT 9999 SCT019 31/22 Q1011 NOSIG=  
15-Dec-2021 SAID33 WATB 150500 METAR WATB 150500Z 03006KT 9999 SCT019 32/22 Q1010 NOSIG=  
15-Dec-2021 SAID33 WATB 150600 METAR WATB 150600Z 05009KT 9999 SCT018 31/22 Q1010 NOSIG=  
16-Dec-2021 SAID33 WATB 160000 METAR WATB 160000Z 05002KT 9999 FEW020 26/22 Q1013 NOSIG=  
16-Dec-2021 SAID33 WATB 160100 METAR WATB 160100Z 05003KT 9999 FEW020 29/23 Q1013 NOSIG=  
16-Dec-2021 SAID33 WATB 160200 METAR WATB 160200Z 08003KT 9999 FEW020 31/21 Q1013 NOSIG=  
16-Dec-2021 SAID33 WATB 160300 METAR WATB 160300Z 09006KT 9999 SCT020 32/21 Q1012 NOSIG=  
16-Dec-2021 SAID33 WATB 160400 METAR WATB 160400Z 02006KT 9999 SCT019 32/21 Q1012 NOSIG=  
16-Dec-2021 SAID33 WATB 160500 METAR WATB 160500Z 11005KT 9999 SCT019 33/23 Q1011 NOSIG=  
16-Dec-2021 SAID33 WATB 160600 METAR WATB 160600Z 09006KT 9999 SCT018 33/22 Q1010 NOSIG=  
17-Dec-2021 SAID33 WATB 170000 METAR WATB 170000Z 08003KT 9999 FEW020 26/23 Q1013 NOSIG=  
17-Dec-2021 SAID33 WATB 170100 METAR WATB 170100Z 06004KT 9999 FEW020 29/22 Q1013 NOSIG=  
17-Dec-2021 SAID33 WATB 170200 METAR WATB 170200Z 11005KT 9999 FEW020 30/23 Q1013 NOSIG=  
17-Dec-2021 SAID33 WATB 170300 METAR WATB 170300Z 07002KT 9999 SCT019 23/21 Q1012 NOSIG=  
17-Dec-2021 SAID33 WATB 170400 METAR WATB 170400Z 30004KT 9999 SCT019 33/20 Q1011 NOSIG=  
17-Dec-2021 SAID33 WATB 170500 METAR WATB 170500Z 11007KT 9999 SCT018 34/22 Q1010 NOSIG=  
17-Dec-2021 SAID33 WATB 170600 METAR WATB 170600Z 10006KT 9999 SCT018 31/23 Q1010 NOSIG=  
18-Dec-2021 SAID33 WATB 180000 METAR WATB 180000Z 03003KT 9999 FEW020 28/23 Q1013 NOSIG=  
19-Dec-2021 SAID33 WATB 190000 METAR WATB 190000Z 06003KT 9999 SCT020 28/23 Q1014 NOSIG=  
19-Dec-2021 SAID33 WATB 190100 METAR WATB 190100Z 03003KT 9999 SCT020 29/24 Q1014 NOSIG=  
19-Dec-2021 SAID33 WATB 190200 METAR WATB 190200Z 36005KT 9999 SCT020 30/24 Q1014 NOSIG=  
19-Dec-2021 SAID33 WATB 190300 METAR WATB 190300Z 07005KT 9999 SCT019 32/23 Q1014 NOSIG=  
19-Dec-2021 SAID33 WATB 190400 METAR WATB 190400Z 09007KT 9999 TS FEW017CB SCT018 30/24 Q1014 TEMPO FM0500 TL0800 TSRA=  
19-Dec-2021 SAID33 WATB 190500 METAR WATB 190500Z 06004KT 8000 -TSRA FEW017CB SCT018 28/24 Q1012 TEMPO TL0530 -TSRA=  
19-Dec-2021 SAID33 WATB 190600 METAR WATB 190600Z 35005KT 8000 TS FEW017CB SCT018 29/23 Q1011 TEMPO TL0630 TS=  
20-Dec-2021 SAID33 WATB 200000 METAR WATB 200000Z 12003KT 9999 SCT020 26/24 Q1015 NOSIG=  
20-Dec-2021 SAID33 WATB 200100 METAR WATB 200100Z 07005KT 9999 FEW020 27/24 Q1016 NOSIG=  
20-Dec-2021 SAID33 WATB 200200 METAR WATB 200200Z 03005KT 9999 SCT020 29/23 Q1015 NOSIG=  
20-Dec-2021 SAID33 WATB 200300 METAR WATB 200300Z 05004KT 9999 SCT019 31/23 Q1014 NOSIG=  
20-Dec-2021 SAID33 WATB 200400 METAR WATB 200400Z 05004KT 9999 SCT018 31/24 Q1014 NOSIG=  
20-Dec-2021 SAID33 WATB 200500 METAR WATB 200500Z 03010KT 9999 SCT018 31/24 Q1013 NOSIG=  
20-Dec-2021 SAID33 WATB 200600 METAR WATB 200600Z 02007KT 9999 FEW018CB SCT018 29/23 Q1012 NOSIG=  
21-Dec-2021 SAID33 WATB 210000 METAR WATB 210000Z 07004KT 9999 SCT020 27/23 Q1015 NOSIG=  
21-Dec-2021 SAID33 WATB 210100 METAR WATB 210100Z 10005KT 9999 SCT020 28/24 Q1016 NOSIG=  
21-Dec-2021 SAID33 WATB 210200 METAR WATB 210200Z 02004KT 9999 SCT020 29/24 Q1016 NOSIG=  
21-Dec-2021 SAID33 WATB 210300 METAR WATB 210300Z 34011KT 9999 SCT019 29/24 Q1015 NOSIG=  
21-Dec-2021 SAID33 WATB 210400 METAR WATB 210400Z 30019KT 9999 SCT019 30/22 Q1014 NOSIG=  
21-Dec-2021 SAID33 WATB 210500 METAR WATB 210500Z 29019KT 9999 SCT018 31/20 Q1013 NOSIG=  
21-Dec-2021 SAID33 WATB 210600 METAR WATB 210600Z 30010KT 9999 SCT018 31/21 Q1012 NOSIG=  
22-Dec-2021 SAID33 WATB 220000 METAR WATB 220000Z 08003KT 9999 SCT020 26/23 Q1015 NOSIG=  
22-Dec-2021 SAID33 WATB 220100 METAR WATB 220100Z 03005KT 9999 SCT020 29/22 Q1014 NOSIG=  
22-Dec-2021 SAID33 WATB 220200 METAR WATB 220200Z 36004KT 9999 SCT020 29/22 Q1014 NOSIG=  
22-Dec-2021 SAID33 WATB 220300 METAR WATB 220300Z 12008KT 9999 BKN020 31/23 Q1013 NOSIG=  
22-Dec-2021 SAID33 WATB 220400 METAR WATB 220400Z 19012KT 9999 BKN019 32/22 Q1013 NOSIG=  
22-Dec-2021 SAID33 WATB 220500 METAR WATB 220500Z 20011KT 9999 BKN019 32/21 Q1012 NOSIG=  
22-Dec-2021 SAID33 WATB 220600 METAR WATB 220600Z 20007KT 9999 BKN019 32/22 Q1012 NOSIG=  
23-Dec-2021 SAID33 WATB 230000 METAR WATB 230000Z 15004KT 9999 BKN020 25/23 Q1013 NOSIG=  
23-Dec-2021 SAID33 WATB 230100 METAR WATB 230100Z 24002KT 9999 BKN020 27/23 Q1014 NOSIG=  
23-Dec-2021 SAID33 WATB 230200 METAR WATB 230200Z 08006KT 9999 BKN020 29/23 Q1013 NOSIG=  
23-Dec-2021 SAID33 WATB 230300 METAR WATB 230300Z 03004KT 9999 BKN019 30/23 Q1011 NOSIG=  
23-Dec-2021 SAID33 WATB 230400 METAR WATB 230400Z 21010KT 9999 BKN018 32/21 Q1011 NOSIG=  
23-Dec-2021 SAID33 WATB 230500 METAR WATB 230500Z 21011KT 9999 TS FEW018CB SCT019 32/21 Q1010 TEMPO TL0530 FM0730 -TSRA=  
23-Dec-2021 SAID33 WATB 230600 METAR WATB 230600Z 20008KT 9999 TS FEW017CB SCT018 30/21 Q1009 TEMPO TL0600 FM0800 -TSRA=  
24-Dec-2021 SAID33 WATB 240000 METAR WATB 240000Z 10004KT 9999 SCT020 25/21 Q1013 NOSIG=  
24-Dec-2021 SAID33 WATB 240100 METAR WATB 240100Z 03002KT 9999 SCT020 27/22 Q1013 NOSIG=  
24-Dec-2021 SAID33 WATB 240200 METAR WATB 240200Z 03004KT 9999 SCT020 28/19 Q1012 NOSIG=  
24-Dec-2021 SAID33 WATB 240300 METAR WATB 240300Z 22012KT 9999 SCT020 30/20 Q1011 NOSIG=  
24-Dec-2021 SAID33 WATB 240400 METAR WATB 240400Z 10003KT 9999 SCT019 30/20 Q1011 NOSIG=  
24-Dec-2021 SAID33 WATB 240500 METAR WATB 240500Z 14005KT 9999 SCT019 31/21 Q1010 NOSIG=  
24-Dec-2021 SAID33 WATB 240600 METAR WATB 240600Z 06006KT 9999 SCT019 32/20 Q1009 NOSIG=  
25-Dec-2021 SAID33 WATB 250000 METAR WATB 250000Z 06005KT 9999 BKN020 25/23 Q1012 NOSIG=  
25-Dec-2021 SAID33 WATB 250100 METAR WATB 250100Z 11003KT 9999 BKN020 25/23 Q1012 NOSIG=  
25-Dec-2021 SAID33 WATB 250200 METAR WATB 250200Z 13004KT 9999 BKN020 26/23 Q1012 NOSIG=  
25-Dec-2021 SAID33 WATB 250300 METAR WATB 250300Z 12004KT 9999 BKN020 26/23 Q1011 NOSIG=  
25-Dec-2021 SAID33 WATB 250400 METAR WATB 250400Z 11003KT 9999 BKN019 27/24 Q1011 NOSIG=  
25-Dec-2021 SAID33 WATB 250500 METAR WATB 250500Z 10005KT 9999 BKN018 27/24 Q1011 NOSIG=  
25-Dec-2021 SAID33 WATB 250600 METAR WATB 250600Z 06003KT 9999 BKN018 27/24 Q1010 NOSIG=  
26-Dec-2021 SAID33 WATB 260000 METAR WATB 260000Z 12003KT 9999 BKN020 26/23 Q1012 NOSIG=  
26-Dec-2021 SAID33 WATB 260100 METAR WATB 260100Z 09008KT 9999 BKN020 29/22 Q1012 NOSIG=  
26-Dec-2021 SAID33 WATB 260200 METAR WATB 260200Z 12004KT 9999 SCT019 30/23 Q1012 NOSIG=  
26-Dec-2021 SAID33 WATB 260300 METAR WATB 260300Z 22006KT 9999 SCT018 32/20 Q1011 NOSIG=  
26-Dec-2021 SAID33 WATB 260400 METAR WATB 260400Z 23011KT 9999 SCT018 32/20 Q1010 NOSIG=  
26-Dec-2021 SAID33 WATB 260500 METAR WATB 260500Z 24014KT 9999 SCT018 32/20 Q1010 NOSIG=  
26-Dec-2021 SAID33 WATB 260600 METAR WATB 260600Z 22008KT 9999 SCT018 31/20 Q1010 NOSIG=  
27-Dec-2021 SAID33 WATB 270000 METAR WATB 270000Z 16009KT 5000 RA BKN018 25/23 1014 TEMPO TL0030 RA=  
27-Dec-2021 SAID33 WATB 270100 METAR WATB 270100Z 23002KT 8000 BKN018 23/22 1014 NOSIG=  
27-Dec-2021 SAID33 WATB 270200 METAR WATB 270200Z 10005KT 9999 BKN018 24/23 1014 NOSIG=  
27-Dec-2021 SAID33 WATB 270300 METAR WATB 270300Z 06005KT 9999 BKN018 27/23 1012 NOSIG=  
27-Dec-2021 SAID33 WATB 270400 METAR WATB 270400Z 30009KT 8000 -RA BKN018 26/23 1012 NOSIG=  
27-Dec-2021 SAID33 WATB 270500 METAR WATB 270500Z 29004KT 8000 -RA BKN018 25/24 1012 NOSIG=  
27-Dec-2021 SAID33 WATB 270600 METAR WATB 270600Z 12003KT 8000 -RA BKN018 25/23 1011 NOSIG=  
28-Dec-2021 SAID33 WATB 280000 METAR WATB 280000Z 08005KT 9999 BKN020 24/21 Q1013 NOSIG=  
28-Dec-2021 SAID33 WATB 280100 METAR WATB 280100Z 07005KT 9999 SCT018 24/22 Q1013 NOSIG=  
28-Dec-2021 SAID33 WATB 280200 METAR WATB 280200Z 04005KT 9999 SCT019 27/21 Q1013 NOSIG=  
28-Dec-2021 SAID33 WATB 280300 METAR WATB 280300Z 03005KT 9999 SCT018 27/22 Q1013 NOSIG=  
28-Dec-2021 SAID33 WATB 280400 METAR WATB 280400Z 09008KT 9999 BKN018 27/23 Q1012 NOSIG=  
28-Dec-2021 SAID33 WATB 280500 METAR WATB 280500Z 06004KT 9999 BKN018 27/24 Q1012 TEMPO FM0500 TL0800 RA=  
28-Dec-2021 SAID33 WATB 280600 METAR WATB 280600Z 11004KT 9999 BKN018 27/24 Q1011 TEMPO FM0600 TL0900 RA=  
29-Dec-2021 SAID33 WATB 290000 METAR WATB 290000Z 10002KT 9999 SCT020 25/22 Q1013 NOSIG=  
29-Dec-2021 SAID33 WATB 290100 METAR WATB 290100Z 04006KT 9999 SCT019 26/23 Q1014 NOSIG=  
29-Dec-2021 SAID33 WATB 290200 METAR WATB 290200Z 09005KT 9999 SCT019 27/24 Q1013 NOSIG=  
29-Dec-2021 SAID33 WATB 290300 METAR WATB 290300Z 08009KT 9999 SCT019 30/25 Q1013 NOSIG=  
29-Dec-2021 SAID33 WATB 290400 METAR WATB 290400Z 09004KT 9999 SCT018 28/23 Q1012 NOSIG=  
30-Dec-2021 SAID33 WATB 300000 METAR WATB 300000Z 09003KT 9999 SCT020 25/23 Q1014 NOSIG=  
30-Dec-2021 SAID33 WATB 300100 METAR WATB 300100Z 09004KT 9999 FEW020 27/24 Q1014 NOSIG=  
30-Dec-2021 SAID33 WATB 300200 METAR WATB 300200Z 35003KT 9999 SCT020 29/23 Q1014 NOSIG=  
30-Dec-2021 SAID33 WATB 300300 METAR WATB 300300Z 06006KT 9999 SCT018 29/24 Q1013 NOSIG=  
30-Dec-2021 SAID33 WATB 300400 METAR WATB 300400Z 05006KT 6000 RA SCT018 25/23 Q1012 TEMPO TL0500 -RA=  
30-Dec-2021 SAID33 WATB 300500 METAR WATB 300500Z 30004KT 7000 -RA BKN018 25/23 Q1012 TEMPO TL0600 -RA=  
30-Dec-2021 SAID33 WATB 300600 METAR WATB 300600Z 29006KT 7000 -TSRA FEW017CB BKN018 25/23 Q1012 TEMPO TL0700 -TSRA=  
31-Dec-2021 SAID33 WATB 310000 METAR WATB 310000Z 08003KT 9999 FEW020 24/22 Q1014 NOSIG=  
31-Dec-2021 SAID33 WATB 310100 METAR WATB 310100Z 07004KT 9999 SCT020 27/23 Q1014 NOSIG=  
31-Dec-2021 SAID33 WATB 310200 METAR WATB 310200Z 10004KT 9999 SCT019 27/22 Q1014 NOSIG=  
31-Dec-2021 SAID33 WATB 310300 METAR WATB 310300Z 11007KT 9999 BKN018 27/24 Q1013 NOSIG=  
31-Dec-2021 SAID33 WATB 310400 METAR WATB 310400Z 07005KT 9999 BKN018 27/24 Q1013 NOSIG=  
31-Dec-2021 SAID33 WATB 310500 METAR WATB 310500Z 11004KT 9999 BKN018 27/24 Q1012 NOSIG=  
31-Dec-2021 SAID33 WATB 310600 METAR WATB 310600Z 12004KT 9999 BKN017 28/24 Q1011 NOSIG=  
01-Jan-2022 SAID33 WATB 010000 METAR WATB 010000Z 05003KT 9999 BKN018 24/23 Q1014 NOSIG=  
01-Jan-2022 SAID33 WATB 010100 METAR WATB 010100Z 07003KT 9999 BKN018 27/23 Q1014 NOSIG=  
01-Jan-2022 SAID33 WATB 010200 METAR WATB 010200Z 09004KT 9999 BKN018 27/23 Q1014 NOSIG=  
01-Jan-2022 SAID33 WATB 010300 METAR WATB 010300Z 08004KT 9999 BKN018 28/24 Q1014 NOSIG=  
01-Jan-2022 SAID33 WATB 010400 METAR WATB 010400Z 02008KT 9999 BKN017 25/23 Q1013 NOSIG=  
01-Jan-2022 SPID33 WATB 010443 SPECI WATB 010443Z 16002KT 8000 -RA BKN016 26/23 Q1013=  
01-Jan-2022 SAID33 WATB 010500 METAR WATB 010500Z 17004KT 8000 -RA BKN016 26/24 Q1012 TEMPO TL0530 -RA=  
01-Jan-2022 SPID33 WATB 010534 SPECI WATB 010534Z 21005KT 9999 BKN016 26/23 Q1012 RERA=  
01-Jan-2022 SAID33 WATB 010600 METAR WATB 010600Z 27002KT 9999 BKN016 26/23 Q1013 NOSIG=  
02-Jan-2022 SAID33 WATB 020000 METAR WATB 020000Z 12002KT 9999 BKN018 24/23 Q1014 NOSIG=  
02-Jan-2022 SAID33 WATB 020100 METAR WATB 020100Z 08003KT 9999 BKN018 27/23 Q1014 NOSIG=  
02-Jan-2022 SAID33 WATB 020200 METAR WATB 020200Z 05002KT 9999 BKN018 27/23 Q1014 NOSIG=  
02-Jan-2022 SAID33 WATB 020300 METAR WATB 020300Z 08003KT 9999 BKN018 30/24 Q1013 NOSIG=  
02-Jan-2022 SAID33 WATB 020400 METAR WATB 020400Z 09006KT 9999 BKN017 29/23 Q1012 NOSIG=  
02-Jan-2022 SPID33 WATB 020445 SPECI WATB 020445Z 26005KT 8000 -RA BKN016 24/23 Q1012=  
02-Jan-2022 SAID33 WATB 020500 METAR WATB 020500Z 28003KT 7000 RA BKN016 24/23 Q1012 TEMPO TL0600 RA=  
02-Jan-2022 SPID33 WATB 020515 SPECI WATB 020515Z 05006KT 8000 -RA BKN016 27/25 Q1010=  
02-Jan-2022 SPID33 WATB 020542 SPECI WATB 020542Z 16002KT 9999 BKN016 26/24 Q1011 RERA=  
02-Jan-2022 SAID33 WATB 020600 METAR WATB 020600Z 13004KT 7000 -TSRA FEW015CB BKN016 25/24 Q1011 TEMPO TL0630 -TSRA=  
03-Jan-2022 SAID33 WATB 030000 METAR WATB 030000Z 06002KT 9999 FEW018 25/22 Q1013 NOSIG=  
03-Jan-2022 SAID33 WATB 030100 METAR WATB 030100Z 09004KT 9999 FEW018 27/23 Q1013 NOSIG=  
03-Jan-2022 SAID33 WATB 030200 METAR WATB 030200Z 11002KT 9999 SCT018 29/22 Q1013 NOSIG=  
03-Jan-2022 SAID33 WATB 030300 METAR WATB 030300Z 12004KT 9999 SCT020 30/23 Q1012 NOSIG=  
03-Jan-2022 SAID33 WATB 030400 METAR WATB 030400Z 09002KT 9999 BKN020 29/23 Q1011 NOSIG=  
03-Jan-2022 SAID33 WATB 030500 METAR WATB 030500Z 05004KT 9999 BKN020 29/24 Q1011 NOSIG=  
03-Jan-2022 SPID33 WATB 030515 SPECI WATB 030515Z 05006KT 8000 -RA BKN016 27/25 Q1010=  
03-Jan-2022 SAID33 WATB 030600 METAR WATB 030600Z 04006KT 8000 RA BKN016 24/23 Q1010 TEMPO TL0700 RA=  
04-Jan-2022 SAID33 WATB 040000 METAR WATB 040000Z 05002KT 9999 BKN017 24/23 Q1014 NOSIG=  
04-Jan-2022 SAID33 WATB 040100 METAR WATB 040100Z 13002KT 9999 BKN017 24/23 Q1014 NOSIG=  
04-Jan-2022 SAID33 WATB 040200 METAR WATB 040200Z 16002KT 9999 BKN017 26/23 Q1014 NOSIG=  
04-Jan-2022 SAID33 WATB 040300 METAR WATB 040300Z 00000KT 9999 BKN017 27/23 Q1012 NOSIG=  
04-Jan-2022 SAID33 WATB 040400 METAR WATB 040400Z 09004KT 9999 BKN017 27/24 Q1012 NOSIG=  
04-Jan-2022 SAID33 WATB 040500 METAR WATB 040500Z 11004KT 9999 BKN017 27/24 Q1011 NOSIG=  
04-Jan-2022 SAID33 WATB 040600 METAR WATB 040600Z 09008KT 9999 BKN017 26/24 Q1011 NOSIG=  
05-Jan-2022 SAID33 WATB 050000 METAR WATB 050000Z 09002KT 9999 BKN018 23/22 Q1014 NOSIG=  
05-Jan-2022 SAID33 WATB 050100 METAR WATB 050100Z 35002KT 9999 BKN018 24/23 Q1014 NOSIG=  
05-Jan-2022 SAID33 WATB 050200 METAR WATB 050200Z 33007KT 9999 BKN018 25/23 Q1014 NOSIG=  
05-Jan-2022 SAID33 WATB 050300 METAR WATB 050300Z 08003KT 9999 BKN018 26/24 Q1013 NOSIG=  
05-Jan-2022 SAID33 WATB 050400 METAR WATB 050400Z 09003KT 9999 BKN018 25/23 Q1012 NOSIG=  
05-Jan-2022 SPID33 WATB 050442 SPECI WATB 050442Z 25005KT 8000 -RA BKN016 25/23 Q1012=  
05-Jan-2022 SAID33 WATB 050500 METAR WATB 050500Z 17002KT 8000 RA BKN016 24/24 Q1012 TEMPO TL0600 RA=  
05-Jan-2022 SAID33 WATB 050600 METAR WATB 050600Z 00000KT 8000 RA BKN016 25/24 Q1012 TEMPO TL0700 RA=  
06-Jan-2022 SAID33 WATB 060000 METAR WATB 060000Z 03002KT 9999 SCT018 25/22 Q1014 NOSIG=  
06-Jan-2022 SAID33 WATB 060100 METAR WATB 060100Z 05002KT 9999 FEW018 27/22 Q1014 NOSIG=  
06-Jan-2022 SAID33 WATB 060200 METAR WATB 060200Z 07004KT 9999 FEW018 29/22 Q1014 NOSIG=  
06-Jan-2022 SAID33 WATB 060300 METAR WATB 060300Z 09006KT 9999 FEW018 30/22 Q1013 NOSIG=  
06-Jan-2022 SAID33 WATB 060400 METAR WATB 060400Z 06007KT 9999 BKN018 29/23 Q1012 NOSIG=  
06-Jan-2022 SPID33 WATB 060435 SPECI WATB 060435Z 07003KT 7000 TSRA FEW015CB BKN016 23/23 Q1012 RMK CB TO E=  
06-Jan-2022 SAID33 WATB 060500 METAR WATB 060500Z 27005KT 5000 TSRA FEW015CB BKN016 22/22 Q1013 TEMPO TL0530 TSRA=  
06-Jan-2022 SAID33 WATB 060600 METAR WATB 060600Z 07002KT 6000 TSRA FEW015CB BKN016 22/22 Q1013 TEMPO TL0700 TSRA=  
07-Jan-2022 SAID33 WATB 070000 METAR WATB 070000Z 00000KT 9999 SCT018 24/22 Q1015 NOSIG=  
07-Jan-2022 SAID33 WATB 070100 METAR WATB 070100Z 11003KT 9999 SCT018 27/22 Q1015 NOSIG=  
07-Jan-2022 SAID33 WATB 070200 METAR WATB 070200Z 09003KT 9999 FEW018 28/22 Q1015 NOSIG=  
07-Jan-2022 SAID33 WATB 070300 METAR WATB 070300Z 16004KT 9999 SCT018 28/21 Q1014 NOSIG=  
07-Jan-2022 SAID33 WATB 070400 METAR WATB 070400Z 15003KT 9999 BKN018 31/23 Q1014 NOSIG=  
07-Jan-2022 SAID33 WATB 070500 METAR WATB 070500Z 04005KT 9999 BKN018 27/24 Q1013 NOSIG=  
07-Jan-2022 SAID33 WATB 070600 METAR WATB 070600Z 10006KT 9999 BKN018 27/23 Q1012 NOSIG=  
08-Jan-2022 SAID33 WATB 080000 METAR WATB 080000Z 00000KT 9999 FEW018 25/22 Q1015 NOSIG=  
08-Jan-2022 SAID33 WATB 080100 METAR WATB 080100Z 12002KT 9999 FEW018 26/22 Q1015 NOSIG=  
08-Jan-2022 SAID33 WATB 080200 METAR WATB 080200Z 10002KT 9999 FEW018 28/21 Q1014 NOSIG=  
08-Jan-2022 SAID33 WATB 080300 METAR WATB 080300Z 06004KT 9999 SCT018 29/22 Q1013 NOSIG=  
08-Jan-2022 SAID33 WATB 080400 METAR WATB 080400Z 11004KT 9999 SCT018 29/22 Q1013 NOSIG=  
08-Jan-2022 SPID33 WATB 080447 SPECI WATB 080447Z 04005KT 8000 TSRA FEW015CB BKN016 26/24 Q1012 RMK CB TO W=  
08-Jan-2022 SAID33 WATB 080500 METAR WATB 080500Z 04009KT 8000 TSRA FEW015CB BKN016 26/24 Q1012 TEMPO TL0530 TSRA=  
08-Jan-2022 SAID33 WATB 080600 METAR WATB 080600Z 09002KT 8000 TSRA FEW015CB BKN016 24/24 Q1012 TEMPO TL0700 TSRA=  
09-Jan-2022 SAID33 WATB 090000 METAR WATB 090000Z 00000KT 9999 FEW018 26/22 Q1014 NOSIG=  
09-Jan-2022 SAID33 WATB 090100 METAR WATB 090100Z 06002KT 9999 FEW018 27/23 Q1014 NOSIG=  
09-Jan-2022 SAID33 WATB 090200 METAR WATB 090200Z 05005KT 9999 FEW018 29/23 Q1013 NOSIG=  
09-Jan-2022 SAID33 WATB 090300 METAR WATB 090300Z 08004KT 9999 SCT018 28/23 Q1013 NOSIG=  
09-Jan-2022 SAID33 WATB 090400 METAR WATB 090400Z 04006KT 9999 BKN018 31/23 Q1012 NOSIG=  
09-Jan-2022 SPID33 WATB 090443 SPECI WATB 090443Z 13002KT 8000 -RA BKN016 26/23 Q1011=  
09-Jan-2022 SAID33 WATB 090600 METAR WATB 090600Z 32002KT 7000 TSRA FEW015CB BKN016 23/23 Q1011 TEMPO TL0700 TSRA=  
10-Jan-2022 SAID33 WATB 100000 METAR WATB 100000Z 01003KT 9999 SCT018 24/23 Q1015 NOSIG=  
10-Jan-2022 SAID33 WATB 100100 METAR WATB 100100Z 04002KT 9999 BKN018 26/23 Q1014 NOSIG=  
10-Jan-2022 SAID33 WATB 100200 METAR WATB 100200Z 06003KT 9999 BKN018 28/23 Q1014 NOSIG=  
10-Jan-2022 SAID33 WATB 100300 METAR WATB 100300Z 08005KT 9999 BKN018 28/24 Q1013 NOSIG=  
10-Jan-2022 SAID33 WATB 100400 METAR WATB 100400Z 03006KT 9999 BKN018 30/23 Q1012 NOSIG=  
10-Jan-2022 SAID33 WATB 100500 METAR WATB 100500Z 09009KT 9999 BKN018 29/25 Q1012 NOSIG=  
10-Jan-2022 SAID33 WATB 100600 METAR WATB 100600Z 08006KT 9999 BKN018 29/24 Q1011 NOSIG=  
11-Jan-2022 SAID33 WATB 110000 METAR WATB 110000Z 12003KT 9999 BKN018 24/23 Q1016 NOSIG=  
11-Jan-2022 SAID33 WATB 110100 METAR WATB 110100Z 17002KT 9999 BKN018 25/23 Q1016 NOSIG=  
11-Jan-2022 SAID33 WATB 110200 METAR WATB 110200Z 04003KT 9999 BKN018 29/24 Q1015 NOSIG=  
11-Jan-2022 SAID33 WATB 110300 METAR WATB 110300Z 35003KT 9999 BKN018 30/22 Q1014 NOSIG=  
11-Jan-2022 SAID33 WATB 110400 METAR WATB 110400Z 07004KT 9999 BKN018 30/23 Q1013 NOSIG=  
11-Jan-2022 SAID33 WATB 110500 METAR WATB 110500Z 06007KT 9999 BKN016 26/24 Q1013 NOSIG=  
12-Jan-2022 SAID33 WATB 120000 METAR WATB 120000Z 11003KT 9999 FEW018 26/22 Q1014 NOSIG=  
12-Jan-2022 SAID33 WATB 120100 METAR WATB 120100Z 08002KT 9999 FEW018 27/22 Q1014 NOSIG=  
12-Jan-2022 SAID33 WATB 120200 METAR WATB 120200Z 07003KT 9999 FEW018 29/22 Q1014 NOSIG=  
12-Jan-2022 SAID33 WATB 120300 METAR WATB 120300Z 11004KT 9999 SCT018 30/22 Q1013 NOSIG=  
12-Jan-2022 SAID33 WATB 120400 METAR WATB 120400Z 08006KT 9999 SCT018 30/24 Q1012 NOSIG=  
12-Jan-2022 SAID33 WATB 120500 METAR WATB 120500Z 09007KT 9999 BKN018 30/25 Q1011 NOSIG=  
12-Jan-2022 SAID33 WATB 120600 METAR WATB 120600Z 09006KT 9999 BKN018 30/24 Q1011 NOSIG=  
13-Jan-2022 SAID33 WATB 130000 METAR WATB 130000Z 14002KT 2000 HZ BKN015 23/23 Q1013=  
13-Jan-2022 SAID33 WATB 130100 METAR WATB 130100Z 06002KT 7000 BKN016 25/23 Q1014 NOSIG=  
13-Jan-2022 SAID33 WATB 130200 METAR WATB 130200Z 04005KT 9999 SCT018 28/24 Q1014 NOSIG=  
13-Jan-2022 SAID33 WATB 130300 METAR WATB 130300Z 01005KT 9999 BKN018 29/24 Q1014 NOSIG=  
13-Jan-2022 SAID33 WATB 130400 METAR WATB 130400Z 05002KT 9999 BKN018 28/22 Q1013 NOSIG=  
13-Jan-2022 SAID33 WATB 130500 METAR WATB 130500Z 18009KT 9999 BKN018 29/23 Q1012 NOSIG=  
13-Jan-2022 SAID33 WATB 130600 METAR WATB 130600Z 06002KT 9999 BKN018 28/22 Q1011 NOSIG=  
14-Jan-2022 SAID33 WATB 140000 METAR WATB 140000Z 34003KT 9999 BKN017 24/23 Q1012 NOSIG=  
14-Jan-2022 SAID33 WATB 140100 METAR WATB 140100Z 06002KT 9999 BKN018 26/23 Q1012 NOSIG=  
14-Jan-2022 SAID33 WATB 140200 METAR WATB 140200Z 05003KT 9999 BKN018 27/23 Q1012 NOSIG=  
14-Jan-2022 SAID33 WATB 140300 METAR WATB 140300Z 09002KT 9999 BKN018 30/23 Q1011 NOSIG=  
14-Jan-2022 SAID33 WATB 140400 METAR WATB 140400Z 09007KT 9999 BKN018 32/22 Q1011 NOSIG=  
14-Jan-2022 SAID33 WATB 140500 METAR WATB 140500Z 11007KT 9999 BKN018 30/25 Q1010 NOSIG=  
14-Jan-2022 SAID33 WATB 140600 METAR WATB 140600Z 13004KT 9999 BKN018 26/24 Q1010 NOSIG=  
15-Jan-2022 SAID33 WATB 150000 METAR WATB 150000Z 11003KT 9999 BKN018 24/22 Q1013 NOSIG=  
15-Jan-2022 SAID33 WATB 150100 METAR WATB 150100Z 09003KT 9999 BKN018 27/23 Q1013 NOSIG=  
15-Jan-2022 SAID33 WATB 150200 METAR WATB 150200Z 02003KT 9999 BKN018 27/23 Q1012 NOSIG=  
15-Jan-2022 SAID33 WATB 150300 METAR WATB 150300Z 06002KT 9999 BKN018 30/24 Q1012 NOSIG=  
15-Jan-2022 SAID33 WATB 150400 METAR WATB 150400Z 11002KT 9999 BKN018 29/25 Q1011 NOSIG=  
15-Jan-2022 SAID33 WATB 150500 METAR WATB 150500Z 10002KT 9999 BKN018 29/23 Q1011 NOSIG=  
15-Jan-2022 SPID33 WATB 150537 SPECI WATB 150537Z 13003KT 9999 TS FEW016CB BKN017 29/23 Q1010 RMK CB TO NE=  
15-Jan-2022 SAID33 WATB 150600 METAR WATB 150600Z 18002KT 9999 TS FEW016CB BKN017 29/23 Q1010 RMK CB TO NE=  
16-Jan-2022 SAID33 WATB 160000 METAR WATB 160000Z 13002KT 7000 BKN015 23/23 Q1012 NOSIG=  
16-Jan-2022 SAID33 WATB 160100 METAR WATB 160100Z 12002KT 7000 BKN017 23/23 Q1013 NOSIG=  
16-Jan-2022 SAID33 WATB 160200 METAR WATB 160200Z 09004KT 8000 BKN017 26/23 Q1012 NOSIG=  
16-Jan-2022 SAID33 WATB 160300 METAR WATB 160300Z 11003KT 9999 BKN018 26/23 Q1012 NOSIG=  
16-Jan-2022 SAID33 WATB 160400 METAR WATB 160400Z 13003KT 9999 BKN018 29/23 Q1012 NOSIG=  
16-Jan-2022 SAID33 WATB 160500 METAR WATB 160500Z 11004KT 9999 BKN018 29/24 Q1011 NOSIG=  
16-Jan-2022 SAID33 WATB 160600 METAR WATB 160600Z 11002KT 9999 BKN018 28/24 Q1010 NOSIG=  
17-Jan-2022 SAID33 WATB 170000 METAR WATB 170000Z 29004KT 9999 BKN017 23/22 Q1013 NOSIG=  
17-Jan-2022 SAID33 WATB 170100 METAR WATB 170100Z 12002KT 9999 BKN018 25/23 Q1013 NOSIG=  
17-Jan-2022 SAID33 WATB 170200 METAR WATB 170200Z 10002KT 9999 BKN018 26/23 Q1014 NOSIG=  
17-Jan-2022 SAID33 WATB 170300 METAR WATB 170300Z 12004KT 9999 BKN018 26/23 Q1013 NOSIG=  
17-Jan-2022 SPID33 WATB 170340 SPECI WATB 170340Z 05002KT 8000 -RA BKN016 26/23 Q1012=  
17-Jan-2022 SAID33 WATB 170400 METAR WATB 170400Z 03002KT 8000 -RA BKN015 27/23 Q1012 TEMPO TL0500 -RA=  
17-Jan-2022 SAID33 WATB 170500 METAR WATB 170500Z 08002KT 8000 -RA BKN015 26/24 Q1012 TEMPO TL0600 -RA=  
17-Jan-2022 SAID33 WATB 170600 METAR WATB 170600Z 09002KT 8000 -RA BKN015 27/24 Q1011 TEMPO TL0700 -RA=  
18-Jan-2022 SAID33 WATB 180000 METAR WATB 180000Z 01003KT 7000 BKN018 24/23 Q1013 NOSIG=  
18-Jan-2022 SAID33 WATB 180100 METAR WATB 180100Z 08002KT 9999 BKN018 24/23 Q1013 NOSIG=  
18-Jan-2022 SAID33 WATB 180200 METAR WATB 180200Z 12002KT 9999 BKN018 24/23 Q1013 NOSIG=  
18-Jan-2022 SAID33 WATB 180300 METAR WATB 180300Z 35002KT 9999 BKN018 25/23 Q1012 NOSIG=  
18-Jan-2022 SAID33 WATB 180400 METAR WATB 180400Z 31002KT 9999 BKN018 25/23 Q1011 NOSIG=  
18-Jan-2022 SAID33 WATB 180500 METAR WATB 180500Z 01002KT 9999 BKN018 26/23 Q1011 NOSIG=  
18-Jan-2022 SAID33 WATB 180600 METAR WATB 180600Z 09004KT 9999 BKN018 26/23 Q1010 NOSIG=  
19-Jan-2022 SAID33 WATB 190000 METAR WATB 190000Z 33002KT 6000 -RA BKN015 22/22 Q1011 TEMPO TL0100 -RA=  
19-Jan-2022 SAID33 WATB 190100 METAR WATB 190100Z 00000KT 8000 -RA BKN015 22/22 Q1011 TEMPO TL0200 -RA=  
19-Jan-2022 SAID33 WATB 190200 METAR WATB 190200Z 35003KT 2000 RA BKN014 23/23 Q1012 TEMPO TL0300 RA=  
19-Jan-2022 SAID33 WATB 190300 METAR WATB 190300Z 12002KT 7000 -RA BKN015 23/23 Q1012 TEMPO TL0400 -RA=  
19-Jan-2022 SAID33 WATB 190400 METAR WATB 190400Z 01002KT 8000 -RA BKN015 25/23 Q1012 TEMPO TL0500 -RA=  
19-Jan-2022 SAID33 WATB 190500 METAR WATB 190500Z 07002KT 8000 -RA BKN015 25/23 Q1011 TEMPO TL0600 -RA=  
19-Jan-2022 SAID33 WATB 190600 METAR WATB 190600Z 32003KT 8000 -RA BKN015 25/22 Q1010 TEMPO TL0700 -RA=  
20-Jan-2022 SAID33 WATB 200000 METAR WATB 200000Z 14002KT 9999 BKN018 23/22 Q1011 NOSIG=  
20-Jan-2022 SAID33 WATB 200100 METAR WATB 200100Z 08003KT 9999 BKN018 25/23 Q1012 NOSIG=  
20-Jan-2022 SAID33 WATB 200200 METAR WATB 200200Z 00000KT 9999 BKN018 28/21 Q1011 NOSIG=  
20-Jan-2022 SAID33 WATB 200300 METAR WATB 200300Z 15003KT 9999 BKN018 30/22 Q1011 NOSIG=  
20-Jan-2022 SAID33 WATB 200400 METAR WATB 200400Z 18004KT 9999 BKN018 29/21 Q1010 NOSIG=  
20-Jan-2022 SAID33 WATB 200500 METAR WATB 200500Z 17004KT 9999 BKN018 29/21 Q1010 NOSIG=  
20-Jan-2022 SAID33 WATB 200600 METAR WATB 200600Z 19004KT 9999 BKN018 29/21 Q1009 NOSIG=  
21-Jan-2022 SAID33 WATB 210000 METAR WATB 210000Z 12003KT 9999 BKN018 26/23 Q1011 NOSIG=  
21-Jan-2022 SAID33 WATB 210100 METAR WATB 210100Z 05004KT 9999 BKN018 28/22 Q1011 NOSIG=  
21-Jan-2022 SAID33 WATB 210200 METAR WATB 210200Z 04005KT 9999 BKN018 27/22 Q1011 NOSIG=  
21-Jan-2022 SAID33 WATB 210300 METAR WATB 210300Z 11006KT 9999 BKN018 28/20 Q1011 NOSIG=  
21-Jan-2022 SAID33 WATB 210400 METAR WATB 210400Z 13004KT 9999 BKN018 30/21 Q1010 NOSIG=  
21-Jan-2022 SAID33 WATB 210500 METAR WATB 210500Z 11005KT 9999 BKN018 31/20 Q1009 NOSIG=  
21-Jan-2022 SAID33 WATB 210600 METAR WATB 210600Z 09003KT 9999 BKN018 31/21 Q1009 NOSIG=  
22-Jan-2022 SAID33 WATB 220000 METAR WATB 220000Z 06002KT 8000 BKN018 24/22 Q1011 NOSIG=  
22-Jan-2022 SAID33 WATB 220100 METAR WATB 220100Z 11006KT 9999 BKN018 26/23 Q1011 NOSIG=  
22-Jan-2022 SAID33 WATB 220200 METAR WATB 220200Z 10005KT 9999 SCT018 28/22 Q1011 NOSIG=  
22-Jan-2022 SAID33 WATB 220300 METAR WATB 220300Z 02003KT 9999 SCT018 30/21 Q1010 NOSIG=  
22-Jan-2022 SAID33 WATB 220400 METAR WATB 220400Z 12002KT 9999 SCT018 31/21 Q1010 NOSIG=  
22-Jan-2022 SAID33 WATB 220500 METAR WATB 220500Z 32009KT 9999 SCT018 30/21 Q1009 NOSIG=  
22-Jan-2022 SAID33 WATB 220600 METAR WATB 220600Z 31008KT 9999 SCT018 31/20 Q1008 NOSIG=  
23-Jan-2022 SAID33 WATB 230000 METAR WATB 230000Z 14002KT 9999 FEW018 25/22 Q1011 NOSIG=  
23-Jan-2022 SAID33 WATB 230100 METAR WATB 230100Z 12004KT 9999 FEW018 27/23 Q1011 NOSIG=  
23-Jan-2022 SAID33 WATB 230200 METAR WATB 230200Z 09003KT 9999 FEW018 28/22 Q1011 NOSIG=  
23-Jan-2022 SAID33 WATB 230300 METAR WATB 230300Z 10004KT 9999 SCT018 30/22 Q1010 NOSIG=  
23-Jan-2022 SAID33 WATB 230400 METAR WATB 230400Z 06007KT 9999 BKN018 30/24 Q1009 NOSIG=  
23-Jan-2022 SAID33 WATB 230500 METAR WATB 230500Z 09006KT 9999 BKN018 30/24 Q1009 NOSIG=  
23-Jan-2022 SAID33 WATB 230600 METAR WATB 230600Z 11008KT 9999 BKN018 29/24 Q1008 NOSIG=  
24-Jan-2022 SAID33 WATB 240000 METAR WATB 240000Z 15003KT 9999 BKN017 25/22 Q1011 NOSIG=  
24-Jan-2022 SAID33 WATB 240100 METAR WATB 240100Z 11004KT 9999 BKN018 28/23 Q1010 NOSIG=  
24-Jan-2022 SAID33 WATB 240200 METAR WATB 240200Z 13007KT 9999 SCT018 28/23 Q1009 NOSIG=  
24-Jan-2022 SAID33 WATB 240300 METAR WATB 240300Z 11008KT 9999 SCT018 28/23 Q1009 NOSIG=  
24-Jan-2022 SAID33 WATB 240400 METAR WATB 240400Z 13004KT 9999 BKN018 29/24 Q1008 NOSIG=  
24-Jan-2022 SAID33 WATB 240500 METAR WATB 240500Z 11003KT 9999 BKN018 31/23 Q1007 NOSIG=  
24-Jan-2022 SAID33 WATB 240600 METAR WATB 240600Z 07003KT 9999 BKN018 32/24 Q1006 NOSIG=  
25-Jan-2022 SAID33 WATB 250000 METAR WATB 250000Z 12004KT 9999 SCT018 26/23 Q1011 NOSIG=  
25-Jan-2022 SAID33 WATB 250100 METAR WATB 250100Z 12005KT 9999 SCT018 27/22 Q1010 NOSIG=  
25-Jan-2022 SAID33 WATB 250200 METAR WATB 250200Z 11004KT 9999 SCT018 28/23 Q1010 NOSIG=  
25-Jan-2022 SAID33 WATB 250300 METAR WATB 250300Z 00000KT 9999 BKN017 28/23 Q1010 NOSIG=  
25-Jan-2022 SAID33 WATB 250400 METAR WATB 250400Z 29005KT 9999 BKN017 30/22 Q1009 NOSIG=  
25-Jan-2022 SAID33 WATB 250500 METAR WATB 250500Z 28006KT 9999 BKN018 32/22 Q1008 NOSIG=  
25-Jan-2022 SAID33 WATB 250600 METAR WATB 250600Z 27007KT 9999 BKN018 28/21 Q1007 NOSIG=  
26-Jan-2022 SAID33 WATB 260000 METAR WATB 260000Z 14004KT 9999 BKN017 25/23 Q1011 NOSIG=  
26-Jan-2022 SAID33 WATB 260100 METAR WATB 260100Z 00000KT 9999 BKN017 25/23 Q1011 NOSIG=  
26-Jan-2022 SAID33 WATB 260200 METAR WATB 260200Z 00000KT 9999 BKN018 29/24 Q1010 NOSIG=  
26-Jan-2022 SAID33 WATB 260300 METAR WATB 260300Z 31008KT 9999 BKN018 30/21 Q1010 NOSIG=  
26-Jan-2022 SAID33 WATB 260400 METAR WATB 260400Z 32007KT 9999 BKN018 29/22 Q1009 NOSIG=  
26-Jan-2022 SAID33 WATB 260500 METAR WATB 260500Z 29009KT 9999 BKN018 28/22 Q1009 NOSIG=  
26-Jan-2022 SAID33 WATB 260600 METAR WATB 260600Z 32007KT 9999 BKN018 28/22 Q1009 NOSIG=  
27-Jan-2022 SAID33 WATB 270000 METAR WATB 270000Z 00000KT 9999 BKN018 26/23 Q1012 NOSIG=  
27-Jan-2022 SAID33 WATB 270100 METAR WATB 270100Z 00000KT 9999 BKN018 26/24 Q1012 NOSIG=  
27-Jan-2022 SAID33 WATB 270200 METAR WATB 270200Z 00000KT 9999 BKN018 27/24 Q1012 NOSIG=  
27-Jan-2022 SAID33 WATB 270300 METAR WATB 270300Z 00000KT 9999 BKN018 27/24 Q1012 NOSIG=  
27-Jan-2022 SAID33 WATB 270400 METAR WATB 270400Z 00000KT 9999 BKN018 28/24 Q1011 NOSIG=  
27-Jan-2022 SAID33 WATB 270500 METAR WATB 270500Z 00000KT 9999 BKN018 27/25 Q1010 NOSIG=  
28-Jan-2022 SAID33 WATB 280000 METAR WATB 280000Z 00000KT 9999 BKN017 23/23 Q1013 NOSIG=  
28-Jan-2022 SAID33 WATB 280100 METAR WATB 280100Z 00000KT 9999 BKN017 24/23 Q1013 NOSIG=  
28-Jan-2022 SAID33 WATB 280200 METAR WATB 280200Z 00000KT 9999 BKN017 26/23 Q1014 NOSIG=  
28-Jan-2022 SAID33 WATB 280300 METAR WATB 280300Z 00000KT 9999 BKN018 27/22 Q1013 NOSIG=  
28-Jan-2022 SAID33 WATB 280400 METAR WATB 280400Z 04003KT 9999 BKN018 28/21 Q1012 NOSIG=  
28-Jan-2022 SAID33 WATB 280500 METAR WATB 280500Z 09005KT 9999 BKN018 30/21 Q1011 NOSIG=  
28-Jan-2022 SAID33 WATB 280600 METAR WATB 280600Z 07004KT 9999 BKN018 31/20 Q1011 NOSIG=  
29-Jan-2022 SAID33 WATB 290000 METAR WATB 290000Z 00000KT 9999 BKN017 23/21 Q1013 NOSIG=  
29-Jan-2022 SAID33 WATB 290100 METAR WATB 290100Z 00000KT 9999 BKN018 25/22 Q1013 NOSIG=  
29-Jan-2022 SAID33 WATB 290200 METAR WATB 290200Z 00000KT 9999 SCT020 28/22 Q1013 NOSIG=  
29-Jan-2022 SAID33 WATB 290300 METAR WATB 290300Z 00000KT 9999 SCT020 31/21 Q1012 NOSIG=  
29-Jan-2022 SAID33 WATB 290400 METAR WATB 290400Z 00000KT 9999 SCT020 31/21 Q1011 NOSIG=  
29-Jan-2022 SAID33 WATB 290500 METAR WATB 290500Z 00000KT 9999 BKN018 31/24 Q1011 NOSIG=  
29-Jan-2022 SAID33 WATB 290600 METAR WATB 290600Z 04003KT 9999 BKN018 30/24 Q1010 NOSIG=  
30-Jan-2022 SAID33 WATB 300400 METAR WATB 300400Z 00000KT 9999 BKN018 28/22 Q1012 NOSIG=  
30-Jan-2022 SAID33 WATB 300500 METAR WATB 300500Z 00000KT 9999 BKN018 29/22 Q1011 NOSIG=  
30-Jan-2022 SAID33 WATB 300600 METAR WATB 300600Z 00000KT 9999 BKN018 28/22 Q1010 NOSIG=  
31-Jan-2022 SAID33 WATB 310000 METAR WATB 310000Z 00000KT 9999 BKN018 25/22 Q1012 NOSIG=  
31-Jan-2022 SAID33 WATB 310100 METAR WATB 310100Z 00000KT 9999 BKN018 25/22 Q1012 NOSIG=  
31-Jan-2022 SAID33 WATB 310200 METAR WATB 310200Z 00000KT 9999 BKN018 27/23 Q1012 NOSIG=  
31-Jan-2022 SAID33 WATB 310300 METAR WATB 310300Z 00000KT 9999 BKN018 28/24 Q1011 NOSIG=  
31-Jan-2022 SAID33 WATB 310400 METAR WATB 310400Z 00000KT 9999 BKN018 29/23 Q1010 NOSIG=  
31-Jan-2022 SAID33 WATB 310500 METAR WATB 310500Z 00000KT 9999 BKN018 30/24 Q1010 NOSIG=  
31-Jan-2022 SAID33 WATB 310600 METAR WATB 310600Z 00000KT 9999 BKN018 32/22 Q1009 NOSIG=  
01-Feb-2022 SAID33 WATB 010000 METAR WATB 010000Z 00000KT 9999 FEW019 25/23 Q1012 NOSIG=  
01-Feb-2022 SAID33 WATB 010100 METAR WATB 010100Z 10002KT 9999 FEW018 27/23 Q1012 NOSIG=  
01-Feb-2022 SAID33 WATB 010200 METAR WATB 010200Z 08002KT 9999 SCT018 30/22 Q1011 NOSIG=  
01-Feb-2022 SAID33 WATB 010300 METAR WATB 010300Z 35015KT 9999 SCT018 30/21 Q1011 NOSIG=  
01-Feb-2022 SAID33 WATB 010500 METAR WATB 010500Z 30013KT 9999 SCT019 32/21 Q1010 NOSIG=  
01-Feb-2022 SAID33 WATB 010600 METAR WATB 010600Z 28010KT 9999 SCT018 33/20 Q1009 NOSIG=  
02-Feb-2022 SAID33 WATB 020000 METAR WATB 020000Z 00000KT 9999 FEW020 25/21 Q1014 NOSIG=  
02-Feb-2022 SAID33 WATB 020100 METAR WATB 020100Z 00000KT 9999 FEW020 27/21 Q1013 NOSIG=  
02-Feb-2022 SAID33 WATB 020200 METAR WATB 020200Z 17003KT 9999 SCT019 28/22 Q1013 NOSIG=  
02-Feb-2022 SAID33 WATB 020300 METAR WATB 020300Z 18003KT 9999 SCT019 29/22 Q1012 NOSIG=  
02-Feb-2022 SAID33 WATB 020400 METAR WATB 020400Z 00000KT 9999 SCT018 31/22 Q1011 NOSIG=  
02-Feb-2022 SAID33 WATB 020500 METAR WATB 020500Z 09005KT 9999 SCT018 30/24 Q1010 NOSIG=  
02-Feb-2022 SAID33 WATB 020600 METAR WATB 020600Z 09004KT 9999 SCT018 31/25 Q1010 NOSIG=  
03-Feb-2022 SAID33 WATB 030000 METAR WATB 030000Z 09004KT 9999 SCT019 24/23 Q1012 NOSIG=  
03-Feb-2022 SAID33 WATB 030100 METAR WATB 030100Z 09003KT 9999 FEW018 27/23 Q1012 NOSIG=  
03-Feb-2022 SAID33 WATB 030200 METAR WATB 030200Z 04004KT 9999 SCT019 28/23 Q1012 NOSIG=  
03-Feb-2022 SAID33 WATB 030300 METAR WATB 030300Z 02003KT 9999 SCT019 29/22 Q1011 NOSIG=  
03-Feb-2022 SAID33 WATB 030400 METAR WATB 030400Z 18003KT 9999 SCT018 30/21 Q1011 NOSIG=  
03-Feb-2022 SAID33 WATB 030500 METAR WATB 030500Z 18002KT 9999 SCT018 30/22 Q1010 NOSIG=  
03-Feb-2022 SAID33 WATB 030600 METAR WATB 030600Z 05003KT 9999 SCT018 29/21 Q1009 NOSIG=  
05-Feb-2022 SAID33 WATB 050000 METAR WATB 050000Z 10003KT 9999 SCT020 25/24 Q1012 NOSIG=  
05-Feb-2022 SAID33 WATB 050100 METAR WATB 050100Z 04003KT 9999 SCT019 27/24 Q1012 NOSIG=  
05-Feb-2022 SAID33 WATB 050200 METAR WATB 050200Z 05002KT 9999 SCT019 28/23 Q1011 NOSIG=  
05-Feb-2022 SAID33 WATB 050400 METAR WATB 050400Z 07007KT 9999 SCT018 30/25 Q1009 NOSIG=  
06-Feb-2022 SAID33 WATB 060000 METAR WATB 060000Z 00000KT 9999 BKN019 24/23 Q1013 NOSIG=  
06-Feb-2022 SAID33 WATB 060100 METAR WATB 060100Z 10002KT 9999 SCT019 27/23 Q1014 NOSIG=  
06-Feb-2022 SAID33 WATB 060200 METAR WATB 060200Z 09004KT 9999 SCT019 29/24 Q1013 NOSIG=  
06-Feb-2022 SAID33 WATB 060300 METAR WATB 060300Z 02003KT 9999 SCT018 30/23 Q1013 NOSIG=  
06-Feb-2022 SAID33 WATB 060400 METAR WATB 060400Z 18030KT 9999 SCT018 30/21 Q1012 NOSIG=  
06-Feb-2022 SAID33 WATB 060500 METAR WATB 060500Z 27004KT 9999 SCT018 31/22 Q1011 NOSIG=  
06-Feb-2022 SAID33 WATB 060600 METAR WATB 060600Z 30006KT 9999 SCT018 31/22 Q1010 NOSIG=  
07-Feb-2022 SAID33 WATB 070000 METAR WATB 070000Z 08002KT 9999 FEW020 25/21 Q1014 NOSIG=  
07-Feb-2022 SAID33 WATB 070100 METAR WATB 070100Z 09003KT 9999 FEW019 26/22 Q1014 NOSIG=  
07-Feb-2022 SAID33 WATB 070200 METAR WATB 070200Z 09005KT 9999 SCT019 28/22 Q1014 NOSIG=  
07-Feb-2022 SAID33 WATB 070300 METAR WATB 070300Z 09005KT 9999 SCT018 29/24 Q1013 NOSIG=  
07-Feb-2022 SAID33 WATB 070400 METAR WATB 070400Z 05006KT 9999 BKN018 29/25 Q1012 NOSIG=  
07-Feb-2022 SAID33 WATB 070500 METAR WATB 070500Z 10003KT 9999 RA BKN018 26/25 Q1012 TEMPO TL0600 RA=  
07-Feb-2022 SAID33 WATB 070600 METAR WATB 070600Z 06002KT 9999 BKN018 25/23 Q1011 RERA=  
08-Feb-2022 SAID33 WATB 080000 METAR WATB 080000Z 06002KT 9999 FEW020 25/23 Q1014 NOSIG=  
08-Feb-2022 SAID33 WATB 080100 METAR WATB 080100Z 07002KT 9999 FEW020 27/23 Q1014 NOSIG=  
08-Feb-2022 SAID33 WATB 080200 METAR WATB 080200Z 09003KT 9999 SCT020 28/23 Q1014 NOSIG=  
08-Feb-2022 SAID33 WATB 080300 METAR WATB 080300Z 06004KT 9999 SCT018 30/22 Q1013 NOSIG=  
08-Feb-2022 SAID33 WATB 080500 METAR WATB 080500Z 00000KT 8000 TSRA FEW018CB SCT019 25/23 Q1012 NOSIG=  
08-Feb-2022 SAID33 WATB 080600 METAR WATB 080600Z 35004KT 9999 TS FEW018CB SCT019 25/23 Q1012 RERA=  
09-Feb-2022 SAID33 WATB 090000 METAR WATB 090000Z 10002KT 9999 FEW018CB SCT019 23/22 Q1013 NOSIG RMK CB TO S=  
09-Feb-2022 SAID33 WATB 090100 METAR WATB 090100Z 15002KT 9999 SCT019 24/22 Q1013 NOSIG=  
09-Feb-2022 SAID33 WATB 090200 METAR WATB 090200Z 18002KT 9999 SCT018 26/24 Q1012 NOSIG=  
09-Feb-2022 SAID33 WATB 090300 METAR WATB 090300Z 09003KT 9999 SCT018 27/22 Q1012 NOSIG=  
09-Feb-2022 SAID33 WATB 090400 METAR WATB 090400Z 08007KT 9999 TS FEW018CB SCT019 27/23 Q1012 TEMPO TL0530 TS=  
09-Feb-2022 SAID33 WATB 090500 METAR WATB 090500Z 10005KT 9999 BKN018 29/23 Q1010 NOSIG=  
09-Feb-2022 SAID33 WATB 090600 METAR WATB 090600Z 06006KT 9999 BKN018 28/23 Q1010 NOSIG=  
10-Feb-2022 SAID33 WATB 100000 METAR WATB 100000Z 00000KT 9999 FEW019 26/22 Q1012 NOSIG=  
10-Feb-2022 SAID33 WATB 100100 METAR WATB 100100Z 05003KT 9999 SCT019 26/23 Q1012 NOSIG=  
10-Feb-2022 SAID33 WATB 100200 METAR WATB 100200Z 17002KT 9999 SCT018 27/22 Q1012 NOSIG=  
10-Feb-2022 SAID33 WATB 100300 METAR WATB 100300Z 06004KT 9999 SCT018 28/23 Q1011 NOSIG=  
10-Feb-2022 SAID33 WATB 100400 METAR WATB 100400Z 08005KT 9999 BKN018 28/23 Q1010 NOSIG=  
10-Feb-2022 SAID33 WATB 100500 METAR WATB 100500Z 01003KT 9999 BKN018 27/23 Q1010 NOSIG=  
10-Feb-2022 SAID33 WATB 100600 METAR WATB 100600Z 18005KT 9999 BKN018 23/22 Q1010 NOSIG=  
11-Feb-2022 SAID33 WATB 110000 METAR WATB 110000Z 00000KT 5000 BKN019 22/22 Q1013 NOSIG=  
11-Feb-2022 SAID33 WATB 110025 METAR WATB 110025Z 09002KT 9999 SCT018 24/23 Q1013 NOSIG=  
11-Feb-2022 SAID33 WATB 110200 METAR WATB 110200Z 07005KT 9999 SCT018 26/23 Q1013 NOSIG=  
11-Feb-2022 SAID33 WATB 110300 METAR WATB 110300Z 07004KT 9999 SCT019 27/23 Q1012 NOSIG=  
11-Feb-2022 SAID33 WATB 110400 METAR WATB 110400Z 09005KT 9999 SCT019 29/24 Q1012 NOSIG=  
11-Feb-2022 SAID33 WATB 110500 METAR WATB 110500Z 03002KT 9999 SCT019 29/24 Q1010 NOSIG=  
11-Feb-2022 SAID33 WATB 110600 METAR WATB 110600Z 09003KT 9999 SCT019 29/23 Q1009 NOSIG=  
12-Feb-2022 SAID33 WATB 120000 METAR WATB 120000Z 18002KT 5000 - BKN017 22/22 Q1012 TEMPO TL0030 -RA=  
12-Feb-2022 SAID33 WATB 120100 METAR WATB 120100Z 02002KT 8000 BKN018 23/23 Q1011 RERA=  
12-Feb-2022 SAID33 WATB 120200 METAR WATB 120200Z 00000KT 8000 BKN018 24/23 Q1011 NOSIG=  
12-Feb-2022 SAID33 WATB 120300 METAR WATB 120300Z 04002KT 8000 BKN018 26/23 Q1012 NOSIG=  
12-Feb-2022 SAID33 WATB 120400 METAR WATB 120400Z 06003KT 8000 BKN018 27/23 Q1010 NOSIG=  
12-Feb-2022 SAID33 WATB 120500 METAR WATB 120500Z 07003KT 8000 BKN018 27/23 Q1010 NOSIG=  
12-Feb-2022 SAID33 WATB 120600 METAR WATB 120600Z 05003KT 9999 BKN019 28/23 Q1009 NOSIG=  
13-Feb-2022 SAID33 WATB 130000 METAR WATB 130000Z 10002KT 9999 FEW019 26/22 Q1012 NOSIG=  
13-Feb-2022 SAID33 WATB 130200 METAR WATB 130200Z 35002KT 9999 SCT019 28/21 Q1012 NOSIG=  
13-Feb-2022 SAID33 WATB 130300 METAR WATB 130300Z 07003KT 9999 SCT018 29/23 Q1011 NOSIG=  
13-Feb-2022 SAID33 WATB 130400 METAR WATB 130400Z 06003KT 9999 SCT019 29/23 Q1011 NOSIG=  
13-Feb-2022 SAID33 WATB 130500 METAR WATB 130500Z 02005KT 9999 BKN018 28/24 Q1009 NOSIG=  
13-Feb-2022 SAID33 WATB 130600 METAR WATB 130600Z 01005KT 8000 TS FEW018CB BKN019 27/23 Q1009 TEMPO FM0630 TL0730 3000 TSRA RMK CB TO W=  
14-Feb-2022 SAID33 WATB 140000 METAR WATB 140000Z 07003KT 9999 SCT019 25/23 Q1014 NOSIG=  
14-Feb-2022 SAID33 WATB 140100 METAR WATB 140100Z 07003KT 9999 SCT019 27/23 Q1014 NOSIG=  
14-Feb-2022 SAID33 WATB 140200 METAR WATB 140200Z 07004KT 9999 SCT018 28/22 Q1014 NOSIG=  
14-Feb-2022 SAID33 WATB 140300 METAR WATB 140300Z 07003KT 9999 SCT018 29/22 Q1013 NOSIG=  
14-Feb-2022 SAID33 WATB 140400 METAR WATB 140400Z 30004KT 9999 SCT018 29/22 Q1012 NOSIG=  
14-Feb-2022 SAID33 WATB 140500 METAR WATB 140500Z 36005KT 9999 SCT019 30/22 Q1011 NOSIG=  
15-Feb-2022 SAID33 WATB 150000 METAR WATB 150000Z 35002KT 9999 FEW019 25/23 Q1013 NOSIG=  
15-Feb-2022 SAID33 WATB 150100 METAR WATB 150100Z 07004KT 9999 FEW019 28/23 Q1013 NOSIG=  
15-Feb-2022 SAID33 WATB 150200 METAR WATB 150200Z 08005KT 9999 SCT019 29/21 Q1013 NOSIG=  
15-Feb-2022 SAID33 WATB 150300 METAR WATB 150300Z 10005KT 9999 SCT018 31/22 Q1012 NOSIG=  
15-Feb-2022 SAID33 WATB 150400 METAR WATB 150400Z 09005KT 9999 SCT018 19/22 Q1012 NOSIG=  
15-Feb-2022 SAID33 WATB 150500 METAR WATB 150500Z 09007KT 9999 SCT018 31/22 Q1011 NOSIG=  
15-Feb-2022 SAID33 WATB 150600 METAR WATB 150600Z 09011KT 9999 SCT018 29/22 Q1010 NOSIG=  
16-Feb-2022 SAID33 WATB 160000 METAR WATB 160000Z 07002KT 9999 FEW020 25/22 Q1012 NOSIG=  
16-Feb-2022 SAID33 WATB 160100 METAR WATB 160100Z 10002KT 9999 FEW019 27/22 Q1012 NOSIG=  
16-Feb-2022 SAID33 WATB 160200 METAR WATB 160200Z 10002KT 9999 SCT019 29/22 Q1012 NOSIG=  
16-Feb-2022 SAID33 WATB 160300 METAR WATB 160300Z 07005KT 9999 SCT018 30/21 Q1011 NOSIG=  
16-Feb-2022 SAID33 WATB 160400 METAR WATB 160400Z 09004KT 9999 SCT018 31/22 Q1010 NOSIG=  
16-Feb-2022 SPID33 WATB 160420 SPECI WATB 160420Z 09007KT 9999 TS FEW018CB SCT018 29/22 Q1010 RMK CB TO S=  
16-Feb-2022 SAID33 WATB 160500 METAR WATB 160500Z 09007KT 9999 SCT018 29/24 Q1009 RETS=  
16-Feb-2022 SAID33 WATB 160600 METAR WATB 160600Z 09010KT 9999 SCT018 30/23 Q1009 NOSIG=  
17-Feb-2022 SAID33 WATB 170000 METAR WATB 170000Z 00000KT 9999 26/22 Q1012 NOSIG=  
17-Feb-2022 SAID33 WATB 170100 METAR WATB 170100Z 30004KT 9999 28/23 Q1012 NOSIG=  
17-Feb-2022 SAID33 WATB 170200 METAR WATB 170200Z 06004KT 9999 28/21 Q1012 NOSIG=  
17-Feb-2022 SAID33 WATB 170300 METAR WATB 170300Z 27003KT 9999 FEW019 30/21 Q1012 NOSIG=  
17-Feb-2022 SAID33 WATB 170400 METAR WATB 170400Z 30004KT 9999 SCT018 31/20 Q1011 NOSIG=  
17-Feb-2022 SAID33 WATB 170500 METAR WATB 170500Z 18004KT 9999 SCT018 31/22 Q1010 NOSIG=  
17-Feb-2022 SAID33 WATB 170600 METAR WATB 170600Z 04008KT 9999 SCT018 27/22 Q1010 NOSIG=  
18-Feb-2022 SAID33 WATB 180000 METAR WATB 180000Z 07002KT 9999 FEW020 24/21 Q1013 NOSIG=  
18-Feb-2022 SAID33 WATB 180100 METAR WATB 180100Z 07003KT 9999 FEW020 28/21 Q1013 NOSIG=  
18-Feb-2022 SAID33 WATB 180200 METAR WATB 180200Z 06003KT 9999 FEW018 29/20 Q1013 NOSIG=  
18-Feb-2022 SAID33 WATB 180300 METAR WATB 180300Z 09003KT 9999 FEW018 30/20 Q1012 NOSIG=  
18-Feb-2022 SAID33 WATB 180400 METAR WATB 180400Z 07002KT 9999 SCT018 32/20 Q1012 NOSIG=  
18-Feb-2022 SAID33 WATB 180600 METAR WATB 180600Z 06008KT 9999 TS FEW018CB BKN018 28/23 Q1011 RMK CB TO N=  
19-Feb-2022 SAID33 WATB 190000 METAR WATB 190000Z 00000KT 9999 SCT019 23/22 Q1013 NOSIG=  
19-Feb-2022 SAID33 WATB 190100 METAR WATB 190100Z 19002KT 9999 SCT019 27/22 Q1013 NOSIG=  
19-Feb-2022 SAID33 WATB 190200 METAR WATB 190200Z 08002KT 9999 SCT019 29/22 Q1013 NOSIG=  
19-Feb-2022 SAID33 WATB 190300 METAR WATB 190300Z 06005KT 9999 SCT019 29/23 Q1013 NOSIG=  
19-Feb-2022 SAID33 WATB 190400 METAR WATB 190400Z 06004KT 9999 SCT019 29/23 Q1012 NOSIG=  
19-Feb-2022 SAID33 WATB 190500 METAR WATB 190500Z 06004KT 9999 RA SCT018 29/22 Q1011 TEMPO TL0600 RA=  
19-Feb-2022 SAID33 WATB 190600 METAR WATB 190600Z 07004KT 9999 -RA SCT018 28/22 Q1011 TEMPO TL0700 -RA=  
20-Feb-2022 SAID33 WATB 200000 METAR WATB 200000Z 00000KT 9999 FEW019 24/22 Q1012 NOSIG=  
20-Feb-2022 SAID33 WATB 200100 METAR WATB 200100Z 06002KT 9999 SCT019 29/22 Q1012 NOSIG=  
20-Feb-2022 SAID33 WATB 200200 METAR WATB 200200Z 11004KT 9999 SCT019 29/22 Q1012 NOSIG=  
20-Feb-2022 SAID33 WATB 200300 METAR WATB 200300Z 10004KT 9999 SCT018 29/22 Q1011 NOSIG=  
20-Feb-2022 SAID33 WATB 200400 METAR WATB 200400Z 09003KT 9999 SCT018 30/22 Q1011 NOSIG=  
20-Feb-2022 SAID33 WATB 200500 METAR WATB 200500Z 35005KT 9999 SCT018 29/23 Q1011 NOSIG=  
20-Feb-2022 SAID33 WATB 200600 METAR WATB 200600Z 09006KT 9999 BKN018 29/23 Q1010 NOSIG=  
21-Feb-2022 SAID33 WATB 210000 METAR WATB 210000Z 00000KT 9999 BKN018 23/22 Q1011 NOSIG=  
21-Feb-2022 SAID33 WATB 210100 METAR WATB 210100Z 00000KT 9999 BKN019 24/23 Q1011 NOSIG=  
21-Feb-2022 SAID33 WATB 210300 METAR WATB 210300Z 08003KT 9999 BKN019 28/23 Q1010 NOSIG=  
21-Feb-2022 SAID33 WATB 210400 METAR WATB 210400Z 10003KT 9999 TS FEW018CB BKN019 27/22 Q1010 TEMPO TL0500 TS=  
21-Feb-2022 SAID33 WATB 210500 METAR WATB 210500Z 07005KT 8000 TSRA FEW018CB BKN019 24/24 Q1009 TEMPO TL0600 TSRA=  
21-Feb-2022 SAID33 WATB 210600 METAR WATB 210600Z 07003KT 8000 TSRA FEW018CB BKN019 23/23 Q1009 TEMPO TL0700 TSRA=  
22-Feb-2022 SAID33 WATB 220000 METAR WATB 220000Z 00000KT 9999 BKN019 ///// ///// NOSIG=  
22-Feb-2022 SAID33 WATB 220100 METAR WATB 220100Z 20003KT 9999 BKN019 ///// ///// NOSIG=  
22-Feb-2022 SAID33 WATB 220200 METAR WATB 220200Z 15002KT 9999 BKN019 ///// ///// NOSIG=  
22-Feb-2022 SAID33 WATB 220300 METAR WATB 220300Z 16003KT 9999 SCT019 ///// ///// NOSIG=  
22-Feb-2022 SAID33 WATB 220400 METAR WATB 220400Z 16002KT 9999 SCT019 ///// ///// NOSIG=  
22-Feb-2022 SAID33 WATB 220500 METAR WATB 220500Z 17003KT 9999 SCT019 ///// ///// NOSIG=  
22-Feb-2022 SAID33 WATB 220600 METAR WATB 220600Z 17005KT 9999 BKN019 ///// ///// NOSIG=  
23-Feb-2022 SAID33 WATB 230000 METAR WATB 230000Z 00000KT 8000 -RA BKN018 22/22 Q1013 TEMPO TL0100 -RA=  
23-Feb-2022 SAID33 WATB 230100 METAR WATB 230100Z 09002KT 8000 BKN018 23/22 Q1013 RERA=  
23-Feb-2022 SAID33 WATB 230200 METAR WATB 230200Z 08002KT 8000 BKN018 23/22 Q1013 NOSIG=  
23-Feb-2022 SAID33 WATB 230300 METAR WATB 230300Z 09005KT 8000 BKN019 24/22 Q1013 NOSIG=  
23-Feb-2022 SAID33 WATB 230400 METAR WATB 230400Z 06004KT 9999 SCT019 26/23 Q1012 NOSIG=  
23-Feb-2022 SAID33 WATB 230500 METAR WATB 230500Z 08005KT 9999 SCT019 27/22 Q1011 NOSIG=  
23-Feb-2022 SAID33 WATB 230600 METAR WATB 230600Z 07004KT 9999 SCT019 27/23 Q1010 NOSIG=  
24-Feb-2022 SAID33 WATB 240000 METAR WATB 240000Z 00000KT 8000 BKN018 22/22 Q1014 NOSIG=  
24-Feb-2022 SAID33 WATB 240100 METAR WATB 240100Z 09002KT 8000 BKN018 23/21 Q1014 NOSIG=  
24-Feb-2022 SAID33 WATB 240200 METAR WATB 240200Z 07002KT 9999 BKN018 24/22 Q1014 NOSIG=  
24-Feb-2022 SAID33 WATB 240300 METAR WATB 240300Z 06003KT 9999 BKN018 25/22 Q1014 NOSIG=  
24-Feb-2022 SAID33 WATB 240400 METAR WATB 240400Z 08004KT 9999 SCT019 26/23 Q1013 NOSIG=  
24-Feb-2022 SAID33 WATB 240500 METAR WATB 240500Z 07003KT 9999 SCT019 26/22 Q1012 NOSIG=  
24-Feb-2022 SAID33 WATB 240600 METAR WATB 240600Z 08004KT 9999 SCT019 28/22 Q1011 NOSIG=  
25-Feb-2022 SAID33 WATB 250000 METAR WATB 250000Z 20002KT 0500 BKN015 22/22 Q1014 TEMPO TL0045 FG=  
25-Feb-2022 SAID33 WATB 250100 METAR WATB 250100Z 08002KT 9999 SCT019 24/22 Q1014 NOSIG=  
25-Feb-2022 SAID33 WATB 250200 METAR WATB 250200Z 15002KT 9999 SCT019 26/22 Q1014 NOSIG=  
25-Feb-2022 SAID33 WATB 250300 METAR WATB 250300Z 15002KT 9999 SCT019 26/22 Q1013 NOSIG=  
25-Feb-2022 SAID33 WATB 250400 METAR WATB 250400Z 07003KT 9999 SCT019 28/23 Q1012 NOSIG=  
25-Feb-2022 SAID33 WATB 250500 METAR WATB 250500Z 35005KT 9999 SCT019 28/22 Q1011 NOSIG=  
25-Feb-2022 SAID33 WATB 250600 METAR WATB 250600Z 06008KT 9999 SCT019 28/23 Q1010 NOSIG=  
26-Feb-2022 SAID33 WATB 260000 METAR WATB 260000Z 090004KT 8000 SCT018 23/22 Q1013 NOSIG=  
26-Feb-2022 SAID33 WATB 260100 METAR WATB 260100Z 10003KT 8000 SCT018 24/23 Q1014 NOSIG=  
26-Feb-2022 SAID33 WATB 260200 METAR WATB 260200Z 08004KT 9999 SCT018 25/22 Q1014 NOSIG=  
26-Feb-2022 SAID33 WATB 260300 METAR WATB 260300Z 09004KT 8000 BKN018 26/23 Q1013 NOSIG=  
26-Feb-2022 SAID33 WATB 260400 METAR WATB 260400Z 08004KT 8000 -RA BKN018 25/23 Q1013 TEMPO TL0500 -RA=  
26-Feb-2022 SAID33 WATB 260500 METAR WATB 260500Z 31003KT 8000 BKN018 27/22 Q1011 NOSIG=  
26-Feb-2022 SAID33 WATB 260600 METAR WATB 260600Z 35005KT 9999 SCT018 27/23 Q1010 NOSIG=  
27-Feb-2022 SAID33 WATB 270000 METAR WATB 270000Z 08002KT 9999 FEW019 24/22 Q1013 NOSIG=  
27-Feb-2022 SAID33 WATB 270100 METAR WATB 270100Z 09005KT 9999 FEW019 27/22 Q1013 NOSIG=  
27-Feb-2022 SAID33 WATB 270200 METAR WATB 270200Z 06005KT 9999 FEW019 27/22 Q1013 NOSIG=  
27-Feb-2022 SAID33 WATB 270300 METAR WATB 270300Z 29008KT 9999 SCT019 30/21 Q1012 NOSIG=  
27-Feb-2022 SAID33 WATB 270400 METAR WATB 270400Z 27008KT 9999 SCT019 30/21 Q1011 NOSIG=  
27-Feb-2022 SAID33 WATB 270500 METAR WATB 270500Z 29007KT 9999 SCT018 31/22 Q1010 NOSIG=  
27-Feb-2022 SAID33 WATB 270600 METAR WATB 270600Z 29008KT 9999 BKN018 29/21 Q1009 NOSIG=  
28-Feb-2022 SAID33 WATB 280000 METAR WATB 280000Z 00000KT 9999 FEW019 22/21 Q1013 NOSIG=  
28-Feb-2022 SAID33 WATB 280100 METAR WATB 280100Z 07002KT 9999 SCT019 25/22 Q1014 NOSIG=  
28-Feb-2022 SAID33 WATB 280200 METAR WATB 280200Z 10005KT 9999 SCT018 27/22 Q1013 NOSIG=  
28-Feb-2022 SAID33 WATB 280300 METAR WATB 280300Z 08004KT 9999 SCT018 29/22 Q1013 NOSIG=  
28-Feb-2022 SAID33 WATB 280400 METAR WATB 280400Z 32004KT 9999 SCT018 29/22 Q1012 NOSIG=  
01-Mar-2022 SAID33 WATB 010000 METAR WATB 010000Z 09003KT 9999 FEW019 24/22 Q1012 NOSIG=  
01-Mar-2022 SAID33 WATB 010100 METAR WATB 010100Z 08004KT 9999 SCT019 26/22 Q1012 NOSIG=  
01-Mar-2022 SPID33 WATB 010200 SPECI WATB 010128Z AUTO 07003KT 360V110 //// ////// 27/23 Q1012=  
01-Mar-2022 SAID33 WATB 010200 METAR WATB 010200Z 09003KT 9999 SCT019 28/23 Q1012 NOSIG=  
01-Mar-2022 SAID33 WATB 010400 METAR WATB 010400Z 35006KT 9999 SCT018 32/22 Q1011 NOSIG=  
01-Mar-2022 SAID33 WATB 010600 METAR WATB 010600Z 00000KT 9999 BKN018 29/23 Q1009 NOSIG=  
02-Mar-2022 SAID33 WATB 020000 METAR WATB 020000Z 08003KT 9999 BKN019 25/22 Q1013 NOSIG=  
02-Mar-2022 SAID33 WATB 020100 METAR WATB 020100Z 08004KT 9999 BKN019 27/22 Q1012 NOSIG=  
02-Mar-2022 SAID33 WATB 020200 METAR WATB 020200Z 10005KT 9999 BKN018 27/23 Q1012 NOSIG=  
02-Mar-2022 SAID33 WATB 020300 METAR WATB 020300Z 08006KT 9999 BKN018 30/23 Q1011 NOSIG=  
02-Mar-2022 SAID33 WATB 020400 METAR WATB 020400Z 00000KT 9999 BKN017 28/23 Q1010 NOSIG=  
02-Mar-2022 SAID33 WATB 020500 METAR WATB 020500Z 34015KT 9999 BKN017 29/22 Q1010 NOSIG=  
02-Mar-2022 SAID33 WATB 020600 METAR WATB 020600Z 34006KT 9999 BKN017 28/22 Q1010 NOSIG=  
03-Mar-2022 SAID33 WATB 030000 METAR WATB 030000Z 08005KT 9999 SCT019 25/22 Q1013 NOSIG=  
03-Mar-2022 SAID33 WATB 030100 METAR WATB 030100Z 10005KT 9999 SCT019 27/23 Q1013 NOSIG=  
03-Mar-2022 SAID33 WATB 030200 METAR WATB 030200Z 08004KT 9999 SCT018 29/22 Q1013 NOSIG=  
03-Mar-2022 SAID33 WATB 030300 METAR WATB 030300Z 06007KT 9999 BKN018 30/23 Q1012 NOSIG=  
03-Mar-2022 SAID33 WATB 030400 METAR WATB 030400Z 28007KT 9999 BKN018 32/21 Q1011 NOSIG=  
03-Mar-2022 SAID33 WATB 030500 METAR WATB 030500Z 28009KT 9999 BKN018 33/21 Q1010 NOSIG=  
03-Mar-2022 SAID33 WATB 030600 METAR WATB 030600Z 35008KT 9999 FEW017CB SCT018 30/22 Q1009 CB TO W=  
04-Mar-2022 SAID33 WATB 040000 METAR WATB 040000Z 09004KT 9999 FEW019 26/22 Q1014=  
04-Mar-2022 SAID33 WATB 040100 METAR WATB 040100Z 10005KT 9999 FEW019 27/22 Q1014 NOSIG=  
04-Mar-2022 SAID33 WATB 040200 METAR WATB 040200Z 07003KT 9999 SCT019 29/22 Q1014 NOSIG=  
04-Mar-2022 SAID33 WATB 040300 METAR WATB 040300Z 01003KT 9999 SCT018 30/23 Q1013 NOSIG=  
04-Mar-2022 SAID33 WATB 040400 METAR WATB 040400Z 01005KT 9999 SCT018 29/23 Q1013 NOSIG=  
04-Mar-2022 SAID33 WATB 040500 METAR WATB 040500Z 02004KT 9999 BKN018 28/24 Q1013=  
04-Mar-2022 SAID33 WATB 040600 METAR WATB 040600Z 10009KT 9999 BKN018 29/25 Q1011=  
05-Mar-2022 SAID33 WATB 050000 METAR WATB 050000Z 00000KT 9999 FEW019 24/23 Q1012 NOSIG=  
05-Mar-2022 SAID33 WATB 050100 METAR WATB 050100Z 09005KT 9999 SCT019 27/24 Q1013 NOSIG=  
05-Mar-2022 SAID33 WATB 050200 METAR WATB 050200Z 36004KT 9999 SCT019 28/23 Q1012 NOSIG=  
05-Mar-2022 SAID33 WATB 050300 METAR WATB 050300Z 35006KT 9999 BKN018 28/24 Q1012 NOSIG=  
05-Mar-2022 SAID33 WATB 050400 METAR WATB 050400Z 36003KT 9999 BKN018 29/23 Q1011 NOSIG=  
05-Mar-2022 SAID33 WATB 050500 METAR WATB 050500Z 09007KT 9999 BKN018 30/23 Q1010 NOSIG=  
05-Mar-2022 SAID33 WATB 050600 METAR WATB 050600Z 03009KT 9999 FEW017CB SCT018 30/23 Q1009 CB TO W=  
06-Mar-2022 SAID33 WATB 060000 METAR WATB 060000Z 08004KT 9999 FEW019 27/22 Q1012 NOSIG=  
06-Mar-2022 SAID33 WATB 060300 METAR WATB 060300Z 06003KT 9999 SCT018 32/24 Q1011 NOSIG=  
06-Mar-2022 SAID33 WATB 060400 METAR WATB 060400Z 01005KT 9999 SCT018 30/23 Q1010 NOSIG=  
06-Mar-2022 SAID33 WATB 060500 METAR WATB 060500Z 07003KT 9999 SCT018 31/23 Q1009 NOSIG=  
06-Mar-2022 SAID33 WATB 060600 METAR WATB 060600Z 00000KT 9999 BKN018 32/23 Q1008 NOSIG=  
07-Mar-2022 SAID33 WATB 070000 METAR WATB 070000Z 08005KT 9999 FEW020 25/22 Q1012 NOSIG=  
07-Mar-2022 SAID33 WATB 070100 METAR WATB 070100Z 08005KT 9999 SCT019 28/23 Q1012 NOSIG=  
07-Mar-2022 SAID33 WATB 070200 METAR WATB 070200Z 04003KT 9999 SCT019 30/23 Q1012 NOSIG=  
07-Mar-2022 SAID33 WATB 070300 METAR WATB 070300Z 02005KT 9999 SCT019 30/23 Q1011 NOSIG=  
07-Mar-2022 SAID33 WATB 070400 METAR WATB 070400Z 01006KT 9999 SCT018 31/23 Q1010 NOSIG=  
07-Mar-2022 SAID33 WATB 070500 METAR WATB 070500Z 36005KT 9999 SCT018 31/23 Q1010 NOSIG=  
07-Mar-2022 SAID33 WATB 070600 METAR WATB 070600Z 03012KT 9999 BKN018 29/25 Q1009 NOSIG=  
08-Mar-2022 SAID33 WATB 080000 METAR WATB 080000Z 00000KT 9999 BKN018 23/22 Q1012 NOSIG=  
08-Mar-2022 SAID33 WATB 080100 METAR WATB 080100Z 09003KT 9999 BKN018 24/23 Q1013 NOSIG=  
08-Mar-2022 SAID33 WATB 080200 METAR WATB 080200Z 09004KT 9999 BKN019 25/23 Q1012 NOSIG=  
08-Mar-2022 SAID33 WATB 080300 METAR WATB 080300Z 08004KT 9999 BKN019 27/23 Q1012 NOSIG=  
08-Mar-2022 SAID33 WATB 080400 METAR WATB 080400Z 04005KT 9999 BKN018 27/23 Q1011 NOSIG=  
08-Mar-2022 SAID33 WATB 080500 METAR WATB 080500Z 06003KT 9999 BKN018 28/23 Q1010 NOSIG=  
08-Mar-2022 SAID33 WATB 080600 METAR WATB 080600Z 08003KT 9999 BKN018 29/23 Q1010 NOSIG=  
09-Mar-2022 SAID33 WATB 090000 METAR WATB 090000Z 00000KT 9999 FEW019 27/19 Q1012 NOSIG=  
09-Mar-2022 SAID33 WATB 090100 METAR WATB 090100Z 00000KT 9999 FEW019 27/21 Q1013 NOSIG=  
09-Mar-2022 SAID33 WATB 090200 METAR WATB 090200Z 01006KT 9999 FEW019 29/22 Q1013 NOSIG=  
09-Mar-2022 SAID33 WATB 090300 METAR WATB 090300Z 09006KT 9999 SCT018 30/21 Q1012 NOSIG=  
09-Mar-2022 SAID33 WATB 090400 METAR WATB 090400Z 36004KT 9999 SCT018 29/22 Q1011 NOSIG=  
09-Mar-2022 SAID33 WATB 090500 METAR WATB 090500Z 36007KT 9999 SCT018 29/22 Q1010 NOSIG=  
09-Mar-2022 SAID33 WATB 090600 METAR WATB 090600Z 01006KT 9999 SCT018 27/23 Q1009 NOSIG=  
10-Mar-2022 SAID33 WATB 100000 METAR WATB 100000Z 09002KT 9999 SCT019 24/22 Q1012 NOSIG=  
10-Mar-2022 SAID33 WATB 100100 METAR WATB 100100Z 08005KT 9999 BKN019 26/22 Q1012 NOSIG=  
10-Mar-2022 SAID33 WATB 100200 METAR WATB 100200Z 01004KT 9999 BKN019 27/22 Q1012 NOSIG=  
10-Mar-2022 SAID33 WATB 100300 METAR WATB 100300Z AUTO VRB02KT //// ////// 28/22 Q1012=  
10-Mar-2022 SPID33 WATB 100335 SPECI WATB 100335Z AUTO VRB02KT //// ////// 30/23 Q1011=  
10-Mar-2022 SAID33 WATB 100400 METAR WATB 100400Z AUTO VRB02KT //// ////// 29/23 Q1011=  
10-Mar-2022 SAID33 WATB 100500 METAR WATB 100500Z AUTO VRB02KT //// ////// 30/23 Q1010=  
10-Mar-2022 SAID33 WATB 100600 METAR WATB 100600Z AUTO 01001KT //// ////// 28/24 Q1009=  
11-Mar-2022 SAID33 WATB 110000 METAR WATB 110000Z 08004KT 9999 FEW020 25/22 Q1013 NOSIG=  
11-Mar-2022 SAID33 WATB 110100 METAR WATB 110100Z 05002KT 9999 FEW020 28/22 Q1013 NOSIG=  
11-Mar-2022 SAID33 WATB 110200 METAR WATB 110200Z 04004KT 9999 SCT019 29/22 Q1012 NOSIG=  
11-Mar-2022 SAID33 WATB 110300 METAR WATB 110300Z 06009KT 9999 SCT018 30/23 Q1011 NOSIG=  
11-Mar-2022 SAID33 WATB 110400 METAR WATB 110400Z 08006KT 9999 SCT018 31/23 Q1010 NOSIG=  
11-Mar-2022 SAID33 WATB 110500 METAR WATB 110500Z 01007KT 9999 SCT018 31/23 Q1009 NOSIG=  
11-Mar-2022 SAID33 WATB 110600 METAR WATB 110600Z 36006KT 9999 FEW017CB SCT018 29/23 Q1009 NOSIG RMK CB TO N=  
12-Mar-2022 SAID33 WATB 120000 METAR WATB 120000Z 36002KT 9999 FEW019 25/22 Q1012 NOSIG=  
12-Mar-2022 SAID33 WATB 120100 METAR WATB 120100Z 09003KT 9999 FEW019 28/23 Q1012 NOSIG=  
12-Mar-2022 SAID33 WATB 120200 METAR WATB 120200Z 10005KT 9999 FEW019 29/23 Q1011 NOSIG=  
12-Mar-2022 SAID33 WATB 120300 METAR WATB 120300Z 08006KT 9999 SCT018 30/22 Q1011 NOSIG=  
12-Mar-2022 SAID33 WATB 120500 METAR WATB 120500Z 02006KT 9999 SCT018 32/22 Q1009 NOSIG=  
12-Mar-2022 SAID33 WATB 120600 METAR WATB 120600Z 03010KT 9999 BKN018 32/24 Q1008 NOSIG=  
13-Mar-2022 SAID33 WATB 130000 METAR WATB 130000Z 08004KT 9999 BKN019 24/23 Q1013 NOSIG=  
13-Mar-2022 SAID33 WATB 130100 METAR WATB 130100Z 08003KT 9999 SCT019 27/23 Q1014 NOSIG=  
13-Mar-2022 SAID33 WATB 130200 METAR WATB 130200Z 08006KT 9999 SCT019 28/24 Q1014 NOSIG=  
13-Mar-2022 SAID33 WATB 130400 METAR WATB 130400Z 10008KT 9999 BKN018 30/23 Q1011 NOSIG=  
13-Mar-2022 SAID33 WATB 130500 METAR WATB 130500Z 05009KT 9999 BKN018 30/24 Q1010 NOSIG=  
13-Mar-2022 SAID33 WATB 130600 METAR WATB 130600Z 01007KT 9999 BKN018 29/24 Q1010 NOSIG=  
14-Mar-2022 SAID33 WATB 140000 METAR WATB 140000Z 34002KT 9999 FEW020 26/23 Q1013 NOSIG=  
14-Mar-2022 SAID33 WATB 140100 METAR WATB 140100Z 01002KT 9999 FEW020 26/23 Q1014 NOSIG=  
14-Mar-2022 SAID33 WATB 140200 METAR WATB 140200Z 04003KT 9999 SCT019 29/22 Q1013 NOSIG=  
14-Mar-2022 SAID33 WATB 140300 METAR WATB 140300Z 07003KT 9999 SCT018 30/23 Q1013 NOSIG=  
14-Mar-2022 SAID33 WATB 140400 METAR WATB 140400Z 01008KT 9999 SCT018 30/23 Q1012 NOSIG=  
14-Mar-2022 SAID33 WATB 140700 METAR WATB 140700Z AUTO 09003KT //// ////// 26/25 Q1010=  
14-Mar-2022 SAID33 WATB 140800 METAR WATB 140800Z AUTO 06001KT //// ////// 27/24 Q1010=  
14-Mar-2022 SAID33 WATB 140900 METAR WATB 140900Z AUTO 04001KT //// ////// 27/24 Q1010=  
14-Mar-2022 SAID33 WATB 141000 METAR WATB 141000Z AUTO 07001KT //// ////// 25/25 Q1011=  
14-Mar-2022 SAID33 WATB 141100 METAR WATB 141100Z AUTO 00000KT //// ////// 24/24 Q1011=  
14-Mar-2022 SAID33 WATB 141200 METAR WATB 141200Z AUTO 08001KT //// ////// 23/23 Q1012=  
14-Mar-2022 SAID33 WATB 141300 METAR WATB 141300Z AUTO 00000KT //// ////// 23/23 Q1013=  
14-Mar-2022 SAID33 WATB 141400 METAR WATB 141400Z AUTO 00000KT //// ////// 22/22 Q1013=  
14-Mar-2022 SAID33 WATB 141500 METAR WATB 141500Z AUTO 00000KT //// ////// 22/22 Q1013=  
14-Mar-2022 SAID33 WATB 141600 METAR WATB 141600Z AUTO 00000KT //// ////// 22/22 Q1012=  
14-Mar-2022 SAID33 WATB 141700 METAR WATB 141700Z AUTO VRB02KT //// ////// 21/21 Q1012=  
14-Mar-2022 SAID33 WATB 141800 METAR WATB 141800Z AUTO 32001KT //// ////// 21/21 Q1011=  
14-Mar-2022 SAID33 WATB 141900 METAR WATB 141900Z AUTO 31001KT //// ////// 21/21 Q1010=  
14-Mar-2022 SAID33 WATB 142000 METAR WATB 142000Z AUTO VRB02KT //// ////// 21/21 Q1010=  
14-Mar-2022 SAID33 WATB 142100 METAR WATB 142100Z AUTO 33001KT //// ////// 21/21 Q1011=  
14-Mar-2022 SAID33 WATB 142200 METAR WATB 142200Z AUTO 00000KT //// ////// 21/21 Q1011=  
15-Mar-2022 SAID33 WATB 150000 METAR WATB 150000Z 08002KT 9999 FEW020 27/23 Q1012 NOSIG=  
15-Mar-2022 SAID33 WATB 150100 METAR WATB 150100Z 08003KT 9999 FEW020 29/23 Q1013 NOSIG=  
15-Mar-2022 SAID33 WATB 150200 METAR WATB 150200Z 36002KT 9999 FEW020 30/23 Q1012 NOSIG=  
15-Mar-2022 SAID33 WATB 150300 METAR WATB 150300Z 09003KT 9999 SCT020 30/23 Q1012 NOSIG=  
15-Mar-2022 SAID33 WATB 150400 METAR WATB 150400Z 02005KT 9999 SCT020 31/22 Q1010 NOSIG=  
15-Mar-2022 SAID33 WATB 150500 METAR WATB 150500Z 10006KT 9999 SCT020 31/23 Q1009 NOSIG=  
15-Mar-2022 SAID33 WATB 150600 METAR WATB 150600Z 01004KT 9999 BKN019 31/23 Q1008 NOSIG=  
16-Mar-2022 SAID33 WATB 160000 METAR WATB 160000Z 36002KT 9999 FEW020 26/23 Q1012 NOSIG=  
16-Mar-2022 SAID33 WATB 160100 METAR WATB 160100Z 08005KT 9999 SCT019 29/24 Q1012 NOSIG=  
16-Mar-2022 SAID33 WATB 160200 METAR WATB 160200Z 02002KT 9999 SCT019 29/23 Q1012 NOSIG=  
16-Mar-2022 SAID33 WATB 160300 METAR WATB 160300Z 10005KT 9999 BKN018 29/23 Q1011 NOSIG=  
16-Mar-2022 SAID33 WATB 160400 METAR WATB 160400Z 02009KT 8000 -RA BKN018 28/23 Q1011=  
16-Mar-2022 SAID33 WATB 160500 METAR WATB 160500Z 05006KT 9999 BKN018 28/24 Q1010 NOSIG=  
16-Mar-2022 SAID33 WATB 160600 METAR WATB 160600Z 02004KT 9999 BKN018 30/24 Q1009 NOSIG=  
17-Mar-2022 SAID33 WATB 170000 METAR WATB 170000Z 03004KT 9999 SCT019 26/23 Q1012 NOSIG=  
17-Mar-2022 SAID33 WATB 170100 METAR WATB 170100Z 09005KT 9999 SCT019 29/23 Q1012 NOSIG=  
17-Mar-2022 SAID33 WATB 170200 METAR WATB 170200Z 11006KT 9999 SCT019 30/23 Q1012 NOSIG=  
17-Mar-2022 SAID33 WATB 170300 METAR WATB 170300Z 05007KT 9999 SCT018 31/22 Q1011 NOSIG=  
17-Mar-2022 SPID33 WATB 170346 SPECI WATB 170346Z AUTO VRB02KT //// ////// 30/22 Q1011=  
17-Mar-2022 SAID33 WATB 170400 METAR WATB 170400Z AUTO 00000KT //// ////// 30/22 Q1011=  
17-Mar-2022 SAID33 WATB 170500 METAR WATB 170500Z AUTO VRB02KT //// ////// 31/23 Q1010=  
17-Mar-2022 SAID33 WATB 170600 METAR WATB 170600Z AUTO 01001KT //// ////// 31/23 Q1009=  
18-Mar-2022 SAID33 WATB 180000 METAR WATB 180000Z 10002KT 7000 -TSRA FEW018CB BKN019 23/23 Q1011 RMK CB TO S=  
18-Mar-2022 SAID33 WATB 180100 METAR WATB 180100Z 28006KT 5000 TSRA FEW018CB BKN018 23/23 Q1011 RMK CB OVER THE FIELD=  
18-Mar-2022 SAID33 WATB 180200 METAR WATB 180200Z 09004KT 6000 RA BKN017 23/23 Q1011=  
18-Mar-2022 SAID33 WATB 180300 METAR WATB 180300Z 09003KT 2000 RA OVC016 22/22 Q1011=  
18-Mar-2022 SAID33 WATB 180400 METAR WATB 180400Z 34002KT 6000 -RA OVC017 23/23 Q1010=  
18-Mar-2022 SAID33 WATB 180500 METAR WATB 180500Z 04002KT 8000 -RA BKN017 24/23 Q1008=  
18-Mar-2022 SAID33 WATB 180600 METAR WATB 180600Z 02003KT 9999 BKN017 25/23 Q1008 NOSIG=  
19-Mar-2022 SAID33 WATB 190000 METAR WATB 190000Z 09003KT 2000 BR OVC017 22/22 Q1011=  
19-Mar-2022 SAID33 WATB 190100 METAR WATB 190100Z 09004KT 3000 -RA OVC017 23/23 Q1013=  
19-Mar-2022 SAID33 WATB 190200 METAR WATB 190200Z 11002KT 4000 -RA OVC017 23/23 Q1012=  
19-Mar-2022 SAID33 WATB 190300 METAR WATB 190300Z 09003KT 6000 -RA OVC017 24/23 Q1012=  
19-Mar-2022 SAID33 WATB 190400 METAR WATB 190400Z 08005KT 7000 -RA BKN017 25/23 Q1012 NOSIG=  
19-Mar-2022 SAID33 WATB 190500 METAR WATB 190500Z 07003KT 8000 -RA BKN017 25/24 Q1011 NOSIG=  
20-Mar-2022 SAID33 WATB 200000 METAR WATB 200000Z 08003KT 9999 SCT019 26/22 Q1013 NOSIG=  
20-Mar-2022 SAID33 WATB 200100 METAR WATB 200100Z 08006KT 9999 BKN019 27/23 Q1014 NOSIG=  
20-Mar-2022 SAID33 WATB 200200 METAR WATB 200200Z 04003KT 9999 BKN019 29/2 Q1013 NOSIG=  
20-Mar-2022 SAID33 WATB 200300 METAR WATB 200300Z 01003KT 9999 SCT019 29/23 Q1013 NOSIG=  
20-Mar-2022 SAID33 WATB 200400 METAR WATB 200400Z 07006KT 9999 SCT018 30/23 Q1012 NOSIG=  
20-Mar-2022 SAID33 WATB 200500 METAR WATB 200500Z 35007KT 9999 BKN018 28/23 Q1011 NOSIG=  
20-Mar-2022 SAID33 WATB 200600 METAR WATB 200600Z 01008KT 9999 BKN018 30/25 Q1011 NOSIG=  
21-Mar-2022 SAID33 WATB 210000 METAR WATB 210000Z 09002KT 9999 FEW020 25/22 Q1014 NOSIG=  
21-Mar-2022 SAID33 WATB 210100 METAR WATB 210100Z 08004KT 9999 FEW020 28/23 Q1014 NOSIG=  
21-Mar-2022 SAID33 WATB 210200 METAR WATB 210200Z 09005KT 9999 SCT019 29/22 Q1014 NOSIG=  
21-Mar-2022 SAID33 WATB 210300 METAR WATB 210300Z 09006KT 9999 SCT019 30/22 Q1013 NOSIG=  
21-Mar-2022 SAID33 WATB 210400 METAR WATB 210400Z 08004KT 9999 SCT018 30/22 Q1013 NOSIG=  
21-Mar-2022 SAID33 WATB 210500 METAR WATB 210500Z 04008KT 9999 SCT018 31/23 Q1012 NOSIG=  
21-Mar-2022 SAID33 WATB 210600 METAR WATB 210600Z 02010KT 9999 BKN018 29/24 Q1011 NOSIG=  
22-Mar-2022 SAID33 WATB 220000 METAR WATB 220000Z 03003KT 9999 FEW020 25/22 Q1014 NOSIG=  
22-Mar-2022 SAID33 WATB 220100 METAR WATB 220100Z 08004KT 9999 FEW020 27/22 Q1014 NOSIG=  
22-Mar-2022 SAID33 WATB 220300 METAR WATB 220300Z 09006KT 9999 SCT019 30/20 Q1013 NOSIG=  
22-Mar-2022 SAID33 WATB 220400 METAR WATB 220400Z 01007KT 9999 SCT019 31/22 Q1012 NOSIG=  
22-Mar-2022 SAID33 WATB 220500 METAR WATB 220500Z 36005KT 9999 SCT019 30/24 Q1011 NOSIG=  
22-Mar-2022 SAID33 WATB 220600 METAR WATB 220600Z AUTO 01001KT //// ////// 29/24 Q1011=  
24-Mar-2022 SAID33 WATB 240000 METAR WATB 240000Z 07001KT 9999 BKN018 25/22 Q1011 NOSIG=  
24-Mar-2022 SAID33 WATB 240100 METAR WATB 240100Z 09004KT 9999 BKN019 27/23 Q1014 NOSIG=  
24-Mar-2022 SAID33 WATB 240200 METAR WATB 240200Z 36002KT 9999 SCT019 29/22 Q1014 NOSIG=  
24-Mar-2022 SAID33 WATB 240300 METAR WATB 240300Z 01006KT 9999 SCT019 30/22 Q1013 NOSIG=  
24-Mar-2022 SAID33 WATB 240400 METAR WATB 240400Z 18006KT 9999 SCT018 32/21 Q1012 NOSIG=  
24-Mar-2022 SAID33 WATB 240500 METAR WATB 240500Z 02007KT 9999 SCT018 31/21 Q1011 NOSIG=  
24-Mar-2022 SAID33 WATB 240600 METAR WATB 240600Z 07005KT 9999 BKN018 32/22 Q1010 NOSIG=  
25-Mar-2022 SAID33 WATB 250000 METAR WATB 250000Z 02001KT 9999 SCT020 25/22 Q1015 NOSIG=  
25-Mar-2022 SAID33 WATB 250100 METAR WATB 250100Z 09004KT 9999 SCT020 27/23 Q1015 NOSIG=  
25-Mar-2022 SAID33 WATB 250200 METAR WATB 250200Z AUTO VRB02KT //// ////// 29/22 Q1015=  
25-Mar-2022 SAID33 WATB 250300 METAR WATB 250300Z AUTO 07003KT 360V120 //// ////// 30/23 Q1014=  
25-Mar-2022 SAID33 WATB 250400 METAR WATB 250400Z 09004KT 9999 SCT018 30/23 Q1013 NOSIG=  
25-Mar-2022 SAID33 WATB 250500 METAR WATB 250500Z 04007KT 9999 BKN018 29/23 Q1012 NOSIG=  
25-Mar-2022 SAID33 WATB 250600 METAR WATB 250600Z 34006KT 9999 BKN018 29/22 Q1012 NOSIG=  
26-Mar-2022 SAID33 WATB 260000 METAR WATB 260000Z 10004KT 9999 FEW020 26/23 Q1015 NOSIG=  
26-Mar-2022 SAID33 WATB 260100 METAR WATB 260100Z 08004KT 9999 FEW020 27/22 Q1015 NOSIG=  
26-Mar-2022 SAID33 WATB 260200 METAR WATB 260200Z 03003KT 9999 FEW020 28/21 Q1014 NOSIG=  
26-Mar-2022 SAID33 WATB 260300 METAR WATB 260300Z 01003KT 9999 SCT019 30/22 Q1014 NOSIG=  
26-Mar-2022 SAID33 WATB 260400 METAR WATB 260400Z 30005KT 9999 SCT018 30/23 Q1012 NOSIG=  
26-Mar-2022 SAID33 WATB 260500 METAR WATB 260500Z 18006KT 9999 SCT018 30/22 Q1011 NOSIG=  
26-Mar-2022 SAID33 WATB 260600 METAR WATB 260600Z 06006KT 9999 BKN018 31/22 Q1011 NOSIG=  
27-Mar-2022 SAID33 WATB 270000 METAR WATB 270000Z 08003KT 9999 FEW020 26/23 Q1014 NOSIG=  
27-Mar-2022 SAID33 WATB 270100 METAR WATB 270100Z 09004KT 9999 FEW020 28/23 Q1014 NOSIG=  
27-Mar-2022 SAID33 WATB 270200 METAR WATB 270200Z 36005KT 9999 FEW020 29/23 Q1014 NOSIG=  
27-Mar-2022 SAID33 WATB 270300 METAR WATB 270300Z 01005KT 9999 SCT019 30/22 Q1013 NOSIG=  
27-Mar-2022 SAID33 WATB 270400 METAR WATB 270400Z 03004KT 9999 SCT019 30/23 Q1012 NOSIG=  
27-Mar-2022 SAID33 WATB 270500 METAR WATB 270500Z 27010KT 1000 +TSRA FEW017CB BKN018 23/22 Q1012 RMK CB OVER THE FIELD=  
27-Mar-2022 SAID33 WATB 270600 METAR WATB 270600Z 01010KT 1000 +TSRA FEW017CB BKN018 24/23 Q1011 RMK CB OVER THE FIELD=  
28-Mar-2022 SAID33 WATB 280000 METAR WATB 280000Z 08004KT 9999 SCT019 25/23 Q1014 NOSIG=  
28-Mar-2022 SAID33 WATB 280100 METAR WATB 280100Z 34006KT 9999 BKN019 26/23 Q1014 NOSIG=  
28-Mar-2022 SAID33 WATB 280200 METAR WATB 280200Z 01006KT 9999 BKN019 27/22 Q1014 NOSIG=  
28-Mar-2022 SAID33 WATB 280300 METAR WATB 280300Z 35003KT 9999 BKN019 29/22 Q1013 NOSIG=  
28-Mar-2022 SAID33 WATB 280400 METAR WATB 280400Z 02005KT 9999 BKN018 29/22 Q1013 NOSIG=  
28-Mar-2022 SAID33 WATB 280500 METAR WATB 280500Z 05012KT 9999 BKN018 29/24 Q1012 NOSIG=  
28-Mar-2022 SAID33 WATB 280600 METAR WATB 280600Z 10008KT 9999 FEW018CB BKN018 27/23 Q1011 RMK CB TO N=  
29-Mar-2022 SAID33 WATB 290000 METAR WATB 290000Z 09003KT 9999 FEW020 26/22 Q1014 NOSIG=  
29-Mar-2022 SAID33 WATB 290100 METAR WATB 290100Z 07002KT 9999 FEW020 28/22 Q1014 NOSIG=  
29-Mar-2022 SAID33 WATB 290200 METAR WATB 290200Z 01002KT 9999 FEW020 29/23 Q1013 NOSIG=  
29-Mar-2022 SAID33 WATB 290300 METAR WATB 290300Z 08007KT 9999 SCT019 30/23 Q1013 NOSIG=  
29-Mar-2022 SAID33 WATB 290400 METAR WATB 290400Z AUTO 03003KT 360V100 //// ////// 30/23 Q1012=  
29-Mar-2022 SAID33 WATB 290500 METAR WATB 290500Z AUTO 35001KT //// ////// 25/24 Q1012=  
29-Mar-2022 SAID33 WATB 290600 METAR WATB 290600Z AUTO 35001KT //// ////// 23/22 Q1012=  
30-Mar-2022 SAID33 WATB 300000 METAR WATB 300000Z 08003KT 9999 FEW020 25/21 Q1015 NOSIG=  
30-Mar-2022 SAID33 WATB 300100 METAR WATB 300100Z 08004KT 9999 FEW020 26/23 Q1015 NOSIG=  
30-Mar-2022 SAID33 WATB 300200 METAR WATB 300200Z 01003KT 9999 SCT020 27/22 Q1014 NOSIG=  
30-Mar-2022 SAID33 WATB 300300 METAR WATB 300300Z 06004KT 9999 SCT019 29/22 Q1014 NOSIG=  
30-Mar-2022 SAID33 WATB 300400 METAR WATB 300400Z 36003KT 9999 SCT018 30/21 Q1012 NOSIG=  
30-Mar-2022 SAID33 WATB 300500 METAR WATB 300500Z 36007KT 9999 SCT018 30/21 Q1011 NOSIG=  
30-Mar-2022 SAID33 WATB 300600 METAR WATB 300600Z 09009KT 9999 TS FEW017CB BKN018 30/23 Q1010 RMK CB TO E=  
31-Mar-2022 SAID33 WATB 310000 METAR WATB 310000Z 09005KT 9999 SCT020 25/22 Q1014 NOSIG=  
31-Mar-2022 SAID33 WATB 310100 METAR WATB 310100Z 36005KT 9999 SCT019 27/22 Q1015 NOSIG=  
31-Mar-2022 SAID33 WATB 310200 METAR WATB 310200Z 08004KT 9999 SCT019 29/23 Q1014 NOSIG=  
31-Mar-2022 SAID33 WATB 310300 METAR WATB 310300Z 04003KT 9999 SCT019 29/23 Q1013 NOSIG=  
31-Mar-2022 SAID33 WATB 310400 METAR WATB 310400Z 09006KT 9999 SCT018 30/22 Q1013 NOSIG=  
31-Mar-2022 SAID33 WATB 310500 METAR WATB 310500Z 01003KT 9999 BKN018 30/24 Q1011 NOSIG=  
31-Mar-2022 SAID33 WATB 310600 METAR WATB 310600Z 09005KT 9999 BKN018 29/24 Q1011 NOSIG=  
01-Apr-2022 SAID33 WATB 010000 METAR WATB 010000Z 09002KT 9999 FEW020 26/23 Q1015 NOSIG=  
01-Apr-2022 SAID33 WATB 010100 METAR WATB 010100Z 08002KT 9999 SCT020 27/23 Q1015 NOSIG=  
01-Apr-2022 SAID33 WATB 010200 METAR WATB 010200Z 09007KT 9999 BKN018 29/23 Q1014 NOSIG=  
01-Apr-2022 SAID33 WATB 010300 METAR WATB 010300Z 10004KT 9999 BKN018 28/23 Q1014 NOSIG=  
01-Apr-2022 SAID33 WATB 010400 METAR WATB 010400Z 00000KT 9999 BKN018 30/22 Q1013 NOSIG=  
01-Apr-2022 SAID33 WATB 010500 METAR WATB 010500Z 00000KT 9999 BKN018 30/21 Q1012 NOSIG=  
01-Apr-2022 SAID33 WATB 010600 METAR WATB 010600Z 09006KT 9999 BKN018 30/21 Q1011 NOSIG=  
02-Apr-2022 SAID33 WATB 020000 METAR WATB 020000Z 00000KT 9999 FEW020 25/21 Q1015 NOSIG=  
02-Apr-2022 SAID33 WATB 020100 METAR WATB 020100Z 07002KT 9999 FEW020 27/21 Q1015 NOSIG=  
02-Apr-2022 SAID33 WATB 020200 METAR WATB 020200Z 00000KT 9999 SCT020 29/21 Q1015 NOSIG=  
02-Apr-2022 SAID33 WATB 020300 METAR WATB 020300Z 00000KT 9999 SCT020 29/19 Q1014 NOSIG=  
02-Apr-2022 SAID33 WATB 020400 METAR WATB 020400Z 00000KT 9999 SCT018 31/21 Q1013 NOSIG=  
02-Apr-2022 SAID33 WATB 020500 METAR WATB 020500Z 00000KT 9999 SCT018 31/20 Q1012 NOSIG=  
03-Apr-2022 SAID33 WATB 030000 METAR WATB 030000Z 08003KT 9999 FEW020 25/21 Q1015 NOSIG=  
03-Apr-2022 SAID33 WATB 030100 METAR WATB 030100Z 09002KT 9999 FEW020 27/22 Q1015 NOSIG=  
03-Apr-2022 SAID33 WATB 030130 METAR WATB 030130Z 06003KT 9999 FEW020 27/22 Q1015 NOSIG=  
03-Apr-2022 SAID33 WATB 030200 METAR WATB 030200Z 07002KT 9999 FEW020 28/22 Q1014 NOSIG=  
03-Apr-2022 SAID33 WATB 030300 METAR WATB 030300Z 00000KT 9999 SCT020 30/19 Q1014 NOSIG=  
03-Apr-2022 SAID33 WATB 030400 METAR WATB 030400Z 00000KT 9999 SCT018 30/20 Q1013 NOSIG=  
03-Apr-2022 SAID33 WATB 030500 METAR WATB 030500Z 28002KT 9999 SCT018 31/19 Q1012 NOSIG=  
03-Apr-2022 SAID33 WATB 030600 METAR WATB 030600Z 00000KT 9999 SCT018 31/20 Q1011 NOSIG=  
04-Apr-2022 SAID33 WATB 040000 METAR WATB 040000Z 00000KT 9999 FEW020 25/20 Q1015 NOSIG=  
04-Apr-2022 SAID33 WATB 040100 METAR WATB 040100Z 09002KT 9999 FEW020 28/22 Q1015 NOSIG=  
04-Apr-2022 SAID33 WATB 040200 METAR WATB 040200Z 00000KT 9999 FEW020 29/20 Q1015 NOSIG=  
04-Apr-2022 SAID33 WATB 040300 METAR WATB 040300Z 00000KT 9999 FEW020 30/22 Q1014 NOSIG=  
04-Apr-2022 SAID33 WATB 040400 METAR WATB 040400Z 11004KT 9999 SCT020 31/22 Q1013 NOSIG=  
04-Apr-2022 SAID33 WATB 040500 METAR WATB 040500Z 00000KT 9999 SCT020 32/20 Q1012 NOSIG=  
04-Apr-2022 SAID33 WATB 040600 METAR WATB 040600Z 00000KT 9999 SCT018 31/21 Q1011 NOSIG=  
05-Apr-2022 SAID33 WATB 050000 METAR WATB 050000Z 08003KT 9999 SCT020 27/23 Q1015 NOSIG=  
05-Apr-2022 SAID33 WATB 050100 METAR WATB 050100Z 11004KT 9999 FEW020 29/23 Q1016 NOSIG=  
05-Apr-2022 SAID33 WATB 050200 METAR WATB 050200Z 00000KT 9999 SCT020 28/23 Q1015 NOSIG=  
05-Apr-2022 SAID33 WATB 050300 METAR WATB 050300Z 10008KT 9999 SCT020 30/22 Q1015 NOSIG=  
05-Apr-2022 SAID33 WATB 050400 METAR WATB 050400Z 00000KT 9999 BKN018 30/22 Q1013 NOSIG=  
05-Apr-2022 SAID33 WATB 050500 METAR WATB 050500Z 00000KT 9999 BKN018 31/23 Q1012 NOSIG=  
05-Apr-2022 SAID33 WATB 050600 METAR WATB 050600Z 00000KT 9999 BKN018 29/23 Q1011 NOSIG=  
06-Apr-2022 SAID33 WATB 060000 METAR WATB 060000Z 08002KT 9999 FEW020 25/21 Q1015 NOSIG=  
06-Apr-2022 SAID33 WATB 060100 METAR WATB 060100Z 00000KT 9999 FEW020 28/22 Q1015 NOSIG=  
06-Apr-2022 SAID33 WATB 060200 METAR WATB 060200Z 00000KT 9999 FEW020 30/20 Q1014 NOSIG=  
06-Apr-2022 SAID33 WATB 060300 METAR WATB 060300Z 00000KT 9999 FEW020 30/19 Q1013 NOSIG=  
06-Apr-2022 SAID33 WATB 060400 METAR WATB 060400Z 00000KT 9999 FEW020 32/20 Q1012 NOSIG=  
06-Apr-2022 SAID33 WATB 060500 METAR WATB 060500Z 00000KT 9999 SCT018 31/20 Q1011 NOSIG=  
06-Apr-2022 SAID33 WATB 060600 METAR WATB 060600Z 00000KT 9999 SCT018 31/21 Q1011 NOSIG=  
07-Apr-2022 SAID33 WATB 070000 METAR WATB 070000Z 11002KT 9999 SCT020 25/21 Q1014 NOSIG=  
07-Apr-2022 SAID33 WATB 070100 METAR WATB 070100Z 32002KT 9999 SCT020 28/21 Q1013 NOSIG=  
07-Apr-2022 SAID33 WATB 070200 METAR WATB 070200Z 00000KT 9999 SCT020 29/21 Q1013 NOSIG=  
07-Apr-2022 SAID33 WATB 070300 METAR WATB 070300Z 00000KT 9999 SCT020 31/22 Q1012 NOSIG=  
07-Apr-2022 SAID33 WATB 070400 METAR WATB 070400Z 11008KT 9999 BKN018 31/21 Q1011 NOSIG=  
07-Apr-2022 SAID33 WATB 070500 METAR WATB 070500Z 00000KT 9999 BKN018 31/21 Q1010 NOSIG=  
07-Apr-2022 SAID33 WATB 070600 METAR WATB 070600Z 00000KT 9999 BKN018 31/20 Q1010 NOSIG=  
08-Apr-2022 SAID33 WATB 080000 METAR WATB 080000Z 12002KT 9999 SCT020 25/21 Q1013 NOSIG=  
08-Apr-2022 SAID33 WATB 080100 METAR WATB 080100Z 00000KT 9999 SCT020 28/22 Q1013 NOSIG=  
08-Apr-2022 SAID33 WATB 080200 METAR WATB 080200Z 00000KT 9999 SCT020 30/22 Q1013 NOSIG=  
08-Apr-2022 SAID33 WATB 080300 METAR WATB 080300Z 00000KT 9999 SCT020 30/22 Q1012 NOSIG=  
08-Apr-2022 SAID33 WATB 080400 METAR WATB 080400Z 00000KT 9999 SCT018 31/22 Q1011 NOSIG=  
08-Apr-2022 SAID33 WATB 080500 METAR WATB 080500Z 00000KT 9999 SCT018 31/22 Q1010 NOSIG=  
08-Apr-2022 SAID33 WATB 080600 METAR WATB 080600Z 00000KT 9999 SCT018 30/22 Q1010 NOSIG=  
09-Apr-2022 SAID33 WATB 090000 METAR WATB 090000Z 00000KT 9999 FEW020 27/20 Q1013 NOSIG=  
09-Apr-2022 SAID33 WATB 090100 METAR WATB 090100Z 11002KT 9999 FEW020 29/21 Q1013 NOSIG=  
09-Apr-2022 SAID33 WATB 090200 METAR WATB 090200Z 00000KT 9999 FEW020 29/21 Q1013 NOSIG=  
09-Apr-2022 SAID33 WATB 090300 METAR WATB 090300Z 12003KT 9999 FEW020 31/21 Q1013 NOSIG=  
09-Apr-2022 SAID33 WATB 090400 METAR WATB 090400Z 00000KT 9999 SCT020 32/21 Q1011 NOSIG=  
09-Apr-2022 SAID33 WATB 090500 METAR WATB 090500Z 00000KT 9999 SCT018 32/20 Q1011 NOSIG=  
09-Apr-2022 SAID33 WATB 090600 METAR WATB 090600Z 00000KT 9999 SCT018 32/19 Q1010 NOSIG=  
10-Apr-2022 SAID33 WATB 100000 METAR WATB 100000Z 09002KT 9999 FEW020 27/20 Q1014 NOSIG=  
10-Apr-2022 SAID33 WATB 100100 METAR WATB 100100Z 12002KT 9999 FEW020 28/22 Q1014 NOSIG=  
10-Apr-2022 SAID33 WATB 100200 METAR WATB 100200Z 00000KT 9999 FEW020 29/22 Q1014 NOSIG=  
10-Apr-2022 SAID33 WATB 100300 METAR WATB 100300Z 00000KT 9999 FEW020 31/21 Q1013 NOSIG=  
10-Apr-2022 SAID33 WATB 100400 METAR WATB 100400Z 00000KT 9999 SCT018 30/21 Q1012 NOSIG=  
10-Apr-2022 SAID33 WATB 100500 METAR WATB 100500Z 00000KT 9999 SCT018 30/21 Q1012 NOSIG=  
10-Apr-2022 SAID33 WATB 100600 METAR WATB 100600Z 00000KT 9999 BKN018 31/20 Q1011 NOSIG=  
11-Apr-2022 SAID33 WATB 110000 METAR WATB 110000Z 26002KT 9999 FEW020 27/21 Q1015 NOSIG=  
11-Apr-2022 SAID33 WATB 110100 METAR WATB 110100Z 00000KT 9999 FEW020 28/21 Q1015 NOSIG=  
11-Apr-2022 SAID33 WATB 110200 METAR WATB 110200Z 00000KT 9999 FEW020 30/20 Q1014 NOSIG=  
11-Apr-2022 SAID33 WATB 110300 METAR WATB 110300Z 00000KT 9999 SCT018 30/20 Q1014 NOSIG=  
11-Apr-2022 SAID33 WATB 110400 METAR WATB 110400Z 00000KT 9999 SCT018 31/20 Q1013 NOSIG=  
11-Apr-2022 SAID33 WATB 110500 METAR WATB 110500Z 00000KT 9999 SCT018 31/19 Q1012 NOSIG=  
11-Apr-2022 SAID33 WATB 110600 METAR WATB 110600Z 00000KT 9999 SCT018 30/19 Q1011 NOSIG=  
12-Apr-2022 SAID33 WATB 120000 METAR WATB 120000Z 00000KT 9999 FEW020 26/19 Q1013 NOSIG=  
12-Apr-2022 SAID33 WATB 120100 METAR WATB 120100Z 00000KT 9999 FEW020 28/19 Q1013 NOSIG=  
12-Apr-2022 SAID33 WATB 120200 METAR WATB 120200Z 00000KT 9999 FEW020 30/20 Q1013 NOSIG=  
12-Apr-2022 SAID33 WATB 120300 METAR WATB 120300Z 00000KT 9999 FEW020 31/20 Q1012 NOSIG=  
12-Apr-2022 SAID33 WATB 120400 METAR WATB 120400Z 00000KT 9999 SCT018 31/21 Q1011 NOSIG=  
12-Apr-2022 SAID33 WATB 120500 METAR WATB 120500Z 00000KT 9999 SCT018 30/21 Q1010 NOSIG=  
12-Apr-2022 SAID33 WATB 120600 METAR WATB 120600Z 00000KT 9999 SCT018 30/22 Q1010 NOSIG=  
13-Apr-2022 SAID33 WATB 130000 METAR WATB 130000Z 11002KT 9999 FEW020 26/21 Q1013 NOSIG=  
13-Apr-2022 SAID33 WATB 130100 METAR WATB 130100Z 00000KT 9999 FEW020 28/21 Q1013 NOSIG=  
13-Apr-2022 SAID33 WATB 130200 METAR WATB 130200Z 00000KT 9999 FEW020 31/22 Q1012 NOSIG=  
13-Apr-2022 SAID33 WATB 130300 METAR WATB 130300Z 00000KT 9999 SCT018 31/21 Q1011 NOSIG=  
13-Apr-2022 SAID33 WATB 130400 METAR WATB 130400Z 10002KT 9999 SCT018 32/20 Q1011 NOSIG=  
13-Apr-2022 SAID33 WATB 130500 METAR WATB 130500Z 00000KT 9999 BKN018 31/20 Q1010 NOSIG=  
13-Apr-2022 SAID33 WATB 130600 METAR WATB 130600Z 12003KT 9999 BKN018 31/21 Q1010 NOSIG=  
14-Apr-2022 SAID33 WATB 140000 METAR WATB 140000Z 12002KT 9999 BKN018 25/21 Q1014 NOSIG=  
14-Apr-2022 SAID33 WATB 140100 METAR WATB 140100Z 00000KT 9999 BKN018 27/22 Q1014 NOSIG=  
14-Apr-2022 SAID33 WATB 140200 METAR WATB 140200Z 00000KT 9999 BKN018 29/20 Q1014 NOSIG=  
14-Apr-2022 SAID33 WATB 140300 METAR WATB 140300Z 00000KT 9999 BKN018 30/21 Q1013 NOSIG=  
14-Apr-2022 SAID33 WATB 140400 METAR WATB 140400Z 12004KT 9999 BKN018 29/20 Q1012 NOSIG=  
14-Apr-2022 SAID33 WATB 140500 METAR WATB 140500Z 11002KT 9999 BKN018 30/21 Q1011 NOSIG=  
14-Apr-2022 SAID33 WATB 140600 METAR WATB 140600Z 00000KT 9999 BKN018 30/21 Q1010 NOSIG=  
15-Apr-2022 SAID33 WATB 150000 METAR WATB 150000Z 10002KT 9999 FEW020 26/23 Q1014 NOSIG=  
15-Apr-2022 SAID33 WATB 150100 METAR WATB 150100Z 09002KT 9999 FEW020 30/22 Q1014 NOSIG=  
15-Apr-2022 SAID33 WATB 150200 METAR WATB 150200Z 10005KT 9999 SCT020 30/22 Q1013 NOSIG=  
15-Apr-2022 SAID33 WATB 150300 METAR WATB 150300Z 08005KT 9999 SCT018 31/22 Q1013 NOSIG=  
15-Apr-2022 SAID33 WATB 150400 METAR WATB 150400Z 10007KT 9999 BKN018 31/22 Q1012 NOSIG=  
15-Apr-2022 SAID33 WATB 150500 METAR WATB 150500Z 09006KT 9999 BKN018 32/23 Q1011 NOSIG=  
15-Apr-2022 SAID33 WATB 150600 METAR WATB 150600Z 00000KT 9999 BKN016 26/22 Q1011 NOSIG=  
16-Apr-2022 SAID33 WATB 160000 METAR WATB 160000Z 00000KT 9999 FEW020 28/22 Q1013 NOSIG=  
16-Apr-2022 SAID33 WATB 160100 METAR WATB 160100Z 00000KT 9999 FEW020 29/23 Q1013 NOSIG=  
16-Apr-2022 SAID33 WATB 160200 METAR WATB 160200Z 00000KT 9999 FEW020 30/22 Q1013 NOSIG=  
16-Apr-2022 SAID33 WATB 160300 METAR WATB 160300Z 09004KT 9999 SCT020 31/21 Q1012 NOSIG=  
16-Apr-2022 SAID33 WATB 160400 METAR WATB 160400Z 09007KT 9999 SCT018 30/23 Q1011 NOSIG=  
16-Apr-2022 SAID33 WATB 160500 METAR WATB 160500Z 00000KT 9999 SCT018 30/22 Q1010 NOSIG=  
16-Apr-2022 SAID33 WATB 160600 METAR WATB 160600Z 11004KT 9999 BKN018 28/23 Q1010 NOSIG=  
17-Apr-2022 SAID33 WATB 170000 METAR WATB 170000Z 00000KT 9999 FEW020 25/22 Q1013 NOSIG=  
17-Apr-2022 SAID33 WATB 170100 METAR WATB 170100Z 00000KT 9999 FEW020 27/23 Q1014 NOSIG=  
17-Apr-2022 SAID33 WATB 170200 METAR WATB 170200Z 10004KT 9999 FEW020 30/23 Q1013 NOSIG=  
17-Apr-2022 SAID33 WATB 170300 METAR WATB 170300Z 09006KT 9999 SCT018 29/22 Q1013 NOSIG=  
17-Apr-2022 SAID33 WATB 170400 METAR WATB 170400Z 11003KT 9999 BKN018 31/22 Q1011 NOSIG=  
17-Apr-2022 SAID33 WATB 170500 METAR WATB 170500Z 08008KT 9999 BKN018 29/23 Q1011 NOSIG=  
17-Apr-2022 SAID33 WATB 170600 METAR WATB 170600Z 08008KT 7000 -TSRA FEW012CB BKN015 23/22 Q1012 NOSIG=  
18-Apr-2022 SAID33 WATB 180000 METAR WATB 180000Z 07002KT 8000 BKN018 26/23 Q1014 NOSIG=  
18-Apr-2022 SAID33 WATB 180100 METAR WATB 180100Z 08004KT 9999 BKN018 26/24 Q1014 NOSIG=  
18-Apr-2022 SAID33 WATB 180200 METAR WATB 180200Z 00000KT 9999 BKN018 28/22 Q1014 NOSIG=  
18-Apr-2022 SAID33 WATB 180300 METAR WATB 180300Z 11003KT 9999 BKN018 28/24 Q1014 NOSIG=  
18-Apr-2022 SAID33 WATB 180400 METAR WATB 180400Z 09006KT 9999 BKN018 30/23 Q1012 NOSIG=  
18-Apr-2022 SAID33 WATB 180500 METAR WATB 180500Z 09008KT 9999 BKN018 30/23 Q1011 NOSIG=  
18-Apr-2022 SAID33 WATB 180600 METAR WATB 180600Z 08004KT 9999 BKN018 30/23 Q1010 NOSIG=  
19-Apr-2022 SAID33 WATB 190000 METAR WATB 190000Z 08002KT 9999 BKN018 24/23 Q1014 NOSIG=  
19-Apr-2022 SAID33 WATB 190100 METAR WATB 190100Z 09002KT 9999 BKN018 28/23 Q1014 NOSIG=  
19-Apr-2022 SAID33 WATB 190200 METAR WATB 190200Z 09002KT 9999 BKN018 28/23 Q1014 NOSIG=  
19-Apr-2022 SAID33 WATB 190300 METAR WATB 190300Z 00000KT 9999 BKN018 28/23 Q1014 NOSIG=  
19-Apr-2022 SAID33 WATB 190400 METAR WATB 190400Z 10003KT 9999 BKN018 29/24 Q1013 NOSIG=  
19-Apr-2022 SAID33 WATB 190500 METAR WATB 190500Z 00000KT 9999 BKN018 28/24 Q1012 NOSIG=  
19-Apr-2022 SAID33 WATB 190600 METAR WATB 190600Z 00000KT 9999 BKN018 27/23 Q1012 NOSIG=  
20-Apr-2022 SAID33 WATB 200000 METAR WATB 200000Z 00000KT 9999 FEW020 26/22 Q1014 NOSIG=  
20-Apr-2022 SAID33 WATB 200100 METAR WATB 200100Z 08003KT 9999 SCT018 28/24 Q1014 NOSIG=  
20-Apr-2022 SAID33 WATB 200200 METAR WATB 200200Z 28003KT 9999 SCT018 30/23 Q1014 NOSIG=  
20-Apr-2022 SAID33 WATB 200300 METAR WATB 200300Z 10002KT 9999 BKN018 29/22 Q1014 NOSIG=  
20-Apr-2022 SAID33 WATB 200400 METAR WATB 200400Z 09004KT 9999 BKN018 29/22 Q1013 NOSIG=  
20-Apr-2022 SAID33 WATB 200500 METAR WATB 200500Z 09004KT 9999 BKN018 30/22 Q1012 NOSIG=  
20-Apr-2022 SAID33 WATB 200600 METAR WATB 200600Z 00000KT 9999 BKN018 29/22 Q1012 NOSIG=  
21-Apr-2022 SAID33 WATB 210000 METAR WATB 210000Z 10003KT 9999 FEW020 27/23 Q1014 NOSIG=  
21-Apr-2022 SAID33 WATB 210100 METAR WATB 210100Z 09002KT 9999 FEW020 29/21 Q1014 NOSIG=  
21-Apr-2022 SAID33 WATB 210200 METAR WATB 210200Z 00000KT 9999 FEW020 30/20 Q1014 NOSIG=  
21-Apr-2022 SAID33 WATB 210300 METAR WATB 210300Z 11002KT 9999 FEW020 30/22 Q1013 NOSIG=  
21-Apr-2022 SAID33 WATB 210400 METAR WATB 210400Z 00000KT 9999 SCT018 31/21 Q1012 NOSIG=  
21-Apr-2022 SAID33 WATB 210500 METAR WATB 210500Z 10003KT 9999 BKN018 30/22 Q1011 NOSIG=  
21-Apr-2022 SAID33 WATB 210600 METAR WATB 210600Z 11004KT 9999 BKN018 30/22 Q1011 NOSIG=  
22-Apr-2022 SAID33 WATB 220000 METAR WATB 220000Z 09004KT 9999 FEW020 25/22 Q1015 NOSIG=  
22-Apr-2022 SAID33 WATB 220100 METAR WATB 220100Z 10003KT 9999 FEW020 28/23 Q1015 NOSIG=  
22-Apr-2022 SAID33 WATB 220200 METAR WATB 220200Z 00000KT 9999 SCT018 29/23 Q1014 NOSIG=  
22-Apr-2022 SAID33 WATB 220300 METAR WATB 220300Z 11002KT 9999 SCT018 29/23 Q1014 NOSIG=  
22-Apr-2022 SAID33 WATB 220400 METAR WATB 220400Z 08003KT 9999 BKN018 30/23 Q1013 NOSIG=  
22-Apr-2022 SAID33 WATB 220500 METAR WATB 220500Z 00000KT 9999 BKN017 27/23 Q1012 NOSIG=  
22-Apr-2022 SAID33 WATB 220600 METAR WATB 220600Z 00000KT 6000 TSRA FEW013CB BKN015 23/23 Q1013 NOSIG=  
23-Apr-2022 SAID33 WATB 230000 METAR WATB 230000Z 09002KT 9999 SCT020 28/23 Q1014 NOSIG=  
23-Apr-2022 SAID33 WATB 230100 METAR WATB 230100Z 08003KT 9999 SCT020 29/23 Q1014 NOSIG=  
23-Apr-2022 SAID33 WATB 230200 METAR WATB 230200Z 08002KT 9999 SCT020 29/23 Q1014 NOSIG=  
23-Apr-2022 SAID33 WATB 230300 METAR WATB 230300Z 09006KT 9999 SCT018 30/21 Q1013 NOSIG=  
23-Apr-2022 SAID33 WATB 230400 METAR WATB 230400Z 00000KT 9999 SCT018 30/20 Q1012 NOSIG=  
23-Apr-2022 SAID33 WATB 230500 METAR WATB 230500Z 00000KT 9999 SCT018 30/21 Q1011 NOSIG=  
23-Apr-2022 SAID33 WATB 230600 METAR WATB 230600Z 10005KT 9999 BKN018 31/22 Q1010 NOSIG=  
24-Apr-2022 SAID33 WATB 240000 METAR WATB 240000Z 09002KT 9999 FEW020 25/21 Q1014 NOSIG=  
24-Apr-2022 SAID33 WATB 240100 METAR WATB 240100Z 09002KT 9999 FEW020 28/21 Q1014 NOSIG=  
24-Apr-2022 SAID33 WATB 240200 METAR WATB 240200Z 08002KT 9999 FEW020 30/20 Q1013 NOSIG=  
24-Apr-2022 SAID33 WATB 240300 METAR WATB 240300Z 00000KT 9999 FEW020 30/21 Q1012 NOSIG=  
24-Apr-2022 SAID33 WATB 240400 METAR WATB 240400Z 00000KT 9999 SCT020 31/20 Q1011 NOSIG=  
24-Apr-2022 SAID33 WATB 240500 METAR WATB 240500Z 11006KT 9999 SCT018 31/22 Q1010 NOSIG=  
24-Apr-2022 SAID33 WATB 240600 METAR WATB 240600Z 00000KT 9999 SCT018 30/22 Q1009 NOSIG=  
25-Apr-2022 SAID33 WATB 250000 METAR WATB 250000Z 00000KT 9999 FEW020 27/22 Q10113 NOSIG=  
25-Apr-2022 SAID33 WATB 250100 METAR WATB 250100Z 00000KT 9999 FEW020 28/22 Q1013 NOSIG=  
25-Apr-2022 SAID33 WATB 250200 METAR WATB 250200Z 11005KT 9999 FEW020 29/21 Q1013 NOSIG=  
25-Apr-2022 SAID33 WATB 250300 METAR WATB 250300Z 00000KT 9999 FEW020 30/19 Q1012 NOSIG=  
25-Apr-2022 SAID33 WATB 250400 METAR WATB 250400Z 00000KT 9999 FEW020 31/20 Q1011 NOSIG=  
25-Apr-2022 SAID33 WATB 250500 METAR WATB 250500Z 00000KT 9999 FEW020 31/20 Q1010 NOSIG=  
25-Apr-2022 SAID33 WATB 250600 METAR WATB 250600Z 00000KT 9999 SCT018 31/18 Q1010 NOSIG=  
26-Apr-2022 SAID33 WATB 260000 METAR WATB 260000Z 00000KT 9999 FEW020 25/19 Q1012 NOSIG=  
26-Apr-2022 SAID33 WATB 260100 METAR WATB 260100Z 00000KT 9999 FEW020 27/21 Q1012 NOSIG=  
26-Apr-2022 SAID33 WATB 260200 METAR WATB 260200Z 00000KT 9999 FEW020 29/21 Q1012 NOSIG=  
26-Apr-2022 SAID33 WATB 260300 METAR WATB 260300Z 00000KT 9999 FEW020 30/19 Q1011 NOSIG=  
26-Apr-2022 SAID33 WATB 260400 METAR WATB 260400Z 00000KT 9999 FEW020 31/19 Q1010 NOSIG=  
26-Apr-2022 SAID33 WATB 260500 METAR WATB 260500Z 00000KT 9999 FEW020 31/20 Q1009 NOSIG=  
27-Apr-2022 SAID33 WATB 270000 METAR WATB 270000Z 00000KT 9999 FEW020 24/18 Q1013 NOSIG=  
27-Apr-2022 SAID33 WATB 270100 METAR WATB 270100Z 00000KT 9999 FEW020 26/19 Q1013 NOSIG=  
27-Apr-2022 SAID33 WATB 270200 METAR WATB 270200Z 00000KT 9999 FEW020 28/20 Q1013 NOSIG=  
27-Apr-2022 SAID33 WATB 270300 METAR WATB 270300Z 00000KT 9999 FEW020 30/20 Q1012 NOSIG=  
27-Apr-2022 SAID33 WATB 270400 METAR WATB 270400Z 00000KT 9999 FEW020 30/18 Q1011 NOSIG=  
27-Apr-2022 SAID33 WATB 270500 METAR WATB 270500Z 00000KT 9999 FEW020 30/19 Q1010 NOSIG=  
27-Apr-2022 SAID33 WATB 270600 METAR WATB 270600Z 11007KT 9999 SCT018 30/20 Q1010 NOSIG=  
28-Apr-2022 SAID33 WATB 280000 METAR WATB 280000Z 08003KT 9999 FEW020 25/20 Q1014 NOSIG=  
28-Apr-2022 SAID33 WATB 280100 METAR WATB 280100Z 09002KT 9999 FEW020 27/20 Q1014 NOSIG=  
28-Apr-2022 SAID33 WATB 280200 METAR WATB 280200Z 11005KT 9999 FEW020 29/22 Q1013 NOSIG=  
28-Apr-2022 SAID33 WATB 280300 METAR WATB 280300Z 10005KT 9999 FEW020 29/22 Q1013 NOSIG=  
28-Apr-2022 SAID33 WATB 280400 METAR WATB 280400Z 08005KT 9999 SCT020 30/22 Q1012 NOSIG=  
28-Apr-2022 SAID33 WATB 280500 METAR WATB 280500Z 09006KT 9999 BKN018 30/23 Q1011 NOSIG=  
28-Apr-2022 SAID33 WATB 280600 METAR WATB 280600Z 00000KT 9999 BKN018 29/23 Q1011 NOSIG=  
29-Apr-2022 SAID33 WATB 290000 METAR WATB 290000Z 07002KT 9999 FEW020 25/22 Q1014 NOSIG=  
29-Apr-2022 SAID33 WATB 290100 METAR WATB 290100Z 09003KT 9999 FEW020 27/22 Q1014 NOSIG=  
29-Apr-2022 SAID33 WATB 290200 METAR WATB 290200Z 09007KT 9999 FEW020 29/21 Q1014 NOSIG=  
29-Apr-2022 SAID33 WATB 290300 METAR WATB 290300Z 13004KT 9999 SCT020 29/20 Q1013 NOSIG=  
29-Apr-2022 SAID33 WATB 290400 METAR WATB 290400Z 00000KT 9999 SCT018 30/20 Q1013 NOSIG=  
29-Apr-2022 SAID33 WATB 290500 METAR WATB 290500Z 00000KT 9999 SCT018 30/21 Q1012 NOSIG=  
29-Apr-2022 SAID33 WATB 290600 METAR WATB 290600Z 12006KT 9999 SCT018 30/21 Q1011 NOSIG=  
30-Apr-2022 SAID33 WATB 300000 METAR WATB 300000Z 00000KT 9999 FEW020 26/22 Q1014 NOSIG=  
30-Apr-2022 SAID33 WATB 300100 METAR WATB 300100Z 00000KT 9999 FEW020 28/22 Q1014 NOSIG=  
30-Apr-2022 SAID33 WATB 300200 METAR WATB 300200Z 00000KT 9999 FEW020 30/19 Q1014 NOSIG=  
30-Apr-2022 SAID33 WATB 300300 METAR WATB 300300Z 00000KT 9999 FEW020 30/20 Q1014 NOSIG=  
30-Apr-2022 SAID33 WATB 300400 METAR WATB 300400Z 00000KT 9999 FEW020 30/20 Q1013 NOSIG=  
01-May-2022 SAID33 WATB 010000 METAR WATB 010000Z 08003KT 9999 FEW020 25/22 Q1014 NOSIG=  
01-May-2022 SAID33 WATB 010100 METAR WATB 010100Z 10002KT 9999 FEW020 28/22 Q1014 NOSIG=  
01-May-2022 SAID33 WATB 010200 METAR WATB 010200Z 08002KT 9999 FEW020 30/22 Q1013 NOSIG=  
01-May-2022 SAID33 WATB 010300 METAR WATB 010300Z 11002KT 9999 FEW018 31/22 Q1013 NOSIG=  
01-May-2022 SAID33 WATB 010400 METAR WATB 010400Z 12002KT 9999 SCT018 31/22 Q1012 NOSIG=  
01-May-2022 SAID33 WATB 010500 METAR WATB 010500Z 11003KT 9999 SCT018 31/22 Q1011 NOSIG=  
01-May-2022 SAID33 WATB 010600 METAR WATB 010600Z 00000KT 9999 SCT018 31/21 Q1010 NOSIG=  
02-May-2022 SAID33 WATB 020000 METAR WATB 020000Z 11003KT 9999 FEW019 28/24 Q1014 NOSIG=  
02-May-2022 SAID33 WATB 020100 METAR WATB 020100Z 14002KT 9999 SCT018 27/23 Q1014 NOSIG=  
02-May-2022 SAID33 WATB 020200 METAR WATB 020200Z 11002KT 9999 SCT018 28/22 Q1014 NOSIG=  
02-May-2022 SAID33 WATB 020300 METAR WATB 020300Z 11003KT 9999 SCT018 30/22 Q1014 NOSIG=  
02-May-2022 SAID33 WATB 020400 METAR WATB 020400Z 11003KT 9999 SCT018 31/22 Q1014 NOSIG=  
02-May-2022 SAID33 WATB 020500 METAR WATB 020500Z 12005KT 9999 SCT018 30/21 Q1012 NOSIG=  
02-May-2022 SAID33 WATB 020600 METAR WATB 020600Z 00000KT 9999 SCT018 30/21 Q1011 NOSIG=  
03-May-2022 SAID33 WATB 030000 METAR WATB 030000Z 00000KT 9999 FEW020 27/22 Q1014 NOSIG=  
03-May-2022 SAID33 WATB 030100 METAR WATB 030100Z 00000KT 9999 FEW020 29/21 Q1014 NOSIG=  
03-May-2022 SAID33 WATB 030200 METAR WATB 030200Z 00000KT 9999 SCT018 29/21 Q1014 NOSIG=  
03-May-2022 SAID33 WATB 030300 METAR WATB 030300Z 11004KT 9999 BKN017 29/22 Q1014 NOSIG=  
03-May-2022 SAID33 WATB 030400 METAR WATB 030400Z 00000KT 9999 BKN017 29/21 Q1013 NOSIG=  
03-May-2022 SAID33 WATB 030600 METAR WATB 030600Z 00000KT 9999 BKN017 27/22 Q1012 NOSIG=  
04-May-2022 SAID33 WATB 040000 METAR WATB 040000Z 07003KT 9999 FEW019 27/23 Q1014 NOSIG=  
04-May-2022 SAID33 WATB 040100 METAR WATB 040100Z 10002KT 9999 FEW019 29/23 Q1014 NOSIG=  
04-May-2022 SAID33 WATB 040200 METAR WATB 040200Z 00000KT 9999 SCT019 29/22 Q1013 NOSIG=  
04-May-2022 SAID33 WATB 040300 METAR WATB 040300Z 10002KT 9999 SCT018 28/22 Q1013 NOSIG=  
04-May-2022 SAID33 WATB 040400 METAR WATB 040400Z 11003KT 9999 BKN018 30/22 Q1012 NOSIG=  
04-May-2022 SAID33 WATB 040500 METAR WATB 040500Z 11004KT 9999 SCT018 30/22 Q1011 NOSIG=  
04-May-2022 SAID33 WATB 040600 METAR WATB 040600Z 11005KT 9999 SCT018 30/23 Q1011 NOSIG=  
05-May-2022 SAID33 WATB 050000 METAR WATB 050000Z 00000KT 9999 FEW019 26/21 Q1013 NOSIG=  
05-May-2022 SAID33 WATB 050100 METAR WATB 050100Z 09003KT 9999 FEW019 28/23 Q1014 NOSIG=  
05-May-2022 SAID33 WATB 050200 METAR WATB 050200Z 10002KT 9999 FEW019 29/22 Q1013 NOSIG=  
05-May-2022 SAID33 WATB 050300 METAR WATB 050300Z 00000KT 9999 SCT019 30/21 Q1013 NOSIG=  
05-May-2022 SAID33 WATB 050400 METAR WATB 050400Z 11008KT 9999 SCT018 19/23 Q1012 NOSIG=  
05-May-2022 SAID33 WATB 050500 METAR WATB 050500Z 11007KT 9999 SCT018 31/23 Q1011 NOSIG=  
05-May-2022 SAID33 WATB 050600 METAR WATB 050600Z 11008KT 9999 BKN018 28/23 Q1010 NOSIG=  
06-May-2022 SAID33 WATB 060000 METAR WATB 060000Z 07003KT 9999 FEW019 26/23 Q1013 NOSIG=  
06-May-2022 SAID33 WATB 060100 METAR WATB 060100Z 08002KT 9999 FEW019 28/22 Q1014 NOSIG=  
06-May-2022 SAID33 WATB 060130 METAR WATB 060130Z 02004KT 9999 FEW019 25/19 Q1016 NOSIG=  
06-May-2022 SAID33 WATB 060200 METAR WATB 060200Z 10003KT 9999 FEW019 29/22 Q1013 NOSIG=  
06-May-2022 SAID33 WATB 060300 METAR WATB 060300Z 08002KT 9999 SCT018 30/21 Q1013 NOSIG=  
06-May-2022 SAID33 WATB 060500 METAR WATB 060500Z 00000KT 9999 SCT018 30/22 Q1011 NOSIG=  
06-May-2022 SAID33 WATB 060600 METAR WATB 060600Z 09007KT 9999 SCT018 30/22 Q1010 NOSIG=  
07-May-2022 SAID33 WATB 070000 METAR WATB 070000Z 00000KT 9999 SCT018 27/22 Q1013 NOSIG=  
07-May-2022 SAID33 WATB 070100 METAR WATB 070100Z 07004KT 9999 SCT019 28/22 Q1013 NOSIG=  
07-May-2022 SAID33 WATB 070200 METAR WATB 070200Z 00000KT 9999 SCT018 30/21 Q1013 NOSIG=  
07-May-2022 SAID33 WATB 070400 METAR WATB 070400Z 09004KT 9999 SCT018 30/21 Q1012 NOSIG=  
07-May-2022 SAID33 WATB 070500 METAR WATB 070500Z 10005KT 9999 SCT018 30/21 Q1011 NOSIG=  
07-May-2022 SAID33 WATB 070600 METAR WATB 070600Z 09004KT 9999 SCT018 30/22 Q1010 NOSIG=  
08-May-2022 SAID33 WATB 080000 METAR WATB 080000Z 27003KT 9999 FEW019 26/23 Q1012 NOSIG=  
08-May-2022 SAID33 WATB 080200 METAR WATB 080200Z 20002KT 9999 SCT019 29/23 Q1013 NOSIG=  
08-May-2022 SAID33 WATB 080400 METAR WATB 080400Z 07005KT 9999 SCT018 32/22 Q1011 NOSIG=  
08-May-2022 SAID33 WATB 080500 METAR WATB 080500Z 09006KT 9999 SCT018 31/22 Q1010 NOSIG=  
08-May-2022 SAID33 WATB 080600 METAR WATB 080600Z 12004KT 9999 SCT018 29/24 Q1010 NOSIG=  
09-May-2022 SAID33 WATB 090000 METAR WATB 090000Z 00000KT 9999 BKN018 26/23 Q1013 NOSIG=  
09-May-2022 SAID33 WATB 090100 METAR WATB 090100Z 09008KT 9999 SCT019 29/24 Q1013 NOSIG=  
09-May-2022 SAID33 WATB 090200 METAR WATB 090200Z 10008KT 9999 SCT019 29/23 Q1013 NOSIG=  
09-May-2022 SAID33 WATB 090400 METAR WATB 090400Z 10007KT 9999 FEW019 30/22 Q1012 NOSIG=  
09-May-2022 SAID33 WATB 090500 METAR WATB 090500Z 10005KT 9999 FEW019 30/22 Q1011 NOSIG=  
09-May-2022 SAID33 WATB 090600 METAR WATB 090600Z 12006KT 9999 FEW019 29/21 Q1011 NOSIG=  
10-May-2022 SAID33 WATB 100000 METAR WATB 100000Z 10002KT 9999 FEW020 26/20 Q1014 NOSIG=  
10-May-2022 SAID33 WATB 100100 METAR WATB 100100Z 27004KT 9999 FEW019 22/22 Q1014 NOSIG=  
10-May-2022 SAID33 WATB 100200 METAR WATB 100200Z 20004KT 9999 SCT018 30/22 Q1014 NOSIG=  
10-May-2022 SAID33 WATB 100300 METAR WATB 100300Z 10004KT 9999 SCT018 30/22 Q1013 NOSIG=  
10-May-2022 SAID33 WATB 100400 METAR WATB 100400Z 10002KT 9999 SCT018 29/22 Q1012 NOSIG=  
10-May-2022 SAID33 WATB 100500 METAR WATB 100500Z 18005KT 9999 SCT018 30/20 Q1011 NOSIG=  
10-May-2022 SAID33 WATB 100600 METAR WATB 100600Z 18003KT 9999 SCT018 28/22 Q1010 NOSIG=  
11-May-2022 SAID33 WATB 110000 METAR WATB 110000Z 00000KT 9999 FEW019 22/20 Q1014 NOSIG=  
11-May-2022 SAID33 WATB 110100 METAR WATB 110100Z 00000KT 9999 FEW019 25/21 Q1014 NOSIG=  
11-May-2022 SAID33 WATB 110200 METAR WATB 110200Z 08004KT 9999 FEW019 27/20 Q1013 NOSIG=  
11-May-2022 SAID33 WATB 110400 METAR WATB 110400Z 08003KT 9999 FEW019 30/20 Q1011 NOSIG=  
11-May-2022 SAID33 WATB 110500 METAR WATB 110500Z 08006KT 9999 FEW018 31/21 Q1010 NOSIG=  
11-May-2022 SAID33 WATB 110600 METAR WATB 110600Z 09005KT 9999 SCT018 30/23 Q1009 NOSIG=  
12-May-2022 SAID33 WATB 120000 METAR WATB 120000Z 00000KT 9999 FEW019 37/23 Q1014 NOSIG=  
12-May-2022 SAID33 WATB 120100 METAR WATB 120100Z 08003KT 9999 FEW020 28/23 Q1015 NOSIG=  
12-May-2022 SAID33 WATB 120200 METAR WATB 120200Z 08002KT 9999 SCT029 28/23 Q1014 NOSIG=  
12-May-2022 SAID33 WATB 120300 METAR WATB 120300Z 11002KT 9999 SCT018 30/22 Q1013 NOSIG=  
12-May-2022 SAID33 WATB 120500 METAR WATB 120500Z 09006KT 9999 SCT018 31/23 Q1011 NOSIG=  
12-May-2022 SAID33 WATB 120600 METAR WATB 120600Z 09008KT 9999 SCT018 31/24 Q1010 NOSIG=  
13-May-2022 SAID33 WATB 130000 METAR WATB 130000Z 07003KT 9999 FEW019 27/23 Q1014 NOSIG=  
13-May-2022 SAID33 WATB 130100 METAR WATB 130100Z 18002KT 9999 SCT018 27/23 Q1015 NOSIG=  
13-May-2022 SAID33 WATB 130200 METAR WATB 130200Z 09004KT 9999 SCT018 29/23 Q1014 NOSIG=  
13-May-2022 SAID33 WATB 130300 METAR WATB 130300Z 08007KT 9999 SCT018 31/23 Q1013 NOSIG=  
13-May-2022 SAID33 WATB 130400 METAR WATB 130400Z 30006KT 9999 SCT018 32/22 Q1012 NOSIG=  
13-May-2022 SAID33 WATB 130500 METAR WATB 130500Z 09007KT 9999 SCT018 32/23 Q1012 NOSIG=  
13-May-2022 SPID33 WATB 130535 SPECI WATB 130535Z 09007KT 8000 RA BKN018 29/23 Q1011 TEMPO TL0610 5000 RA=  
13-May-2022 SAID33 WATB 130600 METAR WATB 130600Z 10007KT 6000 -RA BKN018 25/25 Q1011 TEMPO TL0630 5000 -RA=  
14-May-2022 SAID33 WATB 140000 METAR WATB 140000Z 10002KT 9999 FEW019 25/23 Q1015 NOSIG=  
14-May-2022 SAID33 WATB 140100 METAR WATB 140100Z 10004KT 9999 FEW019 27/23 Q1016 NOSIG=  
14-May-2022 SAID33 WATB 140200 METAR WATB 140200Z 09002KT 9999 FEW019 28/23 Q1015 NOSIG=  
14-May-2022 SAID33 WATB 140300 METAR WATB 140300Z 18003KT 9999 SCT019 29/23 Q1015 NOSIG=  
14-May-2022 SAID33 WATB 140500 METAR WATB 140500Z 09005KT 9999 BKN018 29/23 Q1013 NOSIG=  
14-May-2022 SAID33 WATB 140600 METAR WATB 140600Z 11004KT 9999 BKN016 29/23 Q1013 NOSIG=  
15-May-2022 SAID33 WATB 150000 METAR WATB 150000Z 00000KT 9999 FEW019 25/22 Q1017 NOSIG=  
15-May-2022 SAID33 WATB 150100 METAR WATB 150100Z 09003KT 9999 FEW019 27/22 Q1017 NOSIG=  
15-May-2022 SAID33 WATB 150200 METAR WATB 150200Z 08003KT 9999 FEW019 28/21 Q1016 NOSIG=  
15-May-2022 SAID33 WATB 150300 METAR WATB 150300Z 11003KT 9999 FEW019 30/20 Q1016 NOSIG=  
15-May-2022 SAID33 WATB 150400 METAR WATB 150400Z 16003KT 9999 FEW018 31/20 Q1014 NOSIG=  
15-May-2022 SAID33 WATB 150500 METAR WATB 150500Z 20004KT 9999 FEW018 31/19 Q1013 NOSIG=  
15-May-2022 SAID33 WATB 150600 METAR WATB 150600Z 18003KT 9999 FEW018 31/19 Q1012 NOSIG=  
16-May-2022 SAID33 WATB 160000 METAR WATB 160000Z 10002KT 9999 FEW020 25/20 Q1015 NOSIG=  
16-May-2022 SAID33 WATB 160100 METAR WATB 160100Z 09002KT 9999 FEW020 28/22 Q1015 NOSIG=  
16-May-2022 SAID33 WATB 160200 METAR WATB 160200Z 21003KT 9999 FEW020 29/22 Q1016 NOSIG=  
16-May-2022 SAID33 WATB 160300 METAR WATB 160300Z 10005KT 9999 FEW019 31/21 Q1015 NOSIG=  
16-May-2022 SAID33 WATB 160500 METAR WATB 160500Z 10006KT 9999 SCT018 31/21 Q1013 NOSIG=  
16-May-2022 SAID33 WATB 160600 METAR WATB 160600Z 05008KT 9999 SCT018 31/21 Q1012 NOSIG=  
17-May-2022 SAID33 WATB 170000 METAR WATB 170000Z 00000KT 9999 FEW019 24/22 Q1015 NOSIG=  
17-May-2022 SAID33 WATB 170100 METAR WATB 170100Z 00000KT 9999 FEW019 29/22 Q1016 NOSIG=  
17-May-2022 SAID33 WATB 170200 METAR WATB 170200Z 11005KT 9999 SCT019 30/23 Q1015 NOSIG=  
17-May-2022 SAID33 WATB 170300 METAR WATB 170300Z 09005KT 9999 SCT019 29/22 Q1015 NOSIG=  
17-May-2022 SAID33 WATB 170500 METAR WATB 170500Z 07004KT 9999 SCT018 31/22 Q1013 NOSIG=  
17-May-2022 SAID33 WATB 170600 METAR WATB 170600Z 09005KT 9999 FEW018 32/22 Q1012 NOSIG=  
18-May-2022 SAID33 WATB 180000 METAR WATB 180000Z 00000KT 9999 FEW019 25/22 Q1017 NOSIG=  
18-May-2022 SAID33 WATB 180100 METAR WATB 180100Z 09005KT 9999 FEW019 28/22 Q1017 NOSIG=  
18-May-2022 SAID33 WATB 180200 METAR WATB 180200Z 08005KT 9999 FEW019 28/23 Q1016 NOSIG=  
18-May-2022 SAID33 WATB 180300 METAR WATB 180300Z 35005KT 9999 FEW018 30/21 Q1016 NOSIG=  
18-May-2022 SAID33 WATB 180500 METAR WATB 180500Z 06006KT 9999 SCT018 31/21 Q1014 NOSIG=  
18-May-2022 SAID33 WATB 180600 METAR WATB 180600Z 02010KT 9999 BKN018 29/21 Q1014 NOSIG=  
19-May-2022 SAID33 WATB 190000 METAR WATB 190000Z 09002KT 9999 FEW019 25/22 Q1017 NOSIG=  
19-May-2022 SAID33 WATB 190100 METAR WATB 190100Z 08003KT 9999 FEW019 28/23 Q1017 NOSIG=  
19-May-2022 SAID33 WATB 190200 METAR WATB 190200Z 05008KT 9999 FEW019 30/22 Q1017 NOSIG=  
19-May-2022 SAID33 WATB 190300 METAR WATB 190300Z 10004KT 9999 FEW019 29/22 Q1016 NOSIG=  
19-May-2022 SAID33 WATB 190400 METAR WATB 190400Z 15004KT 9999 SCT018 29/22 Q1015 NOSIG=  
19-May-2022 SAID33 WATB 190500 METAR WATB 190500Z 08006KT 9999 BKN018 29/22 Q1014 NOSIG=  
19-May-2022 SAID33 WATB 190600 METAR WATB 190600Z 10005KT 9999 SCT018 30/22 Q1013 NOSIG=  
20-May-2022 SAID33 WATB 200000 METAR WATB 200000Z 10005KT 9999 FEW019 25/22 Q1016 NOSIG=  
20-May-2022 SAID33 WATB 200100 METAR WATB 200100Z 0900KT 9999 FEW019 27/22 Q1016 NOSIG=  
20-May-2022 SAID33 WATB 200200 METAR WATB 200200Z 09003KT 9999 FEW019 29/21 Q1016 NOSIG=  
20-May-2022 SAID33 WATB 200300 METAR WATB 200300Z 08005KT 9999 FEW018 29/22 Q1016 NOSIG=  
20-May-2022 SAID33 WATB 200400 METAR WATB 200400Z 08006KT 9999 SCT018 30/22 Q1014 NOSIG=  
20-May-2022 SAID33 WATB 200500 METAR WATB 200500Z 10003KT 9999 SCT018 29/21 Q1013 NOSIG=  
20-May-2022 SAID33 WATB 200600 METAR WATB 200600Z 11006KT 9999 SCT018 30/21 Q1012 NOSIG=  
21-May-2022 SAID33 WATB 210000 METAR WATB 210000Z 00000KT 9999 FEW019 24/20 Q1015 NOSIG=  
21-May-2022 SAID33 WATB 210100 METAR WATB 210100Z 09002KT 9999 FEW019 27/20 Q1015 NOSIG=  
21-May-2022 SAID33 WATB 210200 METAR WATB 210200Z 08002KT 9999 FEW019 28/20 Q1015 NOSIG=  
21-May-2022 SAID33 WATB 210300 METAR WATB 210300Z 10004KT 9999 FEW019 30/20 Q1014 NOSIG=  
21-May-2022 SAID33 WATB 210400 METAR WATB 210400Z 11003KT 9999 FEW018 30/20 Q1013 NOSIG=  
21-May-2022 SAID33 WATB 210500 METAR WATB 210500Z 12003KT 9999 FEW018 31/20 Q1012 NOSIG=  
21-May-2022 SAID33 WATB 210600 METAR WATB 210600Z 17004KT 9999 FEW018 31/20 Q1011 NOSIG=  
22-May-2022 SAID33 WATB 220000 METAR WATB 220000Z 09002KT 9999 FEW019 24/21 Q1015 NOSIG=  
22-May-2022 SAID33 WATB 220100 METAR WATB 220100Z 08002KT 9999 FEW019 27/21 Q1015 NOSIG=  
22-May-2022 SAID33 WATB 220200 METAR WATB 220200Z 05005KT 9999 FEW019 28/19 Q1014 NOSIG=  
22-May-2022 SAID33 WATB 220300 METAR WATB 220300Z 05005KT 9999 FEW018 30/20 Q1014 NOSIG=  
22-May-2022 SAID33 WATB 220400 METAR WATB 220400Z 36003KT 9999 SCT018 30/20 Q1013 NOSIG=  
22-May-2022 SAID33 WATB 220500 METAR WATB 220500Z 10003KT 9999 SCT018 29/20 Q1012 NOSIG=  
22-May-2022 SAID33 WATB 220600 METAR WATB 220600Z 02005KT 9999 SCT018 29/19 Q1011 NOSIG=  
23-May-2022 SAID33 WATB 230000 METAR WATB 230000Z 10002KT 9999 FEW019 25/21 Q1015 NOSIG=  
23-May-2022 SAID33 WATB 230100 METAR WATB 230100Z 02004KT 9999 FEW019 27/21 Q1015 NOSIG=  
23-May-2022 SAID33 WATB 230200 METAR WATB 230200Z 09002KT 9999 FEW019 29/19 Q1015 NOSIG=  
23-May-2022 SAID33 WATB 230300 METAR WATB 230300Z 01005KT 9999 FEW019 30/20 Q1014 NOSIG=  
23-May-2022 SAID33 WATB 230400 METAR WATB 230400Z 30005KT 9999 FEW018 30/19 Q1013 NOSIG=  
23-May-2022 SAID33 WATB 230500 METAR WATB 230500Z 10004KT 9999 SCT018 31/20 Q1012 NOSIG=  
23-May-2022 SAID33 WATB 230600 METAR WATB 230600Z 01007KT 9999 FEW018 31/21 Q1011 NOSIG=  
24-May-2022 SAID33 WATB 240000 METAR WATB 240000Z 00000KT 9999 FEW019 25/22 Q1015 NOSIG=  
24-May-2022 SAID33 WATB 240100 METAR WATB 240100Z 02004KT 9999 FEW019 28/22 Q1016 NOSIG=  
24-May-2022 SAID33 WATB 240200 METAR WATB 240200Z 08006KT 9999 SCT018 29/22 Q1016 NOSIG=  
24-May-2022 SAID33 WATB 240300 METAR WATB 240300Z 04007KT 9999 SCT018 29/22 Q1015 NOSIG=  
24-May-2022 SAID33 WATB 240400 METAR WATB 240400Z 01006KT 9999 BKN018 30/22 Q1015 NOSIG=  
24-May-2022 SAID33 WATB 240500 METAR WATB 240500Z 02010KT 9999 BKN018 29/22 Q1014 NOSIG=  
24-May-2022 SAID33 WATB 240600 METAR WATB 240600Z 36009KT 9999 BKN018 28/22 Q1014 NOSIG=  
25-May-2022 SAID33 WATB 250000 METAR WATB 250000Z 00000KT 9999 SCT019 25/23 Q1016 NOSIG=  
25-May-2022 SAID33 WATB 250100 METAR WATB 250100Z 00000KT 9999 SCT018 27/22 Q1016 NOSIG=  
25-May-2022 SAID33 WATB 250200 METAR WATB 250200Z 12002KT 9999 SCT018 29/22 Q1015 NOSIG=  
25-May-2022 SAID33 WATB 250300 METAR WATB 250300Z 03005KT 9999 SCT019 30/21 Q1015 NOSIG=  
25-May-2022 SAID33 WATB 250400 METAR WATB 250400Z 33003KT 9999 BKN019 30/21 Q1014 NOSIG=  
25-May-2022 SAID33 WATB 250500 METAR WATB 250500Z 15002KT 9999 BKN019 31/21 Q1013 NOSIG=  
25-May-2022 SAID33 WATB 250600 METAR WATB 250600Z 18002KT 9999 BKN018 32/22 Q1012 NOSIG=  
26-May-2022 SAID33 WATB 260000 METAR WATB 260000Z 00000KT 9999 SCT019 25/21 Q1013 NOSIG=  
26-May-2022 SAID33 WATB 260100 METAR WATB 260100Z 00000KT 9999 SCT019 26/21 Q1014 NOSIG=  
26-May-2022 SAID33 WATB 260200 METAR WATB 260200Z 04003KT 9999 SCT019 27/23 Q1014 NOSIG=  
26-May-2022 SAID33 WATB 260300 METAR WATB 260300Z 05004KT 9999 SCT018 28/23 Q1014 NOSIG=  
26-May-2022 SAID33 WATB 260500 METAR WATB 260500Z 18003KT 9999 BKN018 28/22 Q1013 NOSIG=  
26-May-2022 SAID33 WATB 260600 METAR WATB 260600Z 11006KT 9999 BKN018 30/23 Q1011 NOSIG=  
27-May-2022 SAID33 WATB 270000 METAR WATB 270000Z 21002KT 9999 BKN018 22/22 Q1015 NOSIG=  
27-May-2022 SAID33 WATB 270100 METAR WATB 270100Z 18002KT 9999 BKN018 24/22 Q1015 NOSIG=  
27-May-2022 SAID33 WATB 270200 METAR WATB 270200Z 00000KT 9999 BKN019 25/22 Q1015 NOSIG=  
27-May-2022 SAID33 WATB 270300 METAR WATB 270300Z 13002KT 9999 BKN019 28/22 Q1015 NOSIG=  
27-May-2022 SAID33 WATB 270400 METAR WATB 270400Z 06003KT 9999 BKN018 29/23 Q1014 NOSIG=  
28-May-2022 SAID33 WATB 280000 METAR WATB 280000Z 00000KT 9999 FEW019 25/20 Q1015 NOSIG=  
28-May-2022 SAID33 WATB 280100 METAR WATB 280100Z 05002KT 9999 FEW019 26/20 Q1015 NOSIG=  
28-May-2022 SAID33 WATB 280200 METAR WATB 280200Z 01002KT 9999 FEW019 28/20 Q1015 NOSIG=  
28-May-2022 SAID33 WATB 280300 METAR WATB 280300Z 14005KT 9999 FEW019 28/20 Q1014 NOSIG=  
28-May-2022 SAID33 WATB 280400 METAR WATB 280400Z 09005KT 9999 SCT018 30/20 Q1013 NOSIG=  
28-May-2022 SAID33 WATB 280500 METAR WATB 280500Z 05009KT 9999 SCT018 30/20 Q1012 NOSIG=  
28-May-2022 SAID33 WATB 280600 METAR WATB 280600Z 06007KT 9999 SCT017 28/21 Q1011 NOSIG=  
29-May-2022 SAID33 WATB 290000 METAR WATB 290000Z 00000KT 9999 FEW020 25/21 Q1015 NOSIG=  
29-May-2022 SAID33 WATB 290100 METAR WATB 290100Z 05002KT 9999 FEW020 26/21 Q1015 NOSIG=  
29-May-2022 SAID33 WATB 290200 METAR WATB 290200Z 09004KT 9999 FEW020 28/20 Q1014 NOSIG=  
29-May-2022 SAID33 WATB 290300 METAR WATB 290300Z 08008KT 9999 FEW019 29/21 Q1013 NOSIG=  
29-May-2022 SAID33 WATB 290400 METAR WATB 290400Z 10008KT 9999 SCT018 30/21 Q1012 NOSIG=  
29-May-2022 SAID33 WATB 290500 METAR WATB 290500Z 08007KT 9999 SCT018 28/21 Q1012 NOSIG=  
29-May-2022 SAID33 WATB 290600 METAR WATB 290600Z 05006KT 9999 SCT018 29/21 Q1011 NOSIG=  
30-May-2022 SAID33 WATB 300000 METAR WATB 300000Z 00000KT 9999 FEW019 25/21 Q1014 NOSIG=  
30-May-2022 SAID33 WATB 300100 METAR WATB 300100Z 13002KT 9999 SCT019 26/21 Q1014 NOSIG=  
30-May-2022 SAID33 WATB 300400 METAR WATB 300400Z 09006KT 9999 SCT018 30/22 Q1012 NOSIG=  
30-May-2022 SAID33 WATB 300500 METAR WATB 300500Z 09010KT 9999 FEW017 29/23 Q1011 NOSIG=  
30-May-2022 SAID33 WATB 300600 METAR WATB 300600Z 05007KT 9999 BKN017 28/23 Q1010 NOSIG=  
31-May-2022 SAID33 WATB 310000 METAR WATB 310000Z 36003KT 8000 FEW019 25/22 Q1014 NOSIG=  
31-May-2022 SAID33 WATB 310100 METAR WATB 310100Z 04003KT 9999 FEW019 27/23 Q1015 NOSIG=  
31-May-2022 SAID33 WATB 310200 METAR WATB 310200Z 13003KT 9999 FEW018 28/22 Q1014 NOSIG=  
31-May-2022 SAID33 WATB 310300 METAR WATB 310300Z 18004KT 9999 FEW018 29/22 Q1014 NOSIG=  
31-May-2022 SAID33 WATB 310400 METAR WATB 310400Z 09004KT 9999 SCT018 31/23 Q1013 NOSIG=  
31-May-2022 SAID33 WATB 310500 METAR WATB 310500Z 08005KT 9999 SCT018 30/23 Q1011 NOSIG=  
31-May-2022 SAID33 WATB 310600 METAR WATB 310600Z 04010KT 9999 BKN018 29/23 Q1011 NOSIG=  
31-May-2022 SAID33 WATB 312100 METAR WATB 312100Z 28001KT 9999 SCT019 20/20 Q1013 NOSIG=  
31-May-2022 SAID33 WATB 312200 METAR WATB 312200Z 30003KT 9999 SCT019 20/20 Q1014 NOSIG=  
31-May-2022 SAID33 WATB 312300 METAR WATB 312300Z 17002KT 9999 FEW019 21/21 Q1014 NOSIG=  
01-Jun-2022 SAID33 WATB 010000 METAR WATB 010000Z 06002KT 9999 FEW019 24/22 Q1015 NOSIG=  
01-Jun-2022 SAID33 WATB 010100 METAR WATB 010100Z 11002KT 9999 FEW019 25/23 Q1015 NOSIG=  
01-Jun-2022 SAID33 WATB 010200 METAR WATB 010200Z 06003KT 9999 FEW018 28/22 Q1014 NOSIG=  
01-Jun-2022 SAID35 WATB 010300 METAR WATB 010300Z 05003KT 9999 SCT018 30/22 Q1014 NOSIG=  
01-Jun-2022 SAID33 WATB 010400 METAR WATB 010400Z 19004KT 9999 SCT017 29/23 Q1013 NOSIG=  
01-Jun-2022 SAID35 WATB 010500 METAR WATB 010500Z 11006KT 9999 SCT017 30/23 Q1012 NOSIG=  
01-Jun-2022 SAID33 WATB 010600 METAR WATB 010600Z 07007KT 9999 BKN017 30/23 Q1011 NOSIG=  
01-Jun-2022 SAID33 WATB 010700 METAR WATB 010700Z 29012KT 9999 TS FEW016CB BKN017 26/20 Q1012 TEMPO TL0730 TS=  
02-Jun-2022 SAID33 WATB 020000 METAR WATB 020000Z 11002KT 9999 FEW019 24/21 Q1014 NOSIG=  
02-Jun-2022 SAID33 WATB 020100 METAR WATB 020100Z 04003KT 9999 FEW019 27/21 Q1014 NOSIG=  
02-Jun-2022 SAID33 WATB 020200 METAR WATB 020200Z 08003KT 9999 FEW019 28/22 Q1014 NOSIG=  
02-Jun-2022 SAID33 WATB 020300 METAR WATB 020300Z 09004KT 9999 FEW019 30/21 Q1014 NOSIG=  
02-Jun-2022 SAID33 WATB 020400 METAR WATB 020400Z 27005KT 9999 FEW018 31/20 Q1013 NOSIG=  
02-Jun-2022 SAID33 WATB 020500 METAR WATB 020500Z 03005KT 9999 SCT018 30/20 Q1012 NOSIG=  
02-Jun-2022 SAID33 WATB 020600 METAR WATB 020600Z 06008KT 9999 SCT018 31/21 Q1011 NOSIG=  
03-Jun-2022 SAID33 WATB 030000 METAR WATB 030000Z 07002KT 8000 SCT020 25/21 Q1015 NOSIG=  
03-Jun-2022 SAID33 WATB 030100 METAR WATB 030100Z 08004KT 9999 FEW020 27/22 Q1015 NOSIG=  
03-Jun-2022 SAID33 WATB 030200 METAR WATB 030200Z 04006KT 9999 FEW019 28/22 Q1015 NOSIG=  
03-Jun-2022 SAID33 WATB 030300 METAR WATB 030300Z 04006KT 9999 FEW019 30/20 Q1014 NOSIG=  
03-Jun-2022 SAID33 WATB 030400 METAR WATB 030400Z 09006KT 9999 BKN018 30/21 Q1013 NOSIG=  
03-Jun-2022 SAID33 WATB 030500 METAR WATB 030500Z 07008KT 9999 BKN017 30/22 Q1012 NOSIG=  
03-Jun-2022 SAID33 WATB 030600 METAR WATB 030600Z 08006KT 9999 FEW015CB BKN017 31/22 Q1012 NOSIG RMK CB TO E=  
04-Jun-2022 SAID33 WATB 040000 METAR WATB 040000Z 34002KT 8000 FEW020 25/23 Q1016 NOSIG=  
04-Jun-2022 SAID33 WATB 040100 METAR WATB 040100Z 05003KT 9999 FEW020 27/24 Q1015 NOSIG=  
04-Jun-2022 SAID33 WATB 040200 METAR WATB 040200Z 24005KT 9999 FEW019 28/22 Q1015 NOSIG=  
04-Jun-2022 SAID33 WATB 040300 METAR WATB 040300Z 09007KT 9999 BKN018 29/22 Q1015 NOSIG=  
04-Jun-2022 SAID33 WATB 040400 METAR WATB 040400Z 05004KT 9999 BKN018 31/21 Q1014 NOSIG=  
04-Jun-2022 SAID33 WATB 040500 METAR WATB 040500Z 04010KT 9999 BKN018 30/21 Q1013 NOSIG=  
04-Jun-2022 SAID33 WATB 040600 METAR WATB 040600Z 04011KT 9999 BKN018 30/22 Q1012 NOSIG=  
05-Jun-2022 SAID33 WATB 050000 METAR WATB 050000Z 03002KT 9999 FEW020 24/21 Q1015 NOSIG=  
05-Jun-2022 SAID33 WATB 050100 METAR WATB 050100Z 01003KT 9999 FEW020 26/21 Q1015 NOSIG=  
05-Jun-2022 SAID33 WATB 050200 METAR WATB 050200Z 10005KT 9999 FEW019 28/22 Q1015 NOSIG=  
05-Jun-2022 SAID33 WATB 050300 METAR WATB 050300Z 05006KT 9999 FEW019 30/21 Q1014 NOSIG=  
05-Jun-2022 SAID33 WATB 050400 METAR WATB 050400Z 21005KT 9999 BKN018 30/20 Q1013 NOSIG=  
05-Jun-2022 SAID33 WATB 050500 METAR WATB 050500Z 14005KT 9999 BKN018 29/21 Q1013 NOSIG=  
05-Jun-2022 SAID33 WATB 050600 METAR WATB 050600Z 12005KT 9999 BKN018 29/23 Q1011 NOSIG=  
06-Jun-2022 SAID33 WATB 060000 METAR WATB 060000Z 03004KT 9999 FEW020 25/22 Q1013 NOSIG=  
06-Jun-2022 SAID33 WATB 060100 METAR WATB 060100Z 06004KT 9999 FEW020 27/23 Q1014 NOSIG=  
06-Jun-2022 SAID33 WATB 060200 METAR WATB 060200Z 05004KT 9999 FEW020 29/21 Q1014 NOSIG=  
06-Jun-2022 SAID33 WATB 060300 METAR WATB 060300Z 11004KT 9999 FEW019 30/21 Q1014 NOSIG=  
06-Jun-2022 SAID33 WATB 060400 METAR WATB 060400Z 06003KT 9999 BKN018 31/21 Q1013 NOSIG=  
06-Jun-2022 SAID33 WATB 060500 METAR WATB 060500Z 08007KT 9999 BKN018 30/22 Q1012 NOSIG=  
06-Jun-2022 SAID33 WATB 060600 METAR WATB 060600Z 12006KT 9999 BKN017 29/21 Q1011 NOSIG=  
06-Jun-2022 SAID33 WATB 060700 METAR WATB 060700Z 24002KT 9999 BKN017 23/23 Q1015 NOSIG=  
07-Jun-2022 SAID33 WATB 070000 METAR WATB 070000Z 24002KT 9999 BKN017 23/23 Q1015 NOSIG=  
07-Jun-2022 SAID33 WATB 070100 METAR WATB 070100Z 02003KT 9999 BKN018 26/24 Q1015 NOSIG=  
07-Jun-2022 SAID33 WATB 070200 METAR WATB 070200Z 06004KT 9999 BKN018 29/23 Q1015 NOSIG=  
07-Jun-2022 SAID33 WATB 070300 METAR WATB 070300Z 09005KT 9999 BKN018 28/22 Q1014 NOSIG=  
07-Jun-2022 SAID33 WATB 070400 METAR WATB 070400Z 24006KT 9999 BKN017 27/23 Q1013 RERA NOSIG=  
07-Jun-2022 SAID33 WATB 070500 METAR WATB 070500Z 16003KT 9999 BKN017 29/23 Q1012 NOSIG=  
07-Jun-2022 SAID33 WATB 070600 METAR WATB 070600Z 31003KT 8000 TS FEW016CB BKN017 25/23 Q1012 RERA NOSIG RMK CB TO N=  
08-Jun-2022 SAID33 WATB 080000 METAR WATB 080000Z 09002KT 9999 FEW020 25/22 Q1015 NOSIG=  
08-Jun-2022 SAID33 WATB 080100 METAR WATB 080100Z 04003KT 9999 FEW020 27/22 Q1015 NOSIG=  
08-Jun-2022 SAID33 WATB 080200 METAR WATB 080200Z 36003KT 9999 FEW019 28/20 Q1015 NOSIG=  
08-Jun-2022 SAID33 WATB 080300 METAR WATB 080300Z 01005KT 9999 FEW019 30/21 Q1014 NOSIG=  
08-Jun-2022 SAID33 WATB 080400 METAR WATB 080400Z 09007KT 9999 FEW019 30/20 Q1013 NOSIG=  
08-Jun-2022 SAID33 WATB 080500 METAR WATB 080500Z 09008KT 9999 SCT018 31/22 Q1012 NOSIG=  
08-Jun-2022 SAID33 WATB 080600 METAR WATB 080600Z 01009KT 9999 SCT017 30/21 Q1011 NOSIG=  
09-Jun-2022 SAID33 WATB 090000 METAR WATB 090000Z 16003KT 4000 BKN016 23/22 Q1016 NOSIG=  
09-Jun-2022 SAID33 WATB 090100 METAR WATB 090100Z 27007KT 8000 BKN016 26/22 Q1015 NOSIG=  
09-Jun-2022 SAID33 WATB 090200 METAR WATB 090200Z 19005KT 8000 BKN018 26/21 Q1015 NOSIG=  
09-Jun-2022 SAID33 WATB 090300 METAR WATB 090300Z 32004KT 8000 BKN017 25/22 Q1015 NOSIG=  
09-Jun-2022 SAID33 WATB 090400 METAR WATB 090400Z 32004KT 8000 TS FEW015CB BKN017 25/22 Q1014 NOSIG RMK CB TO NE=  
09-Jun-2022 SAID33 WATB 090500 METAR WATB 090500Z 32003KT 8000 -RA BKN016 24/22 Q1013 NOSIG=  
09-Jun-2022 SAID33 WATB 090600 METAR WATB 090600Z 03002KT 9999 BKN017 24/23 Q1013 NOSIG=  
10-Jun-2022 SAID33 WATB 100000 METAR WATB 100000Z 04003KT 9999 FEW019 25/22 Q1015 NOSIG=  
10-Jun-2022 SAID33 WATB 100100 METAR WATB 100100Z 04005KT 9999 FEW019 27/22 Q1015 NOSIG=  
10-Jun-2022 SAID33 WATB 100200 METAR WATB 100200Z 09004KT 9999 FEW019 28/22 Q1014 NOSIG=  
10-Jun-2022 SAID33 WATB 100300 METAR WATB 100300Z 04006KT 9999 FEW019 29/21 Q1014 NOSIG=  
10-Jun-2022 SAID33 WATB 100400 METAR WATB 100400Z 18003KT 9999 SCT019 30/20 Q1013 NOSIG=  
10-Jun-2022 SAID33 WATB 100500 METAR WATB 100500Z 03010KT 9999 SCT018 31/21 Q1012 NOSIG=  
10-Jun-2022 SAID33 WATB 100600 METAR WATB 100600Z 05006KT 9999 SCT018 29/20 Q1011 NOSIG=  
11-Jun-2022 SAID33 WATB 110000 METAR WATB 110000Z 34003KT 8000 FEW018 26/21 Q1015 NOSIG=  
11-Jun-2022 SAID33 WATB 110100 METAR WATB 110100Z 10003KT 9999 FEW019 28/22 Q1014 NOSIG=  
11-Jun-2022 SAID33 WATB 110200 METAR WATB 110200Z 19004KT 9999 SCT018 29/22 Q1014 NOSIG=  
11-Jun-2022 SAID33 WATB 110300 METAR WATB 110300Z 16007KT 9999 BKN018 29/22 Q1014 NOSIG=  
11-Jun-2022 SAID33 WATB 110400 METAR WATB 110400Z 13007KT 9999 BKN017 28/23 Q1013 NOSIG=  
11-Jun-2022 SAID33 WATB 110500 METAR WATB 110500Z 15008KT 9999 BKN018 28/23 Q1012 NOSIG=  
11-Jun-2022 SAID33 WATB 110600 METAR WATB 110600Z 14010KT 9999 BKN017 27/23 Q1012 NOSIG=  
12-Jun-2022 SAID33 WATB 120000 METAR WATB 120000Z 03002KT 9999 FEW020 26/21 Q1015 NOSIG=  
12-Jun-2022 SAID33 WATB 120100 METAR WATB 120100Z 08004KT 9999 FEW019 27/22 Q1015 NOSIG=  
12-Jun-2022 SAID33 WATB 120200 METAR WATB 120200Z 20005KT 9999 FEW019 28/21 Q1015 NOSIG=  
12-Jun-2022 SAID33 WATB 120300 METAR WATB 120300Z 16005KT 9999 BKN019 28/21 Q1015 NOSIG=  
12-Jun-2022 SAID33 WATB 120400 METAR WATB 120400Z 10006KT 9999 BKN018 30/21 Q1014 NOSIG=  
12-Jun-2022 SAID33 WATB 120500 METAR WATB 120500Z 15009KT 9999 BKN018 30/21 Q1013 NOSIG=  
12-Jun-2022 SAID33 WATB 120600 METAR WATB 120600Z 15010KT 9999 BKN018 28/22 Q1012 NOSIG=  
13-Jun-2022 SAID33 WATB 130000 METAR WATB 130000Z 04003KT 8000 FEW018 25/21 Q1016 NOSIG=  
13-Jun-2022 SAID33 WATB 130100 METAR WATB 130100Z 06004KT 9999 FEW019 27/21 Q1016 NOSIG=  
13-Jun-2022 SAID33 WATB 130200 METAR WATB 130200Z 07005KT 9999 FEW019 28/21 Q1015 NOSIG=  
13-Jun-2022 SAID33 WATB 130300 METAR WATB 130300Z 18003KT 9999 SCT019 28/21 Q1015 NOSIG=  
13-Jun-2022 SAID33 WATB 130400 METAR WATB 130400Z 10005KT 9999 BKN018 30/21 Q1014 NOSIG=  
13-Jun-2022 SAID33 WATB 130500 METAR WATB 130500Z 13007KT 9999 BKN018 29/21 Q1013 NOSIG=  
13-Jun-2022 SAID33 WATB 130600 METAR WATB 130600Z 12007KT 9999 BKN018 29/22 Q1013 NOSIG=  
14-Jun-2022 SAID33 WATB 140000 METAR WATB 140000Z 01002KT 8000 FEW019 24/20 Q1016 NOSIG=  
14-Jun-2022 SAID33 WATB 140100 METAR WATB 140100Z 36004KT 8000 FEW020 27/22 Q1016 NOSIG=  
14-Jun-2022 SAID33 WATB 140200 METAR WATB 140200Z 10005KT 9999 FEW019 28/22 Q1016 NOSIG=  
14-Jun-2022 SAID33 WATB 140300 METAR WATB 140300Z 03005KT 9999 BKN019 29/22 Q1015 NOSIG=  
14-Jun-2022 SAID33 WATB 140400 METAR WATB 140400Z 15007KT 9999 BKN019 29/21 Q1014 NOSIG=  
14-Jun-2022 SAID33 WATB 140500 METAR WATB 140500Z 09005KT 9999 BKN018 28/21 Q1014 NOSIG=  
14-Jun-2022 SAID33 WATB 140600 METAR WATB 140600Z 13004KT 9999 BKN018 28/22 Q1013 NOSIG=  
15-Jun-2022 SAID33 WATB 150000 METAR WATB 150000Z 36005KT 9999 SCT020 24/22 Q1015 NOSIG=  
15-Jun-2022 SAID33 WATB 150100 METAR WATB 150100Z 23005KT 9999 FEW020 28/22 Q1015 NOSIG=  
15-Jun-2022 SAID33 WATB 150200 METAR WATB 150200Z 07003KT 9999 FEW020 29/21 Q1015 NOSIG=  
15-Jun-2022 SAID33 WATB 150300 METAR WATB 150300Z 07008KT 9999 SCT019 30/20 Q1015 NOSIG=  
15-Jun-2022 SAID33 WATB 150400 METAR WATB 150400Z 07010KT 9999 BKN019 31/20 Q1014 NOSIG=  
15-Jun-2022 SAID33 WATB 150500 METAR WATB 150500Z 04011KT 9999 BKN018 29/21 Q1014 NOSIG=  
15-Jun-2022 SAID33 WATB 150600 METAR WATB 150600Z 05007KT 9999 BKN018 30/21 Q1013 NOSIG=  
16-Jun-2022 SAID33 WATB 160000 METAR WATB 160000Z 30002KT 9999 SCT019 22/21 Q1016 NOSIG=  
16-Jun-2022 SAID33 WATB 160100 METAR WATB 160100Z 03004KT 9999 FEW019 26/21 Q1016 NOSIG=  
16-Jun-2022 SAID33 WATB 160200 METAR WATB 160200Z 07004KT 9999 FEW019 28/22 Q1016 NOSIG=  
16-Jun-2022 SAID33 WATB 160300 METAR WATB 160300Z 03008KT 9999 BKN019 29/21 Q1015 NOSIG=  
16-Jun-2022 SAID33 WATB 160400 METAR WATB 160400Z 06005KT 8000 BKN018 29/21 Q1015 NOSIG=  
16-Jun-2022 SAID33 WATB 160500 METAR WATB 160500Z 10005KT 8000 BKN017 29/22 Q1013 NOSIG=  
16-Jun-2022 SAID33 WATB 160600 METAR WATB 160600Z 14005KT 8000 BKN017 28/22 Q1013 NOSIG=  
17-Jun-2022 SAID33 WATB 170000 METAR WATB 170000Z 07002KT 6000 FEW017 26/22 Q1015 NOSIG=  
17-Jun-2022 SAID33 WATB 170100 METAR WATB 170100Z 17011KT 8000 FEW018 28/23 Q1015 NOSIG=  
17-Jun-2022 SAID33 WATB 170200 METAR WATB 170200Z 12010KT 8000 BKN018 29/21 Q1015 NOSIG=  
17-Jun-2022 SAID33 WATB 170300 METAR WATB 170300Z 12007KT 9999 BKN018 28/21 Q1015 NOSIG=  
17-Jun-2022 SAID33 WATB 170400 METAR WATB 170400Z 13007KT 9999 BKN018 30/22 Q1014 NOSIG=  
17-Jun-2022 SAID33 WATB 170500 METAR WATB 170500Z 09008KT 9999 BKN017 30/20 Q1013 NOSIG=  
17-Jun-2022 SAID33 WATB 170600 METAR WATB 170600Z 11008KT 9999 BKN017 29/21 Q1013 NOSIG=  
18-Jun-2022 SAID33 WATB 180000 METAR WATB 180000Z 11002KT 8000 FEW016 27/22 Q1014 NOSIG=  
18-Jun-2022 SAID33 WATB 180100 METAR WATB 180100Z 08002KT 8000 FEW017 28/22 Q1015 NOSIG=  
18-Jun-2022 SAID33 WATB 180200 METAR WATB 180200Z 08004KT 9999 FEW018 29/22 Q1015 NOSIG=  
18-Jun-2022 SAID33 WATB 180300 METAR WATB 180300Z 22004KT 9999 FEW018 28/21 Q1014 NOSIG=  
18-Jun-2022 SAID33 WATB 180400 METAR WATB 180400Z 12007KT 9999 BKN018 31/21 Q1013 NOSIG=  
18-Jun-2022 SAID33 WATB 180500 METAR WATB 180500Z 13004KT 9999 BKN018 30/21 Q1013 NOSIG=  
18-Jun-2022 SAID33 WATB 180600 METAR WATB 180600Z 05006KT 9999 BKN018 31/21 Q1012 NOSIG=  
19-Jun-2022 SAID33 WATB 190000 METAR WATB 190000Z 03003KT 8000 FEW016 27/22 Q1015 NOSIG=  
19-Jun-2022 SAID33 WATB 190100 METAR WATB 190100Z 19007KT 9999 SCT017 27/22 Q1015 NOSIG=  
19-Jun-2022 SAID33 WATB 190200 METAR WATB 190200Z 14008KT 9999 SCT018 29/22 Q1015 NOSIG=  
19-Jun-2022 SAID33 WATB 190300 METAR WATB 190300Z 17011KT 9999 SCT018 29/21 Q1014 NOSIG=  
19-Jun-2022 SAID33 WATB 190400 METAR WATB 190400Z 15010KT 9999 SCT018 30/20 Q1014 NOSIG=  
19-Jun-2022 SAID33 WATB 190500 METAR WATB 190500Z 16009KT 9999 SCT018 30/20 Q1013 NOSIG=  
19-Jun-2022 SAID33 WATB 190600 METAR WATB 190600Z 08003KT 9999 SCT018 30/20 Q1012 NOSIG=  
20-Jun-2022 SAID33 WATB 200000 METAR WATB 200000Z 16006KT 8000 FEW017 26/21 Q1014 NOSIG=  
20-Jun-2022 SAID33 WATB 200100 METAR WATB 200100Z 16006KT 8000 FEW017 26/20 Q1014 NOSIG=  
20-Jun-2022 SAID33 WATB 200200 METAR WATB 200200Z 15010KT 9999 FEW018 28/20 Q1014 NOSIG=  
20-Jun-2022 SAID33 WATB 200300 METAR WATB 200300Z 13009KT 9999 FEW018 29/19 Q1013 NOSIG=  
20-Jun-2022 SAID33 WATB 200400 METAR WATB 200400Z 16012KT 9999 SCT018 27/19 Q1013 NOSIG=  
20-Jun-2022 SAID33 WATB 200500 METAR WATB 200500Z 18011KT 9999 SCT018 28/19 Q1012 NOSIG=  
20-Jun-2022 SAID33 WATB 200600 METAR WATB 200600Z 15008KT 9999 SCT018 28/18 Q1012 NOSIG=  
21-Jun-2022 SAID33 WATB 210000 METAR WATB 210000Z 02002KT 9999 FEW018 24/19 Q1014 NOSIG=  
21-Jun-2022 SAID33 WATB 210100 METAR WATB 210100Z 01004KT 9999 FEW019 26/19 Q1014 NOSIG=  
21-Jun-2022 SAID33 WATB 210200 METAR WATB 210200Z 35002KT 9999 FEW019 29/18 Q1014 NOSIG=  
21-Jun-2022 SAID33 WATB 210300 METAR WATB 210300Z 17004KT 9999 FEW019 29/16 Q1013 NOSIG=  
21-Jun-2022 SAID33 WATB 210400 METAR WATB 210400Z 10006KT 9999 FEW018 30/17 Q1013 NOSIG=  
21-Jun-2022 SAID33 WATB 210500 METAR WATB 210500Z 04007KT 9999 SCT018 31/18 Q1012 NOSIG=  
21-Jun-2022 SAID33 WATB 210600 METAR WATB 210600Z 10005KT 9999 BKN018 31/19 Q1011 NOSIG=  
22-Jun-2022 SAID33 WATB 220000 METAR WATB 220000Z 16005KT 8000 FEW017 26/22 Q1016 NOSIG=  
22-Jun-2022 SAID33 WATB 220100 METAR WATB 220100Z 17010KT 8000 FEW017 27/21 Q1015 NOSIG=  
22-Jun-2022 SAID33 WATB 220200 METAR WATB 220200Z 13010KT 9999 BKN018 28/21 Q1015 NOSIG=  
22-Jun-2022 SAID33 WATB 220300 METAR WATB 220300Z 17013KT 9999 BKN018 27/21 Q1015 NOSIG=  
22-Jun-2022 SAID33 WATB 220400 METAR WATB 220400Z 17011KT 9999 BKN018 27/21 Q1015 NOSIG=  
22-Jun-2022 SAID33 WATB 220500 METAR WATB 220500Z 16009KT 9999 BKN018 29/21 Q1014 NOSIG=  
22-Jun-2022 SAID33 WATB 220600 METAR WATB 220600Z 16010KT 9999 SCT018 27/19 Q1013 NOSIG=  
23-Jun-2022 SAID33 WATB 230000 METAR WATB 230000Z 14002KT 8000 FEW017 26/21 Q1017 NOSIG=  
23-Jun-2022 SAID33 WATB 230100 METAR WATB 230100Z 11008KT 8000 SCT017 27/21 Q1017 NOSIG=  
23-Jun-2022 SAID33 WATB 230200 METAR WATB 230200Z 13008KT 9999 BKN017 28/21 Q1017 NOSIG=  
23-Jun-2022 SAID33 WATB 230300 METAR WATB 230300Z 12006KT 9999 BKN018 28/21 Q1016 NOSIG=  
23-Jun-2022 SAID33 WATB 230400 METAR WATB 230400Z 14007KT 9999 SCT018 29/20 Q1015 NOSIG=  
23-Jun-2022 SAID33 WATB 230500 METAR WATB 230500Z 15010KT 9999 SCT018 28/20 Q1014 NOSIG=  
23-Jun-2022 SAID33 WATB 230600 METAR WATB 230600Z 14009KT 9999 SCT018 28/21 Q1013 NOSIG=  
24-Jun-2022 SAID33 WATB 240000 METAR WATB 240000Z 14003KT 8000 SCT017 27/21 Q1015 NOSIG=  
24-Jun-2022 SAID33 WATB 240100 METAR WATB 240100Z 15010KT 8000 SCT017 26/21 Q1015 NOSIG=  
24-Jun-2022 SAID33 WATB 240200 METAR WATB 240200Z 16012KT 9999 BKN018 27/21 Q1015 NOSIG=  
24-Jun-2022 SAID33 WATB 240300 METAR WATB 240300Z 16008KT 9999 BKN018 26/21 Q1015 NOSIG=  
24-Jun-2022 SAID33 WATB 240400 METAR WATB 240400Z 16006KT 9999 BKN017 25/20 Q1014 NOSIG=  
24-Jun-2022 SAID33 WATB 240500 METAR WATB 240500Z 17009KT 9999 BKN018 27/20 Q1013 NOSIG=  
25-Jun-2022 SAID33 WATB 250000 METAR WATB 250000Z 36002KT 9999 SCT017 27/22 Q1014 NOSIG=  
25-Jun-2022 SAID33 WATB 250100 METAR WATB 250100Z 11006KT 9999 BKN017 27/22 Q1014 NOSIG=  
25-Jun-2022 SAID33 WATB 250200 METAR WATB 250200Z 12005KT 9999 BKN017 27/22 Q1014 NOSIG=  
25-Jun-2022 SAID33 WATB 250300 METAR WATB 250300Z 17010KT 9999 BKN018 27/22 Q1013 NOSIG=  
25-Jun-2022 SAID33 WATB 250400 METAR WATB 250400Z 17012KT 9999 BKN017 28/21 Q1012 NOSIG=  
25-Jun-2022 SAID33 WATB 250500 METAR WATB 250500Z 17009KT 9999 BKN017 27/21 Q1011 NOSIG=  
25-Jun-2022 SAID33 WATB 250600 METAR WATB 250600Z 14007KT 9999 BKN017 28/21 Q1011 NOSIG=  
26-Jun-2022 SAID33 WATB 260000 METAR WATB 260000Z 30003KT 8000 BKN018 24/22 Q1014 NOSIG=  
26-Jun-2022 SAID33 WATB 260100 METAR WATB 260100Z 13004KT 9999 BKN017 26/22 Q1015 NOSIG=  
26-Jun-2022 SAID33 WATB 260200 METAR WATB 260200Z 13006KT 9999 BKN018 27/21 Q1014 NOSIG=  
26-Jun-2022 SAID33 WATB 260300 METAR WATB 260300Z 15010KT 9999 BKN017 27/22 Q1014 NOSIG=  
26-Jun-2022 SAID33 WATB 260400 METAR WATB 260400Z 15013KT 8000 BKN016 27/21 Q1014 NOSIG=  
26-Jun-2022 SAID33 WATB 260500 METAR WATB 260500Z 14007KT 9999 BKN017 26/21 Q1013 NOSIG=  
26-Jun-2022 SAID33 WATB 260600 METAR WATB 260600Z 36005KT 8000 BKN017 24/23 Q1013 NOSIG=  
27-Jun-2022 SAID33 WATB 270000 METAR WATB 270000Z 20005KT 8000 BKN016 23/22 Q1016 NOSIG=  
27-Jun-2022 SAID33 WATB 270100 METAR WATB 270100Z 22003KT 4000 BKN016 22/21 Q1016 NOSIG=  
27-Jun-2022 SAID33 WATB 270200 METAR WATB 270200Z 29003KT 7000 BKN017 24/21 Q1015 NOSIG=  
27-Jun-2022 SAID33 WATB 270300 METAR WATB 270300Z 29003KT 7000 -RA BKN016 24/22 Q1015 NOSIG=  
27-Jun-2022 SAID33 WATB 270400 METAR WATB 270400Z 15007KT 8000 -RA BKN016 25/22 Q1014 NOSIG=  
27-Jun-2022 SAID33 WATB 270500 METAR WATB 270500Z 17005KT 8000 -RA BKN016 24/22 Q1014 NOSIG=  
28-Jun-2022 SAID33 WATB 280000 METAR WATB 280000Z 12002KT 9999 FEW018 26/22 Q1014 NOSIG=  
28-Jun-2022 SAID33 WATB 280100 METAR WATB 280100Z 17003KT 9999 FEW018 27/22 Q1014 NOSIG=  
28-Jun-2022 SAID33 WATB 280200 METAR WATB 280200Z 17004KT 9999 BKN018 25/22 Q1014 NOSIG=  
28-Jun-2022 SAID33 WATB 280300 METAR WATB 280300Z 14005KT 9999 BKN017 27/21 Q1014 NOSIG=  
28-Jun-2022 SAID33 WATB 280400 METAR WATB 280400Z 17004KT 9999 BKN017 27/21 Q1013 NOSIG=  
28-Jun-2022 SAID33 WATB 280500 METAR WATB 280500Z 14004KT 9999 BKN017 27/21 Q1012 NOSIG=  
28-Jun-2022 SAID33 WATB 280600 METAR WATB 280600Z 16004KT 9999 BKN017 27/21 Q1011 NOSIG=  
29-Jun-2022 SAID33 WATB 290000 METAR WATB 290000Z 02003KT 8000 FEW019 25/21 Q1013 NOSIG=  
29-Jun-2022 SAID33 WATB 290100 METAR WATB 290100Z 16008KT 9999 FEW018 26/22 Q1013 NOSIG=  
29-Jun-2022 SAID33 WATB 290200 METAR WATB 290200Z 08007KT 9999 FEW018 28/22 Q1012 NOSIG=  
29-Jun-2022 SAID33 WATB 290300 METAR WATB 290300Z 09009KT 9999 BKN018 29/22 Q1012 NOSIG=  
29-Jun-2022 SAID33 WATB 290400 METAR WATB 290400Z 12009KT 9999 BKN017 29/22 Q1012 NOSIG=  
29-Jun-2022 SAID33 WATB 290500 METAR WATB 290500Z 11004KT 9999 BKN017 27/22 Q1011 NOSIG=  
29-Jun-2022 SAID33 WATB 290600 METAR WATB 290600Z 15007KT 9999 BKN018 27/21 Q1010 NOSIG=  
30-Jun-2022 SAID33 WATB 300000 METAR WATB 300000Z 15004KT 9999 BKN018 24/22 Q1013 NOSIG=  
30-Jun-2022 SAID33 WATB 300100 METAR WATB 300100Z 11003KT 9999 BKN017 25/23 Q1014 NOSIG=  
30-Jun-2022 SAID33 WATB 300200 METAR WATB 300200Z 23002KT 9999 BKN018 26/23 Q1013 NOSIG=  
30-Jun-2022 SAID33 WATB 300300 METAR WATB 300300Z 06005KT 9999 BKN018 28/22 Q1013 NOSIG=  
30-Jun-2022 SAID33 WATB 300400 METAR WATB 300400Z 09006KT 9999 BKN018 28/23 Q1012 NOSIG=  
30-Jun-2022 SAID33 WATB 300500 METAR WATB 300500Z 20011KT 9999 BKN018 26/22 Q1012 NOSIG=  
30-Jun-2022 SAID33 WATB 300600 METAR WATB 300600Z 05004KT 2000 -RA BKN014 23/22 Q1011 NOSIG=  
01-Jul-2022 SAID33 WATB 010000 METAR WATB 010000Z 15002KT 9999 SCT017 25/22 Q1014 NOSIG=  
01-Jul-2022 SAID33 WATB 010100 METAR WATB 010100Z 08003KT 9999 SCT017 27/23 Q1015 NOSIG=  
01-Jul-2022 SAID33 WATB 010200 METAR WATB 010200Z /////KT 9999 BKN018 ///// Q//// NOSIG=  
01-Jul-2022 SAID33 WATB 010300 METAR WATB 010300Z 18004KT 9999 BKN018 27/22 Q1014 NOSIG=  
01-Jul-2022 SAID33 WATB 010400 METAR WATB 010400Z 16006KT 9999 BKN017 27/23 Q1014 NOSIG=  
01-Jul-2022 SAID33 WATB 010500 METAR WATB 010500Z 14005KT 9999 BKN017 28/22 Q1013 NOSIG=  
01-Jul-2022 SAID33 WATB 010600 METAR WATB 010600Z 23004KT 9999 BKN017 26/23 Q1012 NOSIG=  
02-Jul-2022 SAID33 WATB 020000 METAR WATB 020000Z 06002KT 8000 FEW019 26/22 Q1014 NOSIG=  
02-Jul-2022 SAID33 WATB 020100 METAR WATB 020100Z 03003KT 9999 FEW018 26/22 Q1014 NOSIG=  
02-Jul-2022 SAID33 WATB 020200 METAR WATB 020200Z 05004KT 9999 FEW018 28/22 Q1014 NOSIG=  
02-Jul-2022 SAID33 WATB 020300 METAR WATB 020300Z 26004KT 9999 SCT018 29/21 Q1014 NOSIG=  
02-Jul-2022 SAID33 WATB 020400 METAR WATB 020400Z 35003KT 9999 SCT018 29/20 Q1013 NOSIG=  
02-Jul-2022 SAID33 WATB 020500 METAR WATB 020500Z 36006KT 9999 SCT018 31/22 Q1012 NOSIG=  
02-Jul-2022 SAID33 WATB 020600 METAR WATB 020600Z 02007KT 9999 SCT018 30/20 Q1011 NOSIG=  
03-Jul-2022 SAID33 WATB 030000 METAR WATB 030000Z 34004KT 6000 BKN018 24/22 Q1013 NOSIG=  
03-Jul-2022 SAID33 WATB 030100 METAR WATB 030100Z 04003KT 8000 BKN017 25/22 Q1014 NOSIG=  
03-Jul-2022 SAID33 WATB 030200 METAR WATB 030200Z 22005KT 7000 BKN017 24/23 Q1014 RERA NOSIG=  
03-Jul-2022 SAID33 WATB 030300 METAR WATB 030300Z 05005KT 8000 BKN017 26/22 Q1013 RERA NOSIG=  
03-Jul-2022 SAID33 WATB 030400 METAR WATB 030400Z 18003KT 5000 -RA BKN017 24/24 Q1013 NOSIG=  
03-Jul-2022 SAID33 WATB 030500 METAR WATB 030500Z 19006KT 8000 BKN017 25/23 Q1012 NOSIG=  
03-Jul-2022 SAID33 WATB 030600 METAR WATB 030600Z 15007KT 8000 BKN018 26/23 Q1011 NOSIG=  
04-Jul-2022 SAID33 WATB 040000 METAR WATB 040000Z 01002KT 9999 FEW018 23/21 Q1014 NOSIG=  
04-Jul-2022 SAID33 WATB 040100 METAR WATB 040100Z 26002KT 9999 SCT018 27/21 Q1014 NOSIG=  
04-Jul-2022 SAID33 WATB 040200 METAR WATB 040200Z 05004KT 9999 SCT018 28/22 Q1014 NOSIG=  
04-Jul-2022 SAID33 WATB 040300 METAR WATB 040300Z 12003KT 9999 BKN018 27/22 Q1014 NOSIG=  
04-Jul-2022 SAID33 WATB 040400 METAR WATB 040400Z 04006KT 9999 BKN017 28/22 Q1013 NOSIG=  
04-Jul-2022 SAID33 WATB 040500 METAR WATB 040500Z 09006KT 9999 BKN016 28/22 Q1012 NOSIG=  
04-Jul-2022 SAID33 WATB 040600 METAR WATB 040600Z 16012KT 9999 BKN017 28/22 Q1012 NOSIG=  
05-Jul-2022 SAID33 WATB 050000 METAR WATB 050000Z 15006KT 7000 BKN017 23/21 Q1014 NOSIG=  
05-Jul-2022 SAID33 WATB 050100 METAR WATB 050100Z 15011KT 9000 SCT018 26/19 Q1014 NOSIG=  
05-Jul-2022 SAID33 WATB 050200 METAR WATB 050200Z 18011KT 9999 SCT018 26/18 Q1014 NOSIG=  
05-Jul-2022 SAID33 WATB 050300 METAR WATB 050300Z 20013KT 9999 SCT018 27/20 Q1014 NOSIG=  
05-Jul-2022 SAID33 WATB 050400 METAR WATB 050400Z 16013KT 9999 FEW018 27/19 Q1013 NOSIG=  
06-Jul-2022 SAID33 WATB 060000 METAR WATB 060000Z 15008KT 9999 FEW018 24/18 Q1016 NOSIG=  
06-Jul-2022 SAID33 WATB 060100 METAR WATB 060100Z 15010KT 9999 BKN018 23/19 Q1016 NOSIG=  
06-Jul-2022 SAID33 WATB 060200 METAR WATB 060200Z 18007KT 9999 SCT018 25/19 Q1016 NOSIG=  
06-Jul-2022 SAID33 WATB 060300 METAR WATB 060300Z 16014KT 9999 SCT018 25/18 Q1015 NOSIG=  
06-Jul-2022 SAID33 WATB 060400 METAR WATB 060400Z 16013KT 9999 BKN018 25/18 Q1014 NOSIG=  
06-Jul-2022 SAID33 WATB 060500 METAR WATB 060500Z 15011KT 9999 BKN017 24/18 Q1014 NOSIG=  
07-Jul-2022 SAID33 WATB 070000 METAR WATB 070000Z 15006KT 9999 FEW017 22/17 Q1016 NOSIG=  
07-Jul-2022 SAID33 WATB 070100 METAR WATB 070100Z 14005KT 9999 FEW018 24/17 Q1016 NOSIG=  
07-Jul-2022 SAID33 WATB 070200 METAR WATB 070200Z 17008KT 9999 SCT018 25/16 Q1016 NOSIG=  
07-Jul-2022 SAID33 WATB 070300 METAR WATB 070300Z 19005KT 9999 BKN018 26/17 Q1015 NOSIG=  
07-Jul-2022 SAID33 WATB 070400 METAR WATB 070400Z 17010KT 9999 BKN018 24/16 Q1014 NOSIG=  
07-Jul-2022 SAID33 WATB 070500 METAR WATB 070500Z 17006KT 9999 BKN018 24/15 Q1014 NOSIG=  
07-Jul-2022 SAID33 WATB 070600 METAR WATB 070600Z 17007KT 9999 BKN018 24/15 Q1013 NOSIG=  
08-Jul-2022 SAID33 WATB 080000 METAR WATB 080000Z 09004KT 8000 FEW018 22/20 Q1016 NOSIG=  
08-Jul-2022 SAID33 WATB 080100 METAR WATB 080100Z 01003KT 8000 FEW018 24/20 Q1016 NOSIG=  
08-Jul-2022 SAID33 WATB 080200 METAR WATB 080200Z 13004KT 9999 FEW018 25/20 Q1015 NOSIG=  
08-Jul-2022 SAID33 WATB 080300 METAR WATB 080300Z 12010KT 9999 BKN017 27/20 Q1015 NOSIG=  
08-Jul-2022 SAID33 WATB 080400 METAR WATB 080400Z 18007KT 9999 FEW018 26/20 Q1014 NOSIG=  
08-Jul-2022 SAID33 WATB 080500 METAR WATB 080500Z 16008KT 9999 BKN018 27/20 Q1013 NOSIG=  
08-Jul-2022 SAID33 WATB 080600 METAR WATB 080600Z 13007KT 9999 BKN018 25/19 Q1012 NOSIG=  
09-Jul-2022 SAID33 WATB 090000 METAR WATB 090000Z 17004KT 8000 BKN016 23/20 Q1015 NOSIG=  
09-Jul-2022 SAID33 WATB 090100 METAR WATB 090100Z 18007KT 9999 BKN016 24/21 Q1015 NOSIG=  
09-Jul-2022 SAID33 WATB 090200 METAR WATB 090200Z 17004KT 9999 BKN017 25/21 Q1015 NOSIG=  
09-Jul-2022 SAID33 WATB 090300 METAR WATB 090300Z 18006KT 9999 BKN018 26/21 Q1014 NOSIG=  
09-Jul-2022 SAID33 WATB 090400 METAR WATB 090400Z 10006KT 9999 BKN018 26/21 Q1013 NOSIG=  
09-Jul-2022 SAID33 WATB 090500 METAR WATB 090500Z 17007KT 9999 BKN018 27/21 Q1012 NOSIG=  
09-Jul-2022 SAID33 WATB 090600 METAR WATB 090600Z 15007KT 9999 SCT018 27/21 Q1011 NOSIG=  
10-Jul-2022 SAID33 WATB 100000 METAR WATB 100000Z 05003KT 8000 BKN018 23/22 Q1015 NOSIG=  
10-Jul-2022 SAID33 WATB 100100 METAR WATB 100100Z 18002KT 8000 BKN018 24/21 Q1016 NOSIG=  
10-Jul-2022 SAID33 WATB 100200 METAR WATB 100200Z 16006KT 8000 BKN018 25/21 Q1016 NOSIG=  
10-Jul-2022 SAID33 WATB 100300 METAR COR WATB 100300Z 13008KT 9999 BKN018 26/21 Q1015 NOSIG=  
10-Jul-2022 SAID33 WATB 100400 METAR WATB 100400Z 14003KT 9999 BKN018 26/21 Q1014 NOSIG=  
10-Jul-2022 SAID33 WATB 100500 METAR WATB 100500Z 14006KT 9999 BKN017 26/21 Q1014 NOSIG=  
10-Jul-2022 SAID33 WATB 100600 METAR WATB 100600Z 14009KT 9999 BKN018 28/21 Q1013 NOSIG=  
11-Jul-2022 SAID33 WATB 110000 METAR WATB 110000Z 09004KT 8000 FEW016 25/22 Q1016 NOSIG=  
11-Jul-2022 SAID33 WATB 110100 METAR WATB 110100Z 08003KT 9999 SCT017 27/22 Q1016 NOSIG=  
11-Jul-2022 SAID33 WATB 110200 METAR WATB 110200Z 11006KT 9999 BKN017 27/22 Q1016 NOSIG=  
11-Jul-2022 SAID33 WATB 110300 METAR WATB 110300Z 12010KT 9999 SCT018 28/21 Q1015 NOSIG=  
11-Jul-2022 SAID33 WATB 110400 METAR WATB 110400Z 18005KT 9999 BKN018 29/21 Q1015 NOSIG=  
11-Jul-2022 SAID33 WATB 110500 METAR WATB 110500Z 14007KT 9999 BKN018 29/21 Q1014 NOSIG=  
11-Jul-2022 SAID33 WATB 110600 METAR WATB 110600Z 17008KT 9999 BKN018 29/22 Q1014 NOSIG=  
12-Jul-2022 SAID33 WATB 120000 METAR WATB 120000Z 19004KT 9999 FEW017 25/20 Q1016 NOSIG=  
12-Jul-2022 SAID33 WATB 120100 METAR WATB 120100Z 15009KT 9999 FEW018 26/21 Q1016 NOSIG=  
12-Jul-2022 SAID33 WATB 120200 METAR WATB 120200Z 17015KT 9999 FEW018 27/21 Q1016 NOSIG=  
12-Jul-2022 SAID33 WATB 120300 METAR WATB 120300Z 16010KT 9999 FEW018 27/20 Q1015 NOSIG=  
12-Jul-2022 SAID33 WATB 120400 METAR WATB 120400Z 16010KT 9999 FEW018 28/20 Q1015 NOSIG=  
12-Jul-2022 SAID33 WATB 120500 METAR WATB 120500Z 15012KT 9999 SCT018 27/20 Q1014 NOSIG=  
12-Jul-2022 SAID33 WATB 120600 METAR WATB 120600Z 17009KT 9999 SCT018 27/20 Q1013 NOSIG=  
13-Jul-2022 SAID33 WATB 130000 METAR WATB 130000Z 35002KT 8000 FEW017 24/19 Q1015 NOSIG=  
13-Jul-2022 SAID33 WATB 130100 METAR WATB 130100Z 06005KT 9999 FEW018 25/19 Q1015 NOSIG=  
13-Jul-2022 SAID33 WATB 130200 METAR WATB 130200Z 09007KT 9999 SCT019 26/18 Q1015 NOSIG=  
13-Jul-2022 SAID33 WATB 130300 METAR WATB 130300Z 11008KT 9999 FEW019 26/18 Q1014 NOSIG=  
13-Jul-2022 SAID33 WATB 130400 METAR WATB 130400Z 16007KT 9999 FEW019 27/18 Q1013 NOSIG=  
13-Jul-2022 SAID33 WATB 130500 METAR WATB 130500Z 16009KT 9999 FEW019 27/19 Q1013 NOSIG=  
13-Jul-2022 SAID33 WATB 130600 METAR WATB 130600Z 13009KT 9999 FEW019 27/18 Q1011 NOSIG=  
14-Jul-2022 SAID33 WATB 140000 METAR WATB 140000Z 26002KT 8000 FEW018 24/20 Q1015 NOSIG=  
14-Jul-2022 SAID33 WATB 140100 METAR WATB 140100Z 17009KT 9999 SCT018 25/20 Q1016 NOSIG=  
14-Jul-2022 SAID33 WATB 140200 METAR WATB 140200Z 17006KT 9999 BKN018 25/19 Q1015 NOSIG=  
14-Jul-2022 SAID33 WATB 140300 METAR WATB 140300Z 15008KT 9999 BKN017 25/20 Q1015 NOSIG=  
14-Jul-2022 SAID33 WATB 140400 METAR WATB 140400Z 16008KT 9999 BKN017 25/19 Q1015 NOSIG=  
14-Jul-2022 SAID33 WATB 140500 METAR WATB 140500Z 13006KT 9999 BKN018 27/19 Q1014 NOSIG=  
14-Jul-2022 SAID33 WATB 140600 METAR WATB 140600Z 04006KT 9999 SCT018 27/20 Q1013 NOSIG=  
15-Jul-2022 SAID33 WATB 150000 METAR WATB 150000Z 30002KT 9999 FEW018 24/20 Q1016 NOSIG=  
15-Jul-2022 SAID33 WATB 150100 METAR WATB 150100Z 03003KT 9999 FEW019 26/19 Q1016 NOSIG=  
15-Jul-2022 SAID33 WATB 150200 METAR WATB 150200Z 02006KT 9999 FEW019 26/20 Q1016 NOSIG=  
15-Jul-2022 SAID33 WATB 150300 METAR WATB 150300Z 15009KT 9999 FEW019 27/19 Q1015 NOSIG=  
15-Jul-2022 SAID33 WATB 150400 METAR WATB 150400Z 11008KT 9999 SCT018 28/19 Q1014 NOSIG=  
15-Jul-2022 SAID33 WATB 150500 METAR WATB 150500Z 14008KT 9999 BKN018 27/19 Q1014 NOSIG=  
15-Jul-2022 SAID33 WATB 150600 METAR WATB 150600Z 17009KT 9999 BKN016 26/19 Q1013 NOSIG=  
16-Jul-2022 SAID33 WATB 160000 METAR WATB 160000Z 12002KT 9999 FEW018 24/20 Q1016 NOSIG=  
16-Jul-2022 SAID33 WATB 160100 METAR WATB 160100Z 07004KT 9999 FEW020 25/19 Q1016 NOSIG=  
16-Jul-2022 SAID33 WATB 160200 METAR WATB 160200Z 10004KT 9999 FEW020 27/19 Q1016 NOSIG=  
16-Jul-2022 SAID33 WATB 160300 METAR WATB 160300Z 11006KT 9999 SCT019 29/19 Q1015 NOSIG=  
16-Jul-2022 SAID33 WATB 160400 METAR WATB 160400Z 18006KT 9999 SCT018 27/19 Q1014 NOSIG=  
16-Jul-2022 SAID33 WATB 160500 METAR WATB 160500Z 10007KT 9999 BKN017 28/20 Q1014 NOSIG=  
16-Jul-2022 SAID33 WATB 160600 METAR WATB 160600Z 18008KT 9999 BKN016 26/19 Q1014 NOSIG=  
17-Jul-2022 SAID33 WATB 170000 METAR WATB 170000Z 36002KT 8000 FEW018 23/20 Q1016 NOSIG=  
17-Jul-2022 SAID33 WATB 170100 METAR WATB 170100Z 11002KT 8000 FEW018 26/21 Q1016 NOSIG=  
17-Jul-2022 SAID33 WATB 170200 METAR WATB 170200Z 05004KT 8000 SCT018 27/21 Q1016 NOSIG=  
17-Jul-2022 SAID33 WATB 170300 METAR WATB 170300Z 09005KT 9999 BKN018 28/19 Q1016 NOSIG=  
17-Jul-2022 SAID33 WATB 170400 METAR WATB 170400Z 19006KT 9999 SCT019 28/19 Q1015 NOSIG=  
17-Jul-2022 SAID33 WATB 170500 METAR WATB 170500Z 17006KT 9999 SCT019 29/19 Q1014 NOSIG=  
17-Jul-2022 SAID33 WATB 170600 METAR WATB 170600Z 14007KT 9999 SCT018 28/19 Q1014 NOSIG=  
18-Jul-2022 SAID33 WATB 180000 METAR WATB 180000Z 01002KT 8000 FEW018 23/18 Q1016 NOSIG=  
18-Jul-2022 SAID33 WATB 180100 METAR WATB 180100Z 06003KT 8000 FEW019 24/19 Q1016 NOSIG=  
18-Jul-2022 SAID33 WATB 180200 METAR WATB 180200Z 02003KT 9999 FEW018 27/20 Q1016 NOSIG=  
18-Jul-2022 SAID33 WATB 180300 METAR WATB 180300Z 11006KT 9999 SCT018 28/19 Q1015 NOSIG=  
18-Jul-2022 SAID33 WATB 180400 METAR WATB 180400Z 09003KT 9999 BKN018 30/18 Q1015 NOSIG=  
18-Jul-2022 SAID33 WATB 180500 METAR WATB 180500Z 08009KT 9999 BKN018 29/18 Q1014 NOSIG=  
18-Jul-2022 SAID33 WATB 180600 METAR WATB 180600Z 12007KT 9999 SCT018 28/19 Q1013 NOSIG=  
19-Jul-2022 SAID33 WATB 190000 METAR WATB 190000Z 27003KT 8000 FEW018 18/16 Q1016 NOSIG=  
19-Jul-2022 SAID33 WATB 190100 METAR WATB 190100Z 35004KT 8000 FEW018 24/18 Q1016 NOSIG=  
19-Jul-2022 SAID33 WATB 190200 METAR WATB 190200Z 13005KT 9999 FEW019 27/17 Q1016 NOSIG=  
19-Jul-2022 SAID33 WATB 190300 METAR WATB 190300Z 35002KT 9999 FEW019 27/18 Q1015 NOSIG=  
19-Jul-2022 SAID33 WATB 190400 METAR WATB 190400Z 08007KT 9999 FEW019 28/18 Q1014 NOSIG=  
19-Jul-2022 SAID33 WATB 190500 METAR WATB 190500Z 13007KT 9999 FEW018 28/18 Q1013 NOSIG=  
19-Jul-2022 SAID33 WATB 190600 METAR WATB 190600Z 17009KT 9999 FEW018 28/19 Q1013 NOSIG=  
20-Jul-2022 SAID33 WATB 200000 METAR WATB 200000Z 36003KT 8000 FEW018 21/18 Q1016 NOSIG=  
20-Jul-2022 SAID33 WATB 200100 METAR WATB 200100Z 02005KT 9999 FEW019 24/19 Q1016 NOSIG=  
20-Jul-2022 SAID33 WATB 200200 METAR WATB 200200Z 08002KT 9999 FEW019 26/17 Q1016 NOSIG=  
20-Jul-2022 SAID33 WATB 200300 METAR WATB 200300Z 03006KT 9999 FEW019 28/16 Q1015 NOSIG=  
20-Jul-2022 SAID33 WATB 200400 METAR WATB 200400Z 08006KT 9999 FEW019 29/16 Q1014 NOSIG=  
20-Jul-2022 SAID33 WATB 200500 METAR WATB 200500Z 06005KT 9999 FEW018 30/16 Q1013 NOSIG=  
20-Jul-2022 SAID33 WATB 200600 METAR WATB 200600Z 17002KT 9999 FEW018 30/16 Q1013 NOSIG=  
21-Jul-2022 SAID33 WATB 210000 METAR WATB 210000Z 04002KT 8000 FEW018 24/19 Q1016 NOSIG=  
21-Jul-2022 SAID33 WATB 210100 METAR WATB 210100Z 21005KT 9999 FEW018 26/19 Q1016 NOSIG=  
21-Jul-2022 SAID33 WATB 210200 METAR WATB 210200Z 04005KT 9999 SCT018 26/19 Q1016 NOSIG=  
21-Jul-2022 SAID33 WATB 210300 METAR WATB 210300Z 09007KT 9999 SCT018 28/19 Q1015 NOSIG=  
21-Jul-2022 SAID33 WATB 210400 METAR WATB 210400Z 13006KT 9999 SCT018 28/20 Q1015 NOSIG=  
21-Jul-2022 SAID33 WATB 210500 METAR WATB 210500Z 19008KT 9999 BKN018 28/21 Q1014 NOSIG=  
21-Jul-2022 SAID33 WATB 210600 METAR WATB 210600Z 16008KT 9999 BKN017 28/21 Q1013 NOSIG=  
22-Jul-2022 SAID33 WATB 220000 METAR WATB 220000Z 14002KT 8000 FEW017 ///// Q//// NOSIG=  
22-Jul-2022 SAID33 WATB 220100 METAR COR WATB 220100Z 16005KT 9999 FEW018 ///// Q//// NOSIG=  
22-Jul-2022 SAID33 WATB 220200 METAR WATB 220200Z 12010KT 9999 SCT018 ///// Q//// NOSIG=  
22-Jul-2022 SAID33 WATB 220300 METAR WATB 220300Z 15008KT 9999 SCT018 ///// Q//// NOSIG=  
22-Jul-2022 SAID33 WATB 220400 METAR WATB 220400Z 18009KT 9999 FEW018 28/17 Q1015 NOSIG=  
22-Jul-2022 SAID33 WATB 220500 METAR WATB 220500Z 17012KT 9999 FEW018 28/17 Q1014 NOSIG=  
22-Jul-2022 SAID33 WATB 220600 METAR WATB 220600Z 16012KT 9999 FEW018 28/18 Q1014 NOSIG=  
23-Jul-2022 SAID33 WATB 230000 METAR WATB 230000Z 31006KT 9999 FEW016 24/18 Q1016 NOSIG=  
23-Jul-2022 SAID33 WATB 230100 METAR WATB 230100Z 02004KT 9999 FEW018 25/19 Q1016 NOSIG=  
23-Jul-2022 SAID33 WATB 230200 METAR WATB 230200Z 15007KT 9999 SCT018 25/18 Q1016 NOSIG=  
23-Jul-2022 SAID33 WATB 230300 METAR WATB 230300Z 16006KT 9999 SCT018 26/17 Q1015 NOSIG=  
23-Jul-2022 SAID33 WATB 230400 METAR WATB 230400Z 13008KT 9999 SCT018 28/17 Q1014 NOSIG=  
23-Jul-2022 SAID33 WATB 230500 METAR WATB 230500Z 15006KT 9999 SCT018 28/16 Q1014 NOSIG=  
23-Jul-2022 SAID33 WATB 230600 METAR WATB 230600Z 12008KT 9999 FEW017 28/16 Q1013 NOSIG=  
24-Jul-2022 SAID33 WATB 240000 METAR WATB 240000Z 10002KT 9999 FEW018 23/17 Q1015 NOSIG=  
24-Jul-2022 SAID33 WATB 240100 METAR WATB 240100Z 10004KT 9999 FEW018 24/16 Q1015 NOSIG=  
24-Jul-2022 SAID33 WATB 240200 METAR WATB 240200Z 16009KT 9999 FEW019 25/16 Q1015 NOSIG=  
24-Jul-2022 SAID33 WATB 240300 METAR WATB 240300Z 10011KT 9999 FEW019 26/16 Q1014 NOSIG=  
24-Jul-2022 SAID33 WATB 240400 METAR WATB 240400Z 10010KT 9999 FEW019 27/15 Q1013 NOSIG=  
24-Jul-2022 SAID33 WATB 240500 METAR WATB 240500Z 16009KT 9999 SCT018 27/16 Q1013 NOSIG=  
24-Jul-2022 SAID33 WATB 240600 METAR WATB 240600Z 13009KT 9999 SCT018 26/16 Q1012 NOSIG=  
25-Jul-2022 SAID33 WATB 250000 METAR WATB 250000Z 33004KT 9999 FEW018 23/17 Q1015 NOSIG=  
25-Jul-2022 SAID33 WATB 250100 METAR WATB 250100Z 14008KT 9999 FEW018 25/18 Q1016 NOSIG=  
25-Jul-2022 SAID33 WATB 250200 METAR WATB 250200Z 12008KT 9999 FEW018 26/17 Q1015 NOSIG=  
25-Jul-2022 SAID33 WATB 250300 METAR WATB 250300Z 10005KT 9999 FEW018 27/18 Q1015 NOSIG=  
25-Jul-2022 SAID33 WATB 250400 METAR WATB 250400Z 14006KT 9999 FEW018 27/18 Q1014 NOSIG=  
25-Jul-2022 SAID33 WATB 250500 METAR WATB 250500Z 15010KT 9999 FEW018 28/18 Q1013 NOSIG=  
25-Jul-2022 SAID33 WATB 250600 METAR WATB 250600Z 17009KT 9999 FEW018 28/18 Q1012 NOSIG=  
26-Jul-2022 SAID33 WATB 260000 METAR WATB 260000Z 08003KT 9000 FEW017 23/20 Q1016 NOSIG=  
26-Jul-2022 SAID33 WATB 260100 METAR WATB 260100Z 11006KT 9999 FEW018 25/20 Q1016 NOSIG=  
26-Jul-2022 SAID33 WATB 260200 METAR WATB 260200Z 06005KT 9999 FEW017 27/21 Q1016 NOSIG=  
26-Jul-2022 SAID33 WATB 260300 METAR WATB 260300Z 15002KT 9999 BKN017 27/20 Q1015 NOSIG=  
26-Jul-2022 SAID33 WATB 260400 METAR WATB 260400Z 08003KT 9999 BKN017 29/20 Q1015 NOSIG=  
26-Jul-2022 SAID33 WATB 260500 METAR WATB 260500Z 10008KT 9999 BKN017 30/20 Q1014 NOSIG=  
26-Jul-2022 SAID33 WATB 260600 METAR WATB 260600Z 18008KT 9999 BKN017 28/18 Q1013 NOSIG=  
27-Jul-2022 SAID33 WATB 270000 METAR WATB 270000Z 08003KT 9999 FEW018 22/17 Q1015 NOSIG=  
27-Jul-2022 SAID33 WATB 270100 METAR WATB 270100Z 09003KT 9999 FEW018 25/19 Q1015 NOSIG=  
27-Jul-2022 SAID33 WATB 270200 METAR WATB 270200Z 03004KT 9999 FEW018 26/18 Q1015 NOSIG=  
27-Jul-2022 SAID33 WATB 270300 METAR WATB 270300Z 16006KT 110V240 9999 FEW019 28/19 Q1014 NOSIG=  
27-Jul-2022 SAID33 WATB 270400 METAR WATB 270400Z 19008KT 9999 FEW018 29/18 Q1013 NOSIG=  
27-Jul-2022 SAID33 WATB 270500 METAR WATB 270500Z 10005KT 9999 FEW018 29/18 Q1013 NOSIG=  
27-Jul-2022 SAID33 WATB 270600 METAR WATB 270600Z 10005KT 9999 FEW018 29/18 Q1012 NOSIG=  
28-Jul-2022 SAID33 WATB 280000 METAR WATB 280000Z 04003KT 8000 FEW017 23/19 Q1016 NOSIG=  
28-Jul-2022 SAID33 WATB 280100 METAR WATB 280100Z 21004KT 9999 FEW018 26/18 Q1016 NOSIG=  
28-Jul-2022 SAID33 WATB 280200 METAR WATB 280200Z 10009KT 9999 FEW018 27/18 Q1016 NOSIG=  
28-Jul-2022 SAID33 WATB 280300 METAR WATB 280300Z 07002KT 9999 SCT018 28/19 Q1015 NOSIG=  
28-Jul-2022 SAID33 WATB 280400 METAR WATB 280400Z 14008KT 9999 SCT018 28/19 Q1014 NOSIG=  
28-Jul-2022 SAID33 WATB 280500 METAR WATB 280500Z 10008KT 9999 SCT018 29/19 Q1013 NOSIG=  
28-Jul-2022 SAID33 WATB 280600 METAR WATB 280600Z 16009KT 9999 SCT018 29/18 Q1012 NOSIG=  
29-Jul-2022 SAID33 WATB 290000 METAR WATB 290000Z 02003KT 8000 FEW018 23/18 Q1016 NOSIG=  
29-Jul-2022 SAID33 WATB 290100 METAR WATB 290100Z 08004KT 9999 FEW018 25/18 Q1017 NOSIG=  
29-Jul-2022 SAID33 WATB 290200 METAR WATB 290200Z 16007KT 110V180 9999 SCT018 27/18 Q1016 NOSIG=  
29-Jul-2022 SAID33 WATB 290300 METAR WATB 290300Z 10008KT 9999 FEW019 28/17 Q1015 NOSIG=  
29-Jul-2022 SAID33 WATB 290400 METAR WATB 290400Z 17005KT 9999 SCT018 27/17 Q1014 NOSIG=  
29-Jul-2022 SAID33 WATB 290500 METAR WATB 290500Z 08006KT 9999 SCT018 28/19 Q1013 NOSIG=  
29-Jul-2022 SAID33 WATB 290600 METAR WATB 290600Z 12006KT 9999 SCT018 29/19 Q1012 NOSIG=  
30-Jul-2022 SAID33 WATB 300000 METAR WATB 300000Z 06002KT 8000 FEW018 23/18 Q1015 NOSIG=  
30-Jul-2022 SAID33 WATB 300100 METAR WATB 300100Z 03004KT 9999 FEW019 25/19 Q1016 NOSIG=  
30-Jul-2022 SAID33 WATB 300200 METAR WATB 300200Z 10007KT 9999 FEW019 27/19 Q1015 NOSIG=  
30-Jul-2022 SAID33 WATB 300300 METAR WATB 300300Z 13004KT 9999 SCT018 28/19 Q1015 NOSIG=  
30-Jul-2022 SAID33 WATB 300400 METAR WATB 300400Z 14005KT 9999 SCT018 27/18 Q1014 NOSIG=  
30-Jul-2022 SAID33 WATB 300500 METAR WATB 300500Z 10007KT 9999 BKN018 29/17 Q1013 NOSIG=  
30-Jul-2022 SAID33 WATB 300600 METAR WATB 300600Z 12008KT 9999 BKN018 29/19 Q1012 NOSIG=  
31-Jul-2022 SAID33 WATB 310000 METAR WATB 310000Z 06002KT 8000 FEW018 24/19 Q1014 NOSIG=  
31-Jul-2022 SAID33 WATB 310100 METAR WATB 310100Z 04002KT 9999 FEW018 26/20 Q1015 NOSIG=  
31-Jul-2022 SAID33 WATB 310200 METAR WATB 310200Z 07004KT 9999 FEW019 28/20 Q1014 NOSIG=  
31-Jul-2022 SAID33 WATB 310300 METAR WATB 310300Z 15004KT 9999 BKN018 28/20 Q1014 NOSIG=  
31-Jul-2022 SAID33 WATB 310400 METAR WATB 310400Z 16009KT 9999 BKN018 28/20 Q1013 NOSIG=  
31-Jul-2022 SAID33 WATB 310500 METAR WATB 310500Z 16010KT 9999 BKN017 29/20 Q1012 NOSIG=  
31-Jul-2022 SAID33 WATB 310600 METAR WATB 310600Z 13010KT 9999 BKN016 28/20 Q1011 NOSIG=  
01-Aug-2022 SAID33 WATB 010000 METAR WATB 010000Z 05002KT 8000 FEW017 23/19 Q1014 NOSIG=  
01-Aug-2022 SAID33 WATB 010100 METAR WATB 010100Z 16002KT 9999 FEW017 27/20 Q1014 NOSIG=  
01-Aug-2022 SAID33 WATB 010200 METAR WATB 010200Z 08005KT 9999 FEW019 28/19 Q1014 NOSIG=  
01-Aug-2022 SAID33 WATB 010300 METAR WATB 010300Z 05004KT 9999 SCT019 30/19 Q1014 NOSIG=  
01-Aug-2022 SAID33 WATB 010400 METAR WATB 010400Z 09004KT 9999 BKN018 29/19 Q1013 NOSIG=  
01-Aug-2022 SAID33 WATB 010500 METAR WATB 010500Z 06009KT 9999 SCT018 31/19 Q1012 NOSIG=  
01-Aug-2022 SAID33 WATB 010600 METAR WATB 010600Z 03012KT 9999 BKN018 30/18 Q1011 NOSIG=  
02-Aug-2022 SAID33 WATB 020000 METAR WATB 020000Z 04002KT 8000 FEW016 24/19 Q1016 NOSIG=  
02-Aug-2022 SAID33 WATB 020100 METAR WATB 020100Z 06004KT 9999 FEW018 26/20 Q1016 NOSIG=  
02-Aug-2022 SAID33 WATB 020200 METAR WATB 020200Z 03004KT 9999 FEW018 28/20 Q1015 NOSIG=  
02-Aug-2022 SAID33 WATB 020300 METAR WATB 020300Z 07005KT 9999 FEW019 29/19 Q1015 NOSIG=  
02-Aug-2022 SAID33 WATB 020400 METAR WATB 020400Z 16008KT 9999 SCT019 31/19 Q1014 NOSIG=  
02-Aug-2022 SAID33 WATB 020500 METAR WATB 020500Z 16010KT 9999 SCT018 30/19 Q1013 NOSIG=  
02-Aug-2022 SAID33 WATB 020600 METAR WATB 020600Z 10009KT 9999 SCT018 32/19 Q1012 NOSIG=  
03-Aug-2022 SAID33 WATB 030000 METAR WATB 030000Z 35003KT 9999 FEW017 25/17 Q1015 NOSIG=  
03-Aug-2022 SAID33 WATB 030100 METAR WATB 030100Z 06004KT 9999 FEW017 27/18 Q1015 NOSIG=  
03-Aug-2022 SAID33 WATB 030200 METAR WATB 030200Z 11007KT 9999 FEW017 28/16 Q1015 NOSIG=  
03-Aug-2022 SAID33 WATB 030300 METAR WATB 030300Z 11006KT 9999 FEW018 29/15 Q1015 NOSIG=  
03-Aug-2022 SAID33 WATB 030400 METAR WATB 030400Z 10007KT 9999 FEW018 30/16 Q1014 NOSIG=  
03-Aug-2022 SAID33 WATB 030500 METAR WATB 030500Z 15009KT 9999 FEW018 30/17 Q1013 NOSIG=  
03-Aug-2022 SAID33 WATB 030600 METAR WATB 030600Z 16009KT 9999 SCT017 29/16 Q1013 NOSIG=  
04-Aug-2022 SAID33 WATB 040000 METAR WATB 040000Z 28005KT 9999 FEW017 25/17 Q1015 NOSIG=  
04-Aug-2022 SAID33 WATB 040100 METAR WATB 040100Z 13010KT 9999 FEW017 27/16 Q1015 NOSIG=  
04-Aug-2022 SAID33 WATB 040200 METAR WATB 040200Z 13010KT 9999 FEW018 28/16 Q1015 NOSIG=  
04-Aug-2022 SAID33 WATB 040300 METAR WATB 040300Z 15008KT 9999 FEW018 29/165 Q1015 NOSIG=  
04-Aug-2022 SAID33 WATB 040400 METAR WATB 040400Z 13010KT 9999 FEW018 28/14 Q1014 NOSIG=  
04-Aug-2022 SAID33 WATB 040500 METAR WATB 040500Z 15013KT 9999 FEW018 29/12 Q1013 NOSIG=  
04-Aug-2022 SAID33 WATB 040600 METAR WATB 040600Z 15011KT 9999 FEW018 29/12 Q1012 NOSIG=  
05-Aug-2022 SAID33 WATB 050000 METAR WATB 050000Z 07003KT 9999 FEW018 21/14 Q1016 NOSIG=  
05-Aug-2022 SAID33 WATB 050100 METAR WATB 050100Z 03005KT 9999 FEW019 24/15 Q1016 NOSIG=  
05-Aug-2022 SAID33 WATB 050200 METAR WATB 050200Z 36003KT 9999 FEW019 26/17 Q1015 NOSIG=  
05-Aug-2022 SAID33 WATB 050300 METAR WATB 050300Z 10006KT 9999 FEW019 26/16 Q1015 NOSIG=  
05-Aug-2022 SAID33 WATB 050400 METAR WATB 050400Z 14006KT 9999 FEW019 29/16 Q1014 NOSIG=  
05-Aug-2022 SAID33 WATB 050500 METAR WATB 050500Z 16008KT 9999 FEW018 29/16 Q1012 NOSIG=  
05-Aug-2022 SAID33 WATB 050600 METAR WATB 050600Z 16008KT 9999 FEW018 29/17 Q1012 NOSIG=  
06-Aug-2022 SAID33 WATB 060000 METAR WATB 060000Z 09005KT 9999 FEW017 22/16 Q1015 NOSIG=  
06-Aug-2022 SAID33 WATB 060100 METAR WATB 060100Z 15004KT 9999 FEW018 25/15 Q1015 NOSIG=  
06-Aug-2022 SAID33 WATB 060200 METAR WATB 060200Z 03006KT 9999 FEW018 26/16 Q1015 NOSIG=  
06-Aug-2022 SAID33 WATB 060300 METAR WATB 060300Z 16003KT 9999 FEW018 28/16 Q1014 NOSIG=  
06-Aug-2022 SAID33 WATB 060400 METAR WATB 060400Z 05006KT 9999 FEW019 29/17 Q1014 NOSIG=  
06-Aug-2022 SAID33 WATB 060500 METAR WATB 060500Z 12008KT 9999 FEW018 29/17 Q1013 NOSIG=  
06-Aug-2022 SAID33 WATB 060600 METAR WATB 060600Z 16009KT 9999 FEW018 29/17 Q1012 NOSIG=  
07-Aug-2022 SAID33 WATB 070000 METAR WATB 070000Z 36004KT 8000 FEW017 22/17 Q1015 NOSIG=  
07-Aug-2022 SAID33 WATB 070100 METAR WATB 070100Z 03005KT 9999 FEW018 26/17 Q1015 NOSIG=  
07-Aug-2022 SAID33 WATB 070200 METAR WATB 070200Z 13005KT 9999 FEW018 27/17 Q1015 NOSIG=  
07-Aug-2022 SAID33 WATB 070300 METAR WATB 070300Z 08006KT 9999 FEW018 29/18 Q1014 NOSIG=  
07-Aug-2022 SAID33 WATB 070400 METAR WATB 070400Z 06008KT 9999 SCT018 30/19 Q1014 NOSIG=  
07-Aug-2022 SAID33 WATB 070500 METAR WATB 070500Z 12010KT 9999 SCT018 29/20 Q1013 NOSIG=  
07-Aug-2022 SAID33 WATB 070600 METAR WATB 070600Z 15008KT 9999 SCT017 29/20 Q1012 NOSIG=  
08-Aug-2022 SAID33 WATB 080000 METAR WATB 080000Z 09004KT 9999 FEW017 24/21 Q1015 NOSIG=  
08-Aug-2022 SAID33 WATB 080100 METAR WATB 080100Z 17002KT 9999 FEW018 27/21 Q1015 NOSIG=  
08-Aug-2022 SAID33 WATB 080200 METAR WATB 080200Z 33004KT 9999 FEW018 29/20 Q1015 NOSIG=  
08-Aug-2022 SAID33 WATB 080300 METAR WATB 080300Z 15006KT 9999 BKN018 29/20 Q1014 NOSIG=  
08-Aug-2022 SAID33 WATB 080400 METAR WATB 080400Z 15008KT 9999 BKN018 30/21 Q1013 NOSIG=  
08-Aug-2022 SAID33 WATB 080500 METAR WATB 080500Z 15008KT 9999 SCT018 29/20 Q1013 NOSIG=  
08-Aug-2022 SAID33 WATB 080600 METAR WATB 080600Z 14010KT 9999 SCT018 30/21 Q1012 NOSIG=  
09-Aug-2022 SAID33 WATB 090000 METAR WATB 090000Z 36002KT 9999 FEW017 25/21 Q1015 NOSIG=  
09-Aug-2022 SAID33 WATB 090100 METAR WATB 090100Z 03003KT 9999 FEW018 26/22 Q1015 NOSIG=  
09-Aug-2022 SAID33 WATB 090200 METAR WATB 090200Z 09005KT 9999 SCT018 29/21 Q1015 NOSIG=  
09-Aug-2022 SAID33 WATB 090300 METAR WATB 090300Z 22006KT 9999 BKN018 30/21 Q1014 NOSIG=  
09-Aug-2022 SAID33 WATB 090400 METAR WATB 090400Z 03007KT 9999 BKN018 31/18 Q1013 NOSIG=  
09-Aug-2022 SAID33 WATB 090500 METAR WATB 090500Z 12008KT 9999 BKN018 29/18 Q1013 NOSIG=  
09-Aug-2022 SAID33 WATB 090600 METAR WATB 090600Z 14010KT 9999 BKN018 30/20 Q1012 NOSIG=  
10-Aug-2022 SAID33 WATB 100000 METAR WATB 100000Z 08003KT 8000 FEW017 25/20 Q1015 NOSIG=  
10-Aug-2022 SAID33 WATB 100100 METAR WATB 100100Z 04004KT 9999 FEW018 28/19 Q1015 NOSIG=  
10-Aug-2022 SAID33 WATB 100200 METAR WATB 100200Z 36006KT 9999 FEW018 29/19 Q1015 NOSIG=  
10-Aug-2022 SAID33 WATB 100300 METAR WATB 100300Z 03008KT 9999 BKN018 30/19 Q1014 NOSIG=  
10-Aug-2022 SAID33 WATB 100400 METAR WATB 100400Z 18008KT 9999 BKN018 29/19 Q1014 NOSIG=  
10-Aug-2022 SAID33 WATB 100500 METAR WATB 100500Z 14006KT 9999 BKN018 29/19 Q1013 NOSIG=  
10-Aug-2022 SAID33 WATB 100600 METAR WATB 100600Z 15008KT 9999 BKN018 31/21 Q1012 NOSIG=  
11-Aug-2022 SAID33 WATB 110000 METAR WATB 110000Z 18002KT 7000 BKN015 22/22 Q1016 NOSIG=  
11-Aug-2022 SAID33 WATB 110100 METAR WATB 110100Z 10002KT 7000 BKN015 25/23 Q1016 NOSIG=  
11-Aug-2022 SAID33 WATB 110200 METAR WATB 110200Z 09005KT 8000 BKN015 29/23 Q1016 NOSIG=  
11-Aug-2022 SAID33 WATB 110300 METAR WATB 110300Z 05009KT 6000 BKN015 26/22 Q1015 NOSIG=  
11-Aug-2022 SAID33 WATB 110400 METAR WATB 110400Z 02008KT 9000 BKN015 27/22 Q1015 NOSIG=  
11-Aug-2022 SAID33 WATB 110500 METAR WATB 110500Z 10003KT 8000 BKN015 27/22 Q1014 NOSIG=  
11-Aug-2022 SAID33 WATB 110600 METAR WATB 110600Z 12006KT 8000 BKN015 26/22 Q1013 NOSIG=  
12-Aug-2022 SAID33 WATB 120000 METAR WATB 120000Z 28002KT 8000 SCT015 24/21 Q1016 NOSIG=  
12-Aug-2022 SAID33 WATB 120100 METAR WATB 120100Z 03003KT 8000 BKN015 25/22 Q1016 NOSIG=  
12-Aug-2022 SAID33 WATB 120200 METAR WATB 120200Z 08006KT 8000 BKN016 28/21 Q1016 NOSIG=  
12-Aug-2022 SAID33 WATB 120300 METAR WATB 120300Z 14002KT 8000 BKN017 27/21 Q1015 NOSIG=  
12-Aug-2022 SAID33 WATB 120400 METAR WATB 120400Z 07007KT 8000 BKN016 28/21 Q1015 NOSIG=  
12-Aug-2022 SAID33 WATB 120500 METAR WATB 120500Z 05006KT 8000 BKN016 28/21 Q1014 NOSIG=  
12-Aug-2022 SAID33 WATB 120600 METAR WATB 120600Z 06006KT 8000 BKN016 29/22 Q1013 NOSIG=  
13-Aug-2022 SAID33 WATB 130000 METAR WATB 130000Z 23002KT 8000 BKN016 ///// Q//// NOSIG=  
13-Aug-2022 SAID33 WATB 130100 METAR WATB 130100Z 27003KT 8000 BKN016 ///// Q//// NOSIG=  
13-Aug-2022 SAID33 WATB 130200 METAR WATB 130200Z 20002KT 8000 BKN017 ///// Q//// NOSIG=  
13-Aug-2022 SAID33 WATB 130300 METAR WATB 130300Z 36008KT 8000 BKN016 ///// Q//// NOSIG=  
13-Aug-2022 SAID33 WATB 130400 METAR WATB 130400Z 11008KT 8000 SCT017 ///// Q//// NOSIG=  
13-Aug-2022 SAID33 WATB 130500 METAR WATB 130500Z 09010KT 9999 SCT018 ///// Q//// NOSIG=  
13-Aug-2022 SAID33 WATB 130600 METAR WATB 130600Z 07006KT 9999 BKN018 ///// Q//// NOSIG=  
14-Aug-2022 SAID33 WATB 140000 METAR WATB 140000Z 15002KT 8000 FEW017 ///// Q//// NOSIG=  
14-Aug-2022 SAID33 WATB 140100 METAR WATB 140100Z 14002KT 7000 FEW017 ///// Q//// NOSIG=  
14-Aug-2022 SAID33 WATB 140200 METAR WATB 140200Z 02006KT 9000 FEW018 ///// Q//// NOSIG=  
14-Aug-2022 SAID33 WATB 140300 METAR WATB 140300Z 10008KT 9000 SCT019 ///// Q//// NOSIG=  
14-Aug-2022 SAID33 WATB 140400 METAR WATB 140400Z 12008KT 9999 SCT019 ///// Q//// NOSIG=  
14-Aug-2022 SAID33 WATB 140500 METAR WATB 140500Z 07010KT 9999 BKN019 ///// Q//// NOSIG=  
14-Aug-2022 SAID33 WATB 140600 METAR WATB 140600Z 07008KT 9999 BKN019 ///// Q//// NOSIG=  
15-Aug-2022 SAID33 WATB 150000 METAR WATB 150000Z 19002KT 8000 FEW017 25/20 Q1016 NOSIG=  
15-Aug-2022 SAID33 WATB 150100 METAR WATB 150100Z 10002KT 8000 FEW018 28/20 Q1016 NOSIG=  
15-Aug-2022 SAID33 WATB 150200 METAR WATB 150200Z 12008KT 9999 FEW018 29/16 Q//// NOSIG=  
15-Aug-2022 SAID33 WATB 150300 METAR WATB 150300Z 09012KT 9999 FEW019 30/13 Q//// NOSIG=  
15-Aug-2022 SAID33 WATB 150400 METAR WATB 150400Z 14010KT 9999 FEW019 31/13 Q1015 NOSIG=  
15-Aug-2022 SAID33 WATB 150500 METAR WATB 150500Z 09012KT 9999 FEW019 31/14 Q1014 NOSIG=  
15-Aug-2022 SAID33 WATB 150600 METAR WATB 150600Z 13012KT 9999 FEW019 29/17 Q1014 NOSIG=  
16-Aug-2022 SAID33 WATB 160000 METAR WATB 160000Z 27004KT 8000 FEW017 22/20 Q1016 NOSIG=  
16-Aug-2022 SAID33 WATB 160100 METAR WATB 160100Z 05006KT 9999 FEW018 26/20 Q1016 NOSIG=  
16-Aug-2022 SAID33 WATB 160200 METAR WATB 160200Z 09009KT 9999 FEW018 28/19 Q1016 NOSIG=  
16-Aug-2022 SAID33 WATB 160300 METAR WATB 160300Z 12010KT 9999 SCT019 29/18 Q1015 NOSIG=  
16-Aug-2022 SAID33 WATB 160400 METAR WATB 160400Z 03006KT 9999 BKN019 29/18 Q1014 NOSIG=  
16-Aug-2022 SAID33 WATB 160500 METAR WATB 160500Z 18006KT 9999 BKN019 30/19 Q1013 NOSIG=  
16-Aug-2022 SAID33 WATB 160600 METAR WATB 160600Z 13010KT 9999 BKN018 30/19 Q1012 NOSIG=  
17-Aug-2022 SAID33 WATB 170000 METAR WATB 170000Z 09004KT 6000 SCT017 24/20 Q1018 NOSIG=  
17-Aug-2022 SAID33 WATB 170100 METAR WATB 170100Z 13004KT 8000 SCT018 24/20 Q1018 NOSIG=  
17-Aug-2022 SAID33 WATB 170200 METAR WATB 170200Z 04006KT 8000 FEW017 27/21 Q1018 NOSIG=  
17-Aug-2022 SAID33 WATB 170300 METAR WATB 170300Z 07008KT 8000 SCT017 28/20 Q1017 NOSIG=  
17-Aug-2022 SAID33 WATB 170400 METAR WATB 170400Z 10008KT 8000 BKN016 27/20 Q1016 NOSIG=  
17-Aug-2022 SAID33 WATB 170500 METAR WATB 170500Z 08008KT 6000 SCT015 27/21 Q1016 NOSIG=  
17-Aug-2022 SAID33 WATB 170600 METAR WATB 170600Z 10008KT 8000 SCT015 25/22 Q1015 NOSIG=  
18-Aug-2022 SAID33 WATB 180000 METAR WATB 180000Z 08006KT 8000 FEW017 26/21 Q1016 NOSIG=  
18-Aug-2022 SAID33 WATB 180100 METAR WATB 180100Z 13008KT 9999 FEW017 27/19 Q1017 NOSIG=  
18-Aug-2022 SAID33 WATB 180200 METAR WATB 180200Z 18009KT 9999 FEW018 28/19 Q1016 NOSIG=  
18-Aug-2022 SAID33 WATB 180300 METAR WATB 180300Z 17010KT 9999 FEW018 30/17 Q1016 NOSIG=  
18-Aug-2022 SAID33 WATB 180400 METAR WATB 180400Z 17010KT 9999 FEW018 31/17 Q1015 NOSIG=  
18-Aug-2022 SAID33 WATB 180500 METAR WATB 180500Z 14013KT 9999 FEW019 29/18 Q1015 NOSIG=  
19-Aug-2022 SAID33 WATB 190000 METAR WATB 190000Z 14004KT 8000 FEW018 25/17 Q1017 NOSIG=  
19-Aug-2022 SAID33 WATB 190100 METAR WATB 190100Z 15004KT 8000 FEW018 27/18 Q1017 NOSIG=  
19-Aug-2022 SAID33 WATB 190200 METAR WATB 190200Z 13010KT 9999 FEW019 29/12 Q1016 NOSIG=  
19-Aug-2022 SAID33 WATB 190300 METAR WATB 190300Z 19008KT 9999 FEW019 30/06 Q1015 NOSIG=  
19-Aug-2022 SAID33 WATB 190400 METAR WATB 190400Z 18010KT 9999 FEW020 29/07 Q1015 NOSIG=  
19-Aug-2022 SAID33 WATB 190500 METAR WATB 190500Z 16010KT 9999 FEW020 30/10 Q1014 NOSIG=  
19-Aug-2022 SAID33 WATB 190600 METAR WATB 190600Z 16011KT 9999 FEW019 29/13 Q1013 NOSIG=  
20-Aug-2022 SAID33 WATB 200000 METAR WATB 200000Z 06004KT 8000 FEW018 24/17 Q1018 NOSIG=  
20-Aug-2022 SAID33 WATB 200100 METAR WATB 200100Z 13006KT 9999 FEW019 26/17 Q1018 NOSIG=  
20-Aug-2022 SAID33 WATB 200200 METAR WATB 200200Z 13008KT 9999 FEW019 27/14 Q1017 NOSIG=  
20-Aug-2022 SAID33 WATB 200300 METAR WATB 200300Z 05010KT 9999 FEW019 29/16 Q1016 NOSIG=  
20-Aug-2022 SAID33 WATB 200400 METAR WATB 200400Z 13010KT 9999 FEW019 29/12 Q1015 NOSIG=  
20-Aug-2022 SAID33 WATB 200500 METAR WATB 200500Z 15008KT 9999 FEW019 31/10 Q1014 NOSIG=  
20-Aug-2022 SAID33 WATB 200600 METAR WATB 200600Z 04010KT 9999 FEW019 31/13 Q1013 NOSIG=  
21-Aug-2022 SAID33 WATB 210000 METAR WATB 210000Z 09003KT 9999 SCT018 22/19 Q1016 NOSIG=  
21-Aug-2022 SAID33 WATB 210100 METAR WATB 210100Z 02005KT 9999 BKN018 23/18 Q1017 NOSIG=  
21-Aug-2022 SAID33 WATB 210200 METAR WATB 210200Z 30004KT 9999 BKN018 27/17 Q1016 NOSIG=  
21-Aug-2022 SAID33 WATB 210300 METAR WATB 210300Z 07008KT 9999 SCT018 28/17 Q1015 NOSIG=  
21-Aug-2022 SAID33 WATB 210400 METAR WATB 210400Z 02006KT 9999 BKN018 28/18 Q1015 NOSIG=  
21-Aug-2022 SAID33 WATB 210500 METAR WATB 210500Z 33008KT 9999 BKN018 29/18 Q1013 NOSIG=  
21-Aug-2022 SAID33 WATB 210600 METAR WATB 210600Z 04011KT 9999 BKN018 31/16 Q1012 NOSIG=  
22-Aug-2022 SAID33 WATB 220000 METAR WATB 220000Z 19011KT 8000 SCT018 25/18 Q1016 NOSIG=  
22-Aug-2022 SAID33 WATB 220100 METAR WATB 220100Z 19010KT 9999 FEW018 26/18 Q1016 NOSIG=  
22-Aug-2022 SAID33 WATB 220200 METAR WATB 220200Z 13010KT 9999 FEW019 28/18 Q1016 NOSIG=  
22-Aug-2022 SAID33 WATB 220300 METAR WATB 220300Z 17012KT 9999 FEW018 27/18 Q1016 NOSIG=  
22-Aug-2022 SAID33 WATB 220400 METAR WATB 220400Z 15010KT 9999 SCT018 28/18 Q1015 NOSIG=  
22-Aug-2022 SAID33 WATB 220500 METAR WATB 220500Z 12010KT 070V160 9999 FEW019 29/18 Q1014 NOSIG=  
22-Aug-2022 SAID33 WATB 220600 METAR WATB 220600Z 12008KT 100V160 9999 FEW019 29/17 Q1014 NOSIG=  
23-Aug-2022 SAID33 WATB 230000 METAR WATB 230000Z 14008KT 8000 FEW018 26/19 Q1017 NOSIG=  
23-Aug-2022 SAID33 WATB 230100 METAR WATB 230100Z 18009KT 9999 FEW018 27/17 Q1017 NOSIG=  
23-Aug-2022 SAID33 WATB 230200 METAR WATB 230200Z 12008KT 9999 FEW018 28/14 Q1016 NOSIG=  
23-Aug-2022 SAID33 WATB 230300 METAR WATB 230300Z 16010KT 9999 FEW018 29/13 Q1015 NOSIG=  
23-Aug-2022 SAID33 WATB 230400 METAR WATB 230400Z 16008KT 9999 FEW019 29/14 Q1015 NOSIG=  
23-Aug-2022 SAID33 WATB 230500 METAR WATB 230500Z 14010KT 9999 FEW019 29/15 Q1014 NOSIG=  
23-Aug-2022 SAID33 WATB 230600 METAR WATB 230600Z 17012KT 9999 FEW018 29/17 Q1013 NOSIG=  
24-Aug-2022 SAID33 WATB 240000 METAR WATB 240000Z 04002KT 8000 FEW017 25/19 Q1017 NOSIG=  
24-Aug-2022 SAID33 WATB 240100 METAR WATB 240100Z 06005KT 9999 FEW018 26/19 Q1017 NOSIG=  
24-Aug-2022 SAID33 WATB 240200 METAR WATB 240200Z 14005KT 9999 BKN018 26/18 Q1017 NOSIG=  
24-Aug-2022 SAID33 WATB 240300 METAR WATB 240300Z 17009KT 9999 BKN018 28/18 Q1016 NOSIG=  
24-Aug-2022 SAID33 WATB 240400 METAR WATB 240400Z 21005KT 9999 BKN018 28/18 Q1015 NOSIG=  
24-Aug-2022 SAID33 WATB 240500 METAR WATB 240500Z 06007KT 9999 BKN018 30/16 Q1014 NOSIG=  
24-Aug-2022 SAID33 WATB 240600 METAR WATB 240600Z 17008KT 9999 BKN018 30/17 Q1013 NOSIG=  
25-Aug-2022 SAID33 WATB 250000 METAR WATB 250000Z 08003KT 8000 FEW017 26/18 Q1016 NOSIG=  
25-Aug-2022 SAID33 WATB 250100 METAR WATB 250100Z 12004KT 9999 FEW018 27/17 Q1016 NOSIG=  
25-Aug-2022 SAID33 WATB 250200 METAR WATB 250200Z 11009KT 9999 FEW018 28/17 Q1016 NOSIG=  
25-Aug-2022 SAID33 WATB 250300 METAR WATB 250300Z 18012KT 9999 FEW018 29/18 Q1016 NOSIG=  
25-Aug-2022 SAID33 WATB 250400 METAR WATB 250400Z 17012KT 9999 FEW019 29/18 Q1015 NOSIG=  
25-Aug-2022 SAID33 WATB 250500 METAR WATB 250500Z 18008KT 9999 FEW019 29/18 Q1014 NOSIG=  
25-Aug-2022 SAID33 WATB 250600 METAR WATB 250600Z 18009KT 9999 FEW018 29/20 Q1013 NOSIG=  
26-Aug-2022 SAID33 WATB 260000 METAR WATB 260000Z 08005KT 8000 FEW017 26/20 Q1015 NOSIG=  
26-Aug-2022 SAID33 WATB 260100 METAR WATB 260100Z 17008KT 8000 SCT017 26/19 Q1015 NOSIG=  
26-Aug-2022 SAID33 WATB 260200 METAR WATB 260200Z 14008KT 9999 SCT017 28/18 Q1015 NOSIG=  
26-Aug-2022 SAID33 WATB 260300 METAR WATB 260300Z 12008KT 9999 BKN017 28/19 Q1014 NOSIG=  
26-Aug-2022 SAID33 WATB 260400 METAR WATB 260400Z 06009KT 9999 BKN016 29/19 Q1013 NOSIG=  
26-Aug-2022 SAID33 WATB 260500 METAR WATB 260500Z 15010KT 9999 BKN017 27/20 Q1013 NOSIG=  
26-Aug-2022 SAID33 WATB 260600 METAR WATB 260600Z 02011KT 9999 BKN017 30/19 Q1011 NOSIG=  
27-Aug-2022 SAID33 WATB 270000 METAR WATB 270000Z 32003KT 8000 FEW018 25/19 Q1015 NOSIG=  
27-Aug-2022 SAID33 WATB 270100 METAR WATB 270100Z 36004KT 9999 FEW019 27/19 Q1015 NOSIG=  
27-Aug-2022 SAID33 WATB 270200 METAR WATB 270200Z 12005KT 9999 FEW019 29/20 Q1014 NOSIG=  
27-Aug-2022 SAID33 WATB 270300 METAR WATB 270300Z 08006KT 050V200 9999 SCT019 30/19 Q1014 NOSIG=  
27-Aug-2022 SAID33 WATB 270400 METAR WATB 270400Z 35007KT 330V060 9999 SCT018 31/18 Q1012 NOSIG=  
27-Aug-2022 SAID33 WATB 270500 METAR WATB 270500Z 18007KT 110V230 9999 BKN018 31/17 Q1011 NOSIG=  
27-Aug-2022 SAID33 WATB 270600 METAR WATB 270600Z 07009KT 9999 BKN018 31/18 Q1011 NOSIG=  
28-Aug-2022 SAID33 WATB 280000 METAR WATB 280000Z 05002KT 8000 FEW018 25/19 Q1015 NOSIG=  
28-Aug-2022 SAID33 WATB 280100 METAR WATB 280100Z 06006KT 8000 FEW018 27/20 Q1015 NOSIG=  
28-Aug-2022 SAID33 WATB 280200 METAR WATB 280200Z 03005KT 9999 SCT017 28/18 Q1015 NOSIG=  
28-Aug-2022 SAID33 WATB 280300 METAR WATB 280300Z 05006KT 340V100 9999 BKN017 31/19 Q1014 NOSIG=  
28-Aug-2022 SAID33 WATB 280400 METAR WATB 280400Z 23004KT 9999 BKN017 29/19 Q1013 NOSIG=  
28-Aug-2022 SAID33 WATB 280500 METAR WATB 280500Z 09010KT 070V140 9999 BKN017 31/20 Q1012 NOSIG=  
28-Aug-2022 SAID33 WATB 280600 METAR WATB 280600Z 12008KT 080V210 9999 BKN017 31/20 Q1012 NOSIG=  
29-Aug-2022 SAID33 WATB 290000 METAR WATB 290000Z 02003KT 8000 FEW017 25/19 Q1015 NOSIG=  
29-Aug-2022 SAID33 WATB 290100 METAR WATB 290100Z 05004KT 9999 FEW017 28/19 Q1015 NOSIG=  
29-Aug-2022 SAID33 WATB 290200 METAR WATB 290200Z 09008KT 9999 BKN018 29/20 Q1015 NOSIG=  
29-Aug-2022 SAID33 WATB 290300 METAR WATB 290300Z 35007KT 330V070 9999 BKN017 29/20 Q1014 NOSIG=  
29-Aug-2022 SAID33 WATB 290400 METAR WATB 290400Z 05006KT 9999 BKN018 32/19 Q1013 NOSIG=  
29-Aug-2022 SAID33 WATB 290500 METAR WATB 290500Z 06008KT 040V100 9999 BKN018 32/19 Q1012 NOSIG=  
29-Aug-2022 SAID33 WATB 290600 METAR WATB 290600Z 04010KT 9999 BKN017 32/20 Q1011 NOSIG=  
30-Aug-2022 SAID33 WATB 300000 METAR WATB 300000Z 10005KT 8000 SCT016 26/21 Q1014 NOSIG=  
30-Aug-2022 SAID33 WATB 300100 METAR WATB 300100Z 08006KT 9999 SCT016 27/21 Q1015 NOSIG=  
30-Aug-2022 SAID33 WATB 300200 METAR WATB 300200Z 15009KT 9999 SCT016 28/21 Q1014 NOSIG=  
30-Aug-2022 SAID33 WATB 300300 METAR WATB 300300Z 16009KT 9999 SCT017 28/21 Q1014 NOSIG=  
30-Aug-2022 SAID33 WATB 300400 METAR WATB 300400Z 15010KT 9999 SCT017 30/20 Q1013 NOSIG=  
30-Aug-2022 SAID33 WATB 300500 METAR WATB 300500Z 15008KT 100V220 9999 SCT017 30/20 Q1012 NOSIG=  
30-Aug-2022 SAID33 WATB 300600 METAR WATB 300600Z 13006KT 9999 FEW017 31/20 Q1011 NOSIG=  
31-Aug-2022 SAID33 WATB 310000 METAR WATB 310000Z 12004KT 8000 FEW016 26/22 Q1015 NOSIG=  
31-Aug-2022 SAID33 WATB 310100 METAR WATB 310100Z 03004KT 8000 FEW016 28/21 Q1015 NOSIG=  
31-Aug-2022 SAID33 WATB 310200 METAR WATB 310200Z 02007KT 350V050 8000 FEW017 30/20 Q1014 NOSIG=  
31-Aug-2022 SAID33 WATB 310300 METAR WATB 310300Z 05010KT 9999 BKN017 30/20 Q1014 NOSIG=  
31-Aug-2022 SAID33 WATB 310400 METAR WATB 310400Z 17006KT 110V210 9999 BKN017 31/20 Q1012 NOSIG=  
31-Aug-2022 SAID33 WATB 310500 METAR WATB 310500Z 06006KT 9999 BKN017 31/21 Q1011 NOSIG=  
31-Aug-2022 SAID33 WATB 310600 METAR WATB 310600Z 12009KT 090V160 9999 BKN016 30/23 Q1011 NOSIG=  
01-Sep-2022 SAID33 WATB 010000 METAR WATB 010000Z 04003KT 8000 FEW017 25/20 Q1016 NOSIG=  
01-Sep-2022 SAID33 WATB 010100 METAR WATB 010100Z 08003KT 8000 FEW017 28/21 Q1016 NOSIG=  
01-Sep-2022 SAID33 WATB 010200 METAR WATB 010200Z 12006KT 080V150 9999 SCT017 29/20 Q1015 NOSIG=  
01-Sep-2022 SAID33 WATB 010300 METAR WATB 010300Z 12008KT 070V130 9999 BKN017 30/20 Q1014 NOSIG=  
01-Sep-2022 SAID33 WATB 010400 METAR WATB 010400Z 12006KT 9999 BKN017 30/20 Q1014 NOSIG=  
01-Sep-2022 SAID33 WATB 010500 METAR WATB 010500Z 14010KT 100V190 9999 BKN017 30/19 Q1013 NOSIG=  
01-Sep-2022 SAID33 WATB 010600 METAR WATB 010600Z 17010KT 140V220 9999 SCT018 31/19 Q1013 NOSIG=  
02-Sep-2022 SAID33 WATB 020000 METAR WATB 020000Z 06004KT 8000 FEW017 26/22 Q1016 NOSIG=  
02-Sep-2022 SAID33 WATB 020100 METAR WATB 020100Z 07008KT 9999 FEW017 28/21 Q1016 NOSIG=  
02-Sep-2022 SAID33 WATB 020200 METAR WATB 020200Z 16008KT 9999 SCT017 29/20 Q1016 NOSIG=  
02-Sep-2022 SAID33 WATB 020300 METAR WATB 020300Z 08011KT 9999 BKN017 32/19 Q1015 NOSIG=  
02-Sep-2022 SAID33 WATB 020400 METAR WATB 020400Z 10010KT 9999 BKN018 32/19 Q1014 NOSIG=  
02-Sep-2022 SAID33 WATB 020500 METAR WATB 020500Z 11010KT 9999 SCT018 33/17 Q1013 NOSIG=  
02-Sep-2022 SAID33 WATB 020600 METAR WATB 020600Z 15009KT 110V190 9999 SCT018 31/19 Q1013 NOSIG=  
03-Sep-2022 SAID33 WATB 030000 METAR WATB 030000Z 30003KT 8000 FEW017 27/22 Q1015 NOSIG=  
03-Sep-2022 SAID33 WATB 030100 METAR WATB 030100Z 09004KT 9999 SCT017 28/22 Q1016 NOSIG=  
03-Sep-2022 SAID33 WATB 030200 METAR WATB 030200Z 06007KT 010V100 9999 SCT017 30/21 Q1015 NOSIG=  
03-Sep-2022 SAID33 WATB 030300 METAR WATB 030300Z 06007KT 9999 BKN017 30/20 Q1014 NOSIG=  
03-Sep-2022 SAID33 WATB 030400 METAR WATB 030400Z 08005KT 9999 BKN017 30/20 Q1013 NOSIG=  
03-Sep-2022 SAID33 WATB 030500 METAR WATB 030500Z 04006KT 9999 BKN017 31/20 Q1012 NOSIG=  
03-Sep-2022 SAID33 WATB 030600 METAR WATB 030600Z 15008KT 100V190 9999 BKN017 32/21 Q1012 NOSIG=  
04-Sep-2022 SAID33 WATB 040000 METAR WATB 040000Z 01003KT 9999 FEW016 27/22 Q1015 NOSIG=  
04-Sep-2022 SAID33 WATB 040100 METAR WATB 040100Z 14006KT 140V200 9999 BKN016 27/23 Q1016 NOSIG=  
04-Sep-2022 SAID33 WATB 040200 METAR WATB 040200Z 14005KT 9999 BKN016 29/23 Q1016 NOSIG=  
04-Sep-2022 SAID33 WATB 040300 METAR WATB 040300Z 35005KT 9999 BKN017 30/22 Q1015 NOSIG=  
04-Sep-2022 SAID33 WATB 040400 METAR WATB 040400Z 10005KT 360V200 9999 BKN017 31/22 Q1014 NOSIG=  
04-Sep-2022 SAID33 WATB 040500 METAR WATB 040500Z 15010KT 100V210 9999 BKN017 32/22 Q1013 NOSIG=  
04-Sep-2022 SAID33 WATB 040600 METAR WATB 040600Z 16010KT 9999 BKN017 32/22 Q1012 NOSIG=  
05-Sep-2022 SAID33 WATB 050000 METAR WATB 050000Z 03005KT 8000 SCT016 27/25 Q1016 NOSIG=  
05-Sep-2022 SAID33 WATB 050100 METAR WATB 050100Z 03004KT 8000 SCT016 28/23 Q1016 NOSIG=  
05-Sep-2022 SAID33 WATB 050200 METAR WATB 050200Z 10004KT 9999 BKN016 28/22 Q1016 NOSIG=  
05-Sep-2022 SAID33 WATB 050300 METAR WATB 050300Z 20005KT 150V230 9999 BKN017 31/21 Q1015 NOSIG=  
05-Sep-2022 SAID33 WATB 050400 METAR WATB 050400Z 25006KT 240V300 9999 BKN017 32/20 Q1014 NOSIG=  
05-Sep-2022 SAID33 WATB 050500 METAR WATB 050500Z 18008KT 9999 BKN017 31/20 Q1013 NOSIG=  
05-Sep-2022 SAID33 WATB 050600 METAR WATB 050600Z 14008KT 120V200 9999 BKN017 32/21 Q1012 NOSIG=  
06-Sep-2022 SAID33 WATB 060000 METAR WATB 060000Z 17003KT 8000 SCT017 28/27 Q1016 NOSIG=  
06-Sep-2022 SAID33 WATB 060100 METAR WATB 060100Z 18003KT 9999 SCT017 29/27 Q1017 NOSIG=  
06-Sep-2022 SAID33 WATB 060200 METAR WATB 060200Z 12003KT 9999 SCT015 31/26 Q1016 NOSIG=  
06-Sep-2022 SAID33 WATB 060300 METAR WATB 060300Z 01003KT 9999 BKN016 30/21 Q1015 NOSIG=  
06-Sep-2022 SAID33 WATB 060400 METAR WATB 060400Z 07009KT 9999 BKN017 31/22 Q1014 NOSIG=  
06-Sep-2022 SAID33 WATB 060500 METAR WATB 060500Z 07006KT 050V130 9999 BKN017 31/22 Q1013 NOSIG=  
06-Sep-2022 SAID33 WATB 060600 METAR WATB 060600Z 07010KT 9999 BKN017 32/23 Q1012 NOSIG=  
07-Sep-2022 SAID33 WATB 070000 METAR COR WATB 070000Z 17005KT 8000 FEW016 23/20 Q1017 NOSIG=  
07-Sep-2022 SAID33 WATB 070100 METAR WATB 070100Z 18005KT 130V210 8000 FEW017 28/21 Q1017 NOSIG=  
07-Sep-2022 SAID33 WATB 070200 METAR WATB 070200Z 09005KT 9999 SCT017 29/20 Q1017 NOSIG=  
07-Sep-2022 SAID33 WATB 070300 METAR WATB 070300Z 09006KT 080V140 9999 BKN017 31/19 Q1016 NOSIG=  
07-Sep-2022 SAID33 WATB 070400 METAR WATB 070400Z 10009KT 070V130 9999 BKN016 30/20 Q1015 NOSIG=  
07-Sep-2022 SAID33 WATB 070500 METAR WATB 070500Z 05010KT 8000 BKN016 29/21 Q1015 NOSIG=  
07-Sep-2022 SAID33 WATB 070600 METAR WATB 070600Z 18009KT 130V210 8000 BKN016 27/21 Q1014 NOSIG=  
08-Sep-2022 SAID33 WATB 080000 METAR WATB 080000Z 04002KT 8000 FEW017 25/21 Q1017 NOSIG=  
08-Sep-2022 SAID33 WATB 080100 METAR WATB 080100Z 09004KT 9999 FEW018 28/20 Q1018 NOSIG=  
08-Sep-2022 SAID33 WATB 080200 METAR WATB 080200Z 11005KT 070V140 9999 FEW018 30/20 Q1017 NOSIG=  
08-Sep-2022 SAID33 WATB 080300 METAR WATB 080300Z 05007KT 9999 FEW018 31/19 Q1016 NOSIG=  
08-Sep-2022 SAID33 WATB 080400 METAR WATB 080400Z 11005KT 050V150 9999 SCT019 32/19 Q1015 NOSIG=  
08-Sep-2022 SAID33 WATB 080500 METAR WATB 080500Z 12009KT 090V180 9999 BKN019 32/21 Q1013 NOSIG=  
08-Sep-2022 SAID33 WATB 080600 METAR WATB 080600Z 16014KT 9999 BKN018 31/21 Q1013 NOSIG=  
09-Sep-2022 SAID33 WATB 090000 METAR WATB 090000Z 09002KT 8000 FEW016 ///// Q//// NOSIG=  
09-Sep-2022 SAID33 WATB 090100 METAR WATB 090100Z 04003KT 9999 FEW018 29/20 Q1017 NOSIG=  
09-Sep-2022 SAID33 WATB 090200 METAR WATB 090200Z 05006KT 010V090 9999 FEW018 31/19 Q1017 NOSIG=  
09-Sep-2022 SAID33 WATB 090300 METAR WATB 090300Z 04008KT 9999 FEW018 31/19 Q1017 NOSIG=  
09-Sep-2022 SAID33 WATB 090400 METAR WATB 090400Z 18003KT 9999 SCT018 32/16 Q1016 NOSIG=  
09-Sep-2022 SAID33 WATB 090500 METAR WATB 090500Z 06008KT 9999 BKN018 31/20 Q1015 NOSIG=  
09-Sep-2022 SAID33 WATB 090600 METAR WATB 090600Z 07008KT 050V120 9999 BKN018 32/19 Q1014 NOSIG=  
10-Sep-2022 SAID33 WATB 100000 METAR WATB 100000Z 01004KT 8000 FEW017 26/21 Q1017 NOSIG=  
10-Sep-2022 SAID33 WATB 100100 METAR WATB 100100Z 33004KT 9999 FEW018 28/18 Q1017 NOSIG=  
10-Sep-2022 SAID33 WATB 100200 METAR WATB 100200Z 05005KT 9999 FEW018 30/16 Q1017 NOSIG=  
10-Sep-2022 SAID33 WATB 100300 METAR WATB 100300Z 02008KT 320V050 9999 FEW018 32/17 Q1017 NOSIG=  
10-Sep-2022 SAID33 WATB 100400 METAR WATB 100400Z 03010KT 360V060 9999 FEW019 33/18 Q1014 NOSIG=  
10-Sep-2022 SAID33 WATB 100500 METAR WATB 100500Z 16013KT 9999 BKN018 31/21 Q1013 NOSIG=  
10-Sep-2022 SAID33 WATB 100600 METAR WATB 100600Z 13010KT 110V190 9999 SCT017 31/21 Q1013 NOSIG=  
11-Sep-2022 SAID33 WATB 110000 METAR WATB 110000Z 32004KT 8000 FEW017 25/20 Q1016 NOSIG=  
11-Sep-2022 SAID33 WATB 110100 METAR WATB 110100Z 29004KT 9999 FEW018 27/20 Q1017 NOSIG=  
11-Sep-2022 SAID33 WATB 110200 METAR WATB 110200Z 09005KT 050V140 9999 BKN017 28/20 Q1017 NOSIG=  
11-Sep-2022 SAID33 WATB 110300 METAR WATB 110300Z 07004KT 9999 BKN017 29/20 Q1016 NOSIG=  
11-Sep-2022 SAID33 WATB 110400 METAR WATB 110400Z 16004KT 9999 BKN017 31/20 Q1014 NOSIG=  
11-Sep-2022 SAID33 WATB 110500 METAR WATB 110500Z 11008KT 9999 BKN017 31/20 Q1014 NOSIG=  
11-Sep-2022 SAID33 WATB 110600 METAR WATB 110600Z 16013KT 120V210 9999 BKN017 31/20 Q1013 NOSIG=  
12-Sep-2022 SAID33 WATB 120000 METAR WATB 120000Z 09004KT 9999 FEW017 26/21 Q1016 NOSIG=  
12-Sep-2022 SAID33 WATB 120100 METAR WATB 120100Z 05004KT 9999 FEW017 28/21 Q1016 NOSIG=  
12-Sep-2022 SAID33 WATB 120200 METAR WATB 120200Z 06005KT 9999 SCT018 31/20 Q1016 NOSIG=  
12-Sep-2022 SAID33 WATB 120300 METAR WATB 120300Z 04006KT 9999 SCT018 30/19 Q1015 NOSIG=  
12-Sep-2022 SAID33 WATB 120400 METAR WATB 120400Z 31004KT 9999 SCT018 32/20 Q1014 NOSIG=  
12-Sep-2022 SAID33 WATB 120500 METAR WATB 120500Z 09008KT 050V110 9999 SCT018 32/20 Q1013 NOSIG=  
12-Sep-2022 SAID33 WATB 120600 METAR WATB 120600Z 12008KT 9999 SCT018 33/18 Q1012 NOSIG=  
13-Sep-2022 SAID33 WATB 130000 METAR WATB 130000Z 13007KT 9999 FEW016 28/23 Q1018 NOSIG=  
13-Sep-2022 SAID33 WATB 130100 METAR WATB 130100Z 09006KT 9999 FEW016 30/22 Q1018 NOSIG=  
13-Sep-2022 SAID33 WATB 130200 METAR WATB 130200Z 08007KT 9999 FEW017 31/21 Q1018 NOSIG=  
13-Sep-2022 SAID33 WATB 130300 METAR WATB 130300Z 040V130 06006KT 9999 FEW018 33/21 Q1017 NOSIG=  
13-Sep-2022 SAID33 WATB 130400 METAR WATB 130400Z 09007KT 020V140 9999 FEW018 34/19 Q1016 NOSIG=  
13-Sep-2022 SAID33 WATB 130500 METAR WATB 130500Z 13007KT 090V170 9999 FEW018 35/18 Q1015 NOSIG=  
13-Sep-2022 SAID33 WATB 130600 METAR WATB 130600Z 10012KT 9999 FEW018 34/17 Q1014 NOSIG=  
14-Sep-2022 SAID33 WATB 140000 METAR WATB 140000Z 17005KT 9999 FEW016 29/22 Q1018 NOSIG=  
14-Sep-2022 SAID33 WATB 140100 METAR WATB 140100Z 13008KT 100V190 9999 SCT017 31/22 Q1019 NOSIG=  
14-Sep-2022 SAID33 WATB 140200 METAR WATB 140200Z 20006KT 160V220 9999 SCT017 31/21 Q1018 NOSIG=  
14-Sep-2022 SAID33 WATB 140300 METAR WATB 140300Z 14008KT 090V180 9999 SCT018 32/21 Q1018 NOSIG=  
14-Sep-2022 SAID33 WATB 140400 METAR WATB 140400Z 15012KT 110V190 9999 SCT018 32/21 Q1017 NOSIG=  
14-Sep-2022 SAID33 WATB 140500 METAR WATB 140500Z 15011KT 110V180 9999 SCT018 31/21 Q1017 NOSIG=  
14-Sep-2022 SAID33 WATB 140600 METAR WATB 140600Z 15011KT 9999 SCT018 32/20 Q1016 NOSIG=  
15-Sep-2022 SAID33 WATB 150000 METAR WATB 150000Z 16003KT 9999 SCT016 27/22 Q1018 NOSIG=  
15-Sep-2022 SAID33 WATB 150100 METAR WATB 150100Z 16009KT 9999 SCT017 28/21 Q1018 NOSIG=  
15-Sep-2022 SAID33 WATB 150200 METAR WATB 150200Z 19008KT 130V240 9999 BKN017 30/21 Q1018 NOSIG=  
15-Sep-2022 SAID33 WATB 150300 METAR WATB 150300Z 17013KT 9999 BKN017 30/21 Q1017 NOSIG=  
15-Sep-2022 SAID33 WATB 150400 METAR WATB 150400Z 12009KT 100V160 9999 SCT017 30/21 Q1016 NOSIG=  
15-Sep-2022 SAID33 WATB 150500 METAR WATB 150500Z 15009KT 110V170 9999 BKN017 31/20 Q1015 NOSIG=  
15-Sep-2022 SAID33 WATB 150600 METAR WATB 150600Z 13008KT 9999 SCT017 30/19 Q1015 NOSIG=  
16-Sep-2022 SAID33 WATB 160000 METAR WATB 160000Z 08002KT 9999 FEW017 27/18 Q1017 NOSIG=  
16-Sep-2022 SAID33 WATB 160100 METAR WATB 160100Z 17006KT 070V230 9999 FEW019 30/18 Q1017 NOSIG=  
16-Sep-2022 SAID33 WATB 160200 METAR WATB 160200Z 14006KT 110V170 9999 FEW019 33/19 Q1016 NOSIG=  
16-Sep-2022 SAID33 WATB 160300 METAR WATB 160300Z 12010KT 100V170 9999 FEW019 33/18 Q1015 NOSIG=  
16-Sep-2022 SAID33 WATB 160400 METAR WATB 160400Z 17009KT 9999 FEW019 33/18 Q1014 NOSIG=  
16-Sep-2022 SAID33 WATB 160500 METAR WATB 160500Z 17010KT 120V210 9999 FEW019 33/17 Q1013 NOSIG=  
16-Sep-2022 SAID33 WATB 160600 METAR WATB 160600Z 12009KT 9999 FEW019 33/16 Q1013 NOSIG=  
17-Sep-2022 SAID33 WATB 170000 METAR WATB 170000Z 07002KT 9999 FEW018 29/20 Q1016 NOSIG=  
17-Sep-2022 SAID33 WATB 170100 METAR WATB 170100Z 12005KT 9999 FEW018 31/20 Q1016 NOSIG=  
17-Sep-2022 SAID33 WATB 170200 METAR WATB 170200Z 04004KT 280V060 9999 FEW019 33/19 Q1016 NOSIG=  
17-Sep-2022 SAID33 WATB 170300 METAR WATB 170300Z 06012KT 040V100 9999 FEW019 33/18 Q1015 NOSIG=  
17-Sep-2022 SAID33 WATB 170400 METAR WATB 170400Z 10009KT 9999 FEW019 35/17 Q1014 NOSIG=  
17-Sep-2022 SAID33 WATB 170500 METAR WATB 170500Z 11009KT 070V170 9999 SCT019 36/14 Q1013 NOSIG=  
17-Sep-2022 SAID33 WATB 170600 METAR WATB 170600Z 05013KT 9999 SCT019 35/17 Q1012 NOSIG=  
18-Sep-2022 SAID33 WATB 180000 METAR WATB 180000Z 04002KT 9999 FEW018 26/20 Q1017 NOSIG=  
18-Sep-2022 SAID33 WATB 180100 METAR WATB 180100Z 23004KT 9999 FEW018 30/21 Q1017 NOSIG=  
18-Sep-2022 SAID33 WATB 180200 METAR WATB 180200Z 12009KT 9999 SCT018 31/22 Q1016 NOSIG=  
18-Sep-2022 SAID33 WATB 180300 METAR WATB 180300Z 19004KT 150V240 9999 SCT018 32/21 Q1015 NOSIG=  
18-Sep-2022 SAID33 WATB 180400 METAR WATB 180400Z 20005KT 9999 SCT018 34/18 Q1014 NOSIG=  
18-Sep-2022 SAID33 WATB 180500 METAR WATB 180500Z 12008KT 060V170 9999 SCT018 36/15 Q1013 NOSIG=  
19-Sep-2022 SAID33 WATB 190000 METAR WATB 190000Z 01004KT 9999 FEW017 28/20 Q1017 NOSIG=  
19-Sep-2022 SAID33 WATB 190100 METAR WATB 190100Z 14004KT 100V170 9999 FEW018 29/21 Q1017 NOSIG=  
19-Sep-2022 SAID33 WATB 190200 METAR WATB 190200Z 04008KT 9999 SCT018 31/20 Q1016 NOSIG=  
19-Sep-2022 SAID33 WATB 190300 METAR WATB 190300Z 12008KT 050V210 9999 BKN018 33/21 Q1015 NOSIG=  
19-Sep-2022 SAID33 WATB 190400 METAR WATB 190400Z 10008KT 9999 BKN018 32/19 Q1014 NOSIG=  
19-Sep-2022 SAID33 WATB 190500 METAR WATB 190500Z 11008KT 070V190 9999 BKN018 32/19 Q1013 NOSIG=  
19-Sep-2022 SAID33 WATB 190600 METAR WATB 190600Z 15009KT 9999 BKN018 33/19 Q1012 NOSIG=  
20-Sep-2022 SAID33 WATB 200000 METAR WATB 200000Z 14006KT 9999 BKN016 27/21 Q1017 NOSIG=  
20-Sep-2022 SAID33 WATB 200100 METAR WATB 200100Z 10013KT 9999 BKN016 29/22 Q1017 NOSIG=  
20-Sep-2022 SAID33 WATB 200200 METAR WATB 200200Z 16010KT 9999 BKN016 28/21 Q1017 NOSIG=  
20-Sep-2022 SAID33 WATB 200300 METAR WATB 200300Z 18012KT 9999 SCT016 30/21 Q1016 NOSIG=  
20-Sep-2022 SAID33 WATB 200400 METAR WATB 200400Z 14011KT 100V180 9999 SCT016 29/21 Q1015 NOSIG=  
20-Sep-2022 SAID33 WATB 200500 METAR WATB 200500Z 14010KT 120V180 9999 BKN018 29/21 Q1014 NOSIG=  
20-Sep-2022 SAID33 WATB 200600 METAR WATB 200600Z 15010KT 9999 BKN018 28/20 Q1013 NOSIG=  
21-Sep-2022 SAID33 WATB 210000 METAR WATB 210000Z 01004KT 9999 FEW017 28/20 Q1016 NOSIG=  
21-Sep-2022 SAID33 WATB 210100 METAR WATB 210100Z 11005KT 9999 FEW017 30/20 Q1016 NOSIG=  
21-Sep-2022 SAID33 WATB 210200 METAR WATB 210200Z 04009KT 9999 FEW017 31/21 Q1016 NOSIG=  
21-Sep-2022 SAID33 WATB 210300 METAR WATB 210300Z 29005KT 9999 BKN017 31/21 Q1015 NOSIG=  
21-Sep-2022 SAID33 WATB 210400 METAR WATB 210400Z 10008KT 080V140 9999 BKN017 34/21 Q1013 NOSIG=  
21-Sep-2022 SAID33 WATB 210500 METAR WATB 210500Z 08010KT 050V110 9999 BKN018 34/21 Q1012 NOSIG=  
21-Sep-2022 SAID33 WATB 210600 METAR WATB 210600Z 13007KT 100V200 9999 BKN018 34/22 Q1012 NOSIG=  
22-Sep-2022 SAID33 WATB 220000 METAR WATB 220000Z 12007KT 100V160 9999 FEW016 28/22 Q1016 NOSIG=  
22-Sep-2022 SAID33 WATB 220100 METAR WATB 220100Z 13008KT 110V170 9999 SCT016 29/23 Q1016 NOSIG=  
22-Sep-2022 SAID33 WATB 220200 METAR WATB 220200Z 14007KT 090V170 9999 SCT016 31/23 Q1016 NOSIG=  
22-Sep-2022 SAID33 WATB 220300 METAR WATB 220300Z 13012KT 9999 BKN016 32/22 Q1015 NOSIG=  
22-Sep-2022 SAID33 WATB 220400 METAR WATB 220400Z 10011KT 070V180 9999 BKN017 32/21 Q1014 NOSIG=  
22-Sep-2022 SAID33 WATB 220500 METAR WATB 220500Z 12013KT 060V190 9999 BKN017 32/21 Q1013 NOSIG=  
22-Sep-2022 SAID33 WATB 220600 METAR WATB 220600Z 14011KT 9999 SCT018 32/21 Q1012 NOSIG=  
23-Sep-2022 SAID33 WATB 230000 METAR WATB 230000Z 35003KT 9999 FEW017 28/21 Q1015 NOSIG=  
23-Sep-2022 SAID33 WATB 230100 METAR WATB 230100Z 08006KT 9999 FEW019 32/18 Q1015 NOSIG=  
23-Sep-2022 SAID33 WATB 230200 METAR WATB 230200Z 10008KT 9999 FEW019 34/16 Q1014 NOSIG=  
23-Sep-2022 SAID33 WATB 230300 METAR WATB 230300Z 10008KT 080V150 9999 FEW019 34/17 Q1014 NOSIG=  
23-Sep-2022 SAID33 WATB 230400 METAR WATB 230400Z 07012KT 050V110 9999 FEW019 35/19 Q1013 NOSIG=  
23-Sep-2022 SAID33 WATB 230500 METAR COR WATB 230500Z 03011KT 010V070 9999 FEW019 34/20 Q1012 NOSIG=  
24-Sep-2022 SAID33 WATB 240000 METAR WATB 240000Z 07003KT 9999 FEW018 27/21 Q1015 NOSIG=  
24-Sep-2022 SAID33 WATB 240100 METAR WATB 240100Z 36003KT 9999 FEW018 30/20 Q1015 NOSIG=  
24-Sep-2022 SAID33 WATB 240200 METAR WATB 240200Z 16004KT 9999 FEW018 31/20 Q1015 NOSIG=  
24-Sep-2022 SAID33 WATB 240300 METAR WATB 240300Z 14009KT 110V220 9999 FEW019 33/20 Q1014 NOSIG=  
24-Sep-2022 SAID33 WATB 240400 METAR WATB 240400Z 09010KT 9999 SCT019 35/18 Q1012 NOSIG=  
24-Sep-2022 SAID33 WATB 240500 METAR WATB 240500Z 01013KT 9999 SCT018 34/14 Q1012 NOSIG=  
25-Sep-2022 SAID33 WATB 250000 METAR WATB 250000Z 30002KT 9999 FEW018 27/21 Q1016 NOSIG=  
25-Sep-2022 SAID33 WATB 250100 METAR WATB 250100Z 09002KT 9999 FEW018 29/20 Q1016 NOSIG=  
25-Sep-2022 SAID33 WATB 250200 METAR WATB 250200Z 13007KT 090V150 9999 FEW018 32/19 Q1015 NOSIG=  
25-Sep-2022 SAID33 WATB 250300 METAR WATB 250300Z 10007KT 9999 FEW018 33/19 Q1014 NOSIG=  
25-Sep-2022 SAID33 WATB 250400 METAR WATB 250400Z 15010KT 110V170 9999 FEW018 34/19 Q1013 NOSIG=  
25-Sep-2022 SAID33 WATB 250500 METAR WATB 250500Z 18009KT 9999 FEW018 34/16 Q1012 NOSIG=  
25-Sep-2022 SAID33 WATB 250600 METAR WATB 250600Z 15008KT 110V180 9999 FEW018 33/17 Q1011 NOSIG=  
26-Sep-2022 SAID33 WATB 260000 METAR WATB 260000Z 35003KT 9999 FEW017 28/17 Q1015 NOSIG=  
26-Sep-2022 SAID33 WATB 260100 METAR WATB 260100Z 08004KT 9999 FEW018 30/18 Q1015 NOSIG=  
26-Sep-2022 SAID33 WATB 260200 METAR WATB 260200Z 11007KT 060V200 9999 FEW018 32/19 Q1015 NOSIG=  
26-Sep-2022 SAID33 WATB 260300 METAR WATB 260300Z 16007KT 130V220 9999 SCT018 32/19 Q1014 NOSIG=  
26-Sep-2022 SAID33 WATB 260400 METAR WATB 260400Z 16010KT 140V210 9999 SCT018 33/18 Q1013 NOSIG=  
26-Sep-2022 SAID33 WATB 260500 METAR WATB 260500Z 15009KT 9999 SCT018 32/18 Q1012 NOSIG=  
26-Sep-2022 SAID33 WATB 260600 METAR WATB 260600Z 12011KT 9999 SCT018 33/17 Q1011 NOSIG=  
27-Sep-2022 SAID33 WATB 270000 METAR WATB 270000Z 01005KT 9999 FEW017 27/20 Q1014 NOSIG=  
27-Sep-2022 SAID33 WATB 270100 METAR WATB 270100Z 07004KT 010V100 9999 FEW018 29/19 Q1014 NOSIG=  
27-Sep-2022 SAID33 WATB 270200 METAR WATB 270200Z 08008KT 040V170 9999 FEW018 32/19 Q1014 NOSIG=  
27-Sep-2022 SAID33 WATB 270300 METAR WATB 270300Z 19003KT 9999 SCT018 31/20 Q1013 NOSIG=  
27-Sep-2022 SAID33 WATB 270400 METAR WATB 270400Z 08008KT 010V100 9999 BKN018 33/19 Q1012 NOSIG=  
27-Sep-2022 SAID33 WATB 270500 METAR WATB 270500Z 11006KT 080V140 9999 BKN018 34/19 Q1010 NOSIG=  
27-Sep-2022 SAID33 WATB 270600 METAR WATB 270600Z 05012KT 020V080 9999 BKN018 33/21 Q1010 NOSIG=  
28-Sep-2022 SAID33 WATB 280000 METAR WATB 280000Z 04004KT 8000 FEW017 28/21 Q1014 NOSIG=  
28-Sep-2022 SAID33 WATB 280100 METAR WATB 280100Z 02005KT 350V050 8000 FEW018 29/21 Q1014 NOSIG=  
28-Sep-2022 SAID33 WATB 280200 METAR WATB 280200Z 06005KT 9999 SCT018 31/21 Q1013 NOSIG=  
28-Sep-2022 SAID33 WATB 280300 METAR WATB 280300Z 08007KT 9999 BKN018 31/20 Q1012 NOSIG=  
28-Sep-2022 SAID33 WATB 280400 METAR WATB 280400Z 07006KT 050V130 9999 BKN018 33/21 Q1011 NOSIG=  
28-Sep-2022 SAID33 WATB 280500 METAR WATB 280500Z 04012KT 9999 BKN018 33/21 Q1010 NOSIG=  
28-Sep-2022 SAID33 WATB 280600 METAR WATB 280600Z 03007KT 9999 BKN018 32/21 Q1009 NOSIG=  
29-Sep-2022 SAID33 WATB 290000 METAR WATB 290000Z 07002KT 8000 SCT015 28/23 Q1014 NOSIG=  
29-Sep-2022 SAID33 WATB 290100 METAR WATB 290100Z 11006KT 090V150 8000 BKN016 29/22 Q1014 NOSIG=  
29-Sep-2022 SAID33 WATB 290200 METAR WATB 290200Z 25002KT 9999 BKN017 29/22 Q1013 NOSIG=  
29-Sep-2022 SAID33 WATB 290300 METAR WATB 290300Z 03009KT 9999 BKN017 31/22 Q1013 NOSIG=  
29-Sep-2022 SAID33 WATB 290400 METAR WATB 290400Z 04011KT 9999 BKN018 33/22 Q1012 NOSIG=  
29-Sep-2022 SAID33 WATB 290500 METAR WATB 290500Z 05012KT 9999 SCT018 32/22 Q1011 NOSIG=  
29-Sep-2022 SAID33 WATB 290600 METAR WATB 290600Z 05011KT 020V080 9999 BKN018 34/21 Q1011 NOSIG=  
30-Sep-2022 SAID33 WATB 300000 METAR WATB 300000Z 14005KT 090V170 9999 SCT016 28/22 Q1015 NOSIG=  
30-Sep-2022 SAID33 WATB 300100 METAR WATB 300100Z 09006KT 9999 BKN016 29/23 Q1015 NOSIG=  
30-Sep-2022 SAID33 WATB 300200 METAR WATB 300200Z 06003KT 9999 BKN015 31/23 Q1015 NOSIG=  
30-Sep-2022 SAID33 WATB 300300 METAR WATB 300300Z 18003KT 9999 BKN015 30/21 Q1015 NOSIG=  
30-Sep-2022 SAID33 WATB 300400 METAR WATB 300400Z 35005KT 9999 BKN016 31/20 Q1014 NOSIG=  
30-Sep-2022 SAID33 WATB 300500 METAR WATB 300500Z 35007KT 320V020 9999 BKN016 30/20 Q1013 NOSIG=  
30-Sep-2022 SAID33 WATB 300600 METAR WATB 300600Z 05009KT 020V090 9999 BKN016 31/20 Q1012 NOSIG=  
01-Oct-2022 SAID33 WATB 010000 METAR WATB 010000Z 05003KT 9999 FEW016 27/22 Q1015 NOSIG=  
01-Oct-2022 SAID33 WATB 010100 METAR WATB 010100Z 06006KT 9999 FEW016 29/22 Q1015 NOSIG=  
01-Oct-2022 SAID33 WATB 010200 METAR WATB 010200Z 04005KT 360V100 9999 SCT016 32/21 Q1014 NOSIG=  
01-Oct-2022 SAID33 WATB 010300 METAR WATB 010300Z 36010KT 280V040 8000 BKN017 32/20 Q1014 NOSIG=  
01-Oct-2022 SAID33 WATB 010400 METAR WATB 010400Z 01009KT 7000 -RA BKN015 27/23 Q1013 NOSIG=  
01-Oct-2022 SAID33 WATB 010500 METAR WATB 010500Z 20006KT 5000 -TSRA FEW011CB BKN014 24/24 Q1013 CB TO E AND S=  
01-Oct-2022 SAID33 WATB 010600 METAR WATB 010600Z 24004KT 7000 BKN014 25/23 Q1012 RETSRA NOSIG=  
02-Oct-2022 SAID33 WATB 020000 METAR WATB 020000Z 09004KT 9999 FEW016 26/22 Q1014 NOSIG=  
02-Oct-2022 SAID33 WATB 020100 METAR WATB 020100Z 02004KT 9999 FEW017 29/21 Q1014 NOSIG=  
02-Oct-2022 SAID33 WATB 020200 METAR WATB 020200Z 07005KT 010V130 9999 FEW017 30/21 Q1013 NOSIG=  
02-Oct-2022 SAID33 WATB 020300 METAR WATB 020300Z 07007KT 040V100 9999 BKN017 32/21 Q1012 NOSIG=  
02-Oct-2022 SAID33 WATB 020400 METAR WATB 020400Z 01008KT 9999 BKN017 31/20 Q1011 NOSIG=  
02-Oct-2022 SAID33 WATB 020500 METAR WATB 020500Z 15012KT 120V180 9999 BKN017 33/21 Q1010 NOSIG=  
02-Oct-2022 SAID33 WATB 020600 METAR WATB 020600Z 14011KT 9999 BKN016 30/21 Q1010 NOSIG=  
03-Oct-2022 SAID33 WATB 030000 METAR WATB 030000Z 02005KT 9999 FEW016 26/22 Q1014 NOSIG=  
03-Oct-2022 SAID33 WATB 030100 METAR WATB 030100Z 31003KT 9999 FEW017 29/19 Q1014 NOSIG=  
03-Oct-2022 SAID33 WATB 030200 METAR WATB 030200Z 04005KT 9999 FEW017 30/20 Q1013 NOSIG=  
03-Oct-2022 SAID33 WATB 030300 METAR WATB 030300Z 08007KT 040V100 9999 BKN017 33/21 Q1013 NOSIG=  
03-Oct-2022 SAID33 WATB 030400 METAR WATB 030400Z 09004KT 9999 BKN017 32/20 Q1012 NOSIG=  
03-Oct-2022 SAID33 WATB 030500 METAR WATB 030500Z 10012KT 9999 BKN016 29/22 Q1011 NOSIG=  
03-Oct-2022 SAID33 WATB 030600 METAR WATB 030600Z 27005KT 6000 -TSRA FEW012CB BKN014 25/24 Q1011 RMK CB TO N=  
04-Oct-2022 SAID33 WATB 040000 METAR WATB 040000Z 03005KT 9999 FEW015 27/23 Q1015 NOSIG=  
04-Oct-2022 SAID33 WATB 040100 METAR WATB 040100Z 03002KT 9999 FEW016 29/23 Q1015 NOSIG=  
04-Oct-2022 SAID33 WATB 040200 METAR WATB 040200Z 10005KT 060V150 9999 SCT015 30/23 Q1015 NOSIG=  
04-Oct-2022 SAID33 WATB 040300 METAR WATB 040300Z 09005KT 040V180 9999 BKN016 32/22 Q1014 NOSIG=  
04-Oct-2022 SAID33 WATB 040400 METAR WATB 040400Z 15007KT 110V180 9999 BKN017 30/23 Q1013 NOSIG=  
04-Oct-2022 SAID33 WATB 040500 METAR WATB 040500Z 16009KT 9999 BKN016 31/22 Q1011 NOSIG=  
04-Oct-2022 SAID33 WATB 040600 METAR WATB 040600Z 01005G17KT 6000 -RA BKN014 28/24 Q1011 NOSIG=  
05-Oct-2022 SAID33 WATB 050000 METAR WATB 050000Z 14002KT 9999 FEW016 27/22 Q1014 NOSIG=  
05-Oct-2022 SAID33 WATB 050100 METAR WATB 050100Z 09005KT 050V120 9999 FEW015 29/24 Q1015 NOSIG=  
05-Oct-2022 SAID33 WATB 050200 METAR COR WATB 050200Z 02007KT 330V050 050V120 9999 BKN015 29/23 Q1014 NOSIG=  
05-Oct-2022 SAID33 WATB 050300 METAR WATB 050300Z 16006KT 9999 BKN015 30/22 Q1013 NOSIG=  
05-Oct-2022 SAID33 WATB 050400 METAR WATB 050400Z 13005KT 9999 BKN017 30/22 Q1012 NOSIG=  
05-Oct-2022 SAID33 WATB 050500 METAR WATB 050500Z 15005KT 120V180 9999 BKN017 32/22 Q1011 NOSIG=  
05-Oct-2022 SAID33 WATB 050600 METAR WATB 050600Z 14009KT 7000 -RA BKN017 29/25 Q1010 NOSIG=  
06-Oct-2022 SAID33 WATB 060000 METAR WATB 060000Z 34002KT 9999 FEW016 26/22 Q1016 NOSIG=  
06-Oct-2022 SAID33 WATB 060100 METAR WATB 060100Z 35003KT 9999 FEW016 27/23 Q1016 NOSIG=  
06-Oct-2022 SAID33 WATB 060200 METAR WATB 060200Z 10006KT 050V150 9999 SCT016 29/23 Q1016 NOSIG=  
06-Oct-2022 SAID33 WATB 060300 METAR WATB 060300Z 16005KT 140V210 9999 BKN017 30/22 Q1015 NOSIG=  
06-Oct-2022 SAID33 WATB 060400 METAR WATB 060400Z 01004KT 9999 BKN017 30/23 Q1014 NOSIG=  
06-Oct-2022 SAID33 WATB 060500 METAR WATB 060500Z 10006KT 050V150 8000 VCSH BKN016 30/23 Q1013 NOSIG RMK RA TO E=  
06-Oct-2022 SAID33 WATB 060600 METAR WATB 060600Z 22004KT 6000 -RA BKN015 26/24 Q1012 NOSIG=  
07-Oct-2022 SAID33 WATB 070000 METAR WATB 070000Z 11003KT 9999 BKN016 26/23 Q1015 NOSIG=  
07-Oct-2022 SAID33 WATB 070100 METAR WATB 070100Z 12006KT 9999 BKN016 29/24 Q1015 NOSIG=  
07-Oct-2022 SAID33 WATB 070200 METAR WATB 070200Z 10007KT 070V150 9999 BKN016 30/24 Q1015 NOSIG=  
07-Oct-2022 SAID33 WATB 070300 METAR WATB 070300Z 11007KT 020V180 9999 BKN016 31/24 Q1014 NOSIG=  
07-Oct-2022 SAID33 WATB 070400 METAR WATB 070400Z 15008KT 080V180 9999 BKN017 31/23 Q1013 NOSIG=  
07-Oct-2022 SAID33 WATB 070500 METAR WATB 070500Z 13010KT 9999 SCT017 31/23 Q1012 NOSIG=  
07-Oct-2022 SAID33 WATB 070600 METAR WATB 070600Z 16009KT 100V210 9999 BKN017 32/23 Q1011 NOSIG=  
08-Oct-2022 SAID33 WATB 080000 METAR WATB 080000Z 09003KT 9999 FEW016 28/24 Q1015 NOSIG=  
08-Oct-2022 SAID33 WATB 080100 METAR WATB 080100Z 08004KT 9999 FEW017 30/23 Q1015 NOSIG=  
08-Oct-2022 SAID33 WATB 080200 METAR WATB 080200Z 06005KT 9999 BKN017 31/23 Q1015 NOSIG=  
08-Oct-2022 SAID33 WATB 080300 METAR WATB 080300Z 08006KT 010V140 9999 BKN017 32/23 Q1014 NOSIG=  
08-Oct-2022 SAID33 WATB 080400 METAR WATB 080400Z 12006KT 100V160 9999 BKN018 32/22 Q1013 NOSIG=  
08-Oct-2022 SAID33 WATB 080500 METAR WATB 080500Z 08008KT 9999 BKN018 33/22 Q1012 NOSIG=  
08-Oct-2022 SAID33 WATB 080600 METAR WATB 080600Z 11006KT 080V140 9999 BKN018 32/23 Q1011 NOSIG=  
09-Oct-2022 SAID33 WATB 090000 METAR WATB 090000Z 12003KT 9999 FEW017 30/24 Q1015 NOSIG=  
09-Oct-2022 SAID33 WATB 090100 METAR WATB 090100Z 16008KT 120V180 9999 SCT017 31/24 Q1015 NOSIG=  
09-Oct-2022 SAID33 WATB 090200 METAR WATB 090200Z 13007KT 9999 BKN017 31/23 Q1015 NOSIG=  
09-Oct-2022 SAID33 WATB 090300 METAR WATB 090300Z 08007KT 050V130 9999 BKN018 31/23 Q1014 NOSIG=  
09-Oct-2022 SAID33 WATB 090400 METAR WATB 090400Z 07009KT 9999 SCT018 31/22 Q1014 NOSIG=  
09-Oct-2022 SAID33 WATB 090500 METAR WATB 090500Z 11007KT 050V160 9999 SCT019 33/22 Q1013 NOSIG=  
09-Oct-2022 SAID33 WATB 090600 METAR WATB 090600Z 05008KT 9999 BKN018 32/23 Q1012 NOSIG=  
10-Oct-2022 SAID33 WATB 100000 METAR WATB 100000Z 09004KT 9999 FEW017 28/23 Q1015 NOSIG=  
10-Oct-2022 SAID33 WATB 100100 METAR WATB 100100Z 15005KT 110V170 9999 FEW017 30/23 Q1015 NOSIG=  
10-Oct-2022 SAID33 WATB 100200 METAR WATB 100200Z 14006KT 100V170 9999 BKN018 30/22 Q1015 NOSIG=  
10-Oct-2022 SAID33 WATB 100300 METAR WATB 100300Z 12007KT 9999 BKN017 32/22 Q1015 NOSIG=  
10-Oct-2022 SAID33 WATB 100400 METAR WATB 100400Z 15007KT 110V170 9999 BKN017 31/23 Q1014 NOSIG=  
10-Oct-2022 SAID33 WATB 100500 METAR WATB 100500Z 05009KT 9999 BKN017 31/23 Q1013 NOSIG=  
10-Oct-2022 SAID33 WATB 100600 METAR WATB 100600Z 36010KT 7000 VCSH BKN016 30/23 Q1012 NOSIG RMK SH TO N=  
11-Oct-2022 SAID33 WATB 110000 METAR WATB 110000Z 04002KT 9999 FEW016 26/22 Q1015 NOSIG=  
11-Oct-2022 SAID33 WATB 110100 METAR WATB 110100Z 05004KT 9999 FEW017 29/22 Q1015 NOSIG=  
11-Oct-2022 SAID33 WATB 110200 METAR WATB 110200Z 11007KT 090V230 9999 SCT017 30/22 Q1014 NOSIG=  
11-Oct-2022 SAID33 WATB 110300 METAR WATB 110300Z 17008KT 140V210 9999 BKN017 31/22 Q1014 NOSIG=  
11-Oct-2022 SAID33 WATB 110400 METAR WATB 110400Z 12010KT 090V170 9999 SCT017 31/22 Q1013 NOSIG=  
11-Oct-2022 SAID33 WATB 110500 METAR WATB 110500Z 15007KT 120V180 9999 SCT018 32/21 Q1012 NOSIG=  
11-Oct-2022 SAID33 WATB 110600 METAR WATB 110600Z 16010KT 9999 SCT018 32/21 Q1011 NOSIG=  
12-Oct-2022 SAID33 WATB 120000 METAR WATB 120000Z 08002KT 9999 SCT017 24/22 Q1016 NOSIG=  
12-Oct-2022 SAID33 WATB 120100 METAR WATB 120100Z 15002KT 9999 FEW018 27/23 Q1015 NOSIG=  
12-Oct-2022 SAID33 WATB 120200 METAR WATB 120200Z 35004KT 9999 FEW017 29/23 Q1015 NOSIG=  
12-Oct-2022 SAID33 WATB 120300 METAR WATB 120300Z 09006KT 050V120 9999 SCT017 30/21 Q1015 NOSIG=  
12-Oct-2022 SAID33 WATB 120400 METAR WATB 120400Z 25005KT 180V360 9999 BKN017 31/20 Q1014 NOSIG=  
12-Oct-2022 SAID33 WATB 120500 METAR WATB 120500Z 15008KT 120V180 9999 SCT018 32/21 Q1012 NOSIG=  
12-Oct-2022 SAID33 WATB 120600 METAR WATB 120600Z 10012KT 080V150 9999 BKN018 33/21 Q1011 NOSIG=  
13-Oct-2022 SAID33 WATB 130000 METAR WATB 130000Z 14005KT 9999 FEW017 28/21 Q1015 NOSIG=  
13-Oct-2022 SAID33 WATB 130100 METAR WATB 130100Z 12010KT 030V160 9999 SCT16 29/20 Q1015 NOSIG=  
13-Oct-2022 SAID33 WATB 130200 METAR WATB 130200Z 18011KT 130V220 9999 BKN16 30/19 Q1014 NOSIG=  
13-Oct-2022 SAID33 WATB 130300 METAR WATB 130300Z 15008KT 100V200 9999 SCT018 31/20 Q1014 NOSIG=  
13-Oct-2022 SAID33 WATB 130400 METAR WATB 130400Z 12008KT 9999 SCT018 31/20 Q1013 NOSIG=  
13-Oct-2022 SAID33 WATB 130500 METAR WATB 130500Z 17009KT 9999 SCT018 31/20 Q1012 NOSIG=  
13-Oct-2022 SAID33 WATB 130600 METAR WATB 130600Z 12008KT 9999 SCT018 32/21 Q1011 NOSIG=  
14-Oct-2022 SAID33 WATB 140000 METAR WATB 140000Z 10003KT 9999 FEW017 26/21 Q1014 NOSIG=  
14-Oct-2022 SAID33 WATB 140100 METAR WATB 140100Z 08004KT 9999 FEW017 29/22 Q1014 NOSIG=  
14-Oct-2022 SAID33 WATB 140200 METAR WATB 140200Z 12003KT 9999 SCT018 30/20 Q1014 NOSIG=  
14-Oct-2022 SAID33 WATB 140300 METAR WATB 140300Z 13007KT 090V180 9999 BKN018 32/20 Q1013 NOSIG=  
14-Oct-2022 SAID33 WATB 140400 METAR WATB 140400Z 28003KT 9999 BKN018 31/19 Q1012 NOSIG=  
14-Oct-2022 SAID33 WATB 140500 METAR WATB 140500Z 06009KT 9999 BKN017 31/21 Q1011 NOSIG=  
15-Oct-2022 SAID33 WATB 150000 METAR WATB 150000Z 01005KT 9999 FEW016 27/22 Q1015 NOSIG=  
15-Oct-2022 SAID33 WATB 150100 METAR WATB 150100Z 20004KT 9999 FEW018 30/22 Q1014 NOSIG=  
15-Oct-2022 SAID33 WATB 150200 METAR WATB 150200Z 11005KT 9999 BKN018 30/22 Q1014 NOSIG=  
15-Oct-2022 SAID33 WATB 150300 METAR WATB 150300Z 11003KT 9999 BKN017 32/22 Q1014 NOSIG=  
15-Oct-2022 SAID33 WATB 150400 METAR WATB 150400Z 09005KT 9999 BKN018 31/21 Q1013 NOSIG=  
15-Oct-2022 SAID33 WATB 150500 METAR WATB 150500Z 16003KT 9999 BKN018 33/21 Q1012 NOSIG=  
16-Oct-2022 SAID33 WATB 160000 METAR WATB 160000Z 03005KT 9999 FEW017 27/23 Q1015 NOSIG=  
16-Oct-2022 SAID33 WATB 160100 METAR WATB 160100Z 09005KT 9999 FEW017 30/23 Q1015 NOSIG=  
16-Oct-2022 SAID33 WATB 160200 METAR WATB 160200Z 10005KT 080V140 9999 SCT017 30/22 Q1015 NOSIG=  
16-Oct-2022 SAID33 WATB 160300 METAR WATB 160300Z 15008KT 9999 BKN018 32/23 Q1014 NOSIG=  
16-Oct-2022 SAID33 WATB 160400 METAR WATB 160400Z 15004KT 9999 DZ BKN018 30/24 Q1013 NOSIG=  
16-Oct-2022 SAID33 WATB 160500 METAR WATB 160500Z 15008KT 110V190 9999 BKN018 33/23 Q1013 REDZ NOSIG=  
17-Oct-2022 SAID33 WATB 170000 METAR WATB 170000Z 20002KT 7000 -RA BKN014 23/22 Q1016 NOSIG=  
17-Oct-2022 SAID33 WATB 170100 METAR WATB 170100Z 03002KT 7000 FEW015 BKN017 25/23 Q1016 RERA NOSIG=  
17-Oct-2022 SAID33 WATB 170200 METAR WATB 170200Z 08004KT 9999 FEW015 28/24 Q1015 NOSIG=  
17-Oct-2022 SAID33 WATB 170300 METAR WATB 170300Z 03005KT 9999 FEW016 27/24 Q1014 NOSIG=  
17-Oct-2022 SAID33 WATB 170400 METAR WATB 170400Z 10004KT 9999 SCT017 30/23 Q1013 NOSIG=  
17-Oct-2022 SAID33 WATB 170500 METAR WATB 170500Z 02005KT 9999 BKN018 32/22 Q1012 NOSIG=  
18-Oct-2022 SAID33 WATB 180000 METAR WATB 180000Z 10002KT 9999 SCT016 27/24 Q1015 NOSIG=  
18-Oct-2022 SAID33 WATB 180100 METAR WATB 180100Z 02004KT 9999 SCT016 29/24 Q1015 NOSIG=  
18-Oct-2022 SAID33 WATB 180200 METAR WATB 180200Z 12006KT 060V160 9999 BKN016 30/23 Q1014 NOSIG=  
18-Oct-2022 SAID33 WATB 180300 METAR WATB 180300Z 09005KT 050V130 9999 BKN015 29/24 Q1014 NOSIG=  
18-Oct-2022 SAID33 WATB 180400 METAR WATB 180400Z 06005KT 9999 BKN015 29/23 Q1013 NOSIG=  
18-Oct-2022 SAID33 WATB 180500 METAR WATB 180500Z 01009KT 340V040 9999 BKN016 29/23 Q1012 NOSIG=  
19-Oct-2022 SAID33 WATB 190000 METAR WATB 190000Z 30002KT 5000 DZ BKN016 22/22 Q1016 NOSIG=  
19-Oct-2022 SAID33 WATB 190100 METAR WATB 190100Z 08002KT 5000 DZ BKN017 23/23 Q1016 NOSIG=  
19-Oct-2022 SAID33 WATB 190200 METAR WATB 190200Z 26002KT 5000 BKN017 24/24 Q1015 REDZ NOSIG=  
19-Oct-2022 SAID33 WATB 190300 METAR WATB 190300Z 09005KT 8000 BKN016 27/25 Q1015 NOSIG=  
19-Oct-2022 SAID33 WATB 190400 METAR WATB 190400Z 10005KT 9999 BKN017 29/23 Q1014 NOSIG=  
19-Oct-2022 SAID33 WATB 190500 METAR WATB 190500Z 07004KT 040V100 9999 BKN018 29/25 Q1013 NOSIG=  
20-Oct-2022 SAID33 WATB 200000 METAR WATB 200000Z 07002KT 9999 FEW016 28/24 Q1017 NOSIG=  
20-Oct-2022 SAID33 WATB 200100 METAR WATB 200100Z 01005KT 9999 FEW017 29/24 Q1017 NOSIG=  
20-Oct-2022 SAID33 WATB 200200 METAR WATB 200200Z 08007KT 020V100 9999 BKN016 30/24 Q1016 NOSIG=  
20-Oct-2022 SAID33 WATB 200300 METAR WATB 200300Z 10008KT 9999 BKN016 31/24 Q1015 NOSIG=  
20-Oct-2022 SAID33 WATB 200400 METAR WATB 200400Z 06009KT 020V090 9999 BKN016 31/24 Q1015 NOSIG=  
20-Oct-2022 SPID99 WATB 200441 SPECI WATB 200441Z 17003KT 3000 RA BKN014 30/24 Q1014 NOSIG=  
20-Oct-2022 SAID33 WATB 200500 METAR WATB 200500Z 06009KT 9999 BKN016 31/24 Q1014 NOSIG=  
21-Oct-2022 SAID33 WATB 210000 METAR WATB 210000Z 04003KT 9999 FEW017 28/22 Q1017 NOSIG=  
21-Oct-2022 SAID33 WATB 210100 METAR WATB 210100Z 07003KT 9999 FEW017 30/23 Q1017 NOSIG=  
21-Oct-2022 SAID33 WATB 210200 METAR WATB 210200Z 08004KT 020V090 9999 FEW017 32/23 Q1017 NOSIG=  
21-Oct-2022 SAID33 WATB 210300 METAR WATB 210300Z 01005KT 9999 FEW017 32/22 Q1016 NOSIG=  
21-Oct-2022 SAID33 WATB 210400 METAR WATB 210400Z 21002KT 9999 SCT017 34/23 Q1015 NOSIG=  
21-Oct-2022 SAID33 WATB 210500 METAR WATB 210500Z 09003KT 050V130 9999 SCT017 32/23 Q1014 NOSIG=  
22-Oct-2022 SAID33 WATB 220000 METAR WATB 220000Z 06003KT 9999 FEW018 29/24 Q1017 NOSIG=  
22-Oct-2022 SAID33 WATB 220100 METAR WATB 220100Z 12003KT 9999 FEW018 31/23 Q1017 NOSIG=  
22-Oct-2022 SAID33 WATB 220200 METAR WATB 220200Z 16003KT 9999 FEW017 32/24 Q1016 NOSIG=  
22-Oct-2022 SAID33 WATB 220300 METAR WATB 220300Z 03004KT 9999 SCT016 33/23 Q1016 NOSIG=  
22-Oct-2022 SAID33 WATB 220400 METAR WATB 220400Z 12003KT 9999 SCT015 34/23 Q1015 NOSIG=  
22-Oct-2022 SAID33 WATB 220500 METAR WATB 220500Z 12002KT 5000 RA BKN013 26/24 Q1014 NOSIG=  
23-Oct-2022 SAID33 WATB 230000 METAR WATB 230000Z 10002KT 9999 FEW018 27/22 Q1015 NOSIG=  
23-Oct-2022 SAID33 WATB 230100 METAR WATB 230100Z 10002KT 9999 FEW018 30/23 Q1015 NOSIG=  
23-Oct-2022 SAID33 WATB 230200 METAR WATB 230200Z 02004KT 9999 FEW018 30/23 Q1015 NOSIG=  
23-Oct-2022 SAID33 WATB 230300 METAR WATB 230300Z 01006KT 9999 FEW018 31/19 Q1014 NOSIG=  
23-Oct-2022 SAID33 WATB 230400 METAR WATB 230400Z 03002KT 9999 FEW018 33/20 Q1012 NOSIG=  
23-Oct-2022 SAID33 WATB 230500 METAR WATB 230500Z 36002KT 9999 FEW017 33/21 Q1011 NOSIG=  
24-Oct-2022 SAID33 WATB 240000 METAR WATB 240000Z 10002KT 9999 FEW018 26/23 Q1015 NOSIG=  
24-Oct-2022 SAID33 WATB 240100 METAR WATB 240100Z 12003KT 060V190 9999 FEW018 29/24 Q1015 NOSIG=  
24-Oct-2022 SAID33 WATB 240200 METAR WATB 240200Z 10004KT 360V150 9999 FEW018 31/23 Q1014 NOSIG=  
24-Oct-2022 SAID33 WATB 240300 METAR WATB 240300Z 11004KT 020V160 9999 SCT018 32/22 Q1013 NOSIG=  
24-Oct-2022 SAID33 WATB 240400 METAR WATB 240400Z 01002KT 9999 SCT018 32/22 Q1012 NOSIG=  
24-Oct-2022 SAID33 WATB 240500 METAR WATB 240500Z 10004KT 9999 SCT018 33/23 Q1011 NOSIG=  
25-Oct-2022 SAID33 WATB 250000 METAR WATB 250000Z 07002KT 9999 FEW018 27/23 Q1014 NOSIG=  
25-Oct-2022 SAID33 WATB 250100 METAR WATB 250100Z 08002KT 9999 FEW018 30/22 Q1014 NOSIG=  
25-Oct-2022 SAID33 WATB 250200 METAR WATB 250200Z 05003KT 9999 FEW018 31/23 Q1014 NOSIG=  
25-Oct-2022 SAID33 WATB 250300 METAR WATB 250300Z 19005KT 130V200 9999 SCT018 32/22 Q1013 NOSIG=  
25-Oct-2022 SAID33 WATB 250400 METAR WATB 250400Z 08004KT 040V100 9999 SCT017 31/22 Q1012 NOSIG=  
25-Oct-2022 SAID33 WATB 250500 METAR WATB 250500Z 03007KT 9999 SCT017 32/24 Q1012 NOSIG=  
26-Oct-2022 SAID33 WATB 260000 METAR WATB 260000Z 09001KT 8000 FEW017 SCT090 27/22 Q1015 NOSIG=  
26-Oct-2022 SAID33 WATB 260100 METAR WATB 260100Z 04003KT 9999 FEW017 SCT090 29/23 Q1014 NOSIG=  
26-Oct-2022 SAID33 WATB 260200 METAR WATB 260200Z 36003KT 9999 FEW017 SCT090 29/22 Q1014 NOSIG=  
26-Oct-2022 SAID33 WATB 260300 METAR WATB 260300Z 31002KT 9999 FEW017 SCT090 31/22 Q1013 NOSIG=  
26-Oct-2022 SAID33 WATB 260400 METAR WATB 260400Z 02003KT 340V070 9999 SCT017 31/22 Q1013 NOSIG=  
26-Oct-2022 SAID33 WATB 260500 METAR WATB 260500Z 33002KT 999 SCT017 32/21 Q1011 NOSIG=  
27-Oct-2022 SAID33 WATB 270000 METAR WATB 270000Z 03002KT 8000 FEW018 27/22 Q1013 NOSIG=  
27-Oct-2022 SAID33 WATB 270100 METAR WATB 270100Z 10002KT 8000 FEW017 30/22 Q1013 NOSIG=  
27-Oct-2022 SAID33 WATB 270200 METAR WATB 270200Z 10004KT 9999 FEW017 BKN090 31/22 Q1013 NOSIG=  
27-Oct-2022 SAID33 WATB 270300 METAR WATB 270300Z 06003KT 9999 FEW017 BKN090 31/21 Q1012 NOSIG=  
27-Oct-2022 SAID33 WATB 270400 METAR WATB 270400Z 05003KT 9999 SCT017 33/22 Q1011 NOSIG=  
27-Oct-2022 SAID33 WATB 270500 METAR WATB 270500Z 08005KT 9999 SCT017 31/23 Q1010 NOSIG=  
28-Oct-2022 SAID33 WATB 280000 METAR WATB 280000Z 09003KT 9999 FEW018 28/23 Q1013 NOSIG=  
28-Oct-2022 SAID33 WATB 280100 METAR WATB 280100Z 02001KT 9999 FEW017 30/21 Q1013 NOSIG=  
28-Oct-2022 SAID33 WATB 280200 METAR WATB 280200Z 13003KT 050V140 9999 FEW017 31/20 Q1012 NOSIG=  
28-Oct-2022 SAID33 WATB 280300 METAR WATB 280300Z 15003KT 9999 SCT017 32/19 Q1012 NOSIG=  
28-Oct-2022 SAID33 WATB 280400 METAR WATB 280400Z 27004KT 9999 SCT017 34/19 Q1011 NOSIG=  
28-Oct-2022 SAID33 WATB 280500 METAR WATB 280500Z 09009KT 9000 BKN017 32/22 Q1009 NOSIG=  
28-Oct-2022 SAID33 WATB 280530 METAR WATB 280530Z 11006KT 9000 FEW015CB BKN016 31/21 Q1009 NOSIG RMK CB TO NW AND N=  
28-Oct-2022 SAID33 WATB 280600 METAR WATB 280600Z 32008KT 8000 FEW015CB BKN016 26/20 Q1010 NOSIG RMK CB TO W, NW AND N=  
29-Oct-2022 SAID33 WATB 290000 METAR WATB 290000Z 17002KT 8000 BKN016 28/22 Q1013 NOSIG=  
29-Oct-2022 SAID33 WATB 290100 METAR WATB 290100Z 01002KT 9999 BKN017 30/21 Q1013 NOSIG=  
29-Oct-2022 SAID33 WATB 290200 METAR WATB 290200Z 36003KT 330V070 9999 FEW017 BKN060 31/19 Q1012 NOSIG=  
29-Oct-2022 SAID33 WATB 290300 METAR WATB 290300Z 28004KT 240V360 9999 FEW017 BKN060 33/20 Q1012 NOSIG=  
29-Oct-2022 SAID33 WATB 290400 METAR WATB 290400Z 30006KT 9999 BKN017 32/19 Q1011 NOSIG=  
29-Oct-2022 SAID33 WATB 290500 METAR WATB 290500Z 34007KT 9999 SCT017 33/19 Q1011 NOSIG=  
30-Oct-2022 SAID33 WATB 300000 METAR WATB 300000Z 32003KT 9999 SCT017 28/21 Q1013 NOSIG=  
30-Oct-2022 SAID33 WATB 300100 METAR WATB 300100Z 08002KT 9999 FEW017 BKN060 30/21 Q1013 NOSIG=  
30-Oct-2022 SAID33 WATB 300200 METAR WATB 300200Z 31003KT 290V030 9999 FEW017 BKN090 31/21 Q1013 NOSIG=  
30-Oct-2022 SAID33 WATB 300300 METAR WATB 300300Z 08004KT 050V120 9999 BKN017 30/23 Q1013 NOSIG=  
30-Oct-2022 SAID33 WATB 300400 METAR WATB 300400Z 13005KT 9999 BKN017 32/22 Q1012 NOSIG=  
30-Oct-2022 SAID33 WATB 300500 METAR WATB 300500Z 16006KT 100V190 9999 BKN016 31/22 Q1011 NOSIG=  
31-Oct-2022 SAID33 WATB 310000 METAR WATB 310000Z 08003KT 9999 FEW017 BKN060 29/23 Q1015 NOSIG=  
31-Oct-2022 SAID33 WATB 310100 METAR WATB 310100Z 13002KT 9999 FEW017 BKN060 30/23 Q1015 NOSIG=  
31-Oct-2022 SAID33 WATB 310200 METAR WATB 310200Z 07005KT 030V120 9999 SCT017 BKN060 30/24 Q1014 NOSIG=  
31-Oct-2022 SAID33 WATB 310300 METAR WATB 310300Z 27002KT 9999 BKN015 32/23 Q1013 NOSIG=  
31-Oct-2022 SAID33 WATB 310400 METAR WATB 310400Z 12004KT 8000 BKN015 30/24 Q1013 NOSIG=  
31-Oct-2022 SAID33 WATB 310500 METAR WATB 310500Z 10007KT 9000 BKN015 30/24 Q1012 NOSIG=  
01-Nov-2022 SAID33 WATB 010000 METAR WATB 010000Z 03002KT 9999 FEW018 29/24 Q1015 NOSIG=  
01-Nov-2022 SAID33 WATB 010100 METAR WATB 010100Z 09002KT 9999 FEW017 30/24 Q1014 NOSIG=  
01-Nov-2022 SAID33 WATB 010200 METAR WATB 010200Z 02002KT 9999 FEW017 31/23 Q1014 NOSIG=  
01-Nov-2022 SAID33 WATB 010300 METAR WATB 010300Z 01004KT 9999 SCT017 32/23 Q1013 NOSIG=  
01-Nov-2022 SAID33 WATB 010400 METAR WATB 010400Z 16008KT 9999 SCT017 33/24 Q1012 NOSIG=  
01-Nov-2022 SAID33 WATB 010500 METAR WATB 010500Z 16004KT 9999 BKN015 30/24 Q1012 NOSIG=  
02-Nov-2022 SAID33 WATB 020000 METAR WATB 020000Z 09002KT 9999 FEW018 29/24 Q1015 NOSIG=  
02-Nov-2022 SAID33 WATB 020100 METAR WATB 020100Z 33003KT 310V010 9999 FEW017 30/23 Q1015 NOSIG=  
02-Nov-2022 SAID33 WATB 020200 METAR WATB 020200Z 32003KT 9999 FEW017 32/25 Q1015 NOSIG=  
02-Nov-2022 SAID33 WATB 020300 METAR WATB 020300Z 09003KT 050V110 9999 FEW017 33/23 Q1014 NOSIG=  
02-Nov-2022 SAID33 WATB 020400 METAR WATB 020400Z 04002KT 9999 SCT016 33/24 Q1013 NOSIG=  
02-Nov-2022 SAID33 WATB 020500 METAR WATB 020500Z 13006KT 9999 BKN015 30/25 Q1012 NOSIG=  
03-Nov-2022 SAID33 WATB 030000 METAR WATB 030000Z 35002KT 9999 FEW018 28/24 Q1015 NOSIG=  
03-Nov-2022 SAID33 WATB 030100 METAR WATB 030100Z 10002KT 9999 FEW018 31/24 Q1015 NOSIG=  
03-Nov-2022 SAID33 WATB 030200 METAR WATB 030200Z 36006KT 9999 FEW018 32/25 Q1015 NOSIG=  
03-Nov-2022 SAID33 WATB 030300 METAR WATB 030300Z 02004KT 9999 SCT017 33/25 Q1014 NOSIG=  
03-Nov-2022 SAID33 WATB 030400 METAR WATB 030400Z 02007KT 9999 SCT017 33/24 Q1013 NOSIG=  
03-Nov-2022 SAID33 WATB 030500 METAR WATB 030500Z 07008KT 9999 SCT017 34/24 Q1012 NOSIG=  
04-Nov-2022 SAID33 WATB 040000 METAR WATB 040000Z 01002KT 9999 FEW017 29/19 Q1017 NOSIG=  
04-Nov-2022 SAID33 WATB 040100 METAR WATB 040100Z 05004KT 9999 FEW017 31/24 Q1017 NOSIG=  
04-Nov-2022 SAID33 WATB 040200 METAR WATB 040200Z 09008KT 9999 SCT018 32/24 Q1016 NOSIG=  
04-Nov-2022 SAID33 WATB 040300 METAR WATB 040300Z 02007KT 9999 SCT018 31/23 Q1015 NOSIG=  
04-Nov-2022 SAID33 WATB 040400 METAR WATB 040400Z 05004KT 350V100 9999 BKN018 32/23 Q1014 NOSIG=  
04-Nov-2022 SAID33 WATB 040500 METAR WATB 040500Z 33003KT 9999 BKN018 34/23 Q1013 NOSIG=  
05-Nov-2022 SAID33 WATB 050000 METAR WATB 050000Z 16002KT 9999 FEW018 27/22 Q1017 NOSIG=  
05-Nov-2022 SAID33 WATB 050100 METAR WATB 050100Z 33002KT 9999 FEW017 29/18 Q1017 NOSIG=  
05-Nov-2022 SAID33 WATB 050200 METAR WATB 050200Z 10004KT 9999 FEW017 30/23 Q1017 NOSIG=  
05-Nov-2022 SAID33 WATB 050300 METAR WATB 050300Z 36005KT 9999 FEW018 31/23 Q1016 NOSIG=  
05-Nov-2022 SAID33 WATB 050400 METAR WATB 050400Z 08005KT 030V100 9999 SCT018 31/23 Q1015 NOSIG=  
05-Nov-2022 SAID33 WATB 050500 METAR WATB 050500Z 12005KT 100V170 8000 VCSH BKN017 31/23 Q1014 SH TO S NOSIG=  
06-Nov-2022 SAID33 WATB 060000 METAR WATB 060000Z 36002KT 9999 FEW017 28/23 Q1017 NOSIG=  
06-Nov-2022 SAID33 WATB 060100 METAR WATB 060100Z 07004KT 9999 FEW017 30/23 Q1017 NOSIG=  
06-Nov-2022 SAID33 WATB 060200 METAR WATB 060200Z 08005KT 040V100 9999 SCT017 32/23 Q1016 NOSIG=  
06-Nov-2022 SAID33 WATB 060300 METAR WATB 060300Z 11006KT 070V150 9999 BKN017 33/22 Q1015 NOSIG=  
06-Nov-2022 SAID33 WATB 060400 METAR WATB 060400Z 05006KT 360V080 9999 BKN017 33/24 Q1014 NOSIG=  
06-Nov-2022 SAID33 WATB 060500 METAR WATB 060500Z 17007KT 9999 BKN017 29/24 Q1013 NOSIG=  
07-Nov-2022 SAID33 WATB 070000 METAR WATB 070000Z 13002KT 9999 FEW017 25/23 Q1016 NOSIG=  
07-Nov-2022 SAID33 WATB 070100 METAR WATB 070100Z 01002KT 9999 FEW017 28/24 Q1016 NOSIG=  
07-Nov-2022 SAID33 WATB 070200 METAR WATB 070200Z 05004KT 9999 SCT017 30/24 Q1016 NOSIG=  
07-Nov-2022 SAID33 WATB 070300 METAR WATB 070300Z 14003KT 9999 SCT018 31/23 Q1015 NOSIG=  
07-Nov-2022 SAID33 WATB 070400 METAR WATB 070400Z 08003KT 9999 BKN018 31/22 Q1014 NOSIG=  
07-Nov-2022 SAID33 WATB 070500 METAR WATB 070500Z 05006KT 8000 VCSH BKN017 31/23 Q1013 SH TO E NOSIG=  
08-Nov-2022 SAID33 WATB 080000 METAR WATB 080000Z 35006KT 9999 FEW017 26/22 Q1015 NOSIG=  
08-Nov-2022 SAID33 WATB 080100 METAR WATB 080100Z 14004KT 9999 FEW016 29/23 Q1015 NOSIG=  
08-Nov-2022 SAID33 WATB 080200 METAR WATB 080200Z 05006KT 9999 SCT016 30/25 Q1015 NOSIG=  
08-Nov-2022 SAID33 WATB 080300 METAR WATB 080300Z 03008KT 9999 BKN017 31/23 Q1014 NOSIG=  
08-Nov-2022 SAID33 WATB 080400 METAR WATB 080400Z 03007KT 8000 BKN016 30/23 Q1013 NOSIG=  
08-Nov-2022 SAID33 WATB 080500 METAR WATB 080500Z 04006KT 8000 VCSH BKN016 29/23 Q1012 NOSIG RMK SH TO E=  
09-Nov-2022 SAID33 WATB 090000 METAR WATB 090000Z 08003KT 9999 FEW016 25/22 Q1016 NOSIG=  
09-Nov-2022 SAID33 WATB 090100 METAR WATB 090100Z 03003KT 9999 FEW016 26/23 Q1016 NOSIG=  
09-Nov-2022 SAID33 WATB 090200 METAR WATB 090200Z 01002KT 9999 FEW017 28/22 Q1015 NOSIG=  
09-Nov-2022 SAID33 WATB 090300 METAR WATB 090300Z 29002KT 9999 FEW017 31/21 Q1015 NOSIG=  
09-Nov-2022 SAID33 WATB 090400 METAR WATB 090400Z 11004KT 050V150 9999 FEW019 31/20 Q1014 NOSIG=  
09-Nov-2022 SAID33 WATB 090500 METAR WATB 090500Z 05003KT 9999 FEW018 33/21 Q1012 NOSIG=  
09-Nov-2022 SAID33 WATB 090500 CCA METAR COR WATB 090500Z 05003KT 9999 FEW018 33/21 Q1012 NOSIG=  
10-Nov-2022 SAID33 WATB 100000 METAR WATB 100000Z 31004KT 9999 FEW016 24/23 Q1015 NOSIG=  
10-Nov-2022 SAID33 WATB 100100 METAR WATB 100100Z 10002KT 9999 FEW016 25/23 Q1016 NOSIG=  
10-Nov-2022 SAID33 WATB 100200 METAR WATB 100200Z 08002KT 9999 FEW016 26/22 Q1016 NOSIG=  
10-Nov-2022 SAID33 WATB 100300 METAR WATB 100300Z 03002KT 9999 FEW016 27/21 Q1015 NOSIG=  
10-Nov-2022 SAID33 WATB 100400 METAR WATB 100400Z 09005KT 9999 FEW017 28/20 Q1014 NOSIG=  
10-Nov-2022 SAID33 WATB 100500 METAR WATB 100500Z 11005KT 9999 FEW017 29/23 Q1013 NOSIG=  
11-Nov-2022 SAID33 WATB 110000 METAR WATB 110000Z 31002KT 9999 FEW016 25/22 Q1015 NOSIG=  
11-Nov-2022 SAID33 WATB 110100 METAR WATB 110100Z 04005KT 010V090 9999 FEW017 29/22 Q1015 NOSIG=  
11-Nov-2022 SAID33 WATB 110200 METAR WATB 110200Z 08004KT 9999 SCT017 30/22 Q1014 NOSIG=  
11-Nov-2022 SAID33 WATB 110300 METAR WATB 110300Z 13004KT 9999 BKN017 31/23 Q1014 NOSIG=  
11-Nov-2022 SAID33 WATB 110400 METAR WATB 110400Z 07003KT 9999 BKN018 30/23 Q1012 NOSIG=  
11-Nov-2022 SAID33 WATB 110500 METAR WATB 110500Z 12005KT 9999 SCT017 31/22 Q1011 NOSIG=  
12-Nov-2022 SAID33 WATB 120000 METAR WATB 120000Z 04003KT 9999 FEW016 27/23 Q1013 NOSIG=  
12-Nov-2022 SAID33 WATB 120100 METAR WATB 120100Z 15003KT 9999 FEW017 29/23 Q1013 NOSIG=  
12-Nov-2022 SAID33 WATB 120200 METAR WATB 120200Z 34004KT 9999 FEW017 30/23 Q1013 NOSIG=  
12-Nov-2022 SAID33 WATB 120300 METAR WATB 120300Z 35006KT 300V020 9999 SCT018 31/22 Q1013 NOSIG=  
12-Nov-2022 SAID33 WATB 120400 METAR WATB 120400Z 13007KT 110V170 9999 BKN017 32/23 Q1012 NOSIG=  
12-Nov-2022 SAID33 WATB 120500 METAR WATB 120500Z 10005KT 9999 BKN017 32/23 Q1011 NOSIG=  
13-Nov-2022 SAID33 WATB 130000 METAR WATB 130000Z 07003KT 9999 FEW017 27/22 Q1014 NOSIG=  
13-Nov-2022 SAID33 WATB 130100 METAR WATB 130100Z 16002KT 9999 FEW017 29/22 Q1014 NOSIG=  
13-Nov-2022 SAID33 WATB 130200 METAR WATB 130200Z 09004KT 9999 SCT017 30/22 Q1014 NOSIG=  
13-Nov-2022 SAID33 WATB 130300 METAR WATB 130300Z 10006KT 050V160 9999 SCT017 31/23 Q1013 NOSIG=  
13-Nov-2022 SAID33 WATB 130400 METAR WATB 130400Z 10008KT 8000 VCSH BKN016 30/24 Q1012 NOSIG RMK SH TO E=  
13-Nov-2022 SAID33 WATB 130500 METAR WATB 130500Z 10008KT 9999 BKN017 30/23 Q1011 NOSIG=  
14-Nov-2022 SAID33 WATB 140000 METAR WATB 140000Z 09003KT 9999 FEW016 27/23 Q1014 NOSIG=  
14-Nov-2022 SAID33 WATB 140100 METAR WATB 140100Z 02005KT 9999 FEW016 28/23 Q1014 NOSIG=  
14-Nov-2022 SAID33 WATB 140200 METAR WATB 140200Z 01003KT 9999 SCT016 30/25 Q1013 NOSIG=  
14-Nov-2022 SAID33 WATB 140300 METAR WATB 140300Z 05003KT 9999 BKN017 30/23 Q1013 NOSIG=  
14-Nov-2022 SAID33 WATB 140400 METAR WATB 140400Z 10008KT 9999 BKN016 30/24 Q1012 NOSIG=  
14-Nov-2022 SAID33 WATB 140500 METAR WATB 140500Z 06007KT 9999 BKN016 30/24 Q1011 NOSIG=  
15-Nov-2022 SAID33 WATB 150000 METAR WATB 150000Z 02003KT 9999 FEW016 27/19 Q1013 NOSIG=  
15-Nov-2022 SAID33 WATB 150100 METAR WATB 150100Z 04004KT 9999 FEW017 29/23 Q1013 NOSIG=  
15-Nov-2022 SAID33 WATB 150200 METAR WATB 150200Z 05004KT 9999 SCT017 30/23 Q1012 NOSIG=  
15-Nov-2022 SAID33 WATB 150300 METAR WATB 150300Z 11004KT 9999 SCT018 32/23 Q1012 NOSIG=  
15-Nov-2022 SAID33 WATB 150400 METAR WATB 150400Z 08004KT 9999 BKN018 32/23 Q1011 NOSIG=  
15-Nov-2022 SAID33 WATB 150500 METAR WATB 150500Z 02006KT 9999 BKN018 32/24 Q1010 NOSIG=  
16-Nov-2022 SAID33 WATB 160000 METAR WATB 160000Z 35004KT 9999 FEW016 27/22 Q1012 NOSIG=  
16-Nov-2022 SAID33 WATB 160100 METAR WATB 160100Z 09004KT 9999 FEW016 29/23 Q1013 NOSIG=  
16-Nov-2022 SAID33 WATB 160200 METAR WATB 160200Z 12004KT 9999 FEW017 30/22 Q1012 NOSIG=  
16-Nov-2022 SAID33 WATB 160300 METAR WATB 160300Z 02005KT 9999 SCT018 31/22 Q1011 NOSIG=  
16-Nov-2022 SAID33 WATB 160400 METAR WATB 160400Z 09008KT 9999 BKN017 31/23 Q1011 NOSIG=  
16-Nov-2022 SAID33 WATB 160500 METAR WATB 160500Z 10007KT 9999 FEW016CB BKN017 31/22 Q1009 NOSIG RMK CB TO W=  
17-Nov-2022 SAID33 WATB 170000 METAR WATB 170000Z 31005KT 9999 FEW016 25/24 Q1012 NOSIG=  
17-Nov-2022 SAID33 WATB 170100 METAR WATB 170100Z 03002KT 9999 FEW017 28/24 Q1012 NOSIG=  
17-Nov-2022 SAID33 WATB 170200 METAR WATB 170200Z 02008KT 9999 FEW017 29/24 Q1012 NOSIG=  
17-Nov-2022 SAID33 WATB 170300 METAR WATB 170300Z 33004KT 9999 SCT017 30/23 Q1011 NOSIG=  
17-Nov-2022 SAID33 WATB 170400 METAR WATB 170400Z 04003KT 9999 FEW015CB SCT017 32/23 Q1010 NOSIG RMK CB TO N=  
17-Nov-2022 SAID33 WATB 170500 METAR WATB 170500Z 02008KT 8000 VCSH BKN017 31/24 Q1009 NOSIG RMK SH TO E=  
18-Nov-2022 SAID33 WATB 180000 METAR WATB 180000Z 06002KT 9999 FEW016 27/23 Q1013 NOSIG=  
18-Nov-2022 SAID33 WATB 180100 METAR WATB 180100Z 33002KT 9999 FEW016 29/23 Q1013 NOSIG=  
18-Nov-2022 SAID33 WATB 180200 METAR WATB 180200Z 10004KT 9999 SCT017 30/23 Q1013 NOSIG=  
18-Nov-2022 SAID33 WATB 180300 METAR WATB 180300Z 13004KT 9999 BKN017 31/22 Q1012 NOSIG=  
18-Nov-2022 SAID33 WATB 180400 METAR WATB 180400Z 13004KT 9999 BKN017 30/23 Q1011 NOSIG=  
18-Nov-2022 SAID33 WATB 180500 CCA METAR COR WATB 180500Z 11006KT 8000 VCSH BKN017 32/23 Q1010 NOSIG RMK SH TO NE=  
18-Nov-2022 SAID33 WATB 180500 METAR WATB 180500Z 11006KT 9999 VCSH BKN017 32/23 Q1010 NOSIG RMK SH TO NE=  
19-Nov-2022 SAID33 WATB 190000 METAR WATB 190000Z 12002KT 9999 FEW016 27/21 Q1012 NOSIG=  
19-Nov-2022 SAID33 WATB 190100 METAR WATB 190100Z 11002KT 9999 FEW016 28/22 Q1012 NOSIG=  
19-Nov-2022 SAID33 WATB 190200 METAR WATB 190200Z 08007KT 9999 FEW017 29/23 Q1012 NOSIG=  
19-Nov-2022 SAID33 WATB 190300 METAR WATB 190300Z 10008KT 9999 FEW017 30/22 Q1012 NOSIG=  
19-Nov-2022 SAID33 WATB 190400 METAR WATB 190400Z 10007KT 9999 BKN017 29/22 Q1011 NOSIG=  
19-Nov-2022 SAID33 WATB 190500 METAR WATB 190500Z 35010KT 8000 VCSH BKN016 26/12 Q1010 NOSIG RMK SH TO N=  
20-Nov-2022 SAID33 WATB 200000 METAR WATB 200000Z 08002KT 9999 FEW015 26/24 Q1012 NOSIG=  
20-Nov-2022 SAID33 WATB 200100 METAR WATB 200100Z 07005KT 9999 FEW016 28/23 Q1012 NOSIG=  
20-Nov-2022 SAID33 WATB 200200 METAR WATB 200200Z 10006KT 9999 FEW016 29/21 Q1011 NOSIG=  
20-Nov-2022 SAID33 WATB 200300 METAR WATB 200300Z 09003KT 9999 SCT016 31/22 Q1011 NOSIG=  
20-Nov-2022 SAID33 WATB 200400 METAR WATB 200400Z 06005KT 9999 BKN017 32/22 Q1010 NOSIG=  
20-Nov-2022 SAID33 WATB 200500 METAR WATB 200500Z 07010KT 9999 BKN016 30/22 Q1009 NOSIG=  
21-Nov-2022 SAID33 WATB 210000 METAR WATB 210000Z 20003KT 6000 BKN014 24/20 Q1013 NOSIG=  
21-Nov-2022 SAID33 WATB 210100 METAR WATB 210100Z 15002KT 6000 BKN014 25/21 Q1013 NOSIG=  
21-Nov-2022 SAID33 WATB 210200 METAR WATB 210200Z 04003KT 7000 BKN014 25/21 Q1013 NOSIG=  
21-Nov-2022 SAID33 WATB 210300 METAR WATB 210300Z 10003KT 8000 BKN014 26/22 Q1012 NOSIG=  
21-Nov-2022 SAID33 WATB 210400 METAR WATB 210400Z 09005KT BKN015 28/15 Q1011 NOSIG=  
21-Nov-2022 SAID33 WATB 210400 CCA METAR COR WATB 210400Z 09005KT 9999 BKN015 28/16 Q1011 NOSIG=  
21-Nov-2022 SAID33 WATB 210500 METAR WATB 210500Z 01006KT 9999 BKN015 30/25 Q1010 NOSIG=  
22-Nov-2022 SAID33 WATB 220000 METAR WATB 220000Z 09004KT 8000 FEW014 26/21 Q1014 NOSIG=  
22-Nov-2022 SAID33 WATB 220100 METAR WATB 220100Z 09003KT 9999 SCT014 28/18 Q1014 NOSIG=  
22-Nov-2022 SAID33 WATB 220200 METAR WATB 220200Z 05006KT 9999 BKN014 29/17 Q1014 NOSIG=  
22-Nov-2022 SAID33 WATB 220300 METAR WATB 220300Z 03005KT 9999 BKN015 31/14 Q1013 NOSIG=  
22-Nov-2022 SAID33 WATB 220400 METAR WATB 220400Z 02008KT 9999 BKN015 31/22 Q1012 NOSIG=  
22-Nov-2022 SAID33 WATB 220500 METAR WATB 220500Z 34010KT 9999 BKN015 30/20 Q1011 NOSIG=  
23-Nov-2022 SAID33 WATB 230000 METAR WATB 230000Z 03002KT 8000 FEW015 26/18 Q1015 NOSIG=  
23-Nov-2022 SAID33 WATB 230100 METAR WATB 230100Z 06004KT 9999 FEW015 28/20 Q1015 NOSIG=  
23-Nov-2022 SAID33 WATB 230200 METAR WATB 230200Z 06005KT 8000 VCSH BKN015 29/20 Q1015 NOSIG=  
23-Nov-2022 SAID33 WATB 230200 CCA METAR COR WATB 230200Z 06005KT 8000 VCSH BKN015 29/20 Q1015 NOSIG RMK SH TO E=  
23-Nov-2022 SAID33 WATB 230300 METAR WATB 230300Z 08009KT 8000 VCTS FEW014CB BKN015 27/21 Q1014 NOSIG RMK CB TO NE=  
23-Nov-2022 SAID33 WATB 230400 METAR WATB 230400Z 04005KT 8000 FEW014 SCT015 26/22 Q1014 TEMPO TL0430 -RA=  
23-Nov-2022 SAID33 WATB 230500 METAR WATB 230500Z 09005KT 6000 -RA FEW013 BKN015 24/22 Q1013 TEMPO=  
24-Nov-2022 SAID33 WATB 240000 METAR WATB 240000Z 05004KT 9999 FEW014 27/20 Q1015 NOSIG=  
24-Nov-2022 SAID33 WATB 240100 METAR WATB 240100Z 12004KT 9999 FEW014 28/20 Q1015 NOSIG=  
24-Nov-2022 SAID33 WATB 240200 METAR WATB 240200Z 06004KT 9999 FEW015 28/20 Q1015 NOSIG=  
24-Nov-2022 SAID33 WATB 240300 METAR WATB 240300Z 08005KT 9999 FEW015 30/21 Q1014 NOSIG=  
24-Nov-2022 SAID33 WATB 240400 METAR WATB 240400Z 09009KT 060V120 9999 FEW015 30/22 Q1014 NOSIG=  
24-Nov-2022 SAID33 WATB 240400 CCA METAR COR WATB 240400Z 09009KT 060V120 9999 BKN016 30/22 Q1014 NOSIG=  
24-Nov-2022 SAID33 WATB 240500 METAR WATB 240500Z 10009KT 9999 BKN015 28/23 Q1013 NOSIG=  
25-Nov-2022 SAID33 WATB 250000 METAR WATB 250000Z 01002KT 9999 FEW015 26/20 Q1016 NOSIG=  
25-Nov-2022 SAID33 WATB 250100 METAR WATB 250100Z 08006KT 9999 FEW016 27/19 Q1016 NOSIG=  
25-Nov-2022 SAID33 WATB 250200 METAR WATB 250200Z 01005KT 330V080 9999 FEW016 29/20 Q1016 NOSIG=  
25-Nov-2022 SAID33 WATB 250300 METAR WATB 250300Z 07005KT 020V100 8000 VCSH BKN016 28/22 Q1015 NOSIG RMK SH TO E=  
25-Nov-2022 SAID33 WATB 250400 METAR WATB 250400Z 11009KT 8000 VCSH BKN015 28/20 Q1015 NOSIG RMK SH TO E=  
25-Nov-2022 SAID33 WATB 250500 METAR WATB 250500Z 15006KT 110V180 9999 FEW014 BKN015 27/21 Q1014 NOSIG=  
26-Nov-2022 SAID33 WATB 260000 METAR WATB 260000Z 08002KT 9999 FEW015 27/21 Q1015 NOSIG=  
26-Nov-2022 SAID33 WATB 260100 METAR WATB 260100Z 11006KT 070V160 9999 FEW015 29/23 Q1015 NOSIG=  
26-Nov-2022 SAID33 WATB 260200 METAR WATB 260200Z 09006KT 9999 BKN015 29/23 Q1015 NOSIG=  
26-Nov-2022 SAID33 WATB 260300 METAR WATB 260300Z 15005KT 9999 BKN016 30/23 Q1014 NOSIG=  
26-Nov-2022 SAID33 WATB 260400 METAR WATB 260400Z 09006KT 040V130 9999 BKN015 29/23 Q1013 NOSIG=  
26-Nov-2022 SAID33 WATB 260500 METAR WATB 260500Z 07010KT 9999 BKN015 28/23 Q1012 NOSIG=  
27-Nov-2022 SAID33 WATB 270000 METAR WATB 270000Z 06002KT 9999 FEW013 25/23 Q1014 NOSIG=  
27-Nov-2022 SAID33 WATB 270100 METAR WATB 270100Z 05005KT 9999 SCT014 26/22 Q1014 NOSIG=  
27-Nov-2022 SAID33 WATB 270200 CCA METAR COR WATB 270200Z 10006KT 070V130 9999 FEW014 SCT016 28/24 Q1014 NOSIG=  
27-Nov-2022 SAID33 WATB 270300 METAR WATB 270300Z 09006KT 9999 FEW014 BKN016 29/24 Q1013 NOSIG=  
27-Nov-2022 SAID33 WATB 270400 METAR WATB 270400Z 01016KT 2000 RA BKN012 24/23 Q1012 TEMPO TL0430 +RA=  
27-Nov-2022 SAID33 WATB 270500 METAR WATB 270500Z 16008KT 7000 -TSRA FEW013CB BKN015 23/22 Q1012 NOSIG RMK CB TO S=  
28-Nov-2022 SAID33 WATB 280000 METAR WATB 280000Z 05004KT 9999 FEW014 26/22 Q1013 NOSIG=  
28-Nov-2022 SAID33 WATB 280100 METAR WATB 280100Z 14005KT 9999 FEW016 27/20 Q1013 NOSIG=  
28-Nov-2022 SAID33 WATB 280200 METAR WATB 280200Z 12005KT 9999 FEW016 28/22 Q1013 NOSIG=  
28-Nov-2022 SAID33 WATB 280300 METAR WATB 280300Z 05004KT 9999 FEW015 SCT017 29/22 Q1012 NOSIG=  
28-Nov-2022 SAID33 WATB 280400 METAR WATB 280400Z 06008KT 8000 VCTS FEW014CB BKN016 29/23 Q1011 NOSIG RMK CB TO N=  
28-Nov-2022 SAID33 WATB 280500 METAR WATB 280500Z 34007KT 3000 TSRA FEW012CB BKN013 22/22 Q1011 NOSIG RMK CB TO NW=  
29-Nov-2022 SAID33 WATB 290000 METAR WATB 290000Z 08003KT 9999 FEW016 26/20 Q1013 NOSIG=  
29-Nov-2022 SAID33 WATB 290100 METAR WATB 290100Z 13002KT 9999 FEW017 27/20 Q1012 NOSIG=  
29-Nov-2022 SAID33 WATB 290200 METAR WATB 290200Z 28005KT 9999 FEW017 30/22 Q1012 NOSIG=  
29-Nov-2022 SAID33 WATB 290300 METAR WATB 290300Z 29007KT 200V330 9999 BKN017 33/22 Q1011 NOSIG=  
29-Nov-2022 SAID33 WATB 290400 METAR WATB 290400Z 16007KT 9999 BKN018 31/21 Q1011 NOSIG=  
29-Nov-2022 SAID33 WATB 290500 METAR WATB 290500Z 28006KT 230V300 9999 VCTS FEW015CB BKN016 31/22 Q1010 NOSIG RMK CB TO NW=  
30-Nov-2022 SAID33 WATB 300000 METAR WATB 300000Z 10004KT 9999 FEW016 27/21 Q1012 NOSIG=  
30-Nov-2022 SAID33 WATB 300100 METAR WATB 300100Z 10006KT 9999 FEW017 29/22 Q1012 NOSIG=  
30-Nov-2022 SAID33 WATB 300200 METAR WATB 300200Z 05006KT 030V100 9999 FEW018 30/21 Q1012 NOSIG=  
30-Nov-2022 SAID33 WATB 300300 METAR WATB 300300Z 02007KT 9999 SCT018 30/20 Q1011 NOSIG=  
30-Nov-2022 SAID33 WATB 300400 METAR WATB 300400Z 11003KT 9999 BKN018 32/20 Q1010 NOSIG=  
30-Nov-2022 SAID33 WATB 300500 METAR WATB 300500Z 04008KT 9999 BKN018 29/23 Q1009 NOSIG=  
01-Dec-2022 SAID33 WATB 010000 METAR WATB 010000Z 33002KT 9999 FEW016 25/21 Q1012 NOSIG=  
01-Dec-2022 SAID33 WATB 010100 METAR WATB 010100Z 12002KT 9999 FEW017 28/21 Q1012 NOSIG=  
01-Dec-2022 SAID33 WATB 010200 METAR WATB 010200Z 10005KT 9999 FEW017 28/20 Q1012 NOSIG=  
01-Dec-2022 SAID33 WATB 010300 METAR WATB 010300Z 03004KT 9999 SCT018 30/21 Q1011 NOSIG=  
01-Dec-2022 SAID33 WATB 010500 METAR WATB 010500Z 17009KT 9999 BKN017 27/22 Q1009 NOSIG=  
01-Dec-2022 SAID33 WATB 010600 METAR WATB 010600Z 17007KT 9999 BKN017 29/22 Q1008 NOSIG=  
02-Dec-2022 SAID33 WATB 020000 METAR WATB 020000Z 36005KT 9999 FEW017 26/21 Q1012 NOSIG=  
02-Dec-2022 SAID33 WATB 020100 METAR WATB 020100Z 08005KT 9999 FEW017 28/20 Q1012 NOSIG=  
02-Dec-2022 SAID33 WATB 020200 METAR WATB 020200Z 04008KT 9999 FEW017 30/21 Q1011 NOSIG=  
02-Dec-2022 SAID33 WATB 020300 METAR WATB 020300Z 25006KT 230V320 9999 SCT017 31/20 Q1011 NOSIG=  
02-Dec-2022 SAID33 WATB 020400 METAR WATB 020400Z 33005KT 280V110 9999 BKN017 31/20 Q1010 NOSIG=  
02-Dec-2022 SAID33 WATB 020500 METAR WATB 020500Z 05007KT 030V100 7000 VCSH BKN016 31/20 Q1008 NOSIG RMK SH TO E=  
03-Dec-2022 SAID33 WATB 030000 METAR WATB 030000Z 01004KT 9999 FEW017 27/22 Q1013 NOSIG=  
03-Dec-2022 SAID33 WATB 030100 METAR WATB 030100Z 21004KT 120V230 9999 FEW014 SCT017 28/21 Q1013 NOSIG=  
03-Dec-2022 SAID33 WATB 030300 METAR WATB 030300Z 15008KT 110V170 9999 FEW015 BKN017 30/21 Q1012 NOSIG=  
03-Dec-2022 SAID33 WATB 030400 METAR WATB 030400Z 11004KT 9999 BKN016 29/21 Q1011 NOSIG=  
03-Dec-2022 SAID33 WATB 030500 METAR WATB 030500Z 13004KT 9999 BKN016 29/20 Q1010 NOSIG=  
04-Dec-2022 SAID33 WATB 040000 METAR WATB 040000Z 35005KT 9999 FEW016 27/21 Q1013 NOSIG=  
04-Dec-2022 SAID33 WATB 040100 METAR WATB 040100Z 08005KT 9999 FEW017 29/19 Q1014 NOSIG=  
04-Dec-2022 SAID33 WATB 040200 METAR WATB 040200Z 11005KT 9999 FEW018 30/16 Q1013 NOSIG=  
04-Dec-2022 SAID33 WATB 040300 METAR WATB 040300Z 36006KT 9999 SCT018 30/18 Q1013 NOSIG=  
04-Dec-2022 SAID33 WATB 040400 METAR WATB 040400Z 11006KT 9999 BKN018 31/18 Q1012 NOSIG=  
04-Dec-2022 SAID33 WATB 040500 METAR WATB 040500Z 28003KT 9999 BKN018 32/18 Q1011 NOSIG=  
05-Dec-2022 SAID33 WATB 050000 METAR WATB 050000Z 03005KT 9999 FEW017 26/21 Q1014 NOSIG=  
05-Dec-2022 SAID33 WATB 050100 METAR WATB 050100Z 04003KT 9999 FEW018 29/20 Q1014 NOSIG=  
05-Dec-2022 SAID33 WATB 050200 METAR WATB 050200Z 13005KT 9999 FEW018 30/18 Q1013 NOSIG=  
05-Dec-2022 SAID33 WATB 050300 METAR WATB 050300Z 01005KT 9999 FEW018 31/18 Q1012 NOSIG=  
05-Dec-2022 SAID33 WATB 050400 METAR WATB 050400Z 06005KT 9999 FEW018 32/18 Q1012 NOSIG=  
05-Dec-2022 SAID33 WATB 050500 METAR WATB 050500Z 05007KT 9999 FEW018 33/19 Q1011 NOSIG=  
06-Dec-2022 SAID33 WATB 060000 METAR WATB 060000Z 07003KT 9999 FEW017 27/21 Q1013 NOSIG=  
06-Dec-2022 SAID33 WATB 060100 METAR WATB 060100Z 08005KT 9999 FEW017 29/21 Q1013 NOSIG=  
06-Dec-2022 SAID33 WATB 060200 METAR WATB 060200Z 10005KT 030V120 9999 FEW018 31/18 Q1013 NOSIG=  
06-Dec-2022 SAID33 WATB 060300 METAR WATB 060300Z 09004KT 9999 FEW018 32/17 Q1012 NOSIG=  
06-Dec-2022 SAID33 WATB 060400 METAR WATB 060400Z 02007KT 9999 FEW018 32/20 Q1011 NOSIG=  
06-Dec-2022 SAID33 WATB 060500 METAR WATB 060500Z 04006KT 9999 SCT018 33/19 Q1010 NOSIG=  
07-Dec-2022 SAID33 WATB 070000 METAR WATB 070000Z 05004KT 9999 FEW017 25/18 Q1013 NOSIG=  
07-Dec-2022 SAID33 WATB 070100 METAR WATB 070100Z 09005KT 9999 FEW017 28/19 Q1013 NOSIG=  
07-Dec-2022 SAID33 WATB 070200 METAR WATB 070200Z 08006KT 9999 FEW017 30/18 Q1013 NOSIG=  
07-Dec-2022 SAID33 WATB 070300 METAR WATB 070300Z 09005KT 9999 FEW018 31/16 Q1012 NOSIG=  
07-Dec-2022 SAID33 WATB 070400 METAR WATB 070400Z 04006KT 020V090 9999 FEW018 33/15 Q1011 NOSIG=  
07-Dec-2022 SAID33 WATB 070500 METAR WATB 070500Z 10010KT 9999 FEW018 33/17 Q1010 NOSIG=  
08-Dec-2022 SAID33 WATB 080000 METAR WATB 080000Z 11005KT 9999 FEW017 26/19 Q1013 NOSIG=  
08-Dec-2022 SAID33 WATB 080100 METAR WATB 080100Z 06003KT 9999 FEW017 29/19 Q1013 NOSIG=  
08-Dec-2022 SAID33 WATB 080200 METAR WATB 080200Z 36005KT 9999 FEW017 30/20 Q1012 NOSIG=  
08-Dec-2022 SAID33 WATB 080500 METAR WATB 080500Z 07010KT 9999 -RA BKN017 27/22 Q1010 NOSIG=  
09-Dec-2022 SAID33 WATB 090000 METAR WATB 090000Z 32003KT 9999 FEW017 26/21 Q1013 NOSIG=  
09-Dec-2022 SAID33 WATB 090100 METAR WATB 090100Z 04005KT 9999 FEW017 28/22 Q1013 NOSIG=  
09-Dec-2022 SAID33 WATB 090200 METAR WATB 090200Z 03003KT 9999 SCT017 30/22 Q1012 NOSIG=  
09-Dec-2022 SAID33 WATB 090300 METAR WATB 090300Z 05004KT 9999 BKN017 30/22 Q1012 NOSIG=  
09-Dec-2022 SAID33 WATB 090400 METAR WATB 090400Z 03010KT 8000 -RA BKN016 27/22 Q1011 NOSIG=  
09-Dec-2022 SAID33 WATB 090500 METAR WATB 090500Z 02006KT 9999 FEW016 BKN017 27/23 Q1010 RERA NOSIG=  
10-Dec-2022 SAID33 WATB 100000 METAR WATB 100000Z 02004KT 9999 FEW017 28/20 Q1013 NOSIG=  
10-Dec-2022 SAID33 WATB 100100 METAR WATB 100100Z 36005KT 9999 FEW017 29/20 Q1013 NOSIG=  
10-Dec-2022 SAID33 WATB 100200 METAR WATB 100200Z 08005KT 9999 FEW017 31/19 Q1013 NOSIG=  
10-Dec-2022 SAID33 WATB 100400 METAR WATB 100400Z 26005KT 9999 SCT018 33/20 Q1012 NOSIG=  
10-Dec-2022 SAID33 WATB 100500 METAR WATB 100500Z 03006KT 9999 BKN018 32/21 Q1011 NOSIG=  
11-Dec-2022 SAID33 WATB 110000 METAR WATB 110000Z 07005KT 9999 FEW017 28/20 Q1013 NOSIG=  
11-Dec-2022 SAID33 WATB 110100 METAR WATB 110100Z 05005KT 9999 FEW017 29/22 Q1013 NOSIG=  
11-Dec-2022 SAID33 WATB 110200 METAR WATB 110200Z 03006KT 9999 SCT017 30/20 Q1013 NOSIG=  
11-Dec-2022 SAID33 WATB 110300 METAR WATB 110300Z 01009KT 320V040 9999 BKN018 32/21 Q1012 NOSIG=  
11-Dec-2022 SAID33 WATB 110400 METAR WATB 110400Z 03009KT 360V100 9999 BKN018 32/20 Q1011 NOSIG=  
11-Dec-2022 SAID33 WATB 110500 METAR WATB 110500Z 12006KT 9999 BKN018 32/19 Q1011 NOSIG=  
12-Dec-2022 SAID33 WATB 120000 METAR WATB 120000Z 07003KT 9999 FEW016 28/22 Q1013 NOSIG=  
12-Dec-2022 SAID33 WATB 120100 METAR WATB 120100Z 05005KT 9999 FEW017 30/21 Q1013 NOSIG=  
12-Dec-2022 SAID33 WATB 120200 METAR WATB 120200Z 32005KT 9999 SCT017 31/21 Q1013 NOSIG=  
12-Dec-2022 SAID33 WATB 120300 METAR WATB 120300Z 33006KT 9999 SCT018 31/20 Q1012 NOSIG=  
12-Dec-2022 SAID33 WATB 120400 METAR WATB 120400Z 04007KT 9999 BKN018 32/20 Q1012 NOSIG=  
12-Dec-2022 SAID33 WATB 120500 METAR WATB 120500Z 03010KT 9999 BKN018 32/21 Q1011 NOSIG=  
13-Dec-2022 SAID33 WATB 130000 METAR WATB 130000Z 08003KT 9999 FEW016 27/22 Q1014 NOSIG=  
13-Dec-2022 SAID33 WATB 130100 METAR WATB 130100Z 01003KT 9999 FEW016 29/21 Q1014 NOSIG=  
13-Dec-2022 SAID33 WATB 130200 METAR WATB 130200Z 09004KT 9999 SCT017 30/22 Q1013 NOSIG=  
13-Dec-2022 SAID33 WATB 130300 METAR WATB 130300Z 08006KT 9999 BKN018 30/21 Q1013 NOSIG=  
13-Dec-2022 SAID33 WATB 130400 METAR WATB 130400Z 07010KT 9999 FEW017 BKN018 31/22 Q1012 NOSIG=  
13-Dec-2022 SAID33 WATB 130500 METAR WATB 130500Z 04009KT 9999 SCT018 32/21 Q1011 NOSIG=  
14-Dec-2022 SAID33 WATB 140000 METAR WATB 140000Z 05003KT 8000 FEW016 27/22 Q1014 NOSIG=  
14-Dec-2022 SAID33 WATB 140100 METAR WATB 140100Z 06003KT 9999 FEW016 28/23 Q1014 NOSIG=  
14-Dec-2022 SAID33 WATB 140200 METAR WATB 140200Z 13005KT 9999 SCT017 29/22 Q1013 NOSIG=  
14-Dec-2022 SAID33 WATB 140300 METAR WATB 140300Z 04005KT 9999 SCT017 30/22 Q1013 NOSIG=  
14-Dec-2022 SAID33 WATB 140400 METAR WATB 140400Z 08006KT 9999 FEW016 BKN017 30/21 Q1012 NOSIG=  
14-Dec-2022 SAID33 WATB 140500 METAR WATB 140500Z 17010KT 9999 BKN017 29/23 Q1011 NOSIG=  
15-Dec-2022 SAID33 WATB 150000 METAR WATB 150000Z 04004KT 9999 FEW016 26/22 Q1012 NOSIG=  
15-Dec-2022 SAID33 WATB 150100 METAR WATB 150100Z 36004KT 9999 FEW016 29/23 Q1013 NOSIG=  
15-Dec-2022 SAID33 WATB 150200 METAR WATB 150200Z 02006KT 9999 SCT016 30/23 Q1012 NOSIG=  
15-Dec-2022 SAID33 WATB 150300 METAR WATB 150300Z 22004KT 8000 VCSH FEW016 BKN017 28/21 Q1012 NOSIG RMK SH TO E=  
15-Dec-2022 SAID33 WATB 150400 METAR WATB 150400Z 08005KT 8000 VCSH BKN016 29/23 Q1011 NOSIG RMK SH TO E=  
15-Dec-2022 SAID33 WATB 150500 METAR WATB 150500Z 09009KT 6000 VCSH BKN016 30/24 Q1009 NOSIG RMK SH TO E=  
16-Dec-2022 SAID33 WATB 160000 METAR WATB 160000Z 14003KT 9999 FEW016 24/22 Q1011 NOSIG=  
16-Dec-2022 SAID33 WATB 160100 METAR WATB 160100Z 06003KT 9999 FEW016 26/21 Q1011 NOSIG=  
16-Dec-2022 SAID33 WATB 160200 METAR WATB 160200Z 04005KT 9999 FEW016 26/23 Q1011 NOSIG=  
16-Dec-2022 SAID33 WATB 160300 METAR WATB 160300Z 30003KT 9999 FEW016 28/22 Q1010 NOSIG=  
16-Dec-2022 SAID33 WATB 160400 METAR WATB 160400Z 08005KT 9999 FEW016 29/22 Q1009 NOSIG=  
16-Dec-2022 SAID33 WATB 160500 METAR WATB 160500Z 12005KT 9999 SCT016 29/23 Q1008 NOSIG=  
17-Dec-2022 SAID33 WATB 170000 METAR WATB 170000Z 10005KT 9999 FEW015 BKN016 24/21 Q1012 NOSIG=  
17-Dec-2022 SAID33 WATB 170100 METAR WATB 170100Z 14005KT 9999 BKN016 26/21 Q1012 NOSIG=  
17-Dec-2022 SAID33 WATB 170200 METAR WATB 170200Z 28009KT 8000 -RA BKN016 25/22 Q1012 NOSIG=  
17-Dec-2022 SAID33 WATB 170300 METAR WATB 170300Z 08005KT 9999 FEW015 BKN017 28/21 Q1011 RERA NOSIG=  
17-Dec-2022 SAID33 WATB 170400 METAR WATB 170400Z 08003KT 9999 FEW015 SCT017 28/20 Q1010 NOSIG=  
17-Dec-2022 SAID33 WATB 170500 METAR WATB 170500Z 10005KT 9999 FEW015 SCT017 29/20 Q1010 NOSIG=  
18-Dec-2022 SAID33 WATB 180000 METAR WATB 180000Z 08003KT 9999 FEW017 26/21 Q1011 NOSIG=  
18-Dec-2022 SAID33 WATB 180100 METAR WATB 180100Z 36005KT 9999 FEW017 28/22 Q1011 NOSIG=  
18-Dec-2022 SAID33 WATB 180200 METAR WATB 180200Z 08005KT 9999 FEW017 29/22 Q1011 NOSIG=  
18-Dec-2022 SAID33 WATB 180300 METAR WATB 180300Z 06005KT 9999 BKN018 30/21 Q1010 NOSIG=  
18-Dec-2022 SAID33 WATB 180400 METAR WATB 180400Z 23010KT 8000 -RA BKN017 26/19 Q1010 TEMPO TL0430 RA=  
18-Dec-2022 SAID33 WATB 180500 METAR WATB 180500Z 15003KT 8000 BKN017 26/20 Q1009 RERA NOSIG=  
19-Dec-2022 SAID33 WATB 190000 METAR WATB 190000Z 05003KT 9999 FEW016 27/20 Q1011 NOSIG=  
19-Dec-2022 SAID33 WATB 190100 METAR WATB 190100Z 34005KT 9999 FEW016 29/21 Q1011 NOSIG=  
19-Dec-2022 SAID33 WATB 190200 METAR WATB 190200Z 11005KT 9999 SCT017 31/21 Q1010 NOSIG=  
19-Dec-2022 SAID33 WATB 190300 METAR WATB 190300Z 12012KT 090V180 9999 SCT017 31/21 Q1010 NOSIG=  
19-Dec-2022 SAID33 WATB 190400 METAR WATB 190400Z 14010KT 110V170 9999 SCT018 31/18 Q1009 NOSIG=  
19-Dec-2022 SAID33 WATB 190500 METAR WATB 190500Z 14010KT 100V170 9999 SCT017 31/19 Q1009 NOSIG=  
20-Dec-2022 SAID33 WATB 200000 METAR WATB 200000Z 24004KT 9999 FEW017 29/19 Q1011 NOSIG=  
20-Dec-2022 SAID33 WATB 200100 METAR WATB 200100Z 18009KT 140V200 9999 FEW017 30/18 Q1011 NOSIG=  
20-Dec-2022 SAID33 WATB 200200 METAR WATB 200200Z 13006KT 9999 FEW017 31/19 Q1011 NOSIG=  
20-Dec-2022 SAID33 WATB 200300 METAR WATB 200300Z 10010KT 9999 SCT017 31/20 Q1010 NOSIG=  
20-Dec-2022 SAID33 WATB 200400 METAR WATB 200400Z 11010KT 070V160 9999 SCT018 32/21 Q1010 NOSIG=  
20-Dec-2022 SAID33 WATB 200500 METAR WATB 200500Z 13010KT 090V150 9999 SCT018 32/21 Q1009 NOSIG=  
21-Dec-2022 SAID33 WATB 210000 METAR WATB 210000Z 34003KT 9999 FEW017 27/20 Q1010 NOSIG=  
21-Dec-2022 SAID33 WATB 210100 METAR WATB 210100Z 31005KT 280V030 9999 FEW017 29/20 Q1010 NOSIG=  
21-Dec-2022 SAID33 WATB 210200 METAR WATB 210200Z 04006KT 9999 FEW017 30/21 Q1009 NOSIG=  
21-Dec-2022 SAID33 WATB 210300 METAR WATB 210300Z 03010KT 260V080 9999 FEW017 32/19 Q1009 NOSIG=  
21-Dec-2022 SAID33 WATB 210400 METAR WATB 210400Z 33009KT 280V040 9999 FEW017 32/16 Q1008 NOSIG=  
21-Dec-2022 SAID33 WATB 210500 METAR WATB 210500Z 05006KT 9999 FEW018 33/18 Q1007 NOSIG=  
22-Dec-2022 SAID33 WATB 220000 METAR WATB 220000Z 10003KT 9999 FEW016 26/19 Q1009 NOSIG=  
22-Dec-2022 SAID33 WATB 220100 METAR WATB 220100Z 10004KT 9999 FEW017 27/19 Q1009 NOSIG=  
22-Dec-2022 SAID33 WATB 220200 METAR WATB 220200Z 10005KT 060V130 9999 FEW017 29/20 Q1009 NOSIG=  
22-Dec-2022 SAID33 WATB 220300 METAR WATB 220300Z 07006KT 9999 FEW018 30/19 Q1008 NOSIG=  
26-Jan-2023 SAID32 WATB 260300 METAR WATB 260300Z 13005KT 100V170 9999 BKN016 29/23 Q1010 NOSIG=  
26-Jan-2023 SAID33 WATB 260300 METAR WATB 260300Z 13005KT 100V170 9999 BKN016 29/23 Q1010 NOSIG=  
26-Jan-2023 SAID33 WATB 260400 METAR WATB 260400Z 11007KT 070V160 9999 BKN017 29/25 Q1010 NOSIG=  
26-Jan-2023 SAID32 WATB 260500 METAR WATB 260500Z 11010KT 8000 -RA BKN017 27/25 Q1009 NOSIG=  
26-Jan-2023 SAID33 WATB 260500 METAR WATB 260500Z 11010KT 8000 -RA BKN017 27/25 Q1009 NOSIG=  
27-Jan-2023 SAID32 WATB 270000 METAR WATB 270000Z 10004KT 9999 SCT014 26/24 Q1012 NOSIG=  
27-Jan-2023 SAID32 WATB 270100 METAR WATB 270100Z 06004KT 8000 BKN015 26/24 Q1012 NOSIG=  
27-Jan-2023 SAID32 WATB 270200 METAR WATB 270200Z 09004KT 8000 BKN015 27/25 Q1012 NOSIG=  
27-Jan-2023 SAID32 WATB 270300 METAR WATB 270300Z 09007KT 8000 BKN016 27/24 Q1011 NOSIG=  
27-Jan-2023 SAID32 WATB 270400 METAR WATB 270400Z 05006KT 8000 BKN016 27/23 Q1010 NOSIG=  
27-Jan-2023 SAID32 WATB 270500 METAR WATB 270500Z 05006KT 8000 BKN016 25/23 Q1009 NOSIG=  
28-Jan-2023 SAID32 WATB 280000 METAR WATB 280000Z 10002KT 4000 VCFG BKN014 24/24 Q1011 NOSIG=  
28-Jan-2023 SAID32 WATB 280100 METAR WATB 280100Z 05003KT 8000 BKN015 28/24 Q1011 NOSIG=  
28-Jan-2023 SAID32 WATB 280200 METAR WATB 280200Z 04005KT 020V090 8000 BKN016 28/25 Q1011 NOSIG=  
28-Jan-2023 SAID32 WATB 280300 CCA METAR COR WATB 280300Z 35010KT 8000 BKN015 30/24 Q1010 NOSIG=  
28-Jan-2023 SAID32 WATB 280300 METAR WATB 280300Z 35010KT 8000 BKN015 30/24 Q1011 NOSIG=  
28-Jan-2023 SAID32 WATB 280400 METAR WATB 280400Z 01010KT 330V040 8000 BKN015 30/24 Q1009 NOSIG=  
28-Jan-2023 SAID32 WATB 280500 METAR WATB 280500Z 03010KT 9999 BKN016 29/24 Q1008 NOSIG=  
29-Jan-2023 SAID32 WATB 290000 METAR WATB 290000Z 15002KT 4000 VCFG BKN014 25/24 Q1012 NOSIG=  
29-Jan-2023 SAID32 WATB 290100 METAR WATB 290100Z 10003KT 8000 BKN014 25/23 Q1012 NOSIG=  
29-Jan-2023 SAID32 WATB 290200 METAR WATB 290200Z 11004KT 8000 BKN016 27/24 Q1011 NOSIG=  
29-Jan-2023 SAID32 WATB 290300 METAR WATB 290300Z 11004KT 9999 BKN016 29/25 Q1011 NOSIG=  
29-Jan-2023 SAID32 WATB 290400 METAR WATB 290400Z 06006KT 9999 BKN016 31/26 Q1010 NOSIG=  
29-Jan-2023 SAID32 WATB 290500 METAR WATB 290500Z 34010KT 9999 BKN016 27/24 Q1010 NOSIG=  
30-Jan-2023 SAID32 WATB 300000 METAR WATB 300000Z 08003KT 6000 SCT014 26/24 Q1013 NOSIG=  
30-Jan-2023 SAID32 WATB 300100 METAR WATB 300100Z 09003KT 9999 FEW015 27/24 Q1013 NOSIG=  
30-Jan-2023 SAID32 WATB 300200 METAR WATB 300200Z 10005KT 9999 FEW015 27/24 Q1013 NOSIG=  
30-Jan-2023 SAID32 WATB 300300 METAR WATB 300300Z 09006KT 9999 BKN016 29/25 Q1012 NOSIG=  
30-Jan-2023 SAID32 WATB 300400 METAR WATB 300400Z 06005KT 9999 BKN016 29/25 Q1011 NOSIG=  
30-Jan-2023 SAID32 WATB 300500 METAR WATB 300500Z 12007KT 090V160 8000 VCSH BKN016 27/25 Q1010 NOSIG RMK SH TO SE AND W=  
30-Jan-2023 SAID32 WATB 300500 CCA METAR COR WATB 300500Z 12007KT 090V160 8000 VCSH BKN016 27/25 Q1011 NOSIG RMK SH TO SE AND W=  
31-Jan-2023 SAID32 WATB 310000 METAR WATB 310000Z 11003KT 9999 SCT016 24/23 Q1012 NOSIG=  
31-Jan-2023 SAID32 WATB 310100 METAR WATB 310100Z 13003KT 9999 SCT016 24/24 Q1013 NOSIG=  
31-Jan-2023 SAID32 WATB 310200 METAR WATB 310200Z 06003KT 9999 SCT016 26/23 Q1013 NOSIG=  
31-Jan-2023 SAID32 WATB 310300 METAR WATB 310300Z 08005KT 9999 SCT016 28/24 Q1012 NOSIG=  
31-Jan-2023 SAID32 WATB 310400 METAR WATB 310400Z 11005KT 9999 FEW017 29/24 Q1011 NOSIG=  
31-Jan-2023 SAID32 WATB 310500 METAR WATB 310500Z 09005KT 9999 SCT016 29/24 Q1010 NOSIG=  
01-Feb-2023 SAID32 WATB 010000 METAR WATB 010000Z 03003KT 4000 VCFG BKN014 24/24 Q1012 NOSIG=  
01-Feb-2023 SAID32 WATB 010100 METAR WATB 010100Z 16003KT 6000 BKN015 26/24 Q1012 NOSIG=  
01-Feb-2023 SAID32 WATB 010200 METAR WATB 010200Z 05005KT 9999 SCT016 27/24 Q1012 NOSIG=  
01-Feb-2023 SAID32 WATB 010300 METAR WATB 010300Z 09005KT 9999 SCT016 29/24 Q1011 NOSIG=  
01-Feb-2023 SAID32 WATB 010400 METAR WATB 010400Z 03005KT 9999 BKN016 31/24 Q1010 NOSIG=  
01-Feb-2023 SAID32 WATB 010500 METAR WATB 010500Z 33008KT 2000 RA BKN015 24/24 Q1010 NOSIG=  
02-Feb-2023 SAID32 WATB 020000 METAR WATB 020000Z 12002KT 4000 VCFG BKN015 25/24 Q1014 NOSIG=  
02-Feb-2023 SAID32 WATB 020100 METAR WATB 020100Z 09004KT 8000 BKN014 26/24 Q1014 NOSIG=  
02-Feb-2023 SAID32 WATB 020200 METAR WATB 020200Z 07005KT 8000 BKN015 27/25 Q1013 NOSIG=  
02-Feb-2023 SAID32 WATB 020300 METAR WATB 020300Z 10006KT 6000 BKN015 26/25 Q1013 NOSIG=  
02-Feb-2023 SAID32 WATB 020400 METAR WATB 020400Z 06005KT 8000 BKN016 27/25 Q1012 NOSIG=  
02-Feb-2023 SAID32 WATB 020500 METAR WATB 020500Z 07005KT 8000 BKN015 27/25 Q1011 NOSIG=  
03-Feb-2023 SAID32 WATB 030000 METAR WATB 030000Z 14003KT 8000 SCT015 24/24 Q1012 NOSIG=  
03-Feb-2023 SAID32 WATB 030100 METAR WATB 030100Z 15003KT 9999 SCT015 25/23 Q1013 NOSIG=  
03-Feb-2023 SAID32 WATB 030200 METAR WATB 030200Z 12003KT 9999 SCT016 26/23 Q1012 NOSIG=  
03-Feb-2023 SAID32 WATB 030300 METAR WATB 030300Z 11003KT 9999 SCT016 26/24 Q1012 NOSIG=  
03-Feb-2023 SAID32 WATB 030400 METAR WATB 030400Z 03005KT 9999 SCT016 28/25 Q1011 NOSIG=  
03-Feb-2023 SAID32 WATB 030500 METAR WATB 030500Z 31005KT 8000 BKN015 25/24 Q1010 NOSIG=  
04-Feb-2023 SAID32 WATB 040000 METAR WATB 040000Z 11002KT 4000 VCSH BKN016 23/23 Q1012 NOSIG=  
04-Feb-2023 SAID32 WATB 040100 METAR WATB 040100Z 16005KT 4000 VCFG BKN014 23/23 Q1012 NOSIG=  
04-Feb-2023 SAID32 WATB 040200 METAR WATB 040200Z 17005KT 8000 SCT015 26/23 Q1012 NOSIG=  
04-Feb-2023 SAID32 WATB 040300 METAR WATB 040300Z 11003KT 8000 SCT016 26/24 Q1011 NOSIG=  
04-Feb-2023 SAID32 WATB 040400 METAR WATB 040400Z 33003KT 9999 SCT017 27/24 Q1010 NOSIG=  
04-Feb-2023 SAID32 WATB 040500 METAR WATB 040500Z 06006KT 9999 SCT017 29/24 Q1009 NOSIG=  
05-Feb-2023 SAID32 WATB 050000 METAR WATB 050000Z 36003KT 4000 VCFG BKN014 24/24 Q1011 NOSIG=  
05-Feb-2023 SAID32 WATB 050100 METAR WATB 050100Z 16003KT 4000 VCFG BKN014 24/24 Q1011 NOSIG=  
05-Feb-2023 SAID32 WATB 050200 METAR WATB 050200Z 17003KT 5000 BKN014 25/23 Q1011 NOSIG=  
05-Feb-2023 SAID32 WATB 050300 METAR WATB 050300Z 13005KT 8000 BKN015 26/24 Q1011 NOSIG=  
05-Feb-2023 SAID32 WATB 050400 METAR WATB 050400Z 15003KT 8000 BKN015 26/24 Q1010 NOSIG=  
05-Feb-2023 SAID32 WATB 050500 METAR WATB 050500Z 08005KT 050V110 6000 VCSH BKN015 27/25 Q1009 NOSIG RMK SH TO N AND NE=  
06-Feb-2023 SAID32 WATB 060000 METAR WATB 060000Z 10003KT 2000 -RA BKN013 23/23 Q1012 NOSIG=  
06-Feb-2023 SAID32 WATB 060100 METAR WATB 060100Z 09004KT 2000 -RA BKN013 23/23 Q1012 NOSIG=  
06-Feb-2023 SAID32 WATB 060200 METAR WATB 060200Z 06003KT 4000 -RA BKN014 23/23 Q1011 NOSIG=  
06-Feb-2023 SAID32 WATB 060300 METAR WATB 060300Z 09003KT 6000 BKN014 24/24 Q1011 RERA NOSIG=  
06-Feb-2023 SAID32 WATB 060400 METAR WATB 060400Z 22005KT 9999 BKN016 26/24 Q1010 NOSIG=  
06-Feb-2023 SAID32 WATB 060500 METAR WATB 060500Z 03010KT 9999 BKN016 28/24 Q1009 NOSIG=  
07-Feb-2023 SAID32 WATB 070000 METAR WATB 070000Z 05003KT 5000 VCFG SCT015 24/23 Q1012 NOSIG=  
07-Feb-2023 SAID32 WATB 070100 METAR WATB 070100Z 12003KT 5000 HZ SCT015 26/23 Q1012 NOSIG=  
07-Feb-2023 SAID32 WATB 070200 METAR WATB 070200Z 05005KT 7000 HZ SCT016 26/23 Q1012 NOSIG=  
07-Feb-2023 SAID32 WATB 070300 METAR WATB 070300Z 07010KT 7000 HZ BKN016 28/25 Q1012 NOSIG=  
07-Feb-2023 SAID32 WATB 070400 METAR WATB 070400Z 10007KT 8000 BKN016 27/26 Q1011 NOSIG=  
07-Feb-2023 SAID32 WATB 070500 METAR WATB 070500Z 10008KT 9999 BKN016 29/26 Q1010 NOSIG=  
08-Feb-2023 SAID32 WATB 080000 METAR WATB 080000Z 12003KT 5000 HZ SCT013 24/24 Q1013 NOSIG=  
08-Feb-2023 SAID32 WATB 080100 METAR WATB 080100Z 07003KT 8000 HZ BKN015 25/24 Q1013 NOSIG=  
08-Feb-2023 SAID32 WATB 080200 METAR WATB 080200Z 13005KT 9999 SCT016 28/24 Q1013 NOSIG=  
08-Feb-2023 SAID32 WATB 080300 METAR WATB 080300Z 05005KT 9999 SCT016 29/24 Q1012 NOSIG=  
08-Feb-2023 SAID32 WATB 080400 METAR WATB 080400Z 02007KT 9999 BKN016 30/23 Q1011 NOSIG=  
08-Feb-2023 SAID32 WATB 080500 METAR WATB 080500Z 19007KT 170V240 5000 VCTS FEW015CB BKN016 25/23 Q1011 NOSIG RMK CB TO E=  
09-Feb-2023 SAID32 WATB 090000 METAR WATB 090000Z 09005KT 6000 HZ SCT014 24/24 Q1013 NOSIG=  
09-Feb-2023 SAID32 WATB 090100 METAR WATB 090100Z 11005KT 9999 SCT015 25/24 Q1013 NOSIG=  
09-Feb-2023 SAID32 WATB 090200 METAR WATB 090200Z 01005KT 9999 FEW016 BKN019 26/24 Q1013 NOSIG=  
09-Feb-2023 SAID32 WATB 090300 METAR WATB 090300Z 09005KT 9999 FEW016 BKN019 26/24 Q1012 NOSIG=  
09-Feb-2023 SAID32 WATB 090400 METAR WATB 090400Z 11003KT 9999 BKN016 28/25 Q1012 NOSIG=  
09-Feb-2023 SAID32 WATB 090500 METAR WATB 090500Z 06006KT 9999 BKN016 28/25 Q1011 NOSIG=  
10-Feb-2023 SAID32 WATB 100000 METAR WATB 100000Z 09003KT 6000 SCT014 25/24 Q1013 NOSIG=  
10-Feb-2023 SAID32 WATB 100100 METAR WATB 100100Z 11005KT 030V130 7000 SCT015 26/24 Q1013 NOSIG=  
10-Feb-2023 SAID32 WATB 100200 METAR WATB 100200Z 04006KT 9999 BKN016 27/24 Q1013 NOSIG=  
10-Feb-2023 SAID32 WATB 100300 METAR WATB 100300Z 13005KT 8000 -RA FEW015CB BKN016 28/24 Q1012 NOSIG RMK CB TO SE=  
10-Feb-2023 SAID32 WATB 100400 METAR WATB 100400Z 05010KT 5000 VCSH FEW015CB BKN016 27/24 Q1012 RERA NOSIG RMK CB TO SE=  
10-Feb-2023 SAID32 WATB 100500 METAR WATB 100500Z 07005KT 4000 VCTSRA FEW015CB BKN016 23/23 Q1012 RERA NOSIG RMK CB TO N, NE AND E=  
11-Feb-2023 SAID32 WATB 110000 METAR WATB 110000Z 01006KT 9999 SCT015 24/24 Q1013 NOSIG=  
11-Feb-2023 SAID32 WATB 110100 METAR WATB 110100Z 04006KT 9999 SCT015 26/24 Q1013 NOSIG=  
11-Feb-2023 SAID32 WATB 110200 METAR WATB 110200Z 08005KT 9999 SCT016 28/24 Q1013 NOSIG=  
11-Feb-2023 SAID32 WATB 110300 METAR WATB 110300Z 09007KT 9999 SCT016 29/24 Q1012 NOSIG=  
11-Feb-2023 SAID32 WATB 110400 METAR WATB 110400Z 07005KT 9999 SCT016 30/24 Q1012 NOSIG=  
11-Feb-2023 SAID32 WATB 110400 CCA METAR COR WATB 110400Z 07005KT 9999 BKN016 30/24 Q1012 NOSIG=  
11-Feb-2023 SAID32 WATB 110500 METAR WATB 110500Z 10010KT 8000 -RA FEW015CB BKN016 27/25 Q1011 NOSIG RMK CB TO E=  
12-Feb-2023 SAID32 WATB 120000 METAR WATB 120000Z 05003KT 4000 VCFG FEW012 BKN014 24/23 Q1014 NOSIG=  
12-Feb-2023 SAID32 WATB 120100 METAR WATB 120100Z 02003KT 8000 BKN015 27/24 Q1013 NOSIG=  
12-Feb-2023 SAID32 WATB 120200 METAR WATB 120200Z 03005KT 9999 BKN016 28/25 Q1013 NOSIG=  
12-Feb-2023 SAID32 WATB 120300 METAR WATB 120300Z 21005KT 9999 BKN016 30/22 Q1012 NOSIG=  
12-Feb-2023 SAID32 WATB 120400 METAR WATB 120400Z 21013KT 180V240 9999 BKN016 30/22 Q1012 NOSIG=  
12-Feb-2023 SAID32 WATB 120500 METAR WATB 120500Z 24010KT 200V280 9999 BKN016 30/22 Q1011 NOSIG=  
12-Feb-2023 SAID32 WATB 120500 CCA METAR COR WATB 120500Z 24005KT 180V290 9999 BKN016 31/22 Q1011 NOSIG=  
13-Feb-2023 SAID32 WATB 130000 METAR WATB 130000Z 09005KT 9999 SCT015 25/23 Q1012 NOSIG=  
13-Feb-2023 SAID32 WATB 130100 METAR WATB 130100Z 08003KT 9999 SCT015 26/24 Q1012 NOSIG=  
13-Feb-2023 SAID32 WATB 130200 METAR WATB 130200Z 09006KT 9999 BKN016 30/25 Q1011 NOSIG=  
13-Feb-2023 SAID32 WATB 130300 METAR WATB 130300Z 36005KT 9999 BKN016 30/24 Q1011 NOSIG=  
13-Feb-2023 SAID32 WATB 130400 METAR WATB 130400Z 32005KT 9999 BKN015 29/24 Q1010 NOSIG=  
13-Feb-2023 SAID32 WATB 130500 METAR WATB 130500Z 35006KT 8000 -RA BKN015 27/23 Q1009 NOSIG=  
14-Feb-2023 SAID32 WATB 140000 METAR WATB 140000Z 07005KT 9999 BKN016 24/23 Q1011 NOSIG=  
14-Feb-2023 SAID32 WATB 140100 METAR WATB 140100Z 16005KT 9999 BKN016 25/24 Q1011 NOSIG=  
14-Feb-2023 SAID32 WATB 140200 METAR WATB 140200Z 34008KT 9999 BKN016 28/24 Q1010 NOSIG=  
14-Feb-2023 SAID32 WATB 140300 METAR WATB 140300Z 29010KT 9999 BKN016 28/23 Q1010 NOSIG=  
14-Feb-2023 SAID32 WATB 140400 METAR WATB 140400Z 19010KT 120V300 9999 BKN017 29/22 Q1009 NOSIG=  
14-Feb-2023 SAID32 WATB 140500 METAR WATB 140500Z 24005KT 9999 BKN017 30/22 Q1008 NOSIG=  
15-Feb-2023 SAID32 WATB 150000 METAR WATB 150000Z 04005KT 8000 VCFG SCT014 24/23 Q1011 NOSIG=  
15-Feb-2023 SAID32 WATB 150100 METAR WATB 150100Z 09005KT 8000 SCT014 25/23 Q1011 NOSIG=  
15-Feb-2023 SAID32 WATB 150200 METAR WATB 150200Z 07005KT 9999 SCT016 28/24 Q1011 NOSIG=  
15-Feb-2023 SAID32 WATB 150300 METAR WATB 150300Z 21003KT 9999 BKN016 29/24 Q1010 NOSIG=  
15-Feb-2023 SAID32 WATB 150400 METAR WATB 150400Z 35008KT 320V030 9999 BKN016 30/24 Q1009 NOSIG=  
15-Feb-2023 SAID32 WATB 150500 METAR WATB 150500Z 28010KT 9999 BKN017 29/23 Q1008 NOSIG=  
16-Feb-2023 SAID32 WATB 160000 METAR WATB 160000Z 11003KT 4000 VCFG BKN014 24/24 Q1013 NOSIG=  
16-Feb-2023 SAID32 WATB 160100 METAR WATB 160100Z 32003KT 6000 BKN014 26/24 Q1013 NOSIG=  
16-Feb-2023 SAID32 WATB 160200 METAR WATB 160200Z 07005KT 9999 SCT015 27/24 Q1012 NOSIG=  
16-Feb-2023 SAID32 WATB 160300 METAR WATB 160300Z 12005KT 9999 SCT016 30/24 Q1012 NOSIG=  
16-Feb-2023 SAID32 WATB 160400 METAR WATB 160400Z 07010KT 9999 BKN016 30/25 Q1011 NOSIG=  
16-Feb-2023 SAID32 WATB 160500 METAR WATB 160500Z 08010KT 8000 -TSRA FEW014CB BKN015 27/25 Q1010 TEMPO TL0530 TSRA RMK CB TO NE=  
17-Feb-2023 SAID32 WATB 170000 METAR WATB 170000Z 09003KT 4000 VCFG BKN014 24/24 Q1013 NOSIG=  
17-Feb-2023 SAID32 WATB 170100 METAR WATB 170100Z 10005KT 8000 BKN014 27/24 Q1013 NOSIG=  
17-Feb-2023 SAID32 WATB 170200 METAR WATB 170200Z 03005KT 8000 HZ SCT015 27/24 Q1013 NOSIG=  
17-Feb-2023 SAID32 WATB 170300 METAR WATB 170300Z 08010KT 9999 SCT015 29/25 Q1012 NOSIG=  
17-Feb-2023 SAID32 WATB 170400 METAR WATB 170400Z 08010KT 040V110 8000 -RA BKN015 28/25 Q1011 NOSIG=  
17-Feb-2023 SAID32 WATB 170500 METAR WATB 170500Z 05006KT 6000 VCSH BKN015 26/26 Q1010 RERA NOSIG RMK SH TO NE AND E=  
18-Feb-2023 SAID32 WATB 180000 METAR WATB 180000Z 07003KT 4000 VCFG BKN013 24/24 Q1013 NOSIG=  
18-Feb-2023 SAID32 WATB 180100 METAR WATB 180100Z 06003KT 8000 BKN014 28/23 Q1013 NOSIG=  
18-Feb-2023 SAID32 WATB 180200 METAR WATB 180200Z 09006KT 9999 BKN015 28/26 Q1013 NOSIG=  
18-Feb-2023 SAID32 WATB 180300 METAR WATB 180300Z 06008KT 9999 BKN015 29/24 Q1012 NOSIG=  
18-Feb-2023 SAID32 WATB 180400 METAR WATB 180400Z 07006KT 9999 FEW014CB BKN015 28/25 Q1011 NOSIG RMK CB TO SW=  
18-Feb-2023 SAID32 WATB 180500 METAR WATB 180500Z 10010KT 2000 +TSRA FEW014CB BKN015 23/23 Q1011 NOSIG RMK CB TO SW AND E=  
19-Feb-2023 SAID32 WATB 190000 METAR WATB 190000Z 35004KT 6000 VCFG FEW015 24/23 Q1013 NOSIG=  
19-Feb-2023 SAID32 WATB 190100 METAR WATB 190100Z 10005KT 9999 FEW015 26/23 Q1013 NOSIG=  
19-Feb-2023 SAID32 WATB 190200 METAR WATB 190200Z 02005KT 9999 SCT015 29/24 Q1013 NOSIG=  
19-Feb-2023 SAID32 WATB 190300 METAR WATB 190300Z 05005KT 9999 BKN015 28/23 Q1012 NOSIG=  
19-Feb-2023 SAID32 WATB 190400 METAR WATB 190400Z 07007KT 9999 BKN016 30/24 Q1011 NOSIG=  
19-Feb-2023 SAID32 WATB 190500 METAR WATB 190500Z 05005KT 9999 BKN015 28/25 Q1011 NOSIG=  
20-Feb-2023 SAID32 WATB 200000 METAR WATB 200000Z 09005KT 8000 FEW015 25/23 Q1012 NOSIG=  
20-Feb-2023 SAID32 WATB 200100 METAR WATB 200100Z 07005KT 9999 FEW016 26/24 Q1013 NOSIG=  
20-Feb-2023 SAID32 WATB 200200 METAR WATB 200200Z 09005KT 060V130 9999 FEW016 28/23 Q1013 NOSIG=  
20-Feb-2023 SAID32 WATB 200300 METAR WATB 200300Z 10005KT 040V110 9999 FEW016 29/24 Q1012 NOSIG=  
20-Feb-2023 SAID32 WATB 200500 METAR WATB 200500Z 06010KT 020V170 9999 BKN016 31/22 Q1010 NOSIG=  
21-Feb-2023 SAID32 WATB 210000 METAR WATB 210000Z 33005KT 8000 FEW013 24/24 Q1014 NOSIG=  
21-Feb-2023 SAID32 WATB 210100 METAR WATB 210100Z 10005KT 9999 FEW015 27/24 Q1014 NOSIG=  
21-Feb-2023 SAID32 WATB 210200 METAR WATB 210200Z 03005KT 9999 SCT015 28/24 Q1014 NOSIG=  
21-Feb-2023 SAID32 WATB 210300 METAR WATB 210300Z 08005KT 030V100 9999 BKN016 30/24 Q1013 NOSIG=  
21-Feb-2023 SAID32 WATB 210400 METAR WATB 210400Z 16008KT 8000 VCSH BKN015 28/24 Q1012 NOSIG RMK SH TO SW AND NW=  
21-Feb-2023 SAID32 WATB 210500 METAR WATB 210500Z 28006KT 2000 -TSRA FEW014CB BKN015 24/24 Q1012 TEMPO TL0630 TSRA RMK CB TO E AND W=  
22-Feb-2023 SAID32 WATB 220000 METAR WATB 220000Z 35005KT 4000 VCFG SCT014 24/24 Q1014 NOSIG=  
22-Feb-2023 SAID32 WATB 220100 METAR WATB 220100Z 36003KT 7000 VCFG SCT014 27/24 Q1013 NOSIG=  
22-Feb-2023 SAID32 WATB 220200 METAR WATB 220200Z 06006KT 9999 SCT016 28/25 Q1013 NOSIG=  
22-Feb-2023 SAID32 WATB 220300 METAR WATB 220300Z 09005KT 050V110 9999 BKN016 28/25 Q1012 NOSIG=  
22-Feb-2023 SAID32 WATB 220400 METAR WATB 220400Z 04007KT 8000 -RA BKN016 26/25 Q1011 NOSIG=  
22-Feb-2023 SAID32 WATB 220500 METAR WATB 220500Z 19008KT 7000 VCSH FEW013 BKN015 24/24 Q1011 RERA NOSIG RMK SH TO E, S AND W=  
23-Feb-2023 SAID32 WATB 230000 METAR WATB 230000Z 10003KT 4000 VCFG SCT014 23/23 Q1012 NOSIG=  
23-Feb-2023 SAID32 WATB 230100 METAR WATB 230100Z 11004KT 4000 VCFG FEW012 SCT014 24/23 Q1012 NOSIG=  
23-Feb-2023 SAID32 WATB 230200 METAR WATB 230200Z 12005KT 7000 VCFG FEW013 SCT015 24/23 Q1012 NOSIG=  
23-Feb-2023 SAID32 WATB 230300 METAR WATB 230300Z 31007KT 7000 -RA FEW014 BKN015 25/24 Q1011 NOSIG=  
23-Feb-2023 SAID32 WATB 230400 METAR WATB 230400Z 35004KT 6000 -RA FEW014 BKN016 24/24 Q1011 NOSIG=  
23-Feb-2023 SAID32 WATB 230500 METAR WATB 230500Z 19003KT 8000 -RA FEW013 BKN016 25/25 Q1010 NOSIG=  
24-Feb-2023 SAID32 WATB 240000 METAR WATB 240000Z 35002KT 4000 VCFG FEW012 BKN014 24/24 Q1012 NOSIG=  
24-Feb-2023 SAID32 WATB 240100 METAR WATB 240100Z 36004KT 8000 FEW012 BKN014 25/24 Q1012 NOSIG=  
24-Feb-2023 SAID32 WATB 240200 METAR WATB 240200Z 07004KT 9999 BKN016 27/25 Q1011 NOSIG=  
24-Feb-2023 SAID32 WATB 240300 METAR WATB 240300Z 09005KT 9999 BKN016 28/25 Q1011 NOSIG=  
24-Feb-2023 SAID32 WATB 240400 METAR WATB 240400Z 10008KT 9999 BKN016 27/25 Q1010 NOSIG=  
24-Feb-2023 SAID32 WATB 240500 METAR WATB 240500Z 09005KT 9999 FEW015 BKN017 28/25 Q1009 NOSIG=  
25-Feb-2023 SAID32 WATB 250000 METAR WATB 250000Z 11005KT 4000 FEW011 BKN013 23/23 Q1012 NOSIG=  
25-Feb-2023 SAID32 WATB 250100 METAR WATB 250100Z 05005KT 6000 BKN013 25/24 Q1012 NOSIG=  
25-Feb-2023 SAID32 WATB 250200 METAR WATB 250200Z 05005KT 9999 SCT015 27/24 Q1012 NOSIG=  
25-Feb-2023 SAID32 WATB 250300 METAR WATB 250300Z 06004KT 9999 SCT015 30/24 Q1012 NOSIG=  
25-Feb-2023 SAID32 WATB 250500 METAR WATB 250500Z 11006KT 080V150 9999 BKN015 27/25 Q1011 NOSIG=  
26-Feb-2023 SAID32 WATB 260000 METAR WATB 260000Z 32003KT 7000 VCFG SCT012 23/23 Q1012 NOSIG=  
26-Feb-2023 SAID32 WATB 260100 METAR WATB 260100Z 06002KT VCFG 5000 BKN012 24/24 Q1012 NOSIG=  
26-Feb-2023 SAID32 WATB 260200 METAR WATB 260200Z 14005KT 100V180 8000 FEW012 BKN014 24/23 Q1012 NOSIG=  
26-Feb-2023 SAID32 WATB 260300 METAR WATB 260300Z 10005KT 060V140 9999 FEW013 BKN016 26/24 Q1012 NOSIG=  
26-Feb-2023 SAID32 WATB 260400 CCA METAR COR WATB 260400Z 11004KT 9999 SCT015 26/24 Q1011 NOSIG=  
26-Feb-2023 SAID32 WATB 260400 METAR WATB 260400Z 11004KT 9999 SCT015 26/24 Q1012 NOSIG=  
26-Feb-2023 SAID32 WATB 260500 METAR WATB 260500Z 13005KT 9999 BKN015 26/23 Q1011 NOSIG=  
27-Feb-2023 SAID32 WATB 270000 METAR WATB 270000Z 09005KT 9999 SCT014 25/23 Q1013 NOSIG=  
27-Feb-2023 SAID32 WATB 270100 METAR WATB 270100Z 06003KT 9999 SCT015 25/24 Q1013 NOSIG=  
27-Feb-2023 SAID32 WATB 270200 METAR WATB 270200Z 10006KT 9999 SCT016 27/24 Q1013 NOSIG=  
27-Feb-2023 SAID32 WATB 270300 METAR WATB 270300Z 11005KT 9999 BKN016 29/24 Q1013 NOSIG=  
27-Feb-2023 SAID32 WATB 270400 METAR WATB 270400Z 13007KT 100V160 9999 BKN016 29/24 Q1013 NOSIG=  
27-Feb-2023 SAID32 WATB 270500 METAR WATB 270500Z 04010KT 9999 BKN017 29/24 Q1012 NOSIG=  
28-Feb-2023 SAID32 WATB 280000 METAR WATB 280000Z 19003KT 4000 SCT014 23/23 Q1015 NOSIG=  
28-Feb-2023 SAID32 WATB 280100 METAR WATB 280100Z 09003KT 5000 VCFG SCT014 24/24 Q1015 NOSIG=  
28-Feb-2023 SAID32 WATB 280200 METAR WATB 280200Z 15003KT 5000 VCFG SCT014 25/24 Q1015 NOSIG=  
28-Feb-2023 SAID32 WATB 280300 METAR WATB 280300Z 09005KT 8000 FEW013 SCT014 26/24 Q1014 NOSIG=  
28-Feb-2023 SAID32 WATB 280400 METAR WATB 280400Z 12005KT 9999 SCT015 27/24 Q1013 NOSIG=  
28-Feb-2023 SAID32 WATB 280500 METAR WATB 280500Z 05005KT 040V100 9999 BKN015 28/25 Q1012 NOSIG=  
01-Mar-2023 SAID32 WATB 010000 METAR WATB 010000Z 24002KT 6000 FEW012 BKN014 23/23 Q1014 NOSIG=  
01-Mar-2023 SAID32 WATB 010100 METAR WATB 010100Z 05003KT 5000 FEW012 BKN013 24/24 Q1014 NOSIG=  
01-Mar-2023 SAID32 WATB 010200 METAR WATB 010200Z 16005KT 100V170 7000 FEW012 BKN014 25/24 Q1014 NOSIG=  
01-Mar-2023 SAID32 WATB 010300 METAR WATB 010300Z 06006KT 030V100 9999 BKN015 25/24 Q1013 NOSIG=  
01-Mar-2023 SAID32 WATB 010400 METAR WATB 010400Z 01006KT 6000 -RA FEW012 BKN015 24/24 Q1013 NOSIG=  
01-Mar-2023 SAID32 WATB 010500 METAR WATB 010500Z 10005KT 060V130 8000 FEW013 BKN015 25/24 Q1012 RERA NOSIG=  
02-Mar-2023 SAID32 WATB 020000 METAR WATB 020000Z 16003KT 8000 VCFG SCT012 23/22 Q1015 NOSIG=  
02-Mar-2023 SAID32 WATB 020100 METAR WATB 020100Z 16005KT 9999 FEW012 24/22 Q1016 NOSIG=  
02-Mar-2023 SAID32 WATB 020200 METAR WATB 020200Z 08005KT 050V120 9999 FEW014 27/23 Q1015 NOSIG=  
02-Mar-2023 SAID32 WATB 020300 METAR WATB 020300Z 09005KT 050V130 9999 SCT015 28/23 Q1014 NOSIG=  
02-Mar-2023 SAID32 WATB 020400 METAR WATB 020400Z 10005KT 9999 SCT015 28/22 Q1014 NOSIG=  
02-Mar-2023 SAID32 WATB 020500 METAR WATB 020500Z 05005KT 030V090 9999 BKN016 29/23 Q1013 NOSIG=  
03-Mar-2023 SAID32 WATB 030000 METAR WATB 030000Z 21003KT 4000 -RA FEW011 BKN013 23/23 Q1018 NOSIG=  
03-Mar-2023 SAID32 WATB 030100 METAR WATB 030100Z 11003KT 4000 -RA FEW011 BKN013 23/23 Q1018 NOSIG=  
03-Mar-2023 SAID32 WATB 030200 METAR WATB 030200Z 10003KT 4000 -RA FEW011 BKN014 24/23 Q1018 NOSIG=  
03-Mar-2023 SAID32 WATB 030300 METAR WATB 030300Z 03003KT 8000 VCFG FEW013 BKN015 26/24 Q1017 NOSIG=  
03-Mar-2023 SAID32 WATB 030400 METAR WATB 030400Z 08005KT 9999 FEW014 BKN016 28/25 Q1016 NOSIG=  
03-Mar-2023 SAID32 WATB 030500 METAR WATB 030500Z 08003KT 9999 FEW014 BKN016 27/25 Q1015 NOSIG=  
04-Mar-2023 SAID32 WATB 040000 METAR WATB 040000Z 04002KT 4000 VCFG FEW014 25/23 Q1017 NOSIG=  
04-Mar-2023 SAID32 WATB 040100 METAR WATB 040100Z 11003KT 9999 FEW014 26/24 Q1017 NOSIG=  
04-Mar-2023 SAID32 WATB 040200 METAR WATB 040200Z 04007KT 9999 SCT015 28/23 Q1017 NOSIG=  
04-Mar-2023 SAID32 WATB 040300 METAR WATB 040300Z 05006KT 9999 SCT016 29/22 Q1016 NOSIG=  
04-Mar-2023 SAID32 WATB 040400 METAR WATB 040400Z 05014KT 9999 BKN016 29/24 Q1015 NOSIG=  
04-Mar-2023 SAID32 WATB 040500 METAR WATB 040500Z 08010KT 9999 BKN016 29/25 Q1014 NOSIG=  
05-Mar-2023 SAID32 WATB 050000 METAR WATB 050000Z 10005KT 6000 VCFG FEW012 BKN014 22/22 Q1016 NOSIG=  
05-Mar-2023 SAID32 WATB 050100 METAR WATB 050100Z 05004KT 9999 SCT014 25/24 Q1016 NOSIG=  
05-Mar-2023 SAID32 WATB 050200 METAR WATB 050200Z 07006KT 9999 SCT015 28/23 Q1016 NOSIG=  
05-Mar-2023 SAID32 WATB 050300 METAR WATB 050300Z 05008KT 9999 BKN016 28/22 Q1015 NOSIG=  
05-Mar-2023 SAID32 WATB 050400 METAR WATB 050400Z 04008KT 9999 BKN017 29/22 Q1014 NOSIG=  
05-Mar-2023 SAID32 WATB 050500 METAR WATB 050500Z 07005KT 9999 BKN016 29/21 Q1013 NOSIG=  
06-Mar-2023 SAID32 WATB 060000 METAR WATB 060000Z 34003KT 6000 SCT014 23/23 Q1015 NOSIG=  
06-Mar-2023 SAID32 WATB 060100 METAR WATB 060100Z 04005KT 8000 VCFG FEW013 BKN014 24/23 Q1016 NOSIG=  
06-Mar-2023 SAID32 WATB 060200 METAR WATB 060200Z 13005KT 9999 FEW013 SCT015 26/23 Q1016 NOSIG=  
06-Mar-2023 SAID32 WATB 060300 METAR WATB 060300Z 12005KT 090V150 9999 BKN015 28/23 Q1015 NOSIG=  
06-Mar-2023 SAID32 WATB 060400 METAR WATB 060400Z 08006KT 030V090 9999 FEW014 BKN015 29/24 Q1014 NOSIG=  
06-Mar-2023 SAID32 WATB 060500 METAR WATB 060500Z 04010KT 3000 RA FEW013CB BKN015 23/23 Q1014 TEMPO TL0530 +RA RMK CB TO N AND E=  
07-Mar-2023 SAID32 WATB 070000 METAR WATB 070000Z 09003KT 4000 VCFG FEW012 23/23 Q1016 NOSIG=  
07-Mar-2023 SAID32 WATB 070100 METAR WATB 070100Z 05003KT 6000 VCFG SCT013 25/24 Q1017 NOSIG=  
07-Mar-2023 SAID32 WATB 070200 METAR WATB 070200Z 16003KT 9999 SCT014 27/23 Q1016 NOSIG=  
07-Mar-2023 SAID32 WATB 070300 METAR WATB 070300Z 07007KT 040V100 9999 BKN015 27/24 Q1015 NOSIG=  
07-Mar-2023 SAID32 WATB 070400 METAR WATB 070400Z 08010KT 9999 VCSH BKN015 28/24 Q1014 NOSIG RMK SH TO W=  
07-Mar-2023 SAID32 WATB 070500 METAR WATB 070500Z 11005KT 060V130 9999 BKN015 29/24 Q1013 NOSIG=  
08-Mar-2023 SAID32 WATB 080000 METAR WATB 080000Z 02003KT 5000 FEW012 BKN013 23/23 Q1017 NOSIG=  
08-Mar-2023 SAID32 WATB 080100 METAR WATB 080100Z 16003KT 6000 VCFG FEW012 BKN013 24/24 Q1018 NOSIG=  
08-Mar-2023 SAID32 WATB 080200 METAR WATB 080200Z 03003KT 8000 -RA FEW013 BKN015 24/24 Q1017 NOSIG=  
08-Mar-2023 SAID32 WATB 080300 METAR WATB 080300Z 34002KT 4000 FEW013 BKN015 25/24 Q1017 NOSIG=  
08-Mar-2023 SAID32 WATB 080400 METAR WATB 080400Z 02003KT 5000 DZ FEW013 BKN015 26/24 Q1016 NOSIG=  
08-Mar-2023 SAID32 WATB 080500 METAR WATB 080500Z 02005KT 9999 FEW014 BKN015 27/25 Q1015 REDZ NOSIG=  
09-Mar-2023 SAID32 WATB 090000 METAR WATB 090000Z 05003KT 6000 FEW013 24/23 Q1016 NOSIG=  
09-Mar-2023 SAID32 WATB 090100 METAR WATB 090100Z 07003KT 9999 FEW013 26/24 Q1016 NOSIG=  
09-Mar-2023 SAID32 WATB 090200 METAR WATB 090200Z 35006KT 330V040 9999 FEW015 28/24 Q1016 NOSIG=  
09-Mar-2023 SAID32 WATB 090300 METAR WATB 090300Z 11005KT 070V170 9999 FEW015 29/24 Q1015 NOSIG=  
09-Mar-2023 SAID32 WATB 090400 METAR WATB 090400Z 09003KT 9999 FEW015 30/23 Q1014 NOSIG=  
09-Mar-2023 SAID32 WATB 090500 METAR WATB 090500Z 35002KT 9999 SCT016 31/21 Q1013 NOSIG=  
10-Mar-2023 SAID32 WATB 100000 METAR WATB 100000Z 03002KT 9999 FEW012 26/22 Q1015 NOSIG=  
10-Mar-2023 SAID32 WATB 100100 METAR WATB 100100Z 07002KT 9999 FEW014 27/24 Q1015 NOSIG=  
10-Mar-2023 SAID32 WATB 100200 METAR WATB 100200Z 07005KT 9999 FEW015 29/23 Q1015 NOSIG=  
10-Mar-2023 SAID32 WATB 100300 METAR WATB 100300Z 08007KT 9999 FEW016 29/24 Q1014 NOSIG=  
10-Mar-2023 SAID32 WATB 100400 METAR WATB 100400Z 07005KT 9999 FEW016 31/23 Q1013 NOSIG=  
10-Mar-2023 SAID32 WATB 100500 METAR WATB 100500Z 08005KT 050V140 9999 SCT017 32/23 Q1012 NOSIG=  
11-Mar-2023 SAID32 WATB 110000 METAR WATB 110000Z 08003KT 9999 FEW013 25/23 Q1015 NOSIG=  
11-Mar-2023 SAID32 WATB 110100 METAR WATB 110100Z 09005KT 9999 FEW015 27/24 Q1015 NOSIG=  
11-Mar-2023 SAID32 WATB 110200 METAR WATB 110200Z 35005KT 320V050 9999 FEW016 29/23 Q1015 NOSIG=  
11-Mar-2023 SAID32 WATB 110300 METAR WATB 110300Z 04005KT 9999 FEW016 30/23 Q1014 NOSIG=  
11-Mar-2023 SAID32 WATB 110400 METAR WATB 110400Z 04006KT 9999 SCT016 30/22 Q1013 NOSIG=  
11-Mar-2023 SAID32 WATB 110500 METAR WATB 110500Z 03005KT 9999 BKN016 31/21 Q1012 NOSIG=  
12-Mar-2023 SAID32 WATB 120000 METAR WATB 120000Z 31005KT 9999 FEW013 25/21 Q1015 NOSIG=  
12-Mar-2023 SAID32 WATB 120100 METAR WATB 120100Z 07003KT 9999 FEW015 27/22 Q1015 NOSIG=  
12-Mar-2023 SAID32 WATB 120200 METAR WATB 120200Z 35005KT 9999 FEW016 28/23 Q1015 NOSIG=  
12-Mar-2023 SAID32 WATB 120300 METAR WATB 120300Z 07007KT 9999 SCT016 29/23 Q1014 NOSIG=  
12-Mar-2023 SAID32 WATB 120400 METAR WATB 120400Z 06005KT 9999 SCT016 30/22 Q1013 NOSIG=  
12-Mar-2023 SAID32 WATB 120500 METAR WATB 120500Z 16010KT 9999 SCT016 31/20 Q1012 NOSIG=  
13-Mar-2023 SAID32 WATB 130000 METAR WATB 130000Z 06003KT 9999 VCFG FEW014 24/21 Q1015 NOSIG=  
13-Mar-2023 SAID32 WATB 130100 METAR WATB 130100Z 09003KT 9999 FEW015 27/23 Q1014 NOSIG=  
13-Mar-2023 SAID32 WATB 130200 METAR WATB 130200Z 08005KT 9999 FEW015 28/22 Q1014 NOSIG=  
13-Mar-2023 SAID32 WATB 130300 METAR WATB 130300Z 07005KT 9999 SCT016 29/21 Q1013 NOSIG=  
13-Mar-2023 SAID32 WATB 130400 METAR WATB 130400Z 02005KT 9999 BKN016 30/21 Q1012 NOSIG=  
13-Mar-2023 SAID32 WATB 130500 METAR WATB 130500Z 09006KT 9999 BKN016 29/22 Q1011 NOSIG=  
14-Mar-2023 SAID32 WATB 140000 METAR WATB 140000Z 14003KT 9999 VCFG FEW016 25/23 Q1014 NOSIG=  
14-Mar-2023 SAID32 WATB 140100 METAR WATB 140100Z 01005KT 9999 FEW015 26/24 Q1014 NOSIG=  
14-Mar-2023 SAID32 WATB 140200 METAR WATB 140200Z 04005KT 9999 FEW015 28/23 Q1014 NOSIG=  
14-Mar-2023 SAID32 WATB 140300 METAR WATB 140300Z 02005KT 330V060 9999 FEW015 29/22 Q1013 NOSIG=  
14-Mar-2023 SAID32 WATB 140400 METAR WATB 140400Z 08005KT 9999 SCT016 30/23 Q1012 NOSIG=  
14-Mar-2023 SAID32 WATB 140500 METAR WATB 140500Z 04004KT 9999 SCT017 30/22 Q1011 NOSIG=  
15-Mar-2023 SAID32 WATB 150000 METAR WATB 150000Z 10002KT 9999 FEW014 26/22 Q1015 NOSIG=  
15-Mar-2023 SAID32 WATB 150100 METAR WATB 150100Z 04003KT 9999 FEW015 27/23 Q1015 NOSIG=  
15-Mar-2023 SAID32 WATB 150200 METAR WATB 150200Z 04004KT 9999 FEW015 29/23 Q1015 NOSIG=  
15-Mar-2023 SAID32 WATB 150300 METAR WATB 150300Z 01006KT 9999 FEW016 30/23 Q1014 NOSIG=  
15-Mar-2023 SAID32 WATB 150400 METAR WATB 150400Z 04006KT 9999 SCT016 31/22 Q1013 NOSIG=  
15-Mar-2023 SAID32 WATB 150500 METAR WATB 150500Z 12007KT 090V170 8000 VCSH BKN016 30/23 Q1013 NOSIG RMK SH TO S=  
16-Mar-2023 SAID32 WATB 160000 METAR WATB 160000Z 12003KT 9999 VCFG FEW014 26/23 Q1015 NOSIG=  
16-Mar-2023 SAID32 WATB 160100 METAR WATB 160100Z 07003KT 9999 FEW016 29/24 Q1015 NOSIG=  
16-Mar-2023 SAID32 WATB 160200 METAR WATB 160200Z 09005KT 9999 FEW016 30/24 Q1015 NOSIG=  
16-Mar-2023 SAID32 WATB 160300 METAR WATB 160300Z 06006KT 050V130 9999 BKN018 30/23 Q1015 NOSIG=  
16-Mar-2023 SAID32 WATB 160500 METAR WATB 160500Z 09005KT 9999 BKN017 31/24 Q1013 NOSIG=  
17-Mar-2023 SAID32 WATB 170000 METAR WATB 170000Z 08003KT 8000 HZ SCT014 25/24 Q1016 NOSIG=  
17-Mar-2023 SAID32 WATB 170100 METAR WATB 170100Z 04003KT 9999 SCT015 28/25 Q1016 NOSIG=  
17-Mar-2023 SAID32 WATB 170200 METAR WATB 170200Z 04006KT 9999 SCT016 29/24 Q1015 NOSIG=  
17-Mar-2023 SAID32 WATB 170300 METAR WATB 170300Z 07005KT 9999 SCT016 30/24 Q1015 NOSIG=  
17-Mar-2023 SAID32 WATB 170400 METAR WATB 170400Z 05008KT 9999 BKN016 31/24 Q1014 NOSIG=  
17-Mar-2023 SAID32 WATB 170500 METAR WATB 170500Z 05006KT 9999 BKN016 30/25 Q1013 NOSIG=  
19-Mar-2023 SAID32 WATB 190000 METAR WATB 190000Z 03003KT 8000 FEW014 25/24 Q1015 NOSIG=  
19-Mar-2023 SAID32 WATB 190100 METAR WATB 190100Z 36005KT 9999 FEW016 27/24 Q1015 NOSIG=  
19-Mar-2023 SAID32 WATB 190200 METAR WATB 190200Z 06005KT 9999 FEW016 29/23 Q1015 NOSIG=  
19-Mar-2023 SAID32 WATB 190300 METAR WATB 190300Z 04003KT 9999 BKN016 29/23 Q1014 NOSIG=  
19-Mar-2023 SAID32 WATB 190400 METAR WATB 190400Z 03007KT 010V080 9999 BKN016 30/24 Q1013 NOSIG=  
19-Mar-2023 SAID32 WATB 190500 METAR WATB 190500Z 07006KT 040V100 9999 BKN017 30/23 Q1012 NOSIG=  
20-Mar-2023 SAID32 WATB 200000 METAR WATB 200000Z 08003KT 8000 HZ FEW015 26/24 Q1013 NOSIG=  
20-Mar-2023 SAID32 WATB 200100 METAR WATB 200100Z 09003KT 8000 HZ FEW015 28/24 Q1014 NOSIG=  
20-Mar-2023 SAID32 WATB 200200 METAR WATB 200200Z 19005KT 8000 HZ SCT015 29/23 Q1013 NOSIG=  
20-Mar-2023 SAID32 WATB 200300 METAR WATB 200300Z 12003KT 9999 BKN017 30/24 Q1013 NOSIG=  
20-Mar-2023 SAID32 WATB 200400 METAR WATB 200400Z 20006KT 9999 BKN017 28/25 Q1012 NOSIG=  
20-Mar-2023 SAID32 WATB 200500 METAR WATB 200500Z 18005KT 100V240 9999 BKN017 31/24 Q1011 NOSIG=  
21-Mar-2023 SAID32 WATB 210000 METAR WATB 210000Z 09003KT 9999 FEW015 26/23 Q1014 NOSIG=  
21-Mar-2023 SAID32 WATB 210100 METAR WATB 210100Z 08004KT 9999 FEW015 27/24 Q1014 NOSIG=  
21-Mar-2023 SAID32 WATB 210200 METAR WATB 210200Z 07003KT 9999 SCT015 29/22 Q1014 NOSIG=  
21-Mar-2023 SAID32 WATB 210300 METAR WATB 210300Z 04005KT 9999 SCT015 30/23 Q1013 NOSIG=  
21-Mar-2023 SAID32 WATB 210400 METAR WATB 210400Z 07008KT 9999 BKN017 30/24 Q1012 NOSIG=  
21-Mar-2023 SAID32 WATB 210500 METAR WATB 210500Z 12007KT 8000 VCSH BKN016 30/24 Q1011 NOSIG RMK SH TO NE AND W=  
22-Mar-2023 SAID32 WATB 220000 METAR WATB 220000Z 08003KT 9999 VCFG FEW015 23/23 Q1013 NOSIG=  
22-Mar-2023 SAID32 WATB 220100 METAR WATB 220100Z 16002KT 9999 VCFG FEW015 25/23 Q1013 NOSIG=  
22-Mar-2023 SAID32 WATB 220200 METAR WATB 220200Z 04003KT 9999 FEW015 26/24 Q1013 NOSIG=  
22-Mar-2023 SAID32 WATB 220300 METAR WATB 220300Z 05003KT 9999 FEW017 28/23 Q1012 NOSIG=  
22-Mar-2023 SAID32 WATB 220400 METAR WATB 220400Z 03003KT 9999 FEW017 28/22 Q1012 NOSIG=  
22-Mar-2023 SAID32 WATB 220500 METAR WATB 220500Z 08003KT 9999 BKN017 30/21 Q1011 NOSIG=  
23-Mar-2023 SAID32 WATB 230000 METAR WATB 230000Z 12002KT 4000 VCFG FEW013 24/24 Q1014 NOSIG=  
23-Mar-2023 SAID32 WATB 230100 METAR WATB 230100Z 09005KT 8000 VCFG FEW015 25/24 Q1014 NOSIG=  
23-Mar-2023 SAID32 WATB 230200 METAR WATB 230200Z 07003KT 9999 FEW015 27/24 Q1014 NOSIG=  
23-Mar-2023 SAID32 WATB 230300 METAR WATB 230300Z 12005KT 9999 SCT016 28/24 Q1014 NOSIG=  
23-Mar-2023 SAID32 WATB 230400 METAR WATB 230400Z 12003KT 9999 SCT016 30/25 Q1013 NOSIG=  
23-Mar-2023 SAID32 WATB 230500 METAR WATB 230500Z 05007KT 9999 BKN016 30/25 Q1011 NOSIG=  
24-Mar-2023 SAID32 WATB 240000 METAR WATB 240000Z 09002KT 8000 VCFG FEW015 26/24 Q1014 NOSIG=  
24-Mar-2023 SAID32 WATB 240100 METAR WATB 240100Z 07002KT 9999 FEW015 28/24 Q1014 NOSIG=  
24-Mar-2023 SAID32 WATB 240200 METAR WATB 240200Z 09005KT 040V120 9999 FEW016 29/23 Q1014 NOSIG=  
24-Mar-2023 SAID32 WATB 240300 METAR WATB 240300Z 13004KT 9999 BKN016 29/24 Q1014 NOSIG=  
24-Mar-2023 SAID32 WATB 240400 METAR WATB 240400Z 12005KT 9999 BKN017 30/24 Q1013 NOSIG=  
24-Mar-2023 SAID32 WATB 240500 METAR WATB 240500Z 09010KT 050V140 9999 FEW015CB BKN016 30/25 Q1012 NOSIG RMK CB TO W=  
25-Mar-2023 SAID32 WATB 250000 METAR WATB 250000Z 09003KT 9999 FEW015 25/23 Q1015 NOSIG=  
25-Mar-2023 SAID32 WATB 250100 METAR WATB 250100Z 03002KT 9999 FEW016 28/23 Q1015 NOSIG=  
25-Mar-2023 SAID32 WATB 250200 METAR WATB 250200Z 03005KT 9999 FEW016 29/24 Q1014 NOSIG=  
25-Mar-2023 SAID32 WATB 250300 METAR WATB 250300Z 03005KT 9999 SCT016 30/25 Q1014 NOSIG=  
25-Mar-2023 SAID32 WATB 250400 METAR WATB 250400Z 07006KT 050V130 9999 VCSH BKN016 31/24 Q1013 NOSIG RMK SH TO NE=  
25-Mar-2023 SAID32 WATB 250500 METAR WATB 250500Z 09007KT 070V130 9999 BKN016 30/25 Q1012 NOSIG=  
26-Mar-2023 SAID32 WATB 260000 METAR WATB 260000Z 08003KT 9999 FEW015 27/23 Q1014 NOSIG=  
26-Mar-2023 SAID32 WATB 260100 METAR WATB 260100Z 02005KT 9999 FEW017 28/24 Q1014 NOSIG=  
26-Mar-2023 SAID32 WATB 260200 METAR WATB 260200Z 34005KT 9999 SCT017 30/24 Q1014 NOSIG=  
26-Mar-2023 SAID32 WATB 260300 METAR WATB 260300Z 01003KT 9999 SCT017 31/24 Q1013 NOSIG=  
26-Mar-2023 SAID32 WATB 260400 METAR WATB 260400Z 09008KT 8000 VCSH BKN017 31/23 Q1012 NOSIG RMK SH TO NE=  
26-Mar-2023 SAID32 WATB 260500 METAR WATB 260500Z 05010KT 8000 VCSH BKN016 30/25 Q1011 NOSIG RMK SH TO N=  
27-Mar-2023 SAID32 WATB 270000 METAR WATB 270000Z 06003KT 9999 FEW015 25/23 Q1013 NOSIG=  
27-Mar-2023 SAID32 WATB 270100 METAR WATB 270100Z 05003KT 9999 FEW016 27/24 Q1014 NOSIG=  
27-Mar-2023 SAID32 WATB 270200 METAR WATB 270200Z 08003KT 9999 SCT016 29/23 Q1014 NOSIG=  
27-Mar-2023 SAID32 WATB 270300 METAR WATB 270300Z 10009KT 050V140 9999 BKN017 30/24 Q1013 NOSIG=  
27-Mar-2023 SAID32 WATB 270400 METAR WATB 270400Z 07006KT 340V100 9999 BKN017 31/23 Q1012 NOSIG=  
27-Mar-2023 SAID32 WATB 270500 METAR WATB 270500Z 16010KT 120V180 8000 FEW015CB BKN016 30/25 Q1012 NOSIG RMK CB TO N AND SW=  
28-Mar-2023 SAID32 WATB 280000 METAR WATB 280000Z 05004KT 8000 FEW014 26/24 Q1014 NOSIG=  
28-Mar-2023 SAID32 WATB 280100 METAR WATB 280100Z 08005KT 050V110 9999 FEW015 27/26 Q1014 NOSIG=  
28-Mar-2023 SAID32 WATB 280200 METAR WATB 280200Z 09006KT 060V120 9999 SCT015 29/25 Q1014 NOSIG=  
28-Mar-2023 SAID32 WATB 280300 METAR WATB 280300Z 03006KT 9999 SCT016 29/24 Q1013 NOSIG=  
28-Mar-2023 SAID32 WATB 280400 METAR WATB 280400Z 08007KT 360V100 9999 BKN016 31/24 Q1013 NOSIG=  
28-Mar-2023 SAID32 WATB 280500 METAR WATB 280500Z 08010KT 8000 VCSH BKN016 30/26 Q1013 NOSIG=  
29-Mar-2023 SAID32 WATB 290000 METAR WATB 290000Z 10003KT 8000 VCFG FEW013 26/26 Q1014 NOSIG=  
29-Mar-2023 SAID32 WATB 290100 METAR WATB 290100Z 08005KT 9999 FEW015 28/25 Q1014 NOSIG=  
29-Mar-2023 SAID32 WATB 290200 METAR WATB 290200Z 02005KT 340V070 9999 SCT016 29/25 Q1014 NOSIG=  
29-Mar-2023 SAID32 WATB 290300 METAR WATB 290300Z 11007KT 9999 BKN016 28/24 Q1013 NOSIG=  
29-Mar-2023 SAID32 WATB 290400 METAR WATB 290400Z 15007KT 120V190 9999 BKN016 29/24 Q1012 NOSIG=  
29-Mar-2023 SAID32 WATB 290500 METAR WATB 290500Z 12010KT 050V180 9999 BKN017 30/25 Q1011 NOSIG=  
30-Mar-2023 SAID32 WATB 300000 METAR WATB 300000Z 20003KT 3000 RA BKN013 22/22 Q1014 NOSIG=  
30-Mar-2023 SAID32 WATB 300100 METAR WATB 300100Z 23003KT 8000 -RA FEW013 BKN015 22/22 Q1014 NOSIG=  
30-Mar-2023 SAID32 WATB 300200 METAR WATB 300200Z 32003KT 8000 -RA FEW013 BKN015 23/23 Q1013 NOSIG=  
30-Mar-2023 SAID32 WATB 300300 METAR WATB 300300Z 31003KT 8000 VCFG FEW013 BKN017 24/23 Q1013 RERA NOSIG=  
30-Mar-2023 SAID32 WATB 300400 METAR WATB 300400Z 10002KT 9999 FEW016 26/24 Q1012 NOSIG=  
30-Mar-2023 SAID32 WATB 300500 METAR WATB 300500Z 09003KT 9999 FEW016 27/23 Q1011 NOSIG=  
31-Mar-2023 SAID32 WATB 310000 METAR WATB 310000Z 07003KT 9999 FEW014 27/23 Q1014 NOSIG=  
31-Mar-2023 SAID32 WATB 310100 METAR WATB 310100Z 05005KT 9999 FEW015 27/23 Q1014 NOSIG=  
31-Mar-2023 SAID32 WATB 310200 METAR WATB 310200Z 36002KT 9999 SCT016 29/23 Q1014 NOSIG=  
31-Mar-2023 SAID32 WATB 310300 METAR WATB 310300Z 14007KT 110V170 9999 BKN016 27/23 Q1013 NOSIG=  
31-Mar-2023 SAID32 WATB 310400 METAR WATB 310400Z 07007KT 8000 VCSH FEW015CB BKN016 27/24 Q1013 NOSIG RMK CB TO W=  
31-Mar-2023 SAID32 WATB 310500 METAR WATB 310500Z 32005KT 8000 VCSH FEW015CB BKN016 25/23 Q1012 NOSIG RMK CB TO W=  
01-Apr-2023 SAID32 WATB 010000 METAR WATB 010000Z 02003KT 9999 FEW016 25/22 Q1013 NOSIG=  
01-Apr-2023 SAID32 WATB 010100 METAR WATB 010100Z 05003KT 9999 FEW016 27/23 Q1014 NOSIG=  
01-Apr-2023 SAID32 WATB 010200 METAR WATB 010200Z 02006KT 9999 FEW016 29/24 Q1014 NOSIG=  
01-Apr-2023 SAID32 WATB 010300 METAR WATB 010300Z 15005KT 9999 SCT016 30/22 Q1013 NOSIG=  
01-Apr-2023 SAID32 WATB 010400 METAR WATB 010400Z 12006KT 9999 BKN016 30/21 Q1012 NOSIG=  
01-Apr-2023 SAID32 WATB 010500 METAR WATB 010500Z 08006KT 8000 VCSH BKN016 29/24 Q1011 NOSIG RMK SH TO N AND E=  
02-Apr-2023 SAID32 WATB 020000 METAR WATB 020000Z 09003KT 8000 VCFG FEW013 26/24 Q1013 NOSIG=  
02-Apr-2023 SAID32 WATB 020100 METAR WATB 020100Z 09005KT 9999 FEW015 26/23 Q1013 NOSIG=  
02-Apr-2023 SAID32 WATB 020200 METAR WATB 020200Z 04005KT 9999 SCT016 28/24 Q1013 NOSIG=  
02-Apr-2023 SAID32 WATB 020300 METAR WATB 020300Z 06007KT 9999 BKN016 28/25 Q1013 NOSIG=  
02-Apr-2023 SAID32 WATB 020400 METAR WATB 020400Z 08003KT 8000 -RA BKN016 27/25 Q1012 NOSIG=  
02-Apr-2023 SAID32 WATB 020500 METAR WATB 020500Z 23005KT 6000 VCSH BKN016 26/25 Q1011 RERA NOSIG RMK SH TO NE=  
03-Apr-2023 SAID32 WATB 030000 METAR WATB 030000Z 07003KT 8000 VCFG FEW014 24/23 Q1014 NOSIG=  
03-Apr-2023 SAID32 WATB 030100 METAR WATB 030100Z 08003KT 8000 VCFG SCT014 25/24 Q1014 NOSIG=  
03-Apr-2023 SAID32 WATB 030200 METAR WATB 030200Z 05003KT 9999 SCT015 26/24 Q1014 NOSIG=  
03-Apr-2023 SAID32 WATB 030300 METAR WATB 030300Z 13003KT 9999 BKN016 29/23 Q1013 NOSIG=  
03-Apr-2023 SAID32 WATB 030400 METAR WATB 030400Z 07006KT 9999 BKN016 28/25 Q1012 NOSIG=  
03-Apr-2023 SAID32 WATB 030500 METAR WATB 030500Z 07005KT 8000 VCSH BKN016 29/25 Q1011 NOSIG RMK SH TO W=  
04-Apr-2023 SAID32 WATB 040000 METAR WATB 040000Z 09003KT 9999 FEW014 26/23 Q1014 NOSIG=  
04-Apr-2023 SAID32 WATB 040100 METAR WATB 040100Z 05003KT 9999 FEW015 27/24 Q1015 NOSIG=  
04-Apr-2023 SAID32 WATB 040200 METAR WATB 040200Z 03003KT 9999 SCT016 29/23 Q1014 NOSIG=  
04-Apr-2023 SAID32 WATB 040300 METAR WATB 040300Z 36006KT 350V050 9999 SCT016 29/24 Q1014 NOSIG=  
04-Apr-2023 SAID32 WATB 040400 METAR WATB 040400Z 03005KT 020V080 9999 BKN016 30/23 Q1012 NOSIG=  
04-Apr-2023 SAID32 WATB 040500 METAR WATB 040500Z 06010KT 9999 BKN016 29/24 Q1012 NOSIG=  
05-Apr-2023 SAID32 WATB 050000 METAR WATB 050000Z 18004KT 5000 VCFG FEW014 23/22 Q1015 NOSIG=  
05-Apr-2023 SAID32 WATB 050100 METAR WATB 050100Z 35005KT 9999 FEW014 26/23 Q1015 NOSIG=  
05-Apr-2023 SAID32 WATB 050200 METAR WATB 050200Z 05005KT 9999 FEW015 28/24 Q1015 NOSIG=  
05-Apr-2023 SAID32 WATB 050300 METAR WATB 050300Z 12005KT 9999 FEW016 29/23 Q1014 NOSIG=  
05-Apr-2023 SAID32 WATB 050400 METAR WATB 050400Z 06006KT 360V100 9999 SCT016 29/24 Q1013 NOSIG=  
05-Apr-2023 SAID32 WATB 050500 METAR WATB 050500Z 05006KT 9999 SCT017 29/24 Q1012 NOSIG=  
06-Apr-2023 SAID32 WATB 060000 METAR WATB 060000Z 14002KT 9999 FEW015 23/23 Q1014 NOSIG=  
06-Apr-2023 SAID32 WATB 060100 METAR WATB 060100Z 36002KT 9999 FEW015 26/23 Q1014 NOSIG=  
06-Apr-2023 SAID32 WATB 060200 METAR WATB 060200Z 33002KT 9999 FEW016 29/23 Q1014 NOSIG=  
06-Apr-2023 SAID32 WATB 060300 METAR WATB 060300Z 11005KT 9999 FEW017 29/23 Q1013 NOSIG=  
06-Apr-2023 SAID32 WATB 060400 METAR WATB 060400Z 33003KT 9999 FEW017 31/23 Q1012 NOSIG=  
06-Apr-2023 SAID32 WATB 060500 METAR WATB 060500Z 08005KT 9999 SCT017 30/22 Q1011 NOSIG=  
07-Apr-2023 SAID32 WATB 070000 METAR WATB 070000Z 07003KT 9999 FEW015 24/22 Q1014 NOSIG=  
07-Apr-2023 SAID32 WATB 070100 METAR WATB 070100Z 02003KT 9999 FEW016 28/24 Q1015 NOSIG=  
07-Apr-2023 SAID32 WATB 070200 METAR WATB 070200Z 04005KT 9999 FEW016 29/24 Q1014 NOSIG=  
07-Apr-2023 SAID32 WATB 070300 METAR WATB 070300Z 06005KT 9999 FEW016 30/22 Q1013 NOSIG=  
07-Apr-2023 SAID32 WATB 070400 METAR WATB 070400Z 04006KT 9999 SCT016 30/23 Q1013 NOSIG=  
07-Apr-2023 SAID32 WATB 070500 METAR WATB 070500Z 22007KT 4000 FEW015CB BKN016 24/23 Q1013 NOSIG RMK CB TO E AND S=  
08-Apr-2023 SAID32 WATB 080000 METAR WATB 080000Z 22003KT 9999 FEW014 23/22 Q1015 NOSIG=  
08-Apr-2023 SAID32 WATB 080100 METAR WATB 080100Z 35006KT 9999 FEW015 26/24 Q1015 NOSIG=  
08-Apr-2023 SAID32 WATB 080200 METAR WATB 080200Z 05005KT 9999 SCT016 28/24 Q1015 NOSIG=  
08-Apr-2023 SAID32 WATB 080300 METAR WATB 080300Z 11005KT 080V140 9999 SCT016 27/24 Q1014 NOSIG=  
08-Apr-2023 SAID32 WATB 080400 METAR WATB 080400Z 11005KT 9999 SCT016 27/25 Q1014 NOSIG=  
08-Apr-2023 SAID32 WATB 080500 METAR WATB 080500Z 03003KT 9999 SCT016 28/24 Q1012 NOSIG=  
09-Apr-2023 SAID32 WATB 090000 METAR WATB 090000Z 12003KT 9999 -RA BKN016 24/23 Q1014 NOSIG=  
09-Apr-2023 SAID32 WATB 090100 METAR WATB 090100Z 04003KT 9999 SCT016 25/23 Q1014 NOSIG=  
09-Apr-2023 SAID32 WATB 090200 METAR WATB 090200Z 10005KT 060V130 9999 BKN016 27/24 Q1014 NOSIG=  
09-Apr-2023 SAID32 WATB 090300 METAR WATB 090300Z 36005KT 250V030 9999 BKN016 29/24 Q1013 NOSIG=  
09-Apr-2023 SAID32 WATB 090400 METAR WATB 090400Z 36007KT 320V040 9999 BKN016 30/23 Q1012 NOSIG=  
09-Apr-2023 SAID32 WATB 090500 METAR WATB 090500Z 22005KT 150V260 9999 BKN016 29/22 Q1011 NOSIG=  
10-Apr-2023 SAID32 WATB 100000 METAR WATB 100000Z 09003KT 8000 VCSH BKN015 23/22 Q1012 NOSIG RMK SH TO W=  
10-Apr-2023 SAID32 WATB 100100 METAR WATB 100100Z 12005KT 080V140 8000 VCFG BKN015 26/23 Q1012 NOSIG=  
10-Apr-2023 SAID32 WATB 100200 METAR WATB 100200Z 02003KT 9999 BKN015 27/23 Q1013 NOSIG=  
10-Apr-2023 SAID32 WATB 100300 METAR WATB 100300Z 33006KT 9999 BKN016 28/23 Q1012 NOSIG=  
10-Apr-2023 SAID32 WATB 100400 METAR WATB 100400Z 01005KT 9999 BKN016 29/22 Q1011 NOSIG=  
10-Apr-2023 SAID32 WATB 100500 METAR WATB 100500Z 17003KT 8000 VCSH BKN016 28/23 Q1010 NOSIG RMK SH TO W=  
11-Apr-2023 SAID32 WATB 110000 METAR WATB 110000Z 04003KT 9999 FEW015 26/22 Q1013 NOSIG=  
11-Apr-2023 SAID32 WATB 110100 METAR WATB 110100Z 12003KT 9999 FEW015 26/22 Q1014 NOSIG=  
11-Apr-2023 SAID32 WATB 110200 METAR WATB 110200Z 10005KT 9999 SCT015 28/23 Q1013 NOSIG=  
11-Apr-2023 SAID32 WATB 110300 METAR WATB 110300Z 03003KT 9999 BKN016 28/23 Q1012 NOSIG=  
11-Apr-2023 SAID32 WATB 110400 METAR WATB 110400Z 07005KT 9999 BKN016 29/24 Q1011 NOSIG=  
11-Apr-2023 SAID32 WATB 110500 METAR WATB 110500Z 10010KT 9999 BKN016 28/25 Q1010 NOSIG=  
12-Apr-2023 SAID32 WATB 120100 METAR WATB 120100Z 13003KT 4000 VCFG BKN014 24/24 Q1014 RERA NOSIG=  
12-Apr-2023 SAID32 WATB 120200 METAR WATB 120200Z 01005KT 9999 FEW013 BKN015 27/25 Q1013 NOSIG=  
12-Apr-2023 SAID32 WATB 120500 METAR WATB 120500Z 18006KT 120V250 9999 BKN017 30/25 Q1010 NOSIG=  
13-Apr-2023 SAID32 WATB 130000 METAR WATB 130000Z 36003KT 3000 VCFG BKN013 23/23 Q1014 NOSIG=  
13-Apr-2023 SAID32 WATB 130100 METAR WATB 130100Z 10005KT 4000 VCFG BKN014 25/25 Q1015 NOSIG=  
13-Apr-2023 SAID32 WATB 130200 METAR WATB 130200Z 10005KT 4000 VCFG BKN014 25/25 Q1015 NOSIG=  
13-Apr-2023 SAID32 WATB 130300 METAR WATB 130300Z 14005KT 8000 FEW014 BKN015 27/24 Q1014 NOSIG=  
13-Apr-2023 SAID32 WATB 130400 METAR WATB 130400Z 05010KT 030V120 9999 BKN016 29/25 Q1012 NOSIG=  
13-Apr-2023 SAID32 WATB 130500 METAR WATB 130500Z 07010KT 9999 FEW014 BKN015 29/26 Q1011 NOSIG=  
14-Apr-2023 SAID32 WATB 140000 METAR WATB 140000Z 10003KT 4000 SCT014 25/24 Q1015 NOSIG=  
14-Apr-2023 SAID32 WATB 140100 METAR WATB 140100Z 30002KT 8000 FEW014 BKN015 26/23 Q1015 NOSIG=  
14-Apr-2023 SAID32 WATB 140200 METAR WATB 140200Z 13005KT 9999 SCT015 27/24 Q1014 NOSIG=  
14-Apr-2023 SAID32 WATB 140300 METAR WATB 140300Z 06005KT 9999 BKN016 28/24 Q1013 NOSIG=  
14-Apr-2023 SAID32 WATB 140400 METAR WATB 140400Z 06005KT 9999 BKN016 29/25 Q1013 NOSIG=  
14-Apr-2023 SAID32 WATB 140500 METAR WATB 140500Z 08010KT 9999 BKN016 29/26 Q1012 NOSIG=  
15-Apr-2023 SAID32 WATB 150000 METAR WATB 150000Z 04005KT 8000 FEW013 25/23 Q1014 NOSIG=  
15-Apr-2023 SAID32 WATB 150100 METAR WATB 150100Z 07003KT 9999 FEW015 25/24 Q1014 NOSIG=  
15-Apr-2023 SAID32 WATB 150300 METAR WATB 150300Z 10005KT 070V130 9999 FEW017 29/24 Q1013 NOSIG=  
15-Apr-2023 SAID32 WATB 150400 METAR WATB 150400Z 05005KT 010V080 9999 SCT016 30/23 Q1012 NOSIG=  
15-Apr-2023 SAID32 WATB 150500 METAR WATB 150500Z 16009KT 9999 BKN016 29/24 Q1012 NOSIG=  
16-Apr-2023 SAID32 WATB 160000 METAR WATB 160000Z 33003KT 6000 VCFG FEW014 25/23 Q1013 NOSIG=  
16-Apr-2023 SAID32 WATB 160100 METAR WATB 160100Z 09003KT 9999 FEW014 27/23 Q1014 NOSIG=  
16-Apr-2023 SAID32 WATB 160200 METAR WATB 160200Z 03003KT 9999 SCT016 29/24 Q1014 NOSIG=  
16-Apr-2023 SAID32 WATB 160300 METAR WATB 160300Z 13005KT 9999 SCT016 30/21 Q1013 NOSIG=  
16-Apr-2023 SAID32 WATB 160400 METAR WATB 160400Z 07005KT 9999 SCT016 31/22 Q1012 NOSIG=  
16-Apr-2023 SAID32 WATB 160500 METAR WATB 160500Z 09006KT 9999 FEW015CB SCT016 31/22 Q1011 NOSIG RMK CB TO NW=  
17-Apr-2023 SAID32 WATB 170000 METAR WATB 170000Z 12003KT 9999 FEW014 24/22 Q1016 NOSIG=  
17-Apr-2023 SAID32 WATB 170100 METAR WATB 170100Z 04003KT 9999 FEW014 27/23 Q1016 NOSIG=  
17-Apr-2023 SAID32 WATB 170200 METAR WATB 170200Z 10003KT 9999 FEW016 28/24 Q1015 NOSIG=  
17-Apr-2023 SAID32 WATB 170300 METAR WATB 170300Z 33005KT 9999 SCT016 29/23 Q1015 NOSIG=  
17-Apr-2023 SAID32 WATB 170400 METAR WATB 170400Z 36006KT 330V030 9999 SCT017 30/24 Q1014 NOSIG=  
17-Apr-2023 SAID32 WATB 170500 METAR WATB 170500Z 10005KT 9999 BKN017 31/23 Q1013 NOSIG=  
18-Apr-2023 SAID32 WATB 180000 METAR WATB 180000Z 03003KT 9999 FEW015 25/21 Q1017 NOSIG=  
18-Apr-2023 SAID32 WATB 180100 METAR WATB 180100Z 09003KT 9999 FEW015 28/22 Q1017 NOSIG=  
18-Apr-2023 SAID32 WATB 180200 METAR WATB 180200Z 09003KT 9999 FEW015 28/22 Q1017 NOSIG=  
18-Apr-2023 SAID32 WATB 180300 METAR WATB 180300Z 04006KT 9999 SCT017 30/24 Q1016 NOSIG=  
18-Apr-2023 SAID32 WATB 180400 METAR WATB 180400Z 11005KT 9999 SCT017 31/23 Q1015 NOSIG=  
18-Apr-2023 SAID32 WATB 180500 METAR WATB 180500Z 14010KT 9999 BKN017 30/24 Q1014 NOSIG=  
19-Apr-2023 SAID32 WATB 190000 METAR WATB 190000Z 11003KT 9999 BKN015 27/24 Q1015 NOSIG=  
19-Apr-2023 SAID32 WATB 190100 METAR WATB 190100Z 16005KT 9999 BKN015 26/24 Q1015 NOSIG=  
19-Apr-2023 SAID32 WATB 190200 METAR WATB 190200Z 11006KT 9999 BKN016 28/24 Q1015 NOSIG=  
19-Apr-2023 SAID32 WATB 190300 METAR WATB 190300Z 13005KT 9999 BKN016 27/24 Q1014 NOSIG=  
19-Apr-2023 SAID32 WATB 190400 METAR WATB 190400Z 17010KT 9999 BKN016 27/23 Q1013 NOSIG=  
19-Apr-2023 SAID32 WATB 190500 METAR WATB 190500Z 18010KT 150V230 9999 BKN016 29/24 Q1012 NOSIG=  
20-Apr-2023 SAID32 WATB 200000 METAR WATB 200000Z 15006KT 9999 FEW015 26/21 Q1013 NOSIG=  
20-Apr-2023 SAID32 WATB 200100 METAR WATB 200100Z 15010KT 9999 FEW015 27/22 Q1013 NOSIG=  
20-Apr-2023 SAID32 WATB 200200 METAR WATB 200200Z 16010KT 9999 SCT016 28/22 Q1013 NOSIG=  
20-Apr-2023 SAID32 WATB 200300 METAR WATB 200300Z 13010KT 9999 BKN016 28/22 Q1012 NOSIG=  
20-Apr-2023 SAID32 WATB 200400 METAR WATB 200400Z 13005KT 9999 BKN016 26/23 Q1011 NOSIG=  
20-Apr-2023 SAID32 WATB 200500 METAR WATB 200500Z 20005KT 9999 BKN016 26/22 Q1011 NOSIG=  
21-Apr-2023 SAID32 WATB 210000 METAR WATB 210000Z 36005KT 9999 FEW016 25/21 Q1014 NOSIG=  
21-Apr-2023 SAID32 WATB 210100 METAR WATB 210100Z 08003KT 9999 FEW016 27/21 Q1014 NOSIG=  
21-Apr-2023 SAID32 WATB 210200 METAR WATB 210200Z 04005KT 9999 FEW016 28/21 Q1014 NOSIG=  
21-Apr-2023 SAID32 WATB 210300 METAR WATB 210300Z 06005KT 040V100 9999 FEW016 28/22 Q1014 NOSIG=  
21-Apr-2023 SAID32 WATB 210400 METAR WATB 210400Z 10005KT 080V140 9999 SCT017 29/21 Q1013 NOSIG=  
21-Apr-2023 SAID32 WATB 210500 METAR WATB 210500Z 07005KT 9999 SCT017 29/21 Q1012 NOSIG=  
22-Apr-2023 SAID32 WATB 220000 METAR WATB 220000Z 03005KT 9999 FEW015 27/22 Q1015 NOSIG=  
22-Apr-2023 SAID32 WATB 220100 METAR WATB 220100Z 11005KT 9999 FEW016 28/21 Q1015 NOSIG=  
22-Apr-2023 SAID32 WATB 220200 METAR WATB 220200Z 05005KT 9999 FEW016 29/21 Q1015 NOSIG=  
22-Apr-2023 SAID32 WATB 220300 METAR WATB 220300Z 34005KT 9999 SCT016 30/20 Q1014 NOSIG=  
22-Apr-2023 SAID32 WATB 220400 METAR WATB 220400Z 35005KT 9999 SCT017 31/21 Q1013 NOSIG=  
22-Apr-2023 SAID32 WATB 220500 METAR WATB 220500Z 07003KT 9999 SCT017 31/21 Q1012 NOSIG=  
23-Apr-2023 SAID32 WATB 230000 METAR WATB 230000Z 06003KT 9999 FEW015 25/22 Q1015 NOSIG=  
23-Apr-2023 SAID32 WATB 230100 METAR WATB 230100Z 10003KT 9999 FEW015 27/22 Q1015 NOSIG=  
23-Apr-2023 SAID32 WATB 230200 METAR WATB 230200Z 06003KT 9999 FEW016 29/20 Q1015 NOSIG=  
23-Apr-2023 SAID32 WATB 230300 METAR WATB 230300Z 05007KT 9999 FEW017 30/21 Q1014 NOSIG=  
23-Apr-2023 SAID32 WATB 230400 METAR WATB 230400Z 10010KT 050V110 9999 FEW017 31/21 Q1013 NOSIG=  
23-Apr-2023 SAID32 WATB 230500 METAR WATB 230500Z 07010KT 040V100 9999 SCT017 31/22 Q1012 NOSIG=  
24-Apr-2023 SAID32 WATB 240000 METAR WATB 240000Z 05003KT 9999 FEW015 26/23 Q1015 NOSIG=  
24-Apr-2023 SAID32 WATB 240100 METAR WATB 240100Z 36003KT 9999 FEW016 29/22 Q1014 NOSIG=  
24-Apr-2023 SAID32 WATB 240200 METAR WATB 240200Z 12003KT 9999 FEW017 29/22 Q1014 NOSIG=  
24-Apr-2023 SAID32 WATB 240300 METAR WATB 240300Z 36005KT 9999 SCT017 30/23 Q1013 NOSIG=  
24-Apr-2023 SAID32 WATB 240400 METAR WATB 240400Z 07003KT 9999 BKN016 29/22 Q1012 NOSIG=  
24-Apr-2023 SAID32 WATB 240500 METAR WATB 240500Z 13005KT 9999 BKN016 30/23 Q1011 NOSIG=  
25-Apr-2023 SAID32 WATB 250000 METAR WATB 250000Z 35005KT 9999 FEW015 28/23 Q1013 NOSIG=  
25-Apr-2023 SAID32 WATB 250100 METAR WATB 250100Z 07005KT 9999 FEW015 29/24 Q1014 NOSIG=  
25-Apr-2023 SAID32 WATB 250200 METAR WATB 250200Z 09005KT 050V110 9999 FEW016 30/23 Q1013 NOSIG=  
25-Apr-2023 SAID32 WATB 250300 METAR WATB 250300Z 05005KT 9999 SCT016 31/24 Q1013 NOSIG=  
25-Apr-2023 SAID32 WATB 250400 METAR WATB 250400Z 01010KT 290V060 9999 SCT017 31/23 Q1012 NOSIG=  
25-Apr-2023 SAID32 WATB 250500 METAR WATB 250500Z 29005KT 9999 SCT017 31/23 Q1012 NOSIG=  
26-Apr-2023 SAID32 WATB 260000 METAR WATB 260000Z 09007KT 9999 FEW014CB BKN015 27/24 Q1013 NOSIG RMK CB TO S=  
26-Apr-2023 SAID32 WATB 260100 METAR WATB 260100Z 14010KT 110V170 9999 FEW015CB BKN016 29/24 Q1013 NOSIG RMK CB TO S=  
26-Apr-2023 SAID32 WATB 260200 METAR WATB 260200Z 15006KT 9999 BKN016 28/24 Q1013 NOSIG=  
26-Apr-2023 SAID32 WATB 260300 METAR WATB 260300Z 16006KT 110V180 9999 BKN016 28/25 Q1013 NOSIG=  
26-Apr-2023 SAID32 WATB 260400 METAR WATB 260400Z 14006KT 100V180 8000 -RA BKN016 27/24 Q1013 NOSIG=  
26-Apr-2023 SAID32 WATB 260500 METAR WATB 260500Z 18010KT 140V240 9999 BKN016 29/24 Q1012 RERA NOSIG=  
27-Apr-2023 SAID32 WATB 270000 METAR COR WATB 270000Z 03005KT 6000 VCFG SCT013 25/24 Q1013 NOSIG=  
27-Apr-2023 SAID32 WATB 270100 METAR WATB 270100Z 04005KT 9999 BKN015 27/25 Q1014 NOSIG=  
27-Apr-2023 SAID32 WATB 270200 METAR WATB 270200Z 07005KT 8000 VCSH BKN015 29/25 Q1014 NOSIG RMK SH TO NE=  
27-Apr-2023 SAID32 WATB 270300 METAR WATB 270300Z 13005KT 070V160 9999 BKN016 30/26 Q1013 NOSIG=  
27-Apr-2023 SAID32 WATB 270400 METAR WATB 270400Z 09011KT 8000 BKN016 28/25 Q1012 NOSIG=  
27-Apr-2023 SAID32 WATB 270500 METAR WATB 270500Z 09010KT 5000 -RA FEW014CB BKN015 26/26 Q1012 NOSIG RMK CB TO NE AND E=  
28-Apr-2023 SAID32 WATB 280000 METAR WATB 280000Z 08003KT 9999 SCT015 28/24 Q1015 NOSIG=  
28-Apr-2023 SAID32 WATB 280100 METAR WATB 280100Z 10005KT 9999 BKN015 28/24 Q1015 NOSIG=  
28-Apr-2023 SAID32 WATB 280200 METAR WATB 280200Z 12005KT 9999 BKN016 28/24 Q1015 NOSIG=  
28-Apr-2023 SAID32 WATB 280300 METAR WATB 280300Z 12003KT 9999 BKN016 29/24 Q1014 NOSIG=  
28-Apr-2023 SAID32 WATB 280400 METAR WATB 280400Z 03010KT 9999 BKN016 31/24 Q1013 NOSIG=  
28-Apr-2023 SAID32 WATB 280500 METAR WATB 280500Z 06010KT 9999 BKN017 30/24 Q1012 NOSIG=  
29-Apr-2023 SAID32 WATB 290000 METAR WATB 290000Z 04005KT 9999 FEW015 26/23 Q1014 NOSIG=  
29-Apr-2023 SAID32 WATB 290100 METAR WATB 290100Z 04003KT 9999 FEW015 28/24 Q1014 NOSIG=  
29-Apr-2023 SAID32 WATB 290200 METAR WATB 290200Z 15005KT 9999 FEW017 30/23 Q1014 NOSIG=  
29-Apr-2023 SAID32 WATB 290300 METAR WATB 290300Z 11010KT 9999 SCT017 31/22 Q1013 NOSIG=  
29-Apr-2023 SAID32 WATB 290400 METAR WATB 290400Z 10010KT 9999 SCT017 31/20 Q1012 NOSIG=  
29-Apr-2023 SAID32 WATB 290500 METAR WATB 290500Z 13010KT 080V180 9999 FEW018 32/20 Q1011 NOSIG=  
30-Apr-2023 SAID32 WATB 300000 METAR WATB 300000Z 17010KT 140V200 9999 FEW016 27/23 Q1013 NOSIG=  
30-Apr-2023 SAID32 WATB 300100 METAR WATB 300100Z 14010KT 9999 FEW016 28/21 Q1014 NOSIG=  
30-Apr-2023 SAID32 WATB 300200 METAR WATB 300200Z 17005KT 9999 FEW018 29/21 Q1013 NOSIG=  
30-Apr-2023 SAID32 WATB 300300 METAR WATB 300300Z 16010KT 9999 SCT018 30/21 Q1013 NOSIG=  
30-Apr-2023 SAID32 WATB 300400 METAR WATB 300400Z 11005KT 9999 BKN018 29/22 Q1012 NOSIG=  
30-Apr-2023 SAID32 WATB 300500 METAR WATB 300500Z 10010KT 9999 SCT018 29/20 Q1011 NOSIG=  
01-May-2023 SAID32 WATB 010000 METAR WATB 010000Z 05003KT 9999 FEW015 25/21 Q1014 NOSIG=  
01-May-2023 SAID32 WATB 010100 METAR WATB 010100Z 08003KT 9999 FEW017 27/22 Q1014 NOSIG=  
01-May-2023 SAID32 WATB 010200 METAR WATB 010200Z 32006KT 9999 FEW018 29/21 Q1014 NOSIG=  
01-May-2023 SAID32 WATB 010300 METAR WATB 010300Z 07005KT 050V110 9999 FEW018 30/21 Q1013 NOSIG=  
01-May-2023 SAID32 WATB 010400 METAR WATB 010400Z 01010KT 330V100 9999 SCT018 31/20 Q1012 NOSIG=  
01-May-2023 SAID32 WATB 010500 METAR WATB 010500Z 10010KT 9999 SCT017 29/20 Q1011 NOSIG=  
02-May-2023 SAID32 WATB 020000 METAR WATB 020000Z 01003KT 9999 FEW015 26/22 Q1016 NOSIG=  
02-May-2023 SAID32 WATB 020100 METAR WATB 020100Z 02003KT 9999 FEW017 28/22 Q1016 NOSIG=  
02-May-2023 SAID32 WATB 020200 METAR WATB 020200Z 06005KT 9999 FEW017 29/22 Q1016 NOSIG=  
02-May-2023 SAID32 WATB 020300 METAR WATB 020300Z 15005KT 9999 FEW017 30/22 Q1015 NOSIG=  
02-May-2023 SAID32 WATB 020400 METAR WATB 020400Z 04003KT 9999 SCT017 30/22 Q1014 NOSIG=  
02-May-2023 SAID32 WATB 020500 METAR WATB 020500Z 03010KT 360V060 9999 SCT018 31/21 Q1013 NOSIG=  
03-May-2023 SAID32 WATB 030000 METAR WATB 030000Z 34003KT 9999 FEW015 26/23 Q1016 NOSIG=  
03-May-2023 SAID32 WATB 030100 METAR WATB 030100Z 11005KT 9999 FEW017 28/23 Q1016 NOSIG=  
03-May-2023 SAID32 WATB 030200 METAR WATB 030200Z 09005KT 9999 FEW018 30/21 Q1016 NOSIG=  
03-May-2023 SAID32 WATB 030300 METAR WATB 030300Z 10005KT 9999 SCT018 30/22 Q1015 NOSIG=  
03-May-2023 SAID32 WATB 030400 METAR WATB 030400Z 04010KT 010V090 9999 BKN018 31/22 Q1014 NOSIG=  
03-May-2023 SAID32 WATB 030500 METAR WATB 030500Z 05010KT 020V080 9999 BKN018 32/21 Q1013 NOSIG=  
04-May-2023 SAID32 WATB 040000 METAR WATB 040000Z 05003KT 9999 FEW017 28/24 Q1014 NOSIG=  
04-May-2023 SAID32 WATB 040100 METAR WATB 040100Z 06010KT 9999 SCT018 29/25 Q1014 NOSIG=  
04-May-2023 SAID32 WATB 040200 METAR WATB 040200Z 16010KT 9999 BKN017 29/24 Q1014 NOSIG=  
04-May-2023 SAID32 WATB 040300 METAR WATB 040300Z 12010KT 090V150 9999 SCT017 30/25 Q1013 NOSIG=  
04-May-2023 SAID32 WATB 040400 METAR WATB 040400Z 13010KT 9999 BKN017 30/24 Q1013 NOSIG=  
04-May-2023 SAID32 WATB 040500 METAR WATB 040500Z 13010KT 100V180 9999 BKN016 30/25 Q1012 NOSIG=  
05-May-2023 SAID32 WATB 050000 METAR WATB 050000Z 08005KT 9999 BKN016 26/24 Q1013 NOSIG=  
05-May-2023 SAID32 WATB 050100 METAR WATB 050100Z 06005KT 9999 BKN016 28/24 Q1014 NOSIG=  
05-May-2023 SAID32 WATB 050200 METAR WATB 050200Z 09006KT 040V160 9999 BKN016 28/24 Q1013 NOSIG=  
05-May-2023 SAID32 WATB 050300 METAR WATB 050300Z 19006KT 150V230 9999 SCT016 29/23 Q1012 NOSIG=  
05-May-2023 SAID32 WATB 050400 METAR WATB 050400Z 17010KT 9999 SCT017 30/23 Q1011 NOSIG=  
05-May-2023 SAID32 WATB 050500 METAR WATB 050500Z 15010KT 100V190 9999 SCT017 30/22 Q1010 NOSIG=  
06-May-2023 SAID32 WATB 060000 METAR WATB 060000Z 02003KT 9999 FEW016 26/23 Q1013 NOSIG=  
06-May-2023 SAID32 WATB 060100 METAR WATB 060100Z 08005KT 9999 FEW016 28/24 Q1013 NOSIG=  
06-May-2023 SAID32 WATB 060200 METAR WATB 060200Z 18006KT 9999 SCT016 29/24 Q1013 NOSIG=  
06-May-2023 SAID32 WATB 060300 METAR WATB 060300Z 11005KT 9999 BKN016 28/23 Q1013 NOSIG=  
06-May-2023 SAID32 WATB 060400 METAR WATB 060400Z 08010KT 040V140 9999 BKN016 31/22 Q1011 NOSIG=  
06-May-2023 SAID32 WATB 060500 METAR WATB 060500Z 10006KT 9999 BKN016 30/22 Q1011 NOSIG=  
07-May-2023 SAID32 WATB 070000 METAR WATB 070000Z 02003KT 9999 FEW016 28/24 Q1014 NOSIG=  
07-May-2023 SAID32 WATB 070100 METAR WATB 070100Z 13005KT 9999 FEW016 29/24 Q1014 NOSIG=  
07-May-2023 SAID32 WATB 070200 METAR WATB 070200Z 12005KT 9999 SCT016 30/24 Q1013 NOSIG=  
07-May-2023 SAID32 WATB 070300 METAR WATB 070300Z 11006KT 9999 BKN017 29/24 Q1013 NOSIG=  
07-May-2023 SAID32 WATB 070400 METAR WATB 070400Z 09005KT 9999 BKN017 31/24 Q1012 NOSIG=  
07-May-2023 SAID32 WATB 070500 METAR WATB 070500Z 16005KT 9999 BKN017 31/23 Q1011 NOSIG=  
08-May-2023 SAID32 WATB 080000 METAR WATB 080000Z 07006KT 030V090 9999 SCT015 28/25 Q1014 NOSIG=  
08-May-2023 SAID32 WATB 080100 METAR WATB 080100Z 11005KT 9999 BKN015 30/25 Q1014 NOSIG=  
08-May-2023 SAID32 WATB 080200 METAR WATB 080200Z 13005KT 9999 BKN016 29/25 Q1013 NOSIG=  
08-May-2023 SAID32 WATB 080300 METAR WATB 080300Z 13005KT 9999 BKN016 28/25 Q1013 NOSIG=  
08-May-2023 SAID32 WATB 080400 METAR WATB 080400Z 14005KT 9999 BKN016 28/24 Q1012 NOSIG=  
08-May-2023 SAID32 WATB 080500 METAR WATB 080500Z 19012KT 9999 SCT016 30/24 Q1011 NOSIG=  
09-May-2023 SAID32 WATB 090000 METAR WATB 090000Z 03005KT 9999 SCT016 29/24 Q1015 NOSIG=  
09-May-2023 SAID32 WATB 090100 METAR WATB 090100Z 07005KT 010V090 9999 SCT016 28/24 Q1015 NOSIG=  
09-May-2023 SAID32 WATB 090200 METAR WATB 090200Z 05005KT 9999 BKN016 29/24 Q1015 NOSIG=  
09-May-2023 SAID32 WATB 090300 METAR WATB 090300Z 03006KT 9999 BKN016 30/24 Q1015 NOSIG=  
09-May-2023 SAID32 WATB 090400 METAR WATB 090400Z 10010KT 8000 FEW015CB BKN016 30/24 Q1014 NOSIG RMK CB TO NE=  
09-May-2023 SAID32 WATB 090500 METAR WATB 090500Z 09010KT 8000 FEW015CB BKN016 29/25 Q1014 NOSIG RMK CB TO SE=  
10-May-2023 SAID32 WATB 100000 METAR WATB 100000Z 18003KT 9999 FEW015 27/24 Q1016 NOSIG=  
10-May-2023 SAID32 WATB 100100 METAR WATB 100100Z 23003KT 9999 FEW016 28/24 Q1016 NOSIG=  
10-May-2023 SAID32 WATB 100200 METAR WATB 100200Z 20005KT 160V220 9999 FEW016 31/25 Q1015 NOSIG=  
10-May-2023 SAID32 WATB 100300 METAR WATB 100300Z 07010KT 050V110 9999 BKN016 31/24 Q1015 NOSIG=  
10-May-2023 SAID32 WATB 100400 METAR WATB 100400Z 01005KT 9999 BKN016 30/24 Q1014 NOSIG=  
10-May-2023 SAID32 WATB 100500 METAR WATB 100500Z 06010KT 040/ AND 110/ 9999 BKN016 30/24 Q1014 NOSIG=  
11-May-2023 SAID32 WATB 110000 METAR WATB 110000Z 13003KT 9999 FEW016 28/24 Q1018 NOSIG=  
11-May-2023 SAID32 WATB 110100 METAR WATB 110100Z 17010KT 9999 SCT016 28/23 Q1018 NOSIG=  
11-May-2023 SAID32 WATB 110200 METAR WATB 110200Z 17010KT 140V200 9999 SCT016 30/24 Q1017 NOSIG=  
11-May-2023 SAID32 WATB 110300 METAR WATB 110300Z 13010KT 100V170 9999 FEW017 30/24 Q1016 NOSIG=  
11-May-2023 SAID32 WATB 110400 METAR WATB 110400Z 12010KT 100V170 9999 FEW017 30/24 Q1015 NOSIG=  
11-May-2023 SAID32 WATB 110500 METAR WATB 110500Z 16010KT 9999 FEW018 30/23 Q1015 NOSIG=  
12-May-2023 SAID32 WATB 120000 METAR WATB 120000Z 16005KT 120V190 9999 FEW016 27/22 Q1018 NOSIG=  
12-May-2023 SAID32 WATB 120100 METAR WATB 120100Z 17005KT 120V240 9999 FEW016 28/22 Q1018 NOSIG=  
12-May-2023 SAID32 WATB 120200 METAR WATB 120200Z 12011KT 9999 SCT016 28/21 Q1018 NOSIG=  
12-May-2023 SAID32 WATB 120300 METAR WATB 120300Z 11005KT 090V160 9999 BKN017 29/21 Q1018 NOSIG=  
12-May-2023 SAID32 WATB 120400 METAR WATB 120400Z 16010KT 120V270 9999 SCT017 30/21 Q1017 NOSIG=  
12-May-2023 SAID32 WATB 120500 METAR WATB 120500Z 19010KT 140V220 9999 SCT017 29/21 Q1016 NOSIG=  
13-May-2023 SAID32 WATB 130000 METAR WATB 130000Z 14005KT 9999 FEW016 26/21 Q1017 NOSIG=  
13-May-2023 SAID32 WATB 130100 METAR WATB 130100Z 19006KT 140V240 9999 FEW017 27/21 Q1017 NOSIG=  
13-May-2023 SAID32 WATB 130200 METAR WATB 130200Z 16010KT 140V200 9999 SCT018 28/21 Q1017 NOSIG=  
13-May-2023 SAID32 WATB 130300 METAR WATB 130300Z 17010KT 9999 SCT018 28/20 Q1017 NOSIG=  
13-May-2023 SAID32 WATB 130400 METAR WATB 130400Z 13010KT 110V200 9999 SCT018 28/21 Q1016 NOSIG=  
13-May-2023 SAID32 WATB 130500 METAR WATB 130500Z 19005KT 9999 SCT018 28/21 Q1015 NOSIG=  
14-May-2023 SAID32 WATB 140000 METAR WATB 140000Z 30005KT 9999 FEW016 26/20 Q1018 NOSIG=  
14-May-2023 SAID32 WATB 140100 METAR WATB 140100Z 15010KT 110V200 9999 SCT016 26/21 Q1018 NOSIG=  
14-May-2023 SAID32 WATB 140200 METAR WATB 140200Z 16010KT 100V200 9999 SCT018 26/21 Q1017 NOSIG=  
14-May-2023 SAID32 WATB 140300 METAR WATB 140300Z 16010KT 100V200 9999 SCT018 26/21 Q1017 NOSIG=  
14-May-2023 SAID32 WATB 140400 METAR WATB 140400Z 16010KT 130V190 9999 FEW018 29/20 Q1016 NOSIG=  
14-May-2023 SAID32 WATB 140500 METAR WATB 140500Z 17011KT 110V190 9999 SCT018 28/19 Q1015 NOSIG=  
15-May-2023 SAID32 WATB 150000 METAR WATB 150000Z 10003KT 9999 FEW016 25/20 Q1018 NOSIG=  
15-May-2023 SAID32 WATB 150100 METAR WATB 150100Z 14010KT 9999 FEW016 26/20 Q1018 NOSIG=  
15-May-2023 SAID32 WATB 150200 METAR WATB 150200Z 13010KT 100V160 9999 FEW016 27/19 Q1018 NOSIG=  
15-May-2023 SAID32 WATB 150300 METAR WATB 150300Z 07008KT 9999 FEW017 28/20 Q1017 NOSIG=  
15-May-2023 SAID32 WATB 150400 METAR WATB 150400Z 16010KT 120V180 9999 FEW018 29/19 Q1016 NOSIG=  
15-May-2023 SAID32 WATB 150500 METAR WATB 150500Z 16010KT 120V200 9999 FEW018 29/20 Q1015 NOSIG=  
16-May-2023 SAID32 WATB 160000 METAR WATB 160000Z 04003KT 9999 FEW016 23/18 Q1018 NOSIG=  
16-May-2023 SAID32 WATB 160100 METAR WATB 160100Z 03003KT 9999 FEW017 25/19 Q1018 NOSIG=  
16-May-2023 SAID32 WATB 160200 METAR WATB 160200Z 03003KT 9999 FEW019 27/17 Q1018 NOSIG=  
16-May-2023 SAID32 WATB 160300 METAR WATB 160300Z 16005KT 9999 FEW019 29/17 Q1017 NOSIG=  
16-May-2023 SAID32 WATB 160400 METAR WATB 160400Z 12005KT 9999 FEW019 30/18 Q1016 NOSIG=  
16-May-2023 SAID32 WATB 160500 METAR WATB 160500Z 09003KT 9999 FEW019 31/19 Q1015 NOSIG=  
17-May-2023 SAID32 WATB 170000 METAR WATB 170000Z 34005KT 9999 FEW016 24/21 Q1019 NOSIG=  
17-May-2023 SAID32 WATB 170100 METAR WATB 170100Z 09005KT 040V130 9999 FEW018 26/20 Q1019 NOSIG=  
17-May-2023 SAID32 WATB 170200 METAR WATB 170200Z 28003KT 9999 FEW018 28/20 Q1019 NOSIG=  
17-May-2023 SAID32 WATB 170300 METAR WATB 170300Z 13005KT 9999 FEW019 29/20 Q1018 NOSIG=  
17-May-2023 SAID32 WATB 170400 METAR WATB 170400Z 35005KT 310V030 9999 FEW019 30/20 Q1017 NOSIG=  
17-May-2023 SAID32 WATB 170500 METAR WATB 170500Z 10006KT 9999 FEW019 31/20 Q1016 NOSIG=  
18-May-2023 SAID32 WATB 180000 METAR WATB 180000Z 07003KT 9999 FEW017 25/22 Q1018 NOSIG=  
18-May-2023 SAID32 WATB 180100 METAR WATB 180100Z 06003KT 9999 FEW018 27/20 Q1018 NOSIG=  
18-May-2023 SAID32 WATB 180200 METAR WATB 180200Z 09005KT 9999 FEW019 28/21 Q1018 NOSIG=  
18-May-2023 SAID32 WATB 180300 METAR WATB 180300Z 07006KT 9999 FEW019 29/18 Q1017 NOSIG=  
18-May-2023 SAID32 WATB 180400 METAR WATB 180400Z 14006KT 090V200 9999 FEW019 31/19 Q1016 NOSIG=  
18-May-2023 SAID32 WATB 180500 METAR WATB 180500Z 02010KT 350V050 9999 SCT019 30/19 Q1015 NOSIG=  
18-May-2023 SAID32 WATB 180600 METAR WATB 180600Z 13003KT 060V180 9999 BKN018 29/22 Q1014 NOSIG=  
19-May-2023 SAID32 WATB 190000 METAR WATB 190000Z 14003KT 9999 SCT018 27/22 Q1018 NOSIG=  
19-May-2023 SAID32 WATB 190100 METAR WATB 190100Z 12005KT 9999 SCT018 28/22 Q1018 NOSIG=  
19-May-2023 SAID32 WATB 190200 METAR WATB 190200Z 17005KT 9999 BKN018 28/21 Q1017 NOSIG=  
19-May-2023 SAID32 WATB 190300 METAR WATB 190300Z 18008KT 150V210 9999 SCT018 29/21 Q1017 NOSIG=  
19-May-2023 SAID32 WATB 190400 METAR WATB 190400Z 18008KT 9999 SCT018 29/20 Q1016 NOSIG=  
19-May-2023 SAID32 WATB 190500 METAR WATB 190500Z 19003KT 9999 SCT018 29/21 Q1015 NOSIG=  
19-May-2023 SAID32 WATB 190600 METAR WATB 190600Z 19005KT 9999 SCT018 27/20 Q1015 NOSIG=  
20-May-2023 SAID32 WATB 200000 METAR WATB 200000Z 18004KT 9999 FEW018 25/20 Q1018 NOSIG=  
20-May-2023 SAID32 WATB 200100 METAR WATB 200100Z 15003KT 9999 FEW018 27/20 Q1018 NOSIG=  
20-May-2023 SAID32 WATB 200200 METAR WATB 200200Z 16005KT 9999 FEW018 27/19 Q1018 NOSIG=  
20-May-2023 SAID32 WATB 200300 METAR WATB 200300Z 18007KT 9999 FEW018 27/19 Q1018 NOSIG=  
20-May-2023 SAID32 WATB 200400 METAR WATB 200400Z 17008KT 9999 FEW018 27/20 Q1016 NOSIG=  
20-May-2023 SAID32 WATB 200500 METAR WATB 200500Z 13006KT 9999 SCT018 28/20 Q1015 NOSIG=  
20-May-2023 SAID32 WATB 200600 METAR WATB 200600Z 15012KT 9999 SCT018 27/19 Q1015 NOSIG=  
21-May-2023 SAID32 WATB 210000 METAR WATB 210000Z 01004KT 9999 FEW018 24/21 Q1018 NOSIG=  
21-May-2023 SAID32 WATB 210100 METAR WATB 210100Z 14004KT 9999 SCT018 27/21 Q1019 NOSIG=  
21-May-2023 SAID32 WATB 210200 METAR WATB 210200Z 15006KT 9999 SCT018 28/22 Q1018 NOSIG=  
21-May-2023 SAID32 WATB 210300 METAR WATB 210300Z 14005KT 9999 SCT018 28/21 Q1018 NOSIG=  
21-May-2023 SAID32 WATB 210400 METAR WATB 210400Z 18006KT 9999 SCT018 26/21 Q1017 NOSIG=  
21-May-2023 SAID32 WATB 210500 METAR WATB 210500Z 15008KT 9999 SCT018 26/20 Q1016 NOSIG=  
21-May-2023 SAID32 WATB 210600 METAR WATB 210600Z 10006KT 9999 SCT018 28/20 Q1015 NOSIG=  
22-May-2023 SAID32 WATB 220000 METAR WATB 220000Z 17002KT 9999 BKN018 26/22 Q1019 NOSIG=  
22-May-2023 SAID32 WATB 220100 METAR WATB 220100Z 15003KT 9999 SCT018 25/21 Q1019 NOSIG=  
22-May-2023 SAID32 WATB 220200 METAR WATB 220200Z 14004KT 9999 SCT018 27/21 Q1019 NOSIG=  
22-May-2023 SAID32 WATB 220300 METAR WATB 220300Z 06006KT 9999 SCT018 30/20 Q1017 NOSIG=  
22-May-2023 SAID32 WATB 220400 METAR WATB 220400Z 07005KT 9999 SCT018 30/19 Q1016 NOSIG=  
22-May-2023 SAID32 WATB 220500 METAR WATB 220500Z 14006KT 9999 SCT018 29/21 Q1016 NOSIG=  
22-May-2023 SAID32 WATB 220600 METAR WATB 220600Z 16002KT 9999 SCT018 29/20 Q1015 NOSIG=  
23-May-2023 SAID32 WATB 230000 METAR WATB 230000Z 33005KT 9999 FEW018 24/21 Q1018 NOSIG=  
23-May-2023 SAID32 WATB 230100 METAR WATB 230100Z 07003KT 9999 FEW018 27/22 Q1018 NOSIG=  
23-May-2023 SAID32 WATB 230200 METAR WATB 230200Z 18004KT 9999 SCT018 27/21 Q1018 NOSIG=  
23-May-2023 SAID32 WATB 230300 METAR WATB 230300Z 10005KT 9999 SCT018 29/20 Q1017 NOSIG=  
23-May-2023 SAID32 WATB 230400 METAR WATB 230400Z 13002KT 9999 SCT018 28/21 Q1017 NOSIG=  
23-May-2023 SAID32 WATB 230500 METAR WATB 230500Z 12005KT 9999 SCT018 29/20 Q1016 NOSIG=  
23-May-2023 SAID32 WATB 230600 METAR WATB 230600Z 10002KT 9999 SCT018 30/20 Q1015 NOSIG=  
24-May-2023 SAID32 WATB 240000 METAR WATB 240000Z 06002KT 9999 FEW018 25/21 Q1019 NOSIG=  
24-May-2023 SAID32 WATB 240100 METAR WATB 240100Z 05004KT 9999 FEW018 27/22 Q1019 NOSIG=  
24-May-2023 SAID32 WATB 240200 METAR WATB 240200Z 07004KT 9999 FEW018 29/19 Q1018 NOSIG=  
24-May-2023 SAID32 WATB 240300 METAR WATB 240300Z 14003KT 9999 FEW018 31/20 Q1018 NOSIG=  
24-May-2023 SAID32 WATB 240400 METAR WATB 240400Z 04003KT 9999 FEW018 31/21 Q1017 NOSIG=  
24-May-2023 SAID32 WATB 240500 METAR WATB 240500Z 14005KT 9999 FEW018 31/20 Q1016 NOSIG=  
24-May-2023 SAID32 WATB 240600 METAR WATB 240600Z 13004KT 9999 SCT018 31/22 Q1016 NOSIG=  
25-May-2023 SAID32 WATB 250000 METAR WATB 250000Z 08003KT 9999 FEW018 23/23 Q1019 NOSIG=  
25-May-2023 SAID32 WATB 250100 METAR WATB 250100Z 07004KT 9999 FEW018 27/23 Q1019 NOSIG=  
25-May-2023 SAID32 WATB 250200 METAR WATB 250200Z 10006KT 9999 BKN018 27/22 Q1019 NOSIG=  
25-May-2023 SAID32 WATB 250300 METAR WATB 250300Z 16009KT 130V190 9999 BKN018 27/22 Q1018 NOSIG=  
25-May-2023 SAID32 WATB 250400 METAR WATB 250400Z 12006KT 9999 BKN018 29/22 Q1017 NOSIG=  
25-May-2023 SAID32 WATB 250500 METAR WATB 250500Z 15007KT 9999 BKN018 28/22 Q1016 NOSIG=  
25-May-2023 SAID32 WATB 250600 METAR WATB 250600Z 18007KT 150V230 9999 BKN018 29/22 Q1015 NOSIG=  
26-May-2023 SAID32 WATB 260000 METAR WATB 260000Z 25002KT 8000 -RA BKN017 23/22 Q1018 NOSIG=  
26-May-2023 SAID32 WATB 260100 METAR WATB 260100Z 20004KT 8000 BKN017 24/22 Q1018 NOSIG=  
26-May-2023 SAID32 WATB 260200 METAR WATB 260200Z 17005KT 9999 SCT017 28/22 Q1018 NOSIG=  
26-May-2023 SAID32 WATB 260300 METAR WATB 260300Z 13008KT 9999 SCT017 29/21 Q1017 NOSIG=  
26-May-2023 SAID32 WATB 260400 METAR WATB 260400Z 19008KT 9999 BKN017 27/21 Q1017 NOSIG=  
26-May-2023 SAID32 WATB 260500 METAR WATB 260500Z 16010KT 9999 BKN017 27/20 Q1016 NOSIG=  
26-May-2023 SAID32 WATB 260600 METAR WATB 260600Z 16005KT 9999 BKN017 27/21 Q1015 NOSIG=  
27-May-2023 SAID32 WATB 270000 METAR WATB 270000Z 28003KT 9999 SCT017 25/21 Q1017 NOSIG=  
27-May-2023 SAID32 WATB 270100 METAR WATB 270100Z 15006KT 9999 SCT017 BKN090 26/21 Q1017 NOSIG=  
27-May-2023 SAID32 WATB 270200 METAR WATB 270200Z 13007KT 9999 SCT017 BKN090 27/21 Q1016 NOSIG=  
27-May-2023 SAID32 WATB 270300 METAR WATB 270300Z 18003KT 9999 BKN017 27/21 Q1016 NOSIG=  
27-May-2023 SAID32 WATB 270400 METAR WATB 270400Z 17007KT 9999 BKN017 28/21 Q1014 NOSIG=  
27-May-2023 SAID32 WATB 270500 METAR WATB 270500Z 17007KT 9999 BKN017 28/20 Q1013 NOSIG=  
28-May-2023 SAID32 WATB 280000 METAR WATB 280000Z 34004KT 9999 FEW018 25/19 Q1016 NOSIG=  
28-May-2023 SAID32 WATB 280100 METAR WATB 280100Z 13005KT 9999 FEW018 27/19 Q1016 NOSIG=  
28-May-2023 SAID32 WATB 280200 METAR WATB 280200Z 11008KT 9999 FEW018 28/16 Q1016 NOSIG=  
28-May-2023 SAID32 WATB 280300 METAR WATB 280300Z 14008KT 9999 FEW018 29/16 Q1015 NOSIG=  
28-May-2023 SAID32 WATB 280400 METAR WATB 280400Z 14008KT 9999 FEW018 29/18 Q1014 NOSIG=  
28-May-2023 SAID32 WATB 280500 METAR WATB 280500Z 16009KT 9999 SCT018 29/18 Q1013 NOSIG=  
28-May-2023 SAID32 WATB 280600 METAR WATB 280600Z 18004KT 9999 SCT018 28/18 Q1012 NOSIG=  
29-May-2023 SAID32 WATB 290000 METAR WATB 290000Z 34005KT 9999 FEW018 24/20 Q1017 NOSIG=  
29-May-2023 SAID32 WATB 290100 METAR WATB 290100Z 06002KT 9999 FEW018 27/20 Q1017 NOSIG=  
29-May-2023 SAID32 WATB 290200 METAR WATB 290200Z 11004KT 9999 FEW018 28/21 Q1017 NOSIG=  
29-May-2023 SAID32 WATB 290300 METAR WATB 290300Z 16006KT 9999 FEW018 29/20 Q1016 NOSIG=  
29-May-2023 SAID32 WATB 290400 METAR WATB 290400Z 17005KT 9999 SCT017 27/20 Q1015 NOSIG=  
29-May-2023 SAID32 WATB 290500 METAR WATB 290500Z 15007KT 9999 SCT017 28/20 Q1014 NOSIG=  
30-May-2023 SAID32 WATB 300000 METAR WATB 300000Z 02002KT 9999 FEW018 24/21 Q1018 NOSIG=  
30-May-2023 SAID32 WATB 300100 METAR WATB 300100Z 05004KT 9999 FEW018 26/21 Q1018 NOSIG=  
30-May-2023 SAID32 WATB 300200 METAR WATB 300200Z 35004KT 9999 FEW018 29/19 Q1017 NOSIG=  
30-May-2023 SAID32 WATB 300300 METAR WATB 300300Z 07005KT 9999 FEW018 30/18 Q1017 NOSIG=  
30-May-2023 SAID32 WATB 300400 METAR WATB 300400Z 09002KT 9999 FEW018 31/19 Q1015 NOSIG=  
30-May-2023 SAID32 WATB 300500 METAR WATB 300500Z 09003KT 9999 FEW018 31/19 Q1014 NOSIG=  
30-May-2023 SAID32 WATB 300600 METAR WATB 300600Z 36007KT 9999 FEW018 31/18 Q1014 NOSIG=  
31-May-2023 SAID32 WATB 310000 METAR WATB 310000Z 31004KT 9999 BKN017 24/21 Q1018 NOSIG=  
31-May-2023 SAID32 WATB 310100 METAR WATB 310100Z 14003KT 9999 BKN017 24/21 Q1018 NOSIG=  
31-May-2023 SAID32 WATB 310200 METAR WATB 310200Z 15004KT 9999 BKN017 27/22 Q1017 NOSIG=  
31-May-2023 SAID32 WATB 310300 METAR WATB 310300Z 15010KT 090V210 9999 BKN017 29/22 Q1016 NOSIG=  
31-May-2023 SAID32 WATB 310400 METAR WATB 310400Z 16011KT 110V180 9999 BKN017 28/23 Q1016 NOSIG=  
31-May-2023 SAID32 WATB 310500 METAR WATB 310500Z 14005G15KT 9999 BKN017 28/22 Q1015 NOSIG=  
31-May-2023 SAID32 WATB 310600 METAR WATB 310600Z 17011KT 9999 BKN017 28/21 Q1014 NOSIG=  
01-Jun-2023 SAID32 WATB 010000 METAR WATB 010000Z 31002KT 9999 FEW018 26/21 Q1017 NOSIG=  
01-Jun-2023 SAID32 WATB 010100 METAR WATB 010100Z 12004KT 9999 FEW018 28/23 Q1017 NOSIG=  
01-Jun-2023 SAID32 WATB 010200 METAR WATB 010200Z 12005KT 9999 SCT017 29/23 Q1017 NOSIG=  
01-Jun-2023 SAID32 WATB 010300 METAR WATB 010300Z 13008KT 9999 SCT017 28/23 Q1016 NOSIG=  
01-Jun-2023 SAID32 WATB 010400 METAR WATB 010400Z 13005KT 9999 SCT017 30/22 Q1015 NOSIG=  
01-Jun-2023 SAID32 WATB 010500 METAR WATB 010500Z 13003KT 9999 SCT017 30/21 Q1014 NOSIG=  
02-Jun-2023 SAID32 WATB 020000 METAR WATB 020000Z 27002KT 9999 SCT018 23/19 Q1017 NOSIG=  
02-Jun-2023 SAID32 WATB 020100 METAR WATB 020100Z 06002KT 9999 SCT018 27/20 Q1017 NOSIG=  
02-Jun-2023 SAID32 WATB 020200 METAR WATB 020200Z 35004KT 9999 SCT018 27/21 Q1017 NOSIG=  
02-Jun-2023 SAID32 WATB 020300 METAR WATB 020300Z 05004KT 9999 SCT018 30/19 Q1016 NOSIG=  
02-Jun-2023 SAID32 WATB 020400 METAR WATB 020400Z 17006KT 9999 SCT018 29/20 Q1015 NOSIG=  
02-Jun-2023 SAID32 WATB 020500 METAR WATB 020500Z 12010KT 090V170 9999 SCT018 29/21 Q1015 NOSIG=  
03-Jun-2023 SAID32 WATB 030000 METAR WATB 030000Z 05003KT 9999 FEW016 24/20 Q1017 NOSIG=  
03-Jun-2023 SAID32 WATB 030100 METAR WATB 030100Z 03005KT 9999 FEW017 26/20 Q1017 NOSIG=  
03-Jun-2023 SAID32 WATB 030200 METAR WATB 030200Z 36005KT 9999 FEW017 28/18 Q1017 NOSIG=  
03-Jun-2023 SAID32 WATB 030300 METAR WATB 030300Z 04005KT 9999 FEW018 29/19 Q1016 NOSIG=  
03-Jun-2023 SAID32 WATB 030400 METAR WATB 030400Z 34005KT 9999 FEW018 30/17 Q1015 NOSIG=  
03-Jun-2023 SAID32 WATB 030500 METAR WATB 030500Z 12005KT 9999 FEW018 31/17 Q1014 NOSIG=  
04-Jun-2023 SAID32 WATB 040000 METAR WATB 040000Z 36003KT 9999 FEW016 24/21 Q1016 NOSIG=  
04-Jun-2023 SAID32 WATB 040100 METAR WATB 040100Z 02005KT 9999 FEW018 28/22 Q1016 NOSIG=  
04-Jun-2023 SAID32 WATB 040200 METAR WATB 040200Z 05005KT 9999 FEW018 29/21 Q1016 NOSIG=  
04-Jun-2023 SAID32 WATB 040300 METAR WATB 040300Z 09007KT 9999 SCT018 30/20 Q1015 NOSIG=  
04-Jun-2023 SAID32 WATB 040400 METAR WATB 040400Z 15006KT 9999 SCT018 30/21 Q1014 NOSIG=  
04-Jun-2023 SAID32 WATB 040500 METAR WATB 040500Z 10005KT 070V160 9999 BKN018 31/21 Q1013 NOSIG=  
05-Jun-2023 SAID32 WATB 050000 METAR WATB 050000Z 01005KT 9999 FEW015 25/24 Q1015 NOSIG=  
05-Jun-2023 SAID32 WATB 050100 METAR WATB 050100Z 36005KT 340V050 9999 FEW016 27/23 Q1016 NOSIG=  
05-Jun-2023 SAID32 WATB 050200 METAR WATB 050200Z 11005KT 9999 SCT017 28/23 Q1015 NOSIG=  
05-Jun-2023 SAID32 WATB 050300 METAR WATB 050300Z 10006KT 9999 SCT017 30/21 Q1015 NOSIG=  
05-Jun-2023 SAID32 WATB 050400 METAR WATB 050400Z 20005KT 9999 BKN017 29/21 Q1014 NOSIG=  
05-Jun-2023 SAID32 WATB 050500 METAR WATB 050500Z 05006KT 030V100 9999 BKN018 32/22 Q1013 NOSIG=  
06-Jun-2023 SAID32 WATB 060000 METAR WATB 060000Z 07003KT 9999 SCT016 24/22 Q1016 NOSIG=  
06-Jun-2023 SAID32 WATB 060100 METAR WATB 060100Z 08003KT 9999 FEW017 26/22 Q1017 NOSIG=  
06-Jun-2023 SAID32 WATB 060200 METAR WATB 060200Z 02005KT 350V080 9999 FEW017 28/21 Q1016 NOSIG=  
06-Jun-2023 SAID32 WATB 060300 METAR WATB 060300Z 05005KT 9999 FEW017 29/22 Q1016 NOSIG=  
06-Jun-2023 SAID32 WATB 060400 METAR WATB 060400Z 10005KT 060V150 9999 SCT018 30/21 Q1015 NOSIG=  
06-Jun-2023 SAID32 WATB 060500 METAR WATB 060500Z 07006KT 040V110 9999 SCT018 31/20 Q1014 NOSIG=  
07-Jun-2023 SAID32 WATB 070000 METAR WATB 070000Z 05003KT 9999 FEW016 24/19 Q1018 NOSIG=  
07-Jun-2023 SAID32 WATB 070100 METAR WATB 070100Z 05003KT 9999 FEW016 26/20 Q1018 NOSIG=  
07-Jun-2023 SAID32 WATB 070200 METAR WATB 070200Z 10005KT 9999 FEW017 28/18 Q1018 NOSIG=  
07-Jun-2023 SAID32 WATB 070300 METAR WATB 070300Z 08005KT 9999 FEW017 29/19 Q1017 NOSIG=  
07-Jun-2023 SAID32 WATB 070400 METAR WATB 070400Z 05006KT 9999 FEW018 30/19 Q1016 NOSIG=  
07-Jun-2023 SAID32 WATB 070500 METAR WATB 070500Z 07006KT 9999 FEW018 31/19 Q1015 NOSIG=  
08-Jun-2023 SAID32 WATB 080000 METAR WATB 080000Z 15005KT 9999 FEW016 26/22 Q1017 NOSIG=  
08-Jun-2023 SAID32 WATB 080100 METAR WATB 080100Z 12005KT 9999 FEW016 27/21 Q1017 NOSIG=  
08-Jun-2023 SAID32 WATB 080200 METAR WATB 080200Z 14005KT 9999 SCT017 29/21 Q1017 NOSIG=  
08-Jun-2023 SAID32 WATB 080300 METAR WATB 080300Z 15006KT 120V190 9999 SCT017 29/20 Q1017 NOSIG=  
08-Jun-2023 SAID32 WATB 080400 METAR WATB 080400Z 09006KT 060V130 9999 BKN018 29/20 Q1016 NOSIG=  
08-Jun-2023 SAID32 WATB 080500 METAR WATB 080500Z 28003KT 9999 SCT018 30/20 Q1015 NOSIG=  
09-Jun-2023 SAID32 WATB 090000 METAR WATB 090000Z 35003KT 4000 -RA BKN014 21/21 Q1017 NOSIG=  
09-Jun-2023 SAID32 WATB 090100 METAR WATB 090100Z 28007KT 4000 RA BKN014 21/21 Q1017 NOSIG=  
09-Jun-2023 SAID32 WATB 090200 METAR WATB 090200Z 05002KT 4000 -RA BKN014 23/23 Q1016 NOSIG=  
09-Jun-2023 SAID32 WATB 090300 METAR WATB 090300Z 25003KT 4000 -RA FEW014 BKN015 23/23 Q1016 NOSIG=  
09-Jun-2023 SAID32 WATB 090400 METAR WATB 090400Z 25003KT 5000 FEW014 BKN015 24/24 Q1015 RERA NOSIG=  
09-Jun-2023 SAID32 WATB 090500 METAR WATB 090500Z 23005KT 8000 FEW015 BKN016 25/24 Q1014 RERA NOSIG=  
10-Jun-2023 SAID32 WATB 100000 METAR WATB 100000Z 17002KT 8000 VCFG FEW015 BKN016 23/23 Q1016 NOSIG=  
10-Jun-2023 SAID32 WATB 100100 METAR WATB 100100Z 02003KT 8000 VCFG FEW015 BKN016 26/25 Q1016 NOSIG=  
10-Jun-2023 SAID32 WATB 100200 METAR WATB 100200Z 05003KT 9999 SCT016 28/23 Q1016 NOSIG=  
10-Jun-2023 SAID32 WATB 100300 METAR WATB 100300Z 10007KT 060V130 9999 BKN017 29/22 Q1015 NOSIG=  
10-Jun-2023 SAID32 WATB 100400 METAR WATB 100400Z 36006KT 300V070 9999 SCT017 31/21 Q1014 NOSIG=  
10-Jun-2023 SAID32 WATB 100500 METAR WATB 100500Z 36006KT 9999 SCT017 30/20 Q1013 NOSIG=  
11-Jun-2023 SAID32 WATB 110000 METAR WATB 110000Z 01003KT 9999 FEW016 26/21 Q1016 NOSIG=  
11-Jun-2023 SAID32 WATB 110100 METAR WATB 110100Z 05005KT 9999 FEW016 27/22 Q1016 NOSIG=  
11-Jun-2023 SAID32 WATB 110200 METAR WATB 110200Z 08003KT 9999 FEW017 27/21 Q1016 NOSIG=  
11-Jun-2023 SAID32 WATB 110300 METAR WATB 110300Z 02006KT 9999 FEW017 29/20 Q1015 NOSIG=  
11-Jun-2023 SAID32 WATB 110400 METAR WATB 110400Z 08005KT 030V120 9999 SCT017 30/20 Q1014 NOSIG=  
11-Jun-2023 SAID32 WATB 110500 METAR WATB 110500Z 11005KT 080V140 9999 BKN017 30/20 Q1013 NOSIG=  
12-Jun-2023 SAID32 WATB 120000 METAR WATB 120000Z 02005KT 9999 FEW016 25/21 Q1017 NOSIG=  
12-Jun-2023 SAID32 WATB 120100 METAR WATB 120100Z 13007KT 9999 FEW016 27/21 Q1018 NOSIG=  
12-Jun-2023 SAID32 WATB 120200 METAR WATB 120200Z 17010KT 9999 FEW017 27/20 Q1017 NOSIG=  
12-Jun-2023 SAID32 WATB 120300 METAR WATB 120300Z 17010KT 140V220 9999 FEW017 29/19 Q1017 NOSIG=  
12-Jun-2023 SAID32 WATB 120400 METAR WATB 120400Z 17013KT 130V200 9999 FEW018 28/18 Q1016 NOSIG=  
12-Jun-2023 SAID32 WATB 120500 METAR WATB 120500Z 16013KT 130V190 9999 FEW018 28/20 Q1015 NOSIG=  
13-Jun-2023 SAID32 WATB 130000 METAR WATB 130000Z 02003KT 9999 FEW016 26/21 Q1017 NOSIG=  
13-Jun-2023 SAID32 WATB 130100 METAR WATB 130100Z 14006KT 9999 FEW016 25/20 Q1017 NOSIG=  
13-Jun-2023 SAID32 WATB 130200 METAR WATB 130200Z 14005KT 100V190 9999 FEW016 27/20 Q1017 NOSIG=  
13-Jun-2023 SAID32 WATB 130300 METAR WATB 130300Z 16007KT 110V180 9999 FEW017 28/19 Q1016 NOSIG=  
13-Jun-2023 SAID32 WATB 130400 METAR WATB 130400Z 21010KT 170V240 9999 FEW018 29/19 Q1015 NOSIG=  
13-Jun-2023 SAID32 WATB 130500 METAR WATB 130500Z 14005KT 080V210 9999 FEW018 30/17 Q1014 NOSIG=  
14-Jun-2023 SAID32 WATB 140000 METAR WATB 140000Z 01003KT 9999 FEW016 24/19 Q1017 NOSIG=  
14-Jun-2023 SAID32 WATB 140100 METAR WATB 140100Z 32003KT 9999 FEW018 26/19 Q1018 NOSIG=  
14-Jun-2023 SAID32 WATB 140200 METAR WATB 140200Z 08005KT 9999 FEW018 28/20 Q1017 NOSIG=  
14-Jun-2023 SAID32 WATB 140300 METAR WATB 140300Z 14005KT 100V190 9999 FEW018 29/18 Q1017 NOSIG=  
14-Jun-2023 SAID32 WATB 140400 METAR WATB 140400Z 04007KT 9999 FEW018 29/17 Q1016 NOSIG=  
14-Jun-2023 SAID32 WATB 140500 METAR WATB 140500Z 10005KT 060V160 9999 FEW018 30/15 Q1015 NOSIG=  
15-Jun-2023 SAID32 WATB 150000 METAR WATB 150000Z 06003KT 9999 FEW016 23/19 Q1017 NOSIG=  
15-Jun-2023 SAID32 WATB 150100 METAR WATB 150100Z 10005KT 9999 FEW016 25/20 Q1018 NOSIG=  
15-Jun-2023 SAID32 WATB 150200 METAR WATB 150200Z 10010KT 080V150 9999 FEW017 28/21 Q1017 NOSIG=  
15-Jun-2023 SAID32 WATB 150300 METAR WATB 150300Z 16005KT 090V250 9999 SCT017 29/20 Q1016 NOSIG=  
15-Jun-2023 SAID32 WATB 150400 METAR WATB 150400Z 15010KT 110V190 9999 SCT017 29/19 Q1016 NOSIG=  
15-Jun-2023 SAID32 WATB 150500 METAR WATB 150500Z 14005KT 9999 SCT017 30/18 Q1015 NOSIG=  
16-Jun-2023 SAID32 WATB 160000 METAR WATB 160000Z 35005KT 9999 FEW016 23/20 Q1017 NOSIG=  
16-Jun-2023 SAID32 WATB 160100 METAR WATB 160100Z 08005KT 040V110 9999 FEW016 25/21 Q1017 NOSIG=  
16-Jun-2023 SAID32 WATB 160200 METAR WATB 160200Z 15005KT 080V230 9999 FEW017 27/21 Q1017 NOSIG=  
16-Jun-2023 SAID32 WATB 160300 METAR WATB 160300Z 04005KT 9999 FEW017 28/19 Q1016 NOSIG=  
16-Jun-2023 SAID32 WATB 160400 METAR WATB 160400Z 11005KT 060V150 9999 FEW017 29/19 Q1015 NOSIG=  
16-Jun-2023 SAID32 WATB 160500 METAR WATB 160500Z 01005KT 9999 FEW018 30/19 Q1014 NOSIG=  
17-Jun-2023 SAID32 WATB 170000 METAR WATB 170000Z 02003KT 9999 FEW016 22/18 Q1017 NOSIG=  
17-Jun-2023 SAID32 WATB 170100 METAR WATB 170100Z 10003KT 9999 FEW018 25/19 Q1018 NOSIG=  
17-Jun-2023 SAID32 WATB 170200 METAR WATB 170200Z 11005KT 9999 FEW018 27/18 Q1017 NOSIG=  
17-Jun-2023 SAID32 WATB 170300 METAR WATB 170300Z 03006KT 010V070 9999 FEW018 28/17 Q1017 NOSIG=  
17-Jun-2023 SAID32 WATB 170400 METAR WATB 170400Z 09005KT 9999 FEW018 30/17 Q1016 NOSIG=  
17-Jun-2023 SAID32 WATB 170500 METAR WATB 170500Z 13010KT 100V170 9999 FEW018 30/20 Q1015 NOSIG=  
18-Jun-2023 SAID32 WATB 180000 METAR WATB 180000Z 36003KT 9999 FEW016 23/19 Q1017 NOSIG=  
18-Jun-2023 SAID32 WATB 180100 METAR WATB 180100Z 05003KT 9999 FEW016 26/19 Q1017 NOSIG=  
18-Jun-2023 SAID32 WATB 180200 METAR WATB 180200Z 08005KT 050V110 9999 FEW017 28/19 Q1017 NOSIG=  
18-Jun-2023 SAID32 WATB 180300 METAR WATB 180300Z 10005KT 9999 FEW017 28/18 Q1016 NOSIG=  
18-Jun-2023 SAID32 WATB 180400 METAR WATB 180400Z 13006KT 9999 FEW017 29/17 Q1015 NOSIG=  
18-Jun-2023 SAID32 WATB 180500 METAR WATB 180500Z 24006KT 190V290 9999 FEW018 31/18 Q1014 NOSIG=  
19-Jun-2023 SAID32 WATB 190000 METAR WATB 190000Z 08003KT 9999 FEW016 23/18 Q1017 NOSIG=  
19-Jun-2023 SAID32 WATB 190100 METAR WATB 190100Z 07003KT 9999 FEW016 25/18 Q1017 NOSIG=  
19-Jun-2023 SAID32 WATB 190200 METAR WATB 190200Z 06003KT 9999 FEW016 27/18 Q1016 NOSIG=  
19-Jun-2023 SAID32 WATB 190300 METAR WATB 190300Z 08005KT 9999 FEW017 28/19 Q1015 NOSIG=  
19-Jun-2023 SAID32 WATB 190400 METAR WATB 190400Z 02005KT 9999 FEW018 30/19 Q1014 NOSIG=  
19-Jun-2023 SAID32 WATB 190500 METAR WATB 190500Z 08010KT 9999 SCT018 30/21 Q1013 NOSIG=  
20-Jun-2023 SAID32 WATB 200000 METAR WATB 200000Z 03003KT 9999 FEW016 24/20 Q1017 NOSIG=  
20-Jun-2023 SAID32 WATB 200100 METAR WATB 200100Z 06003KT 9999 FEW017 26/21 Q1016 NOSIG=  
20-Jun-2023 SAID32 WATB 200200 METAR WATB 200200Z 03005KT 9999 FEW017 27/21 Q1016 NOSIG=  
20-Jun-2023 SAID32 WATB 200300 METAR WATB 200300Z 09005KT 9999 FEW018 29/21 Q1015 NOSIG=  
20-Jun-2023 SAID32 WATB 200400 METAR WATB 200400Z 30005KT 250V010 9999 SCT018 30/20 Q1015 NOSIG=  
20-Jun-2023 SAID32 WATB 200500 METAR WATB 200500Z 10010KT 060V040 9999 SCT018 31/20 Q1014 NOSIG=  
21-Jun-2023 SAID32 WATB 210000 METAR WATB 210000Z 12003KT 9999 FEW017 23/19 Q1018 NOSIG=  
21-Jun-2023 SAID32 WATB 210100 METAR WATB 210100Z 03003KT 9999 FEW017 26/20 Q1017 NOSIG=  
21-Jun-2023 SAID32 WATB 210200 METAR WATB 210200Z 06005KT 9999 FEW017 27/19 Q1017 NOSIG=  
21-Jun-2023 SAID32 WATB 210300 METAR WATB 210300Z 06005KT 9999 FEW018 29/18 Q1016 NOSIG=  
21-Jun-2023 SAID32 WATB 210400 METAR WATB 210400Z 12005KT 070V150 9999 FEW018 30/16 Q1015 NOSIG=  
21-Jun-2023 SAID32 WATB 210500 METAR WATB 210500Z 22005KT 170V240 9999 FEW018 31/15 Q1014 NOSIG=  
22-Jun-2023 SAID32 WATB 220000 METAR WATB 220000Z 35003KT 9999 FEW016 24/20 Q1017 NOSIG=  
22-Jun-2023 SAID32 WATB 220100 METAR WATB 220100Z 32003KT 9999 FEW017 28/20 Q1017 NOSIG=  
22-Jun-2023 SAID32 WATB 220200 METAR WATB 220200Z 08005KT 9999 FEW018 28/21 Q1016 NOSIG=  
22-Jun-2023 SAID32 WATB 220300 METAR WATB 220300Z 08007KT 350V110 9999 FEW018 30/20 Q1015 NOSIG=  
22-Jun-2023 SAID32 WATB 220400 METAR WATB 220400Z 16005KT 9999 SCT018 30/20 Q1014 NOSIG=  
22-Jun-2023 SAID32 WATB 220500 METAR WATB 220500Z 16006KT 9999 BKN018 29/20 Q1014 NOSIG=  
23-Jun-2023 SAID32 WATB 230000 METAR WATB 230000Z 07003KT 9999 FEW016 24/20 Q1016 NOSIG=  
23-Jun-2023 SAID32 WATB 230100 METAR WATB 230100Z 13003KT 9999 FEW016 26/20 Q1016 NOSIG=  
23-Jun-2023 SAID32 WATB 230200 METAR WATB 230200Z 17005KT 9999 FEW017 28/19 Q1016 NOSIG=  
23-Jun-2023 SAID32 WATB 230300 METAR WATB 230300Z 10005KT 090V170 9999 FEW017 29/18 Q1015 NOSIG=  
23-Jun-2023 SAID32 WATB 230400 METAR WATB 230400Z 08006KT 9999 SCT017 30/19 Q1014 NOSIG=  
23-Jun-2023 SAID32 WATB 230500 METAR WATB 230500Z 18005KT 150V210 9999 BKN017 30/19 Q1013 NOSIG=  
24-Jun-2023 SAID32 WATB 240000 METAR WATB 240000Z 09005KT 9999 FEW016 23/21 Q1015 NOSIG=  
24-Jun-2023 SAID32 WATB 240100 METAR WATB 240100Z 16005KT 9999 FEW016 25/20 Q1015 NOSIG=  
24-Jun-2023 SAID32 WATB 240200 METAR WATB 240200Z 01005KT 330V030 9999 FEW018 28/20 Q1015 NOSIG=  
24-Jun-2023 SAID32 WATB 240300 METAR WATB 240300Z 01005KT 050V150 9999 FEW018 29/21 Q1014 NOSIG=  
24-Jun-2023 SAID32 WATB 240400 METAR WATB 240400Z 16010KT 070V200 9999 SCT018 29/19 Q1013 NOSIG=  
24-Jun-2023 SAID32 WATB 240500 METAR WATB 240500Z 09010KT 9999 SCT018 31/20 Q1012 NOSIG=  
25-Jun-2023 SAID32 WATB 250000 METAR WATB 250000Z 32003KT 9999 FEW016 22/21 Q1015 NOSIG=  
25-Jun-2023 SAID32 WATB 250100 METAR WATB 250100Z 06002KT 9999 FEW018 27/22 Q1014 NOSIG=  
25-Jun-2023 SAID32 WATB 250200 METAR WATB 250200Z 10005KT 9999 FEW018 28/20 Q1014 NOSIG=  
25-Jun-2023 SAID32 WATB 250300 METAR WATB 250300Z 04003KT 9999 FEW018 29/19 Q1014 NOSIG=  
25-Jun-2023 SAID32 WATB 250400 METAR WATB 250400Z 07007KT 9999 FEW018 30/19 Q1013 NOSIG=  
25-Jun-2023 SAID32 WATB 250500 METAR WATB 250500Z 09010KT 9999 SCT018 30/20 Q1012 NOSIG=  
26-Jun-2023 SAID32 WATB 260000 METAR WATB 260000Z 04003KT 9999 FEW016 BKN019 23/22 Q1015 NOSIG=  
26-Jun-2023 SAID32 WATB 260100 METAR WATB 260100Z 06002KT 9999 FEW016 BKN019 24/22 Q1015 NOSIG=  
26-Jun-2023 SAID32 WATB 260200 METAR WATB 260200Z 09003KT 9999 BKN018 27/23 Q1015 NOSIG=  
26-Jun-2023 SAID32 WATB 260300 METAR WATB 260300Z 08006KT 040V110 9999 BKN017 28/23 Q1015 NOSIG=  
26-Jun-2023 SAID32 WATB 260400 METAR WATB 260400Z 05005KT 020V090 9999 BKN017 30/22 Q1013 NOSIG=  
26-Jun-2023 SAID32 WATB 260500 METAR WATB 260500Z 36003KT 9999 BKN016 30/22 Q1013 NOSIG=  
27-Jun-2023 SAID32 WATB 270000 METAR WATB 270000Z 06003KT 9999 FEW016 25/22 Q1016 NOSIG=  
27-Jun-2023 SAID32 WATB 270100 METAR WATB 270100Z 04005KT 020V100 9999 FEW016 27/22 Q1016 NOSIG=  
27-Jun-2023 SAID32 WATB 270200 METAR WATB 270200Z 04007KT 9999 FEW017 29/22 Q1016 NOSIG=  
27-Jun-2023 SAID32 WATB 270300 METAR WATB 270300Z 07006KT 9999 SCT017 30/22 Q1015 NOSIG=  
27-Jun-2023 SAID32 WATB 270400 METAR WATB 270400Z 06006KT 9999 BKN017 32/20 Q1014 NOSIG=  
27-Jun-2023 SAID32 WATB 270500 METAR WATB 270500Z 12006KT 9999 BKN017 31/22 Q1014 NOSIG=  
28-Jun-2023 SAID32 WATB 280000 METAR WATB 280000Z 36003KT 9999 FEW016 25/22 Q1018 NOSIG=  
28-Jun-2023 SAID32 WATB 280100 METAR WATB 280100Z 02003KT 9999 FEW016 26/23 Q1018 NOSIG=  
28-Jun-2023 SAID32 WATB 280200 METAR WATB 280200Z 09002KT 9999 FEW016 28/23 Q1017 NOSIG=  
28-Jun-2023 SAID32 WATB 280300 METAR WATB 280300Z 11005KT 010V140 9999 SCT016 29/23 Q1017 NOSIG=  
28-Jun-2023 SAID32 WATB 280400 METAR WATB 280400Z 29003KT 9999 BKN017 31/22 Q1016 NOSIG=  
28-Jun-2023 SAID32 WATB 280500 METAR WATB 280500Z 03006KT 9999 BKN017 30/20 Q1015 NOSIG=  
29-Jun-2023 SAID32 WATB 290000 METAR WATB 290000Z 05003KT 9999 FEW016 25/22 Q1017 NOSIG=  
29-Jun-2023 SAID32 WATB 290100 METAR WATB 290100Z 03003KT 9999 FEW016 27/22 Q1017 NOSIG=  
29-Jun-2023 SAID32 WATB 290200 METAR WATB 290200Z 05005KT 9999 FEW016 28/23 Q1017 NOSIG=  
29-Jun-2023 SAID32 WATB 290300 METAR WATB 290300Z 09003KT 9999 SCT017 30/21 Q1016 NOSIG=  
29-Jun-2023 SAID32 WATB 290400 METAR WATB 290400Z 09005KT 030V140 9999 SCT017 30/21 Q1015 NOSIG=  
29-Jun-2023 SAID32 WATB 290500 METAR WATB 290500Z 05005KT 9999 BKN016 32/21 Q1014 NOSIG=  
30-Jun-2023 SAID32 WATB 300000 METAR WATB 300000Z 25003KT 9999 BKN015 24/23 Q1016 NOSIG=  
30-Jun-2023 SAID32 WATB 300100 METAR WATB 300100Z 06002KT 8000 BKN015 26/23 Q1016 NOSIG=  
30-Jun-2023 SAID32 WATB 300200 METAR WATB 300200Z 05005KT 030V090 9999 BKN016 26/23 Q1016 NOSIG=  
30-Jun-2023 SAID32 WATB 300300 METAR WATB 300300Z 05005KT 040V120 9999 BKN016 29/23 Q1015 NOSIG=  
30-Jun-2023 SAID32 WATB 300400 METAR WATB 300400Z 02002KT 5000 -RA BKN015 26/24 Q1014 NOSIG=  
30-Jun-2023 SAID32 WATB 300500 METAR WATB 300500Z 10010KT 4000 VCSH BKN014 25/25 Q1014 RERA NOSIG RMK SH TO E=  
01-Jul-2023 SAID32 WATB 010000 METAR WATB 010000Z 07003KT 8000 BKN015 23/23 Q1016 NOSIG=  
01-Jul-2023 SAID32 WATB 010100 METAR WATB 010100Z 07003KT 8000 SCT015 26/24 Q1017 NOSIG=  
01-Jul-2023 SAID32 WATB 010200 METAR WATB 010200Z 07005KT 9999 SCT015 27/24 Q1017 NOSIG=  
01-Jul-2023 SAID32 WATB 010300 METAR WATB 010300Z 29003KT 9999 FEW015 BKN016 28/24 Q1016 NOSIG=  
01-Jul-2023 SAID32 WATB 010400 METAR WATB 010400Z 08005KT 060V170 9999 FEW015 BKN016 29/24 Q1015 NOSIG=  
01-Jul-2023 SAID32 WATB 010500 METAR WATB 010500Z 05006KT 9999 FEW015 BKN016 28/24 Q1014 NOSIG=  
02-Jul-2023 SAID32 WATB 020000 METAR WATB 020000Z 10004KT 9999 SCT015 25/23 Q1017 NOSIG=  
02-Jul-2023 SAID32 WATB 020100 METAR WATB 020100Z 06002KT 9999 BKN015 25/23 Q1017 NOSIG=  
02-Jul-2023 SAID32 WATB 020200 METAR WATB 020200Z 30005KT 8000 VCSH BKN015 27/24 Q1017 NOSIG RMK SH TO W=  
02-Jul-2023 SAID32 WATB 020300 METAR WATB 020300Z 31002KT 9999 FEW015 BKN016 26/23 Q1016 NOSIG=  
02-Jul-2023 SAID32 WATB 020400 METAR WATB 020400Z 17003KT 9999 FEW015 BKN016 27/25 Q1016 NOSIG=  
02-Jul-2023 SAID32 WATB 020500 METAR WATB 020500Z 15010KT 120V180 8000 -RA FEW014 BKN015 25/23 Q1015 NOSIG=  
03-Jul-2023 SAID32 WATB 030000 METAR WATB 030000Z 15005KT 9999 BKN015 24/22 Q1017 NOSIG=  
03-Jul-2023 SAID32 WATB 030100 METAR WATB 030100Z 15005KT 9999 BKN015 25/22 Q1017 NOSIG=  
03-Jul-2023 SAID32 WATB 030200 METAR WATB 030200Z 15005KT 9999 BKN016 27/23 Q1017 NOSIG=  
03-Jul-2023 SAID32 WATB 030300 METAR WATB 030300Z 18006KT 9999 BKN016 25/23 Q1016 NOSIG=  
03-Jul-2023 SAID32 WATB 030400 METAR WATB 030400Z 19010KT 9999 BKN016 27/23 Q1016 NOSIG=  
03-Jul-2023 SAID32 WATB 030500 METAR WATB 030500Z 17013KT 9999 BKN016 26/22 Q1015 NOSIG=  
04-Jul-2023 SAID32 WATB 040000 METAR WATB 040000Z 35003KT 9999 FEW016 25/22 Q1017 NOSIG=  
04-Jul-2023 SAID32 WATB 040100 METAR WATB 040100Z 04003KT 9999 FEW016 26/22 Q1017 NOSIG=  
04-Jul-2023 SAID32 WATB 040200 METAR WATB 040200Z 13003KT 9999 SCT016 27/23 Q1016 NOSIG=  
04-Jul-2023 SAID32 WATB 040300 METAR WATB 040300Z 10005KT 050V140 9999 SCT017 29/23 Q1016 NOSIG=  
04-Jul-2023 SAID32 WATB 040400 METAR WATB 040400Z 09006KT 9999 BKN017 28/22 Q1015 NOSIG=  
04-Jul-2023 SAID32 WATB 040500 METAR WATB 040500Z 13008KT 9999 SCT017 29/23 Q1014 NOSIG=  
05-Jul-2023 SAID32 WATB 050000 METAR WATB 050000Z 03003KT 9999 FEW016 24/22 Q1016 NOSIG=  
05-Jul-2023 SAID32 WATB 050100 METAR WATB 050100Z 05005KT 030V090 9999 FEW016 26/23 Q1016 NOSIG=  
05-Jul-2023 SAID32 WATB 050200 METAR WATB 050200Z 06005KT 020V090 9999 FEW017 28/23 Q1015 NOSIG=  
05-Jul-2023 SAID32 WATB 050300 METAR WATB 050300Z 10003KT 9999 FEW017 29/23 Q1015 NOSIG=  
05-Jul-2023 SAID32 WATB 050400 METAR WATB 050400Z 13008KT 060V170 9999 SCT017 29/23 Q1014 NOSIG=  
05-Jul-2023 SAID32 WATB 050500 METAR WATB 050500Z 13005KT 9999 BKN016 28/22 Q1014 NOSIG=  
06-Jul-2023 SAID32 WATB 060000 METAR WATB 060000Z 07005KT 9999 FEW016 24/22 Q1017 NOSIG=  
06-Jul-2023 SAID32 WATB 060100 METAR WATB 060100Z 04003KT 9999 FEW016 27/23 Q1017 NOSIG=  
06-Jul-2023 SAID32 WATB 060200 METAR WATB 060200Z 06005KT 9999 BKN016 27/23 Q1017 NOSIG=  
06-Jul-2023 SAID32 WATB 060300 METAR WATB 060300Z 14003KT 9999 BKN016 27/23 Q1017 NOSIG=  
06-Jul-2023 SAID32 WATB 060400 METAR WATB 060400Z 34003KT 9999 BKN016 29/23 Q1016 NOSIG=  
06-Jul-2023 SAID32 WATB 060500 METAR WATB 060500Z 04005KT 030V100 9999 BKN016 28/23 Q1015 NOSIG=  
07-Jul-2023 SAID32 WATB 070000 METAR WATB 070000Z 14005KT 110V170 9999 BKN016 26/23 Q1017 NOSIG=  
07-Jul-2023 SAID32 WATB 070100 METAR WATB 070100Z 12005KT 090V150 9999 BKN016 27/23 Q1017 NOSIG=  
07-Jul-2023 SAID32 WATB 070200 METAR WATB 070200Z 13007KT 090V180 9999 BKN016 27/23 Q1017 NOSIG=  
07-Jul-2023 SAID32 WATB 070300 METAR WATB 070300Z 19005KT 9999 BKN016 29/23 Q1017 NOSIG=  
07-Jul-2023 SAID32 WATB 070400 METAR WATB 070400Z 16008KT 9999 BKN016 27/23 Q1017 NOSIG=  
07-Jul-2023 SAID32 WATB 070500 METAR WATB 070500Z 17006KT 9999 BKN017 29/23 Q1016 NOSIG=  
08-Jul-2023 SAID32 WATB 080000 METAR WATB 080000Z 10002KT 9999 FEW016 24/22 Q1018 NOSIG=  
08-Jul-2023 SAID32 WATB 080100 METAR WATB 080100Z 09003KT 9999 FEW016 27/22 Q1018 NOSIG=  
08-Jul-2023 SAID32 WATB 080200 METAR WATB 080200Z 04003KT 9999 SCT016 28/23 Q1018 NOSIG=  
08-Jul-2023 SAID32 WATB 080300 METAR WATB 080300Z 33003KT 9999 BKN017 29/22 Q1017 NOSIG=  
08-Jul-2023 SAID32 WATB 080400 METAR WATB 080400Z 22006KT 180V240 9999 BKN016 29/22 Q1017 NOSIG=  
08-Jul-2023 SAID32 WATB 080500 METAR WATB 080500Z 12006KT 080V150 9999 BKN017 30/21 Q1016 NOSIG=  
09-Jul-2023 SAID32 WATB 090000 METAR WATB 090000Z 06003KT 9999 FEW016 25/22 Q1017 NOSIG=  
09-Jul-2023 SAID32 WATB 090100 METAR WATB 090100Z 16010KT 100V200 9999 FEW016 27/21 Q1017 NOSIG=  
09-Jul-2023 SAID32 WATB 090200 METAR WATB 090200Z 20008KT 170V230 9999 FEW016 27/21 Q1017 NOSIG=  
09-Jul-2023 SAID32 WATB 090300 METAR WATB 090300Z 16011KT 9999 SCT017 28/20 Q1016 NOSIG=  
09-Jul-2023 SAID32 WATB 090400 METAR WATB 090400Z 15010KT 110V180 9999 SCT017 28/20 Q1016 NOSIG=  
09-Jul-2023 SAID32 WATB 090500 METAR WATB 090500Z 18012KT 150V230 9999 SCT017 28/20 Q1015 NOSIG=  
10-Jul-2023 SAID32 WATB 100000 METAR WATB 100000Z 15003KT 9999 SCT016 24/21 Q1017 NOSIG=  
10-Jul-2023 SAID32 WATB 100100 METAR WATB 100100Z 15008KT 9999 SCT016 25/19 Q1017 NOSIG=  
10-Jul-2023 SAID32 WATB 100200 METAR WATB 100200Z 15008KT 9999 FEW017 26/17 Q1017 NOSIG=  
10-Jul-2023 SAID32 WATB 100300 METAR WATB 100300Z 17012KT 150V220 9999 FEW017 27/18 Q1016 NOSIG=  
10-Jul-2023 SAID32 WATB 100400 METAR WATB 100400Z 16010KT 120V190 9999 FEW017 26/18 Q1016 NOSIG=  
10-Jul-2023 SAID32 WATB 100500 METAR WATB 100500Z 20010KT 110V250 9999 FEW017 25/18 Q1015 NOSIG=  
11-Jul-2023 SAID32 WATB 110000 METAR WATB 110000Z 17011KT 130V220 9999 FEW016 24/18 Q1017 NOSIG=  
11-Jul-2023 SAID32 WATB 110100 METAR WATB 110100Z 16010KT 140V200 9999 FEW016 25/18 Q1018 NOSIG=  
11-Jul-2023 SAID32 WATB 110200 METAR WATB 110200Z 15010KT 120V180 9999 FEW017 26/18 Q1017 NOSIG=  
11-Jul-2023 SAID32 WATB 110300 METAR WATB 110300Z 14010KT 110V180 9999 FEW018 26/18 Q1016 NOSIG=  
11-Jul-2023 SAID32 WATB 110400 METAR WATB 110400Z 16014KT 9999 FEW018 26/18 Q1016 NOSIG=  
11-Jul-2023 SAID32 WATB 110500 METAR WATB 110500Z 14010KT 090V170 9999 FEW017 26/18 Q1015 NOSIG=  
12-Jul-2023 SAID32 WATB 120000 METAR WATB 120000Z 17007KT 140V210 9999 SCT016 24/22 Q1016 NOSIG=  
12-Jul-2023 SAID32 WATB 120100 METAR WATB 120100Z 16007KT 9999 BKN016 25/22 Q1016 NOSIG=  
12-Jul-2023 SAID32 WATB 120200 METAR WATB 120200Z 20005KT 150V230 9999 BKN016 26/22 Q1015 NOSIG=  
12-Jul-2023 SAID32 WATB 120300 METAR WATB 120300Z 17010KT 120V210 9999 BKN016 26/23 Q1016 NOSIG=  
12-Jul-2023 SAID32 WATB 120400 METAR WATB 120400Z 17012KT 130V210 9999 BKN016 27/22 Q1015 NOSIG=  
12-Jul-2023 SAID32 WATB 120500 METAR WATB 120500Z 14005KT 9999 FEW015 BKN016 26/23 Q1014 NOSIG=  
13-Jul-2023 SAID32 WATB 130000 METAR WATB 130000Z 20003KT 9999 FEW016 26/22 Q1017 NOSIG=  
13-Jul-2023 SAID32 WATB 130100 METAR WATB 130100Z 19005KT 9999 FEW016 26/21 Q1017 NOSIG=  
13-Jul-2023 SAID32 WATB 130200 METAR WATB 130200Z 21007KT 150V240 9999 FEW017 27/22 Q1017 NOSIG=  
13-Jul-2023 SAID32 WATB 130300 METAR WATB 130300Z 16010KT 110V180 9999 FEW017 27/21 Q1016 NOSIG=  
13-Jul-2023 SAID32 WATB 130400 METAR WATB 130400Z 15010KT 120V200 9999 FEW017 28/21 Q1015 NOSIG=  
13-Jul-2023 SAID32 WATB 130500 METAR WATB 130500Z 12010KT 090V160 9999 FEW017 29/20 Q1014 NOSIG=  
14-Jul-2023 SAID32 WATB 140000 METAR WATB 140000Z 33003KT 9999 FEW016 24/22 Q1017 NOSIG=  
14-Jul-2023 SAID32 WATB 140100 METAR WATB 140100Z 12003KT 9999 FEW016 27/22 Q1017 NOSIG=  
14-Jul-2023 SAID32 WATB 140200 METAR WATB 140200Z 17006KT 120V210 9999 SCT016 28/21 Q1017 NOSIG=  
14-Jul-2023 SAID32 WATB 140300 METAR WATB 140300Z 10007KT 080V160 9999 SCT017 29/20 Q1016 NOSIG=  
14-Jul-2023 SAID32 WATB 140400 METAR WATB 140400Z 12005KT 080V150 9999 BKN017 29/21 Q1016 NOSIG=  
14-Jul-2023 SAID32 WATB 140500 METAR WATB 140500Z 18006KT 150V220 9999 SCT017 29/21 Q1015 NOSIG=  
15-Jul-2023 SAID32 WATB 150000 METAR WATB 150000Z 11003KT 9999 FEW016 25/21 Q1017 NOSIG=  
15-Jul-2023 SAID32 WATB 150100 METAR WATB 150100Z 17008KT 9999 SCT016 26/20 Q1017 NOSIG=  
15-Jul-2023 SAID32 WATB 150200 METAR WATB 150200Z 13005KT 9999 SCT016 25/20 Q1017 NOSIG=  
15-Jul-2023 SAID32 WATB 150300 METAR WATB 150300Z 13010KT 110V190 9999 SCT017 28/19 Q1016 NOSIG=  
15-Jul-2023 SAID32 WATB 150400 METAR WATB 150400Z 19007KT 140V230 9999 SCT017 29/18 Q1015 NOSIG=  
15-Jul-2023 SAID32 WATB 150500 METAR WATB 150500Z 14011KT 100V200 9999 SCT017 29/18 Q1014 NOSIG=  
16-Jul-2023 SAID32 WATB 160000 METAR WATB 160000Z 02003KT 9999 FEW016 23/20 Q1017 NOSIG=  
16-Jul-2023 SAID32 WATB 160100 METAR WATB 160100Z 09003KT 9999 FEW016 25/21 Q1018 NOSIG=  
16-Jul-2023 SAID32 WATB 160200 METAR WATB 160200Z 09005KT 050V110 9999 FEW016 27/21 Q1017 NOSIG=  
16-Jul-2023 SAID32 WATB 160300 METAR WATB 160300Z 31003KT 9999 SCT017 29/20 Q1017 NOSIG=  
16-Jul-2023 SAID32 WATB 160400 METAR WATB 160400Z 17008KT 140V200 9999 SCT017 29/19 Q1016 NOSIG=  
16-Jul-2023 SAID32 WATB 160500 METAR WATB 160500Z 14008KT 100V170 9999 SCT017 29/20 Q1015 NOSIG=  
17-Jul-2023 SAID32 WATB 170000 METAR WATB 170000Z 18006KT 130V210 9999 SCT016 25/20 Q1017 NOSIG=  
17-Jul-2023 SAID32 WATB 170100 METAR WATB 170100Z 15010KT 9999 SCT016 26/20 Q1017 NOSIG=  
17-Jul-2023 SAID32 WATB 170200 METAR WATB 170200Z 14012KT 100V160 9999 BKN016 27/21 Q1017 NOSIG=  
17-Jul-2023 SAID32 WATB 170300 METAR WATB 170300Z 15010KT 070V180 9999 BKN016 28/20 Q1017 NOSIG=  
17-Jul-2023 SAID32 WATB 170400 METAR WATB 170400Z 15012KT 120V180 9999 SCT016 28/20 Q1016 NOSIG=  
17-Jul-2023 SAID32 WATB 170500 METAR WATB 170500Z 17011KT 9999 SCT017 28/19 Q1016 NOSIG=  
18-Jul-2023 SAID32 WATB 180000 METAR WATB 180000Z 10003KT 9999 FEW016 26/21 Q1017 NOSIG=  
18-Jul-2023 SAID32 WATB 180100 METAR WATB 180100Z 15006KT 9999 FEW016 27/21 Q1017 NOSIG=  
18-Jul-2023 SAID32 WATB 180200 METAR WATB 180200Z 10007KT 9999 SCT016 27/20 Q1017 NOSIG=  
18-Jul-2023 SAID32 WATB 180300 METAR WATB 180300Z 12005KT 9999 BKN016 28/19 Q1016 NOSIG=  
18-Jul-2023 SAID32 WATB 180400 METAR WATB 180400Z 10010KT 9999 BKN017 28/19 Q1016 NOSIG=  
18-Jul-2023 SAID32 WATB 180500 METAR WATB 180500Z 16012KT 9999 SCT017 28/20 Q1015 NOSIG=  
19-Jul-2023 SAID32 WATB 190000 METAR WATB 190000Z 18005KT 9999 SCT016 25/22 Q1017 NOSIG=  
19-Jul-2023 SAID32 WATB 190100 METAR WATB 190100Z 13010KT 9999 SCT016 26/22 Q1017 NOSIG=  
19-Jul-2023 SAID32 WATB 190200 METAR WATB 190200Z 18010KT 150V260 9999 BKN016 26/22 Q1016 NOSIG=  
19-Jul-2023 SAID32 WATB 190300 METAR WATB 190300Z 13007KT 050V180 9999 BKN016 28/22 Q1016 NOSIG=  
19-Jul-2023 SAID32 WATB 190400 METAR WATB 190400Z 16010KT 120V200 9999 BKN016 28/22 Q1015 NOSIG=  
19-Jul-2023 SAID32 WATB 190500 METAR WATB 190500Z 15005KT 110V180 9999 BKN016 28/22 Q1014 NOSIG=  
20-Jul-2023 SAID32 WATB 200000 METAR WATB 200000Z 10005KT 9999 FEW016 23/21 Q1016 NOSIG=  
20-Jul-2023 SAID32 WATB 200100 METAR WATB 200100Z 18005KT 9999 FEW016 26/22 Q1016 NOSIG=  
20-Jul-2023 SAID32 WATB 200200 METAR WATB 200200Z 16006KT 100V200 9999 SCT016 27/22 Q1016 NOSIG=  
20-Jul-2023 SAID32 WATB 200300 METAR WATB 200300Z 16007KT 130V210 9999 SCT016 28/21 Q1015 NOSIG=  
20-Jul-2023 SAID32 WATB 200400 METAR WATB 200400Z 16010KT 9999 BKN016 28/21 Q1014 NOSIG=  
20-Jul-2023 SAID32 WATB 200500 METAR WATB 200500Z 14005KT 9999 BKN016 27/21 Q1014 NOSIG=  
21-Jul-2023 SAID32 WATB 210000 METAR WATB 210000Z 33003KT 9999 FEW016 25/20 Q1018 NOSIG=  
21-Jul-2023 SAID32 WATB 210100 METAR WATB 210100Z 11005KT 9999 SCT016 26/22 Q1018 NOSIG=  
21-Jul-2023 SAID32 WATB 210200 METAR WATB 210200Z 12011KT 9999 SCT017 27/21 Q1018 NOSIG=  
21-Jul-2023 SAID32 WATB 210300 METAR WATB 210300Z 13010KT 100V160 9999 SCT017 28/20 Q1017 NOSIG=  
21-Jul-2023 SAID32 WATB 210400 METAR WATB 210400Z 17013KT 120V200 9999 FEW017 28/19 Q1017 NOSIG=  
21-Jul-2023 SAID32 WATB 210500 METAR WATB 210500Z 13015KT 100V170 9999 FEW017 29/18 Q1016 NOSIG=  
22-Jul-2023 SAID32 WATB 220000 METAR WATB 220000Z 33003KT 9999 BKN016 24/20 Q1019 NOSIG=  
22-Jul-2023 SAID32 WATB 220100 METAR WATB 220100Z 17010KT 9999 BKN016 24/20 Q1020 NOSIG=  
22-Jul-2023 SAID32 WATB 220200 METAR WATB 220200Z 17012KT 140V200 9999 BKN016 26/20 Q1019 NOSIG=  
22-Jul-2023 SAID32 WATB 220300 METAR WATB 220300Z 19010KT 150V210 9999 BKN016 27/20 Q1019 NOSIG=  
22-Jul-2023 SAID32 WATB 220400 METAR WATB 220400Z 15010KT 100V180 9999 SCT017 27/18 Q1018 NOSIG=  
22-Jul-2023 SAID32 WATB 220500 METAR WATB 220500Z 17014KT 9999 BKN017 27/18 Q1017 NOSIG=  
23-Jul-2023 SAID32 WATB 230000 METAR WATB 230000Z 06002KT 9999 BKN015 21/21 Q1020 NOSIG=  
23-Jul-2023 SAID32 WATB 230100 METAR WATB 230100Z 32005KT 9999 BKN015 22/21 Q1020 NOSIG=  
23-Jul-2023 SAID32 WATB 230200 METAR WATB 230200Z 17005KT 9999 BKN016 26/21 Q1019 NOSIG=  
23-Jul-2023 SAID32 WATB 230300 METAR WATB 230300Z 10005KT 9999 BKN016 27/20 Q1018 NOSIG=  
23-Jul-2023 SAID32 WATB 230400 METAR WATB 230400Z 16007KT 110V190 9999 BKN016 27/21 Q1017 NOSIG=  
23-Jul-2023 SAID32 WATB 230500 METAR WATB 230500Z 16006KT 9999 BKN016 27/20 Q1016 NOSIG=  
24-Jul-2023 SAID32 WATB 240000 METAR WATB 240000Z 36005KT 9999 FEW016 24/22 Q1018 NOSIG=  
24-Jul-2023 SAID32 WATB 240100 METAR WATB 240100Z 31005KT 9999 FEW016 26/21 Q1018 NOSIG=  
24-Jul-2023 SAID32 WATB 240200 METAR WATB 240200Z 09005KT 9999 SCT016 26/21 Q1018 NOSIG=  
24-Jul-2023 SAID32 WATB 240300 METAR WATB 240300Z 16006KT 9999 BKN016 26/21 Q1017 NOSIG=  
24-Jul-2023 SAID32 WATB 240400 METAR WATB 240400Z 14007KT 9999 BKN016 27/20 Q1016 NOSIG=  
24-Jul-2023 SAID32 WATB 240500 METAR WATB 240500Z 15007KT 100V200 9999 BKN016 28/20 Q1015 NOSIG=  
25-Jul-2023 SAID32 WATB 250000 METAR WATB 250000Z 21005KT 9999 BKN015 23/21 Q1019 NOSIG=  
25-Jul-2023 SAID32 WATB 250100 METAR WATB 250100Z 12005KT 8000 HZ BKN015 24/21 Q1019 NOSIG=  
25-Jul-2023 SAID32 WATB 250200 METAR WATB 250200Z 11005KT 9999 BKN015 24/21 Q1019 NOSIG=  
25-Jul-2023 SAID32 WATB 250300 METAR WATB 250300Z 17006KT 110V210 9999 BKN015 25/21 Q1018 NOSIG=  
25-Jul-2023 SAID32 WATB 250400 METAR WATB 250400Z 15008KT 110V180 9999 BKN015 26/20 Q1017 NOSIG=  
25-Jul-2023 SAID32 WATB 250500 METAR WATB 250500Z 17010KT 9999 BKN016 27/20 Q1016 NOSIG=  
26-Jul-2023 SAID32 WATB 260000 METAR WATB 260000Z 34003KT 9999 FEW016 23/19 Q1019 NOSIG=  
26-Jul-2023 SAID32 WATB 260100 METAR WATB 260100Z 04005KT 9999 SCT016 26/20 Q1018 NOSIG=  
26-Jul-2023 SAID32 WATB 260200 METAR WATB 260200Z 09005KT 060V130 9999 SCT016 26/20 Q1018 NOSIG=  
26-Jul-2023 SAID32 WATB 260300 METAR WATB 260300Z 18010KT 150V210 9999 BKN016 26/19 Q1017 NOSIG=  
26-Jul-2023 SAID32 WATB 260500 METAR WATB 260500Z 16006KT 110V170 9999 BKN017 26/18 Q1015 NOSIG=  
27-Jul-2023 SAID32 WATB 270000 METAR WATB 270000Z 05003KT 9999 FEW016 24/19 Q1020 NOSIG=  
27-Jul-2023 SAID32 WATB 270100 METAR WATB 270100Z 18003KT 9999 FEW016 25/19 Q1020 NOSIG=  
27-Jul-2023 SAID32 WATB 270200 METAR WATB 270200Z 16010KT 130V230 9999 SCT016 26/18 Q1019 NOSIG=  
27-Jul-2023 SAID32 WATB 270300 METAR WATB 270300Z 14010KT 080V170 9999 SCT017 27/17 Q1019 NOSIG=  
27-Jul-2023 SAID32 WATB 270400 METAR WATB 270400Z 14006KT 120V180 9999 SCT017 28/17 Q1017 NOSIG=  
27-Jul-2023 SAID32 WATB 270500 METAR WATB 270500Z 12008KT 090V150 9999 BKN017 27/17 Q1017 NOSIG=  
28-Jul-2023 SAID32 WATB 280000 METAR WATB 280000Z 01003KT 9999 FEW016 23/19 Q1019 NOSIG=  
28-Jul-2023 SAID32 WATB 280100 METAR WATB 280100Z 09005KT 9999 FEW017 25/19 Q1019 NOSIG=  
28-Jul-2023 SAID32 WATB 280200 METAR WATB 280200Z 11007KT 9999 FEW017 27/19 Q1018 NOSIG=  
28-Jul-2023 SAID32 WATB 280300 METAR WATB 280300Z 12010KT 100V160 9999 SCT017 27/18 Q1017 NOSIG=  
28-Jul-2023 SAID32 WATB 280400 METAR WATB 280400Z 17014KT 9999 SCT017 27/18 Q1017 NOSIG=  
28-Jul-2023 SAID32 WATB 280500 METAR WATB 280500Z 14011KT 9999 SCT018 28/18 Q1016 NOSIG=  
29-Jul-2023 SAID32 WATB 290000 METAR WATB 290000Z 09003KT 9999 FEW016 22/19 Q1019 NOSIG=  
29-Jul-2023 SAID32 WATB 290100 METAR WATB 290100Z 03004KT 9999 FEW016 25/20 Q1019 NOSIG=  
29-Jul-2023 SAID32 WATB 290200 METAR WATB 290200Z 05003KT 9999 FEW017 27/20 Q1018 NOSIG=  
29-Jul-2023 SAID32 WATB 290300 METAR WATB 290300Z 06005KT 030V100 9999 SCT017 28/19 Q1017 NOSIG=  
29-Jul-2023 SAID32 WATB 290400 METAR WATB 290400Z 16007KT 120V180 9999 SCT017 28/19 Q1016 NOSIG=  
29-Jul-2023 SAID32 WATB 290500 METAR WATB 290500Z 11006KT 9999 BKN017 28/19 Q1016 NOSIG=  
30-Jul-2023 SAID32 WATB 300000 METAR WATB 300000Z 04003KT 9999 FEW016 23/20 Q1019 NOSIG=  
30-Jul-2023 SAID32 WATB 300100 METAR WATB 300100Z 01003KT 9999 FEW016 26/22 Q1019 NOSIG=  
30-Jul-2023 SAID32 WATB 300200 METAR WATB 300200Z 04005KT 9999 FEW017 28/21 Q1018 NOSIG=  
30-Jul-2023 SAID32 WATB 300300 METAR WATB 300300Z 03010KT 9999 SCT017 29/21 Q1018 NOSIG=  
30-Jul-2023 SAID32 WATB 300400 METAR WATB 300400Z 14007KT 110V180 9999 BKN017 30/21 Q1017 NOSIG=  
30-Jul-2023 SAID32 WATB 300500 METAR WATB 300500Z 16010KT 9999 BKN017 29/21 Q1016 NOSIG=  
31-Jul-2023 SAID32 WATB 310000 METAR WATB 310000Z 09003KT 9999 FEW016 23/20 Q1018 NOSIG=  
31-Jul-2023 SAID32 WATB 310100 METAR WATB 310100Z 33005KT 9999 FEW016 27/20 Q1018 NOSIG=  
31-Jul-2023 SAID32 WATB 310200 METAR WATB 310200Z 07005KT 9999 FEW018 29/18 Q1018 NOSIG=  
31-Jul-2023 SAID32 WATB 310300 METAR WATB 310300Z 12007KT 050V190 9999 FEW018 29/18 Q1017 NOSIG=  
31-Jul-2023 SAID32 WATB 310400 METAR WATB 310400Z 19003KT 9999 FEW019 30/18 Q1016 NOSIG=  
31-Jul-2023 SAID32 WATB 310500 METAR WATB 310500Z 07010KT 9999 FEW019 32/17 Q1015 NOSIG=  
01-Aug-2023 SAID32 WATB 010000 METAR WATB 010000Z 01003KT 9999 FEW016 23/19 Q1018 NOSIG=  
01-Aug-2023 SAID32 WATB 010100 METAR WATB 010100Z 13002KT 9999 FEW016 26/20 Q1018 NOSIG=  
01-Aug-2023 SAID32 WATB 010200 METAR WATB 010200Z 07005KT 030V100 9999 FEW018 28/16 Q1018 NOSIG=  
01-Aug-2023 SAID32 WATB 010300 METAR WATB 010300Z 13005KT 080V160 9999 FEW019 29/17 Q1017 NOSIG=  
01-Aug-2023 SAID32 WATB 010400 METAR WATB 010400Z 33003KT 9999 FEW019 31/17 Q1016 NOSIG=  
01-Aug-2023 SAID32 WATB 010500 METAR WATB 010500Z 03006KT 010V080 9999 FEW019 31/16 Q1016 NOSIG=  
02-Aug-2023 SAID32 WATB 020000 METAR WATB 020000Z 30002KT 9999 FEW017 23/19 Q1019 NOSIG=  
02-Aug-2023 SAID32 WATB 020100 METAR WATB 020100Z 09003KT 9999 FEW018 25/20 Q1019 NOSIG=  
02-Aug-2023 SAID32 WATB 020200 METAR WATB 020200Z 03003KT 9999 FEW018 28/17 Q1018 NOSIG=  
02-Aug-2023 SAID32 WATB 020300 METAR WATB 020300Z 10010KT 9999 FEW019 29/16 Q1018 NOSIG=  
02-Aug-2023 SAID32 WATB 020400 METAR WATB 020400Z 06006KT 9999 FEW019 30/17 Q1017 NOSIG=  
02-Aug-2023 SAID32 WATB 020500 METAR WATB 020500Z 07006KT 020V090 9999 FEW019 31/17 Q1016 NOSIG=  
03-Aug-2023 SAID32 WATB 030000 METAR WATB 030000Z 06003KT 9999 FEW016 23/20 Q1020 NOSIG=  
03-Aug-2023 SAID32 WATB 030300 METAR WATB 030300Z 24003KT 9999 FEW018 28/18 Q1019 NOSIG=  
03-Aug-2023 SAID32 WATB 030400 METAR WATB 030400Z 06007KT 360V090 9999 FEW018 29/18 Q1018 NOSIG=  
03-Aug-2023 SAID32 WATB 030500 METAR WATB 030500Z 07007KT 9999 FEW018 30/17 Q1017 NOSIG=  
04-Aug-2023 SAID32 WATB 040000 METAR WATB 040000Z 13002KT 9999 FEW016 25/21 Q1021 NOSIG=  
04-Aug-2023 SAID32 WATB 040100 METAR WATB 040100Z 09003KT 9999 FEW017 28/21 Q1021 NOSIG=  
04-Aug-2023 SAID32 WATB 040200 METAR WATB 040200Z 15010KT 080V200 9999 FEW018 28/20 Q1021 NOSIG=  
04-Aug-2023 SAID32 WATB 040300 METAR WATB 040300Z 21006KT 170V240 9999 FEW018 29/20 Q1020 NOSIG=  
04-Aug-2023 SAID32 WATB 040400 METAR WATB 040400Z 18007KT 9999 BKN018 29/20 Q1020 NOSIG=  
05-Aug-2023 SAID32 WATB 050000 METAR WATB 050000Z 04003KT 9999 FEW016 26/22 Q1021 NOSIG=  
05-Aug-2023 SAID32 WATB 050100 METAR WATB 050100Z 13005KT 9999 FEW016 27/21 Q1021 NOSIG=  
05-Aug-2023 SAID32 WATB 050200 METAR WATB 050200Z 20003KT 9999 SCT017 28/20 Q1020 NOSIG=  
05-Aug-2023 SAID32 WATB 050300 METAR WATB 050300Z 16005KT 9999 SCT017 28/20 Q1019 NOSIG=  
05-Aug-2023 SAID32 WATB 050400 METAR WATB 050400Z 13006KT 9999 SCT017 30/20 Q1019 NOSIG=  
05-Aug-2023 SAID32 WATB 050500 METAR WATB 050500Z 16005KT 130V190 9999 SCT018 30/20 Q1018 NOSIG=  
06-Aug-2023 SAID32 WATB 060000 METAR WATB 060000Z 01003KT 9999 FEW016 25/19 Q1020 NOSIG=  
06-Aug-2023 SAID32 WATB 060100 METAR WATB 060100Z 22005KT 9999 FEW016 27/19 Q1019 NOSIG=  
06-Aug-2023 SAID32 WATB 060200 METAR WATB 060200Z 11006KT 9999 FEW017 28/18 Q1019 NOSIG=  
06-Aug-2023 SAID32 WATB 060300 METAR WATB 060300Z 16010KT 9999 SCT017 28/17 Q1018 NOSIG=  
06-Aug-2023 SAID32 WATB 060400 METAR WATB 060400Z 13010KT 070V180 9999 SCT017 29/16 Q1017 NOSIG=  
07-Aug-2023 SAID32 WATB 070000 METAR WATB 070000Z 16003KT 9999 FEW016 BKN017 23/21 Q1019 NOSIG=  
07-Aug-2023 SAID32 WATB 070100 METAR WATB 070100Z 14005KT 9999 FEW016 BKN017 24/21 Q1019 NOSIG=  
07-Aug-2023 SAID32 WATB 070200 METAR WATB 070200Z 13006KT 060V170 9999 SCT017 27/20 Q1019 NOSIG=  
07-Aug-2023 SAID32 WATB 070300 METAR WATB 070300Z 17013KT 9999 SCT017 27/17 Q1018 NOSIG=  
07-Aug-2023 SAID32 WATB 070400 METAR WATB 070400Z 17006KT 130V200 9999 SCT018 29/16 Q1017 NOSIG=  
07-Aug-2023 SAID32 WATB 070500 METAR WATB 070500Z 08010KT 9999 SCT018 28/17 Q1016 NOSIG=  
08-Aug-2023 SAID32 WATB 080000 METAR WATB 080000Z 08010KT 9999 FEW017 25/19 Q1019 NOSIG=  
08-Aug-2023 SAID32 WATB 080100 METAR WATB 080100Z 08005KT 9999 FEW017 26/17 Q1019 NOSIG=  
08-Aug-2023 SAID32 WATB 080200 METAR WATB 080200Z 15006KT 9999 FEW018 27/16 Q1019 NOSIG=  
08-Aug-2023 SAID32 WATB 080300 METAR WATB 080300Z 05010KT 9999 SCT018 28/14 Q1018 NOSIG=  
08-Aug-2023 SAID32 WATB 080400 METAR WATB 080400Z 11012KT 9999 SCT018 29/15 Q1017 NOSIG=  
08-Aug-2023 SAID32 WATB 080500 METAR WATB 080500Z 11007KT 9999 SCT018 28/17 Q1016 NOSIG=  
09-Aug-2023 SAID32 WATB 090000 METAR WATB 090000Z 35003KT 9999 FEW017 24/18 Q1020 NOSIG=  
09-Aug-2023 SAID32 WATB 090100 METAR WATB 090100Z 01005KT 340V050 9999 FEW017 26/17 Q1020 NOSIG=  
09-Aug-2023 SAID32 WATB 090200 METAR WATB 090200Z 12008KT 100V190 9999 FEW017 28/15 Q1020 NOSIG=  
09-Aug-2023 SAID32 WATB 090300 METAR WATB 090300Z 07008KT 9999 FEW018 29/13 Q1019 NOSIG=  
09-Aug-2023 SAID32 WATB 090400 METAR WATB 090400Z 07008KT 9999 SCT018 29/14 Q1018 NOSIG=  
09-Aug-2023 SAID32 WATB 090500 METAR WATB 090500Z 12010KT 100V160 9999 SCT018 29/16 Q1017 NOSIG=  
09-Aug-2023 SAID32 WATB 090600 METAR WATB 090600Z 07008KT 9999 SCT018 30/16 Q1016 NOSIG=  
09-Aug-2023 SAID32 WATB 090700 METAR WATB 090700Z 16010KT 9999 SCT018 29/16 Q1016 NOSIG=  
10-Aug-2023 SAID32 WATB 100000 METAR WATB 100000Z 10005KT 9999 FEW017 22/18 Q1019 NOSIG=  
10-Aug-2023 SAID32 WATB 100100 METAR WATB 100100Z 05003KT 9999 FEW017 25/19 Q1019 NOSIG=  
10-Aug-2023 SAID32 WATB 100200 METAR WATB 100200Z 05007KT 220V070 9999 FEW018 28/15 Q1019 NOSIG=  
10-Aug-2023 SAID32 WATB 100300 METAR WATB 100300Z 05005KT 020V150 9999 FEW018 29/12 Q1018 NOSIG=  
10-Aug-2023 SAID32 WATB 100400 METAR WATB 100400Z 06007KT 020V100 9999 FEW018 30/12 Q1016 NOSIG=  
10-Aug-2023 SAID32 WATB 100500 METAR WATB 100500Z 06008KT 010V080 9999 SCT018 31/13 Q1015 NOSIG=  
11-Aug-2023 SAID32 WATB 110000 METAR WATB 110000Z 26003KT 9999 FEW016 21/19 Q1019 NOSIG=  
11-Aug-2023 SAID32 WATB 110100 METAR WATB 110100Z 35006KT 9999 FEW017 25/19 Q1019 NOSIG=  
11-Aug-2023 SAID32 WATB 110200 METAR WATB 110200Z 02007KT 320V080 9999 FEW017 27/18 Q1018 NOSIG=  
11-Aug-2023 SAID32 WATB 110300 METAR WATB 110300Z 09014KT 060V120 9999 SCT017 29/18 Q1017 NOSIG=  
11-Aug-2023 SAID32 WATB 110400 METAR WATB 110400Z 12006KT 080V140 9999 BKN017 29/19 Q1017 NOSIG=  
11-Aug-2023 SAID32 WATB 110500 METAR WATB 110500Z 10009KT 9999 BKN017 26/21 Q//// NOSIG=  
12-Aug-2023 SAID32 WATB 120000 METAR WATB 120000Z 04003KT 9999 FEW016 24/19 Q1018 NOSIG=  
12-Aug-2023 SAID32 WATB 120100 METAR WATB 120100Z 32003KT 9999 FEW017 27/19 Q1018 NOSIG=  
12-Aug-2023 SAID32 WATB 120200 METAR WATB 120200Z 10005KT 070V130 9999 FEW017 28/18 Q1018 NOSIG=  
13-Aug-2023 SAID32 WATB 130300 METAR WATB 130300Z 04008KT 9999 SCT018 27/17 Q1018 NOSIG=  
13-Aug-2023 SAID32 WATB 130400 METAR WATB 130400Z 36006KT 330V060 9999 SCT018 28/18 Q1017 NOSIG=  
13-Aug-2023 SAID32 WATB 130500 METAR WATB 130500Z 09006KT 040V110 9999 BKN018 29/18 Q1016 NOSIG=  
14-Aug-2023 SAID32 WATB 140000 METAR WATB 140000Z 31005KT 9999 FEW017 24/19 Q1018 NOSIG=  
14-Aug-2023 SAID32 WATB 140100 METAR WATB 140100Z 10003KT 9999 FEW017 26/20 Q1018 NOSIG=  
14-Aug-2023 SAID32 WATB 140200 METAR WATB 140200Z 13008KT 9999 FEW018 28/20 Q1018 NOSIG=  
14-Aug-2023 SAID32 WATB 140300 METAR WATB 140300Z 08008KT 040V100 9999 BKN017 29/20 Q1017 NOSIG=  
14-Aug-2023 SAID32 WATB 140400 METAR WATB 140400Z 09007KT 9999 BKN017 28/19 Q1016 NOSIG=  
14-Aug-2023 SAID32 WATB 140500 METAR WATB 140500Z 12006KT 9999 BKN016 28/18 Q1016 NOSIG=  
15-Aug-2023 SAID32 WATB 150000 METAR WATB 150000Z 04003KT 010V070 9999 FEW016 24/19 Q1019 NOSIG=  
15-Aug-2023 SAID32 WATB 150100 METAR WATB 150100Z 09005KT 9999 FEW017 26/20 Q1019 NOSIG=  
15-Aug-2023 SAID32 WATB 150200 METAR WATB 150200Z 20005KT 9999 SCT017 27/18 Q1019 NOSIG=  
15-Aug-2023 SAID32 WATB 150300 METAR WATB 150300Z 04007KT 9999 SCT017 28/17 Q1018 NOSIG=  
15-Aug-2023 SAID32 WATB 150400 METAR WATB 150400Z 18010KT 150V210 9999 SCT017 29/18 Q1017 NOSIG=  
15-Aug-2023 SAID32 WATB 150500 METAR WATB 150500Z 11007KT 9999 SCT017 30/19 Q1016 NOSIG=  
16-Aug-2023 SAID32 WATB 160000 METAR WATB 160000Z 34003KT 9999 BKN016 22/20 Q1019 NOSIG=  
16-Aug-2023 SAID32 WATB 160100 METAR WATB 160100Z 36003KT 9999 BKN016 25/20 Q1020 NOSIG=  
16-Aug-2023 SAID32 WATB 160200 METAR WATB 160200Z 19005KT 9999 BKN016 26/19 Q1019 NOSIG=  
16-Aug-2023 SAID32 WATB 160300 METAR WATB 160300Z 22005KT 9999 BKN016 28/19 Q1018 NOSIG=  
16-Aug-2023 SAID32 WATB 160400 METAR WATB 160400Z 09007KT 070V130 9999 BKN017 30/20 Q1017 NOSIG=  
16-Aug-2023 SAID32 WATB 160500 METAR WATB 160500Z 15006KT 090V180 9999 BKN016 29/19 Q1016 NOSIG=  
17-Aug-2023 SAID32 WATB 170000 METAR WATB 170000Z 16008KT 9999 SCT015 25/21 Q1018 NOSIG=  
17-Aug-2023 SAID32 WATB 170100 METAR WATB 170100Z 16010KT 9999 BKN015 24/20 Q1019 NOSIG=  
17-Aug-2023 SAID32 WATB 170200 METAR WATB 170200Z 19007KT 9999 BKN016 26/21 Q1018 NOSIG=  
17-Aug-2023 SAID32 WATB 170300 METAR WATB 170300Z 17007KT 110V220 9999 BKN016 27/20 Q1018 NOSIG=  
17-Aug-2023 SAID32 WATB 170400 METAR WATB 170400Z 17010KT 9999 BKN016 28/21 Q1017 NOSIG=  
17-Aug-2023 SAID32 WATB 170500 METAR WATB 170500Z 18007KT 140V230 9999 BKN016 28/20 Q1016 NOSIG=  
18-Aug-2023 SAID32 WATB 180000 METAR WATB 180000Z 13003KT 9999 BKN015 24/20 Q1018 NOSIG=  
18-Aug-2023 SAID32 WATB 180100 METAR WATB 180100Z 15008KT 120V180 9999 BKN016 25/19 Q1018 NOSIG=  
18-Aug-2023 SAID32 WATB 180200 METAR WATB 180200Z 13012KT 9999 BKN016 26/18 Q1018 NOSIG=  
18-Aug-2023 SAID32 WATB 180300 METAR WATB 180300Z 17012KT 9999 SCT016 28/17 Q1017 NOSIG=  
18-Aug-2023 SAID32 WATB 180400 METAR WATB 180400Z 15010KT 110V190 9999 SCT017 28/16 Q1016 NOSIG=  
18-Aug-2023 SAID32 WATB 180500 METAR WATB 180500Z 15012KT 9999 SCT017 29/14 Q1015 NOSIG=  
19-Aug-2023 SAID32 WATB 190000 METAR WATB 190000Z 14004KT 9999 FEW016 23/19 Q1019 NOSIG=  
19-Aug-2023 SAID32 WATB 190100 METAR WATB 190100Z 02007KT 9999 FEW017 25/18 Q1019 NOSIG=  
19-Aug-2023 SAID32 WATB 190200 METAR WATB 190200Z 03006KT 9999 FEW017 27/16 Q1019 NOSIG=  
19-Aug-2023 SAID32 WATB 190300 METAR WATB 190300Z 12003KT 9999 BKN017 28/17 Q1018 NOSIG=  
19-Aug-2023 SAID32 WATB 190400 METAR WATB 190400Z 08010KT 9999 BKN018 30/17 Q1017 NOSIG=  
19-Aug-2023 SAID32 WATB 190500 METAR WATB 190500Z 04007KT 9999 FEW018 31/14 Q1016 NOSIG=  
20-Aug-2023 SAID32 WATB 200000 METAR WATB 200000Z 08003KT 9999 FEW017 25/19 Q1019 NOSIG=  
20-Aug-2023 SAID32 WATB 200100 METAR WATB 200100Z 12005KT 9999 FEW017 28/19 Q1018 NOSIG=  
20-Aug-2023 SAID32 WATB 200200 METAR WATB 200200Z 07003KT 9999 FEW018 29/18 Q1018 NOSIG=  
20-Aug-2023 SAID32 WATB 200300 METAR WATB 200300Z 12005KT 9999 SCT018 28/18 Q1017 NOSIG=  
20-Aug-2023 SAID32 WATB 200400 METAR WATB 200400Z 16007KT 9999 BKN018 30/17 Q1017 NOSIG=  
20-Aug-2023 SAID32 WATB 200500 METAR WATB 200500Z 10007KT 9999 SCT018 30/16 Q1016 NOSIG=  
21-Aug-2023 SAID32 WATB 210000 METAR WATB 210000Z 14005KT 9999 FEW016 25/19 Q1018 NOSIG=  
21-Aug-2023 SAID32 WATB 210100 METAR WATB 210100Z 01007KT 270V050 9999 SCT016 27/18 Q1019 NOSIG=  
21-Aug-2023 SAID32 WATB 210200 METAR WATB 210200Z 15005KT 110V220 9999 BKN016 25/18 Q1018 NOSIG=  
21-Aug-2023 SAID32 WATB 210300 METAR WATB 210300Z 19005KT 110V240 9999 BKN017 27/16 Q1018 NOSIG=  
21-Aug-2023 SAID32 WATB 210400 METAR WATB 210400Z 20008KT 160V250 9999 SCT018 28/15 Q1017 NOSIG=  
21-Aug-2023 SAID32 WATB 210500 METAR WATB 210500Z 14006KT 100V190 9999 SCT018 28/15 Q1016 NOSIG=  
22-Aug-2023 SAID32 WATB 220000 METAR WATB 220000Z 06003KT 9999 FEW017 23/16 Q1018 NOSIG=  
22-Aug-2023 SAID32 WATB 220100 METAR WATB 220100Z 33003KT 9999 FEW017 25/15 Q1018 NOSIG=  
22-Aug-2023 SAID32 WATB 220200 METAR WATB 220200Z 02008KT 9999 FEW018 27/15 Q1018 NOSIG=  
22-Aug-2023 SAID32 WATB 220300 METAR WATB 220300Z 08007KT 9999 FEW018 29/14 Q1017 NOSIG=  
22-Aug-2023 SAID32 WATB 220400 METAR WATB 220400Z 12008KT 090V180 9999 FEW018 30/15 Q1016 NOSIG=  
22-Aug-2023 SAID32 WATB 220500 METAR WATB 220500Z 16006KT 100V190 9999 SCT018 29/17 Q1015 NOSIG=  
23-Aug-2023 SAID32 WATB 230000 METAR WATB 230000Z 01003KT 9999 FEW017 24/19 Q1018 NOSIG=  
23-Aug-2023 SAID32 WATB 230100 METAR WATB 230100Z 29003KT 9999 FEW017 26/19 Q1018 NOSIG=  
23-Aug-2023 SAID32 WATB 230200 METAR WATB 230200Z 05003KT 9999 FEW018 28/18 Q1018 NOSIG=  
23-Aug-2023 SAID32 WATB 230300 METAR WATB 230300Z 03007KT 9999 SCT018 28/18 Q1017 NOSIG=  
23-Aug-2023 SAID32 WATB 230400 METAR WATB 230400Z 10006KT 080V150 9999 BKN017 30/18 Q1016 NOSIG=  
23-Aug-2023 SAID32 WATB 230500 METAR WATB 230500Z 08006KT 9999 BKN017 30/20 Q1015 NOSIG=  
24-Aug-2023 SAID32 WATB 240000 METAR WATB 240000Z 06003KT 9999 FEW017 26/20 Q1018 NOSIG=  
24-Aug-2023 SAID32 WATB 240100 METAR WATB 240100Z 17007KT 9999 FEW017 27/20 Q1018 NOSIG=  
24-Aug-2023 SAID32 WATB 240200 METAR WATB 240200Z 12010KT 9999 FEW018 29/18 Q1018 NOSIG=  
24-Aug-2023 SAID32 WATB 240300 METAR WATB 240300Z 13008KT 360V220 9999 SCT018 30/17 Q1017 NOSIG=  
24-Aug-2023 SAID32 WATB 240400 METAR WATB 240400Z 11008KT 090V150 9999 BKN018 30/18 Q1016 NOSIG=  
24-Aug-2023 SAID32 WATB 240500 METAR WATB 240500Z 13010KT 9999 BKN018 30/17 Q1015 NOSIG=  
25-Aug-2023 SAID32 WATB 250000 METAR WATB 250000Z 16004KT 9999 FEW017 26/19 Q1018 NOSIG=  
25-Aug-2023 SAID32 WATB 250100 METAR WATB 250100Z 11006KT 9999 FEW017 28/16 Q1018 NOSIG=  
25-Aug-2023 SAID32 WATB 250200 METAR WATB 250200Z 15010KT 9999 FEW018 29/15 Q1017 NOSIG=  
25-Aug-2023 SAID32 WATB 250300 METAR WATB 250300Z 15007KT 110V250 9999 FEW018 30/13 Q1016 NOSIG=  
25-Aug-2023 SAID32 WATB 250400 METAR WATB 250400Z 17010KT 100V230 9999 FEW018 30/14 Q1015 NOSIG=  
25-Aug-2023 SAID32 WATB 250500 METAR WATB 250500Z 16015KT 130V200 9999 FEW018 30/14 Q1014 NOSIG=  
26-Aug-2023 SAID32 WATB 260000 METAR WATB 260000Z 11003KT 9999 FEW016 25/19 Q1018 NOSIG=  
26-Aug-2023 SAID32 WATB 260100 METAR WATB 260100Z 05005KT 9999 FEW017 28/17 Q1018 NOSIG=  
26-Aug-2023 SAID32 WATB 260200 METAR WATB 260200Z 18006KT 140V220 9999 FEW017 28/17 Q1017 NOSIG=  
26-Aug-2023 SAID32 WATB 260300 METAR WATB 260300Z 11011KT 9999 FEW017 30/12 Q1016 NOSIG=  
26-Aug-2023 SAID32 WATB 260400 METAR COR WATB 260400Z 11010KT 9999 SCT018 30/13 Q1015 NOSIG=  
26-Aug-2023 SAID32 WATB 260500 METAR WATB 260500Z 11010KT 9999 SCT018 31/16 Q1014 NOSIG=  
27-Aug-2023 SAID32 WATB 270000 METAR WATB 270000Z 14002KT 9999 FEW016 25/19 Q1018 NOSIG=  
27-Aug-2023 SAID32 WATB 270100 METAR WATB 270100Z 13005KT 9999 FEW017 27/18 Q1018 NOSIG=  
27-Aug-2023 SAID32 WATB 270200 METAR WATB 270200Z 09010KT 9999 SCT017 28/17 Q1017 NOSIG=  
27-Aug-2023 SAID32 WATB 270300 METAR WATB 270300Z 15007KT 9999 SCT017 29/17 Q1016 NOSIG=  
27-Aug-2023 SAID32 WATB 270400 METAR WATB 270400Z 17005KT 9999 BKN018 29/17 Q1015 NOSIG=  
27-Aug-2023 SAID32 WATB 270500 METAR WATB 270500Z 14006KT 070V240 9999 SCT018 30/17 Q1014 NOSIG=  
28-Aug-2023 SAID32 WATB 280000 METAR WATB 280000Z 04004KT 9999 FEW017 23/19 Q1017 NOSIG=  
28-Aug-2023 SAID32 WATB 280100 METAR WATB 280100Z 19003KT 9999 FEW017 26/17 Q1017 NOSIG=  
28-Aug-2023 SAID32 WATB 280200 METAR WATB 280200Z 14008KT 9999 FEW017 27/16 Q1017 NOSIG=  
28-Aug-2023 SAID32 WATB 280300 METAR WATB 280300Z 17010KT 9999 FEW018 29/16 Q1016 NOSIG=  
28-Aug-2023 SAID32 WATB 280400 METAR WATB 280400Z 18010KT 9999 FEW018 30/15 Q1015 NOSIG=  
28-Aug-2023 SAID32 WATB 280500 METAR WATB 280500Z 15005KT 9999 FEW018 30/14 Q1014 NOSIG=  
29-Aug-2023 SAID32 WATB 290000 METAR WATB 290000Z 36003KT 9999 FEW017 25/18 Q1017 NOSIG=  
29-Aug-2023 SAID32 WATB 290100 METAR WATB 290100Z 07005KT 010V100 9999 FEW017 27/18 Q1017 NOSIG=  
29-Aug-2023 SAID32 WATB 290200 METAR WATB 290200Z 01008KT 9999 FEW018 29/17 Q1017 NOSIG=  
29-Aug-2023 SAID32 WATB 290300 METAR WATB 290300Z 13006KT 100V170 9999 FEW018 29/17 Q1016 NOSIG=  
29-Aug-2023 SAID32 WATB 290400 METAR WATB 290400Z 24005KT 9999 FEW018 30/17 Q1015 NOSIG=  
29-Aug-2023 SAID32 WATB 290500 METAR WATB 290500Z 13010KT 050V170 9999 FEW018 31/15 Q1014 NOSIG=  
30-Aug-2023 SAID32 WATB 300000 METAR WATB 300000Z 01003KT 9999 FEW017 25/20 Q1018 NOSIG=  
30-Aug-2023 SAID32 WATB 300100 METAR WATB 300100Z 05003KT 9999 FEW018 27/18 Q1018 NOSIG=  
30-Aug-2023 SAID32 WATB 300200 METAR WATB 300200Z 10010KT 050V120 9999 FEW018 29/16 Q1018 NOSIG=  
30-Aug-2023 SAID32 WATB 300300 METAR WATB 300300Z 09014KT 9999 FEW018 30/13 Q1017 NOSIG=  
30-Aug-2023 SAID32 WATB 300400 METAR WATB 300400Z 12006KT 9999 FEW018 31/17 Q1016 NOSIG=  
30-Aug-2023 SAID32 WATB 300500 METAR WATB 300500Z 16010KT 110V200 9999 FEW018 31/17 Q1014 NOSIG=  
31-Aug-2023 SAID32 WATB 310000 METAR WATB 310000Z 07003KT 9999 FEW017 23/19 Q1018 NOSIG=  
31-Aug-2023 SAID32 WATB 310100 METAR WATB 310100Z 04005KT 9999 FEW017 26/16 Q1019 NOSIG=  
31-Aug-2023 SAID32 WATB 310200 METAR WATB 310200Z 01005KT 9999 FEW017 28/15 Q1019 NOSIG=  
31-Aug-2023 SAID32 WATB 310300 METAR WATB 310300Z 04007KT 020V080 9999 FEW018 29/15 Q1018 NOSIG=  
31-Aug-2023 SAID32 WATB 310400 METAR WATB 310400Z 05010KT 020V090 9999 FEW018 31/13 Q1017 NOSIG=  
31-Aug-2023 SAID32 WATB 310500 METAR WATB 310500Z 13010KT 090V180 9999 FEW018 30/16 Q1016 NOSIG=  
01-Sep-2023 SAID32 WATB 010000 METAR WATB 010000Z 03003KT 9999 FEW017 24/17 Q1019 NOSIG=  
01-Sep-2023 SAID32 WATB 010100 METAR WATB 010100Z 11005KT 060V120 9999 FEW017 26/16 Q1019 NOSIG=  
01-Sep-2023 SAID32 WATB 010200 METAR WATB 010200Z 03010KT 9999 FEW018 28/12 Q1019 NOSIG=  
01-Sep-2023 SAID32 WATB 010300 METAR WATB 010300Z 05006KT 9999 FEW018 29/14 Q1017 NOSIG=  
01-Sep-2023 SAID32 WATB 010500 METAR WATB 010500Z 31012KT 9999 FEW018 31/13 Q1015 NOSIG=  
02-Sep-2023 SAID32 WATB 020000 METAR WATB 020000Z 06003KT 9999 FEW018 23/15 Q1017 NOSIG=  
02-Sep-2023 SAID32 WATB 020100 METAR WATB 020100Z 05003KT 9999 FEW018 26/14 Q1018 NOSIG=  
02-Sep-2023 SAID32 WATB 020200 METAR WATB 020200Z 04010KT 9999 FEW018 28/10 Q1017 NOSIG=  
02-Sep-2023 SAID32 WATB 020300 METAR WATB 020300Z 29005KT 240V350 9999 FEW018 29/08 Q1017 NOSIG=  
02-Sep-2023 SAID32 WATB 020400 METAR WATB 020400Z 03003KT 9999 FEW018 30/11 Q1015 NOSIG=  
02-Sep-2023 SAID32 WATB 020500 METAR WATB 020500Z 26003KT 9999 FEW018 31/11 Q1014 NOSIG=  
03-Sep-2023 SAID32 WATB 030000 METAR WATB 030000Z 05003KT 9999 FEW018 24/15 Q1018 NOSIG=  
03-Sep-2023 SAID32 WATB 030100 METAR WATB 030100Z 03005KT 9999 FEW018 26/17 Q1018 NOSIG=  
03-Sep-2023 SAID32 WATB 030200 METAR WATB 030200Z 05005KT 9999 FEW018 28/17 Q1017 NOSIG=  
03-Sep-2023 SAID32 WATB 030300 METAR WATB 030300Z 11005KT 020V150 9999 FEW018 29/14 Q1016 NOSIG=  
03-Sep-2023 SAID32 WATB 030400 METAR WATB 030400Z 34010KT 9999 FEW018 30/14 Q1015 NOSIG=  
03-Sep-2023 SAID32 WATB 030500 METAR WATB 030500Z 13010KT 090V160 9999 FEW018 30/16 Q1014 NOSIG=  
04-Sep-2023 SAID32 WATB 040000 METAR WATB 040000Z 04003KT 9999 FEW018 24/17 Q1017 NOSIG=  
04-Sep-2023 SAID32 WATB 040100 METAR WATB 040100Z 06005KT 030V090 9999 FEW018 26/18 Q1017 NOSIG=  
04-Sep-2023 SAID32 WATB 040200 METAR WATB 040200Z 09006KT 050V140 9999 FEW018 27/16 Q1017 NOSIG=  
04-Sep-2023 SAID32 WATB 040300 METAR WATB 040300Z 17006KT 080V210 9999 FEW018 29/17 Q1016 NOSIG=  
04-Sep-2023 SAID32 WATB 040400 METAR WATB 040400Z 14006KT 9999 BKN017 28/18 Q1015 NOSIG=  
04-Sep-2023 SAID32 WATB 040500 METAR WATB 040500Z 07005KT 9999 BKN018 29/18 Q1014 NOSIG=  
05-Sep-2023 SAID32 WATB 050000 METAR WATB 050000Z 34005KT 320V030 9999 FEW017 24/16 Q1017 NOSIG=  
05-Sep-2023 SAID32 WATB 050100 METAR WATB 050100Z 09005KT 9999 FEW017 26/17 Q1018 NOSIG=  
05-Sep-2023 SAID32 WATB 050200 METAR WATB 050200Z 05008KT 9999 FEW017 27/18 Q1017 NOSIG=  
05-Sep-2023 SAID32 WATB 050300 METAR WATB 050300Z 19006KT 120V210 9999 FEW018 29/17 Q1016 NOSIG=  
05-Sep-2023 SAID32 WATB 050400 METAR WATB 050400Z 03007KT 9999 SCT018 29/17 Q1015 NOSIG=  
05-Sep-2023 SAID32 WATB 050500 METAR WATB 050500Z 09003KT 9999 BKN018 29/17 Q1015 NOSIG=  
05-Sep-2023 SAID32 WATB 050600 METAR WATB 050600Z 14007KT 110V180 9999 BKN018 31/19 Q1014 NOSIG=  
06-Sep-2023 SAID32 WATB 060000 METAR WATB 060000Z 28005KT 9999 FEW017 26/20 Q1018 NOSIG=  
06-Sep-2023 SAID32 WATB 060100 METAR WATB 060100Z 11008KT 9999 BKN017 27/21 Q1019 NOSIG=  
06-Sep-2023 SAID32 WATB 060200 METAR WATB 060200Z 14010KT 080V160 9999 BKN017 26/21 Q1019 NOSIG=  
06-Sep-2023 SAID32 WATB 060300 METAR WATB 060300Z 13011KT 9999 BKN017 28/21 Q1018 NOSIG=  
06-Sep-2023 SAID32 WATB 060400 METAR WATB 060400Z 16010KT 130V200 9999 BKN017 27/20 Q1017 NOSIG=  
06-Sep-2023 SAID32 WATB 060500 METAR WATB 060500Z 14014KT 110V170 9999 BKN017 27/20 Q1016 NOSIG=  
07-Sep-2023 SAID32 WATB 070000 METAR WATB 070000Z 10006KT 080V140 9999 BKN017 24/19 Q1018 NOSIG=  
07-Sep-2023 SAID32 WATB 070100 METAR WATB 070100Z 15009KT 110V180 9999 SCT017 27/19 Q1018 NOSIG=  
07-Sep-2023 SAID32 WATB 070200 METAR WATB 070200Z 15010KT 100V220 9999 FEW017 27/17 Q1018 NOSIG=  
07-Sep-2023 SAID32 WATB 070300 METAR WATB 070300Z 14012KT 9999 FEW017 28/16 Q1017 NOSIG=  
07-Sep-2023 SAID32 WATB 070400 METAR WATB 070400Z 13007KT 060V180 9999 FEW018 28/14 Q1017 NOSIG=  
07-Sep-2023 SAID32 WATB 070500 METAR WATB 070500Z 17008KT 140V200 9999 FEW018 30/08 Q1016 NOSIG=  
08-Sep-2023 SAID32 WATB 080000 METAR WATB 080000Z 01005KT 9999 FEW017 25/17 Q1018 NOSIG=  
08-Sep-2023 SAID32 WATB 080100 METAR WATB 080100Z 10006KT 9999 FEW017 26/18 Q1018 NOSIG=  
08-Sep-2023 SAID32 WATB 080200 METAR WATB 080200Z 09006KT 9999 FEW018 28/17 Q1018 NOSIG=  
08-Sep-2023 SAID32 WATB 080300 METAR WATB 080300Z 09006KT 030V140 9999 FEW018 28/16 Q1017 NOSIG=  
08-Sep-2023 SAID32 WATB 080400 METAR WATB 080400Z 11007KT 090V160 9999 FEW018 30/15 Q1016 NOSIG=  
08-Sep-2023 SAID32 WATB 080500 METAR WATB 080500Z 11008KT 9999 FEW018 30/17 Q1015 NOSIG=  
09-Sep-2023 SAID32 WATB 090000 METAR WATB 090000Z 36005KT 9999 FEW018 24/18 Q1018 NOSIG=  
09-Sep-2023 SAID32 WATB 090100 METAR WATB 090100Z 36005KT 330V040 9999 FEW018 28/18 Q1017 NOSIG=  
09-Sep-2023 SAID32 WATB 090300 METAR WATB 090300Z 16005KT 9999 BKN018 28/17 Q1017 NOSIG=  
09-Sep-2023 SAID32 WATB 090400 METAR WATB 090400Z 06010KT 030V120 9999 BKN018 31/18 Q1015 NOSIG=  
09-Sep-2023 SAID32 WATB 090500 METAR WATB 090500Z 06011KT 9999 BKN018 31/17 Q1015 NOSIG=  
10-Sep-2023 SAID32 WATB 100000 METAR WATB 100000Z 17003KT 9999 FEW017 25/20 Q1019 NOSIG=  
10-Sep-2023 SAID32 WATB 100100 METAR WATB 100100Z 29005KT 270V340 9999 FEW018 28/20 Q1018 NOSIG=  
10-Sep-2023 SAID32 WATB 100200 METAR WATB 100200Z 04003KT 9999 FEW018 30/19 Q1018 NOSIG=  
10-Sep-2023 SAID32 WATB 100300 METAR WATB 100300Z 14005KT 070V190 9999 SCT018 31/19 Q1017 NOSIG=  
10-Sep-2023 SAID32 WATB 100400 METAR WATB 100400Z 03010KT 9999 SCT018 32/19 Q1016 NOSIG=  
10-Sep-2023 SAID32 WATB 100500 METAR WATB 100500Z 13010KT 110V240 9999 BKN018 32/19 Q1015 NOSIG=  
11-Sep-2023 SAID32 WATB 110000 METAR WATB 110000Z 08005KT 030V100 9999 FEW017 27/21 Q1018 NOSIG=  
11-Sep-2023 SAID32 WATB 110100 METAR WATB 110100Z 08005KT 040V140 9999 FEW018 27/19 Q1018 NOSIG=  
11-Sep-2023 SAID32 WATB 110200 METAR WATB 110200Z 13005KT 9999 FEW018 30/20 Q1017 NOSIG=  
11-Sep-2023 SAID32 WATB 110300 METAR WATB 110300Z 08008KT 9999 FEW018 31/19 Q1017 NOSIG=  
11-Sep-2023 SAID32 WATB 110400 METAR WATB 110400Z 09017KT 9999 SCT018 33/18 Q1016 NOSIG=  
11-Sep-2023 SAID32 WATB 110500 METAR WATB 110500Z 11014KT 9999 SCT018 32/17 Q1015 NOSIG=  
11-Sep-2023 SAID32 WATB 110600 METAR WATB 110600Z 11010KT 070V130 9999 BKN018 33/17 Q1014 NOSIG=  
11-Sep-2023 SAID32 WATB 110700 METAR WATB 110700Z 10007KT 060V150 9999 BKN018 30/20 Q1014 NOSIG=  
12-Sep-2023 SAID32 WATB 120000 METAR WATB 120000Z 09003KT 9999 FEW017 26/20 Q1018 NOSIG=  
12-Sep-2023 SAID32 WATB 120100 METAR WATB 120100Z 04004KT 9999 FEW017 29/18 Q1018 NOSIG=  
12-Sep-2023 SAID32 WATB 120200 METAR WATB 120200Z 01005KT 9999 FEW018 31/17 Q1018 NOSIG=  
12-Sep-2023 SAID32 WATB 120300 METAR WATB 120300Z 13013KT 100V160 9999 FEW018 32/13 Q1017 NOSIG=  
12-Sep-2023 SAID32 WATB 120400 METAR WATB 120400Z 11015KT 9999 FEW018 32/12 Q1016 NOSIG=  
12-Sep-2023 SAID32 WATB 120500 METAR WATB 120500Z 07013KT 9999 SCT018 33/12 Q1015 NOSIG=  
12-Sep-2023 SAID32 WATB 120600 METAR WATB 120600Z 09014KT 9999 SCT018 32/13 Q1015 NOSIG=  
12-Sep-2023 SAID32 WATB 120700 METAR WATB 120700Z 09011KT 9999 SCT018 33/13 Q1014 NOSIG=  
12-Sep-2023 SAID32 WATB 120800 METAR WATB 120800Z 13008KT 9999 BKN017 29/18 Q1015 NOSIG=  
13-Sep-2023 SAID32 WATB 130000 METAR WATB 130000Z 12003KT 9999 FEW017 26/19 Q1019 NOSIG=  
13-Sep-2023 SAID32 WATB 130100 METAR WATB 130100Z 05003KT 9999 FEW017 28/18 Q1019 NOSIG=  
13-Sep-2023 SAID32 WATB 130200 METAR WATB 130200Z 15005KT 110V190 9999 FEW018 29/16 Q1019 NOSIG=  
13-Sep-2023 SAID32 WATB 130300 METAR WATB 130300Z 07003KT 9999 FEW018 31/14 Q1017 NOSIG=  
13-Sep-2023 SAID32 WATB 130400 METAR WATB 130400Z 15010KT 9999 FEW018 31/15 Q1017 NOSIG=  
13-Sep-2023 SAID32 WATB 130500 METAR WATB 130500Z 18010KT 140V240 9999 SCT018 31/18 Q1016 NOSIG=  
13-Sep-2023 SAID32 WATB 130600 METAR WATB 130600Z 14006KT 100V160 9999 BKN017 30/17 Q1015 NOSIG=  
14-Sep-2023 SAID32 WATB 140000 METAR WATB 140000Z 05003KT 9999 FEW017 26/18 Q1019 NOSIG=  
14-Sep-2023 SAID32 WATB 140100 METAR WATB 140100Z 04005KT 350V120 9999 FEW018 28/17 Q1019 NOSIG=  
14-Sep-2023 SAID32 WATB 140200 METAR WATB 140200Z 04010KT 9999 FEW018 29/17 Q1019 NOSIG=  
14-Sep-2023 SAID32 WATB 140300 METAR WATB 140300Z 08010KT 9999 FEW018 31/17 Q1018 NOSIG=  
14-Sep-2023 SAID32 WATB 140400 METAR WATB 140400Z 07010KT 030V100 9999 BKN018 33/18 Q1017 NOSIG=  
14-Sep-2023 SAID32 WATB 140500 METAR WATB 140500Z 08010KT 9999 BKN017 29/17 Q1016 NOSIG=  
15-Sep-2023 SAID32 WATB 150000 METAR WATB 150000Z 04005KT 9999 FEW017 26/17 Q1019 NOSIG=  
15-Sep-2023 SAID32 WATB 150100 METAR WATB 150100Z 07007KT 9999 FEW017 28/17 Q1018 NOSIG=  
15-Sep-2023 SAID32 WATB 150200 METAR WATB 150200Z 09010KT 9999 FEW017 30/16 Q1018 NOSIG=  
15-Sep-2023 SAID32 WATB 150300 METAR WATB 150300Z 14011KT 110V180 9999 SCT018 31/14 Q1017 NOSIG=  
15-Sep-2023 SAID32 WATB 150400 METAR WATB 150400Z 18012KT 9999 FEW018 31/13 Q1016 NOSIG=  
15-Sep-2023 SAID32 WATB 150500 METAR WATB 150500Z 16011KT 100V220 9999 FEW018 30/15 Q1016 NOSIG=  
16-Sep-2023 SAID32 WATB 160000 METAR WATB 160000Z 04003KT 9999 FEW017 24/19 Q1018 NOSIG=  
16-Sep-2023 SAID32 WATB 160100 METAR WATB 160100Z 13003KT 9999 FEW017 27/17 Q1018 NOSIG=  
16-Sep-2023 SAID32 WATB 160200 METAR WATB 160200Z 36006KT 310V030 9999 FEW017 28/17 Q1018 NOSIG=  
16-Sep-2023 SAID32 WATB 160300 METAR WATB 160300Z 11005KT 090V160 9999 SCT018 31/17 Q1017 NOSIG=  
16-Sep-2023 SAID32 WATB 160400 METAR WATB 160400Z 06008KT 9999 BKN018 31/18 Q1016 NOSIG=  
16-Sep-2023 SAID32 WATB 160500 METAR WATB 160500Z 07013KT 9999 BKN018 32/17 Q1015 NOSIG=  
17-Sep-2023 SAID32 WATB 170000 METAR WATB 170000Z 07003KT 9999 SCT017 25/22 Q1018 NOSIG=  
17-Sep-2023 SAID32 WATB 170100 METAR WATB 170100Z 07005KT 9999 SCT017 28/18 Q1018 NOSIG=  
17-Sep-2023 SAID32 WATB 170200 METAR WATB 170200Z 08007KT 9999 SCT018 29/18 Q1017 NOSIG=  
17-Sep-2023 SAID32 WATB 170300 METAR WATB 170300Z 07008KT 050V130 9999 SCT018 29/17 Q1016 NOSIG=  
17-Sep-2023 SAID32 WATB 170400 METAR WATB 170400Z 21006KT 180V240 9999 SCT018 30/16 Q1015 NOSIG=  
17-Sep-2023 SAID32 WATB 170500 METAR WATB 170500Z 11007KT 9999 BKN018 30/16 Q1014 NOSIG=  
18-Sep-2023 SAID32 WATB 180000 METAR WATB 180000Z 06003KT 8000 BKN014 22/22 Q1017 NOSIG=  
18-Sep-2023 SAID32 WATB 180100 METAR WATB 180100Z 30005KT 8000 BKN014 24/22 Q1017 NOSIG=  
18-Sep-2023 SAID32 WATB 180200 METAR WATB 180200Z 26003KT 8000 BKN015 26/22 Q1017 NOSIG=  
18-Sep-2023 SAID32 WATB 180300 METAR WATB 180300Z 12007KT 9999 BKN016 28/21 Q1016 NOSIG=  
18-Sep-2023 SAID32 WATB 180400 METAR WATB 180400Z 15007KT 110V190 9999 BKN016 29/20 Q1015 NOSIG=  
18-Sep-2023 SAID32 WATB 180500 METAR WATB 180500Z 14011KT 100V160 9999 BKN016 29/19 Q1014 NOSIG=  
19-Sep-2023 SAID32 WATB 190000 METAR WATB 190000Z 10005KT 9999 SCT016 24/17 Q1017 NOSIG=  
19-Sep-2023 SAID32 WATB 190100 METAR WATB 190100Z 10006KT 060V130 9999 FEW017 27/19 Q1017 NOSIG=  
19-Sep-2023 SAID32 WATB 190200 METAR WATB 190200Z 08010KT 030V110 9999 BKN017 28/18 Q1016 NOSIG=  
19-Sep-2023 SAID32 WATB 190300 METAR WATB 190300Z 13007KT 9999 BKN017 28/18 Q1016 NOSIG=  
19-Sep-2023 SAID32 WATB 190400 METAR WATB 190400Z 13005KT 360V160 9999 BKN017 28/19 Q1015 NOSIG=  
19-Sep-2023 SAID32 WATB 190500 METAR WATB 190500Z 16012KT 9999 BKN018 30/18 Q1014 NOSIG=  
20-Sep-2023 SAID32 WATB 200000 METAR WATB 200000Z 32003KT 9999 FEW017 25/16 Q1018 NOSIG=  
20-Sep-2023 SAID32 WATB 200100 METAR WATB 200100Z 08003KT 9999 FEW017 26/18 Q1018 NOSIG=  
20-Sep-2023 SAID32 WATB 200200 METAR WATB 200200Z 12006KT 080V150 9999 SCT018 28/17 Q1017 NOSIG=  
20-Sep-2023 SAID32 WATB 200300 METAR WATB 200300Z 14007KT 9999 SCT018 28/17 Q1016 NOSIG=  
20-Sep-2023 SAID32 WATB 200400 METAR WATB 200400Z 17012KT 9999 SCT018 30/12 Q1015 NOSIG=  
20-Sep-2023 SAID32 WATB 200500 METAR WATB 200500Z 17006KT 140V250 9999 SCT018 30/13 Q1014 NOSIG=  
21-Sep-2023 SAID32 WATB 210000 METAR WATB 210000Z 06005KT 030V090 9999 FEW018 25/16 Q1018 NOSIG=  
21-Sep-2023 SAID32 WATB 210100 METAR WATB 210100Z 07005KT 9999 FEW018 28/16 Q1018 NOSIG=  
21-Sep-2023 SAID32 WATB 210200 METAR WATB 210200Z 090010KT 9999 FEW018 30/12 Q1017 NOSIG=  
21-Sep-2023 SAID32 WATB 210300 METAR WATB 210300Z 12010KT 090V150 9999 FEW018 31/08 Q1016 NOSIG=  
21-Sep-2023 SAID32 WATB 210400 METAR WATB 210400Z 14010KT 110V170 9999 FEW018 31/08 Q1015 NOSIG=  
21-Sep-2023 SAID32 WATB 210500 METAR WATB 210500Z 16010KT 140V210 9999 FEW018 30/16 Q1014 NOSIG=  
22-Sep-2023 SAID32 WATB 220000 METAR WATB 220000Z 03005KT 9999 FEW018 26/18 Q1017 NOSIG=  
22-Sep-2023 SAID32 WATB 220100 METAR WATB 220100Z 04008KT 9999 FEW018 27/18 Q1017 NOSIG=  
22-Sep-2023 SAID32 WATB 220200 METAR WATB 220200Z 32005KT 290V350 9999 SCT018 29/18 Q1017 NOSIG=  
22-Sep-2023 SAID32 WATB 220300 METAR WATB 220300Z 06007KT 360V130 9999 SCT018 30/17 Q1016 NOSIG=  
22-Sep-2023 SAID32 WATB 220400 METAR WATB 220400Z 11006KT 070V150 9999 BKN018 29/17 Q1015 NOSIG=  
22-Sep-2023 SAID32 WATB 220500 METAR WATB 220500Z 14010KT 040V180 9999 BKN018 32/18 Q1014 NOSIG=  
23-Sep-2023 SAID32 WATB 230000 METAR WATB 230000Z 03003KT 9999 FEW018 25/19 Q1018 NOSIG=  
23-Sep-2023 SAID32 WATB 230100 METAR WATB 230100Z 31003KT 9999 FEW018 28/19 Q1018 NOSIG=  
23-Sep-2023 SAID32 WATB 230200 METAR WATB 230200Z 01003KT 9999 FEW018 29/17 Q1017 NOSIG=  
23-Sep-2023 SAID32 WATB 230300 METAR WATB 230300Z 07010KT 020V100 9999 FEW018 31/16 Q1016 NOSIG=  
23-Sep-2023 SAID32 WATB 230400 METAR WATB 230400Z 07010KT 040V100 9999 FEW018 32/16 Q1014 NOSIG=  
23-Sep-2023 SAID32 WATB 230500 METAR WATB 230500Z 09010KT 9999 SCT018 33/17 Q1014 NOSIG=  
24-Sep-2023 SAID32 WATB 240000 METAR WATB 240000Z 03003KT 9999 FEW018 26/20 Q1017 NOSIG=  
24-Sep-2023 SAID32 WATB 240100 METAR WATB 240100Z 15005KT 9999 FEW018 29/17 Q1017 NOSIG=  
24-Sep-2023 SAID32 WATB 240200 METAR WATB 240200Z 05005KT 9999 FEW018 30/15 Q1016 NOSIG=  
24-Sep-2023 SAID32 WATB 240400 METAR WATB 240400Z 16010KT 110V220 9999 FEW018 33/11 Q1014 NOSIG=  
24-Sep-2023 SAID32 WATB 240500 METAR WATB 240500Z 08013KT 9999 SCT018 34/13 Q1013 NOSIG=  
25-Sep-2023 SAID32 WATB 250000 METAR WATB 250000Z 03003KT 9999 FEW018 26/14 Q1017 NOSIG=  
25-Sep-2023 SAID32 WATB 250100 METAR WATB 250100Z 04003KT 9999 FEW018 29/13 Q1017 NOSIG=  
25-Sep-2023 SAID32 WATB 250200 METAR WATB 250200Z 14007KT 080V170 9999 FEW018 31/13 Q1017 NOSIG=  
25-Sep-2023 SAID32 WATB 250300 METAR WATB 250300Z 12010KT 030V170 9999 FEW018 33/11 Q1017 NOSIG=  
25-Sep-2023 SAID32 WATB 250400 METAR WATB 250400Z 06011KT 040V160 9999 FEW018 34/11 Q1015 NOSIG=  
25-Sep-2023 SAID32 WATB 250500 METAR WATB 250500Z 08013KT 9999 SCT018 35/07 Q1014 NOSIG=  
26-Sep-2023 SAID32 WATB 260000 METAR WATB 260000Z 05003KT 9999 FEW018 26/17 Q1017 NOSIG=  
26-Sep-2023 SAID32 WATB 260100 METAR WATB 260100Z 05003KT 9999 FEW018 30/15 Q1017 NOSIG=  
26-Sep-2023 SAID32 WATB 260200 METAR WATB 260200Z 13010KT 080V160 9999 FEW018 31/12 Q1016 NOSIG=  
26-Sep-2023 SAID32 WATB 260300 METAR WATB 260300Z 08010KT 060V120 9999 FEW018 32/12 Q1016 NOSIG=  
26-Sep-2023 SAID32 WATB 260400 METAR WATB 260400Z 11012KT 090V150 9999 FEW018 32/13 Q1015 NOSIG=  
26-Sep-2023 SAID32 WATB 260500 METAR WATB 260500Z 08005KT 9999 SCT018 32/15 Q1013 NOSIG=  
27-Sep-2023 SAID32 WATB 270000 METAR WATB 270000Z 05003KT 9999 FEW018 25/16 Q1018 NOSIG=  
27-Sep-2023 SAID32 WATB 270100 METAR WATB 270100Z 07006KT 9999 FEW018 28/17 Q1018 NOSIG=  
27-Sep-2023 SAID32 WATB 270200 METAR WATB 270200Z 04003KT 320V140 9999 FEW018 30/15 Q1018 NOSIG=  
27-Sep-2023 SAID32 WATB 270300 METAR WATB 270300Z 17005KT 140V200 9999 FEW018 31/15 Q1017 NOSIG=  
27-Sep-2023 SAID32 WATB 270400 METAR WATB 270400Z 29005KT 230V360 9999 FEW018 32/16 Q1016 NOSIG=  
27-Sep-2023 SAID32 WATB 270500 METAR WATB 270500Z 11006KT 9999 FEW018 33/16 Q1015 NOSIG=  
28-Sep-2023 SAID32 WATB 280000 METAR WATB 280000Z 05003KT 9999 FEW018 25/17 Q1019 NOSIG=  
28-Sep-2023 SAID32 WATB 280100 METAR WATB 280100Z 16003KT 9999 FEW018 28/16 Q1019 NOSIG=  
28-Sep-2023 SAID32 WATB 280200 METAR WATB 280200Z 03007KT 9999 FEW018 30/16 Q1018 NOSIG=  
28-Sep-2023 SAID32 WATB 280300 METAR WATB 280300Z 25005KT 250V320 9999 FEW018 32/16 Q1017 NOSIG=  
28-Sep-2023 SAID32 WATB 280400 METAR WATB 280400Z 14010KT 050V200 9999 SCT018 32/16 Q1015 NOSIG=  
28-Sep-2023 SAID32 WATB 280500 METAR WATB 280500Z 04010KT 010V070 9999 SCT018 33/16 Q1015 NOSIG=  
29-Sep-2023 SAID32 WATB 290000 METAR WATB 290000Z 06005KT 9999 FEW018 25/19 Q1019 NOSIG=  
29-Sep-2023 SAID32 WATB 290100 METAR WATB 290100Z 11005KT 090V190 9999 FEW018 27/15 Q1019 NOSIG=  
29-Sep-2023 SAID32 WATB 290200 METAR WATB 290200Z 36010KT 330V050 9999 FEW018 29/15 Q1018 NOSIG=  
29-Sep-2023 SAID32 WATB 290300 METAR WATB 290300Z 09005KT 040V120 9999 FEW018 31/15 Q1017 NOSIG=  
29-Sep-2023 SAID32 WATB 290400 METAR WATB 290400Z 10007KT 9999 SCT018 31/15 Q1016 NOSIG=  
29-Sep-2023 SAID32 WATB 290500 METAR WATB 290500Z 08010KT 9999 FEW018 32/16 Q1015 NOSIG=  
30-Sep-2023 SAID32 WATB 300000 METAR WATB 300000Z 04003KT 9999 FEW018 26/20 Q1018 NOSIG=  
30-Sep-2023 SAID32 WATB 300100 METAR WATB 300100Z 07003KT 9999 FEW018 28/19 Q1018 NOSIG=  
30-Sep-2023 SAID32 WATB 300200 METAR WATB 300200Z 22010KT 180V250 9999 FEW018 30/16 Q1017 NOSIG=  
30-Sep-2023 SAID32 WATB 300300 METAR WATB 300300Z 11010KT 070V140 9999 FEW018 31/16 Q1016 NOSIG=  
30-Sep-2023 SAID32 WATB 300400 METAR WATB 300400Z 11010KT 090V210 9999 FEW018 32/15 Q1016 NOSIG=  
30-Sep-2023 SAID32 WATB 300500 METAR WATB 300500Z 16010KT 080V180 9999 FEW018 32/12 Q1015 NOSIG=  
01-Oct-2023 SAID32 WATB 010000 METAR WATB 010000Z 04005KT 9999 FEW018 25/18 Q1018 NOSIG=  
01-Oct-2023 SAID32 WATB 010100 METAR WATB 010100Z 03005KT 9999 FEW018 28/17 Q1017 NOSIG=  
01-Oct-2023 SAID32 WATB 010200 METAR WATB 010200Z 10010KT 9999 FEW018 30/16 Q1017 NOSIG=  
01-Oct-2023 SAID32 WATB 010300 METAR WATB 010300Z 08005KT 010V110 9999 FEW018 31/16 Q1016 NOSIG=  
01-Oct-2023 SAID32 WATB 010400 METAR WATB 010400Z 1100KT 9999 FEW018 32/16 Q1015 NOSIG=  
01-Oct-2023 SAID32 WATB 010500 METAR WATB 010400Z 1100KT 9999 FEW018 32/16 Q1015 NOSIG=  
01-Oct-2023 SAID32 WATB 010500 METAR WATB 010500Z 1100KT 9999 FEW018 32/16 Q1015 NOSIG=  
02-Oct-2023 SAID32 WATB 020000 METAR WATB 020000Z 04003KT 9999 FEW018 26/21 Q1018 NOSIG=  
02-Oct-2023 SAID32 WATB 020100 METAR WATB 020100Z 04007KT 360V090 9999 FEW018 28/19 Q1018 NOSIG=  
02-Oct-2023 SAID32 WATB 020200 METAR WATB 020200Z 05006KT 030V100 9999 FEW018 30/19 Q1018 NOSIG=  
02-Oct-2023 SAID32 WATB 020300 METAR WATB 020300Z 33006KT 310V090 9999 FEW018 32/18 Q1018 NOSIG=  
02-Oct-2023 SAID32 WATB 020400 METAR WATB 020400Z 13010KT 090V150 9999 BKN018 32/19 Q1016 NOSIG=  
02-Oct-2023 SAID32 WATB 020500 METAR WATB 020500Z 16010KT 120V190 9999 BKN017 31/20 Q1015 NOSIG=  
03-Oct-2023 SAID32 WATB 030000 METAR WATB 030000Z 04005KT 9999 FEW017 27/20 Q1019 NOSIG=  
03-Oct-2023 SAID32 WATB 030100 METAR WATB 030100Z 01005KT 9999 FEW017 29/19 Q1019 NOSIG=  
03-Oct-2023 SAID32 WATB 030200 METAR WATB 030200Z 09006KT 9999 FEW018 31/18 Q1019 NOSIG=  
03-Oct-2023 SAID32 WATB 030300 METAR WATB 030300Z 05010KT 9999 SCT018 31/18 Q1018 NOSIG=  
03-Oct-2023 SAID32 WATB 030400 METAR WATB 030400Z 09010KT 9999 SCT018 32/19 Q1017 NOSIG=  
03-Oct-2023 SAID32 WATB 030500 METAR WATB 030500Z 08007KT 9999 SCT018 33/19 Q1016 NOSIG=  
04-Oct-2023 SAID32 WATB 040000 METAR WATB 040000Z 09005KT 9999 FEW017 27/21 Q1019 NOSIG=  
04-Oct-2023 SAID32 WATB 040100 METAR WATB 040100Z 07005KT 9999 FEW018 30/20 Q1019 NOSIG=  
04-Oct-2023 SAID32 WATB 040200 METAR WATB 040200Z 11005KT 060VG170 9999 FEW018 29/20 Q1018 NOSIG=  
04-Oct-2023 SAID32 WATB 040300 METAR WATB 040300Z 05006KT 9999 FEW018 32/20 Q1017 NOSIG=  
04-Oct-2023 SAID32 WATB 040400 METAR WATB 040400Z 36010KT 340V050 9999 FEW018 33/18 Q1016 NOSIG=  
04-Oct-2023 SAID32 WATB 040500 METAR WATB 040500Z 06007KT 9999 FEW018 34/18 Q1015 NOSIG=  
05-Oct-2023 SAID32 WATB 050000 METAR WATB 050000Z 03003KT 9999 FEW017 26/20 Q1018 NOSIG=  
05-Oct-2023 SAID32 WATB 050100 METAR WATB 050100Z 09005KT 9999 FEW018 29/20 Q1018 NOSIG=  
05-Oct-2023 SAID32 WATB 050200 METAR WATB 050200Z 02008KT 360V070 9999 FEW018 31/19 Q1017 NOSIG=  
05-Oct-2023 SAID32 WATB 050300 METAR WATB 050300Z 06005KT 010V130 9999 FEW018 33/19 Q1016 NOSIG=  
05-Oct-2023 SAID32 WATB 050400 METAR WATB 050400Z 04013KT 9999 SCT018 34/18 Q1015 NOSIG=  
05-Oct-2023 SAID32 WATB 050500 METAR WATB 050500Z 08010KT 040V110 9999 FEW018 34/18 Q1014 NOSIG=  
06-Oct-2023 SAID32 WATB 060000 METAR WATB 060000Z 07003KT 8000 HZ FEW018 27/21 Q1018 NOSIG=  
06-Oct-2023 SAID32 WATB 060100 METAR WATB 060100Z 04006KT 8000 HZ FEW018 28/21 Q1019 NOSIG=  
06-Oct-2023 SAID32 WATB 060200 METAR WATB 060200Z 05007KT 9999 SCT018 31/20 Q1018 NOSIG=  
06-Oct-2023 SAID32 WATB 060300 METAR WATB 060300Z 11010KT 9999 BKN018 32/19 Q1017 NOSIG=  
06-Oct-2023 SAID32 WATB 060400 METAR WATB 060400Z 12010KT 9999 BKN017 32/19 Q1016 NOSIG=  
06-Oct-2023 SAID32 WATB 060500 METAR WATB 060500Z 12010KT 080V150 9999 BKN017 33/18 Q1015 NOSIG=  
07-Oct-2023 SAID32 WATB 070000 METAR WATB 070000Z 03005KT 8000 HZ FEW017 26/22 Q1018 NOSIG=  
07-Oct-2023 SAID32 WATB 070100 METAR WATB 070100Z 12006KT 070V150 9999 FEW017 29/21 Q1018 NOSIG=  
07-Oct-2023 SAID32 WATB 070200 METAR WATB 070200Z 04007KT 350V100 9999 SCT018 30/20 Q1018 NOSIG=  
07-Oct-2023 SAID32 WATB 070300 METAR WATB 070300Z 01014KT 350V070 9999 SCT018 32/19 Q1017 NOSIG=  
07-Oct-2023 SAID32 WATB 070400 METAR WATB 070400Z 06010KT 030V090 9999 SCT018 33/16 Q1016 NOSIG=  
07-Oct-2023 SAID32 WATB 070500 METAR WATB 070500Z 06011KT 9999 BKN018 32/16 Q1014 NOSIG=  
08-Oct-2023 SAID32 WATB 080000 METAR WATB 080000Z 04005KT 9999 FEW017 27/20 Q1019 NOSIG=  
08-Oct-2023 SAID32 WATB 080100 METAR WATB 080100Z 10006KT 070V130 9999 FEW017 29/21 Q1019 NOSIG=  
08-Oct-2023 SAID32 WATB 080200 METAR WATB 080200Z 12005KT 090V190 9999 FEW018 31/20 Q1018 NOSIG=  
08-Oct-2023 SAID32 WATB 080300 METAR WATB 080300Z 11010KT 070V130 9999 FEW018 31/20 Q1018 NOSIG=  
08-Oct-2023 SAID32 WATB 080400 METAR WATB 080400Z 18010KT 140V240 9999 SCT018 32/19 Q1017 NOSIG=  
08-Oct-2023 SAID32 WATB 080500 METAR WATB 080500Z 16011KT 110V190 9999 SCT018 32/17 Q1016 NOSIG=  
09-Oct-2023 SAID32 WATB 090000 METAR WATB 090000Z 12003KT 9999 FEW017 25/21 Q1018 NOSIG=  
09-Oct-2023 SAID32 WATB 090100 METAR WATB 090100Z 08003KT 9999 FEW017 28/20 Q1018 NOSIG=  
09-Oct-2023 SAID32 WATB 090200 METAR WATB 090200Z 14005KT 100V180 9999 FEW018 31/17 Q1018 NOSIG=  
10-Oct-2023 SAID32 WATB 100000 METAR WATB 100000Z 36003KT 9999 FEW017 27/20 Q1019 NOSIG=  
10-Oct-2023 SAID32 WATB 100100 METAR WATB 100100Z 11005KT 9999 FEW017 30/19 Q1018 NOSIG=  
10-Oct-2023 SAID32 WATB 100200 METAR WATB 100200Z 02010KT 9999 FEW018 31/16 Q1017 NOSIG=  
10-Oct-2023 SAID32 WATB 100300 METAR WATB 100300Z 09007KT 9999 FEW018 33/14 Q1017 NOSIG=  
10-Oct-2023 SAID32 WATB 100400 METAR WATB 100400Z 14010KT 100V170 9999 FEW018 34/14 Q1015 NOSIG=  
10-Oct-2023 SAID32 WATB 100500 METAR WATB 100500Z 17010KT 9999 FEW018 34/15 Q1014 NOSIG=  
11-Oct-2023 SAID32 WATB 110000 METAR WATB 110000Z 05005KT 9999 FEW017 26/20 Q1018 NOSIG=  
11-Oct-2023 SAID32 WATB 110100 METAR WATB 110100Z 10005KT 070V130 9999 FEW017 29/19 Q1018 NOSIG=  
11-Oct-2023 SAID32 WATB 110200 METAR WATB 110200Z 01005KT 9999 FEW018 30/18 Q1017 NOSIG=  
11-Oct-2023 SAID32 WATB 110300 METAR WATB 110300Z 20005KT 9999 FEW018 33/17 Q1016 NOSIG=  
11-Oct-2023 SAID32 WATB 110400 METAR WATB 110400Z 08010KT 9999 SCT018 34/17 Q1015 NOSIG=  
11-Oct-2023 SAID32 WATB 110500 METAR WATB 110500Z 06010KT 9999 FEW018 34/18 Q1014 NOSIG=  
12-Oct-2023 SAID32 WATB 120000 METAR WATB 120000Z 10003KT 8000 HZ FEW018 27/21 Q1019 NOSIG=  
12-Oct-2023 SAID32 WATB 120100 METAR WATB 120100Z 01005KT 8000 HZ FEW018 29/20 Q1019 NOSIG=  
12-Oct-2023 SAID32 WATB 120200 METAR WATB 120200Z 12005KT 9999 FEW018 31/18 Q1018 NOSIG=  
12-Oct-2023 SAID32 WATB 120300 METAR WATB 120300Z 01006KT 340V040 9999 FEW018 32/18 Q1017 NOSIG=  
12-Oct-2023 SAID32 WATB 120400 METAR COR WATB 120400Z 05010KT 9999 BKN018 34/19 Q1016 NOSIG=  
12-Oct-2023 SAID32 WATB 120500 METAR WATB 120500Z 09015KT 9999 BKN018 32/21 Q1016 NOSIG=  
13-Oct-2023 SAID32 WATB 130000 METAR WATB 130000Z 03003KT 8000 HZ FEW017 26/23 Q1019 NOSIG=  
13-Oct-2023 SAID32 WATB 130100 METAR WATB 130100Z 09003KT 8000 HZ FEW017 28/20 Q1018 NOSIG=  
13-Oct-2023 SAID32 WATB 130200 METAR WATB 130200Z 06010KT 9999 FEW018 30/19 Q1018 NOSIG=  
13-Oct-2023 SAID32 WATB 130300 METAR WATB 130300Z 05011KT 9999 SCT018 32/18 Q1017 NOSIG=  
13-Oct-2023 SAID32 WATB 130400 METAR WATB 130400Z 04014KT 9999 SCT018 33/16 Q1016 NOSIG=  
13-Oct-2023 SAID32 WATB 130500 METAR WATB 130500Z 06012KT 9999 SCT018 33/15 Q1015 NOSIG=  
13-Oct-2023 SAID32 WATB 130600 METAR WATB 130600Z 05014KT 9999 SCT018 32/16 Q1015 NOSIG=  
14-Oct-2023 SAID32 WATB 140000 METAR WATB 140000Z 04003KT 9999 FEW018 27/21 Q1018 NOSIG=  
14-Oct-2023 SAID32 WATB 140100 METAR WATB 140100Z 08005KT 040V130 9999 FEW018 30/20 Q1018 NOSIG=  
14-Oct-2023 SAID32 WATB 140200 METAR WATB 140200Z 11005KT 9999 FEW018 31/19 Q1017 NOSIG=  
14-Oct-2023 SAID32 WATB 140300 METAR WATB 140300Z 36005KT 9999 FEW018 32/18 Q1016 NOSIG=  
14-Oct-2023 SAID32 WATB 140400 METAR WATB 140400Z 05005KT 9999 FEW018 33/17 Q1015 NOSIG=  
14-Oct-2023 SAID32 WATB 140500 METAR WATB 140500Z 05010KT 9999 FEW018 34/18 Q1014 NOSIG=  
15-Oct-2023 SAID32 WATB 150000 METAR WATB 150000Z 04005KT 9999 FEW018 28/19 Q1017 NOSIG=  
15-Oct-2023 SAID32 WATB 150100 METAR WATB 150100Z 05006KT 020V090 9999 FEW018 30/19 Q1017 NOSIG=  
15-Oct-2023 SAID32 WATB 150200 METAR WATB 150200Z 08008KT 9999 FEW018 33/16 Q1017 NOSIG=  
15-Oct-2023 SAID32 WATB 150300 METAR WATB 150300Z 10011KT 9999 FEW018 35/12 Q1016 NOSIG=  
15-Oct-2023 SAID32 WATB 150400 METAR WATB 150400Z 12010KT 080V140 9999 FEW018 34/15 Q1015 NOSIG=  
15-Oct-2023 SAID32 WATB 150500 METAR COR WATB 150500Z 12010KT 080V140 9999 FEW018 35/16 Q1014 NOSIG=  
16-Oct-2023 SAID32 WATB 160000 METAR WATB 160000Z 07003KT 9999 FEW018 27/18 Q1017 NOSIG=  
16-Oct-2023 SAID32 WATB 160100 METAR WATB 160100Z 03003KT 9999 FEW018 29/18 Q1017 NOSIG=  
16-Oct-2023 SAID32 WATB 160200 METAR WATB 160200Z 09010KT 9999 FEW018 31/15 Q1017 NOSIG=  
16-Oct-2023 SAID32 WATB 160300 METAR WATB 160300Z 06010KT 030V100 9999 FEW018 33/16 Q1016 NOSIG=  
16-Oct-2023 SAID32 WATB 160400 METAR WATB 160400Z 09012KT9999 FEW018 34/16 Q1015 NOSIG=  
16-Oct-2023 SAID32 WATB 160500 METAR WATB 160500Z 12010KT 9999 FEW018 34/18 Q1014 NOSIG=  
17-Oct-2023 SAID32 WATB 170000 METAR WATB 170000Z 36005KT 330V040 8000 HZ FEW018 26/21 Q1018 NOSIG=  
17-Oct-2023 SAID32 WATB 170100 METAR WATB 170100Z 14005KT 080V150 8000 HZ FEW018 29/21 Q1018 NOSIG=  
17-Oct-2023 SAID32 WATB 170200 METAR WATB 170200Z 08006KT 050V130 9999 FEW018 31/19 Q1018 NOSIG=  
17-Oct-2023 SAID32 WATB 170300 METAR WATB 170300Z 03010KT 9999 FEW018 32/18 Q1017 NOSIG=  
17-Oct-2023 SAID32 WATB 170400 METAR WATB 170400Z 36010KT 9999 FEW018 33/16 Q1016 NOSIG=  
17-Oct-2023 SAID32 WATB 170500 METAR WATB 170500Z 02013KT 9999 SCT018 33/15 Q1015 NOSIG=  
18-Oct-2023 SAID32 WATB 180000 METAR WATB 180000Z 07003KT 9999 FEW018 28/19 Q1018 NOSIG=  
18-Oct-2023 SAID32 WATB 180100 METAR WATB 180100Z 09010KT 9999 FEW018 29/19 Q1018 NOSIG=  
18-Oct-2023 SAID32 WATB 180200 METAR WATB 180200Z 13007KT 9999 FEW018 32/17 Q1018 NOSIG=  
18-Oct-2023 SAID32 WATB 180300 METAR WATB 180300Z 08013KT 060V160 9999 FEW018 33/14 Q1017 NOSIG=  
18-Oct-2023 SAID32 WATB 180400 METAR WATB 180400Z 13011KT 9999 FEW018 34/12 Q1016 NOSIG=  
18-Oct-2023 SAID32 WATB 180500 METAR WATB 180500Z 10010KT 9999 FEW018 34/12 Q1015 NOSIG=  
19-Oct-2023 SAID32 WATB 190000 METAR WATB 190000Z 01005KT 9999 FEW018 27/19 Q1018 NOSIG=  
19-Oct-2023 SAID32 WATB 190100 METAR WATB 190100Z 10003KT 9999 FEW018 30/18 Q1018 NOSIG=  
19-Oct-2023 SAID32 WATB 190200 METAR WATB 190200Z 18007KT 9999 FEW018 32/17 Q1017 NOSIG=  
19-Oct-2023 SAID32 WATB 190300 METAR WATB 190300Z 10005KT 020V140 9999 FEW018 34/17 Q1016 NOSIG=  
19-Oct-2023 SAID32 WATB 190400 METAR WATB 190400Z 06010KT 010V110 9999 FEW018 34/15 Q1015 NOSIG=  
19-Oct-2023 SAID32 WATB 190500 METAR WATB 190500Z 14010KT 090V240 9999 SCT018 35/17 Q1014 NOSIG=  
20-Oct-2023 SAID32 WATB 200000 METAR WATB 200000Z 02003KT 9999 FEW018 27/17 Q1018 NOSIG=  
20-Oct-2023 SAID32 WATB 200100 METAR WATB 200100Z 35005KT 9999 FEW018 29/18 Q1018 NOSIG=  
20-Oct-2023 SAID32 WATB 200200 METAR WATB 200200Z 03007KT 010V120 9999 FEW018 31/15 Q1017 NOSIG=  
20-Oct-2023 SAID32 WATB 200300 METAR WATB 200300Z 09003KT 9999 FEW018 32/17 Q1017 NOSIG=  
20-Oct-2023 SAID32 WATB 200400 METAR WATB 200400Z 11010KT 060V160 9999 FEW018 34/17 Q1015 NOSIG=  
20-Oct-2023 SAID32 WATB 200500 METAR WATB 200500Z 11010KT 9999 FEW018 35/15 Q1014 NOSIG=  
21-Oct-2023 SAID32 WATB 210000 METAR WATB 210000Z 09005KT 9999 FEW017 27/18 Q1018 NOSIG=  
21-Oct-2023 SAID32 WATB 210100 METAR WATB 210100Z 03005KT 9999 FEW018 30/17 Q1018 NOSIG=  
21-Oct-2023 SAID32 WATB 210200 METAR WATB 210200Z 01005KT 270V030 9999 FEW018 32/15 Q1017 NOSIG=  
21-Oct-2023 SAID32 WATB 210300 METAR WATB 210300Z 02005KT 290V110 9999 FEW018 33/14 Q1016 NOSIG=  
21-Oct-2023 SAID32 WATB 210400 METAR WATB 210400Z 12007KT 090V160 9999 FEW018 34/15 Q1015 NOSIG=  
21-Oct-2023 SAID32 WATB 210500 METAR WATB 210500Z 07010KT 040V110 9999 FEW018 35/18 Q1014 NOSIG=  
22-Oct-2023 SAID32 WATB 220000 METAR WATB 220000Z 06005KT 010V100 9999 FEW017 26/22 Q1018 NOSIG=  
22-Oct-2023 SAID32 WATB 220100 METAR WATB 220100Z 03005KT 010V090 9999 FEW018 28/21 Q1018 NOSIG=  
22-Oct-2023 SAID32 WATB 220200 METAR WATB 220200Z 11010KT 060V210 9999 FEW018 31/19 Q1018 NOSIG=  
22-Oct-2023 SAID32 WATB 220300 METAR WATB 220300Z 11006KT 080V160 9999 FEW018 32/19 Q1017 NOSIG=  
22-Oct-2023 SAID32 WATB 220400 METAR WATB 220400Z 05011KT 9999 FEW018 34/18 Q1016 NOSIG=  
22-Oct-2023 SAID32 WATB 220500 METAR WATB 220500Z 03010KT 9999 FEW018 33/19 Q1015 NOSIG=  
23-Oct-2023 SAID32 WATB 230000 METAR WATB 230000Z 09003KT 050V120 8000 HZ FEW017 27/21 Q1018 NOSIG=  
23-Oct-2023 SAID32 WATB 230100 METAR WATB 230100Z 05006KT 020V090 9999 FEW018 29/21 Q1018 NOSIG=  
23-Oct-2023 SAID32 WATB 230200 METAR WATB 230200Z 08006KT 360V100 9999 FEW018 31/18 Q1018 NOSIG=  
23-Oct-2023 SAID32 WATB 230300 METAR WATB 230300Z 32006KT 290V350 9999 FEW018 33/17 Q1016 NOSIG=  
23-Oct-2023 SAID32 WATB 230400 METAR WATB 230400Z 08007KT 9999 FEW018 33/17 Q1015 NOSIG=  
23-Oct-2023 SAID32 WATB 230500 METAR WATB 230500Z 10007KT 9999 SCT018 34/180 Q1014 NOSIG=  
24-Oct-2023 SAID32 WATB 240000 METAR WATB 240000Z 08003KT 9999 FEW017 27/20 Q1018 NOSIG=  
24-Oct-2023 SAID32 WATB 240100 METAR WATB 240100Z 02005KT 310V050 9999 FEW017 29/19 Q1018 NOSIG=  
24-Oct-2023 SAID32 WATB 240200 METAR WATB 240200Z 05010KT 9999 FEW018 31/17 Q1018 NOSIG=  
24-Oct-2023 SAID32 WATB 240300 METAR WATB 240300Z 05011KT 9999 FEW018 33/17 Q1017 NOSIG=  
24-Oct-2023 SAID32 WATB 240400 METAR WATB 240400Z 01012KT 9999 FEW018 33/19 Q1016 NOSIG=  
24-Oct-2023 SAID32 WATB 240500 METAR WATB 240500Z 04010KT 360V070 9999 FEW018 34/19 Q1015 NOSIG=  
25-Oct-2023 SAID32 WATB 250000 METAR WATB 250000Z 04006KT 9999 FEW017 27/18 Q1018 NOSIG=  
25-Oct-2023 SAID32 WATB 250100 METAR WATB 250100Z 07003KT 9999 FEW017 30/18 Q1018 NOSIG=  
25-Oct-2023 SAID32 WATB 250200 METAR WATB 250200Z 05007KT 9999 FEW018 32/16 Q1018 NOSIG=  
25-Oct-2023 SAID32 WATB 250300 METAR WATB 250300Z 04005KT 9999 FEW018 33/16 Q1017 NOSIG=  
25-Oct-2023 SAID32 WATB 250400 METAR WATB 250400Z 13010KT 9999 FEW018 34/14 Q1015 NOSIG=  
25-Oct-2023 SAID32 WATB 250500 METAR WATB 250500Z 05010KT 040V110 9999 FEW018 35/17 Q1014 NOSIG=  
26-Oct-2023 SAID32 WATB 260000 METAR WATB 260000Z 03003KT 9999 FEW017 27/18 Q1018 NOSIG=  
26-Oct-2023 SAID32 WATB 260100 METAR WATB 260100Z 03005KT 9999 FEW018 31/17 Q1018 NOSIG=  
26-Oct-2023 SAID32 WATB 260200 METAR WATB 260200Z 09005KT 010V110 9999 FEW018 33/14 Q1017 NOSIG=  
26-Oct-2023 SAID32 WATB 260300 METAR WATB 260300Z 07007KT 9999 FEW018 34/15 Q1016 NOSIG=  
26-Oct-2023 SAID32 WATB 260400 METAR WATB 260400Z 08005KT 360V130 9999 FEW018 35/14 Q1015 NOSIG=  
26-Oct-2023 SAID32 WATB 260500 METAR WATB 260500Z 01010KT 350V060 9999 FEW018 35/15 Q1014 NOSIG=  
27-Oct-2023 SAID32 WATB 270000 METAR WATB 270000Z 08003KT 9999 FEW018 26/17 Q1018 NOSIG=  
27-Oct-2023 SAID32 WATB 270100 METAR WATB 270100Z 03007KT 9999 FEW018 29/17 Q1018 NOSIG=  
27-Oct-2023 SAID32 WATB 270200 METAR WATB 270200Z 09007KT 9999 FEW018 31/14 Q1018 NOSIG=  
27-Oct-2023 SAID32 WATB 270300 METAR WATB 270300Z 04010KT 9999 FEW018 33/15 Q1017 NOSIG=  
27-Oct-2023 SAID32 WATB 270400 METAR WATB 270400Z 10010KT 050V150 9999 FEW018 34/15 Q1015 NOSIG=  
27-Oct-2023 SAID32 WATB 270500 METAR WATB 270500Z 05006KT 9999 SCT018 35/15 Q1014 NOSIG=  
28-Oct-2023 SAID32 WATB 280000 METAR WATB 280000Z 07005KT 9999 FEW017 27/19 Q1018 NOSIG=  
28-Oct-2023 SAID32 WATB 280100 METAR WATB 280100Z 06005KT 010V080 9999 FEW018 29/19 Q1018 NOSIG=  
28-Oct-2023 SAID32 WATB 280200 METAR WATB 280200Z 02005KT 310V070 9999 FEW018 32/17 Q1017 NOSIG=  
28-Oct-2023 SAID32 WATB 280300 METAR WATB 280300Z 02010KT 340V090 9999 FEW018 33/16 Q1016 NOSIG=  
28-Oct-2023 SAID32 WATB 280400 METAR WATB 280400Z 09012KT 020V110 9999 BKN018 34/17 Q1015 NOSIG=  
28-Oct-2023 SAID32 WATB 280500 METAR WATB 280500Z 05010KT 9999 BKN017 34/17 Q1013 NOSIG=  
29-Oct-2023 SAID32 WATB 290000 METAR WATB 290000Z 16005KT 090V190 9999 FEW017 28/21 Q1016 NOSIG=  
29-Oct-2023 SAID32 WATB 290100 METAR WATB 290100Z 14005KT 9999 FEW017 31/19 Q1016 NOSIG=  
29-Oct-2023 SAID32 WATB 290200 METAR WATB 290200Z 08011KT 030V100 9999 FEW018 33/17 Q1015 NOSIG=  
29-Oct-2023 SAID32 WATB 290300 METAR WATB 290300Z 07013KT 040V100 9999 FEW018 33/15 Q1015 NOSIG=  
29-Oct-2023 SAID32 WATB 290400 METAR COR WATB 290400Z 07006KT 050V110 9999 SCT018 34/16 Q1013 NOSIG=  
29-Oct-2023 SAID32 WATB 290500 METAR WATB 290500Z 07010KT 9999 BKN018 33/19 Q1013 NOSIG=  
30-Oct-2023 SAID32 WATB 300000 METAR WATB 300000Z 08005KT 8000 HZ FEW017 28/22 Q1016 NOSIG=  
30-Oct-2023 SAID32 WATB 300100 METAR WATB 300100Z 02005KT 9999 FEW017 29/21 Q1016 NOSIG=  
30-Oct-2023 SAID32 WATB 300200 METAR WATB 300200Z 09010KT 050V130 9999 SCT017 31/19 Q1016 NOSIG=  
30-Oct-2023 SAID32 WATB 300300 METAR WATB 300300Z 05010KT 9999 SCT018 32/18 Q1015 NOSIG=  
30-Oct-2023 SAID32 WATB 300400 METAR WATB 300400Z 02013KT 350V050 9999 FEW018 32/17 Q1014 NOSIG=  
30-Oct-2023 SAID32 WATB 300500 METAR WATB 300500Z 05013KT 360V080 9999 FEW018 33/17 Q1013 NOSIG=  
31-Oct-2023 SAID32 WATB 310000 METAR WATB 310000Z 34003KT 9999 FEW017 27/21 Q1017 NOSIG=  
31-Oct-2023 SAID32 WATB 310100 METAR WATB 310100Z 08005KT 9999 FEW017 29/21 Q1016 NOSIG=  
31-Oct-2023 SAID32 WATB 310200 METAR WATB 310200Z 02007KT 9999 FEW018 31/20 Q1016 NOSIG=  
31-Oct-2023 SAID32 WATB 310300 METAR WATB 310300Z 06010KT 9999 FEW018 33/19 Q1015 NOSIG=  
31-Oct-2023 SAID32 WATB 310400 METAR WATB 310400Z 04012KT 9999 FEW018 34/19 Q1014 NOSIG=  
31-Oct-2023 SAID32 WATB 310500 METAR WATB 310500Z 06012KT 9999 FEW018 34/20 Q1013 NOSIG=  
