05-Jan-2016 SAID33 WICT 050700 METAR WICT 050700Z 34004KT 9999 SCT015 33/24 Q1009=  
05-Jan-2016 SAID33 WICT 050800 METAR WICT 050800Z 34005KT 9999 SCT015 33/24 Q1008=  
05-Jan-2016 SAID33 WICT 050900 METAR WICT 050900Z 04005KT 9999 SCT015 32/24 Q1008=  
05-Jan-2016 SAID33 WICT 051000 METAR WICT 051000Z 09010KT 9999 SCT015 31/24 Q1009=  
05-Jan-2016 SAID33 WICT 051100 METAR WICT 051100Z 19005KT 6000 -TSRA BKN012CB 38/24 Q1010 RMK CB TO W=  
05-Jan-2016 SAID33 WICT 051200 METAR WICT 051200Z 24005KT 200M +TSRA OVC008CB 26/25 Q1011 RMK CB OVER THE FIELD=  
05-Jan-2016 SAID33 WICT 051300 METAR WICT 051300Z 25008KT 200M +TSRA OVC008CB 24/23 Q1013 RMK CB OVER THE FIELD=  
05-Jan-2016 SAID33 WICT 051400 METAR WICT 051400Z 24003KT 2000 -TSRA BKN010CB 24/24 Q1013 RMK CB OVER THE FIELD=  
05-Jan-2016 SAID33 WICT 051500 METAR WICT 051500Z 25004KT 3000 -TSRA BKN010CB 24/24 Q1015 RMK CB OVER THE FIELD=  
07-Jan-2016 SAID33 WICT 071200 METAR WICT 071200Z 03006KT 9999 SCT015 29/25 Q1012=  
07-Jan-2016 SAID33 WICT 071700 METAR WICT 071700Z 31003KT 9999 FEW015 27/25 Q1013=  
07-Jan-2016 SAID33 WICT 071800 METAR WICT 071800Z 00000KT 9999 FEW015 26/25 Q1013=  
07-Jan-2016 SAID33 WICT 072100 METAR WICT 072100Z 00000KT 9999 FEW015 26/24 Q1011=  
07-Jan-2016 SAID33 WICT 072200 METAR WICT 072200Z 00000KT 9999 FEW020 25/24 Q1012=  
