26-May-2018 SAID32 WIDM 261500 METAR WIDM 261500Z 00000KT 8000 FEW015 25/24 Q1010 NOIG=
26-May-2018 SAID32 WIDM 261800 METAR WIDM 261800Z 00000KT 9000 FEW015 26/25 Q1010 NOIG=
26-May-2018 SAID32 WIDM 261830 METAR WIDM 261830Z 00000KT 9000 FEW015 25/25 Q1009 NOIG=
26-May-2018 SAID32 WIDM 261900 METAR WIDM 261900Z 00000KT 9000 FEW015 25/25 Q1008 NOIG=
26-May-2018 SAID32 WIDM 261930 METAR WIDM 261930Z 00000KT 9000 FEW015 25/25 Q1008 NOIG=
26-May-2018 SAID32 WIDM 262100 METAR WIDM 262100Z 00000KT 9000 FEW015 25/24 Q1007 NOIG=
26-May-2018 SAID32 WIDM 262130 METAR WIDM 262130Z 00000KT 9000 FEW015 25/24 Q1007 NOIG=
26-May-2018 SAID32 WIDM 262300 METAR WIDM 262300Z 00000KT 9000 SCT015CB 25/25 Q1008 NOIG=
26-May-2018 SAID32 WIDM 262330 METAR WIDM 262330Z 00000KT 9000 SCT015CB 26/25 Q1009 NOIG=
27-May-2018 SAID32 WIDM 270000 METAR WIDM 270000Z 00000KT 9000 SCT015CB 26/25 Q1009 NOSIG=
27-May-2018 SAID32 WIDM 270030 METAR WIDM 270030Z 00000KT 9000 BKN015 25/24 Q1011 NOSIG=
27-May-2018 SAID32 WIDM 270100 METAR WIDM 270100Z 32002KT 9000 FEW017 25/24 Q1011 NOSIG=
27-May-2018 SAID32 WIDM 270130 METAR WIDM 270130Z 21004KT 9999 FEW017 27/24 Q1011 NOSIG=
27-May-2018 SAID32 WIDM 270200 METAR WIDM 270200Z 21004KT 9999 FEW017 29/25 Q1012 NOSIG=
25-Aug-2020 SAID32 WIDN 250900 METAR WIDM 250900Z 13006KT 9999 SCT015 28/24 Q1009=
25-Aug-2020 SAID32 WIDN 250930 METAR WIDM 250930Z 16006KT 9999 SCT015 28/24 Q1008=
25-Aug-2020 SAID32 WIDN 251000 METAR WIDM 251000Z 14004KT 9999 SCT015 28/24 Q1008=
25-Aug-2020 SAID32 WIDN 251030 METAR WIDM 251030Z 17002KT 9999 SCT015 27/24 Q1009=
25-Aug-2020 SAID32 WIDN 251100 METAR WIDM 251100Z 00000KT 9999 SCT015 27/24 Q1010=
25-Aug-2020 SAID32 WIDN 251200 METAR WIDM 251200Z 00000KT 8000 SCT015 27/25 Q1010=
25-Aug-2020 SAID32 WIDN 251230 METAR WIDM 251230Z 00000KT 9000 SCT015 27/24 Q1011 NOSIG=
25-Aug-2020 SAID32 WIDN 251300 METAR WIDM 251300Z 00000KT 9000 -RA SCT015 27/25 Q1011 NOSIG=
25-Aug-2020 SAID32 WIDN 251330 METAR WIDM 251330Z 18006KT 5000 -RA SCT015 25/23 Q1012 NOSIG=
25-Aug-2020 SAID32 WIDN 251400 METAR WIDM 251400Z 18005KT 5000 -RA SCT015 25/23 Q1012=
25-Aug-2020 SAID32 WIDN 251430 METAR WIDM 251430Z 2004KT 8000 -RA SCT015 25/24 Q1012=
25-Aug-2020 SAID32 WIDN 251430 CCA METAR WIDM 251430Z 20004KT 8000 -RA SCT015 25/24 Q1012=
25-Aug-2020 SAID32 WIDN 251500 METAR WIDM 251500Z 21004KT 9000 SCT015 25/24 Q1012 RERA=
25-Aug-2020 SAID32 WIDN 251530 METAR WIDM 251530Z 0000KT 9000 SCT015 25/24 Q1012 NOSIG=
25-Aug-2020 SAID32 WIDN 251600 METAR WIDM 251600Z 00000KT 9000 SCT015 25/24 Q1012 NOSIG=
25-Aug-2020 SAID32 WIDN 251630 CCA METAR WIDM 251630Z 22005KT 7000 -RA SCT015 25/24 Q1012=
25-Aug-2020 SAID32 WIDN 251630 METAR WIDM 251630Z 22005KT 9000 -RA SCT015 25/24 Q1012=
25-Aug-2020 SAID32 WIDN 251700 METAR WIDM 251700Z 26003KT 7000 -RA SCT015 25/24 Q1012=
25-Aug-2020 SAID32 WIDN 251730 METAR WIDM 251730Z 23002KT 9000 SCT015 25/23 Q1012 RERA=
25-Aug-2020 SAID32 WIDN 251800 METAR WIDM 251800Z 00000KT 9000 SCT015 24/23 Q1011 NOSIG=
25-Aug-2020 SAID32 WIDN 252100 METAR WIDM 252100Z 00000KT 9000 SCT015 24/23 Q1010 NOSIG=
25-Aug-2020 SAID32 WIDN 252200 METAR WIDM 252200Z 00000KT 9000 SCT015 24/23 Q1011 NOSIG=
25-Aug-2020 SAID32 WIDN 252230 METAR WIDM 252230Z 00000KT 9000 SCT015 24/23 Q1011 NOSIG=
25-Aug-2020 SAID32 WIDN 252300 METAR WIDM 252300Z 00000KT 9000 FEW015 24/23 Q1011 NOSIG=
25-Aug-2020 SAID32 WIDN 252330 METAR WIDM 252330Z 00000KT 9000 FEW015 24/23 Q1011 NOSIG=
26-Aug-2020 SAID32 WIDN 260000 METAR WIDM 260000Z 00000KT 9999 FEW017 24/24 Q1011 NOSIG=
26-Aug-2020 SAID32 WIDN 260030 METAR WIDM 260030Z 15003KT 9999 FEW017 26/25 Q1012 NOSIG=
26-Aug-2020 SAID32 WIDN 260100 METAR WIDM 260100Z 20004KT 9999 SCT017 27/25 Q1012 NOSIG=
26-Aug-2020 SAID32 WIDN 260130 METAR WIDM 260130Z 17007KT 9999 SCT015 27/25 Q1012 NOSIG=
26-Aug-2020 SAID32 WIDN 260200 METAR WIDM 260200Z 23005KT 9999 SCT015 27/24 Q1012 NOSIG=
26-Aug-2020 SAID32 WIDN 260230 METAR WIDM 260230Z 22004KT 9999 SCT015 28/25 Q1013 NOSIG=
26-Aug-2020 SAID32 WIDN 260300 METAR WIDM 260300Z 17005KT 9999 SCT015 28/24 Q1013 NOSIG=
26-Aug-2020 SAID32 WIDN 260330 METAR WIDM 260330Z 11004KT 7000 -RA BKN015 26/25 Q1012 NOSIG=
26-Aug-2020 SAID32 WIDN 260400 METAR WIDM 260400Z 00000KT 7000 -RA BKN015 26/25 Q1012 NOSIG=
04-Sep-2023 SAID32 WIDM 040130 METAR WIDM 040130Z 18010KT 5000 HZ BKN016 29/26 1008 NOSIG=
04-Sep-2023 SAID32 WIDM 040200 METAR WIDM 040200Z 18014KT 5000 HZ BKN016 29/26 1008 NOSIG=
04-Sep-2023 SAID32 WIOM 040230 METAR WIDM 040230Z 18011KT 5000 HZ BKN016 29/26 1008 NOSIG=
04-Sep-2023 SAID32 WIOM 040300 METAR WIDM 040300Z 18013KT 5000 HZ BKN016 30/26 1008 NOSIG=
04-Sep-2023 SAID32 WIDM 040330 METAR WIDM 040330Z 18010KT 5000 HZ BKN016 31/26 1007 NOSIG=
04-Sep-2023 SAID32 WIDM 040400 METAR WIDM 040400Z 18012KT 5000 HZ OVC016 31/26 1007 NOSIG=
04-Sep-2023 SAID32 WIDM 040430 METAR WIDM 040430Z 18014KT 5000 HZ OVC016 31/26 1007 NOSIG=
04-Sep-2023 SAID32 WIDM 040500 METAR WIDM 040500Z 17016KT 5000 HZ OVC016 31/25 1007 NOSIG=
04-Sep-2023 SAID32 WIDM 040530 METAR WIDM 040530Z 18012KT 5000 HZ OVC016 31/25 1007 NOSIG=
04-Sep-2023 SAID32 WIDM 040600 METAR WIDM 040600Z 17012KT 5000 HZ OVC016 31/25 1006 NOSIG=
04-Sep-2023 SAID32 WIDM 040630 METAR WIDM 040630Z 16012KT 5000 HZ OVC016 31/25 1006 NOSIG=
04-Sep-2023 SAID32 WIDM 040700 METAR WIDM 040700Z 18011KT 5000 HZ OVC016 31/26 1005 NOSIG=
04-Sep-2023 SAID32 WIDM 040730 METAR WIDM 040730Z 16009KT 5000 HZ OVC016 31/26 1005 NOSIG=
04-Sep-2023 SAID32 WIDM 040800 METAR WIDM 040800Z 17008KT 5000 HZ OVC016 30/25 1005 NOSIG=
04-Sep-2023 SAID32 WIDM 040830 METAR WIDM 040830Z 16007KT 5000 HZ OVC016 30/25 1005 NOSIG=
04-Sep-2023 SAID32 WIDM 040900 METAR WIDM 040900Z 16007KT 5000 HZ OVC016 30/25 1005 NOSIG=
04-Sep-2023 SAID32 WIDM 042100 METAR WIDM 042100Z 00000KT 5000 HZ FEW016 25/25 Q1007 NOSIG=
04-Sep-2023 SAID32 WIDM 042130 METAR WIDM 042130Z 18002KT 5000 HZ FEW016 25/25 Q1007 NOSIG=
04-Sep-2023 SAID32 WIDM 042200 METAR WIDM 042200Z 18002KT 5000 HZ SCT016 25/25 Q1007 NOSIG=
04-Sep-2023 SAID32 WIDM 042230 METAR WIDM 042230Z 18002KT 5000 HZ SCT016 25/25 Q1007 NOSIG=
04-Sep-2023 SAID32 WIDM 042300 METAR WIDM 042300Z 17003KT 5000 HZ BKN018 25/25 Q1008 NOSIG=
04-Sep-2023 SAID32 WIDM 042330 METAR WIDM 042330Z 18002KT 5000 HZ BKN018 26/26 Q1008 NOSIG=
05-Sep-2023 SAID32 WIDM 050000 METAR WIDM 050000Z 00000KT 5000 HZ BKN018 26/26 Q1008 NOSIG=
05-Sep-2023 SAID32 WIDM 050030 METAR WIDM 050030Z 00000KT 5000 HZ BKN018 27/27 Q1009 NOSIG=
05-Sep-2023 SAID32 WIDM 050100 METAR WIDM 050100Z 15005KT 5000 HZ BKN018 29/27 Q1009 NOSIG=
05-Sep-2023 SAID32 WIDM 050130 METAR WIDM 050130Z 16003KT 5000 HZ BKN018 30/27 Q1009 NOSIG=
05-Sep-2023 SAID32 WIDM 050200 METAR WIDM 050200Z 18002KT 5000 HZ OVC016 30/27 Q1010 NOSIG=
05-Sep-2023 SAID32 WIDM 050230 METAR WIDM 050230Z 21006KT 5000 HZ OVC016 30/27 Q1010 NOSIG=
05-Sep-2023 SAID32 WIDM 050300 METAR WIDM 050300Z 22005KT 5000 HZ OVC016 30/27 Q1010 NOSIG=
05-Sep-2023 SAID32 WIDM 050330 METAR WIDM 050330Z 21005KT 5000 HZ OVC016 30/27 1010 NOSIG=
05-Sep-2023 SAID32 WIDM 050400 METAR WIDM 050400Z 20004KT 5000 HZ BKN016 31/27 1009 NOSIG=
05-Sep-2023 SAID32 WIDM 050430 METAR WIDM 050430Z 22005KT 5000 HZ BKN016 31/27 1009 NOSIG=
05-Sep-2023 SAID32 WIDM 050500 METAR WIDM 050500Z 24006KT 5000 HZ BKN016 31/26 1009 NOSIG=
05-Sep-2023 SAID32 WIDM 050530 METAR WIDM 050530Z 20006KT 5000 HZ BKN016 31/26 Q1008 NOSIG=
05-Sep-2023 SAID32 WIDM 050600 METAR WIDM 050600Z 20008KT 5000 HZ BKN016 31/27 Q1008 NOSIG=
05-Sep-2023 SAID32 WIDM 050630 METAR WIDM 050630Z 19005KT 5000 HZ BKN016 31/27 Q1007 NOSIG=
05-Sep-2023 SAID32 WIDM 050700 METAR WIDM 050700Z 21006KT 5000 HZ BKN017 32/27 Q1007 NOSIG=
05-Sep-2023 SAID32 WIDM 050730 METAR WIDM 050730Z 19004KT 5000 HZ BKN017 31/27 Q1007 NOSIG=
05-Sep-2023 SAID32 WIDM 050800 METAR WIDM 050800Z 19005KT 5000 HZ OVC017 30/27 Q1007 NOSIG=
05-Sep-2023 SAID32 WIDM 050830 METAR WIDM 050830Z 20004KT 5000 HZ OVC017 30/27 Q1007 NOSIG=
05-Sep-2023 SAID32 WIDM 050900 METAR WIDM 050900Z 21007KT 5000 HZ OVC018 30/27 Q1007 NOSIG=
05-Sep-2023 SAID32 WIDM 052100 METAR WIDM 052100Z 16002KT 4000 FU FEW018 25/25 Q1008 NOSIG=
05-Sep-2023 SAID32 WIDM 052130 METAR WIDM 052130Z 16004KT 4000 FU FEW018 25/25 Q1008 NOSIG=
05-Sep-2023 SAID32 WIDM 052200 METAR WIDM 052200Z 16003KT 4000 FU FEW016 25/25 Q1008 NOSIG=
05-Sep-2023 SAID32 WIDM 052230 METAR WIDM 052230Z 17002KT 4000 FU SCT16 25/25 Q1008 NOSIG=
05-Sep-2023 SAID32 WIDM 052300 METAR WIDM 052300Z 00000KT 4000 FU SCT016 25/25 Q1008 NOSIG=
05-Sep-2023 SAID32 WIDM 052330 METAR WIDM 052330Z 00000KT 4000 FU SCT016 26/26 Q1009 NOSIG=
06-Sep-2023 SAID32 WIDM 060000 METAR WIDM 060000Z 00000KT 5000 FU BKN018 26/26 Q1009 NOSIG=
06-Sep-2023 SAID32 WIDM 060030 METAR WIDM 060030Z 00000KT 5000 FU BKN018 27/27 Q1010 NOSIG=
06-Sep-2023 SAID32 WIDM 060100 METAR WIDM 060100Z 18005KT 5000 FU BKN018 29/28 Q1010 NOSIG=
06-Sep-2023 SAID32 WIDM 060130 METAR WIDM 060130Z 17004KT 5000 FU BKN018 29/27 Q1010 NOSIG=
06-Sep-2023 SAID32 WIDM 060200 METAR WIDM 060200Z 16003KT 4000 FU BKN016 29/26 Q1010 NOSIG=
06-Sep-2023 SAID32 WIDM 060230 METAR WIDM 060230Z 18004KT 4000 FU OVC016 30/28 Q1010 NOSIG=
06-Sep-2023 SAID32 WIDM 060300 METAR WIDM 060300Z 18004KT 4000 FU OVC016 30/28 Q1010 NOSIG=
06-Sep-2023 SAID32 WIDM 060330 METAR WIDM 060330Z 19005KT 4000 FU OVC016 30/27 Q1011 NOSIG=
06-Sep-2023 SAID32 WIDM 060400 METAR WIDM 060400Z 20003KT 4000 FU OVC015 30/27 Q1010 NOSIG=
06-Sep-2023 SAID32 WIDM 060430 METAR WIDM 060430Z 20006KT 4000 FU OVC015 29/27 Q1010 NOSIG=
06-Sep-2023 SAID32 WIDM 060500 METAR WIDM 060500Z 20004KT 4000 PREC IN SIGHT FEW012CB OVC015 29/27 Q1010 NOSIG RMK CB TO N=
06-Sep-2023 SAID32 WIDM 060530 METAR WIDM 060530Z 18005KT 3000 -RA BKN012CB OVC015 26/24 Q1010 NOSIG RMK CB OVER FIELD=
06-Sep-2023 SAID32 WIDM 060540 METAR WIDM 060540Z 18006KT 3000 -TSRA BKN012CB OVC015 25/25 Q1010 NOSIG RMK CB OVER FIELD=
06-Sep-2023 SAID32 WIDM 060600 METAR WIDM 060600Z VRB06KT 3000 -TSRA BKN013CB OVC015 25/25 Q1010 NOSIG RMK CB OVER FIELD=
06-Sep-2023 SAID32 WIDM 060600 CCA METAR WIDM 060600Z VRB03KT 3000 -TSRA BKN013CB OVC015 25/25 Q1010 NOSIG RMK CB OVER FIELD=
06-Sep-2023 SAID32 WIDM 060630 METAR WIDM 060630Z 21004KT 4000 -RA BKN014CB OVC015 24/24 Q1009 RETS RMK CB OVER FIELD=
06-Sep-2023 SAID32 WIDM 060700 METAR WIDM 060700Z 19003KT 4000 -RA OVC015 24/24 Q1009 NOSIG=
06-Sep-2023 SAID32 WIDM 060730 METAR WIDM 060730Z 00000KT 4000 -RA OVC015 24/24 Q1009 NOSIG=
06-Sep-2023 SAID32 WIDM 060800 METAR WIDM 060800Z 19004KT 4000 -RA OVC014 24/24 Q1010 NOSIG=
06-Sep-2023 SAID32 WIDM 060830 METAR WIDM 060830Z 17004KT 3500 -RA OVC014 23/23 Q1010 NOSIG=
07-Sep-2023 SAID31 WIDM 070000 METAR WIDM 070000Z 19003KT 6000 BKN017 26/26 Q1010 NOSIG=
07-Sep-2023 SAID31 WIDM 070030 METAR WIDM 070030Z 17008KT 7000 BKN018 26/26 Q1010 NOSIG=
07-Sep-2023 SAID31 WIDM 070100 METAR WIDM 070100Z 18007KT 7000 BKN018 27/27 Q1011 NOSIG=
07-Sep-2023 SAID31 WIDM 070130 METAR WIDM 070130Z 18006KT 7000 BKN018 29/27 Q1011 NOSIG=
07-Sep-2023 SAID31 WIDM 070200 METAR WIDM 070200Z 12005KT 7000 BKN018 30/26 Q1011 NOSIG=
07-Sep-2023 SAID31 WIDM 070230 METAR WIDM 070230Z 18007KT 7000 BKN018 30/27 Q1011 NOSIG=
07-Sep-2023 SAID31 WIDM 070300 METAR WIDM 070300Z 12005KT 8000 BKN018 31/27 Q1011 NOSIG=
07-Sep-2023 SAID31 WIDM 070330 METAR WIDM 070330Z 14006KT 9000 BKN017 31/26 Q1011 NOSIG=
07-Sep-2023 SAID31 WIDM 070400 METAR WIDM 070400Z VRB03KT 9000 BKN016 31/28 Q1011 NOSIG=
07-Sep-2023 SAID32 WIDM 070430 METAR WIDM 070430Z 36007KT 8000 BKN016 31/28 Q1010 NOSIG=
07-Sep-2023 SAID32 WIDM 070500 METAR WIDM 070500Z 36004KT 7000 BKN015 32/28 Q1010 NOSIG=
07-Sep-2023 SAID32 WIDM 070530 METAR WIDM 070530Z 36007KT 6000 OVC015 33/29 Q1009 NOSIG=
07-Sep-2023 SAID32 WIDM 070600 METAR WIDM 070600Z 34004KT 6000 BKN015 31/28 Q1009 NOSIG=
07-Sep-2023 SAID32 WIDM 070630 METAR WIDM 070630Z VRB03KT 7000 BKN016 30/28 Q1008 NOSIG=
07-Sep-2023 SAID32 WIDM 070700 METAR WIDM 070700Z VRB03KT 7000 BKN016 30/28 Q1008 NOSIG=
07-Sep-2023 SAID32 WIDM 070730 METAR WIDM 070730Z 36005KT 7000 BKN016 30/28 Q1008 NOSIG=
07-Sep-2023 SAID32 WIDM 070800 METAR WIDM 070800Z 02005KT 7000 OVC016 29/28 Q1008 NOSIG=
07-Sep-2023 SAID32 WIDM 072100 METAR WIDM 072100Z 17002KT 5000 HZ SCT018 25/25 Q1009 NOSIG=
07-Sep-2023 SAID32 WIDM 072130 METAR WIDM 072130Z 17002KT 5000 HZ SCT018 25/25 Q1009 NOSIG=
07-Sep-2023 SAID32 WIDM 072200 METAR WIDM 072200Z 00000KT 5000 HZ SCT018 25/25 Q1009 NOSIG=
07-Sep-2023 SAID32 WIDM 072230 METAR WIDM 072230Z 00000KT 5000 VCTS FEW016CB SCT017 25/25 Q1009 NOSIG RMK CB TO N, NE=
07-Sep-2023 SAID32 WIDM 072300 METAR WIDM 072300Z 00000KT 5000 VCTS FEW015CB SCT017 25/25 Q1009 NOSIG RMK CB TO N=
07-Sep-2023 SAID32 WIDM 072330 METAR WIDM 072330Z 00000KT 5000 HZ BKN018 26/26 Q1010 NOSIG=
08-Sep-2023 SAID32 WIDM 080000 METAR WIDM 080000Z 15002KT 5000 HZ BKN018 27/27 Q1010 NOSIG=
08-Sep-2023 SAID32 WIDM 080030 METAR WIDM 080030Z 18004KT 5000 HZ BKN018 29/28 Q1010 NOSIG=
08-Sep-2023 SAID32 WIDM 080100 METAR WIDM 080100Z 16005KT 5000 HZ BKN016 29/28 Q1010 NOSIG=
08-Sep-2023 SAID32 WIDM 080130 METAR WIDM 080130Z 16005KT 5000 -RA OVC016 29/28 Q1011 NOSIG=
08-Sep-2023 SAID32 WIDM 080200 METAR WIDM 080200Z 16006KT 5000 HZ BKN016 28/27 Q1011 NOSIG=
08-Sep-2023 SAID32 WIDM 080200 CCA METAR WIDM 080200Z 16006KT 5000 -RA BKN016 28/27 Q1011 NOSIG=
08-Sep-2023 SAID32 WIDM 080230 METAR WIDM 080230Z 17004KT 5000 HZ BKN016 28/27 Q1011 NOSIG=
08-Sep-2023 SAID32 WIDM 080300 METAR WIDM 080300Z 17005KT 5000 HZ BKN017 28/27 Q1011 NOSIG=
08-Sep-2023 SAID32 WIDM 080330 METAR WIDM 080330Z 17004KT 5000 HZ BKN017 28/27 Q1011 NOSIG=
08-Sep-2023 SAID32 WIDM 080400 METAR WIDM 080400Z 18002KT 5000 HZ OVC018 28/27 Q1011 NOSIG=
08-Sep-2023 SAID32 WIDM 080430 METAR WIDM 080430Z 17004KT 5000 HZ BKN018 29/27 Q1010 NOSIG=
08-Sep-2023 SAID32 WIDM 080500 METAR WIDM 080500Z 16004KT 5000 HZ BKN018 29/28 Q1010 NOSIG=
08-Sep-2023 SAID32 WIDM 080530 METAR WIDM 080530Z 18005KT 5000 HZ BKN018 29/27 Q1009 NOSIG=
08-Sep-2023 SAID32 WIDM 080600 METAR WIDM 080600Z 18006KT 5000 HZ BKN018 30/27 Q1009 NOSIG=
08-Sep-2023 SAID32 WIDM 080630 METAR WIDM 080630Z 19008KT 5000 HZ BKN018 30/27 Q1008 NOSIG=
08-Sep-2023 SAID32 WIDM 080700 METAR WIDM 080700Z 18009KT 5000 HZ BKN018 30/27 Q1008 NOSIG=
08-Sep-2023 SAID32 WIDM 080730 METAR WIDM 080730Z 18009KT 5000 HZ BKN018 30/27 Q1007 NOSIG=
08-Sep-2023 SAID32 WIDM 080800 METAR WIDM 080800Z 18008KT 5000 HZ BKN016 31/27 Q1007 NOSIG=
08-Sep-2023 SAID32 WIDM 080830 METAR WIDM 080830Z 18005KT 5000 HZ BKN016 30/27 Q1007 NOSIG=
08-Sep-2023 SAID32 WIDM 080900 METAR WIDM 080900Z 20003KT 5000 HZ BKN016 30/27 Q1007 NOSIG=
08-Sep-2023 SAID32 WIDM 080930 METAR WIDM 080930Z 16004KT 5000 HZ BKN016 30/27 Q1007 NOSIG=
08-Sep-2023 SAID32 WIDM 081000 METAR WIDM 081000Z 19002KT 5000 HZ BKN017 30/26 Q1007 NOSIG=
09-Sep-2023 SAID32 WIDM 090000 METAR WIDM 090000Z 18007KT 6000 SCT018 27/27 Q1009 NOSIG=
09-Sep-2023 SAID32 WIDM 090030 METAR WIDM 090030Z 18007KT 6000 SCT018 29/27 Q1010 NOSIG=
09-Sep-2023 SAID32 WIDM 090100 METAR WIDM 090100Z 18011KT 6000 FEW018 30/27 Q1010 NOSIG=
09-Sep-2023 SAID32 WIDM 090130 METAR WIDM 090130Z 18011KT 6000 FEW018 30/27 Q1010 NOSIG=
09-Sep-2023 SAID32 WIDM 090200 METAR WIDM 090200Z 18012KT 6000 FEW018 31/26 Q1010 NOSIG=
09-Sep-2023 SAID32 WIDM 090230 METAR WIDM 090230Z 17012KT 6000 SCT018 32/26 Q1010 NOSIG=
09-Sep-2023 SAID32 WIDM 090300 METAR WIDM 090300Z 18009KT 6000 BKN017 33/27 Q1010 NOSIG=
09-Sep-2023 SAID32 WIDM 090330 METAR WIDM 090330Z 19008KT 6000 BKN016 30/27 Q1010 NOSIG=
09-Sep-2023 SAID32 WIDM 090400 METAR WIDM 090400Z 20005KT 6000 BKN015 29/27 Q1010 NOSIG=
09-Sep-2023 SAID32 WIDM 090430 METAR WIDM 090430Z VRB05KT 6000 BKN015 31/27 Q1009 NOSIG=
09-Sep-2023 SAID32 WIDM 090500 METAR WIDM 090500Z 20006KT 6000 BKN015 30/27 Q1009 NOSIG=
09-Sep-2023 SAID32 WIDM 090530 METAR WIDM 090530Z 18008KT 4000 SHRA BKN014 30/27 Q1009 NOSIG=
09-Sep-2023 SAID32 WIDM 090600 METAR WIDM 090600Z 15009KT 5000 -RA BKN015 26/26 Q1009 NOSIG=
09-Sep-2023 SAID32 WIDM 090630 METAR WIDM 090630Z 00000KT 6000 BKN016 27/27 Q1008 NOSIG=
09-Sep-2023 SAID32 WIDM 090700 METAR WIDM 090700Z 18012KT 5000 -RA BKN016 27/26 Q1008 NOSIG=
10-Sep-2023 SAID32 WIDM 102100 METAR WIDM 102100Z 00000KT 6000 BKN018 26/26 Q1009 NOSIG=
10-Sep-2023 SAID32 WIDM 102130 METAR WIDM 102130Z 00000KT 6000 BKN018 26/26 Q1009 NOSIG=
10-Sep-2023 SAID32 WIDM 102200 METAR WIDM 102200Z 14005KT 6000 BKN018 26/26 Q1009 NOSIG=
10-Sep-2023 SAID32 WIDM 102230 METAR WIDM 102230Z 16004KT 6000 BKN018 27/26 Q1009 NOSIG=
10-Sep-2023 SAID32 WIDM 102200 METAR WIDM 102300Z 14005KT 6000 BKN018 26/26 Q1009 NOSIG=
10-Sep-2023 SAID32 WIDM 102300 METAR WIDM 102300Z 16004KT 6000 BKN018 26/26 Q1009 NOSIG=
10-Sep-2023 SAID32 WIDM 102330 METAR WIDM 102330Z 20003KT 5000 HZ BKN018 27/26 Q1009 NOSIG=
11-Sep-2023 SAID32 WIDM 110000 METAR WIDM 110000Z 18004KT 5000 HZ BKN018 28/26 Q1010 NOSIG=
11-Sep-2023 SAID32 WIDM 110030 METAR WIDM 110030Z 16003KT 5000 HZ BKN018 29/27 Q1010 NOSIG=
11-Sep-2023 SAID32 WIDM 110130 METAR WIDM 110130Z 18006KT 5000 HZ BKN018 30/27 Q1011 NOSIG=
11-Sep-2023 SAID32 WIDM 110200 METAR WIDM 110200Z 20006KT 5000 HZ BKN018 30/27 Q1011 NOSIG=
11-Sep-2023 SAID32 WIDM 110230 METAR WIDM 110230Z 18008KT 5000 HZ BKN018 30/27 Q1011 NOSIG=
11-Sep-2023 SAID32 WIDM 110300 METAR WIDM 110300Z 18010KT 5000 HZ BKN018 30/27 Q1010 NOSIG=
11-Sep-2023 SAID32 WIDM 110330 METAR WIDM 110330Z 18010KT 5000 HZ BKN018 30/27 Q1010 NOSIG=
11-Sep-2023 SAID32 WIDM 110400 METAR WIDM 110400Z 18012KT 5000 HZ BKN018 31/27 Q1010 NOSIG=
11-Sep-2023 SAID32 WIDM 110430 METAR WIDM 110430Z 17012KT 5000 HZ BKN018 32/27 Q1010 NOSIG=
11-Sep-2023 SAID32 WIDM 110500 METAR WIDM 110500Z 18012KT 5000 HZ BKN018 32/27 Q1010 NOSIG=
11-Sep-2023 SAID32 WIDM 110530 METAR WIDM 110530Z 17010KT 5000 HZ BKN016 31/27 Q1009 NOSIG=
11-Sep-2023 SAID32 WIDM 110600 METAR WIDM 110600Z 18010KT 5000 HZ BKN016 31/27 Q1009 NOSIG=
12-Sep-2023 SAID32 WIDM 120000 METAR WIDM 120000Z 00000KT 5000 HZ BKN018 26/26 Q1010 NOSIG=
12-Sep-2023 SAID32 WIDM 120030 METAR WIDM 120030Z 00000KT 5000 HZ BKN018 28/27 Q1010 NOSIG=
12-Sep-2023 SAID32 WIDM 120100 METAR WIDM 120100Z 19003KT 5000 HZ BKN018 29/28 Q1011 NOSIG=
12-Sep-2023 SAID32 WIDM 120130 METAR WIDM 120130Z 17013KT 5000 HZ BKN018 30/27 Q1011 NOSIG=
12-Sep-2023 SAID32 WIDM 120200 METAR WIDM 120200Z 19010KT 5000 HZ BKN016 31/27 Q1011 NOSIG=
12-Sep-2023 SAID32 WIDM 120230 METAR WIDM 120230Z 17013KT 6000 BKN017 32/26 Q1011 NOSIG=
12-Sep-2023 SAID32 WIDM 120300 METAR WIDM 120300Z 17013KT 6000 BKN017 32/26 Q1011 NOSIG=
12-Sep-2023 SAID32 WIDM 120330 METAR WIDM 120330Z 16017KT 6000 BKN018 32/26 Q1011 NOSIG=
12-Sep-2023 SAID32 WIDM 120400 METAR WIDM 120400Z 18017KT 6000 BKN017 32/27 Q1011 NOSIG=
12-Sep-2023 SAID32 WIDM 120430 METAR WIDM 120430Z 18013KT 6000 BKN017 32/25 Q1010 NOSIG=
12-Sep-2023 SAID32 WIDM 120500 METAR WIDM 120500Z 16015KT 6000 BKN017 32/26 Q1010 NOSIG=
12-Sep-2023 SAID32 WIDM 120530 METAR WIDM 120530Z 18013KT 5000 HZ BKN017 33/26 Q1010 NOSIG=
12-Sep-2023 SAID32 WIDM 120630 METAR WIDM 120630Z 18010KT 5000 HZ BKN016 32/26 Q1009 NOSIG=
12-Sep-2023 SAID32 WIDM 120700 METAR WIDM 120700Z 16007KT 5000 HZ BKN016 31/26 Q1009 NOSIG=
12-Sep-2023 SAID32 WIDM 120730 METAR WIDM 120730Z 21004KT 5000 HZ BKN016 31/26 Q1009 NOSIG=
12-Sep-2023 SAID32 WIDM 120800 METAR WIDM 120800Z 18005KT 5000 HZ BKN016 30/27 Q1008 NOSIG=
12-Sep-2023 SAID32 WIDM 120830 METAR WIDM 120830Z 16006KT 5000 HZ BKN016 30/27 Q1008 NOSIG=
13-Sep-2023 SAID32 WIDM 130000 METAR WIDM 130000Z 00000KT 6000 SCT018 27/27 Q1011 NOSIG=
13-Sep-2023 SAID32 WIDM 130030 METAR WIDM 130030Z 18002KT 6000 SCT018 30/28 Q1011 NOSIG=
13-Sep-2023 SAID32 WIDM 130100 METAR WIDM 130100Z 22002KT 6000 SCT018 29/27 Q1011 NOSIG=
13-Sep-2023 SAID32 WIDM 130130 METAR WIDM 130130Z 23004KT 6000 SCT018 30/27 Q1011 NOSIG=
13-Sep-2023 SAID32 WIDM 130200 METAR WIDM 130200Z 23004KT 180V280 6000 SCT018 31/27 Q1011 NOSIG=
13-Sep-2023 SAID32 WIDM 130230 METAR WIDM 130230Z 23004KT 6000 BKN018 31/27 Q1012 NOSIG=
13-Sep-2023 SAID32 WIDM 130300 METAR WIDM 130300Z 23005KT 200V310 6000 BKN018 31/27 Q1011 NOSIG=
13-Sep-2023 SAID32 WIDM 130330 METAR WIDM 130330Z 23005KT 200V300 6000 BKN017 31/27 Q1011 NOSIG=
13-Sep-2023 SAID32 WIDM 130400 METAR WIDM 130400Z 23008KT 210V320 7000 BKN017 31/27 Q1011 NOSIG=
13-Sep-2023 SAID32 WIDM 130430 METAR WIDM 130430Z 23006KT 210V320 7000 BKN017 32/27 Q1010 NOSIG=
13-Sep-2023 SAID32 WIDM 130500 METAR WIDM 130500Z 23008KT 180V300 7000 BKN017 31/27 Q1010 NOSIG=
13-Sep-2023 SAID32 WIDM 130530 METAR WIDM 130530Z 24009KT 180V320 6000 BKN016 31/28 Q1010 NOSIG=
13-Sep-2023 SAID32 WIDM 130600 METAR WIDM 130600Z 24008KT 200V290 6000 BKN016 31/28 Q1009 NOSIG=
13-Sep-2023 SAID32 WIDM 130630 METAR WIDM 130630Z 23007KT 200V290 6000 BKN016 31/28 Q1009 NOSIG=
13-Sep-2023 SAID32 WIDM 130700 METAR WIDM 130700Z 20007KT 180V270 6000 BKN016 31/28 Q1008 NOSIG=
13-Sep-2023 SAID32 WIDM 130800 METAR WIDM 130800Z 20007KT 200V330 6000 BKN016 31/28 Q1007 NOSIG=
13-Sep-2023 SAID32 WIDM 130830 METAR WIDM 130830Z 23008KT 6000 SCT016 30/28 Q1007 NOSIG
13-Sep-2023 SAID32 WIDM 130900 METAR WIDM 130900Z 20008KT 6000 BKN016 31/28 Q1007 NOSIG=
14-Sep-2023 SAID32 WIDM 140000 METAR WIDM 140000Z 17003KT 5000 HZ SCT018 27/27 Q1010 NOSIG=
14-Sep-2023 SAID32 WIDM 140030 METAR WIDM 140030Z 18006KT 6000 SCT018 28/27 Q1011 NOSIG=
14-Sep-2023 SAID32 WIDM 140100 METAR WIDM 140100Z 20007KT 6000 SCT017 30/27 Q1011 NOSIG=
14-Sep-2023 SAID32 WIDM 140130 METAR WIDM 140130Z 19010KT 6000 SCT017 30/26 Q1011 NOSIG=
14-Sep-2023 SAID32 WIDM 140200 METAR WIDM 140200Z 20005KT 6000 BKN017 31/27 Q1011 NOSIG=
14-Sep-2023 SAID32 WIDM 140230 METAR WIDM 140230Z 21003KT 6000 BKN017 31/27 Q1011 NOSIG=
14-Sep-2023 SAID32 WIDM 140300 METAR WIDM 140300Z 24005KT 6000 BKN017 31/27 Q1011 NOSIG=
14-Sep-2023 SAID32 WIDM 140330 METAR WIDM 140330Z 21010KT 6000 BKN017 31/27 Q1010 NOSIG=
14-Sep-2023 SAID32 WIDM 140400 METAR WIDM 140400Z 22006KT 6000 BKN017 32/27 Q1010 NOSIG=
14-Sep-2023 SAID32 WIDM 140430 METAR WIDM 140430Z 21007KT 6000 BKN016 31/27 Q1010 NOSIG=
14-Sep-2023 SAID32 WIDM 140500 METAR WIDM 140500Z 21007KT 6000 BKN016 32/27 Q1010 NOSIG=
14-Sep-2023 SAID32 WIDM 140530 METAR WIDM 140530Z 19011KT 6000 BKN016 31/27 Q1009 NOSIG=
14-Sep-2023 SAID32 WIDM 140600 METAR WIDM 140600Z 21000KT 180V290 6000 BKN016 31/27 Q1009 NOSIG=
14-Sep-2023 SAID32 WIDM 140600 CCA METAR WIDM 140600Z 21009KT 180V290 6000 BKN016 31/27 Q1009 NOSIG=
14-Sep-2023 SAID32 WIDM 140630 METAR WIDM 140630Z 21004KT 200V290 6000 BKN016 31/27 Q1009 NOSIG=
14-Sep-2023 SAID32 WIDM 140700 METAR WIDM 140700Z 23006KT 210V290 6000 BKN016 31/27 Q1008 NOSIG=
14-Sep-2023 SAID32 WIDM 140730 METAR WIDM 140730Z 23008KT 6000 BKN016 31/27 Q1008 NOSIG=
14-Sep-2023 SAID32 WIDM 140800 METAR WIDM 140800Z 20006KT 6000 BKN016 31/27 Q1008 NOSIG=
14-Sep-2023 SAID32 WIDM 140830 METAR WIDM 140830Z 23006KT 6000 BKN016 31/27 Q1008 NOSIG=
14-Sep-2023 SAID32 WIDM 140900 METAR WIDM 140900Z 27005KT 6000 BKN015 31/27 Q1007 NOSIG=
14-Sep-2023 SAID32 WIDM 140930 METAR WIDM 140930Z 21004KT 6000 BKN015 30/27 Q1007 NOSIG=
15-Sep-2023 SAID32 WIDM 150000 METAR WIDM 150000Z 18002KT 6000 FEW018 27/27 Q1010 NOSIG=  
15-Sep-2023 SAID32 WIDM 150030 METAR WIDM 150030Z 16004KT 6000 FEW018 29/27 Q1010 NOSIG=  
15-Sep-2023 SAID32 WIDM 150100 METAR WIDM 150100Z 16005KT 6000 SCT018 30/27 Q1010 NOSIG=  
15-Sep-2023 SAID32 WIDM 150130 METAR WIDM 150130Z 16003KT 6000 BKN017 30/27 Q1010 NOSIG=  
15-Sep-2023 SAID32 WIDM 150200 METAR WIDM 150200Z 20002KT 6000 BKN016 29/27 Q1010 NOSIG=  
15-Sep-2023 SAID32 WIDM 150300 METAR WIDM 150300Z 22006KT 6000 BKN016 30/27 Q1010 NOSIG=  
15-Sep-2023 SAID32 WIDM 150330 METAR WIDM 150330Z 22004KT 6000 BKN015 30/28 Q1010 NOSIG=  
15-Sep-2023 SAID32 WIDM 150400 METAR WIDM 150400Z 20005KT 6000 BKN015 29/28 Q1010 -SHRA NOSIG=  
15-Sep-2023 SAID32 WIDM 150430 METAR WIDM 150430Z 21005KT 6000 BKN015 31/28 Q1010 NOSIG=  
15-Sep-2023 SAID32 WIDM 150500 METAR WIDM 150500Z 23004KT 200V280 6000 BKN015 32/27 Q1009 NOSIG=  
15-Sep-2023 SAID32 WIDM 150530 METAR WIDM 150530Z 20006KT 6000 BKN015 32/28 Q1009 NOSIG=  
15-Sep-2023 SAID32 WIDM 150600 METAR WIDM 150600Z 23004KT 6000 BKN015 32/28 Q1008 NOSIG=  
15-Sep-2023 SAID32 WIDM 150630 METAR WIDM 150630Z 21005KT 6000 BKN016 32/28 Q1008 NOSIG=  
15-Sep-2023 SAID32 WIDM 150700 METAR WIDM 150700Z 21005KT 6000 BKN016 32/28 Q1007 NOSIG=  
15-Sep-2023 SAID32 WIDM 150730 METAR WIDM 150730Z 21005KT 6000 BKN016 31/28 Q1007 NOSIG=  
15-Sep-2023 SAID32 WIDM 150800 METAR WIDM 150800Z 27002KT 6000 BKN016 31/28 Q1007 NOSIG=  
15-Sep-2023 SAID32 WIDM 150900 METAR WIDM 150900Z 23002KT 6000 BKN016 30/27 Q1007 NOSIG=  
15-Sep-2023 SAID32 WIDM 150930 METAR WIDM 150930Z 20004KT 6000 BKN016 30/28 Q1007 NOSIG=  
16-Sep-2023 SAID32 WIDM 160000 METAR WIDM 160000Z 00000KT 5000 HZ BKN017 26/26 Q1010 NOSIG=  
16-Sep-2023 SAID32 WIDM 160030 METAR WIDM 160030Z 00000KT 5000 HZ BKN017 28/28 Q1010 NOSIG=  
16-Sep-2023 SAID32 WIDM 160100 METAR WIDM 160100Z 19006KT 5000 HZ BKN017 29/28 Q1010 NOSIG=  
16-Sep-2023 SAID32 WIDM 160130 METAR WIDM 160130Z 18010KT 5000 HZ BKN017 30/27 Q1011 NOSIG=  
16-Sep-2023 SAID32 WIDM 160200 METAR WIDM 160200Z 17010KT 5000 HZ BKN017 31/28 Q1011 NOSIG=  
16-Sep-2023 SAID32 WIDM 160230 METAR WIDM 160230Z 16010KT 5000 HZ BKN017 32/27 Q1011 NOSIG=  
16-Sep-2023 SAID32 WIDM 160300 METAR WIDM 160300Z 16010KT 5000 HZ BKN018 33/27 Q1011 NOSIG=  
16-Sep-2023 SAID32 WIDM 160330 METAR WIDM 160330Z 19009KT 5000 HZ BKN017 33/26 Q1011 NOSIG=  
16-Sep-2023 SAID32 WIDM 160400 METAR WIDM 160400Z 12008KT 5000 HZ BKN017 33/28 Q1010 NOSIG=  
16-Sep-2023 SAID32 WIDM 160430 METAR WIDM 160430Z 13010KT 5000 HZ BKN017 32/28 Q1010 NOSIG=  
16-Sep-2023 SAID32 WIDM 160500 METAR WIDM 160500Z 18012KT 5000 HZ BKN017 32/26 Q1010 NOSIG=  
16-Sep-2023 SAID32 WIDM 160530 METAR WIDM 160530Z 15009KT 5000 HZ BKN017 32/27 Q1009 NOSIG=  
16-Sep-2023 SAID32 WIDM 160600 METAR WIDM 160600Z 15010KT 5000 HZ BKN016 32/27 Q1009 NOSIG=  
16-Sep-2023 SAID32 WIDM 160630 METAR WIDM 160630Z 15009KT 5000 HZ BKN017 31/27 Q1008 NOSIG=  
16-Sep-2023 SAID32 WIDM 160700 METAR WIDM 160700Z 13009KT 5000 HZ SCT013CB BKN016 32/27 Q1009 NOSIG RMK CB TO NW=  
16-Sep-2023 SAID32 WIDM 160730 METAR WIDM 160730Z 18005KT 5000 HZ SCT013CB BKN014 31/27 Q1008 NOSIG RMK CB OVER THE FIELD=  
16-Sep-2023 SPID32 WIDM 160745 SPECI WIDM 160745Z 33005KT 4000 RA BKN013CB BKN014 29/27 Q1008 NOSIG RMK CB OVER THE FIELD=  
16-Sep-2023 SAID32 WIDM 160800 METAR WIDM 160800Z 30005KT 2000 TSRA BKN013CB BKN014 28/28 Q1008 NOSIG RMK CB OVER THE FIELD=  
18-Sep-2023 SAID32 WIDM 180000 METAR WIDM 180000Z 16002KT 6000 BKN018 26/26 Q1009 NOSIG=  
18-Sep-2023 SAID32 WIDM 180030 METAR WIDM 180030Z 18002KT 6000 BKN018 27/27 Q1009 NOSIG=  
18-Sep-2023 SAID32 WIDM 180100 METAR WIDM 180100Z 18003KT 7000 BKN018 29/28 Q1010 NOSIG=  
18-Sep-2023 SAID32 WIDM 180130 METAR WIDM 180130Z 12006KT 7000 BKN017 30/27 Q1010 NOSIG=  
18-Sep-2023 SAID32 WIDM 180200 METAR WIDM 180200Z 11006KT 7000 BKN017 31/27 Q1010 NOSIG=  
18-Sep-2023 SAID32 WIDM 180230 METAR WIDM 180230Z 15007KT 7000 BKN017 31/27 Q1010 NOSIG=  
18-Sep-2023 SAID32 WIDM 180300 METAR WIDM 180300Z 13005KT 90V180 7000 BKN017 32/26 Q1010 NOSIG=  
18-Sep-2023 SAID32 WIDM 180300 CCA METAR WIDM 180300Z 13005KT 090V180 7000 BKN017 32/26 Q1010 NOSIG=  
18-Sep-2023 SAID32 WIDM 180330 METAR WIDM 180330Z 10006KT 070V180 7000 BKN017 32/26 Q1010 NOSIG=  
18-Sep-2023 SAID32 WIDM 180400 METAR WIDM 180400Z 07005KT 040V150 7000 BKN017 32/26 Q1010 NOSIG=  
18-Sep-2023 SAID32 WIDM 180430 METAR WIDM 180430Z 07006KT 050V150 7000 BKN017 32/26 Q1009 NOSIG=  
18-Sep-2023 SAID32 WIDM 180500 METAR WIDM 180500Z 13006KT 6000 BKN016 31/26 Q1009 NOSIG=  
18-Sep-2023 SAID32 WIDM 180530 METAR WIDM 180530Z 23009KT 6000 VCTS SCT013CB BKN015 28/26 Q1009 NOSIG=  
18-Sep-2023 SAID32 WIDM 180530 CCA METAR WIDM 180530Z 23009KT 6000 VCTS SCT013CB BKN015 28/26 Q1009 NOSIG RMK CB TO W-NW=  
18-Sep-2023 SAID32 WIDM 180600 METAR WIDM 180600Z 23007KT 6000 BKN014CB BKN015 28/25 Q1009 NOSIG RMK CB TO W=  
19-Sep-2023 SAID32 WIDM 190000 METAR WIDM 190000Z 00000KT 6000 BKN012 26/26 Q1010 NOSIG=  
19-Sep-2023 SAID32 WIDM 190030 METAR WIDM 190030Z 00000KT 6000 BKN014 27/27 Q1010 NOSIG  
19-Sep-2023 SAID32 WIDM 190100 METAR WIDM 190100Z 00000KT 6000 BKN015 29/28 Q1010 NOSIG  
19-Sep-2023 SAID32 WIDM 190130 METAR WIDM 190130Z 00000KT 6000 BKN015 29/28 Q1010 NOSIG  
19-Sep-2023 SAID32 WIDM 190200 METAR WIDM 190200Z 00000KT 7000 BKN017 30/28 Q1011 NOSIG  
19-Sep-2023 SAID32 WIDM 190230 METAR WIDM 190230Z 08005KT 7000 BKN018 31/27 Q1010 NOSIG  
19-Sep-2023 SAID32 WIDM 190300 METAR WIDM 190300Z 02003KT 7000 BKN018 32/28 Q1010 NOSIG  
19-Sep-2023 SAID32 WIDM 190330 METAR WIDM 190330Z 35004KT 7000 BKN017 30/28 Q1010 NOSIG  
19-Sep-2023 SAID32 WIDM 190400 METAR WIDM 190400Z 36004KT 7000 FEW015CB BKN017 30/27 Q1010 NOSIG RMK CB TO SW=  
19-Sep-2023 SAID32 WIDM 190430 METAR WIDM 190430Z 36003KT 7000 FEW015CB BKN017 31/28 Q1010 NOSIG RMK CB TO SW=  
19-Sep-2023 SAID32 WIDM 190500 METAR WIDM 190500Z 26004KT 7000 BKN017 29/27Q1009 NOSIG=  
19-Sep-2023 SAID32 WIDM 190530 METAR WIDM 190530Z 22004KT 7000 BKN017 30/27Q1009 NOSIG=  
19-Sep-2023 SAID32 WIDM 190600 METAR WIDM 190600Z 36004KT 7000 BKN018 32/27Q1008 NOSIG=  
19-Sep-2023 SAID32 WIDM 190630 METAR WIDM 190630Z 33004KT 7000 BKN018 32/28Q1008 NOSIG=  
19-Sep-2023 SAID32 WIDM 190700 METAR WIDM 190700Z 36004KT 7000 BKN018 33/28Q1008 NOSIG=  
19-Sep-2023 SAID32 WIDM 190730 METAR WIDM 190730Z 34004KT 7000 BKN018 33/29 Q1008 NOSIG=  
19-Sep-2023 SAID32 WIDM 190800 METAR WIDM 190800Z 34003KT 5000 BKN018 33/28 Q1008 NOSIG=  
20-Sep-2023 SAID32 WIDM 200000 METAR WIDM 200000Z 16002KT 6000 BKN016 26/26 Q1010 NOSIG -RERA=  
20-Sep-2023 SAID32 WIDM 200000 CCA METAR WIDM 200000Z 16002KT 6000 BKN016 26/26 Q1010 -RERA NOSIG=  
20-Sep-2023 SAID32 WIDM 200030 METAR WIDM 200030Z 15003KT 6000 BKN016 27/27 Q1010 NOSIG=  
20-Sep-2023 SAID32 WIDM 200100 METAR WIDM 200100Z 09004KT 6000 BKN016 29/28 Q1010 NOSIG=  
20-Sep-2023 SAID32 WIDM 200130 METAR WIDM 200130Z 08004KT 6000 BKN016 29/28 Q1010 NOSIG=  
20-Sep-2023 SAID32 WIDM 200200 METAR WIDM 200200Z 09007KT 6000 BKN016 30/28 Q1010 NOSIG=  
20-Sep-2023 SAID32 WIDM 200230 METAR WIDM 200230Z 09004KT 6000 BKN016 30/27 Q1010 NOSIG=  
20-Sep-2023 SAID32 WIDM 200300 METAR WIDM 200300Z 09004KT 6000 BKN016 31/28 Q1010 NOSIG=  
20-Sep-2023 SAID32 WIDM 200330 METAR WIDM 200330Z 09006KT 6000 BKN016 31/27 Q1010 NOSIG=  
20-Sep-2023 SAID32 WIDM 200400 METAR WIDM 200400Z 15005KT 080V180 6000 BKN016 30/27 Q1009 NOSIG=  
20-Sep-2023 SAID32 WIDM 200430 METAR WIDM 200430Z 05002KT 360V150 6000 BKN016 31/27 Q1009 NOSIG=  
20-Sep-2023 SAID32 WIDM 200500 METAR WIDM 200500Z 12006KT 6000 BKN016 30/27 Q1008 NOSIG=  
20-Sep-2023 SAID32 WIDM 200530 METAR WIDM 200530Z 09005KT 6000 FEW014CB BKN015 30/27 Q1008 NOSIG RMK CB TO W=  
20-Sep-2023 SAID32 WIDM 200600 METAR WIDM 200600Z 13007KT 050V200 6000 SCT013CB BKN015 29/27 Q1008 NOSIG RMK CB TO SW-W=  
20-Sep-2023 SAID32 WIDM 200630 METAR WIDM 200630Z 17003KT 100V210 5000 VCRA SCT013CB BKN015 27/27 Q1008 RERA NOSIG RMK CB TO SW-W=  
20-Sep-2023 SAID32 WIDM 200700 METAR WIDM 200700Z 18003KT 6000 SCT013CB BKN015 28/28 Q1008 NOSIG RMK CB TO S-W=  
20-Sep-2023 SAID32 WIDM 200730 METAR WIDM 200730Z 00000KT 6000 BKN016 28/27 Q1007 NOSIG=  
20-Sep-2023 SAID32 WIDM 200800 METAR WIDM 200800Z 18002KT 6000 BKN016 29/27 Q1007 NOSIG=  
20-Sep-2023 SAID32 WIDM 200830 METAR WIDM 200830Z 21002KT 6000 BKN016 29/27 Q1007 NOSIG=  
21-Sep-2023 SAID32 WIDM 210000 METAR WIDM 210000Z 00000KT 7000 FEW014CB SCT014 28/27 Q1009 NOSIG RMK CB TO SW=  
21-Sep-2023 SAID32 WIDM 210030 METAR WIDM 210030Z 25002KT 7000 BKN014 29/27 Q1009 NOSIG=  
21-Sep-2023 SAID32 WIDM 210100 METAR WIDM 210100Z 25003KT 7000 BKN015 30/28 Q1010 NOSIG=  
21-Sep-2023 SAID32 WIDM 210130 METAR WIDM 210130Z 24003KT 7000 BKN015 29/27 Q1010 NOSIG=  
21-Sep-2023 SAID32 WIDM 210200 METAR WIDM 210200Z 21004KT 7000 BKN015 30/27 Q1010 NOSIG=  
21-Sep-2023 SAID32 WIDM 210230 METAR WIDM 210230Z 25004KT 7000 BKN016 31/27 Q1010 NOSIG=  
21-Sep-2023 SAID32 WIDM 210300 METAR WIDM 210300Z 25011KT 4000 PREC IN SIGHT BKN016 31/27 Q1010 NOSIG=  
21-Sep-2023 SAID32 WIDM 210300 CCA METAR WIDM 210300Z 25011KT 4000 VCSH BKN016 30/27 Q1010 NOSIG=  
21-Sep-2023 SAID32 WIDM 210330 METAR WIDM 210330Z 25006KT 7000 BKN016 30/26 Q1010 NOSIG=  
21-Sep-2023 SAID32 WIDM 210400 METAR WIDM 210400Z 23005KT 7000 BKN016 30/26 Q1010 NOSIG=  
21-Sep-2023 SAID32 WIDM 210430 METAR WIDM 210430Z 26004KT 7000 BKN016 30/27 Q1010 NOSIG=  
21-Sep-2023 SAID32 WIDM 210500 METAR WIDM 210500Z 24002KT 5000 VCRA BKN016 27/27 Q1010 NOSIG=  
21-Sep-2023 SAID32 WIDM 210530 METAR WIDM 210530Z 25011KT 3000 VCRA FEW014CB BKN016 27/27 Q1010 NOSIG RMK CB TO SW=  
21-Sep-2023 SAID32 WIDM 210600 METAR WIDM 210600Z 25003KT 5000 BKN017 26/26 Q1008 NOSIG=  
21-Sep-2023 SAID32 WIDM 210630 METAR WIDM 210630Z 24003KT 3000 VCRA BKN016 27/27 Q1008 NOSIG=  
21-Sep-2023 SAID32 WIDM 210700 METAR WIDM 210700Z 27002KT 4000 VCRA BKN016 25/25 Q1008 NOSIG=  
21-Sep-2023 SAID32 WIDM 210730 METAR WIDM 210730Z 00000KT 5000 VCRA BKN016 26/26 Q1008 NOSIG=  
21-Sep-2023 SAID32 WIDM 210800 METAR WIDM 210800Z 18002KT 5000 VCRA BKN016 27/26 Q1007 NOSIG=  
21-Sep-2023 SAID32 WIDM 210830 METAR WIDM 210830Z 18002KT 6000 BKN016 27/26 Q1008 NOSIG=  
21-Sep-2023 SAID32 WIDM 210900 METAR WIDM 210900Z 00000KT 6000 OVC017 27/26 Q1008 NOSIG=  
22-Sep-2023 SAID32 WIDM 220000 METAR WIDM 220000Z 19007KT 6000 FEW014CB OVC015 28/26 Q1009 NOSIG RMK CB TO N & SE=  
22-Sep-2023 SAID32 WIDM 220030 METAR WIDM 220030Z 20006KT 6000 FEW014CB OVC015 28/27 Q1009 NOSIG RMK CB TO N - NE=  
22-Sep-2023 SAID32 WIDM 220100 METAR WIDM 220100Z 20006KT 6000 FEW014CB OVC015 28/26 Q1010 NOSIG RMK CB TO N - NE=  
22-Sep-2023 SAID32 WIDM 220130 METAR WIDM 220130Z 20006KT 6000 FEW014CB OVC015 28/27 Q1010 NOSIG RMK CB TO NW - NE=  
22-Sep-2023 SAID32 WIDM 220200 METAR WIDM 220200Z 21009KT 6000 FEW014CB OVC015 28/27 Q1010 NOSIG RMK CB TO NW - NE=  
22-Sep-2023 SAID32 WIDM 220230 METAR WIDM 220230Z 18006KT 5000 -RA FEW014CB OVC015 27/27 Q1011 NOSIG RMK CB TO N - NE=  
22-Sep-2023 SAID32 WIDM 220300 METAR WIDM 220300Z 22004KT 5000 -RA FEW014CB OVC015 27/27 Q1011 NOSIG RMK CB TO NW - NE=  
22-Sep-2023 SAID32 WIDM 220330 METAR WIDM 220330Z 20003KT 5000 -RA FEW014CB OVC015 27/27 Q1010 NOSIG RMK CB TO N-NE=  
22-Sep-2023 SAID32 WIDM 220400 METAR WIDM 220400Z 180003KT 4000 -RA FEW013CB OVC014 26/26 Q1010 NOSIG RMK CB TO N-NE=  
22-Sep-2023 SAID32 WIDM 220430 METAR WIDM 220430Z 00000KT 3000 -RA FEW013CB OVC014 26/26 Q1010 NOSIG RMK CB TO N-NE=  
22-Sep-2023 SAID32 WIDM 220500 METAR WIDM 220500Z 00000KT 3000 RA FEW013CB OVC014 26/26 Q1010 NOSIG RMK CB TO NE & S=  
22-Sep-2023 SAID32 WIDM 220530 METAR WIDM 220530Z VRB02KT 2500 -RA FEW013CB OVC013 26/26 Q1009 NOSIG RMK CB TO SE-S=  
22-Sep-2023 SAID32 WIDM 220600 METAR WIDM 220600Z 18004KT 1000 +RA BKN012CB OVC014 25/25 Q1009 NOSIG RMK CB OVER THE FIELD=  
22-Sep-2023 SAID32 WIDM 220630 METAR WIDM 220630Z 00000KT 800 +RA BKN010CB OVC013 25/25 Q1009 NOSIG RMK CB OVER THE FIELD=  
22-Sep-2023 SAID32 WIDM 220700 METAR WIDM 220700Z 00000KT 2500 -RA BKN010CB OVC013 25/25 Q1009 NOSIG RMK CB OVER THE FIELD=  
22-Sep-2023 SAID32 WIDM 220730 METAR WIDM 220730Z 18003KT 2500 -RA BKN010CB OVC013 25/25 Q1009 NOSIG RMK CB OVER THE FIELD=  
22-Sep-2023 SAID32 WIDM 220800 METAR WIDM 220800Z 16005KT 4000 -RA OVC011 25/25 Q1009 NOSIG=  
22-Sep-2023 SAID32 WIDM 220830 METAR WIDM 220830Z 18005KT 4000 -RA OVC011 25/25 Q1009 NOSIG=  
22-Sep-2023 SAID32 WIDM 220900 METAR WIDM 220900Z 18004KT 4000 -RA OVC012 25/25 Q1009 NOSIG=  
23-Sep-2023 SAID32 WIDM 230000 METAR WIDM 230000Z 18005KT 5000 HZ BKN018 26/25 Q1009 NOSIG=  
23-Sep-2023 SAID32 WIDM 230030 METAR WIDM 230030Z 18005KT 5000 HZ BKN018 27/27 Q1010 NOSIG=  
23-Sep-2023 SAID32 WIDM 230100 METAR WIDM 230100Z 18005KT 4000 HZ BKN018 28/27 Q1010 NOSIG=  
23-Sep-2023 SAID32 WIDM 230130 METAR WIDM 230130Z 18007KT 4000 HZ BKN018 28/27 Q1010 NOSIG=  
23-Sep-2023 SAID32 WIDM 230200 METAR WIDM 230200Z 18005KT 4000 HZ BKN018 29/28 Q1010 NOSIG=  
23-Sep-2023 SAID32 WIDM 230230 METAR WIDM 230230Z 18006KT 4000 HZ BKN018 30/28 Q1010 NOSIG=  
23-Sep-2023 SAID32 WIDM 230300 METAR WIDM 230300Z 18007KT 4000 HZ BKN018 30/28 Q1010 NOSIG=  
23-Sep-2023 SAID32 WIDM 230330 METAR WIDM 230330Z 18006KT 4000 HZ BKN018 30/28 Q1009 NOSIG=  
23-Sep-2023 SAID32 WIDM 230400 METAR WIDM 230400Z 18003KT 4000 HZ BKN018 31/28 Q1009 NOSIG=  
23-Sep-2023 SAID32 WIDM 230430 METAR WIDM 230430Z 18006KT 4000 HZ BKN018 31/28 Q1009 NOSIG=  
23-Sep-2023 SAID32 WIDM 230500 METAR WIDM 230500Z 18006KT 4000 HZ BKN018 31/28 Q1009 NOSIG=  
23-Sep-2023 SAID32 WIDM 230530 METAR WIDM 230530Z 25007KT 4000 HZ BKN018 31/28 Q1009 NOSIG=  
23-Sep-2023 SAID32 WIDM 230600 METAR WIDM 230600Z 24008KT 5000 HZ BKN018 31/28 Q1008 NOSIG=  
23-Sep-2023 SAID32 WIDM 230630 METAR WIDM 230630Z 24008KT 5000 HZ BKN018 31/28 Q1008 NOSIG=  
23-Sep-2023 SAID32 WIDM 230730 METAR WIDM 230730Z 25007KT 5000 HZ BKN018 31/27 Q1007 NOSIG=  
23-Sep-2023 SAID32 WIDM 230800 METAR WIDM 230800Z 25007KT 5000 HZ BKN018 31/27 Q1008 NOSIG=  
25-Sep-2023 SAID32 WIDM 250000 METAR WIDM 250000Z 18003KT 5000 HZ SCT018 25/25 Q1009 NOSIG=  
25-Sep-2023 SAID32 WIDM 250030 METAR WIDM 250030Z 17005KT 5000 HZ SCT018 28/27 Q1009 NOSIG=  
25-Sep-2023 SAID32 WIDM 250100 METAR WIDM 250100Z 20005KT 5000 HZ SCT018 30/27 Q1010 NOSIG=  
25-Sep-2023 SAID32 WIDM 250130 METAR WIDM 250130Z 21005KT 5000 HZ SCT018 30/27 Q1010 NOSIG=  
25-Sep-2023 SAID32 WIDM 250200 METAR WIDM 250200Z 17008KT 5000 HZ BKN018 30/27 Q1010 NOSIG=  
25-Sep-2023 SAID32 WIDM 250230 METAR WIDM 250230Z 20007KT 5000 HZ BKN018 30/27 Q1010 NOSIG=  
25-Sep-2023 SAID32 WIDM 250300 METAR WIDM 250300Z 20008KT 5000 HZ BKN018 31/27 Q1010 NOSIG=  
25-Sep-2023 SAID32 WIDM 250330 METAR WIDM 250330Z 18008KT 5000 HZ BKN018 31/27 Q1009 NOSIG=  
25-Sep-2023 SAID32 WIDM 250400 METAR WIDM 250400Z 18009KT 5000 HZ BKN018 32/28 Q1009 NOSIG=  
25-Sep-2023 SAID32 WIDM 250430 METAR WIDM 250430Z 20008KT 5000 HZ BKN018 31/28 Q1009 NOSIG=  
25-Sep-2023 SAID32 WIDM 250500 METAR WIDM 250500Z 21009KT 5000 HZ BKN018 31/27 Q1008 NOSIG=  
25-Sep-2023 SAID32 WIDM 250530 METAR WIDM 250530Z 22008KT 5000 HZ BKN017 31/27 Q1008 NOSIG=  
25-Sep-2023 SAID32 WIDM 250600 METAR WIDM 250600Z 21009KT 5000 HZ BKN017 31/27 Q1007 NOSIG=  
26-Sep-2023 SAID32 WIDM 260000 METAR WIDM 260000Z 19007KT 6000 BKN018 28/26 Q1009 NOSIG=  
26-Sep-2023 SAID32 WIDM 260030 METAR WIDM 260030Z 18006KT 6000 BKN018 28/26 Q1009 NOSIG=  
26-Sep-2023 SAID32 WIDM 260100 METAR WIDM 260100Z 18007KT 6000 BKN018 29/27 Q1009 NOSIG=  
26-Sep-2023 SAID32 WIDM 260130 METAR WIDM 260130Z 18006KT 6000 BKN018 30/28 Q1010 NOSIG=  
26-Sep-2023 SAID32 WIDM 260200 METAR WIDM 260200Z 18010KT 5000 HZ BKN018 30/27 Q1010 NOSIG=  
26-Sep-2023 SAID32 WIDM 260230 METAR WIDM 260230Z 18008KT 5000 HZ BKN018 31/27 Q1010 NOSIG=  
26-Sep-2023 SAID32 WIDM 260300 METAR WIDM 260300Z 18010KT 5000 HZ BKN018 32/28 Q1009 NOSIG=  
26-Sep-2023 SAID32 WIDM 260330 METAR WIDM 260330Z 18010KT 5000 HZ BKN018 31/27 Q1009 NOSIG=  
26-Sep-2023 SAID32 WIDM 260400 METAR WIDM 260400Z 18012KT 5000 HZ BKN018 31/27 Q1009 NOSIG=  
26-Sep-2023 SAID32 WIDM 260430 METAR WIDM 260430Z 18007KT 5000 HZ BKN018 31/27 Q1009 NOSIG=  
26-Sep-2023 SAID32 WIDM 260500 METAR WIDM 260500Z 18003KT 5000 HZ BKN018 31/27 Q1008 NOSIG=  
26-Sep-2023 SAID32 WIDM 260530 METAR WIDM 260530Z 18008KT 5000 HZ BKN018 31/27 Q1008 NOSIG=  
26-Sep-2023 SAID32 WIDM 260600 METAR WIDM 260600Z 18010KT 5000 HZ BKN018 31/28 Q1007 NOSIG=  
26-Sep-2023 SAID32 WIDM 260630 METAR WIDM 260630Z 18012KT 5000 HZ BKN018 31/27 Q1007 NOSIG=  
26-Sep-2023 SAID32 WIDM 260700 METAR WIDM 260700Z 18012KT 5000 HZ BKN018 30/27 Q1006 NOSIG=  
26-Sep-2023 SAID32 WIDM 260730 METAR WIDM 260730Z 18012KT 5000 HZ BKN018 30/27 Q1006 NOSIG=  
26-Sep-2023 SAID32 WIDM 260800 METAR WIDM 260800Z 17012KT 6000 BKN018 30/27 Q1006 NOSIG=  
27-Sep-2023 SAID32 WIDM 270000 METAR WIDM 270000Z 18003KT 5000 HZ SCT018 26/26 Q1008 NOSIG=  
27-Sep-2023 SAID32 WIDM 270030 METAR WIDM 270030Z 20004KT 5000 HZ SCT018 28/27 Q1009 NOSIG=  
27-Sep-2023 SAID32 WIDM 270100 METAR WIDM 270100Z 20007KT 5000 HZ BKN018 29/27 Q1009 NOSIG=  
27-Sep-2023 SAID32 WIDM 270130 METAR WIDM 270130Z 18007KT 5000 HZ BKN017 29/27 Q1009 NOSIG=  
27-Sep-2023 SAID32 WIDM 270130 CCA METAR WIDM 270130Z 18007KT 5000 HZ BKN017 30/27 Q1009 NOSIG=  
27-Sep-2023 SAID32 WIDM 270200 METAR WIDM 270200Z 18010KT 5000 HZ BKN017 31/27 Q1009 NOSIG=  
27-Sep-2023 SAID32 WIDM 270230 METAR WIDM 270230Z 17012KT 5000 HZ BKN017 31/27 Q1009 NOSIG=  
27-Sep-2023 SAID32 WIDM 270300 METAR WIDM 270300Z 18010KT 5000 HZ BKN017 31/27 Q1009 NOSIG=  
27-Sep-2023 SAID32 WIDM 270330 METAR WIDM 270330Z 17010KT 5000 HZ BKN017 31/27 Q1008 NOSIG=  
27-Sep-2023 SAID32 WIDM 270400 METAR WIDM 270400Z 18010KT 5000 HZ BKN017 31/27 Q1008 NOSIG=  
27-Sep-2023 SAID32 WIDM 270430 METAR WIDM 270430Z 17013KT 5000 HZ BKN017 31/28 Q1008 NOSIG=  
27-Sep-2023 SAID32 WIDM 270500 METAR WIDM 270500Z 15009KT 5000 HZ BKN017 32/28 Q1007 NOSIG=  
27-Sep-2023 SAID32 WIDM 270530 METAR WIDM 270530Z 18010KT 5000 HZ BKN017 32/28 Q1007 NOSIG=  
27-Sep-2023 SAID32 WIDM 270600 METAR WIDM 270600Z 18009KT 5000 HZ BKN017 32/28 Q1007 NOSIG=  
27-Sep-2023 SAID32 WIDM 270630 METAR WIDM 270630Z 17010KT 5000 HZ BKN017 32/27 Q1006 NOSIG=  
27-Sep-2023 SAID32 WIDM 270700 METAR WIDM 270700Z 20009KT 5000 HZ BKN017 31/28 Q1006 NOSIG=  
27-Sep-2023 SAID32 WIDM 270730 METAR WIDM 270730Z 18010KT 5000 HZ BKN017 32/28 Q1006 NOSIG=  
27-Sep-2023 SAID32 WIDM 270800 METAR WIDM 270800Z 15007KT 5000 HZ BKN017 31/27 Q1006 NOSIG=  
27-Sep-2023 SAID32 WIDM 270830 METAR WIDM 270830Z 20007KT 4000 HZ BKN016 30/27 Q1006 NOSIG=  
27-Sep-2023 SAID32 WIDM 270900 METAR WIDM 270900Z 20007KT 4000 HZ BKN016 30/27 Q1006 NOSIG=  
27-Sep-2023 SAID32 WIDM 270900 CCA METAR WIDM 270900Z 18007KT 4000 HZ BKN016 31/27 Q1006 NOSIG=  
27-Sep-2023 SAID32 WIDM 270930 METAR WIDM 270930Z 18007KT 4000 HZ BKN016 30/27 Q1006 NOSIG=  
29-Sep-2023 SAID32 WIDM 290000 METAR WIDM 290000Z 00000KT 3000 HZ SCT016 26/26 Q1011 NOSIG=  
29-Sep-2023 SAID32 WIDM 290030 METAR WIDM 290030Z 00000KT 3000 HZ SCT016 28/28 Q1011 NOSIG=  
29-Sep-2023 SAID32 WIDM 290100 METAR WIDM 290100Z 00000KT 3000 HZ SCT016 29/29 Q1011 NOSIG=  
29-Sep-2023 SAID32 WIDM 290130 METAR WIDM 290130Z 22003KT 4000 HZ BKN016 30/27 Q1011 NOSIG=  
29-Sep-2023 SAID32 WIDM 290200 METAR WIDM 290200Z 20007KT 4000 HZ BKN016 31/28 Q1012 NOSIG=  
29-Sep-2023 SAID32 WIDM 290230 METAR WIDM 290230Z 20007KT 4000 HZ BKN016 31/28 Q1012 NOSIG=  
29-Sep-2023 SAID32 WIDM 290300 METAR WIDM 290300Z 22004KT 4000 HZ BKN016 31/28 Q1012 NOSIG=  
29-Sep-2023 SAID32 WIDM 290330 METAR WIDM 290330Z 18007KT 3000 VCSH BKN016 30/28 Q1012 NOSIG=  
29-Sep-2023 SAID32 WIDM 290400 METAR WIDM 290400Z 13008KT 3000 VCSH FEW014CB BKN016 28/28 Q1012 NOSIG=  
29-Sep-2023 SAID32 WIDM 290430 METAR WIDM 290430Z 00000KT 3000 FU BKN016 28/28 Q1011 NOSIG=  
29-Sep-2023 SAID32 WIDM 290500 METAR WIDM 290500Z 18004KT 3000 FU BKN016 29/29 Q1011 NOSIG=  
29-Sep-2023 SAID32 WIDM 290530 METAR WIDM 290530Z 12006KT 4000 FU BKN016 29/28 Q1011 NOSIG=  
29-Sep-2023 SAID32 WIDM 290600 METAR WIDM 290600Z 12006KT 4000 FU BKN016 29/28 Q1011 NOSIG=  
29-Sep-2023 SAID32 WIDM 290630 METAR WIDM 290630Z 18006KT 4000 FU BKN016 29/28 Q1010 NOSIG=  
29-Sep-2023 SAID32 WIDM 290700 METAR WIDM 290700Z 18004KT 4000 FU OVC016 30/28 Q1010 NOSIG=  
30-Sep-2023 SAID32 WIDM 300000 METAR WIDM 300000Z 00000KT 5000 HZ BKN018 26/26 Q1011 NOSIG=  
30-Sep-2023 SAID32 WIDM 300030 METAR WIDM 300030Z 00000KT 5000 HZ BKN018 27/27 Q1011 NOSIG=  
30-Sep-2023 SAID32 WIDM 300100 METAR WIDM 300100Z 12003KT 080V180 4000 HZ BKN018 29/28 Q1011 NOSIG=  
30-Sep-2023 SAID32 WIDM 300130 METAR WIDM 300130Z 18004KT 4000 HZ BKN017 30/28 Q1012 NOSIG=  
30-Sep-2023 SAID32 WIDM 300200 METAR WIDM 300200Z 18006KT 4000 HZ BKN017 30/29 Q1012 NOSIG=  
30-Sep-2023 SAID32 WIDM 300230 METAR WIDM 300230Z 20003KT 180V280 4000 HZ BKN017 31/29 Q1012 NOSIG=  
30-Sep-2023 SAID32 WIDM 300300 METAR WIDM 300300Z 22005KT 180V270 4000 HZ BKN017 31/29 Q1012 NOSIG=  
30-Sep-2023 SAID32 WIDM 300330 METAR WIDM 300330Z 20003KT 4000 HZ BKN017 30/29 Q1012 NOSIG=  
30-Sep-2023 SAID32 WIDM 300400 METAR WIDM 300400Z 18006KT 4000 HZ BKN017 30/28 Q1012 NOSIG=  
30-Sep-2023 SAID32 WIDM 300430 METAR WIDM 300430Z 22010KT 4000 VCTS SCT013CB BKN015 30/28 Q1012 NOSIG=  
30-Sep-2023 SAID32 WIDM 300430 CCA METAR WIDM 300430Z 22010KT 4000 VCTS SCT013CB BKN015 30/28 Q1012 NOSIG RMK CB OVER THE FIELD=  
30-Sep-2023 SAID32 WIDM 300500 METAR WIDM 300500Z 22010KT 4000 HZ SCT013CB BKN015 28/26 Q1011 NOSIG RMK CB TO N & S=  
30-Sep-2023 SAID32 WIDM 300530 METAR WIDM 300530Z 21010KT 4000 -RA BKN015 28/26 Q1011 NOSIG=  
30-Sep-2023 SAID32 WIDM 300600 METAR WIDM 300600Z 21007KT 180V300 4000 HZ BKN015 28/26 Q1010 NOSIG=  
30-Sep-2023 SAID32 WIDM 300630 METAR WIDM 300630Z 18003KT 4000 HZ BKN016 29/27 Q1009 NOSIG=  
30-Sep-2023 SAID32 WIDM 300700 METAR WIDM 300700Z 22002KT 4000 -RA BKN016 28/27 Q1009 NOSIG=  
30-Sep-2023 SAID32 WIDM 300730 METAR WIDM 300730Z 21003KT 4000 HZ BKN016 30/26 Q1009 NOSIG=  
30-Sep-2023 SAID32 WIDM 300800 METAR WIDM 300800Z 00000KT 4000 HZ BKN018 31/26 Q1009 NOSIG=  
30-Sep-2023 SAID32 WIDM 300900 METAR WIDM 300900Z 21005KT 4000 HZ BKN018 30/26 Q1009 NOSIG=  
30-Sep-2023 SAID32 WIDM 300930 METAR WIDM 300930Z 00000KT 4000 HZ BKN018 29/26 Q1009 NOSIG=  
02-Oct-2023 SAID32 WIDM 020000 METAR WIDM 020000Z 00000KT 4000 FU SCT018 26/26 Q1010 NOSIG=  
02-Oct-2023 SAID32 WIDM 020020 METAR WIDM 020020Z 16006KT 4000 FU BKN018 30/26 Q1012 NOSIG=  
02-Oct-2023 SAID32 WIDM 020030 METAR WIDM 020030Z 00000KT 4000 FU SCT018 27/27 Q1011 NOSIG=  
02-Oct-2023 SAID32 WIDM 020100 METAR WIDM 020100Z 18002KT 4000 FU SCT018 29/26 Q1011 NOSIG=  
02-Oct-2023 SAID32 WIDM 020130 METAR WIDM 020130Z 17004KT 4000 FU BKN018 30/25 Q1011 NOSIG=  
02-Oct-2023 SAID32 WIDM 020200 METAR WIDM 020200Z 16006KT 4000 FU BKN018 30/26 Q1012 NOSIG=  
02-Oct-2023 SAID32 WIDM 020230 METAR WIDM 020230Z 00000KT 4000 FU BKN018 31/27 Q1012 NOSIG=  
02-Oct-2023 SAID32 WIDM 020300 METAR WIDM 020300Z 18006KT 5000 FU BKN018 31/27 Q1011 NOSIG=  
02-Oct-2023 SAID32 WIDM 020330 METAR WIDM 020330Z 20005KT 4000 FU BKN018 31/27 Q1011 NOSIG=  
02-Oct-2023 SAID32 WIDM 020400 METAR WIDM 020400Z 20006KT 4000 FU BKN018 31/27 Q1011 NOSIG=  
02-Oct-2023 SAID32 WIDM 020430 METAR WIDM 020430Z 20006KT 5000 FU BKN018 32/27 Q1010 NOSIG=  
02-Oct-2023 SAID32 WIDM 020500 METAR WIDM 020500Z 20007KT 5000 FU BKN018 32/27 Q1010 NOSIG=  
02-Oct-2023 SAID32 WIDM 020530 METAR WIDM 020530Z 18006KT 5000 FU BKN018 32/27 Q1009 NOSIG=  
02-Oct-2023 SAID32 WIDM 020600 METAR WIDM 020600Z 18007KT 5000 FU BKN018 32/27 Q1009 NOSIG=  
03-Oct-2023 SAID32 WIDM 030000 METAR WIDM 030000Z 18003KT 4000 HZ BKN018 27/27 Q1011 NOSIG=  
03-Oct-2023 SAID32 WIDM 030030 METAR WIDM 030030Z 18006KT 4000 FU BKN018 29/27 Q1011 NOSIG=  
03-Oct-2023 SAID32 WIDM 030100 METAR WIDM 030100Z 18006KT 4000 FU BKN018 30/27 Q1012 NOSIG=  
03-Oct-2023 SAID32 WIDM 030130 METAR WIDM 030130Z 18008KT 4000 FU SCT018 30/27 Q1012 NOSIG=  
03-Oct-2023 SAID32 WIDM 030230 METAR WIDM 030230Z 17009KT 4000 FU FEW018 32/26 Q1012 NOSIG=  
03-Oct-2023 SAID32 WIDM 030300 METAR WIDM 030300Z 23008KT 5000 FU FEW018 32/27 Q1012 NOSIG=  
03-Oct-2023 SAID32 WIDM 030330 METAR WIDM 030330Z 23008KT 5000 FU FEW018 32/27 Q1012 NOSIG=  
03-Oct-2023 SAID32 WIDM 030400 METAR WIDM 030400Z 18008KT 5000 FU FEW018 32/27 Q1011 NOSIG=  
03-Oct-2023 SAID32 WIDM 030500 METAR WIDM 030500Z 27006KT 5000 FU FEW018 33/27 Q1011 NOSIG=  
03-Oct-2023 SAID32 WIDM 032300 METAR WIDM 032300Z 00000KT 5000 FU FEW016 25/25 Q1010 NOSIG=  
03-Oct-2023 SAID32 WIDM 032330 METAR WIDM 032330Z 18003KT 5000 FU FEW016 26/26 Q1011 NOSIG=  
04-Oct-2023 SAID32 WIDM 040000 METAR WIDM 040000Z 18003KT 5000 FU FEW018 27/26 Q1011 NOSIG=  
04-Oct-2023 SAID32 WIDM 040030 METAR WIDM 040030Z 18005KT 5000 FU FEW018 29/26 Q1012 NOSIG=  
04-Oct-2023 SAID32 WIDM 040100 METAR WIDM 040100Z 18007KT 5000 FU FEW018 30/27 Q1012 NOSIG=  
04-Oct-2023 SAID32 WIDM 040130 METAR WIDM 040130Z 20006KT 5000 FU FEW018 30/27 Q1012 NOSIG=  
04-Oct-2023 SAID32 WIDM 040200 METAR WIDM 040200Z 18007KT 5000 FU FEW018 31/27 Q1012 NOSIG=  
04-Oct-2023 SAID32 WIDM 040230 METAR WIDM 040230Z 20006KT 5000 FU SCT018 32/27 Q1012 NOSIG=  
04-Oct-2023 SAID32 WIDM 040300 METAR WIDM 040300Z 25007KT 5000 FU SCT018 32/27 Q1011 NOSIG=  
04-Oct-2023 SAID32 WIDM 040330 METAR WIDM 040330Z 25006KT 5000 FU SCT018 32/27 Q1011 NOSIG=  
04-Oct-2023 SAID32 WIDM 040400 METAR WIDM 040400Z 27006KT 5000 FU SCT018 32/27 Q1011 NOSIG=  
04-Oct-2023 SAID32 WIDM 040430 METAR WIDM 040430Z 26008KT 5000 FU SCT018 32/26 Q1011 NOSIG=  
04-Oct-2023 SAID32 WIDM 040500 METAR WIDM 040500Z 24005KT 5000 FU SCT018 33/25 Q1010 NOSIG=  
04-Oct-2023 SAID32 WIDM 040530 METAR WIDM 040530Z 24007KT 5000 FU SCT018 33/25 Q1010 NOSIG=  
04-Oct-2023 SAID32 WIDM 040600 METAR WIDM 040600Z 25007KT 5000 FU SCT018 33/23 Q1009 NOSIG=  
04-Oct-2023 SAID32 WIDM 040630 METAR WIDM 040630Z 23006KT 5000 FU SCT018 33/24 Q1009 NOSIG=  
04-Oct-2023 SAID32 WIDM 040700 METAR WIDM 040700Z 25008KT 5000 FU SCT018 33/25 Q1009 NOSIG=  
04-Oct-2023 SAID32 WIDM 040800 METAR WIDM 040800Z 26005KT 5000 FU SCT018 32/25 Q1008 NOSIG=  
05-Oct-2023 SAID32 WIDM 050000 METAR WIDM 050000Z 18004KT 4000 FU FEW018 26/26 Q1010 NOSIG=  
05-Oct-2023 SAID32 WIDM 050030 METAR WIDM 050030Z 18004KT 4000 FU FEW018 28/28 Q1011 NOSIG=  
05-Oct-2023 SAID32 WIDM 050100 METAR WIDM 050100Z 18005KT 4000 FU FEW018 29/28 Q1011 NOSIG=  
05-Oct-2023 SAID32 WIDM 050130 METAR WIDM 050130Z 18005KT 4000 FU SCT018 30/28 Q1011 NOSIG=  
05-Oct-2023 SAID32 WIDM 050200 METAR WIDM 050200Z 19006KT 4000 FU FEW018 31/28 Q1011 NOSIG=  
05-Oct-2023 SAID32 WIDM 050230 METAR WIDM 050230Z 18005KT 4000 FU SCT018 31/27 Q1011 NOSIG=  
05-Oct-2023 SAID32 WIDM 050300 METAR WIDM 050300Z 09003KT 4000 FU FEW018 32/28 Q1011 NOSIG=  
05-Oct-2023 SAID32 WIDM 050400 METAR WIDM 050400Z 12005KT 4000 FU FEW018 32/27 Q1010 NOSIG=  
05-Oct-2023 SAID32 WIDM 050430 METAR WIDM 050430Z 10003KT 4000 FU SCT018 32/27 Q1010 NOSIG=  
05-Oct-2023 SAID32 WIDM 050500 METAR WIDM 050500Z 10004KT 4000 FU SCT018 32/28 Q1010 NOSIG=  
05-Oct-2023 SAID32 WIDM 050530 METAR WIDM 050530Z 08003KT 4000 FU BKN016 30/27 Q1009 NOSIG=  
05-Oct-2023 SAID32 WIDM 050600 METAR WIDM 050600Z 15005KT 4000 FU BKN016 31/27 Q1009 NOSIG=  
05-Oct-2023 SAID32 WIDM 050630 METAR WIDM 050630Z 16005KT 4000 FU BKN016 30/27 Q1008 NOSIG=  
05-Oct-2023 SAID32 WIDM 052300 METAR WIDM 052300Z 00000KT 3000 FU FEW018 24/24 Q1009 NOSIG=  
05-Oct-2023 SAID32 WIDM 052330 METAR WIDM 052330Z 00000KT 3000 FU FEW018 25/25 Q1010 NOSIG=  
06-Oct-2023 SAID32 WIDM 060000 METAR WIDM 060000Z 18003KT 3000 FU FEW018 26/26 Q1010 NOSIG=  
06-Oct-2023 SAID32 WIDM 060030 METAR WIDM 060030Z 18003KT 3000 FU FEW018 28/28 Q1010 NOSIG=  
06-Oct-2023 SAID32 WIDM 060100 METAR WIDM 060100Z 18004KT 4000 FU FEW018 30/28 Q1011 NOSIG=  
06-Oct-2023 SAID32 WIDM 060130 METAR WIDM 060130Z 00000KT 4000 FU FEW018 30/28 Q1011 NOSIG=  
06-Oct-2023 SAID32 WIDM 060200 METAR WIDM 060200Z 18003KT 4000 FU FEW018 30/28 Q1011 NOSIG=  
06-Oct-2023 SAID32 WIDM 060230 METAR WIDM 060230Z 25003KT 4000 FU FEW018 31/28 Q1011 NOSIG=  
06-Oct-2023 SAID32 WIDM 060300 METAR WIDM 060300Z 09003KT 4000 FU FEW018 32/26 Q1011 NOSIG=  
06-Oct-2023 SAID32 WIDM 100300 METAR WIDM 060300Z 18005KT 3000 FU SCT017 32/29 Q1011 NOSIG=  
06-Oct-2023 SAID32 WIDM 060330 METAR WIDM 060330Z 09003KT 4000 FU FEW018 32/28 Q1010 NOSIG=  
06-Oct-2023 SAID32 WIDM 060400 METAR WIDM 060400Z 09003KT 4000 FU FEW018 32/26 Q1010 NOSIG=  
06-Oct-2023 SAID32 WIDM 060430 METAR WIDM 060430Z 36005KT 4000 FU SCT018 32/29 Q1010 NOSIG=  
06-Oct-2023 SAID32 WIDM 060500 METAR WIDM 060500Z 36005KT 4000 FU SCT018 32/28 Q1009 NOSIG=  
06-Oct-2023 SAID32 WIDM 060530 METAR WIDM 060530Z 00000KT 4000 FU SCT018 31/28 Q1009 NOSIG=  
06-Oct-2023 SAID32 WIDM 060600 METAR WIDM 060600Z 00000KT 4000 FU SCT018 31/28 Q1009 NOSIG=  
06-Oct-2023 SAID32 WIDM 060630 METAR WIDM 060630Z 05002KT 4000 FU BKN1700 31/27 Q1009 NOSIG=  
06-Oct-2023 SAID32 WIDM 060700 METAR WIDM 060700Z 02002KT 4000 FU BKN1700 30/27 Q1008 NOSIG=  
06-Oct-2023 SAID32 WIDM 060730 METAR WIDM 060730Z 34003KT 4000 FU BKN1600 32/28 Q1007 NOSIG=  
06-Oct-2023 SAID32 WIDM 060800 METAR WIDM 060800Z 35003KT 4000 FU BKN016 32/27 Q1007 NOSIG=  
06-Oct-2023 SAID32 WIDM 060830 METAR WIDM 060830Z 34003KT 4000 FU BKN016 32/27 Q1007 NOSIG=  
06-Oct-2023 SAID32 WIDM 060900 METAR WIDM 060900Z 27004KT 4000 FU BKN016 32/28 Q1007 NOSIG=  
06-Oct-2023 SAID32 WIDM 062330 METAR WIDM 062330Z 00000KT 3000 FU FEW016 26/26 Q1010 NOSIG=  
07-Oct-2023 SAID32 WIDM 070000 METAR WIDM 070000Z 00000KT 3000 FU FEW018 26/26 Q1010 NOSIG=  
07-Oct-2023 SAID32 WIDM 070030 METAR WIDM 070030Z 00000KT 3000 FU FEW017 28/28 Q1011 NOSIG=  
07-Oct-2023 SAID32 WIDM 070100 METAR WIDM 070100Z 00000KT 3000 FU FEW018 30/28 Q1011 NOSIG=  
07-Oct-2023 SAID32 WIDM 070130 METAR WIDM 070130Z 18004KT 3000 FU FEW017 31/28 Q1011 NOSIG=  
07-Oct-2023 SAID32 WIDM 070200 METAR WIDM 070200Z 20004KT 3000 FU FEW017 31/28 Q1011 NOSIG=  
07-Oct-2023 SAID32 WIDM 070230 METAR WIDM 070230Z 20004KT 3000 FU SCT017 31/28 Q1012 NOSIG=  
07-Oct-2023 SAID32 WIDM 070300 METAR WIDM 070300Z 18005KT 3000 FU SCT017 32/29 Q1011 NOSIGN=  
07-Oct-2023 SAID32 WIDM 070330 METAR WIDM 070330Z 18003KT 3000 FU SCT017 31/28 Q1011 NOSIG=  
07-Oct-2023 SAID32 WIDM 070400 METAR WIDM 070400Z 25003KT 3000 FU SCT016 31/29 Q1011 NOSIG=  
07-Oct-2023 SAID32 WIDM 070430 METAR WIDM 070430Z 20004KT 3000 TS FEW014CB BKN016 30/28 Q1012 RMK CB TO NW=  
07-Oct-2023 SAID32 WIDM 070500 METAR WIDM 070500Z 34009KT 3000 TS FEW014CB BKN016 29/27 Q1010 RMK CB TO N=  
07-Oct-2023 SAID32 WIDM 070530 METAR WIDM 070530Z 30005KT 3000 FU FEW014CB BKN016 29/27 Q1010 RMK CB TO N=  
07-Oct-2023 SAID32 WIDM 070600 METAR WIDM 070600Z 36007KT 3000 FU OVC016 30/27 Q1009 NOSIGN=  
07-Oct-2023 SAID32 WIDM 070630 METAR WIDM 070630Z 00000KT 3000 FU OVC017 30/26 Q1009 NOSIGN=  
09-Oct-2023 SAID32 WIDM 090000 METAR WIDM 090000Z 00000KT 2000 FU FEW016 26/26 Q1012 NOSIGN=  
09-Oct-2023 SAID32 WIDM 090030 METAR WIDM 090030Z 00000KT 2000 FU FEW016 28/28 Q1012 NOSIGN=  
09-Oct-2023 SAID32 WIDM 090100 METAR WIDM 090100Z 36002KT 2000 FU FEW016 30/29 Q1012 NOSIGN=  
09-Oct-2023 SAID32 WIDM 090130 METAR WIDM 090130Z 36003KT 2000 FU FEW016 30/29 Q1013 NOSIGN=  
09-Oct-2023 SAID32 WIDM 090200 METAR WIDM 090200Z 36002KT 3000 FU FEW016 31/29 Q1013 NOSIGN=  
09-Oct-2023 SAID32 WIDM 090230 METAR WIDM 090230Z 36002KT 3000 FU FEW016 31/29 Q1013 NOSIGN=  
09-Oct-2023 SAID32 WIDM 090300 METAR WIDM 090300Z 36004KT 3000 FU SCT018 32/29 Q1013 NOSIGN=  
09-Oct-2023 SAID32 WIDM 090330 METAR WIDM 090330Z 36005KT 3000 FU SCT018 32/30 Q1012 NOSIG=  
09-Oct-2023 SAID32 WIDM 090400 METAR WIDM 090400Z 36003KT 3000 FU SCT018 32/29 Q1012 NOSIG=  
09-Oct-2023 SAID32 WIDM 090430 METAR WIDM 090430Z 35004KT 3000 FU SCT018 33/29 Q1012 NOSIG=  
09-Oct-2023 SAID32 WIDM 090500 METAR WIDM 090500Z 36005KT 3000 FU SCT018 33/29 Q1011 NOSIG=  
09-Oct-2023 SAID32 WIDM 090530 METAR WIDM 090530Z 36004KT 3000 FU SCT018 33/29 Q1011 NOSIG=  
09-Oct-2023 SAID32 WIDM 090600 METAR WIDM 090600Z 34005KT 3000 FU SCT018 33/29 Q1010 NOSIG=  
09-Oct-2023 SAID32 WIDM 090630 METAR WIDM 090630Z 36004KT 3000 FU SCT018 33/29 Q1010 NOSIG=  
09-Oct-2023 SAID32 WIDM 090700 METAR WIDM 090700Z 36005KT 3000 FU SCT018 31/29 Q1009 NOSIG=  
09-Oct-2023 SAID32 WIDM 090730 METAR WIDM 090730Z 36007KT 3000 FU SCT018 32/28 Q1009 NOSIG  
09-Oct-2023 SAID32 WIDM 090800 METAR WIDM 090800Z 33005KT 3000 FU BKN018 31/28 Q1009 NOSIG=  
10-Oct-2023 SAID32 WIDM 100000 METAR WIDM 100000Z 18003KT 3000 FU FEW018 26/26 Q1011 NOSIG  
10-Oct-2023 SAID32 WIDM 100030 METAR WIDM 100030Z 18003KT 3000 FU FEW018 28/28 Q1011 NOSIG=  
10-Oct-2023 SAID32 WIDM 100100 METAR WIDM 100100Z 00000KT 3000 FU FEW018 30/28 Q1011 NOSIG=  
10-Oct-2023 SAID32 WIDM 100130 METAR WIDM 100130Z 00000KT 4000 FU FEW018 31/29 Q1012 NOSIG=  
10-Oct-2023 SAID32 WIDM 100200 METAR WIDM 100200Z 36002KT 4000 FU FEW018 31/28 Q1012 NOSIG=  
10-Oct-2023 SAID32 WIDM 100230 METAR WIDM 100230Z 36005KT 4000 FU SCT016 32/28 Q1012 NOSIG=  
10-Oct-2023 SAID32 WIDM 100300 METAR WIDM 100300Z 36003KT 4000 FU SCT016 32/26 Q1012 NOSIG=  
10-Oct-2023 SAID32 WIDM 100330 METAR WIDM 100330Z 36005KT 4000 FU SCT016 33/29 Q1011 NOSIG=  
10-Oct-2023 SAID32 WIDM 100400 METAR WIDM 100400Z 36005KT 4000 FU SCT015 33/29 Q1011 NOSIG=  
10-Oct-2023 SAID32 WIDM 100430 METAR WIDM 100430Z 18006KT 3000 FU BKN015 30/28 Q1011 NOSIG=  
10-Oct-2023 SAID32 WIDM 100500 METAR WIDM 100500Z 19004KT 3000 -RA BKN015 28/26 Q1010 RMK RA TO S=  
10-Oct-2023 SAID32 WIDM 100530 METAR WIDM 100530Z 17003KT 4000 FU BKN015 28/26 Q1010 NOSIG=  
10-Oct-2023 SAID32 WIDM 100630 METAR WIDM 100630Z 33005KT 4000 FU BKN017 33/29 Q1009 NOSIG=  
10-Oct-2023 SAID32 WIDM 100700 METAR WIDM 100700Z 33003KT 4000 FU BKN017 32/28 Q1009 NOSIG=  
10-Oct-2023 SAID32 WIDM 100730 METAR WIDM 100730Z 34006KT 5000 FU BKN016 31/28 Q1008 NOSIG=  
10-Oct-2023 SAID32 WIDM 100800 METAR WIDM 100800Z 34003KT 5000 FU BKN016 30/28 Q1008 NOSIG=  
10-Oct-2023 SAID32 WIDM 100830 METAR WIDM 100830Z 34003KT 5000 FU BKN016 30/28 Q1008 NOSIG=  
10-Oct-2023 SAID32 WIDM 100900 METAR WIDM 100900Z 12003KT 5000 FU BKN016 30/28 Q1008 NOSIG=  
11-Oct-2023 SAID32 WIDM 110000 METAR WIDM 110000Z 00000KT 5000 FU FEW015 27/27 Q1010 NOSIG=  
11-Oct-2023 SAID32 WIDM 110030 METAR WIDM 110030Z 00000KT 5000 FU FEW015 29/28 Q1011 NOSIG=  
11-Oct-2023 SAID32 WIDM 110100 METAR WIDM 110100Z 00000KT 5000 FU FEW016 30/27 Q1011 NOSIG=  
11-Oct-2023 SAID32 WIDM 110130 METAR WIDM 110130Z 00000KT 5000 FU FEW016 31/26 Q1011 NOSIG=  
11-Oct-2023 SAID32 WIDM 110200 METAR WIDM 110200Z 34002KT 5000 FU FEW017 32/28 Q1011 NOSIG=  
11-Oct-2023 SAID32 WIDM 110230 METAR WIDM 110230Z 00000KT 5000 FU FEW016 31/26 Q1011 NOSIG=  
11-Oct-2023 SAID32 WIDM 110300 METAR WIDM 110300Z 36003KT 5000 FU FEW017 33/28 Q1010 NOSIG=  
11-Oct-2023 SAID32 WIDM 110330 METAR WIDM 110330Z 34003KT 5000 FU FEW018 33/28 Q1011 NOSIG=  
11-Oct-2023 SAID32 WIDM 110400 METAR WIDM 110400Z 36004KT 5000 FU SCT016 33/28 Q1011 NOSIG=  
11-Oct-2023 SAID32 WIDM 110430 METAR WIDM 110430Z 36005KT 5000 -RA SCT016 30/28 Q1011 NOSIG=  
11-Oct-2023 SAID32 WIDM 110500 METAR WIDM 110500Z 34005KT 5000 FU SCT016 33/28 Q1010 NOSIG=  
11-Oct-2023 SAID32 WIDM 110530 METAR WIDM 110530Z 34004KT 5000 FU SCT016 31/28 Q1010 NOSIG=  
11-Oct-2023 SAID32 WIDM 110600 METAR WIDM 110600Z 02003KT 2000 RA BKN016 26/26 Q1009 NOSIG=  
11-Oct-2023 SAID32 WIDM 110630 METAR WIDM 110630Z 00000KT 3000 RA BKN016 26/26 Q1009 NOSIG=  
11-Oct-2023 SAID32 WIDM 110700 METAR WIDM 110700Z 18003KT 4000 -RA BKN016 26/26 Q1009 NOSIG=  
11-Oct-2023 SAID32 WIDM 110730 METAR WIDM 110730Z 22002KT 4000 FU SCT016 26/26 Q1008 NOSIG=  
11-Oct-2023 SAID32 WIDM 110800 METAR WIDM 110800Z 18003KT 5000 FU SCT017 27/27 Q1008 NOSIG=  
12-Oct-2023 SAID32 WIDM 120000 METAR WIDM 120000Z 18002KT 4000 FU FEW016 28/28 Q1011 NOSIG=  
12-Oct-2023 SAID32 WIDM 130000 METAR WIDM 120000Z 18002KT 4000 FU FEW016 27/27 Q1012 NOSIG=  
12-Oct-2023 SAID32 WIDM 120030 METAR WIDM 120030Z 18002KT 4000 FU FEW016 29/29 Q1011 NOSIG=  
12-Oct-2023 SAID32 WIDM 120100 METAR WIDM 120100Z 18002KT 5000 FU FEW016 29/29 Q1012 NOSIG=  
12-Oct-2023 SAID32 WIDM 120130 METAR WIDM 120130Z 08003KT 5000 FU FEW016 30/228 Q1012 NOSIG=  
12-Oct-2023 SAID32 WIDM 120200 METAR WIDM 120200Z 36002KT 6000 NIL FEW017 32/30 Q1012 NOSIG=  
12-Oct-2023 SAID32 WIDM 120230 METAR WIDM 120230Z 35003KT 6000 NIL FEW017 31/30 Q1012 NOSIG=  
12-Oct-2023 SAID32 WIDM 120300 METAR WIDM 120300Z 36005KT 6000 NIL SCT016 32/29 Q1012 NOSIG=  
12-Oct-2023 SAID32 WIDM 120330 METAR WIDM 120330Z 36004KT 6000 NIL SCT016 33/30 Q1012 NOSIG=  
12-Oct-2023 SAID32 WIDM 120400 METAR WIDM 120400Z 36006KT 6000 NIL BKN016 32/30 Q1011 NOSIG=  
12-Oct-2023 SAID32 WIDM 120430 METAR WIDM 120430Z 36004KT 6000 NIL BKN016 32/29 Q1011 NOSIG=  
12-Oct-2023 SAID32 WIDM 120500 METAR WIDM 120500Z 36004KT 6000 NIL BKN015 32/30 Q1010 NOSIG=  
12-Oct-2023 SAID32 WIDM 120530 METAR WIDM 120530Z 00000KT 3000 -RA BKN015 30/29 Q1010 NOSIG=  
12-Oct-2023 SAID32 WIDM 120600 METAR WIDM 120600Z 16005KT 5000 -RA BKN014 27/27 Q1010 NOSIG=  
12-Oct-2023 SAID32 WIDM 120630 METAR WIDM 120630Z 00000KT 5000 -RA BKN014 28/28 Q1009 NOSIG=  
12-Oct-2023 SAID32 WIDM 120700 METAR WIDM 120700Z 00000KT 3000 -RA BKN015 26/26 Q1009 NOSIG=  
13-Oct-2023 SAID32 WIDM 130000 CCA METAR WIDM 130000Z 18002KT 4000 FU FEW016 27/27 Q1012 NOSIG=  
13-Oct-2023 SAID32 WIDM 130030 METAR WIDM 130030Z 18002KT 4000 FU FEW016 29/29 Q1012 NOSIG=  
13-Oct-2023 SAID32 WIDM 130100 METAR WIDM 130100Z 00000KT 5000 FU SCT016 31/29 Q1012 NOSIG=  
13-Oct-2023 SAID32 WIDM 130130 METAR WIDM 130130Z 36003KT 5000 FU SCT016 31/29 Q1012 NOSIG=  
13-Oct-2023 SAID32 WIDM 130200 METAR WIDM 130200Z 36004KT 5000 FU FEW017 31/29 Q1012 NOSIG=  
13-Oct-2023 SAID32 WIDM 130230 METAR WIDM 130230Z 36004KT 5000 FU FEW017 32/29 Q1012 NOSIG=  
13-Oct-2023 SAID32 WIDM 130300 METAR WIDM 130300Z 36003KT 5000 FU SCT017 32/28 Q1011 NOSIG=  
13-Oct-2023 SAID32 WIDM 130330 METAR WIDM 130330Z 34005KT 6000 NIL SCT018 32/29 Q1011 NOSIG=  
13-Oct-2023 SAID32 WIDM 130400 METAR WIDM 130400Z 34007KT 6000 NIL SCT018 31/29 Q1011 NOSIG=  
13-Oct-2023 SAID32 WIDM 130430 METAR WIDM 130430Z 19005KT 6000 NIL SCT018 32/28 Q1011 NOSIG=  
13-Oct-2023 SAID32 WIDM 130500 METAR WIDM 130500Z 22005KT 6000 NIL FEW018 32/28 Q1010 NOSIG=  
13-Oct-2023 SAID32 WIDM 130530 METAR WIDM 130530Z VRB05KT 6000 NIL SCT018 32/29 Q1010 NOSIG=  
13-Oct-2023 SAID32 WIDM 130600 METAR WIDM 130600Z 34005KT 6000 NIL SCT018 32/29 Q1009 NOSIG=  
13-Oct-2023 SAID32 WIDM 130630 METAR WIDM 130630Z 34007KT 6000 NIL SCT018 31/28 Q1009 NOSIG=  
13-Oct-2023 SAID32 WIDM 130700 METAR WIDM 130700Z 34007KT 6000 NIL SCT018 32/28 Q1008 NOSIG=  
13-Oct-2023 SAID32 WIDM 130730 METAR WIDM 130730Z 35006KT 6000 NIL SCT018 32/29 Q1008 NOSIG=  
13-Oct-2023 SAID32 WIDM 130800 METAR WIDM 130800Z 33007KT 6000 NIL SCT018 32/28 Q1008 NOSIG=  
14-Oct-2023 SAID32 WIDM 140000 METAR WIDM 140000Z 18002KT 4000 FU FEW018 27/27 Q1010 NOSIG=  
14-Oct-2023 SAID32 WIDM 140030 METAR WIDM 140030Z 18002KT 4000 FU FEW018 28/27 Q1010 NOSIG=  
14-Oct-2023 SAID32 WIDM 140100 METAR WIDM 140100Z 18002KT 5000 FU FEW018 30/29 Q1011 NOSIG=  
14-Oct-2023 SAID32 WIDM 140130 METAR WIDM 140130Z 18002KT 5000 FU FEW018 31/29 Q1011 NOSIG=  
14-Oct-2023 SAID32 WIDM 140200 METAR WIDM 140200Z 18002KT 5000 FU FEW018 31/28 Q1011 NOSIG=  
14-Oct-2023 SAID32 WIDM 140230 METAR WIDM 140230Z 18002KT 5000 FU FEW018 31/27 Q1011 NOSIG=  
14-Oct-2023 SAID32 WIDM 140300 METAR WIDM 140300Z 25004KT 6000 NIL SCT018 32/27 Q1011 NOSIG=  
14-Oct-2023 SAID32 WIDM 140330 METAR WIDM 140330Z 25004KT 6000 NIL SCT018 32/27 Q1010 NOSIG=  
14-Oct-2023 SAID32 WIDM 140400 METAR WIDM 140400Z 27006KT 6000 NIL FEW018 32/27 Q1010 NOSIG=  
14-Oct-2023 SAID32 WIDM 140430 METAR WIDM 140430Z 24006KT 6000 NIL FEW018 32/27 Q1010 NOSIG=  
14-Oct-2023 SAID32 WIDM 140500 METAR WIDM 140500Z 25006KT 6000 NIL FEW018 32/26 Q1009 NOSIG=  
14-Oct-2023 SAID32 WIDM 140530 METAR WIDM 140530Z 24008KT 6000 NIL FEW018 33/25 Q1009 NOSIG=  
14-Oct-2023 SAID32 WIDM 140600 METAR WIDM 140600Z 27006KT 6000 NIL FEW018 32/25 Q1009 NOSIG=  
14-Oct-2023 SAID32 WIDM 140630 METAR WIDM 140630Z 27006KT 6000 NIL FEW018 32/25 Q1008 NOSIG=  
14-Oct-2023 SAID32 WIDM 140700 METAR WIDM 140700Z 20006KT 6000 NIL FEW018 32/26 Q1008 NOSIG=  
16-Oct-2023 SAID32 WIDM 160000 METAR WIDM 160000Z 18003KT 5000 HZ FEW018 27/27 Q1010 NOSIG=  
16-Oct-2023 SAID32 WIDM 160030 METAR WIDM 160030Z 18005KT 5000 HZ FEW018 29/28 Q1010 NOSIG=  
16-Oct-2023 SAID32 WIDM 160100 METAR WIDM 160100Z 18005KT 5000 HZ FEW018 30/28 Q1010 NOSIG=  
16-Oct-2023 SAID32 WIDM 160130 METAR WIDM 160130Z 18003KT 5000 HZ FEW018 31/28 Q1010 NOSIG=  
16-Oct-2023 SAID32 WIDM 160200 METAR WIDM 160200Z 17004KT 5000 HZ FEW018 31/28 Q1010 NOSIG=  
16-Oct-2023 SAID32 WIDM 160230 METAR WIDM 160230Z 17006KT 5000 HZ FEW018 32/28 Q1010 NOSIG=  
16-Oct-2023 SAID32 WIDM 160330 METAR WIDM 160330Z 22008KT 5000 HZ SCT017 32/28 Q1010 NOSIG=  
16-Oct-2023 SAID32 WIDM 160400 METAR WIDM 160400Z 25005KT 5000 HZ SCT017 32/28 Q1010 NOSIG  
16-Oct-2023 SAID32 WIDM 160430 METAR WIDM 160430Z 27008KT 5000 HZ SCT017 32/28 Q1009 NOSIG=  
17-Oct-2023 SAID32 WIDM 170000 METAR WIDM 170000Z 00000KT 5000 HZ FEW018 27/27 Q1010 NOSIG=  
17-Oct-2023 SAID32 WIDM 170030 METAR WIDM 170030Z 00000KT 5000 HZ FEW018 29/29 Q1010 NOSIG=  
17-Oct-2023 SAID32 WIDM 170100 METAR WIDM 170100Z 00000KT 5000 HZ SCT018 30/28 Q1010 NOSIG=  
17-Oct-2023 SAID32 WIDM 170130 METAR WIDM 170130Z 36003KT 5000 HZ SCT018 31/29 Q1010 NOSIG=  
17-Oct-2023 SAID32 WIDM 170200 METAR WIDM 170200Z 35003KT 5000 HZ SCT018 32/29 Q1011 NOSIG=  
17-Oct-2023 SAID32 WIDM 170230 METAR WIDM 170230Z 34005KT 5000 HZ SCT017 31/29 Q1010 NOSIG=  
17-Oct-2023 SAID32 WIDM 170300 METAR WIDM 170300Z 35003KT 5000 FU SCT016 31/29 Q1010 NOSIG=  
17-Oct-2023 SAID32 WIDM 170330 METAR WIDM 170330Z 01010KT 5000 FU SCT016 31/29 Q1010 NOSIG=  
17-Oct-2023 SAID32 WIDM 170400 METAR WIDM 170400Z 01010KT 5000 FU SCT016 31/28 Q1010 NOSIG=  
17-Oct-2023 SAID32 WIDM 170430 METAR WIDM 170430Z 34008KT 5000 FU BKN015 31/29 Q1010 NOSIG=  
17-Oct-2023 SAID32 WIDM 170500 METAR WIDM 170500Z VRB12KT 4000 -TSRA FEW014CB BKN014 29/27 Q1009 RMK CB TO W=  
17-Oct-2023 SAID32 WIDM 170530 METAR WIDM 170530Z 35004KT 2000 -RA BKN015 26/26 Q1010 NOSIG=  
17-Oct-2023 SAID32 WIDM 170600 METAR WIDM 170600Z 00000KT 6000 NIL BKN017 28/28 Q1009 NOSIG=  
17-Oct-2023 SAID32 WIDM 170630 METAR WIDM 170630Z 07004KT 5000 NIL FEW012CB SCT016 28/27 Q1008 RMK CB TO NW=  
17-Oct-2023 SAID32 WIDM 170700 METAR WIDM 170700Z 00000KT 5000 NIL FEW012CB SCT018 29/27 Q1008 RMK CB TO W=  
17-Oct-2023 SAID32 WIDM 170730 METAR WIDM 170730Z 01002 5000 NIL FEW 012CB SCT018 29/28 Q1008 RMK CB TO NW=  
17-Oct-2023 SAID32 WIDM 170800 METAR WIDM 170800Z 07002KT 5000 NIL SCT018 30/27 Q1007 NOSIG=  
17-Oct-2023 SAID32 WIDM 170830 METAR WIDM 170830Z 35003KT 5000 -RA SCT016 30/29 Q1008 RMK RA TO S=  
17-Oct-2023 SAID32 WIDM 172230 METAR WIDM 172230Z 15003KT 5000 FU FEW011CB BKN015 25/25 Q1010 RMK CB TO E=  
17-Oct-2023 SAID32 WIDM 172300 METAR WIDM 172300Z 11002KT 5000 FU FEW011CB OVC016 25/25 Q1011 RMK CB TO NE=  
17-Oct-2023 SAID32 WIDM 172330 METAR WIDM 172330Z 16003KT 5000 FU FEW012CB OVC016 26/26 Q1011 RMK CB TO NE=  
18-Oct-2023 SAID32 WIDM 180000 METAR WIDM 180000Z 15003KT 5000 FU BKN018 26/26 Q1011 NO SIG=  
18-Oct-2023 SAID32 WIDM 180030 METAR WIDM 180030Z 00000KT 4000 FU OVC018 27/27 Q1011 NO SIG=  
18-Oct-2023 SAID32 WIDM 180100 METAR WIDM 180100Z 00000KT 5000 -RA OVC018 28/28 Q1011 RA TO N=  
18-Oct-2023 SAID32 WIDM 180130 METAR WIDM 180130Z 34006KT 4000 +RA SCT012CB OVC014 27/27 Q1012 RMK CB TO NE + NW=  
18-Oct-2023 SAID32 WIDM 180200 METAR WIDM 180200Z 31010KT 400 +RA BKN010CB OVC011 26/26 Q1012 RMK CB OVER THE FIELD=  
18-Oct-2023 SAID32 WIDM 180230 METAR WIDM 180230Z 35012KT 300 +RA BKN010CB OVC010 24/24 Q1014 RMK CB OVER THE FIELD=  
18-Oct-2023 SAID32 WIDM 180300 METAR WIDM 180300Z 31004KT 400 +RA SCT010CB OVC010 24/24 Q1014 RMK CB OVER THE FIELD=  
18-Oct-2023 SAID32 WIDM 180330 METAR WIDM 180330Z VRB4KT 1000 -RA OVC012 24/24 Q1013 NOSIG=  
18-Oct-2023 SAID32 WIDM 180400 METAR WIDM 180400Z 20004KT 5000 -RA OVC013 24/24 Q1012 NOSIG=  
18-Oct-2023 SAID32 WIDM 180430 METAR WIDM 180430Z 00000KT 5000 -RA OVC013 25/25 Q1012 NOSIG=  
18-Oct-2023 SAID32 WIDM 180500 METAR WIDM 180500Z 00000KT 5000 -RA OVC015 25/25 Q1011 NOSIG=  
18-Oct-2023 SAID32 WIDM 180530 METAR WIDM 180530Z 00000KT 5000 -RA OVC015 25/25 Q1010 NOSIG=  
18-Oct-2023 SAID32 WIDM 180600 METAR WIDM 180600Z 00000KT 5000 -RA BKN015 25/25 Q1010 NOSIG=  
18-Oct-2023 SAID32 WIDM 180630 METAR WIDM 180630Z 00000KT 5000 HZ BKN015 26/26 Q1009 NOSIG=  
18-Oct-2023 SAID32 WIDM 180700 METAR WIDM 180700Z 00000KT 5000 HZ BKN015 26/26 Q1009 NOSIG=  
18-Oct-2023 SAID32 WIDM 180730 METAR WIDM 180730Z 00000KT 5000 HZ BKN017 27/27 Q1009 NOSIG=  
18-Oct-2023 SAID32 WIDM 180800 METAR WIDM 180800Z 00000KT 5000 HZ BKN018 27/27 Q1009 NOSIG=  
18-Oct-2023 SAID32 WIDM 180830 METAR WIDM 180830Z 00000KT 5000 HZ SCT018 27/27 Q1009 NOSIG=  
18-Oct-2023 SAID32 WIDM 180900 METAR WIDM 180900Z 00000KT 5000 HZ SCT018 27/27 Q1008 NOSIG=  
18-Oct-2023 SAID32 WIDM 180930 METAR WIDM 180930Z 00000KT 5000 HZ SCT018 27/27 Q1009 NOSIG=  
18-Oct-2023 SAID32 WIDM 182300 METAR WIDM 182300Z 17004KT 5000 NIL BKN015 24/24 Q1010 NOSIG=  
18-Oct-2023 SAID32 WIDM 182330 METAR WIDM 182330Z 15003KT 6000 NIL BKN016 24/24 Q1011 NOSIG=  
19-Oct-2023 SAID32 WIDM 190000 METAR WIDM 190000Z 17004KT 6000 NIL BKN017 25/25 Q1011 NOSIG=  
19-Oct-2023 SAID32 WIDM 190030 METAR WIDM 190030Z 15004KT 6000 NIL BKN018 26/26 Q1011 NOSIG=  
19-Oct-2023 SAID32 WIDM 190100 METAR WIDM 190100Z 15004KT 6000 NIL SCT018 28/28 Q1012 NOSIG=  
19-Oct-2023 SAID32 WIDM 190130 METAR WIDM 190130Z 09004KT 6000 NIL SCT020 29/29 Q1012 NOSIG=  
19-Oct-2023 SAID32 WIDM 190200 METAR WIDM 190200Z 08003KT 6000 NIL SCT020 29/29 Q1012 NOSIG=  
19-Oct-2023 SAID32 WIDM 190230 METAR WIDM 190230Z 35003KT 6000 NIL SCT020 30/30 Q1012 NOSIG=  
19-Oct-2023 SAID32 WIDM 190300 METAR WIDM 190300Z 01006KT 6000 NIL SCT020 31/30 Q1012 NOSIG=  
19-Oct-2023 SAID32 WIDM 190330 METAR WIDM 190330Z 34003KT 6000 NIL SCT018 30/30 Q1012 NOSIG=  
19-Oct-2023 SAID32 WIDM 190400 METAR WIDM 190400Z 34003KT 6000 NIL SCT018 31/30 Q1011 NOSIG=  
19-Oct-2023 SAID32 WIDM 190430 METAR WIDM 190430Z 34005KT 6000 NIL SCT018 31/30 Q1011 NOSIG=  
19-Oct-2023 SAID32 WIDM 190500 METAR WIDM 190500Z 35006KT 6000 NIL SCT016 31/30 Q1011 NOSIG=  
19-Oct-2023 SAID32 WIDM 190530 METAR WIDM 190530Z 35006KT 6000 NIL SCT016 32/30 Q1010 NOSIG=  
19-Oct-2023 SAID32 WIDM 190600 METAR WIDM 190600Z 34004KT 6000 NIL SCT016 31/30 Q1010 NOSIG=  
19-Oct-2023 SAID32 WIDM 190630 METAR WIDM 190630Z 34003KT 6000 NIL BKN016 32/30 Q1009 NOSIG=  
19-Oct-2023 SAID32 WIDM 190700 METAR WIDM 190700Z 34006KT 6000 NIL BKN015 32/29 Q1009 NOSIG=  
19-Oct-2023 SAID32 WIDM 190730 METAR WIDM 190730Z 36003KT 6000 NIL BKN015 30/28 Q1009 NOSIG=  
19-Oct-2023 SAID32 WIDM 190800 METAR WIDM 190800Z 12004KT 6000 NIL BKN015 30/28 Q1009 NOSIG=  
19-Oct-2023 SAID32 WIDM 190830 METAR WIDM 190830Z 09005KT 6000 NIL BKN015 30/28 Q1009 NOSIG=  
19-Oct-2023 SAID32 WIDM 190900 METAR WIDM 190900Z 05004KT 6000 NIL BKN015 30/28 Q1009 NOSIG=  
19-Oct-2023 SAID32 WIDM 192100 METAR WIDM 192100Z 15002KT 5000 HZ SCT016 25/25 Q1010 NOSIG=  
19-Oct-2023 SAID32 WIDM 192200 METAR WIDM 192200Z 00000KT 5000 HZ SCT016 25/25 Q1009 NOSIG=  
19-Oct-2023 SAID32 WIDM 192230 METAR WIDM 192230Z 00000KT 5000 HZ SCT016 25/25 Q1010 NOSIG=  
19-Oct-2023 SAID32 WIDM 192300 METAR WIDM 192300Z 16003KT 6000 NIL FEW018 25/25 Q1010 NOSIG=  
19-Oct-2023 SAID32 WIDM 192330 METAR WIDM 192330Z 16005KT 6000 NIL FEW018 25/25 Q1010 NOSIG=  
20-Oct-2023 SAID32 WIDM 200000 METAR WIDM 200000Z 15004KT 7000 NIL FEW020 27/27 Q1011 NOSIG=  
20-Oct-2023 SAID32 WIDM 200030 METAR WIDM 200030Z 15003KT 7000 NIL FEW020 28/27 Q1011 NOSIG=  
20-Oct-2023 SAID32 WIDM 200100 METAR WIDM 200130Z 00000KT 7000 NIL FEW020 29/29 Q1011 NOSIG=  
20-Oct-2023 SAID32 WIDM 200130 METAR WIDM 200130Z 00000KT 7000 NIL FEW020 31/29 Q1011 NOSIG=  
20-Oct-2023 SAID32 WIDM 200200 METAR WIDM 200200Z 34004KT 7000 NIL FEW018 31/29 Q1011 NOSIG=  
20-Oct-2023 SAID32 WIDM 200230 METAR WIDM 200230Z 34005KT 7000 NIL FEW018 31/30 Q1012 NOSIG=  
20-Oct-2023 SAID32 WIDM 200300 METAR WIDM 200300Z 01006KT 7000 NIL FEW018 32/30 Q1012 NOSIG=  
20-Oct-2023 SAID32 WIDM 200330 METAR WIDM 200330Z 34005KT 7000 NIL BKN017 31/30 Q1011 NOSIG=  
20-Oct-2023 SAID32 WIDM 200400 METAR WIDM 200400Z 09006KT 7000 NIL BKN017 31/29 Q1011 NOSIG=  
20-Oct-2023 SAID32 WIDM 200430 METAR WIDM 200430Z 07006KT 7000 NIL BKN017 31/29 Q1011 NOSIG=  
20-Oct-2023 SAID32 WIDM 200500 METAR WIDM 200500Z 12006KT 7000 NIL BKN017 32/28 Q1010 NOSIG=  
20-Oct-2023 SAID32 WIDM 200530 METAR WIDM 200530Z 07005KT 7000 NIL BKN015 31/28 Q1010 NOSIG=  
20-Oct-2023 SAID32 WIDM 200600 METAR WIDM 200600Z 19005KT 7000 NIL BKN015 31/28 Q1009 NOSIG=  
20-Oct-2023 SAID32 WIDM 200630 METAR WIDM 200630Z 18007KT 6000 -RA BKN015 29/29 Q1009 NOSIG=  
20-Oct-2023 SAID32 WIDM 200700 METAR WIDM 200700Z 21007KT 6000 -RA BKN015 28/28 Q1009 RMK TO S-SW=  
20-Oct-2023 SAID32 WIDM 200730 METAR WIDM 200730Z 18006KT 6000 NIL BKN015 29/28 Q1008 NOSIG=  
20-Oct-2023 SAID32 WIDM 200800 METAR WIDM 200800Z 20004KT 6000 NIL BKN017 30/28 Q1008 NOSIG=  
21-Oct-2023 SAID32 WIDM 210000 METAR WIDM 210000Z 15003KT 7000 NIL FEW020 27/27 Q1011 NOSIG=  
21-Oct-2023 SAID32 WIDM 210030 METAR WIDM 210030Z 15002KT 7000 NIL FEW011CB FEW020 28/28 Q1011 RMK CB TO E=  
21-Oct-2023 SAID32 WIDM 210100 METAR WIDM 210100Z 14005KT 7000 NIL FEW010CB FEW020 30/29 Q1012 RMK CB TO N=  
21-Oct-2023 SAID32 WIDM 210130 METAR WIDM 210130Z 15003KT 7000 NIL FEW010CB FEW018 30/29 Q1012 RMK CB TO NE=  
21-Oct-2023 SAID32 WIDM 210200 METAR WIDM 210200Z 07003KT 7000 NIL FEW010CB FEW018 31/29 Q1012 RMK CB TO NE=  
21-Oct-2023 SAID32 WIDM 210230 METAR WIDM 210230Z 01002KT 7000 -RA FEW010CB FEW018 31/30 Q1012 RMK RA TO E=  
21-Oct-2023 SAID32 WIDM 210300 METAR WIDM 210300Z 04003KT 7000 -RA FEW011CB SCT018 31/29 Q1012 RMK CB TO NE=  
21-Oct-2023 SAID32 WIDM 210330 METAR WIDM 210330Z 27003KT 7000 -RA FEW011CB BKN017 29/29 Q1012 NOSIG=  
21-Oct-2023 SAID32 WIDM 210400 METAR WIDM 210400Z 30005KT 6000 -RA FEW011CB BKN015 29/29 Q1012 NOSIG=  
21-Oct-2023 SAID32 WIDM 210430 METAR WIDM 210430Z 31003KT 5000 -RA SCT011CB BKN011 28/28 Q1011 RMK CB TO S=  
21-Oct-2023 SAID32 WIDM 210500 METAR WIDM 210500Z 27008KT 5000 -RA SCT011CB BKN011 27/27 Q1011 RMK CB TO S=  
21-Oct-2023 SAID32 WIDM 210530 METAR WIDM 210530Z 35005KT 2000 -RA BKN011 26/26 Q1011 NOSIG=  
21-Oct-2023 SAID32 WIDM 210600 METAR WIDM 210600Z 00000KT 2000 -RA OVC1100 26/26 Q1011 NOSIG=  
21-Oct-2023 SAID32 WIDM 210630 METAR WIDM 210630Z 00000KT 3000 -RA OVC1100 25/25 Q1011 NOSIG=  
21-Oct-2023 SAID32 WIDM 210700 METAR WIDM 210700Z 00000KT 3000 -RA BKN015 25/25 Q1010 NOSIG=  
21-Oct-2023 SAID32 WIDM 210730 METAR WIDM 210730Z 00000KT 6000 NIL BKN016 26/26 Q1010 NOSIG=  
22-Oct-2023 SAID32 WIDM 222100 METAR WIDM 222100Z 00000KT 5000 HZ FEW016 24/24 Q1010 NOSIG=  
22-Oct-2023 SAID32 WIDM 222130 METAR WIDM 222130Z 00000KT 5000 HZ FEW016 24/24 Q1010 NOSIG=  
22-Oct-2023 SAID32 WIDM 222200 METAR WIDM 222200Z 15002KT 5000 HZ FEW016 24/24 Q1010 NOSIG=  
22-Oct-2023 SAID32 WIDM 222230 METAR WIDM 222230Z 15002KT 6000 NIL FEW018 25/24 Q1011 NOSIG=  
22-Oct-2023 SAID32 WIDM 222300 METAR WIDM 222300Z 16003KT 6000 NIL FEW018 25/25 Q1011 NOSIG=  
22-Oct-2023 SAID32 WIDM 222330 METAR WIDM 222330Z 14002KT 7000 NIL FEW020 25/25 Q1011 NOSIG=  
23-Oct-2023 SAID32 WIDM 230000 METAR WIDM 230000Z 14002KT 7000 NIL FEW020 28/28 Q1012 NOSIG=  
23-Oct-2023 SAID32 WIDM 230030 METAR WIDM 230030Z 14002KT 7000 NIL FEW020 28/28 Q1011 NOSIG=  
23-Oct-2023 SAID32 WIDM 230100 METAR WIDM 230100Z 07002KT 7000 NIL FEW020 30/30 Q1012 NOSIG=  
23-Oct-2023 SAID32 WIDM 230130 METAR WIDM 230130Z 15003KT 7000 NIL FEW020 31/30 Q1012 NOSIG=  
23-Oct-2023 SAID32 WIDM 230200 METAR WIDM 230200Z 35003KT 7000 NIL FEW018 31/31 Q1012 NOSIG=  
23-Oct-2023 SAID32 WIDM 230230 METAR WIDM 230230Z 02003KT 7000 NIL FEW018 31/31 Q1012 NOSIG=  
23-Oct-2023 SAID32 WIDM 230300 METAR WIDM 230300Z 35006KT 7000 NIL FEW018 32/32 Q1012 NOSIG=  
23-Oct-2023 SAID32 WIDM 230330 METAR WIDM 230330Z 02005KT 7000 NIL SCT018 32/32 Q1012 NOSIG=  
23-Oct-2023 SAID32 WIDM 230400 METAR WIDM 230400Z 01006KT 7000 NIL SCT018 31/31 Q1012 NOSIG=  
23-Oct-2023 SAID32 WIDM 230430 METAR WIDM 230430Z 01008KT 7000 NIL BKN017 32/31 Q1011 NOSIG=  
23-Oct-2023 SAID32 WIDM 230500 METAR WIDM 230500Z 36007KT 5000 -RA FEW012CB BKN015 32/31 Q1010 RMK RA TO S=  
23-Oct-2023 SAID32 WIDM 230530 METAR WIDM 230530Z 19008KT 4000 -RA FEW012CB BKN014 30/30 Q1010 RMK RA TO S=  
23-Oct-2023 SAID32 WIDM 230600 METAR WIDM 230600Z 18005KT 6000 -RA BKN015 27/27 Q1009 NOSIG=  
23-Oct-2023 SAID32 WIDM 230630 METAR WIDM 230630Z 18003KT 7000 NIL BKN018 30/30 Q1009 NOSIG=  
23-Oct-2023 SAID32 WIDM 230700 METAR WIDM 230700Z 36003KT 7000 NIL BKN018 31/30 Q1009 NOSIG=  
24-Oct-2023 SAID32 WIDM 240000 METAR WIDM 240000Z 13003KT 7000 NIL FEW020 27/27 Q1011 NOSIG=  
24-Oct-2023 SAID32 WIDM 240030 METAR WIDM 240030Z 08003KT 7000 NIL FEWCB011 FEW020 29/29 Q1012 RMK CB TO NW=  
24-Oct-2023 SAID32 WIDM 240100 METAR WIDM 240100Z 32004KT 6000 -RA FEWCB012 FEW018 29/29 Q1012 RMK RA TO SW=  
24-Oct-2023 SAID32 WIDM 240130 METAR WIDM 240130Z 32004KT 6000 NIL FEWCB012 FEW018 30/30 Q1012 RMK CB TO SE=  
24-Oct-2023 SAID32 WIDM 240200 METAR WIDM 240200Z 01004KT 6000 -RA FEWCB012 SCT018 30/30 Q1012 RMK RA TO SE=  
24-Oct-2023 SAID32 WIDM 240230 METAR WIDM 240230Z 32005KT 6000 -RA FEWCB012 SCT016 31/31 Q1012 RMK RA TO SE=  
24-Oct-2023 SAID32 WIDM 240300 METAR WIDM 240300Z 01006KT 6000 -RA FEWCB012 SCT016 30/30 Q1012 RMK RA TO E=  
24-Oct-2023 SAID32 WIDM 240330 METAR WIDM 240330Z 32002KT 6000 -RA SCT011CB BKN016 29/29 Q1012 RMK CB TO E=  
24-Oct-2023 SAID32 WIDM 240400 METAR WIDM 240400Z 13003KT 6000 -RA FEW010CB BKN016 30/30 Q1011 RMK CB TO E=  
24-Oct-2023 SAID32 WIDM 240430 METAR WIDM 240430Z 00000KT 7000 NIL BKN016 29/29 Q1011 NOSIG=  
24-Oct-2023 SAID32 WIDM 240500 METAR WIDM 240500Z 35003KT 7000 NIL BKN016 32/31 Q1010 NOSIG=  
24-Oct-2023 SAID32 WIDM 240530 METAR WIDM 240530Z 34006KT 7000 NIL BKN016 32/32 Q1009 NOSIG=  
24-Oct-2023 SAID32 WIDM 240600 METAR WIDM 240600Z 35005KT 6000 -RA BKN016 32/31 Q1009 RMK RA TO S=  
24-Oct-2023 SAID32 WIDM 240630 METAR WIDM 240630Z 36006KT 6000 -RA BKN016 30/30 Q1009 RMK RA TO S=  
24-Oct-2023 SAID32 WIDM 240700 METAR WIDM 240700Z 18003KT 7000 NIL BKN017 30/30 Q1008 NOSIG=  
24-Oct-2023 SAID32 WIDM 240730 METAR WIDM 240730Z 36003KT 7000 NIL BKN018 32/30 Q1008 NOSIG=  
24-Oct-2023 SAID32 WIDM 240800 METAR WIDM 240800Z 36003KT 7000 NIL BKN018 32/30 Q1008 NOSIG=  
25-Oct-2023 SAID32 WIDM 250000 METAR WIDM 250000Z 00000KT 7000 NIL BKN018 26/26 Q1011 NOSIG=  
25-Oct-2023 SAID32 WIDM 250030 METAR WIDM 250030Z 00000KT 7000 NIL BKN018 27/27 Q1011 NOSIG=  
25-Oct-2023 SAID32 WIDM 250100 METAR WIDM 250100Z 18003KT 7000 NIL BKN018 29/29 Q1012 NOSIG=  
25-Oct-2023 SAID32 WIDM 250130 METAR WIDM 250130Z 17003KT 7000 NIL BKN018 30/30 Q1012 NOSIG=  
25-Oct-2023 SAID32 WIDM 250200 METAR WIDM 250200Z 19006KT 7000 NIL BKN018 31/30 Q1012 NOSIG=  
25-Oct-2023 SAID32 WIDM 250230 METAR WIDM 250230Z 00000KT 7000 NIL BKN018 30/30 Q1012 NOSIG=  
25-Oct-2023 SAID32 WIDM 250300 METAR WIDM 250300Z 22003KT 7000 NIL BKN016 31/30 Q1012 NOSIG=  
25-Oct-2023 SAID32 WIDM 250330 METAR WIDM 250330Z 34005KT 7000 NIL BKN016 30/30 Q1012 NOSIG=  
25-Oct-2023 SAID32 WIDM 250400 METAR WIDM 250400Z 22007KT 7000 NIL BKN016 30/30 Q1012 NOSIG=  
25-Oct-2023 SAID32 WIDM 250430 METAR WIDM 250430Z 25004KT 7000 NIL BKN016 30/30 Q1011 NOSIG=  
25-Oct-2023 SAID32 WIDM 250500 METAR WIDM 250500Z 31003KT 7000 NIL BKN018 31/30 Q1011 NOSIG=  
25-Oct-2023 SAID32 WIDM 250530 METAR WIDM 250530Z VRB06KT 7000 NIL BKN018 31/30 Q1010 NOSIG=  
25-Oct-2023 SAID32 WIDM 250600 METAR WIDM 250600Z 32006KT 7000 NIL BKN018 32/31 Q1010 NOSIG=  
25-Oct-2023 SAID32 WIDM 250630 METAR WIDM 250630Z 27006KT 7000 NIL BKN016 31/30 Q1009 NOSIG=  
25-Oct-2023 SAID32 WIDM 250700 METAR WIDM 250700Z 30003KT 7000 NIL BKN016 30/29 Q1009 NOSIG=  
26-Oct-2023 SAID32 WIDM 260000 METAR WIDM 260000Z 10000KT 7000 NIL FEW020 27/27 Q1011 NOSIG=  
26-Oct-2023 SAID32 WIDM 260030 METAR WIDM 260030Z 08003KT 7000 NIL FEW020 28/28 Q1011 NOSIG=  
26-Oct-2023 SAID32 WIDM 260100 METAR WIDM 260100Z 15005KT 7000 NIL FEW020 30/30 Q1012 NOSIG=  
26-Oct-2023 SAID32 WIDM 260130 METAR WIDM 260130Z 17005KT 7000 NIL FEW020 30/30 Q1012 NOSIG=  
26-Oct-2023 SAID32 WIDM 260200 METAR WIDM 260200Z 12003KT 7000 NIL FEW020 31/31 Q1012 NOSIG=  
26-Oct-2023 SAID32 WIDM 260230 METAR WIDM 260230Z 02005KT 7000 NIL SCT020 31/31 Q1012 NOSIG=  
26-Oct-2023 SAID32 WIDM 260300 METAR WIDM 260300Z 01003KT 7000 NIL SCT020 31/31 Q1012 NOSIG=  
26-Oct-2023 SAID32 WIDM 260330 METAR WIDM 260330Z 01003KT 7000 NIL SCT018 30/30 Q1012 NOSIG=  
26-Oct-2023 SAID32 WIDM 260400 METAR WIDM 260400Z 01005KT 7000 NIL SCT018 31/31 Q1012 NOSIG=  
26-Oct-2023 SAID32 WIDM 260430 METAR WIDM 260430Z 36003KT 7000 NIL SCT018 30/30 Q1011 NOSIG=  
26-Oct-2023 SAID32 WIDM 260500 METAR WIDM 260500Z 00000KT 7000 -RA BKN018 30/30 Q1011 NOSIG=  
26-Oct-2023 SAID32 WIDM 260530 METAR WIDM 260530Z 36003KT 7000 -RA BKN016 29/29 Q1010 NOSIG=  
26-Oct-2023 SAID32 WIDM 260600 METAR WIDM 260600Z 36003KT 7000 -RA BKN016 28/28 Q1010 NOSIG=  
26-Oct-2023 SAID32 WIDM 260630 METAR WIDM 260630Z 07006KT 6000 -RA BKN015 29/29 Q1009 NOSIG=  
26-Oct-2023 SAID32 WIDM 260700 METAR WIDM 260700Z 01003KT 6000 -RA BKN015 26/26 Q1009 NOSIG=  
26-Oct-2023 SAID32 WIDM 260730 METAR WIDM 260730Z 09004KT 5000 -RA BKN015 26/26 Q1009 NOSIG=  
26-Oct-2023 SAID32 WIDM 260800 METAR WIDM 260800Z 18004KT 6000 -RA BKN015 26/26 Q1009 NOSIG=  
26-Oct-2023 SAID32 WIDM 260830 METAR WIDM 260830Z 18003KT 7000 NIL BKN018 27/27 Q1008 NOSIG=  
26-Oct-2023 SAID32 WIDM 260900 METAR WIDM 260900Z 00000KT 7000 NIL SCT018 28/28 Q1008 NOSIG=  
27-Oct-2023 SAID32 WIDM 270000 METAR WIDM 270000Z 18003KT 7000 NIL FEW010CB FEW020 26/26 Q1011 RMK CB TO NE=  
27-Oct-2023 SAID32 WIDM 270030 METAR WIDM 270030Z 04003KT 7000 NIL FEW020 29/29 Q1011 NOSIG=  
27-Oct-2023 SAID32 WIDM 270100 METAR WIDM 270100Z 01003KT 7000 NIL FEW020 30/30 Q1011 NOSIG=  
27-Oct-2023 SAID32 WIDM 270130 METAR WIDM 270130Z 32003KT 7000 NIL SCT018 31/31 Q1011 NOSIG=  
27-Oct-2023 SAID32 WIDM 270200 METAR WIDM 270200Z 02007KT 7000 NIL SCT018 31/31 Q1012 NOSIG=  
27-Oct-2023 SAID32 WIDM 270230 METAR WIDM 270230Z 02004KT 7000 NIL SCT018 31/31 Q1012 NOSIG=  
27-Oct-2023 SAID32 WIDM 270300 METAR WIDM 270300Z 07008KT 7000 NIL SCT018 31/31 Q1012 NOSIG=  
27-Oct-2023 SAID32 WIDM 270330 METAR WIDM 270330Z 01002KT 7000 NIL SCT018 32/32 Q1011 NOSIG=  
27-Oct-2023 SAID32 WIDM 270400 METAR WIDM 270400Z 01005KT 6000 NIL BKN018 31/31 Q1011 NOSIG=  
27-Oct-2023 SAID32 WIDM 270430 METAR WIDM 270430Z 35006KT 7000 NIL BKN018 32/32 Q1010 NOSIG=  
27-Oct-2023 SAID32 WIDM 270500 METAR WIDM 270500Z 35009KT 7000 NIL BKN016 31/31 Q1010 NOSIG=  
27-Oct-2023 SAID32 WIDM 270530 METAR WIDM 270530Z 30003KT 6000 -RA BKN016 27/27 Q1009 NOSIG=  
27-Oct-2023 SAID32 WIDM 270600 METAR WIDM 270600Z 26010KT 5000 -TSRA FEW012CB BKN015 26/26 Q1009 RMK CB TO SW=  
27-Oct-2023 SAID32 WIDM 270630 METAR WIDM 270630Z 22003KT 5000 -RA FEW012CB BKN016 26/26 Q1009 RMK CB TO SW=  
28-Oct-2023 SAID32 WIDM 280000 METAR WIDM 280000Z 35006KT 1000 -TSRA BKN010CB OVC1200 25/25 Q1011 RMK CB OVER THE FIELD=  
28-Oct-2023 SAID32 WIDM 280030 METAR WIDM 280030Z 01002KT 3000 -TSRA SCT011CB BKN1300 25/25 Q1011 RMK CB TO W=  
28-Oct-2023 SAID32 WIDM 280100 METAR WIDM 280100Z 01002KT 5000 -RA SCT011CB BKN1600 26/26 Q1011 RMK CB TO SE+NW=  
28-Oct-2023 SAID32 WIDM 280130 METAR WIDM 280130Z 16004KT 6000 -RA SCT012CB BKN1400 26/26 Q1012 RMK CB TO E+W=  
28-Oct-2023 SAID32 WIDM 280200 METAR WIDM 280200Z 16005KT 6000 -RA FEW012CB BKN1600 26/26 Q1012 RMK CB TO W=  
28-Oct-2023 SAID32 WIDM 280230 METAR WIDM 280230Z 14005KT 7000 NIL BKN016 28/28 Q1012 NOSIG=  
28-Oct-2023 SAID32 WIDM 280300 METAR WIDM 280300Z 01002KT 7000 NIL BKN018 29/29 Q1012 NOSIG=  
28-Oct-2023 SAID32 WIDM 280330 METAR WIDM 280330Z 35003KT 7000 NIL BKN018 30/30 Q1012 NOSIG=  
28-Oct-2023 SAID32 WIDM 280400 METAR WIDM 280400Z 35003KT 7000 NIL BKN018 30/30 Q1011 NOSIG=  
28-Oct-2023 SAID32 WIDM 280430 METAR WIDM 280430Z 34003KT 7000 NIL BKN018 30/30 Q1011 NOSIG=  
28-Oct-2023 SAID32 WIDM 280500 METAR WIDM 280500Z 35003KT 7000 NIL BKN018 31/31 Q1010 NOSIG=  
28-Oct-2023 SAID32 WIDM 280530 METAR WIDM 280530Z 35003KT 7000 NIL SCT018 31/31 Q1010 NOSIG=  
28-Oct-2023 SAID32 WIDM 280600 METAR WIDM 280600Z 00000KT 7000 NIL SCT018 31/31 Q1009 NOSIG=  
28-Oct-2023 SAID32 WIDM 280630 METAR WIDM 280630Z 04003KT 7000 NIL BKN017 31/31 Q1009 NOSIG=  
29-Oct-2023 SAID32 WIDM 292100 METAR WIDM 292100Z 16002KT 6000 NIL FEW018 25/25 Q1008 NOSIG=  
29-Oct-2023 SAID32 WIDM 292130 METAR WIDM 292130Z 15003KT 6000 NIL FEW018 25/25 Q1008 NOSIG=  
29-Oct-2023 SAID32 WIDM 292200 METAR WIDM 292200Z 15003KT 6000 NIL FEW018 25/25 Q1008 NOSIG=  
29-Oct-2023 SAID32 WIDM 292230 METAR WIDM 292230Z 16003KT 6000 NIL FEW018 25/25 Q1008 NOSIG=  
29-Oct-2023 SAID32 WIDM 292300 METAR WIDM 292300Z 16003KT 6000 NIL FEW020 25/25 Q1008 NOSIG=  
29-Oct-2023 SAID32 WIDM 292330 METAR WIDM 292330Z 15003KT 7000 NIL SCT020 25/25 Q1009 NOSIG=  
30-Oct-2023 SAID32 WIDM 300000 METAR WIDM 300000Z 15003KT 7000 NIL SCT020 26/26 Q1009 NOSIG=  
30-Oct-2023 SAID32 WIDM 300030 METAR WIDM 300030Z 14004KT 7000 NIL SCT020 29/29 Q1009 NOSIG=  
30-Oct-2023 SAID32 WIDM 300100 METAR WIDM 300100Z 09004KT 7000 NIL SCT020 30/30 Q1009 NOSIG=  
30-Oct-2023 SAID32 WIDM 300130 METAR WIDM 300130Z 01002KT 7000 NIL BKN018 31/31 Q1010 NOSIG=  
30-Oct-2023 SAID32 WIDM 300200 METAR WIDM 300200Z 01004KT 7000 NIL BKN018 31/31 Q1010 NOSIG=  
30-Oct-2023 SAID32 WIDM 300230 METAR WIDM 300230Z 01003KT 7000 -RA BKN017 30/30 Q1010 RMK RA TO SE=  
30-Oct-2023 SAID32 WIDM 300300 METAR WIDM 300300Z 16004KT 7000 -RA BKN017 30/30 Q1010 RMK RA TO SE=  
30-Oct-2023 SAID32 WIDM 300330 METAR WIDM 300330Z 15002KT 7000 NIL BKN017 29/29 Q1010 NOSIG=  
30-Oct-2023 SAID32 WIDM 300400 METAR WIDM 300400Z 14004KT 7000 NIL BKN018 29/29 Q1010 NOSIG=  
30-Oct-2023 SAID32 WIDM 300430 METAR WIDM 300430Z 01004KT 7000 -RA BKN018 31/31 Q1009 NOSIG=  
30-Oct-2023 SAID32 WIDM 300500 METAR WIDM 300500Z 01004KT 7000 -RA BKN017 28/28 Q1009 NOSIG=  
30-Oct-2023 SAID32 WIDM 300530 METAR WIDM 300530Z 03003KT 7000 NIL BKN017 31/31 Q1009 NOSIG=  
30-Oct-2023 SAID32 WIDM 300600 METAR WIDM 300600Z 02003KT 7000 NIL BKN017 31/31 Q1008 NOSIG=  
30-Oct-2023 SAID32 WIDM 300630 METAR WIDM 300630Z 03004KT 7000 NIL BKN016 31/31 Q1007 NOSIG=  
30-Oct-2023 SAID32 WIDM 300700 METAR WIDM 300700Z 30003KT 7000 NIL BKN016 30/30 Q1007 NOSIG=  
30-Oct-2023 SAID32 WIDM 300730 METAR WIDM 300730Z 35002KT 7000 NIL BKN016 32/32 Q1007 NOSIG=  
30-Oct-2023 SAID32 WIDM 300800 METAR WIDM 300800Z 36002KT 7000 NIL SCTCB015 BKN016 32/32 Q1007 RMK CB TO SE=  
30-Oct-2023 SAID32 WIDM 302100 METAR WIDM 302100Z 14003KT 6000 NIL SCT016 25/25 Q1007=  
30-Oct-2023 SAID32 WIDM 302130 METAR WIDM 302130Z 15003KT 6000 NIL SCT016 25/24 Q1007=  
30-Oct-2023 SAID32 WIDM 302200 METAR WIDM 302200Z 15003KT 6000 NIL SCT018 24/24 Q1007=  
30-Oct-2023 SAID32 WIDM 302230 METAR WIDM 302230Z 16004KT 7000 NIL SCT018 24/24 Q1008=  
30-Oct-2023 SAID32 WIDM 302300 METAR WIDM 302300Z 16004KT 7000 NIL SCT020 24/24 Q1008=  
30-Oct-2023 SAID32 WIDM 302330 METAR WIDM 302330Z 16004KT 7000 NIL FEW020 25/25 Q1009=  
31-Oct-2023 SAID32 WIDM 310000 METAR WIDM 310000Z 15005KT 7000 NIL FEW020 27/27 Q1009=  
31-Oct-2023 SAID32 WIDM 310030 METAR WIDM 310030Z 15003KT 7000 NIL FEW020 29/29 Q1010=  
31-Oct-2023 SAID32 WIDM 310100 METAR WIDM 310100Z 08003KT 7000 NIL SCT020 31/31 Q1010=  
31-Oct-2023 SAID32 WIDM 310130 METAR WIDM 310130Z 08005KT 7000 NIL SCT020 31/31 Q1010=  
31-Oct-2023 SAID32 WIDM 310200 METAR WIDM 310200Z 02005KT 7000 NIL SCT018 31/31 Q1010=  
31-Oct-2023 SAID32 WIDM 310230 METAR WIDM 310230Z 03007KT 7000 NIL SCT018 31/31 Q1010=  
31-Oct-2023 SAID32 WIDM 310300 METAR WIDM 310300Z 01005KT 7000 NIL BKN018 31/31 Q1011=  
31-Oct-2023 SAID32 WIDM 310330 METAR WIDM 310330Z 05006KT 7000 NIL BKN018 32/32 Q1010=  
31-Oct-2023 SAID32 WIDM 310400 METAR WIDM 310400Z 01006KT 7000 NIL FEW016CB BKN018 32/32 Q1010 RMK CB TO N=  
31-Oct-2023 SAID32 WIDM 310430 METAR WIDM 310430Z 04006KT 7000 NIL BKN018 32/32 Q1009 NOSIG=  
31-Oct-2023 SAID32 WIDM 310500 METAR WIDM 310500Z 04006KT 7000 NIL BKN017 31/31 Q1009 NOSIG=  
31-Oct-2023 SAID32 WIDM 310530 METAR WIDM 310530Z 04006KT 7000 NIL BKN016 32/32 Q1008 NOSIG=  
31-Oct-2023 SAID32 WIDM 310600 METAR WIDM 310600Z 04007KT 7000 NIL BKN016 32/32 Q1008 NOSIG=  
31-Oct-2023 SAID32 WIDM 310630 METAR WIDM 310630Z 08006KT 7000 NIL BKN016 31/31 Q1007 NOSIG=  
31-Oct-2023 SAID32 WIDM 310700 METAR WIDM 310700Z 10006KT 050V170 7000 NIL BKN016 31/31 Q1007 NOSIG=  
31-Oct-2023 SAID32 WIDM 310730 METAR WIDM 310730Z 07005KT 7000 NIL BKN016 31/31 Q1006 NOSIG=  
31-Oct-2023 SAID32 WIDM 310800 METAR WIDM 310800Z 09005KT 7000 NIL BKN016 31/31 Q1006 NOSIG=  
31-Oct-2023 SAID32 WIDM 310830 METAR WIDM 310830Z 07005KT 7000 NIL BKN016 30/30 Q1006 NOSIG=  
