04-Feb-2017 SAID34 WIHH 040300 METAR WIET 040300Z 00000KT 8000 SCT020 29/23 Q1012 NOSIG=  
06-Feb-2017 SAID34 WIHH 060000 METAR WIET 060000Z 00000KT 7000 SCT020 24/22 Q1011 NOSIG=  
06-Feb-2017 SAID31 WIHH 060030 METAR WIET 060030Z 25005KT 6000 SCT018 25/23 Q1009 NOSIG=  
07-Feb-2017 SAID34 WIHH 070000 METAR WIET 070000Z 27011KT 2000 RA OVC015 23/22 Q1013=  
08-Feb-2017 SAID34 WIHH 080000 METAR WIET 080000Z 09004KT 6000 SCT018 23/22 Q1011 NOSIG=  
09-Feb-2017 SAID31 WIHH 090000 METAR WIET 090000Z 09004KT 6000 NSC 23/22 Q1012=  
10-Feb-2017 SAID34 WIHH 100000 METAR WIET 100000Z 00000KT 7000 24/23 Q1010 NOSIG=  
11-Feb-2017 SAID34 WIHH 110000 METAR WIET 110000Z 10003KT 7000 SCT020 23/22 Q1011 NOSIG=  
13-Feb-2017 SAID31 WIHH 130000 METAR WIET 130000Z 00000KT 7000 SCT018 24/23 Q1011=  
13-Feb-2017 SAID31 WIHH 130300 METAR WIET 130300Z 00000KT 7000 SCT020 29/23 Q1011=  
14-Feb-2017 SAID34 WIMK 140000 METAR WIET 140000Z 24003KT 8000 SCT018 24/23 Q1013 NOSIG=  
14-Feb-2017 SAID34 WIHH 140300 METAR WIET 140300Z 00000KT 9000 SCT018 29/24 Q1012=  
16-Feb-2017 SAID34 WIHH 160000 METAR WIET 160000Z 10004KT 7000 SCT020 24/23 Q1013 NOSIG=  
17-Feb-2017 SAID31 WIHH 170000 METAR WIET 170000Z 00000KT 7000 SCT020 24/23 Q1011=  
20-Feb-2017 SAID34 WIHH 200000 METAR WIET 200000Z 05006KT 4000 RA BKN018 24/22 Q1010 NOSIG=  
20-Feb-2017 SAID34 WIHH 200300 METAR WIET 200300Z 00000KT 5000 HZ BKN018 26/23 Q1011 NOSIG=  
21-Feb-2017 SAID31 WIHH 210300 METAR WIET 210300Z 00000KT 7000 SCT018 27/23 Q1010=  
22-Feb-2017 SAID34 WIHH 220000 METAR WIET 220000Z 09004KT 7000 FEW020 25/23 Q1010 NOSIG=  
24-Feb-2017 SAID31 WIHH 240000 METAR WIET 240000Z 00000KT 7000 SCT018 24/22 Q1012 NOSIG=  
24-Feb-2017 SAID31 WIHH 240300 METAR WIET 240300Z 00000KT 8000 SCT018 29/23 Q1014 NOSIG=  
28-Feb-2017 SAID31 WIHH 280000 METAR WIET 280000Z 00000KT 5000 RA BKN018 24/22 Q1010=  
15-Mar-2017 SAID31 WIHH 150000 METAR WIET 150000Z 00000KT 8000 FEW020 24/22 Q1011 NOSIG=  
16-Mar-2017 SAID31 WIHH 160000 METAR WIET 160000Z 00000KT 8000 FEW020 24/23 Q1011 NOSIG=  
16-Jun-2017 SAID31 WIHH 160300 METAR WIET 160300Z 28005KT 7000 SCT020 28/23 Q1011 NOSIG=  
06-Jul-2017 SAID31 WIHH 060000 METAR WIET 060000Z 00000KT 7000 FEW020 25/24 Q1011 NOSIG=  
22-Nov-2017 SAID31 WIHH 220000 METAR WIET 220000Z 00000KT 9999 FEW020 25/23 Q1008 NOSIG=  
22-Nov-2017 SAID31 WIHH 220300 METAR WIET 220300Z 30005KT 9999 SCT018 30/24 Q1009 NOSIG=  
22-Nov-2017 SAID34 WIHH 220600 METAR WIET 220600Z 29010KT 7000 SCT017 30/24 Q1007 NOSIG=  
22-Nov-2017 SAID34 WIHH 220700 METAR WIET 220700Z 28008KT 6000 -RA BKN015 30/24 Q1006 NOSIG=  
28-Nov-2017 SAID31 WIHH 280000 METAR WIET 280000Z 00000KT 7000 SCT016 25/23 Q1009 NOSIG=  
04-Dec-2017 SAID31 WIHH 040100 METAR WIET 040100Z 27006KT 500M RA OVC015 25/23 Q1011 NOSIG=  
08-Feb-2018 SAID34 WIHH 080100 METAR WIET 080100Z 00000KT 9000 FEW020 26/23 Q1011 NOSIG=  
08-Feb-2018 SAID31 WIHH 080200 METAR WIET 080200Z 29002KT 9999 FEW020 29/23 Q1012 NOSIG=  
