14-Dec-2021 SAID35 WIHP 140730 METAR WIHP 140730Z 20003KT 7000 SCT018 30/24 Q1005 NOSIG=
14-Dec-2021 SPID35 WIHP 140735 SPECI WIHP 140735Z 15007KT 4000 -RA BKN018 30/25 Q1005 NOSIG=
02-Feb-2022 SAID35 WIHP 020300 METAR WIHP 020300Z 31006KT 5000 ///// 28/25 Q1011 NOSIG=
02-Feb-2022 SAID35 WIHP 020500 METAR WIHP 020500Z 28007KT 5000 ////// 30/24 Q1010 NOSIG=
22-Apr-2022 SAID34 WIHP 220600 METAR WIHP 220600Z 32008KT 2000 TSRA FEW015CB BKN017 28/24 Q1008 NOSIG=
03-May-2022 SAID35 WIHP 032230 METAR WIHP 032230Z 22002KT 4000 HZ FEW020 26/25 Q1008 NOSIG=
07-May-2022 SAID35 WIHP 070600 METAR WIHP 070600Z 33007KT 6000 SCT030 34/26 Q1006 NOSIG=
17-May-2022 SAID35 WIHP 170700 METAR WIHP 170700Z 20003KT 5000 SCT019 33/25 Q1008 NOSIG=
18-May-2022 SAID35 WIHP 180000 METAR WIHP 180000Z 18004KT 6000 NSC 25/24 Q1011 NOSIG=
18-May-2022 SAID35 WIHP 181330 METAR WIHP 181330Z 00000KT 5000 NSC 25/23 Q1011 NOSIG=
12-Jul-2022 SAID35 WIHP 120700 METAR WIHP 120700Z 08008KT 5000 NSC 31/24 Q1006 NOSIG=
12-Jul-2022 SAID35 WIHP 122300 METAR WIHP 122300Z 16002KT 5000 HZ NSC 27/22 Q1008 NOSIG=
13-Jul-2022 SAID35 WIHP 130200 METAR WIHP 130200Z 12002KT 5000 HZ NSC 26/25 Q1009 NOSIG=
13-Jul-2022 SAID35 WIHP 130530 METAR WIHP 130530Z 15008KT 5000 RA SCT015 29/24 Q1007 NOSIG=
13-Jul-2022 SAID35 WIHP 130730 METAR WIHP 130730Z 10009KT 5000 RA SCT020 26/22 Q1007 NOSIG=
16-Jul-2022 SAID35 WIHP 160130 METAR WIHP 160130Z 18002KT 4000 -RA BKN018 22/21 Q1013 NOSIG=
19-Jul-2022 SAID35 WIHP 190530 METAR WIHP 190530Z 10006KT 7000 FEW020 32/24 Q1007 NOSIG=
22-Jul-2022 SAID35 WIHP 222230 METAR WIHP 222230Z 00000KT 5000 HZ NSC 25/23 Q1010 NOSIG=
30-Aug-2022 SAID35 WIHP 300800 METAR WIHP 300800Z 33004KT 5000 HZ SCT025 32/24 Q1005 NOSIG=
30-May-2023 SAID35 WIHP 300100 METAR WIHP 300100Z 00000KT 3000 HZ NSC 28/25 Q1011 NOSIG=
