27-Jan-2017 SAID34 WIHH 270000 METAR WIMK 270000Z 00000KT 2000 BR SCT018 25/24 Q1011 NOSIG=
27-Jan-2017 SAID34 WIHH 270100 METAR WIMK 270100Z 23003KT 5000HZ SCT018 25/24 Q1012 NOSIG=
27-Jan-2017 SAID34 WIHH 270200 METAR WIMK 270200Z 23003KT 7000 SCT018 27/24 Q1013 NOSIG=
27-Jan-2017 SAID34 WIHH 270600 METAR WIMK 270600Z 35006KT 5000 HZ SCT018 30/23 Q1011 NOSIG=
27-Jan-2017 SAID31 WIHH 270700 METAR WIMK 270700Z 36006KT 5000 HZ SCT018 30/24 Q1010 NOSIG=
28-Jan-2017 SAID31 WIHH 280300 METAR WIMK 280300Z 27005KT 5000 HZ BKN020 27/24 Q1013=
28-Jan-2017 SAID31 WIHH 280400 METAR WIMK 280400Z 28005KT 5000 HZ BKN017 29/24 Q1012=
28-Jan-2017 SAID31 WIHH 280600 METAR WIMK 280600Z 28005KT 5000 HZ BKN017 29/24 Q1012=
30-Jan-2017 SAID34 WIHH 302230 METAR WIMK 302230Z 24004KT 5000 HZ SCT018 25/22 Q1009 NOSIG=
30-Jan-2017 SAID34 WIHH 302300 METAR WIMK 302300Z 00000KT 5000 HZ SCT018 25/22 Q1010 NOSIG=
31-Jan-2017 SAID34 WIHH 310000 METAR WIMK 310000Z 00000KT 5000 HZ SCT 018 25/22 Q1010 NSG=
31-Jan-2017 SAID34 WIHH 310100 METAR WIMK 310100Z 20003KT 5000 HZ SCT018 25/22 Q1011 NOSIG=
31-Jan-2017 SAID34 WIHH 310300 METAR WIMK 310300Z 28005KT 5000 HZ SCT 018 28/22 Q1012 NSG=
31-Jan-2017 SAID34 WIHH 310600 METAR WIMK 310600Z 32008KT 5000 HZ FEW016CB SCT017 31/22 Q1010 CB TO N=
01-Feb-2017 SAID31 WIHH 010300 METAR WIMK 010300Z 29004KT 5000 HZ SCT018 28/22 Q1012=
01-Feb-2017 SAID31 WIHH 010600 METAR WIMK 010600Z 05010KT 5000 HZ FEW017CB SCT018 30/23 Q1010 CB TO S=
03-Feb-2017 SAID34 WIHH 030000 METAR WIMK 030000Z 00000KT 7000 FEW020 23/22 Q1011 NOSIG=
03-Feb-2017 SAID34 WIHH 030600 METAR WIMK 030600Z 32008KT 7000 SCT018 31/23 Q1011 NOSIG=
04-Feb-2017 SAID34 WIHH 040000 METAR WIMK 040000Z 00000KT 5000 HZ FEW020 25/23 Q1010 NOSIG=
04-Feb-2017 SAID34 WIHH 040300 METAR WIMK 040300Z 30005KT 6000 FEW020 30/23 Q1011 NOSIG=
04-Feb-2017 SAID34 WIHH 040500 METAR WIMK 040500Z 21005KT 7000 SCT018 31/23 Q1012 NOSIG=
04-Feb-2017 SAID34 WIHH 040600 METAR WIMK 040600Z 27005KT 6000 SCT018 31/24 Q1011 NOSIG=
05-Feb-2017 SAID31 WIHH 050300 METAR WIMK 050300Z 36005KT 7000 FEW020 30/23 Q1012=
05-Feb-2017 SAID31 WIHH 050600 METAR WIMK 050600Z 36008KT 7000 FEW020 31/24 Q1012=
06-Feb-2017 SAID34 WIHH 060100 METAR WIMK 060100Z 00000KT 7000 FEW020 25/23 Q1011 NOSIG=
06-Feb-2017 SAID34 WIHH 060300 METAR WIMK 060300Z 27006KT 8000 FEW020 29/23 Q1011 NOSIG=
06-Feb-2017 SAID34 WIHH 060400 METAR WIMK 060400Z 28006KT 7000 SCT018 32/23 Q1012 NOSIG=
08-Feb-2017 SAID34 WIHH 080300 METAR WIMK 080300Z 27005KT 6000 SCT018 27/23 Q1012 NOSIG=
08-Feb-2017 SAID34 WIHH 080600 METAR WIMK 080600Z 36010KT 6000 FEW017CB BKN018 30/22 Q1011 RMK CB TO E=
09-Feb-2017 SAID31 WIHH 090300 METAR WIMK 090300Z 28007KT 5000 HZ SCT018 30/22 Q1012=
09-Feb-2017 SAID31 WIHH 090600 METAR WIMK 090600Z 36008KT 5000 HZ BKN018 33/23 Q1010=
10-Feb-2017 SAID34 WIHH 100000 METAR WIMK 100000Z 24003KT 4000 HZ BK018 26/23 Q1010=
11-Feb-2017 SAID34 WIHH 110000 METAR WIMK 110000Z 00000KT 5000 HZ SCT020 25/23 Q1011 NOSIG=
11-Feb-2017 SAID34 WIHH 110900 METAR WIMK 110900Z 05008KT 7000 SCT018 31/23 Q1011 NOSIG=
13-Feb-2017 SAID31 WIHH 130300 METAR WIMK 130300Z 00000KT 5000 HZ SCT018 29/23 Q1014=
14-Feb-2017 SAID34 WIMK 140000 METAR WIMK 140000Z 27003KT 5000 HZ FEW017CB BKN018 25/23 Q1013 REMAK CB TO E=
14-Feb-2017 SAID34 WIHH 140200 METAR WIMK 140200Z 23005KT 2000 -RA FEW014CB BKN015 24/23 Q1016 REMAK CB TO N=
14-Feb-2017 SAID34 WIHH 140300 METAR WIMK 140300Z 23005KT 4000 TS FEW016CB BKN017 25/24 Q1016=
15-Feb-2017 SAID34 WIHH 152300 METAR WIMK 152300Z 00000KT 5000 HZ SCT018 25/23 Q1012 NOSIG=
16-Feb-2017 SAID34 WIHH 160300 METAR WIMK 160300Z 27005KT 6000 SCT018 30/22 Q1013 NOSIG=
16-Feb-2017 SAID34 WIHH 160600 METAR WIMK 160600Z 34006KT 5000 -RA FEW016CB BKN017 30/23 Q1011 CB TO NW & E=
17-Feb-2017 SAID31 WIHH 170000 METAR WIMK 170000Z 00000KT 7000 SCT020 24/23 Q1011=
17-Feb-2017 SAID31 WIHH 170300 METAR WIMK 170300Z 27004KT 6000 SCT018 29/23 Q1013=
20-Feb-2017 SAID34 WIHH 200000 METAR WIMK 200000Z 23005KT 6000 FEW020 25/23 Q1012 NOSIG=
20-Feb-2017 SAID34 WIHH 200300 METAR WIMK 200300Z 31005KT 6000 SCT018 31/21 Q1010 NOSIG=
21-Feb-2017 SAID31 WIHH 210300 METAR WIMK 210300Z 27003KT 6000 SCT018 29/23 Q1013=
22-Feb-2017 SAID34 WIHH 220000 METAR WIMK 220000Z 00000KT 4000 HZ SCTO18 24/23 Q1010 NOSIG=
24-Feb-2017 SAID31 WIHH 240000 METAR WIMK 240000Z 23005KT 4000 HZ BKN017 24/22 Q1013 RERA=
25-Feb-2017 SAID31 WIHH 250000 METAR WIMK 250000Z 00000KT 7000 SCT020 25/23 Q1011=
27-Feb-2017 SAID31 WIHH 272300 METAR WIMK 272300Z 18005KT 3000 RA BKN018 24/23 Q1009=
28-Feb-2017 SAID31 WIHH 280000 METAR WIMK 280000Z 21003KT 5000 HZ BKN018 24/23 Q1010 RERA=
28-Feb-2017 SAID31 WIHH 280100 METAR WIMK 280100Z 23003KT 7000 SCT018 25/23 Q1010=
01-Mar-2017 SAID31 WIHH 010000 METAR WIMK 010000Z 00000KT 6000 SCT018 25/23 Q1010 NOSIG=
07-Mar-2017 SAID34 WIHH 070000 METAR WIMK 070000Z 36003KT 5000 FEW015CB SCT017 27/25 Q1008=
13-Mar-2017 SAID34 WIHH 130100 METAR WIMK 130100Z 18003KT 4000 HZ FEW020 27/24 Q1012 NOSIG=
16-Mar-2017 SAID31 WIHH 160000 METAR WIMK 160000Z 00000KT 6000 SCT018 26/24 Q1008 NOSIG=
05-Apr-2017 SAID31 WIHH 050000 METAR WIMK 050000Z 00000KT 6000 SCT018 25/23 Q1012 NOSIG=
07-Jun-2017 SAID31 WIHH 070000 METAR WIMK 070000Z 00000KT 6000 FEW020 26/23 Q1009 NOSIG=
26-Jun-2017 SAID31 WIHH 260000 METAR WIMK 260000Z 00000KT 6000 SCT018 25/23 Q1010 NOSIG=
29-Jun-2017 SAID34 WIHH 290000 METAR WIMK 290000Z 00000KT 6000 FEW018 24/23 Q1010 NOSIG=
25-Aug-2017 SAID31 WIHH 250000 METAR WIMK 250000Z 00000KT 5000 HZ FEW017CB 24/23 Q1008 RMK CB TO NE=
22-Nov-2017 SAID31 WIHH 220100 METAR WIMK 220100Z 00000KT 7000 FEW020 26/24 Q1008 NOSIG=
22-Nov-2017 SAID31 WIHH 220300 METAR WIMK 220300Z 00000KT 6000 SCT018 30/24 Q1009 NOSIG=
22-Nov-2017 SAID34 WIHH 220600 METAR WIMK 220600Z 05008KT 5000 HZ FEW017CB SCT018 32/23 Q1006 RMK CB TO W=
23-Nov-2017 SAID34 WIHH 230100 METAR WIMK 230100Z 26003KT 6000 SCT020 27/23 Q1008 NOSIG=
23-Nov-2017 SAID31 WIHH 230500 METAR WIMK 230500Z 33005KT 5000 HZ FEWCB017 BKN018 28/24 Q1006 CB TO N=
23-Nov-2017 SAID31 WIHH 230600 METAR WIMK 230600Z 32006KT 5000 HZ BKN018 28/24 Q1005 NOSIG=
24-Nov-2017 SAID31 WIHH 240100 METAR WIMK 240100Z 00000KT 7000 NIL FEW020 27/24 Q1005 NOSIG=
24-Nov-2017 SAID31 WIHH 240500 METAR WIMK 240500Z 36007KT 5000 HZ SCT017 31/24 Q1009 NOSIG=
24-Nov-2017 SAID31 WIHH 240700 METAR WIMK 240700Z 06010KT 5000 HZ SCT017 32/24 Q1007 NOSIG=
28-Nov-2017 SAID31 WIHH 280600 METAR WIMK 280600Z 31010KT 4000 -RA FEW016CB BKN017 28/23 Q1009 RMK CB TO SW=
28-Nov-2017 SAID31 WIHH 280700 METAR WIMK 280700Z 26010KT 4000 -RA FEW015CB BKN016 26/24 Q1009 RMK CB TO SW=
29-Nov-2017 SAID31 WIHH 290300 METAR WIMK 290300Z 36010KT 4000 -RA BKN015 26/22 Q1012 NOSIG=
29-Nov-2017 SAID31 WIHH 290600 METAR WIMK 290600Z 28008KT 5000 -RA BKN016 25/22 Q1009 NOSIG=
02-Dec-2017 SAID31 WIHH 020000 METAR WIMK 020000Z 00000KT 5000 HZ SCT018 24/23 Q1007 NOSIG=
02-Dec-2017 SAID31 WIHH 020200 METAR WIMK 020000Z 00000KT 6000 FEW020 29/24 Q1009 NOSIG=
13-Dec-2017 SAID31 WIHH 130000 METAR WIMK 130000Z 25003KT 5000 HZ BKN017 25/23 Q1012 NOSIG=
14-Dec-2017 SAID31 WIHH 140200 METAR WIMK 140200Z 27005KT 5000 HZ SCT018 27/23 Q1013 NOSIG=
20-Dec-2017 SAID31 WIHH 200000 METAR WIMK 200000Z 00000KT 4000 HZ BKN018 24/23 Q1012 NOSIG=
28-Dec-2017 SAID31 WIHH 280100 METAR WIMK 280100Z 27003KT 5000 HZ FEW020 25/23 Q1010 NOSIG=
10-Apr-2018 SAID35 WIHH 100200 CCA METAR WIMK 100200Z 00000KT 5000 HZ FEW020 28/23 Q1010 NOSIG=
23-Jul-2020 SAID35 WIMK 230900 METAR WIMK 230900Z VRB12KT 4000 -TSRA FEW016CB SCT017 30/25 Q1009 NOSIG=
23-Jul-2020 SAID35 WIMK 231000 METAR WIMK 231000Z 06005KT 4000 -RA FEWCB016 BKN017 27/25 Q1007 CB TO S=
23-Jul-2020 SAID35 WIMK 231100 METAR WIMK 231100Z 05003KT 4000 HZ FEWCB016 BKN017 26/24 Q1008 CB TO SW=
23-Jul-2020 SAID35 WIMK 232230 METAR WIMK 232230Z 00000KT 4000 HZ BKN017 24/23 Q1009 NOSIG=
23-Jul-2020 SAID35 WIMK 232300 METAR WIMK 232300Z 00000KT 4000 -RA BKN017 24/23 Q1009 NOSIG=
24-Jul-2020 SAID35 WIMK 240000 METAR WIMK 240000Z 00000KT 4000 -RA FEWCB016 BKN017 24/23 Q1009 CB TO E=
24-Jul-2020 SAID35 WIMK 240100 METAR WIMK 240100Z 00000KT 4000 -RA FEWCB016 BKN017 24/23 Q1010 CB TO E=
24-Jul-2020 SAID35 WIMK 240200 METAR WIMK 240200Z 00000KT 4000 -RA FEWCB016 BKN017 25/24 Q1010 CB TO E=
24-Jul-2020 SAID35 WIMK 240300 METAR WIMK 240300Z 18003KT 4000 -RA FEWCB016 BKN017 25/24 Q1010 CB TO E=
24-Jul-2020 SAID35 WIMK 240400 METAR WIMK 240400Z 00000KT 5000 HZ SCT017 27/24 Q1010 NOSIG=
24-Jul-2020 SAID35 WIMK 240500 METAR WIMK 240500Z 18003KT 5000 HZ SCT017 29/24 Q1009 NOSIG=
24-Jul-2020 SAID35 WIMK 240630 METAR WIMK 240630Z 17005KT 7000 SCT017 31/24 Q1009 NOSIG=
26-Jul-2020 SAID35 WIMK 260000 METAR WIMK 260000Z 00000KT 5000 HZ SCT018 24/23 Q1008 NOSIG=
26-Jul-2020 SAID35 WIMK 260100 METAR WIMK 260100Z 30003KT 6000 SCT018 25/23 Q1009 NOSIG=
26-Jul-2020 SAID35 WIMK 260200 METAR WIMK 260200Z 28003KT 6000 SCT018 26/23 Q1010 NOSIG=
26-Jul-2020 SAID35 WIMK 260400 METAR WIMK 260400Z 18005KT 6000 SCT020 30/23 Q1010 NOSIG=
26-Jul-2020 SAID35 WIMK 260730 METAR WIMK 260730Z 09012KT 4000 -RA FEWCB016 BKN017 28/25 Q1006 CB TO E=
26-Jul-2020 SAID35 WIMK 262300 METAR WIMK 262300Z 09008KT 5000 HZ SCT018 23/23 Q1008 NOSIG=
27-Jul-2020 SAID35 WIMK 270100 METAR WIMK 270100Z 15005KT 6000 SCT018 25/23 Q1008 NOSIG=
27-Jul-2020 SAID35 WIMK 270200 METAR WIMK 270200Z 15003KT 6000 SCT020 28/23 Q1008 NOSIG=
27-Jul-2020 SAID35 WIMK 270300 METAR WIMK 270300Z 11003KT 6000 SCT020 29/23 Q1008 NOSIG=
27-Jul-2020 SAID35 WIMK 270400 METAR WIMK 270400Z 11003KT 6000 SCT020 31/24 Q1008 NOSIG=
27-Jul-2020 SAID35 WIMK 270500 METAR WIMK 270500Z 09005KT 5000 HZ SCT018 32/24 Q1007 NOSIG=
27-Jul-2020 SAID35 WIMK 270800 METAR WIMK 270800Z 19008KT 4000 -TSRA FEW016CB SCT017 30/24 Q1007 NOSIG=
27-Jul-2020 SAID35 WIMK 270900 METAR WIMK 270900Z 24010KT 3000 TSRA FEW016CB BKN017 29/24 Q1008 CB TO SW=
27-Jul-2020 SAID35 WIMK 272300 METAR WIMK 272300Z 00000KT 6000 SCT018 24/23 Q1008 NOSIG=
28-Jul-2020 SAID35 WIMK 280100 METAR WIMK 280100Z 00000KT 6000 SCT020 26/23 Q1008 NOSIG=
28-Jul-2020 SAID35 WIMK 280400 METAR WIMK 280400Z 23007KT 6000 SCT020 31/23 Q1009 NOSIG=
28-Jul-2020 SAID35 WIMK 280600 METAR WIMK 280600Z 32005KT 6000 SCT018 33/23 Q1007 NOSIG=
28-Jul-2020 SAID35 WIMK 280700 METAR WIMK 280700Z 33005KT 7000 SCT018 34/22 Q1006 NOSIG=
28-Jul-2020 SAID35 WIMK 280900 METAR WIMK 280900Z 31012KT 4000 -TSRA FEW 016CB BKN017 31/23 Q1005 CB TO E=
28-Jul-2020 SAID35 WIMK 281000 METAR WIMK 281000Z 21010KT 4000 -TSRA FEW016CB BKN017 28/25 Q1006 CB OVER THE FIELD=
28-Jul-2020 SAID35 WIMK 281100 METAR WIMK 281100Z 25006KT 5000 -RA FEW016CB SCT017 28/25 Q1006 CB TO SW=
28-Jul-2020 SAID35 WIMK 282300 METAR WIMK 282300Z 00000KT 5000 HZ BKN017 23/23 Q1008 NOSIG=
29-Jul-2020 SAID35 WIMK 290400 METAR WIMK 290400Z 15008KT 7000 SCT018 32/23 Q1008 NOSIG=
29-Jul-2020 SAID35 WIMK 291000 METAR WIMK 291000Z 19010KT 4000 -TSRA FEW016CB SCT017 28/25 Q1006 CB OVER THE FIELD=
29-Jul-2020 SAID35 WIMK 292300 METAR WIMK 292300Z 00000KT 5000 HZ BKN017 24/23 Q1008 NOSIG=
30-Jul-2020 SAID35 WIMK 300430 METAR WIMK 300430Z 25007KT 7000 SCT018 32/24 Q1009 NOSIG=
30-Jul-2020 SAID35 WIMK 300500 METAR WIMK 300500Z 24006KT 7000 SCT018 33/24 Q1009 NOSIG=
30-Jul-2020 SAID35 WIMK 300530 METAR WIMK 300530Z 27007KT 7000 SCT018 33/24 Q1008 NOSIG=
30-Jul-2020 SAID35 WIMK 300930 METAR WIMK 300930Z 30008KT 4000 HZ FEW016CB BKN017 28/24 Q1006 CB TO W=
30-Jul-2020 SAID35 WIMK 301000 METAR WIMK 301000Z 30008KT 4000 TS FEW016CB BKN017 28/24 Q1007 CB TO W=
30-Jul-2020 SAID35 WIMK 302300 METAR WIMK 302300Z 00000KT 5000 HZ SCT018 24/24 Q1008 NOSIG=
31-Jul-2020 SAID35 WIMK 310100 METAR WIMK 310100Z 21002KT 5000 HZ SCT018 25/24 Q1009 NOSIG=
03-Aug-2020 SAID35 WIMK 030100 METAR WIMK 030100Z 00000KT 7000 FEW020 26/23 Q1008 NOSIG=
03-Aug-2020 SAID35 WIMK 030400 METAR WIMK 030400Z 11007KT 7000 FEW020 32/23 Q1007 NOSIG=
03-Aug-2020 SAID35 WIMK 030500 METAR WIMK 030500Z 14007KT 7000 SCT020 33/22 Q1006 NOSIG=
03-Aug-2020 SAID35 WIMK 030700 METAR WIMK 030700Z 32007KT 6000 SCT018 34/22 Q1005 NOSIG=
03-Aug-2020 SAID35 WIMK 030800 METAR WIMK 030800Z 05012KT 5000 HZ FEW016CB SCT017 34/22 Q1004 CB&RA TO SW=
03-Aug-2020 SAID35 WIMK 030900 METAR WIMK 030900Z 09010KT 5000 HZ FEW016CB SCT017 32/24 Q1005 CB&RA TO SW=
03-Aug-2020 SAID35 WIMK 031000 METAR WIMK 031000Z 18015KT 3000 RA FEW016CB BKN017 27/25 Q1004 CB TO W=
03-Aug-2020 SAID35 WIMK 032300 METAR WIMK 032300Z 00000KT 5000 HZ SCT017 23/22 Q1006 NOSIG=
04-Aug-2020 SAID35 WIMK 040000 METAR WIMK 040000Z 00000KT 5000 HZ SCT017 25/24 Q1006 NOSIG=
04-Aug-2020 SAID35 WIMK 040100 METAR WIMK 040100Z 00000KT 7000 SCT017 25/23 Q1007 NOSIG=
04-Aug-2020 SAID35 WIMK 040200 METAR WIMK 040200Z 00000KT 7000 SCT018 26/23 Q1007 NOSIG=
04-Aug-2020 SAID35 WIMK 040300 METAR WIMK 040300Z 00000KT 7000 SCT018 28/23 Q1007 NOSIG=
04-Aug-2020 SAID35 WIMK 040400 METAR WIMK 040400Z 00000KT 7000 SCT018 29/23 Q1007 NOSIG=
04-Aug-2020 SAID35 WIMK 042300 METAR WIMK 042300Z 00000KT 5000 HZ SCT018 25/24 Q1006 NOSIG=
05-Aug-2020 SAID35 WIMK 050100 METAR WIMK 050100Z 21003KT 7000 HZ SCT020 27/24 Q1007 NOSIG=
05-Aug-2020 SAID35 WIMK 050200 METAR WIMK 050200Z 23003KT 7000 HZ SCT020 29/23 Q1008 NOSIG=
05-Aug-2020 SAID35 WIMK 050300 METAR WIMK 050300Z 33005KT 7000 HZ SCT020 30/23 Q1008 NOSIG=
05-Aug-2020 SAID35 WIMK 050400 METAR WIMK 050400Z 34008KT 7000 HZ SCT020 31/23 Q1008 NOSIG=
05-Aug-2020 SAID35 WIMK 050500 METAR WIMK 050500Z 34010KT 6000 HZ SCT018 32/23 Q1008 NOSIG=
05-Aug-2020 SAID35 WIMK 050600 METAR WIMK 050600Z 34007KT 6000 SCT018 33/22 Q1007 NOSIG=
06-Aug-2020 SAID35 WIMK 060000 METAR WIMK 060000Z 00000KT 5000 HZ SCT018 25/24 Q1008 NOSIG=
06-Aug-2020 SAID35 WIMK 060100 METAR WIMK 060100Z 00000KT 5000 HZ SCT017 26/24 Q1009 NOSIG=
06-Aug-2020 SAID35 WIMK 060200 METAR WIMK 060200Z 15005KT 5000 HZ SCT017 29/24 Q1009 NOSIG=
06-Aug-2020 SAID35 WIMK 060300 METAR WIMK 060300Z 15005KT 6000 SCT017 29/24 Q1009 NOSIG=
06-Aug-2020 SAID35 WIMK 060500 METAR WIMK 060500Z 12005KT 6000 SCT018 30/24 Q1008 NOSIG=
06-Aug-2020 SAID35 WIMK 060600 METAR WIMK 060600Z 12005KT 6000 SCT018 30/24 Q1008 NOSIG=
06-Aug-2020 SAID35 WIMK 060900 METAR WIMK 060900Z 15007KT 6000 SCT018 30/24 Q1007 NOSIG=
06-Aug-2020 SAID35 WIMK 062300 METAR WIMK 062300Z 00000KT 5000 HZ SCT018 24/23 Q1008 NOSIG=
07-Aug-2020 SAID35 WIMK 070100 METAR WIMK 070100Z 00000KT 5000 HZ SCT018 28/24 Q1009 NOSIG=
07-Aug-2020 SAID35 WIMK 070130 METAR WIMK 070130Z 00000KT 5000 HZ SCT018 29/24 Q1009 NOSIG=
07-Aug-2020 SAID35 WIMK 070200 METAR WIMK 070200Z 18005KT 5000 HZ SCT018 30/24 Q1009 NOSIG=
07-Aug-2020 SAID35 WIMK 070300 METAR WIMK 070300Z 09005KT 6000 SCT018 30/24 Q1009 NOSIG=
07-Aug-2020 SAID35 WIMK 070500 METAR WIMK 070500Z 15005KT 7000 SCT018 31/24 Q1008 NOSIG=
07-Aug-2020 SAID35 WIMK 070700 METAR WIMK 070700Z 09008KT 6000 SCT018 32/24 Q1008 NOSIG=
07-Aug-2020 SAID35 WIMK 071000 METAR WIMK 071000Z 33006KT 5000 HZ SCT018 31/24 Q1007 NOSIG=
07-Aug-2020 SAID35 WIMK 072330 METAR WIMK 072300Z 00000KT 5000 HZ SCT018 24/23 Q1006 NOSIG=
08-Aug-2020 SAID35 WIMK 080000 METAR WIMK 080000Z 00000KT 5000 HZ SCT018 25/24 Q1006 NOSIG=
08-Aug-2020 SAID35 WIMK 080100 METAR WIMK 080100Z 00000KT 5000 HZ SCT018 26/23 Q1007 NOSIG=
08-Aug-2020 SAID35 WIMK 080300 METAR WIMK 080300Z 15005KT 5000 HZ SCT018 29/23 Q1008 NOSIG=
08-Aug-2020 SAID35 WIMK 080500 METAR WIMK 080500Z 18005KT 5000 HZ SCT018 31/23 Q1008 NOSIG=
08-Aug-2020 SAID35 WIMK 080600 METAR WIMK 080600Z 32005KT 5000 HZ SCT018 31/23 Q1008 NOSIG=
08-Aug-2020 SAID35 WIMK 080800 METAR WIMK 080800Z 30008KT 5000 HZ SCT018 31/23 Q1008 CB&RA TO SW=
09-Aug-2020 SAID35 WIMK 090000 METAR WIMK 090000Z 00000KT 5000 HZ SCT018 25/24 Q1006 NOSIG=
09-Aug-2020 SAID35 WIMK 090100 METAR WIMK 090100Z 00000KT 5000 HZ SCT020 26/23 Q1008 NOSIG=
09-Aug-2020 SAID35 WIMK 090400 METAR WIMK 090400Z 15007KT 6000 SCT020 32/24 Q1009 NOSIG=
09-Aug-2020 SAID35 WIMK 090500 METAR WIMK 090500Z 27005KT 7000 FEW020 33/23 Q1007 NOSIG=
09-Aug-2020 SAID35 WIMK 090600 METAR WIMK 090600Z 33005KT 7000 FEW020 34/23 Q1006 NOSIG=
09-Aug-2020 SAID35 WIMK 090900 METAR WIMK 090900Z 30007KT 6000 SCT018 31/24 Q1007 NOSIG=
10-Aug-2020 SAID35 WIMK 100100 METAR WIMK 100100Z 00000KT 7000 FEW020 29/23 Q1009 NOSIG=
10-Aug-2020 SAID35 WIMK 100200 METAR WIMK 100200Z 12005KT 7000 FEW020 30/23 Q1009 NOSIG=
10-Aug-2020 SAID35 WIMK 100300 METAR WIMK 100300Z 33008KT 6000 FEW020 30/23 Q1010 NOSIG=
10-Aug-2020 SAID35 WIMK 100600 METAR WIMK 100600Z 27010KT 6000 SCT020 33/23 Q1009 NOSIG=
10-Aug-2020 SAID35 WIMK 100700 METAR WIMK 100700Z 33010KT 7000 SCT018 34/23 Q1007 NOSIG=
10-Aug-2020 SAID35 WIMK 100800 METAR WIMK 100800Z 05010KT 6000 SCT018 32/24 Q1007 NOSIG=
10-Aug-2020 SAID35 WIMK 100900 METAR WIMK 100900Z 05010KT 6000 SCT018 32/24 Q1006 NOSIG=
10-Aug-2020 SAID35 WIMK 102300 METAR WIMK 102300Z 00000KT 6000 SCT018 24/23 Q1008 NOSIG=
11-Aug-2020 SAID35 WIMK 110100 METAR WIMK 110000Z 00000KT 5000 HZ SCT018 26/23 Q1009 NOSIG=
11-Aug-2020 SAID35 WIMK 110200 METAR WIMK 110200Z 12003KT 5000 HZ SCT018 27/23 Q1010 NOSIG=
11-Aug-2020 SAID35 WIMK 110300 METAR WIMK 110300Z 15003KT 6000 SCT018 29/23 Q1010 NOSIG=
11-Aug-2020 SAID35 WIMK 110400 METAR WIMK 110400Z 15003KT 5000 HZ SCT018 30/23 Q1011 NOSIG=
11-Aug-2020 SAID35 WIMK 110500 METAR WIMK 110500Z 15003KT 5000 HZ SCT018 30/23 Q1010 NOSIG=
11-Aug-2020 SAID35 WIMK 110600 METAR WIMK 110600Z 18005KT 5000 HZ SCT018 30/23 Q1009 NOSIG=
11-Aug-2020 SAID35 WIMK 110700 METAR WIMK 110700Z 18005KT 5000 HZ BKN017 30/23 Q1009 NOSIG=
11-Aug-2020 SAID35 WIMK 110800 METAR WIMK 110800Z 18009KT 3000 -TSRA FEWCB016 BKN017 26/24 Q1008 CB TO W=
11-Aug-2020 SAID35 WIMK 110900 METAR WIMK 110900Z 15005KT 5000 HZ SCT018 28/24 Q1008 NOSIG=
11-Aug-2020 SAID35 WIMK 111000 METAR WIMK 111000Z 21005KT 5000 HZ SCT018 28/24 Q1009 NOSIG=
11-Aug-2020 SAID35 WIMK 112300 METAR WIMK 112300Z 00000KT 5000 -RA FEW016CB BKN017 24/23 Q1010 CB TO NE=
12-Aug-2020 SAID35 WIMK 120000 METAR WIMK 120000Z 00000KT 5000 -RA FEW016CB BKN017 24/23 Q1010 CB TO NE=
12-Aug-2020 SAID35 WIMK 120100 METAR WIMK 120100Z 00000KT 5000 -RA FEW016CB SCT017 24/23 Q1011 CB TO N=
12-Aug-2020 SAID35 WIMK 120200 METAR WIMK 120200Z 00000KT 5000 -RA FEW016CB SCT017 25/24 Q1012 CB TO N=
12-Aug-2020 SAID35 WIMK 120300 METAR WIMK 120300Z 00000KT 4000 -RA FEW016CB BKN017 25/24 Q1012 CB TO NW=
12-Aug-2020 SAID35 WIMK 120400 METAR WIMK 120400Z 18005KT 5000 -RA FEW016CB BKN017 25/24 Q1012 CB TO W=
12-Aug-2020 SAID35 WIMK 120500 METAR WIMK 120500Z 18005KT 6000 FEW016CB SCT017 27/24 Q1011 CB TO W=
12-Aug-2020 SAID35 WIMK 120600 METAR WIMK 120600Z 14012KT 6000 FEW016CB BKN017 28/24 Q1010 CB&RA TO W=
12-Aug-2020 SAID35 WIMK 120700 METAR WIMK 120700Z 12013KT 6000 FEW016CB BKN017 28/24 Q1009 CB&RA TO E=
12-Aug-2020 SAID35 WIMK 120900 METAR WIMK 120900Z 18010KT 6000 -RA BKN017 27/24 Q1007 NOSIG=
12-Aug-2020 SAID35 WIMK 121000 METAR WIMK 121000Z 12005KT 5000 HZ SCT017 28/24 Q1008 NOSIG=
12-Aug-2020 SAID35 WIMK 121100 METAR WIMK 121100Z 14005KT 5000 HZ SCT017 27/24 Q1009 NOSIG=
12-Aug-2020 SAID35 WIMK 122300 METAR WIMK 122300Z 00000KT 5000 HZ BKN017 24/23 Q1009 NOSIG=
13-Aug-2020 SAID35 WIMK 130000 METAR WIMK 130000Z 00000KT 5000 HZ BKN017 24/23 Q1010 NOSIG=
13-Aug-2020 SAID35 WIMK 130100 METAR WIMK 130100Z 15005KT 5000 HZ SCT018 27/24 Q1011 NOSIG=
13-Aug-2020 SAID35 WIMK 130200 METAR WIMK 130200Z 12005KT 5000 HZ SCT018 28/24 Q1011 NOSIG=
13-Aug-2020 SAID35 WIMK 130300 METAR WIMK 130300Z 12010KT 5000 HZ SCT018 29/24 Q1010 NOSIG=
13-Aug-2020 SAID35 WIMK 130400 METAR WIMK 130400Z 15005KT 5000 HZ SCT018 30/23 Q1010 NOSIG=
13-Aug-2020 SAID35 WIMK 130500 METAR WIMK 130500Z 06008KT 5000 HZ SCT018 31/23 Q1009 NOSIG=
13-Aug-2020 SAID35 WIMK 130600 METAR WIMK 130600Z 08009KT 5000 HZ SCT018 33/23 Q1008 NOSIG=
13-Aug-2020 SAID35 WIMK 130700 METAR WIMK 130700Z 06008KT 6000 SCT017 34/23 Q1007 NOSIG=
13-Aug-2020 SAID35 WIMK 130800 METAR WIMK 130800Z 06008KT 6000 SCT017 35/23 Q1006 NOSIG=
13-Aug-2020 SAID35 WIMK 130830 METAR WIMK 130830Z 04012KT 5000 TS FEW016CB BKN017 32/24 Q1006 CB&RA TO NE=
13-Aug-2020 SAID35 WIMK 132300 METAR WIMK 132300Z 00000KT 4000 HZ SCT018 24/23 Q1007 NOSIG=
14-Aug-2020 SAID35 WIMK 140000 METAR WIMK 140000Z 00000KT 6000 SCT018 24/23 Q1009 NOSIG=
14-Aug-2020 SAID35 WIMK 140100 METAR WIMK 140100Z 00000KT 6000 SCT018 25/23 Q1010 NOSIG=
14-Aug-2020 SAID35 WIMK 140200 METAR WIMK 140200Z 00000KT 6000 SCT018 25/23 Q1011 NOSIG=
14-Aug-2020 SAID35 WIMK 140300 METAR WIMK 140300Z 00000KT 6000 SCT018 27/23 Q1011 NOSIG=
14-Aug-2020 SAID35 WIMK 140400 METAR WIMK 140400Z 09006KT 6000 SCT018 29/23 Q1011 NOSIG=
14-Aug-2020 SAID35 WIMK 140500 METAR WIMK 140500Z 06005KT 6000 SCT018 30/23 Q1010 NOSIG=
14-Aug-2020 SAID35 WIMK 140600 METAR WIMK 140600Z 12006KT 6000 SCT018 30/23 Q1009 NOSIG=
14-Aug-2020 SAID35 WIMK 140700 METAR WIMK 140700Z 15006KT 6000 SCT018 30/23 Q1009 NOSIG=
14-Aug-2020 SAID35 WIMK 140800 METAR WIMK 140800Z 15006KT 6000 SCT018 30/23 Q1008 NOSIG=
14-Aug-2020 SAID35 WIMK 140900 METAR WIMK 140900Z 21005KT 6000 SCT018 30/23 Q1008 NOSIG=
14-Aug-2020 SAID35 WIMK 141000 METAR WIMK 141000Z 09007KT 6000 SCT018 29/23 Q1008 NOSIG=
14-Aug-2020 SAID35 WIMK 141100 METAR WIMK 141100Z 15007KT 6000 SCT018 28/23 Q1009 NOSIG=
14-Aug-2020 SAID35 WIMK 142300 METAR WIMK 142300Z 00000KT 5000 HZ BKN017 24/23 Q1009 NOSIG=
15-Aug-2020 SAID35 WIMK 150500 METAR WIMK 150500Z 32007KT 6000 SCT018 33/23 Q1007 NOSIG=
15-Aug-2020 SAID35 WIMK 150600 METAR WIMK 150600Z 34008KT 5000 HZ SCT018 33/23 Q1008 NOSIG=
15-Aug-2020 SAID35 WIMK 150700 METAR WIMK 150700Z 33007KT 5000 HZ FEW016CB SCT017 32/23 Q1007 CB&RA TO S=
15-Aug-2020 SAID35 WIMK 150900 METAR WIMK 150900Z 06013KT 5000 HZ FEW016CB BKN017 30/24 Q1006 CB&RA TO W=
15-Aug-2020 SAID35 WIMK 151100 METAR WIMK 151100Z 00000KT 5000 HZ SCT018 27/24 Q1007 NOSIG=
15-Aug-2020 SAID35 WIMK 152300 METAR WIMK 152300Z 00000KT 5000 HZ BKN017 24/23 Q1010 NOSIG=
16-Aug-2020 SAID35 WIMK 160000 METAR WIMK 160000Z 00000KT 5000 HZ SCT017 25/23 Q1010 NOSIG=
16-Aug-2020 SAID35 WIMK 160100 METAR WIMK 160100Z 00000KT 5000 HZ SCT017 27/23 Q1011 NOSIG=
16-Aug-2020 SAID35 WIMK 160200 METAR WIMK 160200Z 00000KT 5000 HZ SCT017 28/23 Q1011 NOSIG=
16-Aug-2020 SAID35 WIMK 160900 METAR WIMK 160900Z 09012KT 5000 HZ FEW016CB SCT017 32/23 Q1006 CB TO W=
16-Aug-2020 SAID35 WIMK 162300 METAR WIMK 162300Z 00000KT 5000 HZ SCT018 24/23 Q1008 NOSIG=
17-Aug-2020 SAID35 WIMK 170000 METAR WIMK 170000Z 00000KT 5000 HZ SCT018 24/23 Q1009 NOSIG=
17-Aug-2020 SAID35 WIMK 170100 METAR WIMK 170100Z 00000KT 6000 SCT018 26/23 Q1009 NOSIG=
17-Aug-2020 SAID35 WIMK 170200 METAR WIMK 170200Z 12004KT 6000 SCT018 28/23 Q1010 NOSIG=
17-Aug-2020 SAID35 WIMK 170300 METAR WIMK 170300Z 12004KT 6000 SCT018 28/23 Q1010 NOSIG=
17-Aug-2020 SAID35 WIMK 170400 METAR WIMK 170400Z 15005KT 6000 SCT018 30/23 Q1011 NOSIG=
17-Aug-2020 SAID35 WIMK 170500 METAR WIMK 170500Z 21005KT 6000 SCT018 31/23 Q1010 NOSIG=
17-Aug-2020 SAID35 WIMK 170600 METAR WIMK 170600Z 15005KT 6000 SCT018 31/23 Q1009 NOSIG=
17-Aug-2020 SAID35 WIMK 170700 METAR WIMK 170700Z 25005KT 6000 SCT018 31/23 Q1008 NOSIG=
17-Aug-2020 SAID35 WIMK 170800 METAR WIMK 170800Z 24009KT 5000 TS FEWCB017 SCT018 29/23 Q1007 CB TO SE=
17-Aug-2020 SAID35 WIMK 170900 METAR WIMK 170900Z 09007KT 5000 TS FEWCB017 SCT018 29/23 Q1007 CB TO E=
17-Aug-2020 SAID35 WIMK 171000 METAR WIMK 171000Z 12006KT 5000 HZ SCT018 29/23 Q1008 NOSIG=
17-Aug-2020 SAID35 WIMK 171100 METAR WIMK 171100Z 24005KT 5000 HZ SCT018 29/23 Q1009 NOSIG=
17-Aug-2020 SAID35 WIMK 172300 METAR WIMK 172300Z 00000KT 5000 HZ SCT018 25/24 Q1009 NOSIG=
18-Aug-2020 SAID35 WIMK 180200 METAR WIMK 180200Z 00000KT 5000 HZ SCT018 27/24 Q1010 NOSIG=
18-Aug-2020 SAID35 WIMK 180300 METAR WIMK 180300Z 31003KT 5000 HZ SCT018 29/24 Q1010 NOSIG=
18-Aug-2020 SAID35 WIMK 180400 METAR WIMK 180400Z 32003KT 5000 HZ SCT018 31/24 Q1010 NOSIG=
18-Aug-2020 SAID35 WIMK 180500 METAR WIMK 180500Z 27005KT 5000 HZ SCT018 32/23 Q1009 NOSIG=
18-Aug-2020 SAID35 WIMK 180600 METAR WIMK 180600Z 30010KT 5000 HZ SCT018 32/23 Q1008 NOSIG=
18-Aug-2020 SAID35 WIMK 181000 METAR WIMK 181000Z 04010KT 5000 HZ FEW016CB SCT017 29/225 Q1006 CB TO S=
18-Aug-2020 SAID35 WIMK 182300 METAR WIMK 182300Z 00000KT 4000 HZ SCT018 24/23 Q1007 NOSIG=
19-Aug-2020 SAID35 WIMK 190100 METAR WIMK 190100Z 00000KT 4000 HZ SCT018 25/23 Q1009 NOSIG=
19-Aug-2020 SAID35 WIMK 190200 METAR WIMK 190200Z 00000KT 5000 HZ SCT018 26/23 Q1010 NOSIG=
19-Aug-2020 SAID35 WIMK 190300 METAR WIMK 190300Z 27002KT 5000 HZ SCT018 27/23 Q1010 NOSIG=
19-Aug-2020 SAID35 WIMK 190400 METAR WIMK 190400Z 21002KT 5000 HZ SCT018 28/23 Q1009 NOSIG=
19-Aug-2020 SAID35 WIMK 190500 METAR WIMK 190500Z 18004KT 5000 HZ SCT018 29/23 Q1009 NOSIG=
19-Aug-2020 SAID35 WIMK 192300 METAR WIMK 192300Z 00000KT 4000 BR SCT017 24/23 Q1007 NOSIG=
20-Aug-2020 SAID35 WIMK 200200 METAR WIMK 200200Z 00000KT 4000 HZ SCT017 27/24 Q1011 NOSIG=
20-Aug-2020 SAID35 WIMK 200500 METAR WIMK 200500Z 00000KT 5000 HZ SCT017 30/24 Q1009 NOSIG=
21-Aug-2020 SAID35 WIMK 210700 METAR WIMK 210700Z 13005KT 5000 HZ BKN017 30/24 Q1008 NOSIG=
21-Aug-2020 SAID35 WIMK 210800 METAR WIMK 210800Z 17005KT 5000 HZ SCT017 31/24 Q1007 NOSIG=
21-Aug-2020 SAID35 WIMK 210900 METAR WIMK 210900Z 21005KT 5000 HZ SCT017 30/24 Q1006 NOSIG=
21-Aug-2020 SAID35 WIMK 211000 METAR WIMK 211000Z 31005KT 4000 HZ FEW016CB BKN017 28/25 Q1007 CB&RA TO E=
21-Aug-2020 SAID35 WIMK 211100 METAR WIMK 211100Z 34003KT 4000 HZ FEW016CB BKN017 27/25 Q1008 CB&RA TO SE=
21-Aug-2020 SAID35 WIMK 212300 METAR WIMK 212300Z 00000KT 4000 HZ SCT018 24/23 Q1009 NOSIG=
22-Aug-2020 SAID35 WIMK 220000 METAR WIMK 220000Z 00000KT 5000 HZ SCT018 25/23 Q1010 NOSIG=
22-Aug-2020 SAID35 WIMK 220100 METAR WIMK 220100Z 00000KT 5000 HZ SCT018 25/23 Q1010 NOSIG=
22-Aug-2020 SAID35 WIMK 220200 METAR WIMK 220200Z 00000KT 4000 FBLRA BKN017 25/23 Q1010 NOSIG=
22-Aug-2020 SAID35 WIMK 220300 METAR WIMK 220300Z 12004KT 4000 FBLRA BKN017 26/23 Q1011 NOSIG=
22-Aug-2020 SAID35 WIMK 220400 METAR WIMK 220400Z 15003KT 4000 FBLRA BKN017 26/23 Q1012 NOSIG=
22-Aug-2020 SAID35 WIMK 220500 METAR WIMK 220500Z 21003KT 4000 HZ BKN017 27/23 Q1011 NOSIG=
22-Aug-2020 SAID35 WIMK 220600 METAR WIMK 220600Z 27003KT 4000 HZ BKN017 27/23 Q1010 NOSIG=
22-Aug-2020 SAID35 WIMK 220700 METAR WIMK 220700Z 27005KT 5000 HZ BKN017 28/23 Q1010 NOSIG=
22-Aug-2020 SAID35 WIMK 220800 METAR WIMK 220800Z 24007KT 5000 HZ BKN017 28/23 Q1009 NOSIG=
22-Aug-2020 SAID35 WIMK 220900 METAR WIMK 220900Z 18006KT 5000 HZ BKN017 28/23 Q1009 NOSIG=
22-Aug-2020 SAID35 WIMK 221000 METAR WIMK 221000Z 21006KT 5000 HZ FEWCB016 BKN017 28/23 Q1009 CB TO W=
22-Aug-2020 SAID35 WIMK 221100 METAR WIMK 221100Z 15006KT 3000 TSRA FEWCB015 BKN016 25/24 Q1010 CB TO E=
23-Aug-2020 SAID35 WIMK 230000 METAR WIMK 230000Z 00000KT 5000 HZ SCT017 25/24 Q1010 NOSIG=
23-Aug-2020 SAID35 WIMK 230100 METAR WIMK 230100Z 00000KT 6000 FEW020 26/24 Q1011 NOSIG=
23-Aug-2020 SAID35 WIMK 230200 METAR WIMK 230200Z 00000KT 6000 FEW020 27/24 Q1011 NOSIG=
23-Aug-2020 SAID35 WIMK 230630 METAR WIMK 230630Z 00000KT 6000 SCT018 32/24 Q1009 NOSIG=
23-Aug-2020 SAID35 WIMK 230700 METAR WIMK 230700Z 33005KT 6000 SCT018 33/24 Q1009 NOSIG=
23-Aug-2020 SAID35 WIMK 230800 METAR WIMK 230800Z 09005KT 5000 HZ SCT018 34/24 Q1008 NOSIG=
23-Aug-2020 SAID35 WIMK 232300 METAR WIMK 232300Z 00000KT 5000 HZ SCT018 24/23 Q1009 NOSIG=
24-Aug-2020 SAID35 WIMK 240000 METAR WIMK 240000Z 00000KT 5000 HZ SCT018 25/24 Q1010 NOSIG=
24-Aug-2020 SAID35 WIMK 240100 METAR WIMK 240100Z 00000KT 5000 HZ SCT018 26/24 Q1010 NOSIG=
24-Aug-2020 SAID35 WIMK 240600 METAR WIMK 240600Z 03012KT 5000 HZ SCT018 33/23 Q1008 NOSIG=
24-Aug-2020 SAID35 WIMK 240700 METAR WIMK 240700Z 05008KT 5000 HZ SCT018 33/23 Q1007 NOSIG=
24-Aug-2020 SAID35 WIMK 240800 METAR WIMK 240800Z 09012KT 5000 HZ SCT018 34/22 Q1007 NOSIG=
24-Aug-2020 SAID35 WIMK 240900 METAR WIMK 240900Z 06007KT 5000 HZ SCT018 33/23 Q1006 NOSIG=
24-Aug-2020 SAID35 WIMK 241000 METAR WIMK 241000Z 09006KT 5000 HZ SCT018 32/24 Q1007 NOSIG=
24-Aug-2020 SAID35 WIMK 241100 METAR WIMK 241100Z 06006KT 5000 HZ SCT018 29/23 Q1008 NOSIG=
24-Aug-2020 SAID35 WIMK 242300 METAR WIMK 242300Z 00000KT 5000 HZ BKN017 24/23 Q1009 NOSIG=
25-Aug-2020 SAID35 WIMK 250000 METAR WIMK 250000Z 00000KT 4000 HZ BKN017 24/23 Q1010 NOSIG=
25-Aug-2020 SAID35 WIMK 250100 METAR WIMK 250100Z 00000KT 4000 HZ BKN017 24/23 Q1010 NOSIG=
25-Aug-2020 SAID35 WIMK 250800 METAR WIMK 250800Z 07006KT 5000 HZ SCT018 31/23 Q1006 NOSIG=
25-Aug-2020 SAID35 WIMK 250900 METAR WIMK 250900Z 09012KT 5000 HZ FEW016CB SCT017 30/24 Q1007 CB&RA TO W=
25-Aug-2020 SAID35 WIMK 251030 METAR WIMK 251030Z 06008KT 5000 HZ FEW016CB SCT017 30/24 Q1008 CB&RA TO S=
25-Aug-2020 SAID35 WIMK 251100 METAR WIMK 251100Z 03005KT 5000 HZ FEW016CB SCT017 28/24 Q1009 CB&RA TO SE=
25-Aug-2020 SAID35 WIMK 252300 METAR WIMK 252300Z 00000KT 4000 HZ SCT018 25/24 Q1009 NOSIG=
26-Aug-2020 SAID35 WIMK 260100 METAR WIMK 260100Z 00000KT 4000 HZ FEW016CB BKN017 26/24 Q1011 CB&RA TO W=
26-Aug-2020 SAID35 WIMK 260200 METAR WIMK 260200Z 09003KT 5000 HZ BKN017 28/24 Q1011 NOSIG=
26-Aug-2020 SAID35 WIMK 260300 METAR WIMK 260300Z 18003KT 5000 HZ SCT017 30/23 Q1011 NOSIG=
26-Aug-2020 SAID35 WIMK 260400 METAR WIMK 260400Z 24005KT 5000 HZ SCT018 31/23 Q1010 NOSIG=
26-Aug-2020 SAID35 WIMK 260500 METAR WIMK 260500Z 33006KT 5000 HZ BKN018 31/24 Q1010 NOSIG=
26-Aug-2020 SAID35 WIMK 260600 METAR WIMK 260600Z 33007KT 5000 HZ FEW017CB SCT018 30/24 Q1010 CB TO S=
26-Aug-2020 SAID35 WIMK 260800 METAR WIMK 260800Z 24007KT 5000 HZ BKN017 33/23 Q1007 NOSIG=
26-Aug-2020 SAID35 WIMK 261000 METAR WIMK 261000Z 36006KT 5000 HZ FEW016CB BKN017 30/24 Q1007 CB&RA TO S=
26-Aug-2020 SAID35 WIMK 262300 METAR WIMK 262300Z 00000KT 4000 HZ SCT018 25/24 Q1009 NOSIG=
27-Aug-2020 SAID35 WIMK 270000 METAR WIMK 270000Z 00000KT 4000 HZ SCT018 25/24 Q1010 NOSIG=
27-Aug-2020 SAID35 WIMK 270100 METAR WIMK 270100Z 27003KT 5000 HZ SCT018 26/24 Q1011 NOSIG=
27-Aug-2020 SAID35 WIMK 270200 METAR WIMK 270200Z 21003KT 5000 HZ SCT018 28/24 Q1011 NOSIG=
27-Aug-2020 SAID35 WIMK 270300 METAR WIMK 270300Z 24006KT 5000 HZ SCT018 30/24 Q1011 NOSIG=
27-Aug-2020 SAID35 WIMK 270400 METAR WIMK 270400Z 24006KT 5000 HZ SCT018 30/24 Q1010 NOSIG=
27-Aug-2020 SAID35 WIMK 270500 METAR WIMK 270500Z 21006KT 6000 HZ SCT018 30/24 Q1010 NOSIG=
27-Aug-2020 SAID35 WIMK 270600 METAR WIMK 270600Z 27006KT 6000 SCT018 30/24 Q1009 NOSIG=
27-Aug-2020 SAID35 WIMK 270700 METAR WIMK 270700Z 21006KT 5000 HZ BKN017 29/24 Q1009 NOSIG=
27-Aug-2020 SAID35 WIMK 270800 METAR WIMK 270800Z 27008KT 4000 RA BKN017 29/24 Q1008 NOSIG=
27-Aug-2020 SAID35 WIMK 270900 METAR WIMK 270900Z 21008KT 3000 TSRA FEWCB016 BKN017 27/24 Q1008 CB TO N=
28-Aug-2020 SAID35 WIMK 280000 METAR WIMK 280000Z 00000KT 4000 HZ BKN017 25/24 Q1008 NOSIG=
28-Aug-2020 SAID35 WIMK 280100 METAR WIMK 280100Z 00000KT 4000 HZ BKN017 25/24 Q1009 NOSIG=
28-Aug-2020 SAID35 WIMK 280200 METAR WIMK 280200Z 00000KT 4000 -RA BKN016 26/24 Q1010 NOSIG=
28-Aug-2020 SAID35 WIMK 280300 METAR WIMK 280300Z 00000KT 4000 HZ SCT017 28/24 Q1010 NOSIG=
28-Aug-2020 SAID35 WIMK 280600 METAR WIMK 280600Z 00000KT 5000 HZ SCT017 29/24 Q1008 NOSIG=
28-Aug-2020 SAID35 WIMK 280700 METAR WIMK 280700Z 00000KT 5000 HZ SCT017 30/24 Q1007 NOSIG=
28-Aug-2020 SAID35 WIMK 280800 METAR WIMK 280800Z 06005KT 5000 HZ SCT017 31/24 Q1006 NOSIG=
28-Aug-2020 SAID35 WIMK 280900 METAR WIMK 280900Z 09005KT 5000 HZ SCT017 30/24 Q1005 NOSIG=
28-Aug-2020 SAID35 WIMK 281000 METAR WIMK 281000Z 30006KT 5000 HZ SCT017 29/24 Q1006 NOSIG=
28-Aug-2020 SAID35 WIMK 281100 METAR WIMK 281100Z 00000KT 5000 HZ SCT018 29/24 Q1007 NOSIG=
29-Aug-2020 SAID35 WIMK 290200 METAR WIMK 290200Z 00000KT 5000 HZ SCT018 25/24 Q1008 NOSIG=
29-Aug-2020 SAID35 WIMK 290400 METAR WIMK 290400Z 31006KT 5000 HZ SCT018 31/23 Q1009 NOSIG=
29-Aug-2020 SAID35 WIMK 290500 METAR WIMK 290500Z 34007KT 5000 HZ SCT017 32/23 Q1008 NOSIG=
29-Aug-2020 SAID35 WIMK 290600 METAR WIMK 290600Z 02005KT 6000 SCT017 33/22 Q1007 NOSIG=
29-Aug-2020 SAID35 WIMK 290700 METAR WIMK 290700Z 05006KT 6000 SCT017 34/22 Q1007 NOSIG=
29-Aug-2020 SAID35 WIMK 290800 METAR WIMK 290800Z 05006KT 6000 SCT017 34/22 Q1006 NOSIG=
29-Aug-2020 SAID35 WIMK 291000 METAR WIMK 291000Z 13007KT 5000 HZ FEW016CB SCT017 30/24 Q1006 CB&RA TO S=
29-Aug-2020 SAID35 WIMK 292300 METAR WIMK 292300Z 00000KT 4000 HZ SCT017 24/24 Q1007 NOSIG=
30-Aug-2020 SAID35 WIMK 300000 METAR WIMK 300000Z 00000KT 4000 HZ SCT017 24/24 Q1008 NOSIG=
30-Aug-2020 SAID35 WIMK 300100 METAR WIMK 300100Z 00000KT 5000 HZ SCT017 25/24 Q1009 NOSIG=
30-Aug-2020 SAID35 WIMK 300200 METAR WIMK 300200Z 00000KT 6000 SCT018 26/24 Q1008 NOSIG=
30-Aug-2020 SAID35 WIMK 300300 METAR WIMK 300300Z 00000KT 6000 SCT018 29/24 Q1009 NOSIG=
30-Aug-2020 SAID35 WIMK 300400 METAR WIMK 300400Z 00000KT 6000 SCT018 29/23 Q1008 NOSIG=
30-Aug-2020 SAID35 WIMK 300500 METAR WIMK 300500Z 16004KT 6000 SCT018 30/23 Q1008 NOSIG=
30-Aug-2020 SAID35 WIMK 302300 METAR WIMK 302300Z 00000KT 4000 HZ SCT018 25/24 Q1006 NOSIG=
31-Aug-2020 SAID35 WIMK 310000 METAR WIMK 310000Z 18004KT 6000 SCT018 29/24 Q1009 NOSIG=
31-Aug-2020 SAID35 WIMK 310300 METAR WIMK 310300Z 18004KT 6000 SCT018 29/24 Q1009 NOSIG=
31-Aug-2020 SAID35 WIMK 310400 METAR WIMK 310400Z 21004KT 6000 SCT018 30/24 Q1010 NOSIG=
31-Aug-2020 SAID35 WIMK 310500 METAR WIMK 310500Z 24006KT 6000 SCT018 30/24 Q1009 NOSIG=
31-Aug-2020 SAID35 WIMK 310600 METAR WIMK 310600Z 27008KT 6000 SCT018 30/24 Q1008 NOSIG=
31-Aug-2020 SAID35 WIMK 310700 METAR WIMK 310700Z 18008KT 6000 SCT018 30/24 Q1008 NOSIG=
31-Aug-2020 SAID35 WIMK 310800 METAR WIMK 310800Z 24007KT 6000 SCT018 30/24 Q1007 NOSIG=
31-Aug-2020 SAID35 WIMK 310900 METAR WIMK 310900Z 27008KT 4000 TSRA FEWCB016 BKN017 27/24 Q1007 CB TO S=
31-Aug-2020 SAID35 WIMK 311000 METAR WIMK 311000Z 18006KT 4000 TSRA FEWCB016 BKN017 26/24 Q1008 CB TO S=
31-Aug-2020 SAID35 WIMK 311100 METAR WIMK 311100Z 21004KT 4000 TSRA FEWCB016 BKN017 26/24 Q1008 CB TO S=
31-Aug-2020 SAID35 WIMK 312300 METAR WIMK 312300Z 00000KT 4000 BR BKN017 24/23 Q1009 NOSIG=
01-Sep-2020 SAID35 WIMK 010000 METAR WIMK 010000Z 00000KT 4000 BR BKN017 24/23 Q1008 NOSIG=
01-Sep-2020 SAID35 WIMK 010100 METAR WIMK 010100Z 00000KT 6000 SCT017 25/23 Q1009 NOSIG=
01-Sep-2020 SAID35 WIMK 010200 METAR WIMK 010200Z 15003KT 6000 SCT018 27/23 Q1010 NOSIG=
01-Sep-2020 SAID35 WIMK 010300 METAR WIMK 010300Z 29003KT 6000 SCT018 29/23 Q1010 NOSIG=
01-Sep-2020 SAID35 WIMK 010400 METAR WIMK 010400Z 29003KT 6000 SCT018 30/23 Q1009 NOSIG=
01-Sep-2020 SAID35 WIMK 010600 METAR WIMK 010600Z 330006KT 6000 SCT018 32/23 Q1008 NOSIG=
01-Sep-2020 SAID35 WIMK 010700 METAR WIMK 010700Z 350006KT 7000 SCT018 33/22 Q1007 NOSIG=
01-Sep-2020 SAID35 WIMK 011000 METAR WIMK 011000Z 27006KT 6000 SCT018 32/23 Q1006 NOSIG=
01-Sep-2020 SAID35 WIMK 012300 METAR WIMK 012300Z 00000KT 5000 HZ SCT018 24/23 Q1008 NOSIG=
02-Sep-2020 SAID35 WIMK 020300 METAR WIMK 020300Z 06005KT 7000 FEW020 30/23 Q1009 NOSIG=
02-Sep-2020 SAID35 WIMK 020400 METAR WIMK 020400Z 06005KT 7000 SCT018 32/23 Q1009 NOSIG=
02-Sep-2020 SAID35 WIMK 020600 METAR WIMK 020600Z 06005KT 7000 SCT018 33/23 Q1008 NOSIG=
02-Sep-2020 SAID35 WIMK 020700 METAR WIMK 020700Z 12008KT 6000 SCT018 34/23 Q1007 NOSIG=
02-Sep-2020 SAID35 WIMK 021000 METAR WIMK 021000Z 25008KT 5000 HZ SCT018 30/23 Q1008 NOSIG=
02-Sep-2020 SAID35 WIMK 021100 METAR WIMK 021100Z 29006KT 5000 HZ SCT018 29/23 Q1009 NOSIG=
02-Sep-2020 SAID35 WIMK 022200 METAR WIMK 022200Z 00000KT 5000 HZ BKN017 24/23 Q1008 NOSIG=
02-Sep-2020 SAID35 WIMK 022300 METAR WIMK 022300Z 00000KT 5000 HZ BKN017 24/23 Q1009 NOSIG=
03-Sep-2020 SAID35 WIMK 030000 METAR WIMK 030000Z 00000KT 6000 SCT18 25/23 Q1010 NOSIG=
03-Sep-2020 SAID35 WIMK 030100 METAR WIMK 030100Z 10003KT 6000 SCT18 26/23 Q1010 NOSIG=
03-Sep-2020 SAID35 WIMK 030200 METAR WIMK 030200Z 18004KT 7000 SCT02. 29/23 Q1011 NOSIG=
03-Sep-2020 SAID35 WIMK 030400 METAR WIMK 030400Z 15007KT 7000 FEW020 32/22 Q1010 NOSIG=
03-Sep-2020 SAID35 WIMK 030500 METAR WIMK 030500Z 12006KT 7000 SCT018 33/22 Q1009 NOSIG=
03-Sep-2020 SAID35 WIMK 030600 METAR WIMK 030600Z 09006KT 7000 SCT018 34/22 Q1008 NOSIG=
03-Sep-2020 SAID35 WIMK 030800 METAR WIMK 030800Z 03006KT 5000 HZ SCT017 32/23 Q1006 NOSIG=
03-Sep-2020 SAID35 WIMK 030900 METAR WIMK 030900Z 06006KT 5000 HZ SCT017 30/23 Q1005 NOSIG=
03-Sep-2020 SAID35 WIMK 031000 METAR WIMK 031000Z 11005KT 5000 HZ SCT017 29/24 Q1006 NOSIG=
03-Sep-2020 SAID35 WIMK 031100 METAR WIMK 031100Z 07005KT 5000 HZ SCT018 28/24 Q1007 NOSIG=
03-Sep-2020 SAID35 WIMK 032300 METAR WIMK 032300Z 24005KT 4000 FBLRA BKN016 24/24 Q1009 NOSIG=
04-Sep-2020 SAID35 WIMK 040000 METAR WIMK 040000Z 12006KT 4000 FBLRA FEWCB016 BKN017 24/24 Q1010 CB TO NW=
04-Sep-2020 SAID35 WIMK 040100 METAR WIMK 040100Z 15002KT 4000 FBLRA FEWCB016 BKN017 24/24 Q1011 CB TO NW=
04-Sep-2020 SAID35 WIMK 040200 METAR WIMK 040200Z 18002KT 4000 FBLRA FEWCB016 BKN017 24/24 Q1012 CB TO NW=
04-Sep-2020 SAID35 WIMK 040300 METAR WIMK 040300Z 12002KT 4000 FBLRA FEWCB016 BKN017 25/24 Q1012 CB TO N=
04-Sep-2020 SAID35 WIMK 040400 METAR WIMK 040400Z 15004KT 6000 FEWCB016 BKN017 27/24 Q1011 CB TO N=
04-Sep-2020 SAID35 WIMK 040500 METAR WIMK 040500Z 12006KT 6000 BKN017 29/24 Q1010 NOSIG=
04-Sep-2020 SAID35 WIMK 040600 METAR WIMK 040600Z 12007KT 6000 BKN017 30/24 Q1009 NOSIG=
04-Sep-2020 SAID35 WIMK 040700 METAR WIMK 040700Z 15008KT 7000 SCT018 30/24 Q1008 NOSIG=
04-Sep-2020 SAID35 WIMK 040800 METAR WIMK 040800Z 12008KT 7000 SCT018 30/24 Q1007 NOSIG=
04-Sep-2020 SAID35 WIMK 040900 METAR WIMK 040900Z 18008KT 7000 SCT018 30/24 Q1006 NOSIG=
04-Sep-2020 SAID35 WIMK 041000 METAR WIMK 041000Z 12006KT 6000 SCT018 30/24 Q1007 NOSIG=
04-Sep-2020 SAID35 WIMK 041100 METAR WIMK 041100Z 15006KT 6000 SCT018 29/24 Q1008 NOSIG=
04-Sep-2020 SAID35 WIMK 042300 METAR WIMK 042300Z 00000KT 5000 HZ SCT018 25/24 Q1008 NOSIG=
05-Sep-2020 SAID35 WIMK 050000 METAR WIMK 050000Z 0000KT 5000 HZ BKN018 25/24 Q1008 NOSIG=
05-Sep-2020 SAID35 WIMK 050100 METAR WIMK 050100Z 120004KT 6000 SCT018 27/24 Q1009 NOSIG=
05-Sep-2020 SAID35 WIMK 050200 METAR WIMK 050200Z 120004KT 6000 SCT018 28/24 Q1009 NOSIG=
05-Sep-2020 SAID35 WIMK 050300 METAR WIMK 050300Z 120008KT 6000 SCT020 29/24 Q1009 NOSIG=
05-Sep-2020 SAID35 WIMK 050400 METAR WIMK 050400Z 120006KT 6000 SCT020 30/24 Q1008 NOSIG=
05-Sep-2020 SAID35 WIMK 050500 METAR WIMK 050500Z 09010KT 6000 SCT018 32/23 Q1007 NOSIG=
05-Sep-2020 SAID35 WIMK 050600 METAR WIMK 050600Z 060008KT 6000 SCT018 33/23 Q1006 NOSIG=
05-Sep-2020 SAID35 WIMK 050700 METAR WIMK 050700Z 090008KT 6000 SCT018 34/23 Q1005 NOSIG=
05-Sep-2020 SAID35 WIMK 050800 METAR WIMK 050800Z 09012KT 5000 HZ SCT018 34/23 Q1005 NOSIG=
05-Sep-2020 SAID35 WIMK 050900 METAR WIMK 050900Z 06012KT 5000 HZ SCT018 33/23 Q1004 NOSIG=
05-Sep-2020 SAID35 WIMK 051000 METAR WIMK 051000Z 15012KT 3000 TS FEWCB015 BKN015 27/23 Q1005 CB AND RA TO S=
05-Sep-2020 SAID35 WIMK 052300 METAR WIMK 052300Z 00000KT 4000 FBLRA FEWCB016 BKN017 24/23 Q1008 CB TO NE=
06-Sep-2020 SAID35 WIMK 060000 METAR WIMK 060000Z 00000KT 4000 HZ FEWCB016 BKN017 24/23 Q1009 CB TO NE=
06-Sep-2020 SAID35 WIMK 060100 METAR WIMK 060100Z 15003KT 4000 HZ SCT017 26/23 Q1010 NOSIG=
06-Sep-2020 SAID35 WIMK 060200 METAR WIMK 060200Z 18003KT 5000 HZ SCT017 27/23 Q1010 NOSIG=
06-Sep-2020 SAID35 WIMK 060300 METAR WIMK 060300Z 27003KT 5000 HZ SCT017 29/23 Q1011 NOSIG=
06-Sep-2020 SAID35 WIMK 062300 METAR WIMK 062300Z 00000KT 4000 HZ BKN017 24/23 Q1008 NOSIG=
07-Sep-2020 SAID35 WIMK 070000 METAR WIMK 070000Z 00000KT 6000 SCT018 25/23 Q1009 NOSIG=
07-Sep-2020 SAID35 WIMK 070100 METAR WIMK 070100Z 18002KT 6000 SCT018 29/23 Q1009 NOSIG=
07-Sep-2020 SAID35 WIMK 070200 METAR WIMK 070200Z 21004KT 6000 SCT018 30/23 Q1010 NOSIG=
07-Sep-2020 SAID35 WIMK 070300 METAR WIMK 070300Z 21003KT 6000 SCT018 30/23 Q1010 NOSIG=
07-Sep-2020 SAID35 WIMK 070400 METAR WIMK 070400Z 15006KT 6000 SCT018 30/23 Q1009 NOSIG=
07-Sep-2020 SAID35 WIMK 070500 METAR WIMK 070500Z 09006KT 6000 SCT018 30/23 Q1009 NOSIG=
07-Sep-2020 SAID35 WIMK 070600 METAR WIMK 070600Z 12008KT 6000 SCT018 30/23 Q1008 NOSIG=
07-Sep-2020 SAID35 WIMK 070700 METAR WIMK 070700Z 18008KT 6000 SCT018 30/23 Q1008 NOSIG=
07-Sep-2020 SAID35 WIMK 070800 METAR WIMK 070800Z 24007KT 6000 SCT018 30/23 Q1007 NOSIG=
07-Sep-2020 SAID35 WIMK 070900 METAR WIMK 070900Z 06006KT 6000 SCT018 30/23 Q1007 NOSIG=
07-Sep-2020 SAID35 WIMK 071000 METAR WIMK 071000Z 12006KT 6000 SCT018 30/23 Q1008 NOSIG=
07-Sep-2020 SAID35 WIMK 071100 METAR WIMK 071100Z 21006KT 5000 HZ SCT018 30/23 Q1009 NOSIG=
07-Sep-2020 SAID35 WIMK 072300 METAR WIMK 072300Z 00000KT 4000 HZ SCT017 24/23 Q1010 NOSIG=
08-Sep-2020 SAID35 WIMK 080000 METAR WIMK 080000Z 00000KT 6000 SCT018 25/24 Q1010 NOSIG=
08-Sep-2020 SAID35 WIMK 080100 METAR WIMK 080100Z 21003KT 6000 SCT018 28/24 Q1011 NOSIG=
08-Sep-2020 SAID35 WIMK 080200 METAR WIMK 080200Z 24004KT 6000 SCT018 30/24 Q1011 NOSIG=
08-Sep-2020 SAID35 WIMK 080300 METAR WIMK 080300Z 12004KT 6000 SCT018 31/24 Q1011 NOSIG=
08-Sep-2020 SAID35 WIMK 080400 METAR WIMK 080400Z 12010KT 6000 SCT018 32/24 Q1010 NOSIG=
08-Sep-2020 SAID35 WIMK 080600 METAR WIMK 080600Z 12010KT 6000 SCT017 33/23 Q1008 NOSIG=
08-Sep-2020 SAID35 WIMK 080700 METAR WIMK 080700Z 33007KT 5000 HZ SCT017 33/23 Q1007 NOSIG=
08-Sep-2020 SAID35 WIMK 080800 METAR WIMK 080800Z 03010KT 5000 HZ SCT017 34/23 Q1006 NOSIG=
08-Sep-2020 SAID35 WIMK 080900 METAR WIMK 080900Z 06010KT 5000 HZ SCT017 33/23 Q1007 NOSIG=
08-Sep-2020 SAID35 WIMK 081000 METAR WIMK 081000Z 09010KT 5000 HZ SCT018 32/23 Q1007 NOSIG=
08-Sep-2020 SAID35 WIMK 081100 METAR WIMK 081100Z 12005KT 5000 HZ SCT018 29/23 Q1008 NOSIG=
08-Sep-2020 SAID35 WIMK 082300 METAR WIMK 082300Z 00000KT 3000 RA FEW016CB BKN017 23/23 Q1010 CB TO N=
09-Sep-2020 SAID35 WIMK 090000 METAR WIMK 090000Z 27003KT 3000 RA FEW016CB BKN017 23/23 Q1011 CB TO N=
09-Sep-2020 SAID35 WIMK 090030 METAR WIMK 090030Z 27003KT 3000 RA FEW016CB OVC017 23/23 Q1011 CB TO N=
09-Sep-2020 SAID35 WIMK 090100 METAR WIMK 090100Z 25003KT 2500 RA FEW015CB OVC015 24/23 Q1012 CB TO N&W=
09-Sep-2020 SAID35 WIMK 090200 METAR WIMK 090200Z 25003KT 2300 RA FEW015CB OVC015 24/24 Q1012 CB TO E&SE=
09-Sep-2020 SAID35 WIMK 090300 METAR WIMK 090300Z 18006KT 4000 -RA FEW016CB OVC016 25/24 Q1012 CB TO SE&SW=
09-Sep-2020 SAID35 WIMK 090400 METAR WIMK 090400Z 18010KT 5000 -RA FEW016CB BKN017 26/24 Q1011 CB TO W=
09-Sep-2020 SAID35 WIMK 090430 METAR WIMK 090430Z 21008KT 5000 HZ BKN017 27/24 Q1011 NOSIG=
09-Sep-2020 SAID35 WIMK 090500 METAR WIMK 090500Z 22008KT 5000 HZ BKN017 27/24 Q1010 NOSIG=
09-Sep-2020 SAID35 WIMK 090600 METAR WIMK 090600Z 22008KT 5000 HZ BKN017 29/24 Q1009 NOSIG=
09-Sep-2020 SAID35 WIMK 090700 METAR WIMK 090700Z 25007KT 5000 HZ BKN017 30/23 Q1008 NOSIG=
09-Sep-2020 SAID35 WIMK 090830 METAR WIMK 090830Z 33006KT 5000 HZ SCT018 30/23 Q1007 NOSIG=
09-Sep-2020 SAID35 WIMK 090900 METAR WIMK 090900Z 36006KT 5000 HZ SCT018 29/23 Q1007 NOSIG=
09-Sep-2020 SAID35 WIMK 091100 METAR WIMK 091100Z 00000KT 4000 HZ SCT018 27/24 Q1008 NOSIG=
09-Sep-2020 SAID35 WIMK 092300 METAR WIMK 092300Z 00000KT 4000 HZ SCT018 24/24 Q1008 NOSIG=
10-Sep-2020 SAID35 WIMK 100000 METAR WIMK 100000Z 00000KT 6000 SCT018 26/24 Q1008 NOSIG=
10-Sep-2020 SAID35 WIMK 100100 METAR WIMK 100100Z 24004KT 6000 SCT018 28/24 Q1008 NOSIG=
10-Sep-2020 SAID35 WIMK 100200 METAR WIMK 100200Z 21003KT 6000 SCT018 30/24 Q1009 NOSIG=
10-Sep-2020 SAID35 WIMK 100300 METAR WIMK 100300Z 27004KT 6000 SCT018 30/24 Q1008 NOSIG=
10-Sep-2020 SAID35 WIMK 100400 METAR WIMK 100400Z 21004KT 6000 SCT018 30/24 Q1008 NOSIG=
10-Sep-2020 SAID35 WIMK 100500 METAR WIMK 100500Z 18005KT 6000 SCT018 30/24 Q1008 NOSIG=
10-Sep-2020 SAID35 WIMK 100600 METAR WIMK 100600Z 24006KT 6000 SCT018 30/24 Q1007 NOSIG=
10-Sep-2020 SAID35 WIMK 100700 METAR WIMK 100700Z 15006KT 6000 SCT018 30/24 Q1007 NOSIG=
10-Sep-2020 SAID35 WIMK 100800 METAR WIMK 100800Z 09007KT 6000 SCT018 30/24 Q1006 NOSIG=
10-Sep-2020 SAID35 WIMK 100900 METAR WIMK 100900Z 12007KT 5000 FBLRA FEWCB016 BKN017 27/24 Q1007 CB TO S=
10-Sep-2020 SAID35 WIMK 101000 METAR WIMK 101000Z 15008KT 5000 HZ SCT017 26/24 Q1008 NOSIG=
10-Sep-2020 SAID35 WIMK 101100 METAR WIMK 101100Z 18008KT 5000 HZ SCT017 26/24 Q1009 NOSIG=
10-Sep-2020 SAID35 WIMK 102300 METAR WIMK 102300Z 00000KT 4000 BR SCT017 24/24 Q1008 NOSIG=
11-Sep-2020 SAID35 WIMK 110000 METAR WIMK 110000Z 00000KT 4000 HZ SCT018 25/24 Q1008 NOSIG=
11-Sep-2020 SAID35 WIMK 110200 METAR WIMK 110200Z 21003KT 5000 HZ SCT018 27/24 Q1009 NOSIG=
11-Sep-2020 SAID35 WIMK 110300 METAR WIMK 110300Z 21005KT 5000 HZ SCT018 28/24 Q1010 NOSIG=
11-Sep-2020 SAID35 WIMK 110400 METAR WIMK 110400Z 15005KT 5000 HZ SCT017 30/24 Q1010 NOSIG=
11-Sep-2020 SAID35 WIMK 110500 METAR WIMK 110500Z 33005KT 5000 HZ SCT017 29/24 Q1009 NOSIG=
11-Sep-2020 SAID35 WIMK 110600 METAR WIMK 110600Z 33006KT 5000 HZ SCT017 30/24 Q1008 NOSIG=
11-Sep-2020 SAID35 WIMK 110700 METAR WIMK 110700Z 06008KT 5000 HZ FEW016CB SCT017 30/24 Q1008 CB&RA TO E&W=
11-Sep-2020 SAID35 WIMK 111000 METAR WIMK 111000Z 06007KT 5000 HZ FEW016CB SCT017 29/24 Q1006 CB&RA TO S=
11-Sep-2020 SAID35 WIMK 111100 METAR WIMK 111100Z 06010KT 5000 HZ FEW016CB SCT017 28/24 Q1007 CB&RA TO E=
11-Sep-2020 SAID35 WIMK 112300 METAR WIMK 112300Z 00000KT 4000 HZ SCT018 24/24 Q1010 NOSIG=
12-Sep-2020 SAID35 WIMK 120000 METAR WIMK 120000Z 00000KT 3000 FBLRA FEWCB016 BKN017 24/23 Q1011 NOSIG=
12-Sep-2020 SAID35 WIMK 120100 METAR WIMK 120100Z 00000KT 3000 FBLRA FEWCB016 BKN017 24/23 Q1011 CB TO N=
12-Sep-2020 SAID35 WIMK 120200 METAR WIMK 120200Z 18002KT 4000 FBLRA FEWCB016 BKN017 24/23 Q1012 CB TO N=
12-Sep-2020 SAID35 WIMK 120300 METAR WIMK 120300Z 21002KT 6000 FBLRA BKN017 26/24 Q1012 NOSIG=
12-Sep-2020 SAID35 WIMK 120400 METAR WIMK 120400Z 24002KT 6000 FBLRA BKN017 27/24 Q101 NOSIG=
12-Sep-2020 SAID35 WIMK 120500 METAR WIMK 120500Z 18002KT 6000 BKN017 29/24 Q1010 NOSIG=
12-Sep-2020 SAID35 WIMK 120600 METAR WIMK 120600Z 15004KT 6000 BKN017 29/24 Q1010 NOSIG=
12-Sep-2020 SAID35 WIMK 120700 METAR WIMK 120700Z 24004KT 6000 SCT018 29/24 Q1009 NOSIG=
12-Sep-2020 SAID35 WIMK 120800 METAR WIMK 120800Z 30003KT 6000 SCT018 29/24 Q1009 NOSIG=
12-Sep-2020 SAID35 WIMK 120900 METAR WIMK 120900Z 21005KT 6000 SCT018 28/24 Q1008 NOSIG=
12-Sep-2020 SAID35 WIMK 121000 METAR WIMK 121000Z 18004KT 6000 SCT018 28/24 Q1009 NOSIG=
12-Sep-2020 SAID35 WIMK 121100 METAR WIMK 121100Z 12004KT 6000 SCT018 28/24 Q1010 NOSIG=
12-Sep-2020 SAID35 WIMK 122300 METAR WIMK 122300Z 00000KT 4000 -RA FEW016CB BKN017 24/23 Q1010 CB TO N=
13-Sep-2020 SAID35 WIMK 130000 METAR WIMK 130000Z 00000KT 5000 -RA FEW016CB BKN017 24/23 Q1011 CB TO E=
13-Sep-2020 SAID35 WIMK 130100 METAR WIMK 130100Z 14005KT 6000 FEW016CB BKN017 24/23 Q1012 CB&RA TO E=
13-Sep-2020 SAID35 WIMK 130200 METAR WIMK 130200Z 15006KT 7000 SCT017 25/23 Q1012 NOSIG=
13-Sep-2020 SAID35 WIMK 130300 METAR WIMK 130300Z 12008KT 8000 SCT020 27/23 Q1012 NOSIG=
13-Sep-2020 SAID35 WIMK 130500 METAR WIMK 130500Z 18010KT 6000 SCT018 30/23 Q1010 NOSIG=
13-Sep-2020 SAID35 WIMK 132300 METAR WIMK 132300Z 00000KT 5000 HZ SCT018 24/23 Q1009 NOSIG=
14-Sep-2020 SAID35 WIMK 140000 METAR WIMK 140000Z 00000KT 5000 HZ SCT017 25/24 Q1010 NOSIG=
14-Sep-2020 SAID35 WIMK 140100 METAR WIMK 140100Z 00000KT 5000 HZ SCT017 25/24 Q1011 NOSIG=
14-Sep-2020 SAID35 WIMK 140200 METAR WIMK 140200Z 00000KT 5000 HZ SCT017 27/24 Q1011 NOSIG=
14-Sep-2020 SAID35 WIMK 140300 METAR WIMK 140300Z 18003KT 6000 SCT017 28/24 Q1011 NOSIG=
14-Sep-2020 SAID35 WIMK 140400 METAR WIMK 140400Z 06006KT 6000 SCT018 30/24 Q1011 NOSIG=
14-Sep-2020 SAID35 WIMK 140600 METAR WIMK 140600Z 15006KT 6000 SCT018 31/24 Q10108 NOSIG=
14-Sep-2020 SAID35 WIMK 140800 METAR WIMK 140800Z 03010KT 5000 HZ FEW016CB BKN017 29/24 Q1007 CB&RA TO E=
14-Sep-2020 SAID35 WIMK 140900 METAR WIMK 140900Z 09008KT 5000 TS FEW016CB BKN017 29/24 Q1007 CB&RA TO E=
14-Sep-2020 SAID35 WIMK 142300 METAR WIMK 142300Z 00000KT 4000 HZ BKN017 24/24 Q1008 NOSIG=
15-Sep-2020 SAID35 WIMK 150000 METAR WIMK 150000Z 00000KT 5000 HZ BKN017 24/24 Q1010 NOSIG=
15-Sep-2020 SAID35 WIMK 150100 METAR WIMK 150100Z 00000KT 5000 HZ BKN018 26/24 Q1011 NOSIG=
15-Sep-2020 SAID35 WIMK 150200 METAR WIMK 150200Z 30002KT 5000 HZ BKN018 27/24 Q1012 NOSIG=
15-Sep-2020 SAID35 WIMK 150300 METAR WIMK 150300Z 18002KT 5000 HZ BKN018 27/24 Q1012 NOSIG=
15-Sep-2020 SAID35 WIMK 150400 METAR WIMK 150400Z 18002KT 5000 HZ SCT018 29/24 Q1011 NOSIG=
15-Sep-2020 SAID35 WIMK 150500 METAR WIMK 150500Z 12004KT 5000 HZ SCT018 30/24 Q1010 NOSIG=
15-Sep-2020 SAID35 WIMK 150600 METAR WIMK 150600Z 21004KT 5000 HZ SCT018 30/24 Q1010 NOSIG=
15-Sep-2020 SAID35 WIMK 150700 METAR WIMK 150700Z 18006KT 5000 HZ SCT018 30/24 Q1009 NOSIG=
15-Sep-2020 SAID35 WIMK 150800 METAR WIMK 150800Z 27007KT 5000 HZ SCT018 30/24 Q1009 NOSIG=
15-Sep-2020 SAID35 WIMK 150900 METAR WIMK 150900Z 24010KT 4000 -TSRA FEWCB016 BKN017 27/24 Q1009 CB TO N=
15-Sep-2020 SAID35 WIMK 151000 METAR WIMK 151000Z 15006KT 4000 -TSRA FEWCB016 BKN017 25/24 Q1010 CB TO N=
15-Sep-2020 SAID35 WIMK 151100 METAR WIMK 151100Z 18006KT 4000 -TSRA FEWCB016 BKN017 25/24 Q1011 CB TO N=
15-Sep-2020 SAID35 WIMK 152300 METAR WIMK 152300Z 00000KT 4000 HZ BKN017 24/23 Q1009 NOSIG=
16-Sep-2020 SAID35 WIMK 160200 METAR WIMK 160200Z 23005KT 60000 SCT018 26/23 Q1011 NOSIG=
16-Sep-2020 SAID35 WIMK 160400 METAR WIMK 160400Z 18005KT 6000 SCT018 30/23 Q1010 NOSIG=
16-Sep-2020 SAID35 WIMK 160500 METAR WIMK 160500Z 15007KT 6000 SCT018 32/23 Q1010 NOSIG=
16-Sep-2020 SAID35 WIMK 160600 METAR WIMK 160600Z 22006KT 5000 HZ BKN017 33/22 Q1009 NOSIG=
16-Sep-2020 SAID35 WIMK 160700 METAR WIMK 160700Z 25007KT 5000 HZ BKN017 33/22 Q1008 NOSIG=
16-Sep-2020 SAID35 WIMK 160800 METAR WIMK 160800Z 31006KT 5000 HZ BKN017 32/23 Q1007 NOSIG=
16-Sep-2020 SAID35 WIMK 160900 METAR WIMK 160900Z 34005KT 5000 HZ BKN017 31/23 Q1006 NOSIG=
16-Sep-2020 SAID35 WIMK 161000 METAR WIMK 161000Z 03007KT 5000 HZ SCT018 30/24 Q1007 NOSIG=
16-Sep-2020 SAID35 WIMK 161100 METAR WIMK 161100Z 05005KT 5000 HZ SCT018 29/24 Q1008 NOSIG=
16-Sep-2020 SAID35 WIMK 161200 METAR WIMK 161200Z 00000KT 4000 HZ SCT018 28/24 Q1009 NOSIG=
16-Sep-2020 SAID35 WIMK 162300 METAR WIMK 162300Z 00000KT 4000 HZ SCT017 24/23 Q1009 NOSIG=
17-Sep-2020 SAID35 WIMK 170000 METAR WIMK 170000Z 00000KT 6000 SCT018 25/23 Q1010 NOSIG=
17-Sep-2020 SAID35 WIMK 170100 METAR WIMK 170100Z 00000KT 6000 SCT018 27/24 Q1010 NOSIG=
17-Sep-2020 SAID35 WIMK 170200 METAR WIMK 170200Z 00000KT 6000 SCT018 28/24 Q1010 NOSIG=
17-Sep-2020 SAID35 WIMK 172300 METAR WIMK 172300Z 00000KT 4000 HZ SCT018 24/24 Q1007 NOSIG=
18-Sep-2020 SAID35 WIMK 180000 METAR WIMK 180000Z 00000KT 5000 HZ SCT020 25/24 Q1007 NOSIG=
18-Sep-2020 SAID35 WIMK 180100 METAR WIMK 180100Z 00000KT 6000 SCT020 26/24 Q1008 NOSIG=
18-Sep-2020 SAID35 WIMK 180200 METAR WIMK 180200Z 15006KT 6000 SCT020 28/24 Q1009 NOSIG=
18-Sep-2020 SAID35 WIMK 180300 METAR WIMK 180300Z 12008KT 6000 SCT020 30/23 Q1008 NOSIG=
18-Sep-2020 SAID35 WIMK 180400 METAR WIMK 180400Z 07008KT 6000 SCT020 31/23 Q1008 NOSIG=
18-Sep-2020 SAID35 WIMK 180500 METAR WIMK 180500Z 21004KT 6000 SCT020 31/23 Q1007 NOSIG=
18-Sep-2020 SAID35 WIMK 180600 METAR WIMK 180600Z 12004KT 6000 SCT020 31/23 Q1007 NOSIG=
18-Sep-2020 SAID35 WIMK 180700 METAR WIMK 180700Z 27007KT 5000 HZ SCT018 32/23 Q1006 NOSIG=
18-Sep-2020 SAID35 WIMK 180800 METAR WIMK 180800Z 34007KT 5000 HZ BKN017 32/23 Q1005 NOSIG=
18-Sep-2020 SAID35 WIMK 180900 METAR WIMK 180900Z 27010KT 5000 HZ FEW016CB BKN017 31/24 Q1004 CB AND RA TO E=
18-Sep-2020 SAID35 WIMK 181100 METAR WIMK 181100Z 23005KT 5000 HZ FEW016CB BKN017 28/24 Q1006 CB AND RA TO SE=
18-Sep-2020 SAID35 WIMK 182300 METAR WIMK 182300Z 00000KT 5000 HZ SCT018 24/24 Q1007 NOSIG=
19-Sep-2020 SAID35 WIMK 190000 METAR WIMK 190000Z 00000KT 5000 HZ SCT018 25/24 Q1008 NOSIG=
19-Sep-2020 SAID35 WIMK 190100 METAR WIMK 190100Z 12005KT 5000 HZ SCT018 27/24 Q1009 NOSIG=
19-Sep-2020 SAID35 WIMK 190200 METAR WIMK 190200Z 24004KT 5000 HZ SCT018 29/24 Q1010 NOSIG=
19-Sep-2020 SAID35 WIMK 190300 METAR WIMK 190300Z 27004KT 5000 HZ SCT018 29/24 Q1010 NOSIG=
19-Sep-2020 SAID35 WIMK 190400 METAR WIMK 190400Z 24004KT 5000 HZ SCT018 30/24 Q1009 NOSIG=
19-Sep-2020 SAID35 WIMK 190500 METAR WIMK 190500Z 18006KT 5000 HZ SCT018 30/24 Q1009 NOSIG=
19-Sep-2020 SAID35 WIMK 190600 METAR WIMK 190600Z 21006KT 5000 HZ SCT018 30/24 Q1008 NOSIG=
19-Sep-2020 SAID35 WIMK 190700 METAR WIMK 190700Z 18007KT 5000 HZ SCT018 30/24 Q1007 NOSIG=
19-Sep-2020 SAID35 WIMK 190800 METAR WIMK 190800Z 21007KT 5000 HZ SCT018 30/24 Q1007 NOSIG=
19-Sep-2020 SAID35 WIMK 190900 METAR WIMK 190900Z 27006KT 5000 HZ SCT018 30/24 Q1008 NOSIG=
19-Sep-2020 SAID35 WIMK 191000 METAR WIMK 191000Z 12005KT 5000 HZ SCT018 30/24 Q1009 NOSIG=
19-Sep-2020 SAID35 WIMK 191100 METAR WIMK 191100Z 18005KT 5000 HZ SCT018 28/24 Q1010 NOSIG=
20-Sep-2020 SAID35 WIMK 202300 METAR WIMK 202300Z 00000KT 4000 HZ SCT018 24/23 Q1009 NOSIG=
21-Sep-2020 SAID35 WIMK 210000 METAR WIMK 210000Z 00000KT 4000 HZ BKN017 26/24 Q1009 NOSIG=
21-Sep-2020 SAID35 WIMK 210100 METAR WIMK 210100Z 00000KT 4000 HZ BKN017 27/24 Q1010 NOSIG=
21-Sep-2020 SAID35 WIMK 210200 METAR WIMK 210200Z 07003KT 5000 HZ BKN017 28/24 Q1010 NOSIG=
21-Sep-2020 SAID35 WIMK 210300 METAR WIMK 210300Z 25003KT 5000 HZ BKN017 29/24 Q1010 NOSIG=
21-Sep-2020 SAID35 WIMK 210400 METAR WIMK 210400Z 12003KT 5000 HZ BKN017 30/24 Q1010 NOSIG=
21-Sep-2020 SAID35 WIMK 210600 METAR WIMK 210600Z 09010KT 5000 HZ SCT018 32/23 Q1008 NOSIG=
21-Sep-2020 SAID35 WIMK 210700 METAR WIMK 210700Z 12007KT 5000 HZ SCT018 33/23 Q1007 NOSIG=
21-Sep-2020 SAID35 WIMK 210800 METAR WIMK 210800Z 27006KT 5000 HZ SCT018 33/23 Q1007 NOSIG=
21-Sep-2020 SAID35 WIMK 210900 METAR WIMK 210900Z 11008KT 5000 HZ SCT018 32/23 Q1006 NOSIG=
21-Sep-2020 SAID35 WIMK 211000 METAR WIMK 211000Z 06005KT 5000 HZ SCT018 31/24 Q1007 NOSIG=
21-Sep-2020 SAID35 WIMK 211100 METAR WIMK 211100Z 03007KT 5000 HZ SCT018 29/24 Q1008 NOSIG=
21-Sep-2020 SAID35 WIMK 211200 METAR WIMK 211200Z 05005KT 4000 HZ SCT018 28/24 Q1009 NOSIG=
21-Sep-2020 SAID35 WIMK 212300 METAR WIMK 212300Z 00000KT 4000 HZ SCT018 24/23 Q1009 NOSIG=
22-Sep-2020 SAID35 WIMK 220000 METAR WIMK 220000Z 00000KT 4000 HZ SCT018 25/23 Q1010 NOSIG=
22-Sep-2020 SAID35 WIMK 220100 METAR WIMK 220100Z 00000KT 5000 HZ SCT018 26/23 Q1010 NOSIG=
22-Sep-2020 SAID35 WIMK 220200 METAR WIMK 220200Z 18003KT 6000 SCT018 27/23 Q1011 NOSIG=
22-Sep-2020 SAID35 WIMK 220300 METAR WIMK 220300Z 12002KT 6000 SCT018 28/23 Q1011 NOSIG=
22-Sep-2020 SAID35 WIMK 220500 METAR WIMK 220500Z 18002KT 6000 SCT018 30/23 Q1010 NOSIG=
22-Sep-2020 SAID35 WIMK 220600 METAR WIMK 220600Z 21007KT 6000 SCT018 30/23 Q1010 NOSIG=
22-Sep-2020 SAID35 WIMK 220700 METAR WIMK 220700Z 24006KT 6000 SCT018 30/23 Q1009 NOSIG=
22-Sep-2020 SAID35 WIMK 220800 METAR WIMK 220800Z 27006KT 6000 SCT018 30/23 Q1008 NOSIG=
22-Sep-2020 SAID35 WIMK 220900 METAR WIMK 220900Z 12007KT 6000 SCT018 30/23 Q1009 NOSIG=
22-Sep-2020 SAID35 WIMK 221000 METAR WIMK 221000Z 18006KT 6000 SCT018 29/23 Q1010 NOSIG=
22-Sep-2020 SAID35 WIMK 221100 METAR WIMK 221100Z 21006KT 6000 SCT018 29/23 Q1011 NOSIG=
23-Sep-2020 SAID35 WIMK 230500 METAR WIMK 230500Z 28008KT 5000 HZ SCT018 30/24 Q1009 NOSIG=
23-Sep-2020 SAID35 WIMK 230600 METAR WIMK 230600Z 30004KT 4000 RA FEW016CB BKN017 28/24 Q1009 CB TO NE=
23-Sep-2020 SAID35 WIMK 230700 METAR WIMK 230700Z 06013KT 2000 TSRA FEW015CB OVC016 27/24 Q1009 CB OVER THE FIELD=
23-Sep-2020 SAID35 WIMK 230800 METAR WIMK 230800Z 12005KT 4000 HZ FEW016CB BKN017 28/24 Q1008 CB TO S=
23-Sep-2020 SAID35 WIMK 232300 METAR WIMK 232300Z 00000KT 4000 HZ BKN017 24/23 Q1010 NOSIG=
24-Sep-2020 SAID35 WIMK 240100 METAR WIMK 240100Z 00000KT 5000 -RA FEWCB016 BKN017 25/24 Q1012 CB TO NE=
24-Sep-2020 SAID35 WIMK 240200 METAR WIMK 240200Z 00000KT 5000 HZ FEWCB016 BKN017 26/24 Q1013 CB TO E=
24-Sep-2020 SAID35 WIMK 240300 METAR WIMK 240300Z 09005KT 5000 HZ BKN017 27/24 Q1013 NOSIG=
24-Sep-2020 SAID35 WIMK 240400 METAR WIMK 240400Z 12005KT 5000 HZ BKN017 29/23 Q1012 NOSIG=
24-Sep-2020 SAID35 WIMK 240500 METAR WIMK 240500Z 23006KT 5000 HZ BKN017 31/23 Q1011 NOSIG=
24-Sep-2020 SAID35 WIMK 240600 METAR WIMK 240600Z 27006KT 5000 HZ BKN017 32/23 Q1010 NOSIG=
24-Sep-2020 SAID35 WIMK 240700 METAR WIMK 240700Z 33007KT 5000 HZ BKN017 32/23 Q1009 NOSIG=
24-Sep-2020 SAID35 WIMK 240800 METAR WIMK 240800Z 03005KT 5000 HZ BKN017 31/24 Q1008 NOSIG=
24-Sep-2020 SAID35 WIMK 240900 METAR WIMK 240900Z 05007KT 4000 HZ FEWCB016 BKN017 30/24 Q1007 CB TO S=
24-Sep-2020 SAID35 WIMK 241000 METAR WIMK 241000Z 05010KT 4000 HZ FEWCB016 BKN017 28/24 Q1007 CB AND RA TO S=
24-Sep-2020 SAID35 WIMK 241100 METAR WIMK 241100Z 07010KT 3000 TSRA FEWCB016 BKN017 25/24 Q1008 CB OVER THE FIELD=
24-Sep-2020 SAID35 WIMK 242300 METAR WIMK 242300Z 00000KT 4000 HZ SCT018 24/24 Q1010 NOSIG=
25-Sep-2020 SAID35 WIMK 250000 METAR WIMK 250000Z 00000KT 5000 HZ SCT020 25/24 Q1010 NOSIG=
25-Sep-2020 SAID35 WIMK 250100 METAR WIMK 250100Z 33005KT 6000 FEW020 27/24 Q1011 NOSIG=
25-Sep-2020 SAID35 WIMK 250200 METAR WIMK 250200Z 35005KT 6000 FEW020 29/24 Q1012 NOSIG=
25-Sep-2020 SAID35 WIMK 250300 METAR WIMK 250300Z 27005KT 6000 FEW020 29/24 Q1012 NOSIG=
25-Sep-2020 SAID35 WIMK 250400 METAR WIMK 250400Z 18006KT 6000 SCT018 29/24 Q1012 NOSIG=
25-Sep-2020 SAID35 WIMK 250500 METAR WIMK 250500Z 18006KT 6000 SCT018 30/24 Q1011 NOSIG=
25-Sep-2020 SAID35 WIMK 250600 METAR WIMK 250600Z 21005KT 6000 SCT018 30/24 Q1010 NOSIG=
25-Sep-2020 SAID35 WIMK 250700 METAR WIMK 250700Z 18005KT 6000 SCT018 30/24 Q1010 NOSIG=
25-Sep-2020 SAID35 WIMK 250800 METAR WIMK 250800Z 15003KT 5000 HZ SCT018 29/24 Q1008 NOSIG=
25-Sep-2020 SAID35 WIMK 250900 METAR WIMK 250900Z 12003KT 5000 HZ SCT018 28/24 Q1008 NOSIG=
25-Sep-2020 SAID35 WIMK 251000 METAR WIMK 251000Z 15003KT 5000 HZ SCT018 27/24 Q1009 NOSIG=
25-Sep-2020 SAID35 WIMK 251100 METAR WIMK 251100Z 21003KT 5000 HZ SCT018 27/24 Q1010 NOSIG=
25-Sep-2020 SAID35 WIMK 252300 METAR WIMK 252300Z 00000KT 4000 HZ SCT018 24/24 Q1011 NOSIG=
26-Sep-2020 SAID35 WIMK 260000 METAR WIMK 260000Z 00000KT 5000 HZ SCT018 25/24 Q1011 NOSIG=
26-Sep-2020 SAID35 WIMK 260400 METAR WIMK 260400Z 06005KT 5000 HZ SCT017 29/24 Q1012 NOSIG=
26-Sep-2020 SAID35 WIMK 260500 METAR WIMK 260500Z 03003KT 5000 HZ SCT017 30/24 Q1011 NOSIG=
26-Sep-2020 SAID35 WIMK 262300 METAR WIMK 262300Z 00000KT 5000 HZ SCT018 24/23 Q1009 NOSIG=
27-Sep-2020 SAID35 WIMK 270000 METAR WIMK 270000Z 00000KT 5000 HZ SCT018 25/23 Q1010 NOSIG=
27-Sep-2020 SAID35 WIMK 270100 METAR WIMK 270100Z 00000KT 6000 SCT020 26 /23 Q1011 NOSIG=
27-Sep-2020 SAID35 WIMK 270200 METAR WIMK 270200Z 12005KT 6000 SCT020 27 /23 Q1012 NOSIG=
27-Sep-2020 SAID35 WIMK 270300 METAR WIMK 270300Z 15008KT 6000 FEW020 29 /23 Q1013 NOSIG=
27-Sep-2020 SAID35 WIMK 270400 METAR WIMK 270400Z 21008KT 6000 FEW020 31 /23 Q1013 NOSIG=
27-Sep-2020 SAID35 WIMK 270500 METAR WIMK 270500Z 25007KT 6000 FEW020 32 /23 Q1012 NOSIG=
27-Sep-2020 SAID35 WIMK 270600 METAR WIMK 270600Z 27007KT 6000 SCT018 33 /23 Q1011 NOSIG=
27-Sep-2020 SAID35 WIMK 270700 METAR WIMK 270700Z 30006KT 6000 SCT018 34 /22 Q1010 NOSIG=
27-Sep-2020 SAID35 WIMK 270800 METAR WIMK 270800Z 33007KT 5000 HZ SCT018 34 /22 Q1009 NOSIG=
27-Sep-2020 SAID35 WIMK 270900 METAR WIMK 270900Z 36005KT 5000 HZ SCT018 33 /23 Q1008 NOSIG=
27-Sep-2020 SAID35 WIMK 271000 METAR WIMK 271000Z 05005KT 5000 HZ SCT018 31 /23 Q1009 NOSIG=
27-Sep-2020 SAID35 WIMK 271100 METAR WIMK 271100Z 07003KT 5000 HZ SCT018 29 /24 Q1010 NOSIG=
27-Sep-2020 SAID35 WIMK 272300 METAR WIMK 272300Z 00000KT 4000 HZ SCT018 24/23 Q1008 NOSIG=
28-Sep-2020 SAID35 WIMK 280200 METAR WIMK 280200Z 00000KT 6000 SCT018 26/24 Q1010 NOSIG=
28-Sep-2020 SAID35 WIMK 280300 METAR WIMK 280300Z 24004KT 9999 SCT018 29/24 Q1010 NOSIG=
28-Sep-2020 SAID35 WIMK 280400 METAR WIMK 280400Z 18006KT 6000 SCT018 30/24 Q1010 NOSIG=
28-Sep-2020 SAID35 WIMK 280500 METAR WIMK 280500Z 21005KT 6000 SCT018 30/24 Q1009 NOSIG=
28-Sep-2020 SAID35 WIMK 280600 METAR WIMK 280600Z 18005KT 6000 SCT018 30/24 Q1009 NOSIG=
28-Sep-2020 SAID35 WIMK 280700 METAR WIMK 280700Z 27005KT 6000 SCT018 30/24 Q1008 NOSIG=
28-Sep-2020 SAID35 WIMK 280800 METAR WIMK 280800Z 15005KT 6000 SCT018 30/24 Q1008 NOSIG=
28-Sep-2020 SAID35 WIMK 280900 METAR WIMK 280900Z 18004KT 6000 SCT018 30/24 Q1008 NOSIG=
28-Sep-2020 SAID35 WIMK 281000 METAR WIMK 281000Z 21004KT 6000 SCT018 30/24 Q1009 NOSIG=
28-Sep-2020 SAID35 WIMK 281100 METAR WIMK 281100Z 18004KT 6000 SCT018 29/24 Q1010 NOSIG=
29-Sep-2020 SAID35 WIMK 290100 METAR WIMK 290100Z 00000KT 4000 -RA BKN016 25/24 Q1010 NOSIG=
29-Sep-2020 SAID35 WIMK 290200 METAR WIMK 290200Z 00000KT 4000 -RA BKN016 25/24 Q1010 NOSIG=
29-Sep-2020 SAID35 WIMK 290300 METAR WIMK 290300Z 15005KT 5000 HZ SCT017 28/24 Q1011 NOSIG=
29-Sep-2020 SAID35 WIMK 290500 METAR WIMK 290500Z 27004KT 5000 HZ SCT018 30/24 Q1009 NOSIG=
29-Sep-2020 SAID35 WIMK 290600 METAR WIMK 290600Z 27005KT 5000 HZ SCT018 31/24 Q1009 NOSIG=
29-Sep-2020 SAID35 WIMK 290800 METAR WIMK 290800Z 33005KT 5000 HZ BKN017 30/24 Q1006 NOSIG=
29-Sep-2020 SAID35 WIMK 290900 METAR WIMK 290900Z 34008KT 5000 HZ SCT017 31/24 Q1005 NOSIG=
29-Sep-2020 SAID35 WIMK 291100 METAR WIMK 291100Z 25008KT 4000 -TSRA FEW016CB BKN017 27/24 Q1008 CB TO W=
29-Sep-2020 SAID35 WIMK 292300 METAR WIMK 292300Z 00000KT 5000 HZ SCT018 24 /23 Q1008 NOSIG=
30-Sep-2020 SAID35 WIMK 300000 METAR WIMK 300000Z 00000KT 6000 SCT018 25 /23 Q1009 NOSIG=
30-Sep-2020 SAID35 WIMK 300100 METAR WIMK 300100Z 09003KT 6000 SCT018 26 /23 Q1010 NOSIG=
30-Sep-2020 SAID35 WIMK 300200 METAR WIMK 300200Z 11003KT 6000 SCT018 27 /23 Q1011 NOSIG=
30-Sep-2020 SAID35 WIMK 302300 METAR WIMK 302300Z 00000KT 4000 HZ SCT018 24/23 Q1008 NOSIG=
01-Oct-2020 SAID35 WIMK 010000 METAR WIMK 010000Z 00000KT 4000 HZ SCT018 24/23 Q1009 NOSIG=
01-Oct-2020 SAID35 WIMK 010100 METAR WIMK 010100Z 12003KT 6000 SCT018 27/23 Q1009 NOSIG=
01-Oct-2020 SAID35 WIMK 010200 METAR WIMK 010200Z 18003KT 6000 SCT018 28/23 Q1010 NOSIG=
01-Oct-2020 SAID35 WIMK 010300 METAR WIMK 010300Z 27005KT 6000 SCT018 28/23 Q1011 NOSIG=
01-Oct-2020 SAID35 WIMK 010400 METAR WIMK 010400Z 18005KT 6000 SCT018 28/23 Q1010 NOSIG=
01-Oct-2020 SAID35 WIMK 010500 METAR WIMK 010500Z 27005KT 5000 HZ SCT018 28/23 Q1010 NOSIG=
01-Oct-2020 SAID35 WIMK 010600 METAR WIMK 010600Z 12005KT 5000 HZ SCT018 28/23 Q1009 NOSIG=
01-Oct-2020 SAID35 WIMK 010700 METAR WIMK 010700Z 18005KT 5000 HZ SCT018 28/23 Q1008 NOSIG=
01-Oct-2020 SAID35 WIMK 010800 METAR WIMK 010800Z 27006KT 5000 HZ SCT018 28/23 Q1007 NOSIG=
01-Oct-2020 SAID35 WIMK 010900 METAR WIMK 010900Z 24006KT 5000 HZ SCT018 28/23 Q1008 NOSIG=
01-Oct-2020 SAID35 WIMK 011000 METAR WIMK 011000Z 21006KT 5000 HZ SCT018 27/23 Q1009 NOSIG=
01-Oct-2020 SAID35 WIMK 012300 METAR WIMK 012300Z 00000KT 4000 -RA SCT017 24/24 Q1009 NOSIG=
02-Oct-2020 SAID35 WIMK 020000 METAR WIMK 020000Z 00000KT 4000 -RA FEW016CB SCT017 25/24 Q1009 CB TO N=
02-Oct-2020 SAID35 WIMK 020200 METAR WIMK 020200Z 15005KT 5000 HZ SCT017 27/24 Q1010 NOSIG=
02-Oct-2020 SAID35 WIMK 020600 METAR WIMK 020600Z 06005KT 5000 HZ SCT017 31/24 Q1008 NOSIG=
02-Oct-2020 SAID35 WIMK 022300 METAR WIMK 022300Z 00000KT 4000 HZ SCT018 24/23 Q1009 NOSIG=
03-Oct-2020 SAID35 WIMK 030000 METAR WIMK 030000Z 00000KT 5000 HZ SCT018 24/23 Q1010 NOSIG=
03-Oct-2020 SAID35 WIMK 030100 METAR WIMK 030100Z 00000KT 5000 HZ SCT018 24/23 Q1010 NOSIG=
03-Oct-2020 SAID35 WIMK 030200 METAR WIMK 030200Z 18005KT 6000 SCT018 26/23 Q1011 NOSIG=
03-Oct-2020 SAID35 WIMK 030300 METAR WIMK 030300Z 15005KT 6000 SCT018 28/23 Q1011 NOSIG=
03-Oct-2020 SAID35 WIMK 030400 METAR WIMK 030400Z 12004KT 6000 SCT018 28/23 Q1011 NOSIG=
03-Oct-2020 SAID35 WIMK 030500 METAR WIMK 030500Z 18004KT 6000 SCT018 28/23 Q1010 NOSIG=
03-Oct-2020 SAID35 WIMK 030600 METAR WIMK 030600Z 21005KT 6000 SCT018 28/23 Q1009 NOSIG=
03-Oct-2020 SAID35 WIMK 030700 METAR WIMK 030700Z 27005KT 6000 SCT018 28/23 Q1008 NOSIG=
03-Oct-2020 SAID35 WIMK 030800 METAR WIMK 030800Z 18005KT 6000 SCT018 28/23 Q1007 NOSIG=
03-Oct-2020 SAID35 WIMK 031000 METAR WIMK 031000Z 27004KT 6000 SCT018 28/23 Q1009 NOSIG=
03-Oct-2020 SAID35 WIMK 031100 METAR WIMK 031100Z 12004KT 6000 SCT018 28/23 Q1010 NOSIG=
03-Oct-2020 SAID35 WIMK 032300 METAR WIMK 032300Z 00000KT 5000 HZ SCT018 24/23 Q1009 NOSIG=
04-Oct-2020 SAID35 WIMK 040000 METAR WIMK 040000Z 00000KT 6000 SCT018 25/23 Q1010 NOSIG=
04-Oct-2020 SAID35 WIMK 040100 METAR WIMK 040100Z 00000KT 6000 SCT020 26/23 Q1011 NOSIG=
04-Oct-2020 SAID35 WIMK 040200 METAR WIMK 040200Z 07004KT 6000 SCT020 28/23 Q1012 NOSIG=
04-Oct-2020 SAID35 WIMK 040300 METAR WIMK 040300Z 09005KT 6000 SCT020 29/23 Q1012 NOSIG=
04-Oct-2020 SAID35 WIMK 040400 METAR WIMK 040400Z 12005KT 6000 SCT018 30/23 Q1011 NOSIG=
04-Oct-2020 SAID35 WIMK 040500 METAR WIMK 040500Z 22005KT 6000 BKN017 32/23 Q1010 NOSIG=
04-Oct-2020 SAID35 WIMK 040600 METAR WIMK 040600Z 09005KT 6000 BKN017 33/22 Q1009 NOSIG=
04-Oct-2020 SAID35 WIMK 040900 METAR WIMK 040900Z 23006KT 4000 -RA FEWCB016 BKN017 27/24 Q1007 CB TO S=
04-Oct-2020 SAID35 WIMK 042300 METAR WIMK 042300Z 00000KT 5000 HZ SCT017 24/23 Q1009 NOSIG=
05-Oct-2020 SAID35 WIMK 050300 METAR WIMK 050300Z 00000KT 6000 SCT018 28/24 Q1011 NOSIG=
05-Oct-2020 SAID35 WIMK 050400 METAR WIMK 050400Z 00000KT 6000 SCT018 29/24 Q1011 NOSIG=
05-Oct-2020 SAID35 WIMK 050600 METAR WIMK 050600Z 00000KT 6000 SCT018 30/24 Q1009 NOSIG=
05-Oct-2020 SAID35 WIMK 050800 METAR WIMK 050800Z 03006KT 5000 HZ SCT017 32/24 Q1006 NOSIG=
05-Oct-2020 SAID35 WIMK 052300 METAR WIMK 052300Z 00000KT 5000 HZ SCT018 24/23 Q1007 NOSIG=
06-Oct-2020 SAID35 WIMK 060000 METAR WIMK 060000Z 00000KT 5000 HZ SCT018 25/23 Q1008 NOSIG=
06-Oct-2020 SAID35 WIMK 060100 METAR WIMK 060100Z 07003KT 6000 SCT018 26/23 Q1009 NOSIG=
06-Oct-2020 SAID35 WIMK 060200 METAR WIMK 060200Z 24005KT 6000 SCT020 28/23 Q1010 NOSIG=
06-Oct-2020 SAID35 WIMK 060300 METAR WIMK 060300Z 25006KT 6000 SCT020 29/23 Q1011 NOSIG=
06-Oct-2020 SAID35 WIMK 060400 METAR WIMK 060400Z 27008KT 6000 SCT020 30/23 Q1011 NOSIG=
06-Oct-2020 SAID35 WIMK 060500 METAR WIMK 060500Z 31008KT 6000 SCT020 31/23 Q1010 NOSIG=
06-Oct-2020 SAID35 WIMK 060600 METAR WIMK 060600Z 36010KT 5000 HZ FEW016CB SCT017 32/23 Q1009 CB AND RA TO SW=
06-Oct-2020 SAID35 WIMK 060700 METAR WIMK 060700Z 07003KT 5000 HZ FEW016CB BKN017 31/24 Q1009 CB AND RA TO W=
06-Oct-2020 SAID35 WIMK 060800 METAR WIMK 060800Z 05006KT 5000 HZ FEW016CB BKN017 30/24 Q1008 CB AND RA TO W=
06-Oct-2020 SAID35 WIMK 060900 METAR WIMK 060900Z 05005KT 5000 HZ FEW016CB BKN017 29/24 Q1007 CB AND RA TO NW=
06-Oct-2020 SAID35 WIMK 061000 METAR WIMK 061000Z 09006KT 5000 HZ BKN017 28/24 Q1008 NOSIG=
06-Oct-2020 SAID35 WIMK 061100 METAR WIMK 061100Z 07003KT 5000 HZ BKN017 27/24 Q1009 NOSIG=
06-Oct-2020 SAID35 WIMK 062300 METAR WIMK 062300Z 00000KT 4000 HZ SCT018 24/23 Q1007 NOSIG=
07-Oct-2020 SAID35 WIMK 070000 METAR WIMK 070000Z 00000KT 6000 SCT018 25/23 Q1008 NOSIG=
07-Oct-2020 SAID35 WIMK 070100 METAR WIMK 070100Z 27005KT 7000 SCT018 26/23 Q1009 NOSIG=
07-Oct-2020 SAID35 WIMK 070200 METAR WIMK 070200Z 30005KT 7000 SCT018 28/23 Q1010 NOSIG=
07-Oct-2020 SAID35 WIMK 070300 METAR WIMK 070300Z 32005KT 7000 SCT018 30/23 Q1010 NOSIG=
07-Oct-2020 SAID35 WIMK 070400 METAR WIMK 070400Z 32004KT 7000 SCT018 30/23 Q1010 NOSIG=
07-Oct-2020 SAID35 WIMK 070500 METAR WIMK 070500Z 30003KT 7000 SCT018 30/23 Q1009 NOSIG=
07-Oct-2020 SAID35 WIMK 070600 METAR WIMK 070600Z 27005KT 7000 SCT018 30/23 Q1009 NOSIG=
07-Oct-2020 SAID35 WIMK 070700 METAR WIMK 070700Z 30005KT 7000 SCT018 30/23 Q1008 NOSIG=
07-Oct-2020 SAID35 WIMK 070800 METAR WIMK 070800Z 18005KT 7000 SCT018 30/23 Q1008 NOSIG=
07-Oct-2020 SAID35 WIMK 070900 METAR WIMK 070900Z 21005KT 7000 SCT018 30/23 Q1009 NOSIG=
07-Oct-2020 SAID35 WIMK 071000 METAR WIMK 070900Z 15005KT 7000 SCT018 29/23 Q1010 NOSIG=
08-Oct-2020 SAID35 WIMK 080000 METAR WIMK 080000Z 00000KT 5000 HZ SCT017 25/24 Q1008 NOSIG=
08-Oct-2020 SAID35 WIMK 080100 METAR WIMK 080100Z 00000KT 5000 HZ SCT017 26/24 Q1008 NOSIG=
08-Oct-2020 SAID35 WIMK 080200 METAR WIMK 080200Z 00000KT 7000 SCT017 28/24 Q1009 NOSIG=
08-Oct-2020 SAID35 WIMK 080300 METAR WIMK 080300Z 00000KT 7000 SCT017 29/24 Q1009 NOSIG=
08-Oct-2020 SAID35 WIMK 080500 METAR WIMK 080500Z 03005KT 7000 SCT017 31/24 Q1008 NOSIG=
08-Oct-2020 SAID35 WIMK 080600 METAR WIMK 080600Z 06005KT 7000 SCT017 31/24 Q1007 NOSIG=
08-Oct-2020 SAID35 WIMK 082300 METAR WIMK 082300Z 00000KT 5000 HZ SCT018 24/23 Q1007 NOSIG=
09-Oct-2020 SAID35 WIMK 090000 METAR WIMK 090000Z 00000KT 5000 HZ SCT018 25/23 Q1008 NOSIG=
09-Oct-2020 SAID35 WIMK 090100 METAR WIMK 090100Z 00000KT 6000 SCT018 26/23 Q1009 NOSIG=
09-Oct-2020 SAID35 WIMK 090200 METAR WIMK 090200Z 18005KT 6000 FEWCB016 SBKN017 27/23 Q1009 CB AND RA TO N=
09-Oct-2020 SAID35 WIMK 090300 METAR WIMK 090300Z 15005KT 6000 BKN017 29/23 Q1009 NOSIG=
09-Oct-2020 SAID35 WIMK 090400 METAR WIMK 090400Z 13005KT 6000 SCT018 31/23 Q1009 NOSIG=
09-Oct-2020 SAID35 WIMK 090500 METAR WIMK 090500Z 09005KT 6000 SCT018 33/22 Q1008 NOSIG=
09-Oct-2020 SAID35 WIMK 090800 METAR WIMK 090800Z 15008KT 5000 HZ BKN017 32/23 Q1005 NOSIG=
09-Oct-2020 SAID35 WIMK 090900 METAR WIMK 090900Z 14008KT 5000 HZ BKN017 31/23 Q1004 NOSIG=
09-Oct-2020 SAID35 WIMK 091000 METAR WIMK 091000Z 25007KT 5000 HZ BKN017 30/24 Q1005 NOSIG=
09-Oct-2020 SAID35 WIMK 091100 METAR WIMK 091100Z 31004KT 5000 HZ BKN017 28/24 Q1006 NOSIG=
09-Oct-2020 SAID35 WIMK 092300 METAR WIMK 092300Z 00000KT 4000 HZ SCT018 24/23 Q1008 NOSIG=
10-Oct-2020 SAID35 WIMK 100000 METAR WIMK 100000Z 00000KT 4000 HZ SCT018 24/23 Q1008 NOSIG=
10-Oct-2020 SAID35 WIMK 100100 METAR WIMK 100100Z 00000KT 4000 HZ SCT018 26/23 Q1009 NOSIG=
10-Oct-2020 SAID35 WIMK 100200 METAR WIMK 100200Z 12003KT 6000 SCT018 27/23 Q1010 NOSIG=
10-Oct-2020 SAID35 WIMK 100300 METAR WIMK 100300Z 18003KT 6000 SCT018 29/23 Q1010 NOSIG=
10-Oct-2020 SAID35 WIMK 100400 METAR WIMK 100400Z 21003KT 6000 SCT018 30/23 Q1010 NOSIG=
10-Oct-2020 SAID35 WIMK 100500 METAR WIMK 100500Z 27006KT 6000 SCT018 30/23 Q1009 NOSIG=
10-Oct-2020 SAID35 WIMK 100600 METAR WIMK 100600Z 18006KT 6000 SCT018 30/23 Q1009 NOSIG=
10-Oct-2020 SAID35 WIMK 100700 METAR WIMK 100700Z 27006KT 6000 SCT018 30/23 Q1008 NOSIG=
10-Oct-2020 SAID35 WIMK 100900 METAR WIMK 100900Z 18005KT 6000 SCT018 30/23 Q1008 NOSIG=
10-Oct-2020 SAID35 WIMK 101000 METAR WIMK 101000Z 27005KT 6000 SCT018 29/23 Q1009 NOSIG=
10-Oct-2020 SAID35 WIMK 101100 METAR WIMK 101100Z 18005KT 6000 SCT018 29/23 Q1010 NOSIG=
12-Oct-2020 SAID35 WIMK 122300 METAR WIMK 122300Z 00000KT 4000 FBLRA FEWCB016 BKN017 24/23 Q1008 CB TO N =
13-Oct-2020 SAID35 WIMK 130000 METAR WIMK 130000Z 00000KT 4000 FBLRA BKN017 24/24 Q1009 NOSIG=
13-Oct-2020 SAID35 WIMK 130200 METAR WIMK 130200Z 18005KT 6000 BKN017 25/24 Q1009 NOSIG=
13-Oct-2020 SAID35 WIMK 130300 METAR WIMK 130300Z 18006KT 6000 SCT017 27/24 Q1010 NOSIG=
13-Oct-2020 SAID35 WIMK 130400 METAR WIMK 130400Z 21005KT 6000 SCT017 29/24 Q1009 NOSIG=
13-Oct-2020 SAID35 WIMK 130500 METAR WIMK 130500Z 24005KT 6000 SCT017 30/24 Q1008 NOSIG=
13-Oct-2020 SAID35 WIMK 130600 METAR WIMK 130600Z 21005KT 6000 SCT017 30/24 Q1008 NOSIG=
13-Oct-2020 SAID35 WIMK 131000 METAR WIMK 131000Z 21005KT 4000 TSRA FEWCB016 BKN017 26/24 Q1008 CB TO SE=
13-Oct-2020 SAID35 WIMK 132300 METAR WIMK 132300Z 00000KT 5000 HZ SCT017 24/23 Q1007 NOSIG=
14-Oct-2020 SAID35 WIMK 140100 METAR WIMK 140100Z 00000KT 8000 SCT018 27/24 Q1009 NOSIG=
14-Oct-2020 SAID35 WIMK 140400 METAR WIMK 140400Z 30005KT 8000 SCT018 31/24 Q1009 NOSIG=
14-Oct-2020 SAID35 WIMK 140500 METAR WIMK 140500Z 24006KT 6000 SCT020 32/24 Q1008 NOSIG=
14-Oct-2020 SAID35 WIMK 140600 METAR WIMK 140600Z 03006KT 7000 SCT018 33/24 Q1007 NOSIG=
14-Oct-2020 SAID35 WIMK 140700 METAR WIMK 140700Z 06008KT 7000 SCT018 34/24 Q1007 NOSIG=
14-Oct-2020 SAID35 WIMK 140800 METAR WIMK 140800Z 03008KT 6000 SCT018 34/23 Q1006 NOSIG=
14-Oct-2020 SAID35 WIMK 140900 METAR WIMK 140900Z 06010KT 5000 HZ FEW017CB SCT017 32/23 Q1006 CB TO W=
15-Oct-2020 SAID35 WIMK 150000 METAR WIMK 150000Z 00000KT 6000 SCT018 25/23 Q1008 NOSIG=
15-Oct-2020 SAID35 WIMK 150100 METAR WIMK 150100Z 00000KT 6000 SCT018 27/23 Q1009 NOSIG=
15-Oct-2020 SAID35 WIMK 150200 METAR WIMK 150200Z 09005KT 7000 SCT018 29/23 Q1010 NOSIG=
15-Oct-2020 SAID35 WIMK 150300 METAR WIMK 150300Z 12005KT 7000 SCT020 31/23 Q1010 NOSIG=
15-Oct-2020 SAID35 WIMK 150500 METAR WIMK 150500Z 05005KT 6000 SCT020 33/23 Q1008 NOSIG=
15-Oct-2020 SAID35 WIMK 150600 METAR WIMK 150600Z 09006KT 5000 HZ FEW016CB SCT017 30/23 Q1007 CB TO SW=
15-Oct-2020 SAID35 WIMK 152300 METAR WIMK 152300Z 00000KT 5000 HZ SCT018 24/23 Q1007 NOSIG=
16-Oct-2020 SAID35 WIMK 160000 METAR WIMK 160000Z 00000KT 5000 HZ SCT018 25/23 Q1008 NOSIG=
16-Oct-2020 SAID35 WIMK 160600 METAR WIMK 160600Z 06005KT 5000 HZ SCT017 31/24 Q1006 NOSIG=
16-Oct-2020 SAID35 WIMK 160700 METAR WIMK 160700Z 06008KT 5000 HZ SCT017 32/24 Q1004 NOSIG=
16-Oct-2020 SAID35 WIMK 160800 METAR WIMK 160800Z 03005KT 5000 HZ SCT017 33/23 Q1003 NOSIG=
16-Oct-2020 SAID35 WIMK 162300 METAR WIMK 162300Z 00000KT 4000 HZ SCT017 24/24 Q1005 NOSIG=
17-Oct-2020 SAID35 WIMK 170000 METAR WIMK 170000Z 00000KT 4000 HZ SCT017 24/24 Q1005 NOSIG=
17-Oct-2020 SAID35 WIMK 170100 METAR WIMK 170100Z 00000KT 4000 HZ SCT017 26/24 Q1006 NOSIG=
17-Oct-2020 SAID35 WIMK 170200 METAR WIMK 170200Z 12003KT 5000 HZ SCT018 28/24 Q1007 NOSIG=
17-Oct-2020 SAID35 WIMK 170300 METAR WIMK 170300Z 21003KT 5000 HZ SCT018 30/24 Q1008NOSIG=
17-Oct-2020 SAID35 WIMK 170400 METAR WIMK 170400Z 21007KT 6000 SCT018 30/24 Q1007 NOSIG=
17-Oct-2020 SAID35 WIMK 170500 METAR WIMK 170500Z 18005KT 6000 SCT018 30/24 Q1008 NOSIG=
17-Oct-2020 SAID35 WIMK 170600 METAR WIMK 170600Z 21006KT 6000 SCT018 30/24 Q1008 NOSIG=
17-Oct-2020 SAID35 WIMK 170700 METAR WIMK 170700Z 18007KT 6000 SCT018 30/24 Q1007 NOSIG=
17-Oct-2020 SAID35 WIMK 170800 METAR WIMK 170800Z 21006KT 6000 SCT018 30/24 Q1006 NOSIG=
17-Oct-2020 SAID35 WIMK 170900 METAR WIMK 170900Z 18006KT 6000 SCT018 29/24 Q1007 NOSIG=
17-Oct-2020 SAID35 WIMK 171000 METAR WIMK 171000Z 27004KT 6000 SCT018 29/24 Q1008 NOSIG=
17-Oct-2020 SAID35 WIMK 171100 METAR WIMK 171100Z 18004KT 6000 SCT018 29/24 Q1009 NOSIG=
19-Oct-2020 SAID35 WIMK 190200 METAR WIMK 190200Z 00000KT 5000 HZ SCT017 29/23 Q1009 NOSIG=
19-Oct-2020 SAID35 WIMK 190300 METAR WIMK 190300Z 00000KT 7000 SCT018 30/23 Q1009 NOSIG=
19-Oct-2020 SAID35 WIMK 190400 METAR WIMK 190400Z 00000KT 7000 SCT018 31/23 Q1009 NOSIG=
19-Oct-2020 SAID35 WIMK 190500 METAR WIMK 190500Z 00000KT 7000 SCT018 31/23 Q1007 NOSIG=
19-Oct-2020 SAID35 WIMK 190800 METAR WIMK 190800Z 05010KT 5000 HZ SCT017 31/24 Q1006 NOSIG=
19-Oct-2020 SAID35 WIMK 190900 METAR WIMK 190900Z 06008KT 5000 HZ FEW017CB SCT017 31/24 Q1006 CB TO W=
23-Oct-2020 SAID35 WIMK 232300 METAR WIMK 232300Z 00000KT 4000 HZ SCT018 24/23 Q1008 NOSIG=
24-Oct-2020 SAID35 WIMK 240000 METAR WIMK 240000Z 00000KT 4000 HZ SCT018 25/23 Q1009 NOSIG=
24-Oct-2020 SAID35 WIMK 240100 METAR WIMK 240100Z 00000KT 4000 HZ SCT018 27/23 Q1010 NOSIG=
24-Oct-2020 SAID35 WIMK 240200 METAR WIMK 240200Z 00000KT 5000 HZ SCT018 30/23 Q1011 NOSIG=
24-Oct-2020 SAID35 WIMK 240300 METAR WIMK 240300Z 21003KT 5000 HZ SCT018 30/23 Q1010 NOSIG=
24-Oct-2020 SAID35 WIMK 240400 METAR WIMK 240400Z 06005KT 5000 HZ SCT018 30/23 Q1011 NOSIG=
24-Oct-2020 SAID35 WIMK 240500 METAR WIMK 240500Z 06003KT 5000 HZ SCT018 30/23 Q1010 NOSIG=
24-Oct-2020 SAID35 WIMK 240600 METAR WIMK 240600Z 06003KT 5000 HZ SCT018 30/23 Q1009 NOSIG=
24-Oct-2020 SAID35 WIMK 240700 METAR WIMK 240700Z 21003KT 5000 HZ SCT018 30/23 Q1008 NOSIG=
24-Oct-2020 SAID35 WIMK 240800 METAR WIMK 240800Z 12003KT 5000 HZ SCT018 30/23 Q1008 NOSIG=
24-Oct-2020 SAID35 WIMK 241100 METAR WIMK 241100Z 15003KT 5000 HZ SCT018 29/23 Q1010 NOSIG=
25-Oct-2020 SAID35 WIMK 252300 METAR WIMK 252300Z 00000KT 4000 FBLRA FEWCB016 BKN017 24/24 Q1010 CB TO N=
26-Oct-2020 SAID35 WIMK 260000 METAR WIMK 260000Z 00000KT 4/5000 HZ BKN018 24/24 Q1011 NOSIG=
26-Oct-2020 SAID35 WIMK 260100 METAR WIMK 260100Z 00000KT 5000 HZ SCT018 26/24 Q1011 NOSIG=
26-Oct-2020 SAID35 WIMK 262300 METAR WIMK 262300Z 00000KT 4000 HZ SCT018 24/23 Q1009 NOSIG=
28-Oct-2020 SAID35 WIMK 280000 METAR WIMK 280000Z 00000KT 6000 SCT018 24/23 Q1008 NOSIG=
28-Oct-2020 SAID35 WIMK 280100 METAR WIMK 280100Z 00000KT 6000 SCT018 26/23 Q1009 NOSIG=
28-Oct-2020 SAID35 WIMK 280200 METAR WIMK 280200Z 12005KT 6000 SCT018 27/23 Q1009 NOSIG=
28-Oct-2020 SAID35 WIMK 280400 METAR WIMK 280400Z 21005KT 6000 SCT018 30/23 Q1009 NOSIG=
28-Oct-2020 SAID35 WIMK 280500 METAR WIMK 280500Z 18005KT 6000 SCT018 30/23 Q1009 NOSIG=
28-Oct-2020 SAID35 WIMK 280600 METAR WIMK 280600Z 21005KT 6000 SCT018 30/23 Q1008 NOSIG=
28-Oct-2020 SAID35 WIMK 280700 METAR WIMK 280700Z 18005KT 6000 SCT018 30/23 Q1008 NOSIG=
28-Oct-2020 SAID35 WIMK 280800 METAR WIMK 280800Z 15005KT 6000 SCT018 30/23 Q1007 NOSIG=
28-Oct-2020 SAID35 WIMK 280900 METAR WIMK 280900Z 21005KT 6000 SCT018 30/23 Q1008 NOSIG=
28-Oct-2020 SAID35 WIMK 281000 METAR WIMK 281000Z 18005KT 6000 SCT018 29/23 Q1009 NOSIG=
28-Oct-2020 SAID35 WIMK 281100 METAR WIMK 281100Z 18005KT 6000 SCT018 29/23 Q1010 NOSIG=
29-Oct-2020 SAID35 WIMK 290000 METAR WIMK 290000Z 21005KT 6000 SCT018 24/23 Q1008 NOSIG=
29-Oct-2020 SAID35 WIMK 290100 METAR WIMK 290100Z 18005KT 6000 SCT018 26/23 Q1009 NOSIG=
29-Oct-2020 SAID35 WIMK 290200 METAR WIMK 290200Z 27005KT 6000 SCT018 29/23 Q1010 NOSIG=
29-Oct-2020 SAID35 WIMK 290300 METAR WIMK 290300Z 15005KT 6000 SCT018 30/23 Q1011 NOSIG=
29-Oct-2020 SAID35 WIMK 290400 METAR WIMK 290400Z 21005KT 6000 SCT018 30/23 Q1010 NOSIG=
29-Oct-2020 SAID35 WIMK 290500 METAR WIMK 290500Z 18005KT 6000 SCT018 30/23 Q1010 NOSIG=
29-Oct-2020 SAID35 WIMK 290600 METAR WIMK 290600Z 30005KT 6000 SCT018 30/23 Q1009 NOSIG=
29-Oct-2020 SAID35 WIMK 290700 METAR WIMK 290700Z 27005KT 6000 SCT018 30/23 Q1009 NOSIG=
29-Oct-2020 SAID35 WIMK 290800 METAR WIMK 290800Z 15005KT 6000 SCT018 30/23 Q1008 NOSIG=
29-Oct-2020 SAID35 WIMK 290900 METAR WIMK 290900Z 18005KT 6000 SCT018 30/23 Q1009 NOSIG=
29-Oct-2020 SAID35 WIMK 291000 METAR WIMK 291000Z 12005KT 6000 SCT018 30/23 Q1010 NOSIG=
29-Oct-2020 SAID35 WIMK 291100 METAR WIMK 291100Z 12005KT 6000 SCT018 29/23 Q1010 NOSIG=
30-Oct-2020 SAID35 WIMK 300000 METAR WIMK 300000Z 00000KT 5000 HZ SCT018 25/24 Q1010 NOSIG=
30-Oct-2020 SAID35 WIMK 300100 METAR WIMK 300100Z 00000KT 6000 HZ SCT018 27/24 Q1010 NOSIG=
30-Oct-2020 SAID35 WIMK 300200 METAR WIMK 300200Z 12005KT 6000 HZ SCT018 29/24 Q1011 NOSIG=
30-Oct-2020 SAID35 WIMK 300300 METAR WIMK 300300Z 18005KT 6000 HZ SCT018 30/24 Q1010 NOSIG=
30-Oct-2020 SAID35 WIMK 300500 METAR WIMK 300500Z 18006KT 6000 HZ SCT018 30/24 Q1010 NOSIG=
30-Oct-2020 SAID35 WIMK 300600 METAR WIMK 300600Z 21006KT 6000 HZ SCT018 30/24 Q1009 NOSIG=
30-Oct-2020 SAID35 WIMK 300700 METAR WIMK 300700Z 18006KT 6000 HZ SCT018 30/24 Q1009 NOSIG=
30-Oct-2020 SAID35 WIMK 300800 METAR WIMK 300800Z 15006KT 6000 HZ SCT018 30/24 Q1008 NOSIG=
30-Oct-2020 SAID35 WIMK 300900 METAR WIMK 300900Z 18006KT 6000 HZ SCT018 30/24 Q1008 NOSIG=
30-Oct-2020 SAID35 WIMK 301000 METAR WIMK 301000Z 21006KT 6000 HZ SCT018 29/24 Q1009 NOSIG=
30-Oct-2020 SAID35 WIMK 301100 METAR WIMK 301100Z 18006KT 6000 HZ SCT018 29/24 Q1009 NOSIG=
02-Nov-2020 SAID35 WIMK 020000 METAR WIMK 020000Z 00000KT 6000 HZ SCT018 25/24 Q1008 NOSIG=
02-Nov-2020 SAID35 WIMK 020100 METAR WIMK 020100Z 00000KT 6000 SCT018 25/24 Q1008 NOSIG=
02-Nov-2020 SAID35 WIMK 020200 METAR WIMK 020200Z 12005KT 6000 SCT018 26/24 Q1009 NOSIG=
02-Nov-2020 SAID35 WIMK 020300 METAR WIMK 020300Z 18005KT 6000 SCT018 28/24 Q1010 NOSIG=
02-Nov-2020 SAID35 WIMK 020500 METAR WIMK 020500Z 18005KT 6000 SCT018 30/24 Q1010 NOSIG=
02-Nov-2020 SAID35 WIMK 020600 METAR WIMK 020600Z 18005KT 6000 SCT018 30/24 Q1009 NOSIG=
02-Nov-2020 SAID35 WIMK 020700 METAR WIMK 020700Z 24005KT 6000 SCT018 30/24 Q1009 NOSIG=
02-Nov-2020 SAID35 WIMK 020800 METAR WIMK 020800Z 12005KT 6000 SCT018 30/24 Q1008 NOSIG=
11-Aug-2021 SAID35 WIMK 112300 METAR WIMK 112300Z 00000KT 4000 HZ SCT018 24/24 Q1010 NOSIG=
11-Aug-2021 SAID31 WIMK 112300 METAR WIMK 112300Z 00000KT 4000 HZ SCT018 24/24 Q1010 NOSIG=
03-Sep-2021 SAID31 WIMK 030503 METAR WIMK 030503Z 11004KT 070V130 9999 SCT028 BKN037 30/24 Q1009 RMK TEST=
03-Sep-2021 SAID31 WIMK 030505 METAR WIMK 030505Z 10004KT 060V130 9999 SCT028 BKN038 30/24 Q1009=
03-Sep-2021 SAID31 WIMK 030530 METAR WIMK 030530Z AUTO 09005KT 040V130 9999 FEW030 SCT038 31/24 Q1009=
03-Sep-2021 SAID31 WIMK 030600 METAR WIMK 030600Z AUTO 08006KT 050V120 9999 SCT034 BKN036 BKN045 31/24 Q1008=
03-Sep-2021 SAID31 WIMK 030630 METAR WIMK 030630Z AUTO 06007KT 020V080 9999 BKN039 BKN049 BKN055 31/24 Q1007=
03-Sep-2021 SAID31 WIMK 030700 METAR WIMK 030700Z AUTO 08006KT 030V130 9999 FEW041 BKN042 BKN060 31/24 Q1007=
03-Sep-2021 SAID31 WIMK 030800 METAR WIMK 030800Z AUTO 06007KT 030V110 9999 FEW018 32/24 Q1006=
03-Sep-2021 SAID31 WIMK 030817 METAR WIMK 030817Z 06005KT 030V100 9999 BKN041 SCT065 BKN075 32/24 Q1006=
03-Sep-2021 SAID31 WIMK 030830 METAR WIMK 030830Z AUTO 05005KT 360V080 9999 FEW041 SCT060 BKN075 32/23 Q1005=
03-Sep-2021 SAID31 WIMK 030900 METAR WIMK 030900Z AUTO 04004KT 320V090 9999 FEW080 32/23 Q1005=
03-Sep-2021 SAID31 WIMK 030930 METAR WIMK 030930Z AUTO 06004KT 010V100 9999 BKN043 BKN070 33/23 Q1005=
03-Sep-2021 SAID31 WIMK 031000 METAR WIMK 031000Z AUTO 07009KT 9999 SCT037 BKN040 BKN043 31/23 Q1005=
03-Sep-2021 SAID31 WIMK 031030 METAR WIMK 031030Z AUTO 09009KT 9999 FEW037 SCT045 BKN070 30/23 Q1005=
03-Sep-2021 SAID31 WIMK 031100 METAR WIMK 031100Z AUTO 08008KT 050V110 9999 FEW041 SCT075 30/25 Q1006=
03-Sep-2021 SAID31 WIMK 031130 METAR WIMK 031130Z AUTO 09007KT 9999 FEW080 SCT210 29/25 Q1006=
03-Sep-2021 SAID31 WIMK 031200 METAR WIMK 031200Z AUTO 10006KT 9999 BKN044 SCT075 OVC100 29/25 Q1007=
03-Sep-2021 SAID31 WIMK 031230 METAR WIMK 031230Z AUTO 09006KT 060V120 9999 BKN044 BKN047 BKN200 29/25 Q1007=
03-Sep-2021 SAID31 WIMK 031300 METAR WIMK 031300Z AUTO 12006KT 080V140 9999 BKN044 OVC046 OVC220 28/25 Q1008=
03-Sep-2021 SAID31 WIMK 031330 METAR WIMK 031330Z AUTO 10005KT 9999 BKN045 BKN047 BKN070 28/25 Q1008=
03-Sep-2021 SAID31 WIMK 031400 METAR WIMK 031400Z AUTO 11005KT 050V130 9000 SCT045 SCT049 BKN060 28/25 Q1009=
03-Sep-2021 SAID31 WIMK 031430 METAR WIMK 031430Z AUTO 14004KT 9999 VCTS FEW021 SCT060 BKN100 27/25 Q1009=
03-Sep-2021 SAID31 WIMK 031500 METAR WIMK 031500Z AUTO 13003KT 8000 VCTSRA FEW043 BKN049 OVC065 27/26 Q1010=
03-Sep-2021 SPID31 WIMK 031503 SPECI WIMK 031503Z AUTO 13003KT 7000 -RA FEW041 BKN050 BKN055 27/26 Q1010=
03-Sep-2021 SAID31 WIMK 031530 METAR WIMK 031530Z AUTO 08003KT 5000 -RA SCT023 SCT044 BKN060 27/26 Q1010=
03-Sep-2021 SPID31 WIMK 031533 SPECI WIMK 031533Z AUTO 09004KT 060V120 5000 VCTSRA FEW003 SCT043 BKN049 27/26 Q1010=
03-Sep-2021 SAID31 WIMK 031600 METAR WIMK 031600Z AUTO 10004KT 6000 VCTSRA FEW044 BKN060 BKN130 27/26 Q1010=
03-Sep-2021 SPID31 WIMK 031603 SPECI WIMK 031603Z AUTO 09003KT 060V120 6000 -RA FEW012 BKN065 BKN130 27/26 Q1010=
03-Sep-2021 SAID31 WIMK 031630 METAR WIMK 031630Z AUTO 09003KT 060V120 6000 FEW010 SCT065 BKN085 27/26 Q1010=
03-Sep-2021 SPID31 WIMK 031658 SPECI WIMK 031658Z AUTO 13003KT 4900 BR SCT012 BKN140 OVC200 26/26 Q1010=
03-Sep-2021 SAID31 WIMK 031700 METAR WIMK 031700Z AUTO 13003KT 5000 SCT012 BKN140 OVC200 26/26 Q1010=
03-Sep-2021 SAID31 WIMK 031730 METAR WIMK 031730Z AUTO VRB01KT 4400 BR FEW008 SCT160 BKN190 26/26 Q1010=
03-Sep-2021 SPID31 WIMK 031758 SPECI WIMK 031758Z AUTO ///// 2900 BR SCT012 OVC160 OVC200 26/26 Q1009=
03-Sep-2021 SAID31 WIMK 031800 METAR WIMK 031800Z AUTO ///// 3000 BR SCT012 OVC160 OVC210 26/26 Q1009=
03-Sep-2021 SPID31 WIMK 031810 SPECI WIMK 031810Z AUTO VRB01KT 3100 BR SCT012 BKN160 OVC210 26/26 Q1009=
03-Sep-2021 SPID31 WIMK 031812 SPECI WIMK 031812Z AUTO VRB02KT 2900 BR SCT012 BKN160 OVC210 26/26 Q1009=
03-Sep-2021 SAID31 WIMK 031830 METAR WIMK 031830Z AUTO VRB01KT 4000 BR BKN006 BKN160 BKN170 26/26 Q1009=
03-Sep-2021 SPID31 WIMK 031846 SPECI WIMK 031846Z AUTO VRB01KT 2800 BR OVC006 BKN170 OVC210 26/26 Q1009=
03-Sep-2021 SAID31 WIMK 031930 METAR WIMK 031930Z AUTO 22001KT 1800 BR BKN004 OVC005 BKN010 25/25 Q1008=
03-Sep-2021 SAID31 WIMK 032000 METAR WIMK 032000Z AUTO 29003KT 3400 BR OVC005 26/25 Q1008=
03-Sep-2021 SPID31 WIMK 032016 SPECI WIMK 032016Z AUTO VRB01KT 2900 BR BKN003 OVC005 OVC006 26/25 Q1008=
03-Sep-2021 SAID31 WIMK 032030 METAR WIMK 032030Z AUTO VRB01KT 2500 BR BKN003 OVC005 OVC006 25/25 Q1008=
03-Sep-2021 SPID31 WIMK 032038 SPECI WIMK 032038Z AUTO VRB01KT 2500 BR OVC005 OVC006 25/25 Q1008=
03-Sep-2021 SAID31 WIMK 032100 METAR WIMK 032100Z AUTO 25002KT 3300 BR OVC006 OVC007 26/25 Q1008=
03-Sep-2021 SAID31 WIMK 032130 METAR WIMK 032130Z AUTO ///// 6000 OVC006 OVC007 25/25 Q1008=
03-Sep-2021 SPID31 WIMK 032139 SPECI WIMK 032139Z AUTO ///// 8000 VCTS OVC007 25/24 Q1008=
03-Sep-2021 SAID31 WIMK 032200 METAR WIMK 032200Z AUTO VRB01KT 7000 OVC007 OVC008 25/24 Q1008=
03-Sep-2021 SPID31 WIMK 032209 SPECI WIMK 032209Z AUTO VRB01KT 6000 VCTS BKN007 BKN011 OVC012 25/24 Q1008=
03-Sep-2021 SAID31 WIMK 032230 METAR WIMK 032230Z AUTO 00000KT 7000 BKN004 OVC011 OVC012 25/24 Q1008=
03-Sep-2021 SPID31 WIMK 032237 SPECI WIMK 032237Z AUTO ///// 7000 VCTS OVC004 BKN180 25/25 Q1008=
03-Sep-2021 SAID31 WIMK 032300 METAR WIMK 032300Z AUTO ///// 6000 OVC004 BKN180 ///24 Q////=
03-Sep-2021 SPID31 WIMK 032306 SPECI WIMK 032306Z AUTO ///// 6000 VCTS OVC005 25/24 Q1008=
03-Sep-2021 SPID31 WIMK 032318 SPECI WIMK 032318Z AUTO ///// 4900 BR BKN005 25/24 Q1009=
03-Sep-2021 SAID31 WIMK 032330 METAR WIMK 032330Z AUTO ///// 5000 BKN006 25/24 Q1009=
03-Sep-2021 SPID31 WIMK 032332 SPECI WIMK 032332Z AUTO ///// 6000 VCTS BKN006 BKN007 BKN180 25/24 Q1009=
04-Sep-2021 SAID31 WIMK 040000 METAR WIMK 040000Z AUTO ///// 6000 FEW002 SCT008 BKN065 ///24 Q////=
04-Sep-2021 SPID31 WIMK 040002 SPECI WIMK 040002Z AUTO ///// 7000 VCTS FEW004 BKN065 BKN065 25/24 Q1010=
04-Sep-2021 SPID31 WIMK 040009 SPECI WIMK 040009Z AUTO ///// 4800 BR SCT002 BKN070 BKN070 25/24 Q1010=
04-Sep-2021 SPID31 WIMK 040015 SPECI WIMK 040015Z AUTO ///// 3600 VCTS BR FEW002 SCT065 BKN070 25/24 Q1010=
04-Sep-2021 SPID31 WIMK 040029 SPECI WIMK 040029Z AUTO ///// 6000 VCTS FEW055 SCT060 BKN070 24/24 Q1010=
04-Sep-2021 SAID31 WIMK 040030 METAR WIMK 040030Z AUTO ///// 6000 FEW055 BKN070 BKN170 25/24 Q1010=
04-Sep-2021 SPID31 WIMK 040044 SPECI WIMK 040044Z AUTO ///// 7000 VCTS SCT006 BKN007 BKN055 25/24 Q1010=
04-Sep-2021 SPID31 WIMK 040058 SPECI WIMK 040058Z AUTO 29003KT 250V320 6000 VCTS BKN007 OVC055 BKN080 25/24 Q1011=
04-Sep-2021 SAID31 WIMK 040100 METAR WIMK 040100Z AUTO 29003KT 260V320 6000 BKN007 OVC055 BKN080 25/24 Q1011=
04-Sep-2021 SPID31 WIMK 040128 SPECI WIMK 040128Z AUTO 24002KT 4900 -RA BKN006 BKN060 BKN150 25/24 Q1011=
04-Sep-2021 SPID31 WIMK 040133 SPECI WIMK 040133Z AUTO 24002KT 4500 VCTSRA SCT005 SCT006 BKN150 25/24 Q1011=
04-Sep-2021 SPID31 WIMK 040139 SPECI WIMK 040139Z AUTO 23002KT 4300 -RA SCT006 SCT060 BKN150 25/24 Q1011=
04-Sep-2021 SPID31 WIMK 040142 SPECI WIMK 040142Z AUTO VRB02KT 4400 VCTSRA SCT006 SCT060 BKN150 25/24 Q1011=
04-Sep-2021 SPID31 WIMK 040147 SPECI WIMK 040147Z AUTO 21003KT 4200 VCTSRA BKN006 SCT007 BKN150 25/24 Q1012=
04-Sep-2021 SAID31 WIMK 040200 METAR WIMK 040200Z AUTO VRB02KT 3800 VCTSRA BKN006 OVC150 25/24 Q1012=
04-Sep-2021 SPID31 WIMK 040213 SPECI WIMK 040213Z AUTO VRB01KT 3800 -RA OVC006 25/24 Q1012=
04-Sep-2021 SAID31 WIMK 040230 METAR WIMK 040230Z AUTO 14001KT 3400 VCTSRA BKN006 OVC007 25/24 Q1012=
04-Sep-2021 SPID31 WIMK 040242 SPECI WIMK 040242Z AUTO 36001KT 3100 -RA BKN007 OVC050 25/25 Q1013=
04-Sep-2021 SPID31 WIMK 040246 SPECI WIMK 040246Z AUTO 14002KT 2900 -RA BKN007 OVC050 25/25 Q1013=
04-Sep-2021 SPID31 WIMK 040247 SPECI WIMK 040247Z AUTO VRB01KT 2900 VCTSRA BKN007 OVC050 25/25 Q1013=
04-Sep-2021 SPID31 WIMK 040258 SPECI WIMK 040258Z AUTO 08008KT 050V120 2300 VCTSRA BKN007 BKN013 BKN014 25/24 Q1013=
04-Sep-2021 SAID31 WIMK 040300 METAR WIMK 040300Z AUTO VRB02KT 2300 VCTSRA SCT006 SCT007 BKN016 25/24 Q1013=
04-Sep-2021 SPID31 WIMK 040303 SPECI WIMK 040303Z AUTO 08008KT 050V110 2600 -RA FEW006 SCT007 BKN020 25/24 Q1013=
04-Sep-2021 SPID31 WIMK 040314 SPECI WIMK 040314Z AUTO 08008KT 050V110 6000 -RA FEW008 SCT022 BKN027 25/24 Q1012=
04-Sep-2021 SAID31 WIMK 040317 METAR WIMK 040317Z 09008KT 050V130 7000 -RA FEW008CB BKN025 25/24 Q1012=
04-Sep-2021 SAID31 WIMK 040330 METAR WIMK 040330Z AUTO 10005KT 050V130 8000 -RA FEW007 SCT027 24/24 Q1012=
04-Sep-2021 SAID31 WIMK 040400 METAR WIMK 040400Z AUTO 10004KT 070V130 9000 -RA NCD 25/24 Q1012=
04-Sep-2021 SAID31 WIMK 040500 METAR WIMK 040500Z AUTO 15003KT 090V190 7000 FEW008 26/25 Q1011=
04-Sep-2021 SPID31 WIMK 040518 SPECI WIMK 040518Z AUTO 15004KT 110V180 9999 SCT008 BKN012 BKN013 26/25 Q1011=
04-Sep-2021 SAID31 WIMK 040530 METAR WIMK 040530Z AUTO 13003KT 100V160 9999 SCT010 BKN013 BKN018 26/25 Q1011=
04-Sep-2021 SAID31 WIMK 040600 METAR WIMK 040600Z AUTO 11003KT 070V140 9999 SCT011 SCT017 26/25 Q1010=
04-Sep-2021 SAID31 WIMK 040700 METAR WIMK 040700Z AUTO 09005KT 060V130 9999 FEW014 28/24 Q1009=
04-Sep-2021 SAID31 WIMK 040730 METAR WIMK 040730Z AUTO 10003KT 060V160 9999 NCD 28/24 Q1009=
04-Sep-2021 SAID31 WIMK 040800 METAR WIMK 040800Z AUTO 14003KT 100V180 9999 NCD 28/24 Q1008=
04-Sep-2021 SAID31 WIMK 040830 METAR WIMK 040830Z AUTO VRB02KT 9999 NCD 29/24 Q1007=
04-Sep-2021 SAID31 WIMK 040900 METAR WIMK 040900Z AUTO VRB01KT 9999 FEW029 29/23 Q1007=
04-Sep-2021 SAID31 WIMK 040930 METAR WIMK 040930Z AUTO 16004KT 9999 NCD 29/23 Q1007=
04-Sep-2021 SAID31 WIMK 041000 METAR WIMK 041000Z AUTO VRB02KT 9999 NCD 30/22 Q1006=
04-Sep-2021 SAID31 WIMK 041030 METAR WIMK 041030Z AUTO 12003KT 080V200 9999 FEW190 30/23 Q1007=
04-Sep-2021 SAID31 WIMK 041100 METAR WIMK 041100Z AUTO 15004KT 9999 NCD 29/23 Q1007=
04-Sep-2021 SAID31 WIMK 041130 METAR WIMK 041130Z AUTO 15003KT 9999 NCD 28/24 Q1007=
04-Sep-2021 SAID31 WIMK 041200 METAR WIMK 041200Z AUTO VRB01KT 9000 NCD 27/24 Q1008=
04-Sep-2021 SAID31 WIMK 041230 METAR WIMK 041230Z AUTO VRB01KT 8000 FEW003 26/24 Q1008=
04-Sep-2021 SAID31 WIMK 041300 METAR WIMK 041300Z AUTO VRB01KT 6000 FEW003 SCT190 26/24 Q1009=
04-Sep-2021 SAID31 WIMK 041330 METAR WIMK 041330Z AUTO 36003KT 6000 BKN020 26/24 Q1009=
04-Sep-2021 SPID31 WIMK 041341 SPECI WIMK 041341Z AUTO VRB01KT 4900 BR BKN019 BKN210 OVC230 26/24 Q1009=
04-Sep-2021 SAID31 WIMK 041400 METAR WIMK 041400Z AUTO VRB01KT 4800 BR SCT019 SCT055 OVC210 26/24 Q1009=
04-Sep-2021 SPID31 WIMK 041408 SPECI WIMK 041408Z AUTO 21002KT 5000 FEW018 SCT019 BKN210 26/24 Q1010=
04-Sep-2021 SPID31 WIMK 041415 SPECI WIMK 041415Z AUTO 19002KT 4900 BR FEW002 BKN220 OVC230 26/25 Q1010=
04-Sep-2021 SAID31 WIMK 041430 METAR WIMK 041430Z AUTO 19003KT 4200 BR SCT002 BKN220 OVC230 26/24 Q1010=
04-Sep-2021 SAID31 WIMK 041500 METAR WIMK 041500Z AUTO VRB02KT 4000 BR FEW002 BKN220 OVC240 26/24 Q1010=
04-Sep-2021 SAID31 WIMK 041530 METAR WIMK 041530Z AUTO VRB01KT 4100 BR BKN210 OVC240 26/24 Q1010=
04-Sep-2021 SAID31 WIMK 041600 METAR WIMK 041600Z AUTO 20001KT 3100 BR OVC230 OVC240 25/24 Q1010=
04-Sep-2021 SPID31 WIMK 041604 SPECI WIMK 041604Z AUTO 20002KT 2900 BR OVC240 25/24 Q1010=
04-Sep-2021 SAID31 WIMK 041630 METAR WIMK 041630Z AUTO 23002KT 3500 BR FEW002 25/24 Q1010=
04-Sep-2021 SAID31 WIMK 041700 METAR WIMK 041700Z AUTO 23002KT 3600 BR NCD 25/24 Q1010=
04-Sep-2021 SPID31 WIMK 041710 SPECI WIMK 041710Z AUTO 23004KT 4500 BR BKN012 25/24 Q1010=
04-Sep-2021 SAID31 WIMK 041730 METAR WIMK 041730Z AUTO 22004KT 4500 BR SCT012 25/24 Q1009=
04-Sep-2021 SAID31 WIMK 041800 METAR WIMK 041800Z AUTO VRB02KT 5000 FEW046 BKN240 BKN240 24/24 Q1009=
04-Sep-2021 SAID31 WIMK 041830 METAR WIMK 041830Z AUTO VRB01KT 6000 FEW043 SCT090 BKN220 24/24 Q1009=
04-Sep-2021 SPID31 WIMK 041841 SPECI WIMK 041841Z AUTO 00000KT 4700 BR SCT019 SCT044 BKN090 24/24 Q1009=
04-Sep-2021 SAID31 WIMK 041900 METAR WIMK 041900Z AUTO 23002KT 4500 BR FEW020 SCT045 24/24 Q1009=
04-Sep-2021 SAID31 WIMK 041930 METAR WIMK 041930Z AUTO 21002KT 6000 FEW019 SCT045 OVC210 24/24 Q1008=
04-Sep-2021 SAID31 WIMK 042000 METAR WIMK 042000Z AUTO 23001KT 6000 FEW018 OVC220 24/24 Q1008=
04-Sep-2021 SPID31 WIMK 042008 SPECI WIMK 042008Z AUTO 24002KT 4900 BR SCT018 SCT045 OVC220 24/24 Q1008=
04-Sep-2021 SAID31 WIMK 042030 METAR WIMK 042030Z AUTO 23003KT 7000 FEW012 BKN020 BKN021 24/24 Q1008=
04-Sep-2021 SAID31 WIMK 042100 METAR WIMK 042100Z AUTO 23002KT 8000 BKN019 BKN020 OVC090 24/23 Q1008=
04-Sep-2021 SAID31 WIMK 042130 METAR WIMK 042130Z AUTO VRB01KT 9000 BKN019 BKN022 OVC090 24/23 Q1008=
04-Sep-2021 SAID31 WIMK 042200 METAR WIMK 042200Z AUTO 00000KT 6000 OVC022 OVC023 24/24 Q1008=
04-Sep-2021 SAID31 WIMK 042230 METAR WIMK 042230Z AUTO VRB02KT 5000 OVC019 SCT021 OVC090 24/23 Q1009=
04-Sep-2021 SAID31 WIMK 042300 METAR WIMK 042300Z AUTO 13002KT 7000 FEW005 SCT018 OVC090 24/24 Q1009=
04-Sep-2021 SPID31 WIMK 042304 SPECI WIMK 042304Z AUTO VRB01KT 7000 SCT005 BKN011 OVC090 24/24 Q1009=
04-Sep-2021 SPID31 WIMK 042305 SPECI WIMK 042305Z AUTO VRB01KT 7000 SCT005 BKN009 OVC090 24/24 Q1009=
04-Sep-2021 SPID31 WIMK 042315 SPECI WIMK 042315Z AUTO VRB02KT 6000 FEW005 SCT012 BKN075 24/24 Q1009=
04-Sep-2021 SAID31 WIMK 042330 METAR WIMK 042330Z AUTO VRB01KT 6000 FEW004 SCT013 OVC095 24/23 Q1009=
05-Sep-2021 SAID31 WIMK 050000 METAR WIMK 050000Z AUTO VRB01KT 7000 SCT003 OVC100 25/23 Q1010=
05-Sep-2021 SAID31 WIMK 050030 METAR WIMK 050030Z AUTO VRB02KT 7000 FEW003 BKN100 OVC110 26/24 Q1010=
05-Sep-2021 SAID31 WIMK 050100 METAR WIMK 050100Z AUTO VRB01KT 7000 FEW003 27/24 Q1011=
05-Sep-2021 SAID31 WIMK 050130 METAR WIMK 050130Z AUTO VRB01KT 8000 FEW110 28/24 Q1011=
05-Sep-2021 SAID31 WIMK 050200 METAR WIMK 050200Z AUTO 21004KT 160V240 9999 FEW021 29/24 Q1011=
05-Sep-2021 SAID31 WIMK 050230 METAR WIMK 050230Z AUTO 16004KT 140V200 9999 FEW022 SCT024 29/24 Q1011=
05-Sep-2021 SAID31 WIMK 050300 METAR WIMK 050300Z AUTO VRB02KT 9999 FEW027 SCT031 BKN050 30/24 Q1011=
05-Sep-2021 SAID31 WIMK 050330 METAR WIMK 050330Z AUTO 14003KT 110V180 9999 SCT090 30/24 Q1011=
05-Sep-2021 SAID31 WIMK 050400 METAR WIMK 050400Z AUTO 16003KT 110V200 9999 SCT036 BKN049 BKN085 31/23 Q1011=
05-Sep-2021 SPID31 WIMK 050410 SPECI WIMK 050410Z AUTO VRB02KT 9999 RA FEW007 SCT034 BKN050 30/24 Q1011=
05-Sep-2021 SPID31 WIMK 050419 SPECI WIMK 050419Z AUTO 34003KT 300V110 4800 RA HZ SCT007 BKN035 BKN046 30/25 Q1010=
05-Sep-2021 SAID31 WIMK 050430 METAR WIMK 050430Z AUTO 34007KT 310V020 1800 RA HZ SCT007 BKN035 BKN037 29/25 Q1010=
05-Sep-2021 SPID31 WIMK 050440 SPECI WIMK 050440Z AUTO 32003KT 6000 -RA SCT035 SCT047 BKN060 28/25 Q1011=
05-Sep-2021 SAID31 WIMK 050500 METAR WIMK 050500Z AUTO VRB01KT 9999 -DZ FEW060 SCT065 29/25 Q1010=
05-Sep-2021 SAID31 WIMK 050530 METAR WIMK 050530Z AUTO 06007KT 9999 SCT048 SCT070 BKN080 28/24 Q1010=
05-Sep-2021 SAID31 WIMK 050600 METAR WIMK 050600Z AUTO 07007KT 9999 FEW075 29/24 Q1009=
05-Sep-2021 SAID31 WIMK 050630 METAR WIMK 050630Z AUTO 03007KT 9999 FEW095 SCT120 29/23 Q1009=
05-Sep-2021 SPID31 WIMK 050638 SPECI WIMK 050638Z AUTO 07004KT 020V130 9999 VCTSRA FEW065 SCT140 29/24 Q1009=
05-Sep-2021 SAID31 WIMK 050700 METAR WIMK 050700Z AUTO 11007KT 070V150 9999 NCD 28/23 Q1009=
05-Sep-2021 SAID31 WIMK 050730 METAR WIMK 050730Z AUTO 12005KT 090V160 9999 NCD 27/23 Q1008=
05-Sep-2021 SAID31 WIMK 050800 METAR WIMK 050800Z AUTO VRB02KT 9999 NCD 29/24 Q1008=
05-Sep-2021 SAID31 WIMK 050830 METAR WIMK 050830Z AUTO 10006KT 060V150 9999 NCD 31/25 Q1007=
05-Sep-2021 SAID31 WIMK 050900 METAR WIMK 050900Z AUTO 09006KT 050V120 9999 FEW033 31/24 Q1007=
05-Sep-2021 SAID31 WIMK 050930 METAR WIMK 050930Z AUTO 06004KT 030V130 9999 FEW033 31/24 Q1007=
05-Sep-2021 SAID31 WIMK 051000 METAR WIMK 051000Z AUTO 10005KT 060V150 9999 BKN033 BKN042 31/24 Q1007=
05-Sep-2021 SAID31 WIMK 051030 METAR WIMK 051030Z AUTO 08005KT 050V120 9999 FEW032 SCT034 31/24 Q1007=
05-Sep-2021 SAID31 WIMK 051100 METAR WIMK 051100Z AUTO 06007KT 9999 BKN031 30/24 Q1007=
05-Sep-2021 SAID31 WIMK 051130 METAR WIMK 051130Z AUTO 05007KT 9999 FEW030 29/24 Q1008=
05-Sep-2021 SAID31 WIMK 051200 METAR WIMK 051200Z AUTO 05006KT 9999 BKN055 BKN060 28/24 Q1008=
05-Sep-2021 SAID31 WIMK 051230 METAR WIMK 051230Z AUTO 06003KT 030V090 9999 BKN025 OVC060 28/25 Q1009=
05-Sep-2021 SAID31 WIMK 051300 METAR WIMK 051300Z AUTO 06003KT 030V090 9999 SCT023 OVC060 27/25 Q1009=
05-Sep-2021 SAID31 WIMK 051330 METAR WIMK 051330Z AUTO VRB02KT 6000 SCT002 BKN024 OVC060 26/25 Q1010=
05-Sep-2021 SPID31 WIMK 051332 SPECI WIMK 051332Z AUTO 11002KT 6000 BKN002 BKN025 OVC060 26/25 Q1010=
05-Sep-2021 SPID31 WIMK 051345 SPECI WIMK 051345Z AUTO VRB02KT 4900 BR BKN002 OVC060 26/25 Q1010=
05-Sep-2021 SAID31 WIMK 051400 METAR WIMK 051400Z AUTO VRB01KT 4000 BR HZ BKN002 OVC060 26/25 Q1010=
05-Sep-2021 SAID31 WIMK 051430 METAR WIMK 051430Z AUTO 36001KT 3600 BR OVC002 BKN024 OVC060 26/25 Q1011=
05-Sep-2021 SPID31 WIMK 051444 SPECI WIMK 051444Z AUTO VRB02KT 2900 BR OVC002 OVC060 26/25 Q1011=
05-Sep-2021 SAID31 WIMK 051500 METAR WIMK 051500Z AUTO 22004KT 3900 BR BKN002 OVC020 BKN060 26/25 Q1011=
05-Sep-2021 SPID31 WIMK 051506 SPECI WIMK 051506Z AUTO 22004KT 2900 BR BKN002 OVC020 26/25 Q1011=
05-Sep-2021 SPID31 WIMK 051519 SPECI WIMK 051519Z AUTO 19004KT 4000 BR FEW002 OVC020 OVC021 26/25 Q1012=
05-Sep-2021 SAID31 WIMK 051530 METAR WIMK 051530Z AUTO 19003KT 4500 BR OVC020 26/25 Q1012=
05-Sep-2021 SPID31 WIMK 051540 SPECI WIMK 051540Z AUTO VRB02KT 5000 BKN020 BKN024 OVC028 26/25 Q1012=
05-Sep-2021 SAID31 WIMK 051600 METAR WIMK 051600Z AUTO 23002KT 5000 SCT002 BKN018 OVC024 26/24 Q1012=
05-Sep-2021 SPID31 WIMK 051609 SPECI WIMK 051609Z AUTO 23002KT 4900 BR SCT002 BKN017 BKN018 26/24 Q1012=
05-Sep-2021 SPID31 WIMK 051619 SPECI WIMK 051619Z AUTO 26002KT 4100 BR BKN002 OVC023 OVC060 25/24 Q1012=
05-Sep-2021 SAID31 WIMK 051630 METAR WIMK 051630Z AUTO 27003KT 230V290 4000 BR BKN002 OVC023 26/24 Q1012=
05-Sep-2021 SAID31 WIMK 051700 METAR WIMK 051700Z AUTO VRB02KT 4100 BR OVC002 25/25 Q1011=
05-Sep-2021 SAID31 WIMK 051730 METAR WIMK 051730Z AUTO VRB02KT 4200 BR OVC002 OVC060 25/24 Q1011=
05-Sep-2021 SAID31 WIMK 051800 METAR WIMK 051800Z AUTO 24001KT 5000 BKN002 SCT017 OVC065 25/24 Q1011=
05-Sep-2021 SPID31 WIMK 051819 SPECI WIMK 051819Z AUTO 23003KT 4900 BR SCT002 SCT017 OVC070 25/24 Q1010=
05-Sep-2021 SAID31 WIMK 051830 METAR WIMK 051830Z AUTO 24003KT 5000 FEW002 OVC070 BKN220 25/24 Q1010=
05-Sep-2021 SAID31 WIMK 051900 METAR WIMK 051900Z AUTO VRB02KT 8000 FEW015 BKN070 BKN220 25/24 Q1010=
05-Sep-2021 SAID31 WIMK 051930 METAR WIMK 051930Z AUTO 24001KT 9000 FEW015 BKN070 OVC220 24/24 Q1010=
05-Sep-2021 SAID31 WIMK 052000 METAR WIMK 052000Z AUTO 23002KT 9999 FEW015 BKN210 OVC230 24/23 Q1010=
05-Sep-2021 SAID31 WIMK 052030 METAR WIMK 052030Z AUTO 21002KT 9999 OVC220 24/23 Q1010=
05-Sep-2021 SAID31 WIMK 052100 METAR WIMK 052100Z AUTO VRB01KT 6000 FEW003 BKN200 OVC210 24/23 Q1010=
05-Sep-2021 SAID31 WIMK 052130 METAR WIMK 052130Z AUTO VRB01KT 9000 OVC200 BKN210 OVC230 24/23 Q1010=
05-Sep-2021 SAID31 WIMK 052200 METAR WIMK 052200Z AUTO 17002KT 9999 OVC200 OVC230 24/23 Q1010=
05-Sep-2021 SAID31 WIMK 052230 METAR WIMK 052230Z AUTO 18002KT 9999 OVC200 OVC210 24/23 Q1010=
05-Sep-2021 SAID31 WIMK 052300 METAR WIMK 052300Z AUTO VRB01KT 9999 BKN210 BKN230 OVC240 23/22 Q1010=
05-Sep-2021 SAID31 WIMK 052330 METAR WIMK 052330Z AUTO 18002KT 9999 FEW210 23/22 Q1010=
06-Sep-2021 SAID31 WIMK 060000 METAR WIMK 060000Z AUTO 21002KT 9999 NCD 24/23 Q1011=
06-Sep-2021 SAID31 WIMK 060030 METAR WIMK 060030Z AUTO VRB01KT 9999 NCD 25/23 Q1011=
06-Sep-2021 SAID31 WIMK 060100 METAR WIMK 060100Z AUTO VRB02KT 9999 NCD 26/22 Q1011=
06-Sep-2021 SAID31 WIMK 060130 METAR WIMK 060130Z AUTO VRB02KT 9999 NCD 28/23 Q1012=
06-Sep-2021 SAID31 WIMK 060200 METAR WIMK 060200Z AUTO VRB02KT 9999 NCD 29/24 Q1012=
06-Sep-2021 SAID31 WIMK 060230 METAR WIMK 060230Z AUTO VRB03KT 9999 NCD 30/24 Q1012=
06-Sep-2021 SAID31 WIMK 060300 METAR WIMK 060300Z AUTO VRB03KT 9999 NCD 30/24 Q1011=
06-Sep-2021 SAID31 WIMK 060330 METAR WIMK 060330Z AUTO VRB03KT 9999 FEW033 SCT039 BKN055 30/23 Q1011=
06-Sep-2021 SAID31 WIMK 060400 METAR WIMK 060400Z AUTO 11003KT 050V190 9999 SCT036 BKN046 31/23 Q1011=
06-Sep-2021 SAID31 WIMK 060430 METAR WIMK 060430Z AUTO 09003KT 050V170 9999 SCT046 SCT050 BKN055 31/23 Q1011=
06-Sep-2021 SAID31 WIMK 060500 METAR WIMK 060500Z AUTO 06004KT 320V110 9999 FEW039 SCT046 BKN080 32/23 Q1010=
06-Sep-2021 SAID31 WIMK 060530 METAR WIMK 060530Z AUTO VRB03KT 9999 SCT040 SCT046 BKN049 32/23 Q1010=
06-Sep-2021 SAID31 WIMK 060600 METAR WIMK 060600Z AUTO 01004KT 310V070 9999 FEW046 SCT060 BKN070 33/22 Q1009=
06-Sep-2021 SAID31 WIMK 060630 METAR WIMK 060630Z AUTO 05005KT 010V100 9999 FEW047 BKN055 BKN065 32/22 Q1008=
06-Sep-2021 SAID31 WIMK 060700 METAR WIMK 060700Z AUTO 05006KT 010V070 9999 FEW049 BKN075 32/23 Q1008=
06-Sep-2021 SAID31 WIMK 060730 METAR WIMK 060730Z AUTO 05007KT 020V080 9999 SCT042 BKN043 BKN055 32/24 Q1008=
06-Sep-2021 SAID31 WIMK 060800 METAR WIMK 060800Z AUTO 02005KT 320V060 9999 SCT039 SCT044 BKN065 33/24 Q1007=
06-Sep-2021 SAID31 WIMK 060830 METAR WIMK 060830Z AUTO 04007KT 360V060 9999 SCT043 SCT050 32/23 Q1007=
06-Sep-2021 SAID31 WIMK 060900 METAR WIMK 060900Z AUTO 04007KT 360V060 9999 NCD 33/22 Q1007=
06-Sep-2021 SPID31 WIMK 060903 SPECI WIMK 060903Z AUTO 03007KT 340V060 9999 VCTS NCD 32/22 Q1007=
06-Sep-2021 SAID31 WIMK 060930 METAR WIMK 060930Z AUTO 03007KT 340V060 9999 NCD 32/22 Q1007=
06-Sep-2021 SAID31 WIMK 061000 METAR WIMK 061000Z AUTO 04008KT 360V070 9999 NCD 31/23 Q1007=
06-Sep-2021 SAID31 WIMK 061030 METAR WIMK 061030Z AUTO 03006KT 9999 NCD 30/23 Q1007=
06-Sep-2021 SAID31 WIMK 061100 METAR WIMK 061100Z AUTO 05009KT 9999 NCD 29/23 Q1008=
06-Sep-2021 SAID31 WIMK 061130 METAR WIMK 061130Z AUTO 06007KT 9999 NCD 29/24 Q1008=
06-Sep-2021 SAID31 WIMK 061200 METAR WIMK 061200Z AUTO 04004KT 9999 FEW290 SCT330 28/24 Q1008=
06-Sep-2021 SAID31 WIMK 061230 METAR WIMK 061230Z AUTO VRB02KT 9999 FEW012 SCT041 BKN300 27/24 Q1009=
06-Sep-2021 SPID31 WIMK 061258 SPECI WIMK 061258Z AUTO 15002KT 4900 BR HZ FEW039 27/24 Q1009=
06-Sep-2021 SAID31 WIMK 061300 METAR WIMK 061300Z AUTO 15001KT 5000 FEW039 27/24 Q1009=
06-Sep-2021 SAID31 WIMK 061330 METAR WIMK 061330Z AUTO 13002KT 3500 BR HZ SCT002 SCT003 BKN044 27/24 Q1009=
06-Sep-2021 SPID31 WIMK 061349 SPECI WIMK 061349Z AUTO VRB01KT 3200 BR HZ BKN002 SCT003 BKN045 26/24 Q1010=
06-Sep-2021 SAID31 WIMK 061400 METAR WIMK 061400Z AUTO 36001KT 1900 BR HZ BKN002 SCT003 OVC044 26/24 Q1010=
06-Sep-2021 SPID31 WIMK 061414 SPECI WIMK 061414Z AUTO VRB02KT 4000 BR HZ OVC002 BKN003 BKN060 27/24 Q1010=
06-Sep-2021 SAID31 WIMK 061430 METAR WIMK 061430Z AUTO 20002KT 4300 BR HZ OVC002 BKN060 BKN310 26/24 Q1010=
06-Sep-2021 SAID31 WIMK 061500 METAR WIMK 061500Z AUTO 21003KT 3800 BR OVC002 OVC019 26/24 Q1010=
06-Sep-2021 SPID31 WIMK 061545 SPECI WIMK 061545Z AUTO VRB01KT 5000 OVC002 BKN003 OVC019 26/24 Q1011=
06-Sep-2021 SAID31 WIMK 061600 METAR WIMK 061600Z AUTO VRB01KT 4000 BR OVC002 OVC020 26/24 Q1011=
06-Sep-2021 SAID31 WIMK 061630 METAR WIMK 061630Z AUTO 24003KT 3200 BR OVC002 OVC022 26/24 Q1012=
06-Sep-2021 SPID31 WIMK 061644 SPECI WIMK 061644Z AUTO 23002KT 3500 BR FEW002 BKN022 BKN023 26/24 Q1012=
06-Sep-2021 SAID31 WIMK 061700 METAR WIMK 061700Z AUTO 25002KT 3400 BR SCT002 BKN023 OVC042 26/24 Q1012=
06-Sep-2021 SPID31 WIMK 061719 SPECI WIMK 061719Z AUTO VRB02KT 5000 FEW003 SCT016 BKN021 26/24 Q1012=
06-Sep-2021 SAID31 WIMK 061730 METAR WIMK 061730Z AUTO 23002KT 5000 FEW004 BKN014 BKN021 26/24 Q1012=
06-Sep-2021 SPID31 WIMK 061736 SPECI WIMK 061736Z AUTO 22002KT 4900 BR FEW012 BKN013 BKN019 26/24 Q1012=
06-Sep-2021 SPID31 WIMK 061749 SPECI WIMK 061749Z AUTO VRB01KT 5000 FEW012 SCT013 BKN044 26/24 Q1011=
06-Sep-2021 SAID31 WIMK 061800 METAR WIMK 061800Z AUTO 20002KT 4900 BR FEW012 SCT019 BKN044 25/24 Q1011=
06-Sep-2021 SPID31 WIMK 061816 SPECI WIMK 061816Z AUTO 21002KT 4700 BR SCT002 BKN012 BKN044 25/24 Q1011=
06-Sep-2021 SPID31 WIMK 061819 SPECI WIMK 061819Z AUTO 21002KT 4700 BR BKN002 BKN012 OVC020 25/24 Q1011=
06-Sep-2021 SAID31 WIMK 061830 METAR WIMK 061830Z AUTO 21002KT 4000 BR BKN002 BKN012 OVC020 25/24 Q1011=
06-Sep-2021 SAID31 WIMK 061900 METAR WIMK 061900Z AUTO VRB02KT 3600 BR BKN018 BKN160 OVC200 25/24 Q1011=
06-Sep-2021 SAID31 WIMK 061930 METAR WIMK 061930Z AUTO 21001KT 5000 SCT015 BKN020 OVC230 25/24 Q1011=
06-Sep-2021 SAID31 WIMK 062000 METAR WIMK 062000Z AUTO VRB01KT 5000 BKN042 SCT046 BKN170 25/24 Q1011=
06-Sep-2021 SAID31 WIMK 062030 METAR WIMK 062030Z AUTO 22003KT 5000 SCT004 BKN044 BKN200 25/24 Q1010=
06-Sep-2021 SAID31 WIMK 062100 METAR WIMK 062100Z AUTO 19002KT 8000 SCT042 BKN043 BKN055 25/24 Q1010=
06-Sep-2021 SAID31 WIMK 062130 METAR WIMK 062130Z AUTO 21003KT 8000 FEW004 BKN042 OVC190 25/24 Q1010=
06-Sep-2021 SAID31 WIMK 062200 METAR WIMK 062200Z AUTO 23002KT 8000 BKN043 OVC180 25/24 Q1011=
06-Sep-2021 SAID31 WIMK 062230 METAR WIMK 062230Z AUTO 22003KT 8000 SCT002 BKN046 OVC170 25/24 Q1011=
06-Sep-2021 SPID31 WIMK 062235 SPECI WIMK 062235Z AUTO 19003KT 160V220 8000 BKN002 BKN043 OVC170 25/24 Q1011=
06-Sep-2021 SAID31 WIMK 062300 METAR WIMK 062300Z AUTO 20002KT 8000 SCT003 SCT055 OVC180 25/23 Q1011=
06-Sep-2021 SAID31 WIMK 062330 METAR WIMK 062330Z AUTO VRB01KT 6000 SCT039 SCT055 BKN180 24/23 Q1011=
06-Sep-2021 SPID31 WIMK 062348 SPECI WIMK 062348Z AUTO VRB01KT 4900 BR SCT038 OVC180 25/24 Q1011=
07-Sep-2021 SAID31 WIMK 070000 METAR WIMK 070000Z AUTO VRB02KT 4400 BR SCT180 25/23 Q1011=
07-Sep-2021 SAID31 WIMK 070030 METAR WIMK 070030Z AUTO VRB01KT 6000 SCT060 26/24 Q1011=
07-Sep-2021 SAID31 WIMK 070100 METAR WIMK 070100Z AUTO 21003KT 190V260 7000 FEW060 27/24 Q1012=
07-Sep-2021 SAID31 WIMK 070130 METAR WIMK 070130Z AUTO 22003KT 9999 FEW055 29/24 Q1012=
07-Sep-2021 SAID31 WIMK 070200 METAR WIMK 070200Z AUTO VRB02KT 9999 NCD 30/24 Q1012=
07-Sep-2021 SAID31 WIMK 070230 METAR WIMK 070230Z AUTO VRB03KT 9999 FEW060 31/23 Q1012=
07-Sep-2021 SAID31 WIMK 070300 METAR WIMK 070300Z AUTO VRB02KT 9999 FEW030 31/23 Q1012=
07-Sep-2021 SAID31 WIMK 070330 METAR WIMK 070330Z AUTO VRB02KT 9999 NCD 32/23 Q1011=
07-Sep-2021 SAID31 WIMK 070400 METAR WIMK 070400Z AUTO VRB01KT 9999 FEW039 BKN040 32/23 Q1011=
07-Sep-2021 SAID31 WIMK 070430 METAR WIMK 070430Z AUTO 14003KT 080V210 9999 BKN044 BKN055 BKN070 32/23 Q1011=
07-Sep-2021 SAID31 WIMK 070500 METAR WIMK 070500Z AUTO 12004KT 080V240 9999 BKN042 BKN044 BKN049 32/23 Q1011=
07-Sep-2021 SAID31 WIMK 070530 METAR WIMK 070530Z AUTO VRB03KT 9999 BKN042 BKN050 BKN060 33/23 Q1010=
07-Sep-2021 SAID31 WIMK 070600 METAR WIMK 070600Z AUTO VRB02KT 9999 FEW075 34/23 Q1010=
07-Sep-2021 SAID31 WIMK 070630 METAR WIMK 070630Z AUTO VRB03KT 9999 BKN044 SCT047 BKN050 33/23 Q1009=
07-Sep-2021 SAID31 WIMK 070700 METAR WIMK 070700Z AUTO 07007KT 030V100 9999 SCT043 SCT045 33/24 Q1008=
07-Sep-2021 SAID31 WIMK 070730 METAR WIMK 070730Z AUTO 04007KT 010V110 9999 SCT042 SCT050 33/24 Q1008=
07-Sep-2021 SAID31 WIMK 070800 METAR WIMK 070800Z AUTO 05008KT 9999 FEW039 SCT040 33/24 Q1007=
07-Sep-2021 SAID31 WIMK 070830 METAR WIMK 070830Z AUTO 05009KT 010V090 9999 FEW040 32/23 Q1007=
07-Sep-2021 SAID31 WIMK 070900 METAR WIMK 070900Z AUTO 05009KT 9999 NCD 32/23 Q1007=
07-Sep-2021 SAID31 WIMK 070930 METAR WIMK 070930Z AUTO 04008KT 020V080 9999 NCD 31/23 Q1007=
07-Sep-2021 SAID31 WIMK 071000 METAR WIMK 071000Z AUTO 06007KT 030V090 9999 FEW042 31/24 Q1007=
07-Sep-2021 SAID31 WIMK 071030 METAR WIMK 071030Z AUTO 04008KT 9999 SCT170 30/23 Q1007=
07-Sep-2021 SAID31 WIMK 071100 METAR WIMK 071100Z AUTO 05007KT 9999 BKN044 BKN170 30/23 Q1008=
07-Sep-2021 SAID31 WIMK 071130 METAR WIMK 071130Z AUTO 02006KT 350V050 9999 FEW043 BKN045 BKN055 30/22 Q1008=
08-Sep-2021 SAID31 WIMK 080642 METAR WIMK 080642Z 10005KT 050V210 9999 BKN050 BKN060 BKN080 33/22 Q1008 RMK TEST=
08-Sep-2021 SAID31 WIMK 080700 METAR WIMK 080700Z AUTO 08005KT 030V150 9999 BKN049 BKN050 BKN070 33/23 Q1007=
08-Sep-2021 SAID31 WIMK 080730 METAR WIMK 080730Z AUTO 04005KT 350V060 9999 SCT046 BKN047 BKN060 32/24 Q1007=
08-Sep-2021 SAID31 WIMK 080800 METAR WIMK 080800Z AUTO 04008KT 360V070 9999 SCT043 BKN046 BKN050 32/24 Q1007=
08-Sep-2021 SAID31 WIMK 080830 METAR WIMK 080830Z 05007KT 020V080 9999 FEW016CB BKN017 31/24 Q1007=
08-Sep-2021 SPID31 WIMK 080844 SPECI WIMK 080844Z AUTO 12005KT 060V150 9999 VCTS BKN038 SCT044 BKN046 29/24 Q1006=
08-Sep-2021 SAID31 WIMK 080900 METAR WIMK 080900Z AUTO 09006KT 060V130 9999 FEW038 SCT075 31/24 Q1006=
08-Sep-2021 SPID31 WIMK 080909 SPECI WIMK 080909Z AUTO 06007KT 9999 VCTS FEW065 SCT075 31/24 Q1006=
08-Sep-2021 SPID31 WIMK 080929 SPECI WIMK 080929Z AUTO 06007KT 030V090 9999 VCTS SCT036 BKN055 BKN065 30/24 Q1006=
08-Sep-2021 SAID31 WIMK 080930 METAR WIMK 080930Z AUTO 06007KT 030V090 9999 SCT036 BKN055 BKN070 31/24 Q1006=
08-Sep-2021 SAID31 WIMK 081000 METAR WIMK 081000Z AUTO VRB03KT 9999 BKN030 SCT033 BKN040 28/24 Q1007=
08-Sep-2021 SPID31 WIMK 081001 SPECI WIMK 081001Z AUTO VRB02KT 9999 VCTS BKN030 SCT031 BKN036 29/23 Q1007=
08-Sep-2021 SPID31 WIMK 081010 SPECI WIMK 081010Z AUTO 21007G18KT 160V320 8000 -RA BKN003 OVC029 OVC030 27/23 Q1007=
08-Sep-2021 SPID31 WIMK 081012 SPECI WIMK 081012Z AUTO 20009KT 160V270 5000 RA BKN003 OVC030 27/23 Q1007=
08-Sep-2021 SPID31 WIMK 081013 SPECI WIMK 081013Z AUTO 20010G20KT 160V270 4700 +RA BR BKN003 OVC030 26/23 Q1007=
08-Sep-2021 SPID31 WIMK 081015 SPECI WIMK 081015Z AUTO 19012KT 150V220 2500 VCTSRA HZ OVC003 BKN024 OVC031 26/23 Q1007=
08-Sep-2021 SPID31 WIMK 081016 SPECI WIMK 081016Z AUTO ///// 1700 +RA HZ OVC003 BKN024 OVC031 26/23 Q1007=
08-Sep-2021 SPID31 WIMK 081017 SPECI WIMK 081017Z AUTO ///// 0900 +RA OVC003 BKN024 OVC031 25/23 Q1007=
08-Sep-2021 SPID31 WIMK 081018 SPECI WIMK 081018Z AUTO ///// 0550 +RA OVC003 BKN024 OVC031 26/23 Q1007=
08-Sep-2021 SAID31 WIMK 081030 METAR WIMK 081030Z AUTO ///// 0300 VCTSRA OVC002 BKN003 BKN024 24/24 Q1008=
08-Sep-2021 SPID31 WIMK 081030 SPECI WIMK 081030Z AUTO 31007KT 260V010 0600 R05/1100U RA BKN002 SCT003 BKN029 25/23 Q1008=
08-Sep-2021 SPID31 WIMK 081032 SPECI WIMK 081032Z AUTO 31007KT 290V010 0750 R05/1400U VCTSRA OVC002 BKN003 BKN013 25/23 Q1008=
08-Sep-2021 SPID31 WIMK 081036 SPECI WIMK 081036Z AUTO 32007KT 280V010 0900 R05/1700D +RA OVC002 BKN003 BKN013 24/23 Q1008=
08-Sep-2021 SPID31 WIMK 081037 SPECI WIMK 081037Z AUTO 32007KT 280V010 0800 R05/1700D +TSRA OVC003 BKN013 OVC032 24/23 Q1008=
08-Sep-2021 SPID31 WIMK 081039 SPECI WIMK 081039Z AUTO 32009G23KT 280V360 0700 R05/1400D VCTSRA OVC002 OVC003 24/24 Q1008=
08-Sep-2021 SPID31 WIMK 081041 SPECI WIMK 081041Z AUTO 33010G23KT 280V020 0450 R05/1100D +RA OVC002 OVC003 24/23 Q1008=
08-Sep-2021 SPID31 WIMK 081042 SPECI WIMK 081042Z AUTO 33011G23KT 280V020 0400 R05/1000D VCTSRA OVC002 OVC003 24/23 Q1008=
08-Sep-2021 SPID31 WIMK 081047 SPECI WIMK 081047Z AUTO 35010G23KT 320V040 0350 R05/0900U +RA OVC002 OVC003 24/23 Q1008=
08-Sep-2021 SAID31 WIMK 081100 METAR WIMK 081100Z AUTO 34006KT 300V040 0600 R05/1900N +RA OVC002 OVC003 24/23 Q1008=
08-Sep-2021 SPID31 WIMK 081102 SPECI WIMK 081102Z AUTO 32006KT 260V360 0800 R05/P2000N VCTSRA OVC002 OVC003 23/23 Q1008=
08-Sep-2021 SPID31 WIMK 081106 SPECI WIMK 081106Z AUTO ///// 1000 R23/P2000U +RA OVC002 OVC003 24/23 Q1008=
08-Sep-2021 SPID31 WIMK 081108 SPECI WIMK 081108Z AUTO ///// 1100 R23/P2000D VCTSRA OVC002 OVC003 23/23 Q1008=
08-Sep-2021 SPID31 WIMK 081111 SPECI WIMK 081111Z AUTO 32004KT 280V020 1100 R05/P2000U +RA OVC002 OVC003 23/23 Q1008=
08-Sep-2021 SAID31 WIMK 081130 METAR WIMK 081130Z AUTO 04004KT 340V080 1100 R23/P2000D VCTSRA OVC002 OVC003 24/23 Q1009=
08-Sep-2021 SPID31 WIMK 081131 SPECI WIMK 081131Z AUTO 03005KT 340V080 1100 R23/P2000N +RA OVC002 OVC003 24/24 Q1009=
08-Sep-2021 SAID31 WIMK 081200 METAR WIMK 081200Z AUTO ///// 4000 -RA BKN005 BKN006 BKN010 24/23 Q1009=
08-Sep-2021 SPID31 WIMK 081205 SPECI WIMK 081205Z AUTO ///// 6000 VCTSRA SCT004 BKN009 BKN033 24/23 Q1009=
08-Sep-2021 SPID31 WIMK 081209 SPECI WIMK 081209Z AUTO ///// 8000 -RA SCT004 SCT009 BKN043 24/23 Q1009=
08-Sep-2021 SPID31 WIMK 081217 SPECI WIMK 081217Z AUTO ///// 8000 VCTSRA FEW005 SCT043 24/23 Q1009=
08-Sep-2021 SPID31 WIMK 081218 SPECI WIMK 081218Z AUTO ///// 9000 -RA FEW006 SCT075 24/23 Q1009=
08-Sep-2021 SPID31 WIMK 081229 SPECI WIMK 081229Z AUTO ///// 8000 -RA FEW009 24/23 Q1010=
08-Sep-2021 SAID31 WIMK 081230 METAR WIMK 081230Z AUTO ///// 7000 VCTSRA FEW009 24/23 Q1010=
08-Sep-2021 SPID31 WIMK 081230 SPECI WIMK 081230Z AUTO ///// 6000 VCTSRA FEW009 24/23 Q1010=
08-Sep-2021 SPID31 WIMK 081233 SPECI WIMK 081233Z AUTO ///// 6000 -TSRA FEW008 24/23 Q1010=
08-Sep-2021 SPID31 WIMK 081239 SPECI WIMK 081239Z AUTO ///// 5000 RA FEW009 23/23 Q1010=
08-Sep-2021 SPID31 WIMK 081240 SPECI WIMK 081240Z AUTO ///// 5000 VCTSRA FEW009 24/23 Q1010=
08-Sep-2021 SPID31 WIMK 081241 SPECI WIMK 081241Z AUTO ///// 5000 RA FEW009 24/23 Q1010=
08-Sep-2021 SPID31 WIMK 081249 SPECI WIMK 081249Z AUTO ///// 5000 VCTSRA FEW009 24/23 Q1010=
08-Sep-2021 SAID31 WIMK 081300 METAR WIMK 081300Z AUTO ///// 5000 RA NCD 23/23 Q1010=
08-Sep-2021 SPID31 WIMK 081301 SPECI WIMK 081301Z AUTO ///// 5000 VCTSRA FEW080 24/23 Q1010=
08-Sep-2021 SPID31 WIMK 081303 SPECI WIMK 081303Z AUTO ///// 5000 RA FEW080 24/23 Q1011=
08-Sep-2021 SPID31 WIMK 081308 SPECI WIMK 081308Z AUTO ///// 5000 VCTSRA FEW080 24/23 Q1010=
08-Sep-2021 SPID31 WIMK 081310 SPECI WIMK 081310Z AUTO ///// 5000 RA FEW140 24/23 Q1010=
08-Sep-2021 SPID31 WIMK 081316 SPECI WIMK 081316Z AUTO ///// 5000 VCTSRA FEW150 24/23 Q1011=
08-Sep-2021 SAID31 WIMK 081330 METAR WIMK 081330Z AUTO ///// 5000 RA FEW002 23/23 Q1011=
08-Sep-2021 SAID31 WIMK 081400 METAR WIMK 081400Z AUTO 16003KT 130V210 5000 VCTSRA FEW060 24/23 Q1011=
08-Sep-2021 SPID31 WIMK 081409 SPECI WIMK 081409Z AUTO 22004KT 180V240 6000 -RA FEW075 23/23 Q1011=
08-Sep-2021 SAID31 WIMK 081430 METAR WIMK 081430Z AUTO 18003KT 150V210 8000 -RA FEW075 24/23 Q1012=
08-Sep-2021 SPID31 WIMK 081432 SPECI WIMK 081432Z AUTO VRB02KT 7000 RA SCT075 24/23 Q1012=
08-Sep-2021 SAID31 WIMK 081500 METAR WIMK 081500Z AUTO 22003KT 5000 RA NCD 23/23 Q1012=
08-Sep-2021 SPID31 WIMK 081502 SPECI WIMK 081502Z AUTO ///// 6000 VCTSRA FEW150 24/23 Q1012=
08-Sep-2021 SPID31 WIMK 081504 SPECI WIMK 081504Z AUTO ///// 6000 -RA FEW150 24/23 Q1012=
08-Sep-2021 SPID31 WIMK 081505 SPECI WIMK 081505Z AUTO ///// 6000 VCTSRA SCT150 24/23 Q1012=
08-Sep-2021 SPID31 WIMK 081509 SPECI WIMK 081509Z AUTO ///// 7000 -RA FEW075 SCT150 24/23 Q1012=
08-Sep-2021 SPID31 WIMK 081510 SPECI WIMK 081510Z AUTO ///// 8000 VCTSRA FEW075 SCT150 24/23 Q1012=
08-Sep-2021 SPID31 WIMK 081513 SPECI WIMK 081513Z AUTO ///// 8000 -RA FEW075 BKN150 24/23 Q1012=
08-Sep-2021 SPID31 WIMK 081514 SPECI WIMK 081514Z AUTO ///// 8000 VCTSRA FEW075 BKN150 24/23 Q1012=
08-Sep-2021 SPID31 WIMK 081517 SPECI WIMK 081517Z AUTO ///// 8000 -RA FEW038 BKN150 24/23 Q1012=
08-Sep-2021 SAID31 WIMK 081530 METAR WIMK 081530Z AUTO VRB02KT 8000 -RA FEW075 BKN140 BKN150 24/23 Q1012=
08-Sep-2021 SAID31 WIMK 081600 METAR WIMK 081600Z AUTO VRB02KT 9999 -RA FEW042 SCT070 OVC150 24/23 Q1012=
08-Sep-2021 SAID31 WIMK 081630 METAR WIMK 081630Z AUTO 29003KT 9999 -RA OVC100 OVC160 24/23 Q1012=
08-Sep-2021 SAID31 WIMK 081700 METAR WIMK 081700Z AUTO 28004KT 9999 -RA FEW005 SCT060 BKN070 24/23 Q1011=
09-Sep-2021 SAID31 WIMK 090730 METAR WIMK 090730Z AUTO 01005KT 290V060 9999 SCT043 BKN050 BKN160 33/26 Q1007=
09-Sep-2021 SAID31 WIMK 090800 METAR WIMK 090800Z AUTO 05009KT 010V070 9999 FEW032 SCT050 BKN055 31/25 Q1007=
09-Sep-2021 SAID31 WIMK 090830 METAR WIMK 090830Z AUTO 05007KT 020V080 9999 SCT038 SCT049 BKN055 31/25 Q1007=
09-Sep-2021 SAID31 WIMK 090900 METAR WIMK 090900Z AUTO 06007KT 9999 BKN028 BKN034 31/25 Q1007=
09-Sep-2021 SAID31 WIMK 090930 METAR WIMK 090930Z AUTO 04007KT 360V060 9999 FEW035 31/25 Q1007=
09-Sep-2021 SAID31 WIMK 091000 METAR WIMK 091000Z AUTO 04008KT 9999 SCT150 30/25 Q1007=
09-Sep-2021 SAID31 WIMK 091030 METAR WIMK 091030Z AUTO 05007KT 360V060 9999 SCT040 SCT065 BKN150 30/25 Q1007=
09-Sep-2021 SAID31 WIMK 091100 METAR WIMK 091100Z AUTO 05009KT 9999 FEW025 SCT065 BKN150 29/25 Q1007=
09-Sep-2021 SPID31 WIMK 091107 SPECI WIMK 091107Z AUTO 04007KT 9999 VCTS FEW025 SCT065 29/25 Q1008=
09-Sep-2021 SPID31 WIMK 091118 SPECI WIMK 091118Z AUTO 04006KT 360V080 9999 SCT070 SCT150 29/25 Q1008=
09-Sep-2021 SAID31 WIMK 091130 METAR WIMK 091130Z AUTO 03006KT 360V060 9999 BKN070 BKN150 28/25 Q1008=
09-Sep-2021 SAID31 WIMK 091200 METAR WIMK 091200Z AUTO 04005KT 9999 FEW026 SCT041 BKN049 ///25 Q////=
09-Sep-2021 SAID31 WIMK 091230 METAR WIMK 091230Z AUTO 34006KT 280V020 9999 VCTSDZ BKN022 BKN029 BKN032 26/23 Q1009=
09-Sep-2021 SAID31 WIMK 091300 METAR WIMK 091300Z AUTO 17006KT 140V210 9000 -RA BKN036 SCT039 BKN055 24/23 Q1010=
09-Sep-2021 SPID31 WIMK 091301 SPECI WIMK 091301Z AUTO 17005KT 140V210 9999 VCTSRA BKN036 SCT038 BKN060 24/23 Q1010=
09-Sep-2021 SPID31 WIMK 091302 SPECI WIMK 091302Z AUTO 17005KT 140V210 9999 -RA BKN036 SCT038 BKN065 24/23 Q1010=
09-Sep-2021 SPID31 WIMK 091303 SPECI WIMK 091303Z AUTO 17005KT 140V210 9999 VCTSRA BKN036 SCT038 BKN065 24/23 Q1010=
09-Sep-2021 SPID31 WIMK 091307 SPECI WIMK 091307Z AUTO 17006KT 140V210 9999 -RA BKN033 SCT038 BKN039 24/23 Q1010=
09-Sep-2021 SPID31 WIMK 091311 SPECI WIMK 091311Z AUTO 17006KT 140V200 9999 TS BKN034 BKN065 BKN120 24/22 Q1010=
09-Sep-2021 SPID31 WIMK 091328 SPECI WIMK 091328Z AUTO 12003KT 080V190 9999 VCTS FEW033 BKN050 BKN065 24/22 Q1010=
09-Sep-2021 SAID31 WIMK 091330 METAR WIMK 091330Z AUTO 12003KT 080V160 9999 SCT033 BKN050 BKN065 24/22 Q1010=
09-Sep-2021 SAID31 WIMK 091400 METAR WIMK 091400Z AUTO 22003KT 190V270 9999 VCTSRA FEW018 BKN033 BKN037 24/23 Q1011=
09-Sep-2021 SPID31 WIMK 091400 SPECI WIMK 091400Z AUTO VRB02KT 9999 -RA FEW016 BKN033 BKN033 24/23 Q1011=
09-Sep-2021 SAID31 WIMK 091430 METAR WIMK 091430Z AUTO VRB02KT 9999 -RA FEW016 SCT045 BKN047 25/23 Q1011=
09-Sep-2021 SAID31 WIMK 091500 METAR WIMK 091500Z AUTO VRB02KT 9999 -RA FEW080 BKN120 BKN130 25/24 Q1011=
09-Sep-2021 SAID31 WIMK 091530 METAR WIMK 091530Z AUTO VRB02KT 9999 FEW012 SCT120 BKN140 25/24 Q1012=
09-Sep-2021 SAID31 WIMK 091600 METAR WIMK 091600Z AUTO 24003KT 9999 FEW070 SCT085 OVC160 25/24 Q1011=
09-Sep-2021 SAID31 WIMK 091630 METAR WIMK 091630Z AUTO VRB02KT 9999 -RA FEW075 SCT130 OVC160 25/24 Q1012=
09-Sep-2021 SAID31 WIMK 091700 METAR WIMK 091700Z AUTO 25002KT 9999 OVC160 OVC170 24/24 Q1011=
09-Sep-2021 SAID31 WIMK 091730 METAR WIMK 091730Z AUTO 18003KT 9999 SCT120 SCT130 OVC160 25/24 Q1011=
09-Sep-2021 SAID31 WIMK 091800 METAR WIMK 091800Z AUTO VRB02KT 9999 FEW002 SCT110 BKN140 24/24 Q1010=
09-Sep-2021 SAID31 WIMK 091830 METAR WIMK 091830Z AUTO 20002KT 9999 FEW002 SCT120 OVC160 24/24 Q1010=
09-Sep-2021 SPID31 WIMK 091849 SPECI WIMK 091849Z AUTO VRB01KT 9999 BKN002 BKN055 OVC120 25/24 Q1010=
09-Sep-2021 SAID31 WIMK 091900 METAR WIMK 091900Z AUTO VRB01KT 9999 BKN002 BKN055 OVC110 24/24 Q1010=
09-Sep-2021 SAID31 WIMK 091930 METAR WIMK 091930Z AUTO VRB01KT 9999 OVC002 BKN130 OVC160 24/24 Q1009=
09-Sep-2021 SAID31 WIMK 092000 METAR WIMK 092000Z AUTO 14002KT 9999 BKN002 OVC150 OVC160 24/24 Q1009=
09-Sep-2021 SAID31 WIMK 092030 METAR WIMK 092030Z AUTO VRB01KT 9999 BKN002 OVC150 OVC160 24/24 Q1009=
09-Sep-2021 SPID31 WIMK 092043 SPECI WIMK 092043Z AUTO VRB02KT 9999 SCT002 BKN150 OVC160 24/24 Q1009=
09-Sep-2021 SAID31 WIMK 092100 METAR WIMK 092100Z AUTO VRB01KT 9999 SCT002 SCT130 OVC160 24/24 Q1009=
09-Sep-2021 SAID31 WIMK 092130 METAR WIMK 092130Z AUTO 00000KT 8000 FEW002 BKN170 BKN230 24/24 Q1008=
09-Sep-2021 SAID31 WIMK 092200 METAR WIMK 092200Z AUTO 15002KT 7000 BKN170 24/24 Q1009=
09-Sep-2021 SAID31 WIMK 092230 METAR WIMK 092230Z AUTO VRB01KT 6000 FEW002 SCT150 OVC180 24/24 Q1009=
09-Sep-2021 SPID31 WIMK 092247 SPECI WIMK 092247Z AUTO 00000KT 7000 BKN003 OVC180 OVC260 24/24 Q1009=
09-Sep-2021 SAID31 WIMK 092300 METAR WIMK 092300Z AUTO 36001KT 7000 BKN003 SCT004 OVC190 24/24 Q1009=
09-Sep-2021 SPID31 WIMK 092314 SPECI WIMK 092314Z AUTO VRB01KT 4900 BR BKN004 OVC190 24/24 Q1009=
09-Sep-2021 SAID31 WIMK 092330 METAR WIMK 092330Z AUTO VRB01KT 1900 BR BKN004 BKN190 24/23 Q1009=
09-Sep-2021 SPID31 WIMK 092340 SPECI WIMK 092340Z AUTO VRB01KT 2200 BR FEW004 24/23 Q1009=
10-Sep-2021 SAID31 WIMK 100000 METAR WIMK 100000Z AUTO VRB01KT 3300 BR FEW004 24/24 Q1009=
10-Sep-2021 SAID31 WIMK 100030 METAR WIMK 100030Z AUTO VRB01KT 9999 NCD 25/24 Q1010=
10-Sep-2021 SAID31 WIMK 100100 METAR WIMK 100100Z AUTO 14004KT 120V180 9999 NCD 27/24 Q1010=
10-Sep-2021 SAID31 WIMK 100130 METAR WIMK 100130Z AUTO 12005KT 080V140 9999 NCD 28/24 Q1011=
10-Sep-2021 SAID31 WIMK 100200 METAR WIMK 100200Z AUTO 09006KT 050V140 9999 NCD 29/25 Q1011=
10-Sep-2021 SAID31 WIMK 100230 METAR WIMK 100230Z AUTO 09006KT 060V130 9999 NCD 30/24 Q1011=
10-Sep-2021 SAID31 WIMK 100300 METAR WIMK 100300Z AUTO 07005KT 030V100 9999 FEW160 30/24 Q1011=
10-Sep-2021 SAID31 WIMK 100330 METAR WIMK 100330Z AUTO VRB03KT 9999 NCD 31/23 Q1011=
10-Sep-2021 SAID31 WIMK 100400 METAR WIMK 100400Z AUTO 02003KT 310V060 9999 NCD 32/23 Q1010=
10-Sep-2021 SAID31 WIMK 100430 METAR WIMK 100430Z AUTO 29003KT 230V350 9999 NCD 32/22 Q1010=
10-Sep-2021 SAID31 WIMK 100500 METAR WIMK 100500Z AUTO ///// 7000 NCD 33/22 Q1009=
10-Sep-2021 SAID31 WIMK 100530 METAR WIMK 100530Z AUTO 21004KT 160V280 9999 NCD 33/22 Q1009=
10-Sep-2021 SAID31 WIMK 100600 METAR WIMK 100600Z AUTO 36005KT 320V050 9999 FEW049 33/24 Q1008=
10-Sep-2021 SAID31 WIMK 100630 METAR WIMK 100630Z AUTO 04007KT 350V080 9999 SCT043 BKN050 33/26 Q1008=
10-Sep-2021 SAID31 WIMK 100700 METAR WIMK 100700Z AUTO 03008KT 350V090 9999 FEW048 33/25 Q1007=
10-Sep-2021 SAID31 WIMK 100730 METAR WIMK 100730Z AUTO 03007KT 350V060 9999 FEW050 SCT055 33/26 Q1007=
10-Sep-2021 SAID31 WIMK 100800 METAR WIMK 100800Z AUTO 06006KT 010V110 9999 SCT033 SCT035 33/25 Q1007=
10-Sep-2021 SAID31 WIMK 100830 METAR WIMK 100830Z AUTO 04007KT 010V070 9999 FEW033 32/26 Q1007=
10-Sep-2021 SAID31 WIMK 100900 METAR WIMK 100900Z AUTO 03009KT 350V070 9999 FEW033 SCT039 32/26 Q1006=
10-Sep-2021 SPID31 WIMK 100929 SPECI WIMK 100929Z AUTO 04010KT 7000 -RA BKN004 BKN026 BKN030 30/26 Q1006=
10-Sep-2021 SAID31 WIMK 100930 METAR WIMK 100930Z AUTO 04010KT 010V070 9999 -RA FEW004 SCT031 BKN048 30/26 Q1006=
10-Sep-2021 SPID31 WIMK 100931 SPECI WIMK 100931Z AUTO 04011KT 3800 -RA HZ BKN004 BKN026 BKN030 29/26 Q1006=
10-Sep-2021 SPID31 WIMK 100932 SPECI WIMK 100932Z AUTO 04012KT 2900 -RA HZ BKN004 BKN026 BKN030 29/26 Q1006=
10-Sep-2021 SPID31 WIMK 100933 SPECI WIMK 100933Z AUTO 03012KT 360V060 2500 RA HZ BKN004 BKN030 BKN035 29/26 Q1006=
10-Sep-2021 SPID31 WIMK 100937 SPECI WIMK 100937Z AUTO 02012KT 350V050 1000 R23/1200D RA BKN002 BKN003 BKN026 28/25 Q1006=
10-Sep-2021 SPID31 WIMK 100938 SPECI WIMK 100938Z AUTO 03012KT 350V070 0700 R23/0900D +RA BKN002 BKN003 OVC025 27/25 Q1006=
10-Sep-2021 SPID31 WIMK 100940 SPECI WIMK 100940Z AUTO 03012KT 350V080 0500 R23/0750D +RA BKN002 OVC003 OVC031 27/24 Q1006=
10-Sep-2021 SPID31 WIMK 100946 SPECI WIMK 100946Z AUTO 04014G24KT 010V090 0250 R23/0500N +RA BKN002 OVC003 BKN037 26/23 Q1006=
10-Sep-2021 SAID31 WIMK 101000 METAR WIMK 101000Z AUTO VRB04KT 9999 FEW002 SCT003 BKN060 26/23 Q1006=
10-Sep-2021 SPID31 WIMK 101006 SPECI WIMK 101006Z AUTO VRB03KT 9999 VCTS FEW002 SCT047 BKN110 27/24 Q1006=
10-Sep-2021 SPID31 WIMK 101030 SPECI WIMK 101030Z AUTO ///// 9999 TS SCT075 SCT085 BKN120 28/23 Q1007=
10-Sep-2021 SAID31 WIMK 101030 METAR WIMK 101030Z AUTO ///// 9999 SCT075 SCT085 BKN120 28/24 Q1007=
10-Sep-2021 SPID31 WIMK 101049 SPECI WIMK 101049Z AUTO 09005KT 060V130 9999 FEW075 27/24 Q1007=
10-Sep-2021 SAID31 WIMK 101100 METAR WIMK 101100Z AUTO 10006KT 060V140 9999 TS FEW190 27/24 Q1007=
10-Sep-2021 SPID31 WIMK 101115 SPECI WIMK 101115Z AUTO ///// //// RA FEW038 SCT065 BKN170 27/24 Q1007=
10-Sep-2021 SPID31 WIMK 101119 SPECI WIMK 101119Z AUTO ///// //// +RA FEW004 SCT038 BKN070 26/25 Q1007=
10-Sep-2021 SAID31 WIMK 101130 METAR WIMK 101130Z AUTO ///// //// -RA SCT004 BKN045 OVC170 26/25 Q1007=
10-Sep-2021 SAID31 WIMK 101200 METAR WIMK 101200Z AUTO ///// //// -RA BKN043 BKN060 OVC075 25/24 Q1009=
10-Sep-2021 SAID31 WIMK 101230 METAR WIMK 101230Z AUTO ///// //// FEW060 SCT095 OVC130 26/24 Q1009=
10-Sep-2021 SAID31 WIMK 101300 METAR WIMK 101300Z AUTO ///// //// -RA FEW075 SCT120 OVC150 26/24 Q1009=
10-Sep-2021 SAID31 WIMK 101330 METAR WIMK 101330Z AUTO VRB01KT 9999 SCT019 BKN160 OVC210 26/25 Q1009=
10-Sep-2021 SAID31 WIMK 101400 METAR WIMK 101400Z AUTO VRB02KT 9999 BKN002 BKN019 BKN020 25/25 Q1010=
10-Sep-2021 SAID31 WIMK 101430 METAR WIMK 101430Z AUTO 18003KT 9999 BKN003 BKN022 OVC220 26/25 Q1010=
10-Sep-2021 SAID31 WIMK 101500 METAR WIMK 101500Z AUTO VRB02KT 8000 OVC002 BKN200 OVC220 25/25 Q1010=
10-Sep-2021 SAID31 WIMK 101530 METAR WIMK 101530Z AUTO VRB01KT 8000 BKN002 BKN003 BKN170 25/25 Q1010=
10-Sep-2021 SAID31 WIMK 101600 METAR WIMK 101600Z AUTO VRB02KT 8000 BKN002 BKN220 25/25 Q1010=
10-Sep-2021 SPID31 WIMK 101613 SPECI WIMK 101613Z AUTO 19003KT 9999 FEW002 OVC220 25/24 Q1010=
10-Sep-2021 SAID31 WIMK 101630 METAR WIMK 101630Z AUTO VRB01KT 9999 FEW003 OVC220 25/24 Q1010=
10-Sep-2021 SAID31 WIMK 101700 METAR WIMK 101700Z AUTO VRB01KT 5000 FEW002 OVC240 25/25 Q1010=
10-Sep-2021 SPID31 WIMK 101701 SPECI WIMK 101701Z AUTO VRB01KT 4900 BR FEW002 SCT220 OVC240 25/25 Q1010=
10-Sep-2021 SPID31 WIMK 101719 SPECI WIMK 101719Z AUTO VRB01KT 7000 BKN210 SCT220 OVC240 25/24 Q1010=
10-Sep-2021 SAID31 WIMK 101730 METAR WIMK 101730Z AUTO VRB01KT 9999 BKN210 OVC230 OVC240 25/25 Q1010=
11-Sep-2021 SAID31 WIMK 110500 METAR WIMK 110500Z AUTO VRB04KT 9999 BKN036 BKN043 BKN050 33/24 Q1008=
11-Sep-2021 SAID31 WIMK 110530 METAR WIMK 110530Z AUTO VRB04KT 9999 FEW039 SCT043 BKN060 33/24 Q1008=
11-Sep-2021 SAID31 WIMK 110600 METAR WIMK 110600Z AUTO VRB04KT 9999 BKN040 BKN043 BKN050 32/25 Q1007=
11-Sep-2021 SPID31 WIMK 110616 SPECI WIMK 110616Z AUTO 05011KT 9999 BKN041 BKN044 BKN050 31/26 Q1008=
11-Sep-2021 SAID31 WIMK 110630 METAR WIMK 110630Z AUTO 03011KT 010V070 9999 FEW030 BKN035 BKN045 31/25 Q1007=
11-Sep-2021 SAID31 WIMK 110700 METAR WIMK 110700Z AUTO 03012KT 350V050 9999 FEW027 SCT028 BKN031 30/25 Q1006=
11-Sep-2021 SPID31 WIMK 110705 SPECI WIMK 110705Z AUTO 03010KT 010V070 9999 BKN009 BKN027 BKN030 30/25 Q1007=
11-Sep-2021 SPID31 WIMK 110707 SPECI WIMK 110707Z AUTO ///// 9999 +TSRA BKN008 BKN027 OVC030 30/26 Q1007=
11-Sep-2021 SPID31 WIMK 110711 SPECI WIMK 110711Z AUTO 04009KT 010V070 4400 +RA HZ BKN006 BKN028 BKN031 29/26 Q1007=
11-Sep-2021 SPID31 WIMK 110713 SPECI WIMK 110713Z AUTO 05008KT 010V070 1700 +RA BKN003 BKN028 BKN029 29/26 Q1007=
11-Sep-2021 SPID31 WIMK 110714 SPECI WIMK 110714Z AUTO 05008KT 010V070 1300 +RA BKN006 BKN028 BKN031 29/26 Q1007=
11-Sep-2021 SPID31 WIMK 110715 SPECI WIMK 110715Z AUTO 05008KT 010V080 1200 +RA BKN003 BKN028 BKN029 28/26 Q1007=
11-Sep-2021 SPID31 WIMK 110717 SPECI WIMK 110717Z AUTO 05008KT 1300 VCTSRA SCT006 BKN028 BKN030 28/26 Q1007=
11-Sep-2021 SPID31 WIMK 110729 SPECI WIMK 110729Z AUTO ///// 3200 VCTSRA FEW004 SCT033 28/25 Q1007=
11-Sep-2021 SAID31 WIMK 110730 METAR WIMK 110730Z AUTO ///// 2900 RA SCT003 SCT017 BKN031 28/26 Q1007=
11-Sep-2021 SPID31 WIMK 110730 SPECI WIMK 110730Z AUTO ///// 3500 RA FEW004 SCT033 29/25 Q1007=
11-Sep-2021 SPID31 WIMK 110731 SPECI WIMK 110731Z AUTO ///// 3700 TSRA FEW003 SCT032 28/26 Q1007=
11-Sep-2021 SPID31 WIMK 110743 SPECI WIMK 110743Z AUTO 04009KT 010V080 3300 VCTSRA FEW030 29/26 Q1006=
11-Sep-2021 SPID31 WIMK 110746 SPECI WIMK 110746Z AUTO 03009KT 010V080 3200 RA SCT003 SCT008 BKN030 28/25 Q1006=
11-Sep-2021 SPID31 WIMK 110748 SPECI WIMK 110748Z AUTO 04008KT 010V080 3100 VCTSRA SCT008 SCT035 28/25 Q1007=
11-Sep-2021 SAID31 WIMK 110800 METAR WIMK 110800Z AUTO ///// 4600 VCTSRA SCT032 SCT037 BKN044 28/26 Q1007=
11-Sep-2021 SPID31 WIMK 110802 SPECI WIMK 110802Z AUTO ///// 8000 -RA SCT031 SCT037 BKN044 28/26 Q1006=
11-Sep-2021 SPID31 WIMK 110803 SPECI WIMK 110803Z AUTO ///// 9000 VCTSRA SCT031 SCT037 BKN044 28/26 Q1006=
11-Sep-2021 SPID31 WIMK 110806 SPECI WIMK 110806Z AUTO ///// 9999 -RA SCT030 BKN035 BKN044 28/26 Q1006=
11-Sep-2021 SPID31 WIMK 110812 SPECI WIMK 110812Z AUTO ///// 9999 VCTSRA FEW024 BKN030 BKN035 29/26 Q1007=
11-Sep-2021 SPID31 WIMK 110813 SPECI WIMK 110813Z AUTO ///// 9999 -RA FEW024 BKN030 BKN035 29/25 Q1006=
11-Sep-2021 SPID31 WIMK 110830 SPECI WIMK 110830Z AUTO 09006KT 040V140 9999 VCTS SCT028 BKN029 BKN036 29/26 Q1006=
11-Sep-2021 SAID31 WIMK 110830 METAR WIMK 110830Z AUTO 07006KT 040V130 9999 FEW027 BKN029 BKN036 29/26 Q1006=
11-Sep-2021 SAID31 WIMK 110900 METAR WIMK 110900Z AUTO 12008KT 060V190 7000 TSRA SCT025 BKN027 BKN030 28/26 Q1007=
11-Sep-2021 SPID31 WIMK 110900 SPECI WIMK 110900Z AUTO 15009KT 090V190 4200 -RA BR FEW025 SCT027 BKN029 27/26 Q1007=
11-Sep-2021 SPID31 WIMK 110902 SPECI WIMK 110902Z AUTO 15008KT 120V190 3300 VCTSRA SCT004 OVC027 OVC033 27/26 Q1007=
11-Sep-2021 SPID31 WIMK 110904 SPECI WIMK 110904Z AUTO 16008KT 120V200 2800 VCTSRA SCT004 BKN027 BKN028 27/26 Q1007=
11-Sep-2021 SPID31 WIMK 110905 SPECI WIMK 110905Z AUTO 17008KT 120V200 2600 +TSRA SCT004 BKN025 BKN027 27/25 Q1007=
11-Sep-2021 SPID31 WIMK 110911 SPECI WIMK 110911Z AUTO 19009KT 140V220 1400 R05/1900U VCTSRA SCT004 SCT025 BKN030 26/25 Q1007=
11-Sep-2021 SPID31 WIMK 110912 SPECI WIMK 110912Z AUTO 20010KT 160V230 1500 R05/1900U TSRA SCT004 SCT025 BKN030 26/25 Q1007=
11-Sep-2021 SPID31 WIMK 110915 SPECI WIMK 110915Z AUTO 21012G25KT 180V250 1700 TSRA BKN003 BKN025 BKN026 26/25 Q1008=
11-Sep-2021 SPID31 WIMK 110917 SPECI WIMK 110917Z AUTO 22012G25KT 190V260 1600 +RA BKN003 BKN025 BKN032 26/24 Q1007=
11-Sep-2021 SPID31 WIMK 110918 SPECI WIMK 110918Z AUTO 23012G25KT 200V260 1500 R05/1900D VCTSRA BKN003 BKN025 BKN033 25/24 Q1007=
11-Sep-2021 SPID31 WIMK 110919 SPECI WIMK 110919Z AUTO 23013G25KT 200V280 1400 R05/1800D VCTSRA BKN003 BKN025 BKN033 26/23 Q1007=
11-Sep-2021 SPID31 WIMK 110929 SPECI WIMK 110929Z AUTO 25012KT 220V280 0800 R05/1500D VCTSRA OVC003 OVC024 24/22 Q1007=
11-Sep-2021 SAID31 WIMK 110930 METAR WIMK 110930Z AUTO 25013KT 220V280 0800 R05/1400U +RA BKN003 BKN025 OVC034 24/22 Q1008=
11-Sep-2021 SPID31 WIMK 110932 SPECI WIMK 110932Z AUTO 26011KT 240V300 0750 R05/1400D VCTSRA OVC003 BKN024 OVC037 24/23 Q1007=
11-Sep-2021 SPID31 WIMK 110934 SPECI WIMK 110934Z AUTO 27010KT 240V300 0700 R05/1300D +RA OVC003 BKN024 OVC037 24/23 Q1007=
11-Sep-2021 SPID31 WIMK 110935 SPECI WIMK 110935Z AUTO 27009KT 240V300 0750 R05/1300N +TSRA OVC003 BKN024 BKN037 24/23 Q1007=
11-Sep-2021 SPID31 WIMK 110946 SPECI WIMK 110946Z AUTO 29007KT 260V320 1000 R05/1600U +RA BKN003 BKN025 24/23 Q1007=
11-Sep-2021 SAID31 WIMK 111000 METAR WIMK 111000Z AUTO 27007KT 240V300 3000 RA SCT003 SCT070 24/23 Q1007=
11-Sep-2021 SPID31 WIMK 111003 SPECI WIMK 111003Z AUTO 29007KT 260V320 4000 VCTSRA FEW003 SCT065 24/23 Q1007=
11-Sep-2021 SPID31 WIMK 111007 SPECI WIMK 111007Z AUTO 30006KT 4700 -RA FEW003 24/24 Q1007=
11-Sep-2021 SPID31 WIMK 111008 SPECI WIMK 111008Z AUTO 30005KT 5000 VCTSRA FEW065 24/24 Q1007=
11-Sep-2021 SAID31 WIMK 111030 METAR WIMK 111030Z AUTO VRB02KT 9999 -RA FEW060 SCT130 25/24 Q1007=
11-Sep-2021 SAID31 WIMK 111100 METAR WIMK 111100Z AUTO VRB01KT 6000 -RA SCT060 25/24 Q1007=
11-Sep-2021 SAID31 WIMK 111130 METAR WIMK 111130Z AUTO VRB02KT 9999 BKN070 SCT075 BKN090 24/24 Q1008=
11-Sep-2021 SAID31 WIMK 111200 METAR WIMK 111200Z AUTO 18003KT 9999 OVC070 25/24 Q1008=
11-Sep-2021 SAID31 WIMK 111230 METAR WIMK 111230Z AUTO VRB02KT 9999 FEW046 OVC070 OVC100 25/24 Q1008=
11-Sep-2021 SPID31 WIMK 111241 SPECI WIMK 111241Z AUTO VRB02KT 9999 BKN002 BKN036 BKN065 25/24 Q1008=
11-Sep-2021 SAID31 WIMK 111300 METAR WIMK 111300Z AUTO VRB01KT 9000 BKN002 OVC060 OVC065 25/24 Q1009=
11-Sep-2021 SPID31 WIMK 111317 SPECI WIMK 111317Z AUTO VRB01KT 7000 SCT002 OVC060 OVC070 25/25 Q1009=
11-Sep-2021 SPID31 WIMK 111328 SPECI WIMK 111328Z AUTO 25003KT 220V290 7000 BKN002 OVC065 OVC075 25/25 Q1009=
11-Sep-2021 SAID31 WIMK 111330 METAR WIMK 111330Z AUTO 25003KT 220V290 7000 SCT002 OVC065 OVC075 25/24 Q1009=
11-Sep-2021 SAID31 WIMK 111400 METAR WIMK 111400Z AUTO VRB02KT 8000 OVC002 BKN065 OVC075 25/24 Q1009=
11-Sep-2021 SPID31 WIMK 111407 SPECI WIMK 111407Z AUTO VRB02KT 4800 BR OVC002 BKN060 OVC075 25/25 Q1009=
11-Sep-2021 SPID31 WIMK 111429 SPECI WIMK 111429Z AUTO 29003KT 9999 VCTS FEW002 OVC060 BKN065 26/25 Q1010=
11-Sep-2021 SAID31 WIMK 111500 METAR WIMK 111500Z AUTO 27008KT 240V300 9000 SCT002 SCT006 OVC060 26/25 Q1011=
11-Sep-2021 SAID31 WIMK 111530 METAR WIMK 111530Z AUTO 28006KT 250V320 9999 -RA FEW007 BKN065 BKN070 25/24 Q1010=
11-Sep-2021 SAID31 WIMK 111600 METAR WIMK 111600Z AUTO 28004KT 230V330 9999 -RA FEW040 SCT065 BKN110 25/24 Q1010=
11-Sep-2021 SAID31 WIMK 111630 METAR WIMK 111630Z AUTO 27005KT 220V310 9999 FEW055 SCT080 BKN095 24/23 Q1010=
11-Sep-2021 SAID31 WIMK 111700 METAR WIMK 111700Z AUTO 24004KT 200V270 9999 FEW050 SCT065 BKN085 24/23 Q1010=
11-Sep-2021 SAID31 WIMK 111730 METAR WIMK 111730Z AUTO 26004KT 230V300 9999 FEW019 SCT160 BKN170 24/23 Q1009=
11-Sep-2021 SAID31 WIMK 111800 METAR WIMK 111800Z AUTO 23004KT 190V280 9999 OVC200 24/23 Q1009=
11-Sep-2021 SAID31 WIMK 111830 METAR WIMK 111830Z AUTO 24004KT 210V280 9999 BKN060 BKN180 BKN190 24/23 Q1008=
11-Sep-2021 SAID31 WIMK 111900 METAR WIMK 111900Z AUTO 26004KT 230V290 9999 FEW065 OVC200 OVC210 24/23 Q1008=
11-Sep-2021 SAID31 WIMK 111930 METAR WIMK 111930Z AUTO VRB02KT 9999 FEW055 OVC200 25/24 Q1008=
11-Sep-2021 SAID31 WIMK 112000 METAR WIMK 112000Z AUTO VRB01KT 9999 BKN075 BKN190 OVC200 25/24 Q1007=
11-Sep-2021 SAID31 WIMK 112030 METAR WIMK 112030Z AUTO 24002KT 9999 SCT075 SCT200 OVC230 24/24 Q1007=
11-Sep-2021 SAID31 WIMK 112100 METAR WIMK 112100Z AUTO VRB02KT 9999 SCT070 SCT075 OVC200 24/24 Q1007=
11-Sep-2021 SAID31 WIMK 112130 METAR WIMK 112130Z AUTO VRB01KT 9999 VCTS BKN070 OVC210 OVC230 24/24 Q1007=
11-Sep-2021 SPID31 WIMK 112148 SPECI WIMK 112148Z AUTO 20001KT 9999 SCT070 BKN200 OVC240 24/24 Q1007=
11-Sep-2021 SAID31 WIMK 112200 METAR WIMK 112200Z AUTO VRB01KT 9999 FEW070 SCT200 OVC230 24/24 Q1007=
11-Sep-2021 SAID31 WIMK 112230 METAR WIMK 112230Z AUTO VRB01KT 9999 SCT065 BKN075 BKN170 24/24 Q1007=
11-Sep-2021 SAID31 WIMK 112300 METAR WIMK 112300Z AUTO VRB01KT 9999 FEW065 BKN070 OVC200 24/24 Q1008=
11-Sep-2021 SPID31 WIMK 112310 SPECI WIMK 112310Z AUTO 00000KT 8000 VCTS BKN070 BKN080 OVC200 24/24 Q1008=
11-Sep-2021 SAID31 WIMK 112330 METAR WIMK 112330Z AUTO VRB01KT 6000 BKN060 OVC070 24/24 Q1008=
11-Sep-2021 SPID31 WIMK 112340 SPECI WIMK 112340Z AUTO VRB01KT 9999 VCTS OVC060 25/24 Q1008=
12-Sep-2021 SAID31 WIMK 120000 METAR WIMK 120000Z AUTO VRB02KT 9999 VCTS OVC060 25/24 Q1008=
12-Sep-2021 SAID31 WIMK 120030 METAR WIMK 120030Z AUTO VRB02KT 9000 VCTS FEW060 BKN080 25/24 Q1009=
12-Sep-2021 SPID31 WIMK 120046 SPECI WIMK 120046Z AUTO VRB02KT 9000 SCT080 25/24 Q1009=
12-Sep-2021 SAID31 WIMK 120100 METAR WIMK 120100Z AUTO 25002KT 9999 BKN080 25/24 Q1009=
12-Sep-2021 SAID31 WIMK 120130 METAR WIMK 120130Z AUTO 25003KT 220V280 9999 NCD 26/24 Q1009=
12-Sep-2021 SAID31 WIMK 120200 METAR WIMK 120200Z AUTO 26003KT 220V280 9999 NCD 26/24 Q1009=
12-Sep-2021 SAID31 WIMK 120230 METAR WIMK 120230Z AUTO VRB02KT 9999 NCD 27/24 Q1010=
12-Sep-2021 SAID31 WIMK 120300 METAR WIMK 120300Z AUTO 26003KT 230V290 9999 NCD 27/24 Q1010=
12-Sep-2021 SPID31 WIMK 121358 SPECI WIMK 121358Z AUTO 24011KT 5000 RA SCT004 SCT009 BKN024 24/22 Q1009=
12-Sep-2021 SPID31 WIMK 121359 SPECI WIMK 121359Z AUTO 24012KT 5000 VCTSRA FEW004 SCT016 BKN024 24/22 Q1009=
12-Sep-2021 SAID31 WIMK 121400 METAR WIMK 121400Z AUTO 24010KT 6000 -RA SCT004 SCT010 BKN024 24/22 Q1009=
12-Sep-2021 SPID31 WIMK 121400 SPECI WIMK 121400Z AUTO 24012KT 4500 VCTSRA FEW006 SCT018 BKN026 24/22 Q1009=
12-Sep-2021 SPID31 WIMK 121415 SPECI WIMK 121415Z AUTO 24007KT 5000 -RA FEW003 SCT016 BKN030 23/22 Q1009=
12-Sep-2021 SPID31 WIMK 121419 SPECI WIMK 121419Z AUTO 23006KT 180V270 5000 RA FEW005 SCT029 BKN036 23/22 Q1009=
12-Sep-2021 SAID31 WIMK 121430 METAR WIMK 121430Z AUTO 18004KT 140V260 7000 VCTSRA FEW004 SCT024 BKN037 23/22 Q1009=
12-Sep-2021 SPID31 WIMK 121447 SPECI WIMK 121447Z AUTO 29003KT 220V330 7000 -RA FEW002 SCT024 BKN036 23/22 Q1010=
12-Sep-2021 SPID31 WIMK 121458 SPECI WIMK 121458Z AUTO VRB02KT 4300 RA SCT002 BKN003 BKN029 23/22 Q1010=
12-Sep-2021 SAID31 WIMK 121500 METAR WIMK 121500Z AUTO VRB02KT 4600 RA FEW002 SCT003 BKN037 23/22 Q1010=
12-Sep-2021 SPID31 WIMK 121508 SPECI WIMK 121508Z AUTO ///// 5000 -RA FEW003 SCT028 BKN041 23/22 Q1010=
12-Sep-2021 SPID31 WIMK 121517 SPECI WIMK 121517Z AUTO 09005KT 9999 DZRA FEW003 BKN041 BKN055 23/22 Q1010=
12-Sep-2021 SAID31 WIMK 121530 METAR WIMK 121530Z AUTO 05005KT 9999 -RA FEW014 SCT044 BKN055 23/22 Q1010=
12-Sep-2021 SAID31 WIMK 121600 METAR WIMK 121600Z AUTO 07003KT 330V130 8000 -RA FEW041 SCT050 BKN070 23/22 Q1010=
12-Sep-2021 SAID31 WIMK 121630 METAR WIMK 121630Z AUTO 03006KT 360V060 9999 -RA FEW011 BKN034 BKN080 23/23 Q1010=
12-Sep-2021 SPID31 WIMK 121637 SPECI WIMK 121637Z AUTO 03005KT 360V070 9000 VCTSRA FEW005 SCT034 BKN070 23/22 Q1010=
12-Sep-2021 SAID31 WIMK 121700 METAR WIMK 121700Z AUTO VRB01KT 9999 -RA FEW006 BKN065 BKN070 23/23 Q1010=
12-Sep-2021 SPID31 WIMK 121709 SPECI WIMK 121709Z AUTO VRB02KT 7000 RA FEW007 SCT065 BKN130 23/23 Q1010=
12-Sep-2021 SAID31 WIMK 121730 METAR WIMK 121730Z AUTO 25003KT 230V290 5000 -RA FEW075 SCT140 23/23 Q1010=
12-Sep-2021 SAID31 WIMK 121800 METAR WIMK 121800Z AUTO VRB02KT 8000 -RA SCT004 SCT055 BKN065 23/23 Q1009=
12-Sep-2021 SAID31 WIMK 121830 METAR WIMK 121830Z AUTO 22003KT 9999 FEW004 SCT005 BKN070 23/23 Q1009=
12-Sep-2021 SAID31 WIMK 121900 METAR WIMK 121900Z AUTO 22003KT 9999 FEW004 BKN130 OVC150 23/23 Q1008=
12-Sep-2021 SAID31 WIMK 121930 METAR WIMK 121930Z AUTO VRB02KT 9999 BKN130 BKN150 BKN160 23/23 Q1008=
12-Sep-2021 SAID31 WIMK 122000 METAR WIMK 122000Z AUTO VRB01KT 9999 FEW055 BKN075 OVC120 23/22 Q1008=
12-Sep-2021 SAID31 WIMK 122030 METAR WIMK 122030Z AUTO 13003KT 9999 -RA FEW031 SCT065 OVC075 23/23 Q1008=
12-Sep-2021 SAID31 WIMK 122100 METAR WIMK 122100Z AUTO 13004KT 9999 SCT060 BKN075 BKN085 23/23 Q1007=
12-Sep-2021 SAID31 WIMK 122130 METAR WIMK 122130Z AUTO 09004KT 9999 -RA FEW003 BKN100 BKN110 23/23 Q1008=
12-Sep-2021 SAID31 WIMK 122200 METAR WIMK 122200Z AUTO 11004KT 090V160 9999 -RA FEW003 BKN120 BKN120 23/23 Q1008=
12-Sep-2021 SAID31 WIMK 122230 METAR WIMK 122230Z AUTO 13003KT 100V170 7000 -RA FEW003 SCT075 BKN130 23/23 Q1009=
12-Sep-2021 SAID31 WIMK 122300 METAR WIMK 122300Z AUTO 09003KT 030V130 9999 -RA FEW005 BKN120 BKN140 23/23 Q1010=
12-Sep-2021 SAID31 WIMK 122330 METAR WIMK 122330Z AUTO VRB01KT 9999 -RA FEW004 BKN100 OVC130 23/23 Q1010=
13-Sep-2021 SAID31 WIMK 130000 METAR WIMK 130000Z AUTO 17003KT 9999 FEW095 BKN110 BKN120 24/23 Q1010=
13-Sep-2021 SAID31 WIMK 130030 METAR WIMK 130030Z AUTO VRB02KT 9999 FEW021 BKN110 24/23 Q1011=
13-Sep-2021 SAID31 WIMK 130100 METAR WIMK 130100Z AUTO 19004KT 9999 -RA BKN020 BKN021 BKN110 24/23 Q1011=
13-Sep-2021 SAID31 WIMK 131100 METAR WIMK 131100Z AUTO 06004KT 9999 FEW180 28/24 Q1008=
13-Sep-2021 SAID31 WIMK 131130 METAR WIMK 131130Z AUTO 05005KT 9999 FEW021 BKN160 BKN160 27/24 Q1008=
13-Sep-2021 SAID31 WIMK 131200 METAR WIMK 131200Z AUTO 04003KT 9999 OVC022 BKN060 OVC180 27/23 Q1009=
13-Sep-2021 SAID31 WIMK 131230 METAR WIMK 131230Z AUTO VRB02KT 9999 OVC020 OVC021 27/24 Q1009=
13-Sep-2021 SAID31 WIMK 131300 METAR WIMK 131300Z AUTO 36001KT 9999 OVC021 26/24 Q1010=
13-Sep-2021 SAID31 WIMK 131330 METAR WIMK 131330Z AUTO 36001KT 9999 FEW002 BKN021 OVC027 26/24 Q1010=
13-Sep-2021 SAID31 WIMK 131400 METAR WIMK 131400Z AUTO VRB01KT 9999 FEW002 BKN020 OVC027 26/24 Q1010=
13-Sep-2021 SAID31 WIMK 131430 METAR WIMK 131430Z AUTO 20002KT 9000 FEW002 OVC019 OVC024 26/24 Q1010=
13-Sep-2021 SAID31 WIMK 131500 METAR WIMK 131500Z AUTO 16001KT 9000 FEW002 BKN019 BKN021 26/24 Q1010=
13-Sep-2021 SAID31 WIMK 131530 METAR WIMK 131530Z AUTO 18002KT 8000 SCT002 BKN017 OVC021 26/24 Q1011=
13-Sep-2021 SPID31 WIMK 131545 SPECI WIMK 131545Z AUTO VRB01KT 8000 BKN002 BKN017 OVC180 26/24 Q1011=
13-Sep-2021 SAID31 WIMK 131600 METAR WIMK 131600Z AUTO 00000KT 8000 BKN002 SCT016 OVC017 26/25 Q1011=
13-Sep-2021 SAID31 WIMK 131630 METAR WIMK 131630Z AUTO VRB01KT 7000 OVC002 25/25 Q1011=
13-Sep-2021 SAID31 WIMK 131700 METAR WIMK 131700Z AUTO 18002KT 6000 OVC002 SCT120 OVC170 25/25 Q1010=
13-Sep-2021 SAID31 WIMK 131730 METAR WIMK 131730Z AUTO VRB01KT 9000 OVC002 BKN170 OVC230 25/24 Q1010=
13-Sep-2021 SAID31 WIMK 131800 METAR WIMK 131800Z AUTO VRB01KT 5000 SCT004 BKN011 BKN170 25/24 Q1010=
13-Sep-2021 SPID31 WIMK 131809 SPECI WIMK 131809Z AUTO VRB01KT 7000 FEW004 SCT012 BKN190 25/24 Q1010=
13-Sep-2021 SPID31 WIMK 131828 SPECI WIMK 131828Z AUTO 18002KT 9000 BKN005 OVC180 OVC190 24/24 Q1010=
13-Sep-2021 SAID31 WIMK 131830 METAR WIMK 131830Z AUTO 18002KT 9000 SCT005 OVC190 25/24 Q1010=
13-Sep-2021 SAID31 WIMK 131900 METAR WIMK 131900Z AUTO VRB01KT 8000 SCT005 OVC170 25/24 Q1009=
13-Sep-2021 SAID31 WIMK 131930 METAR WIMK 131930Z AUTO 20002KT 9000 SCT180 OVC190 24/24 Q1009=
13-Sep-2021 SAID31 WIMK 132000 METAR WIMK 132000Z AUTO 20002KT 8000 FEW005 SCT170 BKN190 24/24 Q1009=
13-Sep-2021 SAID31 WIMK 132030 METAR WIMK 132030Z AUTO 23002KT 9999 FEW180 OVC230 24/24 Q1009=
13-Sep-2021 SAID31 WIMK 132100 METAR WIMK 132100Z AUTO 19002KT 9999 FEW015 BKN180 OVC240 24/24 Q1009=
13-Sep-2021 SAID31 WIMK 132130 METAR WIMK 132130Z AUTO 18002KT 9999 OVC180 OVC240 24/23 Q1009=
13-Sep-2021 SAID31 WIMK 132200 METAR WIMK 132200Z AUTO 20002KT 9999 SCT007 OVC180 24/23 Q1009=
13-Sep-2021 SPID31 WIMK 132203 SPECI WIMK 132203Z AUTO 20002KT 9999 BKN007 OVC180 24/23 Q1009=
13-Sep-2021 SAID31 WIMK 132230 METAR WIMK 132230Z AUTO VRB02KT 9999 SCT007 OVC180 24/23 Q1009=
13-Sep-2021 SAID31 WIMK 132300 METAR WIMK 132300Z AUTO 00000KT 9999 FEW007 OVC180 24/23 Q1009=
13-Sep-2021 SAID31 WIMK 132330 METAR WIMK 132330Z AUTO 36001KT 9999 BKN190 24/23 Q1009=
14-Sep-2021 SAID31 WIMK 140000 METAR WIMK 140000Z AUTO 36001KT 7000 BKN180 SCT190 24/23 Q1010=
14-Sep-2021 SAID31 WIMK 140030 METAR WIMK 140030Z AUTO VRB01KT 9000 FEW180 25/23 Q1010=
14-Sep-2021 SAID31 WIMK 140100 METAR WIMK 140100Z AUTO VRB02KT 9999 NCD 25/24 Q1011=
14-Oct-2021 SAID31 WIMK 140200 METAR WIMK 140200Z AUTO ///// //// ////// 32/22 Q1007=
14-Oct-2021 SAID31 WIMK 140230 METAR WIMK 140230Z AUTO 12006KT 090V170 9999 NCD 32/22 Q1007=
14-Oct-2021 SAID31 WIMK 140300 METAR WIMK 140300Z AUTO 12005KT 030V190 9999 NCD 33/21 Q1007=
14-Oct-2021 SAID31 WIMK 140330 METAR WIMK 140330Z AUTO VRB04KT 9999 NCD 33/21 Q1006=
14-Oct-2021 SAID31 WIMK 140400 METAR WIMK 140400Z AUTO 16003KT 100V240 9999 NCD 35/21 Q1006=
14-Oct-2021 SAID31 WIMK 140430 METAR WIMK 140430Z AUTO VRB04KT 9999 NCD 34/21 Q1005=
14-Oct-2021 SAID31 WIMK 140500 METAR WIMK 140500Z AUTO VRB03KT 9999 NCD 36/20 Q1005=
14-Oct-2021 SAID31 WIMK 140530 METAR WIMK 140530Z AUTO VRB04KT 9999 NCD 37/21 Q1004=
14-Oct-2021 SAID31 WIMK 140600 METAR WIMK 140600Z AUTO 33006KT 250V050 9999 FEW060 36/22 Q1004=
14-Oct-2021 SAID31 WIMK 140630 METAR WIMK 140630Z AUTO 35006KT 270V080 9999 FEW060 35/23 Q1004=
14-Oct-2021 SAID31 WIMK 140700 METAR WIMK 140700Z AUTO 31008KT 230V010 9999 NCD 37/22 Q1003=
14-Oct-2021 SAID31 WIMK 140730 METAR WIMK 140730Z AUTO VRB07KT 9999 SCT080 36/21 Q1003=
14-Oct-2021 SAID31 WIMK 140800 METAR WIMK 140800Z AUTO 05007KT 360V080 9999 FEW046 BKN075 35/24 Q1003=
14-Oct-2021 SAID31 WIMK 140830 METAR WIMK 140830Z AUTO 04005KT 340V090 9999 BKN048 BKN050 BKN055 33/23 Q1003=
14-Oct-2021 SAID31 WIMK 140900 METAR WIMK 140900Z AUTO 04008KT 360V060 9999 FEW055 SCT075 33/23 Q1003=
14-Oct-2021 SAID31 WIMK 140930 METAR WIMK 140930Z AUTO 03006KT 350V050 9999 FEW075 BKN080 32/23 Q1003=
14-Oct-2021 SAID31 WIMK 141000 METAR WIMK 141000Z AUTO 05009KT 9999 FEW075 32/24 Q1004=
14-Oct-2021 SAID31 WIMK 141030 METAR WIMK 141030Z AUTO 06008KT 030V090 9999 BKN075 31/24 Q1004=
14-Oct-2021 SAID31 WIMK 141100 METAR WIMK 141100Z AUTO 06007KT 040V100 9999 BKN075 BKN180 31/24 Q1004=
14-Oct-2021 SAID31 WIMK 141130 METAR WIMK 141130Z AUTO 09005KT 9999 FEW075 30/24 Q1005=
14-Oct-2021 SAID31 WIMK 141200 METAR WIMK 141200Z AUTO 09004KT 060V120 9999 OVC075 BKN160 30/24 Q1006=
14-Oct-2021 SAID31 WIMK 141230 METAR WIMK 141230Z AUTO 08004KT 050V110 9999 FEW048 SCT050 OVC065 30/25 Q1006=
14-Oct-2021 SAID31 WIMK 141300 METAR WIMK 141300Z AUTO VRB02KT 9999 FEW014 BKN070 BKN075 30/25 Q1006=
14-Oct-2021 SAID31 WIMK 141330 METAR WIMK 141330Z AUTO VRB01KT 9999 FEW009 BKN013 BKN020 29/25 Q1007=
14-Oct-2021 SPID31 WIMK 141342 SPECI WIMK 141342Z AUTO 36001KT 9000 SCT013 SCT020 BKN048 29/25 Q1007=
14-Oct-2021 SAID31 WIMK 141400 METAR WIMK 141400Z AUTO 17003KT 130V190 5000 FEW013 29/25 Q1007=
14-Oct-2021 SAID31 WIMK 141430 METAR WIMK 141430Z AUTO 23003KT 6000 BKN002 SCT028 29/25 Q1007=
14-Oct-2021 SAID31 WIMK 141500 METAR WIMK 141500Z AUTO 25003KT 220V290 6000 BKN002 BKN015 BKN022 29/25 Q1007=
14-Oct-2021 SPID31 WIMK 141512 SPECI WIMK 141512Z AUTO VRB01KT 7000 FEW002 SCT014 BKN026 29/25 Q1007=
14-Oct-2021 SAID31 WIMK 141530 METAR WIMK 141530Z AUTO VRB01KT 7000 FEW002 28/25 Q1007=
14-Oct-2021 SAID31 WIMK 141600 METAR WIMK 141600Z AUTO VRB01KT 7000 FEW002 28/25 Q1007=
14-Oct-2021 SAID31 WIMK 141630 METAR WIMK 141630Z AUTO VRB02KT 6000 NCD 28/25 Q1007=
14-Oct-2021 SAID31 WIMK 141700 METAR WIMK 141700Z AUTO VRB02KT 6000 FEW003 27/25 Q1007=
14-Oct-2021 SPID31 WIMK 141714 SPECI WIMK 141714Z AUTO VRB01KT 6000 BKN002 SCT012 27/24 Q1006=
14-Oct-2021 SAID31 WIMK 141730 METAR WIMK 141730Z AUTO 30003KT 270V340 5000 BKN002 28/24 Q1006=
14-Oct-2021 SAID31 WIMK 141800 METAR WIMK 141800Z AUTO VRB01KT 6000 FEW002 BKN150 28/23 Q1006=
14-Oct-2021 SAID31 WIMK 141830 METAR WIMK 141830Z AUTO VRB01KT 6000 FEW012 OVC150 27/24 Q1006=
14-Oct-2021 SAID31 WIMK 141900 METAR WIMK 141900Z AUTO VRB01KT 8000 SCT003 OVC150 27/24 Q1005=
14-Oct-2021 SPID31 WIMK 141916 SPECI WIMK 141916Z AUTO VRB02KT 5000 BKN002 OVC150 BKN150 27/24 Q1005=
14-Oct-2021 SAID31 WIMK 141930 METAR WIMK 141930Z AUTO VRB02KT 5000 BKN002 OVC150 BKN150 26/25 Q1005=
14-Oct-2021 SAID31 WIMK 142000 METAR WIMK 142000Z AUTO VRB01KT 5000 BKN002 OVC150 27/25 Q1005=
14-Oct-2021 SAID31 WIMK 142030 METAR WIMK 142030Z AUTO VRB02KT 6000 OVC002 SCT150 26/24 Q1005=
14-Oct-2021 SAID31 WIMK 142100 METAR WIMK 142100Z AUTO VRB02KT 6000 OVC002 OVC230 26/24 Q1005=
14-Oct-2021 SAID31 WIMK 142130 METAR WIMK 142130Z AUTO VRB01KT 6000 OVC002 26/24 Q1005=
14-Oct-2021 SAID31 WIMK 142200 METAR WIMK 142200Z AUTO 25001KT 6000 BKN002 BKN003 26/24 Q1006=
14-Oct-2021 SAID31 WIMK 142230 METAR WIMK 142230Z AUTO 20003KT 5000 OVC002 OVC003 25/24 Q1006=
14-Oct-2021 SAID31 WIMK 142300 METAR WIMK 142300Z AUTO VRB02KT 9000 OVC003 24/23 Q1006=
14-Oct-2021 SAID31 WIMK 142330 METAR WIMK 142330Z AUTO VRB02KT 5000 BKN003 25/24 Q1006=
14-Oct-2021 SPID31 WIMK 142331 SPECI WIMK 142331Z AUTO VRB02KT 4800 BR BKN003 25/24 Q1006=
14-Oct-2021 SPID31 WIMK 142345 SPECI WIMK 142345Z AUTO 26003KT 230V300 4900 BR FEW003 25/24 Q1006=
15-Oct-2021 SAID31 WIMK 150000 METAR WIMK 150000Z AUTO 24003KT 6000 NCD 26/23 Q1006=
15-Oct-2021 SAID31 WIMK 150030 METAR WIMK 150030Z AUTO 20003KT 7000 NCD 26/23 Q1007=
15-Oct-2021 SAID31 WIMK 150100 METAR WIMK 150100Z AUTO VRB02KT 6000 NCD 28/24 Q1007=
15-Oct-2021 SAID31 WIMK 150130 METAR WIMK 150130Z AUTO VRB01KT 7000 NCD 29/23 Q1007=
15-Oct-2021 SAID31 WIMK 150200 METAR WIMK 150200Z AUTO VRB01KT 9000 NCD 31/22 Q1007=
15-Oct-2021 SAID31 WIMK 150230 METAR WIMK 150230Z AUTO VRB03KT 9999 NCD 32/21 Q1007=
15-Oct-2021 SAID31 WIMK 150300 METAR WIMK 150300Z AUTO VRB01KT 9999 NCD 33/20 Q1007=
15-Oct-2021 SAID31 WIMK 150330 METAR WIMK 150330Z AUTO VRB03KT 9999 NCD 34/20 Q1007=
15-Oct-2021 SAID31 WIMK 150400 METAR WIMK 150400Z AUTO VRB03KT 9999 NCD 34/20 Q1006=
15-Oct-2021 SAID31 WIMK 150430 METAR WIMK 150430Z AUTO VRB04KT 9999 NCD 35/20 Q1006=
15-Oct-2021 SAID31 WIMK 150500 METAR WIMK 150500Z AUTO VRB04KT 9999 FEW065 36/21 Q1005=
15-Oct-2021 SAID31 WIMK 150530 METAR WIMK 150530Z AUTO VRB08KT 9999 FEW060 36/21 Q1004=
15-Oct-2021 SAID31 WIMK 150600 METAR WIMK 150600Z AUTO VRB07KT 9999 NCD 36/20 Q1004=
15-Oct-2021 SAID31 WIMK 150630 METAR WIMK 150630Z AUTO 28007KT 220V330 9999 NCD 37/20 Q1003=
15-Oct-2021 SAID31 WIMK 150700 METAR WIMK 150700Z AUTO 27007KT 220V340 9999 BKN070 BKN080 36/20 Q1003=
15-Oct-2021 SAID31 WIMK 150730 METAR WIMK 150730Z AUTO 28009KT 230V320 9999 FEW070 37/22 Q1003=
15-Oct-2021 SAID31 WIMK 150800 METAR WIMK 150800Z AUTO VRB05KT 9999 BKN070 35/23 Q1003=
15-Oct-2021 SAID31 WIMK 150830 METAR WIMK 150830Z AUTO 03008KT 360V070 9999 OVC070 OVC085 33/24 Q1002=
15-Oct-2021 SAID31 WIMK 150900 METAR WIMK 150900Z AUTO 05011KT 9999 BKN075 33/24 Q1002=
15-Oct-2021 SAID31 WIMK 150930 METAR WIMK 150930Z AUTO 04010KT 9999 FEW075 SCT085 32/24 Q1003=
15-Oct-2021 SAID31 WIMK 151000 METAR WIMK 151000Z AUTO 05008KT 020V080 9999 NCD 32/25 Q1003=
15-Oct-2021 SAID31 WIMK 151030 METAR WIMK 151030Z AUTO 07008KT 040V100 9999 NCD 31/25 Q1003=
15-Oct-2021 SAID31 WIMK 151100 METAR WIMK 151100Z AUTO 05007KT 9999 NCD 30/25 Q1004=
15-Oct-2021 SAID31 WIMK 151130 METAR WIMK 151130Z AUTO 03005KT 360V060 9999 NCD 30/25 Q1004=
15-Oct-2021 SAID31 WIMK 151200 METAR WIMK 151200Z AUTO 05005KT 030V090 9999 NCD 30/25 Q1005=
15-Oct-2021 SAID31 WIMK 151230 METAR WIMK 151230Z AUTO 06003KT 020V080 9999 NCD 29/25 Q1005=
15-Oct-2021 SAID31 WIMK 151300 METAR WIMK 151300Z AUTO VRB01KT 9999 NCD 29/25 Q1006=
15-Oct-2021 SAID31 WIMK 151330 METAR WIMK 151330Z AUTO 10002KT 8000 NCD 29/25 Q1006=
15-Oct-2021 SAID31 WIMK 151400 METAR WIMK 151400Z AUTO 11002KT 8000 NCD 29/25 Q1007=
15-Oct-2021 SAID31 WIMK 151430 METAR WIMK 151430Z AUTO VRB01KT 9999 FEW026 29/25 Q1007=
15-Oct-2021 SAID31 WIMK 151500 METAR WIMK 151500Z AUTO 21003KT 7000 SCT002 SCT029 28/25 Q1007=
15-Oct-2021 SPID31 WIMK 151504 SPECI WIMK 151504Z AUTO 22003KT 6000 BKN002 BKN029 28/25 Q1007=
15-Oct-2021 SAID31 WIMK 151530 METAR WIMK 151530Z AUTO 23002KT 5000 OVC002 28/25 Q1007=
15-Oct-2021 SPID31 WIMK 151541 SPECI WIMK 151541Z AUTO 17002KT 4900 HZ OVC002 28/25 Q1007=
15-Oct-2021 SPID31 WIMK 151558 SPECI WIMK 151558Z AUTO 20002KT 4900 BR HZ OVC002 SCT190 27/25 Q1007=
15-Oct-2021 SAID31 WIMK 151600 METAR WIMK 151600Z AUTO 20002KT 5000 OVC002 SCT190 27/25 Q1007=
15-Oct-2021 SAID31 WIMK 151630 METAR WIMK 151630Z AUTO 21003KT 5000 OVC002 BKN190 27/25 Q1007=
15-Oct-2021 SAID31 WIMK 151700 METAR WIMK 151700Z AUTO 21004KT 7000 BKN002 BKN190 OVC310 27/24 Q1007=
15-Oct-2021 SAID31 WIMK 151730 METAR WIMK 151730Z AUTO VRB02KT 9000 BKN002 BKN190 BKN300 27/24 Q1007=
15-Oct-2021 SPID31 WIMK 151738 SPECI WIMK 151738Z AUTO VRB01KT 9000 FEW003 SCT190 BKN300 27/24 Q1007=
15-Oct-2021 SAID31 WIMK 151800 METAR WIMK 151800Z AUTO 00000KT 9999 FEW031 SCT075 BKN190 27/24 Q1007=
15-Oct-2021 SAID31 WIMK 151830 METAR WIMK 151830Z AUTO VRB01KT 9999 FEW002 BKN065 OVC190 27/23 Q1007=
15-Oct-2021 SAID31 WIMK 151900 METAR WIMK 151900Z AUTO 20001KT 9000 SCT002 BKN055 OVC180 27/24 Q1007=
15-Oct-2021 SPID31 WIMK 151928 SPECI WIMK 151928Z AUTO VRB01KT 8000 BKN012 OVC055 BKN190 26/24 Q1006=
15-Oct-2021 SAID31 WIMK 151930 METAR WIMK 151930Z AUTO 00000KT 8000 SCT012 OVC055 BKN190 26/24 Q1006=
15-Oct-2021 SAID31 WIMK 152000 METAR WIMK 152000Z AUTO VRB02KT 7000 FEW012 OVC055 BKN180 26/24 Q1006=
15-Oct-2021 SAID31 WIMK 152030 METAR WIMK 152030Z AUTO 17003KT 130V190 7000 BKN050 OVC180 26/24 Q1005=
15-Oct-2021 SAID31 WIMK 152100 METAR WIMK 152100Z AUTO 24002KT 7000 FEW012 BKN055 BKN180 26/24 Q1006=
15-Oct-2021 SAID31 WIMK 152130 METAR WIMK 152130Z AUTO 19002KT 7000 BKN055 BKN290 BKN310 25/24 Q1006=
15-Oct-2021 SAID31 WIMK 152200 METAR WIMK 152200Z AUTO 18001KT 9999 OVC050 SCT055 25/23 Q1006=
15-Oct-2021 SAID31 WIMK 152230 METAR WIMK 152230Z AUTO 18001KT 9999 OVC055 25/23 Q1006=
15-Oct-2021 SPID31 WIMK 152238 SPECI WIMK 152238Z AUTO 20003KT 8000 BKN002 OVC055 25/23 Q1006=
15-Oct-2021 SAID31 WIMK 152300 METAR WIMK 152300Z AUTO 22003KT 6000 OVC002 OVC055 25/24 Q1006=
15-Oct-2021 SAID31 WIMK 152330 METAR WIMK 152330Z AUTO 21003KT 5000 FEW002 25/23 Q1007=
16-Oct-2021 SAID31 WIMK 160000 METAR WIMK 160000Z AUTO VRB01KT 8000 NCD 26/23 Q1007=
16-Oct-2021 SAID31 WIMK 160030 METAR WIMK 160030Z AUTO VRB01KT 9000 NCD 28/23 Q1008=
16-Oct-2021 SAID31 WIMK 160100 METAR WIMK 160100Z AUTO 21003KT 180V240 7000 NCD 28/23 Q1008=
16-Oct-2021 SAID31 WIMK 160130 METAR WIMK 160130Z AUTO VRB02KT 8000 NCD 30/23 Q1008=
16-Oct-2021 SAID31 WIMK 160200 METAR WIMK 160200Z AUTO VRB01KT 9999 NCD 31/23 Q1008=
16-Oct-2021 SAID31 WIMK 160230 METAR WIMK 160230Z AUTO VRB03KT 9999 NCD 32/22 Q1009=
16-Oct-2021 SAID31 WIMK 160300 METAR WIMK 160300Z AUTO 25005KT 180V340 9999 NCD 33/22 Q1008=
16-Oct-2021 SAID31 WIMK 160330 METAR WIMK 160330Z AUTO 23006KT 150V320 9999 NCD 34/22 Q1008=
16-Oct-2021 SAID31 WIMK 160400 METAR WIMK 160400Z AUTO VRB03KT 9999 NCD 34/22 Q1008=
16-Oct-2021 SAID31 WIMK 160430 METAR WIMK 160430Z AUTO VRB04KT 9999 FEW050 34/22 Q1007=
16-Oct-2021 SAID31 WIMK 160500 METAR WIMK 160500Z AUTO VRB02KT 9999 BKN050 34/22 Q1007=
16-Oct-2021 SAID31 WIMK 160530 METAR WIMK 160530Z AUTO VRB02KT 9999 FEW055 34/22 Q1006=
16-Oct-2021 SAID31 WIMK 160600 METAR WIMK 160600Z AUTO VRB06KT 9999 SCT044 BKN050 34/24 Q1006=
16-Oct-2021 SAID31 WIMK 160630 METAR WIMK 160630Z AUTO 07007KT 020V110 9999 FEW055 34/24 Q1005=
16-Oct-2021 SAID31 WIMK 160700 METAR WIMK 160700Z AUTO 03003KT 310V120 9999 FEW044 35/24 Q1005=
16-Oct-2021 SAID31 WIMK 160730 METAR WIMK 160730Z AUTO 02005KT 320V060 9999 BKN047 SCT049 34/24 Q1004=
16-Oct-2021 SAID31 WIMK 160800 METAR WIMK 160800Z AUTO 06005KT 010V140 9999 SCT044 SCT050 34/24 Q1004=
16-Oct-2021 SAID31 WIMK 160830 METAR WIMK 160830Z AUTO 03006KT 360V060 9999 FEW044 SCT065 33/24 Q1004=
16-Oct-2021 SAID31 WIMK 160900 METAR WIMK 160900Z AUTO 04007KT 010V070 9999 FEW040 BKN055 33/24 Q1004=
16-Oct-2021 SAID31 WIMK 160930 METAR WIMK 160930Z AUTO 04009KT 360V080 9999 FEW060 33/24 Q1004=
16-Oct-2021 SAID31 WIMK 161000 METAR WIMK 161000Z AUTO 05011KT 9999 NCD 32/24 Q1004=
16-Oct-2021 SAID31 WIMK 161030 METAR WIMK 161030Z AUTO 03005KT 360V060 9999 FEW055 31/23 Q1005=
16-Oct-2021 SAID31 WIMK 161100 METAR WIMK 161100Z AUTO 05007KT 9999 BKN050 BKN055 30/23 Q1005=
16-Oct-2021 SAID31 WIMK 161130 METAR WIMK 161130Z AUTO 06006KT 9999 FEW045 BKN049 OVC055 30/24 Q1006=
16-Oct-2021 SAID31 WIMK 161200 METAR WIMK 161200Z AUTO 03003KT 9999 OVC046 BKN047 BKN060 30/24 Q1006=
16-Oct-2021 SAID31 WIMK 161230 METAR WIMK 161230Z AUTO 25007KT 220V280 9999 SCT032 SCT033 OVC046 28/23 Q1007=
16-Oct-2021 SAID31 WIMK 161300 METAR WIMK 161300Z AUTO 25006KT 220V290 9999 FEW036 BKN048 BKN048 27/23 Q1008=
16-Oct-2021 SAID31 WIMK 161330 METAR WIMK 161330Z AUTO 26005KT 210V300 9999 BKN023 BKN065 26/23 Q1008=
16-Oct-2021 SAID31 WIMK 161400 METAR WIMK 161400Z AUTO 24005KT 210V270 9999 FEW025 SCT033 BKN049 26/23 Q1009=
16-Oct-2021 SAID31 WIMK 161430 METAR WIMK 161430Z AUTO 23004KT 9999 FEW050 SCT055 OVC065 26/22 Q1010=
16-Oct-2021 SAID31 WIMK 161500 METAR WIMK 161500Z AUTO 27004KT 200V320 9999 FEW028 SCT050 BKN065 26/23 Q1010=
16-Oct-2021 SAID31 WIMK 161530 METAR WIMK 161530Z AUTO 24003KT 220V290 9999 FEW048 BKN060 OVC230 26/23 Q1010=
16-Oct-2021 SAID31 WIMK 161600 METAR WIMK 161600Z AUTO 26003KT 220V310 9999 SCT024 SCT026 BKN065 26/23 Q1010=
16-Oct-2021 SAID31 WIMK 161630 METAR WIMK 161630Z AUTO 26004KT 220V310 9999 OVC022 BKN023 OVC055 26/22 Q1010=
16-Oct-2021 SPID31 WIMK 161645 SPECI WIMK 161645Z AUTO 27003KT 230V310 9999 BKN002 OVC022 OVC055 26/22 Q1010=
16-Oct-2021 SAID31 WIMK 161700 METAR WIMK 161700Z AUTO 26003KT 210V300 9999 BKN002 OVC022 OVC022 26/22 Q1010=
16-Oct-2021 SPID31 WIMK 161728 SPECI WIMK 161728Z AUTO 27004KT 230V300 9999 BKN002 OVC022 OVC060 26/23 Q1009=
16-Oct-2021 SAID31 WIMK 161730 METAR WIMK 161730Z AUTO 27004KT 230V310 9999 SCT002 BKN022 BKN023 26/23 Q1009=
16-Oct-2021 SPID31 WIMK 161747 SPECI WIMK 161747Z AUTO VRB02KT 9999 FEW002 SCT021 OVC055 26/23 Q1009=
16-Oct-2021 SAID31 WIMK 161800 METAR WIMK 161800Z AUTO 28004KT 240V340 9999 FEW002 OVC055 OVC060 26/23 Q1009=
16-Oct-2021 SAID31 WIMK 161830 METAR WIMK 161830Z AUTO 26003KT 220V300 9999 BKN002 BKN045 OVC050 26/23 Q1008=
16-Oct-2021 SAID31 WIMK 161900 METAR WIMK 161900Z AUTO VRB02KT 9999 FEW002 BKN041 BKN170 26/23 Q1008=
16-Oct-2021 SAID31 WIMK 161930 METAR WIMK 161930Z AUTO 29003KT 230V330 9999 FEW002 SCT085 BKN210 26/23 Q1007=
16-Oct-2021 SAID31 WIMK 162000 METAR WIMK 162000Z AUTO VRB02KT 9999 BKN003 BKN055 BKN055 26/23 Q1007=
16-Oct-2021 SAID31 WIMK 162030 METAR WIMK 162030Z AUTO 27004KT 250V310 8000 BKN002 BKN003 BKN015 26/23 Q1007=
16-Oct-2021 SAID31 WIMK 162100 METAR WIMK 162100Z AUTO VRB01KT 9999 BKN002 SCT003 OVC055 26/23 Q1007=
16-Oct-2021 SAID31 WIMK 162130 METAR WIMK 162130Z AUTO VRB01KT 9999 OVC002 BKN270 BKN290 25/23 Q1007=
16-Oct-2021 SAID31 WIMK 162200 METAR WIMK 162200Z AUTO 23003KT 9999 OVC002 BKN240 OVC270 25/23 Q1007=
16-Oct-2021 SAID31 WIMK 162230 METAR WIMK 162230Z AUTO VRB01KT 9999 OVC002 BKN055 OVC200 25/24 Q1007=
16-Oct-2021 SAID31 WIMK 162300 METAR WIMK 162300Z AUTO VRB02KT 9999 BKN002 BKN055 OVC060 26/24 Q1008=
16-Oct-2021 SAID31 WIMK 162330 METAR WIMK 162330Z AUTO 25003KT 8000 SCT002 SCT060 26/24 Q1008=
17-Oct-2021 SAID31 WIMK 170000 METAR WIMK 170000Z AUTO 25003KT 8000 FEW050 26/24 Q1009=
17-Oct-2021 SAID31 WIMK 170030 METAR WIMK 170030Z AUTO 24003KT 200V280 9999 BKN050 BKN070 BKN230 27/24 Q1009=
17-Oct-2021 SAID31 WIMK 170100 METAR WIMK 170100Z AUTO 29003KT 250V320 9999 SCT050 SCT220 28/24 Q1009=
17-Oct-2021 SAID31 WIMK 170130 METAR WIMK 170130Z AUTO 28006KT 230V330 9999 SCT048 SCT055 30/24 Q1009=
17-Oct-2021 SAID31 WIMK 170200 METAR WIMK 170200Z AUTO 28005KT 220V350 9999 NCD 31/24 Q1010=
17-Oct-2021 SAID31 WIMK 170230 METAR WIMK 170230Z AUTO 33004KT 290V030 9999 OVC050 BKN060 30/24 Q1010=
17-Oct-2021 SAID31 WIMK 170300 METAR WIMK 170300Z AUTO 31004KT 240V360 9999 FEW025 SCT045 BKN050 30/24 Q1011=
17-Oct-2021 SAID31 WIMK 170330 METAR WIMK 170330Z AUTO 32005KT 290V030 9999 FEW027 SCT065 30/24 Q1011=
17-Oct-2021 SAID31 WIMK 170400 METAR WIMK 170400Z AUTO 27004KT 220V320 9999 SCT026 SCT034 31/24 Q1011=
17-Oct-2021 SAID31 WIMK 170430 METAR WIMK 170430Z AUTO 24005KT 200V310 9999 FEW028 SCT029 32/24 Q1010=
17-Oct-2021 SAID31 WIMK 170500 METAR WIMK 170500Z AUTO 27004KT 220V330 9999 SCT031 SCT039 BKN060 31/24 Q1009=
17-Oct-2021 SAID31 WIMK 170530 METAR WIMK 170530Z AUTO 34004KT 280V020 8000 -RA BKN033 BKN034 BKN042 29/25 Q1009=
17-Oct-2021 SPID31 WIMK 170546 SPECI WIMK 170546Z AUTO 04004KT 300V090 4700 RA SCT033 BKN035 BKN043 28/26 Q1008=
17-Oct-2021 SAID31 WIMK 170600 METAR WIMK 170600Z AUTO 09005KT 040V130 4100 -RA FEW034 28/26 Q1008=
17-Oct-2021 SPID31 WIMK 170610 SPECI WIMK 170610Z AUTO 10004KT 060V160 8000 -RA NCD 28/26 Q1008=
17-Oct-2021 SAID31 WIMK 170630 METAR WIMK 170630Z AUTO VRB01KT 5000 -RA NCD 28/26 Q1008=
17-Oct-2021 SAID31 WIMK 170700 METAR WIMK 170700Z AUTO 22004KT 170V270 9999 FEW023 SCT032 BKN042 29/26 Q1007=
17-Oct-2021 SPID31 WIMK 170728 SPECI WIMK 170728Z AUTO 06006KT 9000 RA SCT003 BKN025 BKN030 28/26 Q1006=
17-Oct-2021 SPID31 WIMK 170729 SPECI WIMK 170729Z AUTO 05006KT 8000 +RA SCT003 BKN025 BKN031 27/26 Q1006=
17-Oct-2021 SPID31 WIMK 170730 SPECI WIMK 170730Z AUTO 05006KT 6000 +RA BKN002 SCT003 BKN025 27/26 Q1006=
17-Oct-2021 SAID31 WIMK 170730 METAR WIMK 170730Z AUTO 06007KT 9999 -RA SCT002 BKN025 BKN030 28/26 Q1006=
17-Oct-2021 SPID31 WIMK 170731 SPECI WIMK 170731Z AUTO 05006KT 4900 +RA BKN002 BKN003 OVC025 27/26 Q1006=
17-Oct-2021 SPID31 WIMK 170733 SPECI WIMK 170733Z AUTO 06006KT 2100 +RA BKN002 BKN003 OVC025 27/26 Q1006=
17-Oct-2021 SPID31 WIMK 170734 SPECI WIMK 170734Z AUTO 06006KT 1200 R05/1400D +RA OVC002 BKN003 OVC031 27/26 Q1006=
17-Oct-2021 SPID31 WIMK 170737 SPECI WIMK 170737Z AUTO 05005KT 360V140 0650 R05/0900D +RA BKN003 OVC024 BKN029 27/25 Q1006=
17-Oct-2021 SAID31 WIMK 170800 METAR WIMK 170800Z AUTO 31003KT 220V030 1700 RA BKN003 BKN033 BKN034 27/26 Q1006=
17-Oct-2021 SPID31 WIMK 170809 SPECI WIMK 170809Z AUTO VRB02KT 4600 -RA FEW003 BKN035 BKN040 27/26 Q1006=
17-Oct-2021 SPID31 WIMK 170818 SPECI WIMK 170818Z AUTO 20005KT 150V240 4100 RA SCT002 BKN034 BKN036 27/26 Q1006=
17-Oct-2021 SAID31 WIMK 170830 METAR WIMK 170830Z AUTO 16006KT 6000 -RA SCT035 SCT036 BKN042 26/26 Q1006=
17-Oct-2021 SAID31 WIMK 170900 METAR WIMK 170900Z AUTO 18003KT 150V210 9999 FEW038 SCT047 BKN100 27/26 Q1006=
17-Oct-2021 SAID31 WIMK 170930 METAR WIMK 170930Z AUTO 17005KT 140V200 9999 FEW034 SCT100 27/26 Q1006=
17-Oct-2021 SAID31 WIMK 171000 METAR WIMK 171000Z AUTO 17004KT 9999 FEW034 SCT110 BKN120 27/26 Q1007=
17-Oct-2021 SAID31 WIMK 171030 METAR WIMK 171030Z AUTO 16003KT 110V200 9999 FEW026 BKN100 BKN190 27/26 Q1007=
17-Oct-2021 SAID31 WIMK 171100 METAR WIMK 171100Z AUTO 13003KT 090V170 9999 BKN028 SCT030 BKN040 26/26 Q1008=
17-Oct-2021 SAID31 WIMK 171130 METAR WIMK 171130Z AUTO VRB01KT 9999 FEW020 SCT032 BKN044 27/26 Q1008=
17-Oct-2021 SAID31 WIMK 171200 METAR WIMK 171200Z AUTO VRB01KT 9999 FEW027 SCT070 BKN110 26/26 Q1008=
17-Oct-2021 SAID31 WIMK 171230 METAR WIMK 171230Z AUTO 19003KT 8000 FEW008 BKN130 OVC170 26/26 Q1009=
17-Oct-2021 SAID31 WIMK 171300 METAR WIMK 171300Z AUTO VRB02KT 9999 SCT021 SCT022 BKN075 26/26 Q1010=
17-Oct-2021 SPID31 WIMK 171313 SPECI WIMK 171313Z AUTO VRB02KT 9000 BKN014 SCT015 BKN019 26/26 Q1010=
17-Oct-2021 SAID31 WIMK 171330 METAR WIMK 171330Z AUTO 20001KT 9000 OVC014 SCT043 BKN085 26/26 Q1011=
17-Oct-2021 SPID31 WIMK 171345 SPECI WIMK 171345Z AUTO 22003KT 5000 SCT015 BKN044 BKN085 26/26 Q1011=
17-Oct-2021 SAID31 WIMK 171400 METAR WIMK 171400Z AUTO 21003KT 180V240 8000 SCT024 BKN050 BKN085 26/26 Q1011=
17-Oct-2021 SAID31 WIMK 171430 METAR WIMK 171430Z AUTO 22004KT 8000 FEW022 BKN055 BKN075 26/26 Q1011=
17-Oct-2021 SAID31 WIMK 171500 METAR WIMK 171500Z AUTO 14003KT 110V190 9999 FEW023 BKN070 BKN130 26/26 Q1011=
17-Oct-2021 SPID31 WIMK 171530 SPECI WIMK 171530Z AUTO 11003KT 060V160 2400 +RA SCT003 BKN007 BKN018 26/26 Q1011=
17-Oct-2021 SAID31 WIMK 171530 METAR WIMK 171530Z AUTO 12003KT 060V160 4400 +RA BKN004 BKN007 OVC018 26/26 Q1011=
17-Oct-2021 SPID31 WIMK 171540 SPECI WIMK 171540Z AUTO 12005KT 060V180 4600 -RA FEW004 SCT007 BKN013 25/25 Q1011=
17-Oct-2021 SPID31 WIMK 171547 SPECI WIMK 171547Z AUTO 09008KT 060V130 5000 RA FEW004 SCT006 BKN013 25/25 Q1011=
17-Oct-2021 SPID31 WIMK 171558 SPECI WIMK 171558Z AUTO 10007KT 060V130 2000 +RA BKN003 BKN005 OVC011 25/25 Q1012=
17-Oct-2021 SAID31 WIMK 171600 METAR WIMK 171600Z AUTO 10008KT 060V130 2200 RA BKN003 BKN005 OVC011 25/25 Q1011=
17-Oct-2021 SPID31 WIMK 171601 SPECI WIMK 171601Z AUTO 10007KT 060V130 1400 +RA BKN002 BKN003 OVC006 25/25 Q1011=
17-Oct-2021 SPID31 WIMK 171607 SPECI WIMK 171607Z AUTO 14009KT 090V200 0750 R05/1100D RA BKN002 BKN004 OVC006 25/25 Q1011=
17-Oct-2021 SPID31 WIMK 171618 SPECI WIMK 171618Z AUTO 15009KT 120V180 4300 -RA SCT003 SCT014 BKN035 24/24 Q1011=
17-Oct-2021 SAID31 WIMK 171630 METAR WIMK 171630Z AUTO 15007KT 120V180 6000 -RA FEW002 SCT030 BKN150 24/24 Q1011=
17-Oct-2021 SPID31 WIMK 171649 SPECI WIMK 171649Z AUTO 16006KT 8000 RA FEW060 24/24 Q1011=
17-Oct-2021 SAID31 WIMK 171700 METAR WIMK 171700Z AUTO 17007KT 5000 RA FEW065 24/24 Q1011=
17-Oct-2021 SPID31 WIMK 171728 SPECI WIMK 171728Z AUTO 20007KT 160V230 7000 RA FEW047 BKN060 BKN070 24/24 Q1010=
17-Oct-2021 SAID31 WIMK 171730 METAR WIMK 171730Z AUTO 20007KT 160V230 7000 -RA FEW047 SCT055 BKN060 24/24 Q1010=
17-Oct-2021 SPID31 WIMK 171739 SPECI WIMK 171739Z AUTO 20007KT 9000 -RA FEW055 BKN060 BKN070 24/24 Q1010=
17-Oct-2021 SAID31 WIMK 171800 METAR WIMK 171800Z AUTO 18003KT 140V230 8000 -RA SCT043 SCT060 OVC070 24/24 Q1011=
17-Oct-2021 SPID31 WIMK 171801 SPECI WIMK 171801Z AUTO 19003KT 140V230 7000 RA SCT044 BKN060 OVC070 24/24 Q1011=
17-Oct-2021 SPID31 WIMK 171828 SPECI WIMK 171828Z AUTO VRB09KT 2700 +RA BKN005 OVC022 OVC025 24/24 Q1011=
17-Oct-2021 SAID31 WIMK 171830 METAR WIMK 171830Z AUTO VRB08KT 3000 +RA BKN004 BKN006 BKN015 24/24 Q1011=
17-Oct-2021 SPID31 WIMK 171832 SPECI WIMK 171832Z AUTO 05010KT 010V070 1400 +RA OVC003 BKN005 OVC024 24/24 Q1011=
17-Oct-2021 SPID31 WIMK 171837 SPECI WIMK 171837Z AUTO 04008KT 350V070 0750 R05/P2000D +RA OVC002 OVC003 24/24 Q1011=
17-Oct-2021 SAID31 WIMK 171900 METAR WIMK 171900Z AUTO 04014G29KT 350V090 0450 R05/1200D +RA OVC002 24/24 Q1010=
17-Oct-2021 SPID31 WIMK 171905 SPECI WIMK 171905Z AUTO 34012G23KT 290V040 0500 R05/1000N +RA OVC002 23/23 Q1011=
17-Oct-2021 SAID31 WIMK 171930 METAR WIMK 171930Z AUTO 27009KT 240V310 0900 R05/1300U +RA OVC002 OVC003 23/23 Q1011=
17-Oct-2021 SPID31 WIMK 171943 SPECI WIMK 171943Z AUTO 25005KT 220V290 3600 -RA BKN002 BKN004 BKN021 23/23 Q1011=
17-Oct-2021 SPID31 WIMK 171946 SPECI WIMK 171946Z AUTO 25005KT 220V290 3800 RA BKN002 BKN003 BKN055 23/23 Q1011=
17-Oct-2021 SAID31 WIMK 172000 METAR WIMK 172000Z AUTO 23004KT 4000 RA FEW002 SCT004 BKN060 23/23 Q1011=
17-Oct-2021 SAID31 WIMK 172030 METAR WIMK 172030Z AUTO 20004KT 4500 RA FEW042 SCT110 23/23 Q1010=
17-Oct-2021 SAID31 WIMK 172100 METAR WIMK 172100Z AUTO 23004KT 5000 RA FEW003 23/23 Q1010=
17-Oct-2021 SPID31 WIMK 172113 SPECI WIMK 172113Z AUTO 25005KT 230V290 8000 -RA FEW003 SCT150 23/23 Q1010=
17-Oct-2021 SAID31 WIMK 172130 METAR WIMK 172130Z AUTO 24003KT 200V280 9000 -RA FEW004 SCT130 BKN150 23/23 Q1010=
17-Oct-2021 SAID31 WIMK 172200 METAR WIMK 172200Z AUTO 28003KT 240V310 9999 -RA FEW009 SCT130 OVC160 23/23 Q1010=
17-Oct-2021 SAID31 WIMK 172230 METAR WIMK 172230Z AUTO VRB02KT 7000 -RA BKN130 OVC170 23/23 Q1010=
17-Oct-2021 SAID31 WIMK 172300 METAR WIMK 172300Z AUTO VRB02KT 9999 -RA FEW075 SCT120 BKN130 24/24 Q1011=
17-Oct-2021 SAID31 WIMK 172330 METAR WIMK 172330Z AUTO 29003KT 250V310 9999 -RA FEW065 SCT140 23/23 Q1011=
18-Oct-2021 SAID31 WIMK 180000 METAR WIMK 180000Z AUTO VRB02KT 7000 -RA NCD 24/24 Q1011=
18-Oct-2021 SAID31 WIMK 180030 METAR WIMK 180030Z AUTO VRB02KT 9999 -RA NCD 24/24 Q1011=
18-Oct-2021 SAID31 WIMK 180100 METAR WIMK 180100Z AUTO VRB02KT 9999 -RA NCD 24/24 Q1011=
18-Oct-2021 SAID31 WIMK 180130 METAR WIMK 180130Z AUTO VRB01KT 9999 NCD 25/24 Q1011=
18-Oct-2021 SAID31 WIMK 180200 METAR WIMK 180200Z AUTO VRB01KT 9999 NCD 26/24 Q1011=
18-Oct-2021 SAID31 WIMK 180230 METAR WIMK 180230Z AUTO VRB01KT 9999 NCD 26/24 Q1011=
18-Oct-2021 SAID31 WIMK 180300 METAR WIMK 180300Z AUTO VRB02KT 9999 NCD 27/24 Q1012=
18-Oct-2021 SAID31 WIMK 180330 METAR WIMK 180330Z AUTO 34003KT 260V050 9999 NCD 28/24 Q1012=
18-Oct-2021 SAID31 WIMK 180400 METAR WIMK 180400Z AUTO VRB03KT 9999 NCD 29/23 Q1011=
18-Oct-2021 SAID31 WIMK 180430 METAR WIMK 180430Z AUTO VRB02KT 9999 NCD 30/22 Q1011=
18-Oct-2021 SAID31 WIMK 180500 METAR WIMK 180500Z AUTO 10004KT 060V140 9999 NCD 31/22 Q1011=
18-Oct-2021 SAID31 WIMK 180530 METAR WIMK 180530Z AUTO VRB02KT 9999 NCD 31/23 Q1010=
18-Oct-2021 SAID31 WIMK 180600 METAR WIMK 180600Z AUTO 08003KT 020V180 9999 NCD 32/21 Q1009=
18-Oct-2021 SAID31 WIMK 180630 METAR WIMK 180630Z AUTO 19003KT 110V260 9999 NCD 32/23 Q1009=
18-Oct-2021 SAID31 WIMK 180700 METAR WIMK 180700Z AUTO VRB02KT 9999 NCD 33/22 Q1008=
18-Oct-2021 SAID31 WIMK 180730 METAR WIMK 180730Z AUTO 09006KT 060V120 9999 BKN044 SCT047 BKN050 32/23 Q1008=
18-Oct-2021 SAID31 WIMK 180800 METAR WIMK 180800Z AUTO 05003KT 350V110 9999 SCT044 32/23 Q1007=
18-Oct-2021 SAID31 WIMK 180830 METAR WIMK 180830Z AUTO 06006KT 030V110 9999 SCT043 33/23 Q1007=
18-Oct-2021 SAID31 WIMK 180900 METAR WIMK 180900Z AUTO 05005KT 010V090 9999 FEW040 SCT042 32/24 Q1007=
18-Oct-2021 SAID31 WIMK 180930 METAR WIMK 180930Z AUTO 05005KT 360V070 9999 NCD 32/23 Q1007=
18-Oct-2021 SAID31 WIMK 181000 METAR WIMK 181000Z AUTO 05005KT 030V090 9999 NCD 31/23 Q1007=
18-Oct-2021 SAID31 WIMK 181030 METAR WIMK 181030Z AUTO 04006KT 9999 NCD 31/23 Q1007=
18-Oct-2021 SAID31 WIMK 181100 METAR WIMK 181100Z AUTO 04004KT 9999 BKN150 30/23 Q1008=
18-Oct-2021 SAID31 WIMK 181130 METAR WIMK 181130Z AUTO 06004KT 9999 FEW150 29/23 Q1008=
18-Oct-2021 SAID31 WIMK 181200 METAR WIMK 181200Z AUTO 05004KT 9999 FEW026 BKN150 BKN320 28/23 Q1009=
18-Oct-2021 SAID31 WIMK 181230 METAR WIMK 181230Z AUTO 08004KT 9999 BKN024 OVC150 28/23 Q1009=
18-Oct-2021 SAID31 WIMK 181300 METAR WIMK 181300Z AUTO 08004KT 9999 FEW002 OVC150 28/23 Q1010=
18-Oct-2021 SAID31 WIMK 181330 METAR WIMK 181330Z AUTO 08003KT 9999 FEW002 OVC150 OVC150 28/23 Q1011=
18-Oct-2021 SAID31 WIMK 181400 METAR WIMK 181400Z AUTO VRB01KT 9999 FEW002 OVC160 28/24 Q1011=
18-Oct-2021 SAID31 WIMK 181430 METAR WIMK 181430Z AUTO 14002KT 9999 BKN002 SCT003 OVC160 28/23 Q1012=
18-Oct-2021 SAID31 WIMK 181500 METAR WIMK 181500Z AUTO VRB02KT 9999 BKN002 SCT050 OVC170 27/24 Q1012=
18-Oct-2021 SAID31 WIMK 181530 METAR WIMK 181530Z AUTO 16002KT 9999 FEW002 OVC160 27/24 Q1012=
18-Oct-2021 SAID31 WIMK 181600 METAR WIMK 181600Z AUTO VRB01KT 9999 SCT002 BKN028 OVC160 27/24 Q1012=
18-Oct-2021 SAID31 WIMK 181630 METAR WIMK 181630Z AUTO 15002KT 9999 FEW002 BKN060 OVC160 27/24 Q1012=
18-Oct-2021 SAID31 WIMK 181700 METAR WIMK 181700Z AUTO VRB02KT 9999 SCT002 BKN055 OVC160 27/24 Q1012=
18-Oct-2021 SAID31 WIMK 181730 METAR WIMK 181730Z AUTO 21002KT 9999 FEW002 SCT021 BKN060 26/24 Q1012=
20-Oct-2021 SAID31 WIMK 201130 METAR WIMK 201130Z AUTO ///// //// ////// 26/26 Q1012=
20-Oct-2021 SAID31 WIMK 201200 METAR WIMK 201200Z AUTO 21005KT 9999 -RA FEW065 BKN070 BKN100 25/24 Q1012=
20-Oct-2021 SAID31 WIMK 201230 METAR WIMK 201230Z AUTO VRB02KT 9999 -RA FEW033 SCT075 BKN095 25/24 Q1012=
20-Oct-2021 SAID31 WIMK 201300 METAR WIMK 201300Z AUTO VRB02KT 9999 -RA FEW041 BKN075 BKN130 25/24 Q1013=
20-Oct-2021 SAID31 WIMK 201330 METAR WIMK 201330Z AUTO 24001KT 9000 -RA FEW023 SCT160 25/25 Q1013=
20-Oct-2021 SAID31 WIMK 201400 METAR WIMK 201400Z AUTO VRB01KT 9999 -RA FEW049 SCT070 BKN110 25/25 Q1014=
20-Oct-2021 SAID31 WIMK 201430 METAR WIMK 201430Z AUTO 08002KT 9999 -RA FEW075 BKN120 BKN130 25/25 Q1014=
20-Oct-2021 SAID31 WIMK 201500 METAR WIMK 201500Z AUTO 12002KT 9000 -RA FEW012 SCT075 OVC130 25/25 Q1015=
20-Oct-2021 SAID31 WIMK 201530 METAR WIMK 201530Z AUTO 14002KT 7000 -DZ BKN060 OVC095 OVC120 25/25 Q1015=
20-Oct-2021 SAID31 WIMK 201600 METAR WIMK 201600Z AUTO 15002KT 6000 -RA FEW060 SCT065 BKN130 25/25 Q1015=
20-Oct-2021 SAID31 WIMK 201630 METAR WIMK 201630Z AUTO 13002KT 6000 -RA FEW070 SCT075 BKN160 25/25 Q1015=
20-Oct-2021 SAID31 WIMK 201700 METAR WIMK 201700Z AUTO VRB01KT 5000 -RA FEW009 SCT120 25/25 Q1014=
20-Oct-2021 SPID31 WIMK 201730 SPECI WIMK 201730Z AUTO VRB01KT 5000 RA FEW075 25/24 Q1014=
20-Oct-2021 SAID31 WIMK 201730 METAR WIMK 201730Z AUTO VRB02KT 5000 -RA FEW010 24/24 Q1014=
20-Oct-2021 SPID31 WIMK 201747 SPECI WIMK 201747Z AUTO 23002KT 4900 -RA FEW130 SCT150 25/25 Q1014=
20-Oct-2021 SAID31 WIMK 201800 METAR WIMK 201800Z AUTO 22002KT 4700 -RA SCT130 SCT150 24/24 Q1014=
20-Oct-2021 SPID31 WIMK 201816 SPECI WIMK 201816Z AUTO VRB01KT 4100 -RA FEW003 BKN012 BKN012 24/25 Q1014=
20-Oct-2021 SAID31 WIMK 201830 METAR WIMK 201830Z AUTO 24001KT 4700 -RA FEW003 SCT012 24/24 Q1013=
20-Oct-2021 SPID31 WIMK 201835 SPECI WIMK 201835Z AUTO 24002KT 4700 -RA FEW003 BKN012 BKN012 24/24 Q1013=
20-Oct-2021 SPID31 WIMK 201846 SPECI WIMK 201846Z AUTO 24001KT 5000 -RA SCT003 SCT004 BKN011 25/25 Q1013=
20-Oct-2021 SAID31 WIMK 201900 METAR WIMK 201900Z AUTO 23002KT 7000 -RA SCT003 SCT005 BKN010 24/24 Q1013=
20-Oct-2021 SAID31 WIMK 201930 METAR WIMK 201930Z AUTO 27003KT 9000 -RA FEW003 BKN012 OVC100 24/24 Q1013=
20-Oct-2021 SPID31 WIMK 201944 SPECI WIMK 201944Z AUTO 27004KT 9000 -RA FEW012 SCT075 OVC100 24/24 Q1013=
20-Oct-2021 SAID31 WIMK 202000 METAR WIMK 202000Z AUTO 28003KT 240V300 9000 -RA SCT003 BKN075 OVC100 24/24 Q1012=
20-Oct-2021 SPID31 WIMK 202003 SPECI WIMK 202003Z AUTO 28003KT 8000 -RA BKN004 BKN075 OVC100 24/24 Q1012=
20-Oct-2021 SAID31 WIMK 202030 METAR WIMK 202030Z AUTO 30004KT 8000 -RA BKN004 BKN075 BKN130 24/24 Q1012=
20-Oct-2021 SPID31 WIMK 202040 SPECI WIMK 202040Z AUTO 28003KT 240V310 8000 -RA SCT004 BKN075 OVC150 24/24 Q1012=
20-Oct-2021 SAID31 WIMK 202100 METAR WIMK 202100Z AUTO 27004KT 240V300 8000 -RA BKN004 BKN120 OVC160 24/24 Q1012=
20-Oct-2021 SAID31 WIMK 202130 METAR WIMK 202130Z AUTO 26004KT 230V290 7000 -RA BKN004 BKN048 BKN080 24/24 Q1012=
20-Oct-2021 SPID31 WIMK 202146 SPECI WIMK 202146Z AUTO 27006KT 9000 -RA SCT003 SCT065 BKN090 24/24 Q1011=
20-Oct-2021 SAID31 WIMK 202200 METAR WIMK 202200Z AUTO 26004KT 9000 -RA BKN003 SCT004 BKN065 24/24 Q1011=
20-Oct-2021 SAID31 WIMK 202230 METAR WIMK 202230Z AUTO 27005KT 9999 SCT003 SCT018 BKN110 24/24 Q1011=
20-Oct-2021 SAID31 WIMK 202300 METAR WIMK 202300Z AUTO VRB02KT 9999 FEW017 SCT090 OVC110 24/24 Q1011=
20-Oct-2021 SAID31 WIMK 202330 METAR WIMK 202330Z AUTO VRB02KT 9999 SCT110 SCT120 OVC150 24/24 Q1011=
21-Oct-2021 SAID31 WIMK 210000 METAR WIMK 210000Z AUTO 00000KT 9999 FEW140 24/24 Q1012=
23-Oct-2021 SAID31 WIMK 230600 METAR WIMK 230600Z AUTO VRB04KT 9999 FEW046 SCT050 33/23 Q1010=
23-Oct-2021 SPID31 WIMK 230614 SPECI WIMK 230614Z AUTO 04010KT 360V070 9999 FEW035 BKN048 BKN055 33/25 Q1010=
23-Oct-2021 SAID31 WIMK 230630 METAR WIMK 230630Z AUTO 02010KT 330V060 9999 FEW037 SCT043 BKN048 32/25 Q1010=
23-Oct-2021 SAID31 WIMK 230700 METAR WIMK 230700Z AUTO 04010KT 350V070 9999 FEW043 BKN045 BKN050 32/24 Q1009=
23-Oct-2021 SAID31 WIMK 230730 METAR WIMK 230730Z AUTO 04009KT 020V080 9999 FEW035 SCT038 32/24 Q1009=
23-Oct-2021 SAID31 WIMK 230800 METAR WIMK 230800Z AUTO 03009KT 350V080 9999 SCT037 BKN044 BKN050 32/24 Q1009=
23-Oct-2021 SAID31 WIMK 230830 METAR WIMK 230830Z AUTO 02009KT 360V060 9999 FEW039 BKN050 31/24 Q1008=
23-Oct-2021 SAID31 WIMK 230900 METAR WIMK 230900Z AUTO 03010KT 9999 FEW030 SCT037 BKN055 31/24 Q1008=
23-Oct-2021 SPID31 WIMK 230913 SPECI WIMK 230913Z AUTO 02010KT 350V060 9999 VCTS FEW030 BKN037 BKN043 30/24 Q1008=
08-Dec-2021 SAID31 WIMK 080530 METAR WIMK 080530Z AUTO 31004KT 230V010 9999 SCT031 SCT034 BKN039 31/24 Q1011=
08-Dec-2021 SAID31 WIMK 080600 METAR WIMK 080600Z AUTO 35004KT 230V040 9999 FEW036 SCT039 31/24 Q1010=
08-Dec-2021 SAID31 WIMK 080630 METAR WIMK 080630Z AUTO VRB03KT 9999 NCD 31/23 Q1010=
08-Dec-2021 SAID31 WIMK 080700 METAR WIMK 080700Z AUTO VRB05KT 9999 SCT038 32/23 Q1009=
08-Dec-2021 SAID31 WIMK 080730 METAR WIMK 080730Z AUTO 29004KT 210V350 9999 FEW044 BKN065 31/23 Q1009=
08-Dec-2021 SAID31 WIMK 080800 METAR WIMK 080800Z AUTO VRB04KT 9999 SCT038 SCT065 32/23 Q1008=
08-Dec-2021 SAID31 WIMK 080830 METAR WIMK 080830Z AUTO VRB02KT 9999 SCT039 SCT041 31/23 Q1008=
08-Dec-2021 SAID31 WIMK 080900 METAR WIMK 080900Z AUTO VRB02KT 9999 FEW035 BKN042 BKN050 32/24 Q1008=
08-Dec-2021 SAID31 WIMK 080930 METAR WIMK 080930Z AUTO 03005KT 340V060 9999 FEW041 31/24 Q1008=
08-Dec-2021 SAID31 WIMK 081000 METAR WIMK 081000Z AUTO 36005KT 320V050 9999 NCD 30/24 Q1008=
08-Dec-2021 SAID31 WIMK 081030 METAR WIMK 081030Z AUTO 03006KT 350V060 9999 NCD 29/25 Q1008=
08-Dec-2021 SAID31 WIMK 081100 METAR WIMK 081100Z AUTO 04005KT 9999 SCT200 29/25 Q1009=
08-Dec-2021 SAID31 WIMK 081130 METAR WIMK 081130Z AUTO 04004KT 9999 BKN200 28/25 Q1009=
08-Dec-2021 SAID31 WIMK 081200 METAR WIMK 081200Z AUTO 04004KT 9999 NCD 28/25 Q1009=
08-Dec-2021 SAID31 WIMK 081230 METAR WIMK 081230Z AUTO 04003KT 9999 FEW018 28/25 Q1010=
08-Dec-2021 SPID31 WIMK 081241 SPECI WIMK 081241Z AUTO VRB02KT 9999 BKN013 SCT014 BKN018 27/25 Q1010=
08-Dec-2021 SAID31 WIMK 081300 METAR WIMK 081300Z AUTO VRB02KT 8000 FEW002 SCT013 OVC014 28/25 Q1010=
08-Dec-2021 SPID31 WIMK 081319 SPECI WIMK 081319Z AUTO 35003KT 320V020 9999 FEW002 SCT038 28/25 Q1010=
08-Dec-2021 SAID31 WIMK 081330 METAR WIMK 081330Z AUTO VRB02KT 9999 FEW012 27/25 Q1011=
09-Dec-2021 SAID31 WIMK 090300 METAR WIMK 090300Z AUTO 30007KT 250V010 9999 SCT020 BKN025 BKN031 30/25 Q1012=
09-Dec-2021 SAID31 WIMK 090330 METAR WIMK 090330Z AUTO 31006KT 240V350 9999 FEW020 SCT022 BKN035 29/25 Q1012=
09-Dec-2021 SAID31 WIMK 090400 METAR WIMK 090400Z AUTO 30005KT 250V020 9999 FEW022 SCT027 BKN036 30/25 Q1012=
09-Dec-2021 SAID31 WIMK 090430 METAR WIMK 090430Z AUTO 33005KT 260V040 9999 SCT027 BKN037 BKN043 31/25 Q1011=
09-Dec-2021 SAID31 WIMK 090530 METAR WIMK 090530Z AUTO 29004KT 210V010 9999 SCT034 BKN035 BKN046 32/25 Q1011=
09-Dec-2021 SAID31 WIMK 090600 METAR WIMK 090600Z AUTO 32005KT 270V030 9999 SCT036 SCT037 BKN041 32/25 Q1010=
09-Dec-2021 SAID31 WIMK 090630 METAR WIMK 090630Z AUTO 35006KT 310V040 9999 SCT034 BKN043 31/25 Q1010=
09-Dec-2021 SAID31 WIMK 090700 METAR WIMK 090700Z AUTO 02006KT 350V060 9999 BKN034 BKN040 BKN041 31/25 Q1009=
09-Dec-2021 SAID31 WIMK 090730 METAR WIMK 090730Z AUTO 04007KT 360V060 9999 SCT032 BKN035 BKN041 31/25 Q1009=
09-Dec-2021 SAID31 WIMK 090800 METAR WIMK 090800Z AUTO 35006KT 310V040 9999 BKN034 BKN035 OVC043 31/25 Q1008=
10-Dec-2021 SPID31 WIMK 100243 SPECI WIMK 100243Z AUTO 27004KT 3000 -RADZ SCT046 BKN065 25/25 Q1013=
10-Dec-2021 SAID31 WIMK 100300 METAR WIMK 100300Z AUTO 28004KT 250V310 4700 -RA FEW065 25/25 Q1013=
10-Dec-2021 SAID31 WIMK 100330 METAR WIMK 100330Z AUTO 27006KT 240V310 7000 DZRA FEW012 26/25 Q1013=
10-Dec-2021 SPID31 WIMK 100338 SPECI WIMK 100338Z AUTO 28005KT 240V330 8000 DZ FEW008 SCT050 26/25 Q1013=
10-Dec-2021 SPID31 WIMK 100344 SPECI WIMK 100344Z AUTO 29005KT 240V330 4800 -RADZ BKN050 26/25 Q1013=
10-Dec-2021 SPID31 WIMK 100358 SPECI WIMK 100358Z AUTO 30005KT 230V340 2200 RA BR BKN055 26/25 Q1013=
10-Dec-2021 SPID31 WIMK 100408 SPECI WIMK 100408Z AUTO 30005KT 240V330 4700 -RA BR BKN055 26/25 Q1013=
10-Dec-2021 SPID31 WIMK 100414 SPECI WIMK 100414Z AUTO 30005KT 220V330 7000 DZ FEW008 BKN060 26/25 Q1013=
10-Dec-2021 SAID31 WIMK 100430 METAR WIMK 100430Z AUTO 32004KT 270V350 8000 -RA FEW008 BKN055 26/25 Q1013=
10-Dec-2021 SAID31 WIMK 100500 METAR WIMK 100500Z AUTO 30004KT 250V350 4500 -RA FEW018 SCT045 26/25 Q1013=
10-Dec-2021 SAID31 WIMK 100530 METAR WIMK 100530Z AUTO 32005KT 270V360 2400 RA BKN010 BKN014 BKN021 25/25 Q1013=
20-Dec-2021 SAID31 WIMK 201030 METAR WIMK 201030Z AUTO 03003KT 350V050 9999 SCT028 BKN030 BKN035 28/26 Q1008=
20-Dec-2021 SPID31 WIMK 201042 SPECI WIMK 201042Z AUTO 04003KT 8000 DZ SCT027 BKN031 BKN041 28/26 Q1008=
20-Dec-2021 SAID31 WIMK 201100 METAR WIMK 201100Z AUTO 06004KT 030V090 9999 FEW027 SCT041 OVC065 28/26 Q1009=
20-Dec-2021 SAID31 WIMK 201130 METAR WIMK 201130Z AUTO 08005KT 8000 SCT065 SCT080 28/26 Q1009=
20-Dec-2021 SAID31 WIMK 201200 METAR WIMK 201200Z AUTO 09005KT 060V120 9999 FEW003 SCT065 OVC230 27/26 Q1009=
20-Dec-2021 SAID31 WIMK 201230 METAR WIMK 201230Z AUTO 14003KT 080V220 9999 SCT002 BKN040 BKN220 27/26 Q1009=
20-Dec-2021 SAID31 WIMK 201300 METAR WIMK 201300Z AUTO 11004KT 080V150 9999 FEW002 OVC240 OVC240 27/26 Q1010=
20-Dec-2021 SAID31 WIMK 201330 METAR WIMK 201330Z AUTO 07006KT 9999 OVC230 27/26 Q1010=
20-Dec-2021 SAID31 WIMK 201400 METAR WIMK 201400Z AUTO 05003KT 360V080 9999 FEW003 SCT070 BKN220 27/25 Q1011=
20-Dec-2021 SPID31 WIMK 201410 SPECI WIMK 201410Z AUTO 05004KT 9999 BKN002 BKN060 OVC220 26/25 Q1011=
20-Dec-2021 SAID31 WIMK 201430 METAR WIMK 201430Z AUTO 06003KT 9999 FEW002 SCT080 OVC230 26/25 Q1011=
20-Dec-2021 SAID31 WIMK 201500 METAR WIMK 201500Z AUTO 10008KT 050V150 9999 FEW030 SCT031 BKN085 27/25 Q1011=
20-Dec-2021 SAID31 WIMK 201530 METAR WIMK 201530Z AUTO VRB02KT 9999 BKN070 BKN075 OVC085 26/25 Q1011=
20-Dec-2021 SAID31 WIMK 201600 METAR WIMK 201600Z AUTO 14004KT 110V170 9000 SCT003 BKN065 BKN080 26/25 Q1011=
20-Dec-2021 SPID31 WIMK 201604 SPECI WIMK 201604Z AUTO 14003KT 100V160 9999 BKN002 BKN065 BKN070 26/25 Q1011=
20-Dec-2021 SAID31 WIMK 201630 METAR WIMK 201630Z AUTO VRB02KT 9999 BKN002 SCT003 OVC250 26/25 Q1011=
20-Dec-2021 SAID31 WIMK 201700 METAR WIMK 201700Z AUTO VRB02KT 9999 BKN002 OVC110 26/25 Q1011=
20-Dec-2021 SAID31 WIMK 201730 METAR WIMK 201730Z AUTO 20003KT 9999 BKN002 BKN090 OVC100 26/25 Q1011=
20-Dec-2021 SAID31 WIMK 201800 METAR WIMK 201800Z AUTO VRB02KT 8000 BKN002 OVC080 OVC090 26/25 Q1010=
20-Dec-2021 SAID31 WIMK 201830 METAR WIMK 201830Z AUTO 25003KT 210V300 8000 -DZ SCT002 BKN050 BKN075 26/25 Q1011=
20-Dec-2021 SAID31 WIMK 201900 METAR WIMK 201900Z AUTO VRB02KT 9999 FEW002 SCT031 BKN070 26/25 Q1010=
20-Dec-2021 SAID31 WIMK 201930 METAR WIMK 201930Z AUTO 22003KT 9999 -DZ FEW038 BKN050 OVC075 25/25 Q1010=
20-Dec-2021 SAID31 WIMK 202000 METAR WIMK 202000Z AUTO VRB02KT 9000 -RA FEW045 SCT055 BKN065 25/25 Q1009=
20-Dec-2021 SAID31 WIMK 202030 METAR WIMK 202030Z AUTO VRB02KT 9999 FEW002 SCT034 BKN060 25/25 Q1009=
20-Dec-2021 SPID31 WIMK 202045 SPECI WIMK 202045Z AUTO VRB02KT 9999 BKN002 BKN028 BKN050 25/25 Q1009=
20-Dec-2021 SAID31 WIMK 202100 METAR WIMK 202100Z AUTO VRB02KT 9999 BKN002 BKN075 OVC085 25/25 Q1009=
20-Dec-2021 SAID31 WIMK 202130 METAR WIMK 202130Z AUTO VRB01KT 9999 SCT002 BKN100 25/25 Q1009=
20-Dec-2021 SAID31 WIMK 202200 METAR WIMK 202200Z AUTO VRB01KT 9999 SCT095 BKN110 25/24 Q1010=
20-Dec-2021 SAID31 WIMK 202230 METAR WIMK 202230Z AUTO VRB01KT 9999 OVC090 24/24 Q1010=
20-Dec-2021 SAID31 WIMK 202300 METAR WIMK 202300Z AUTO VRB01KT 9999 FEW075 OVC100 OVC100 24/24 Q1010=
20-Dec-2021 SAID31 WIMK 202330 METAR WIMK 202330Z AUTO VRB02KT 7000 FEW002 SCT065 BKN075 25/25 Q1010=
21-Dec-2021 SAID31 WIMK 210000 METAR WIMK 210000Z AUTO 15002KT //// -DZ BKN070 BKN120 BKN180 25/25 Q1010=
21-Dec-2021 SAID31 WIMK 210030 METAR WIMK 210030Z AUTO VRB01KT 9000 -RA FEW110 26/25 Q1011=
21-Dec-2021 SAID31 WIMK 210100 METAR WIMK 210100Z AUTO VRB02KT //// -RA FEW019 SCT080 26/25 Q1012=
21-Dec-2021 SAID31 WIMK 210130 METAR WIMK 210130Z AUTO VRB02KT 9999 NCD 26/25 Q1012=
21-Dec-2021 SAID31 WIMK 210200 METAR WIMK 210200Z AUTO VRB01KT 9999 NCD 27/25 Q1012=
21-Dec-2021 SAID31 WIMK 210230 METAR WIMK 210230Z AUTO VRB01KT 9999 FEW014 27/25 Q1012=
21-Dec-2021 SAID31 WIMK 210300 METAR WIMK 210300Z AUTO 28004KT 240V310 9999 SCT016 BKN017 BKN060 27/25 Q1012=
21-Dec-2021 SAID31 WIMK 210330 METAR WIMK 210330Z AUTO 30005KT 240V350 9999 SCT016 SCT017 BKN060 28/26 Q1012=
21-Dec-2021 SAID31 WIMK 210400 METAR WIMK 210400Z AUTO VRB04KT 9999 SCT019 SCT110 29/26 Q1012=
21-Dec-2021 SAID31 WIMK 210430 METAR WIMK 210430Z AUTO 33004KT 240V050 9999 SCT020 SCT026 BKN110 29/26 Q1012=
21-Dec-2021 SAID31 WIMK 210500 METAR WIMK 210500Z AUTO 29004KT 240V010 9999 FEW026 30/26 Q1011=
21-Dec-2021 SAID31 WIMK 210530 METAR WIMK 210530Z AUTO VRB04KT 9999 FEW028 SCT029 31/25 Q1011=
21-Dec-2021 SAID31 WIMK 210600 METAR WIMK 210600Z AUTO VRB03KT 9999 SCT033 SCT040 31/25 Q1010=
21-Dec-2021 SAID31 WIMK 210630 METAR WIMK 210630Z AUTO 31005KT 270V350 9999 SCT033 SCT038 BKN039 31/25 Q1009=
21-Dec-2021 SAID31 WIMK 210700 METAR WIMK 210700Z AUTO VRB04KT 9999 FEW034 SCT035 BKN042 31/25 Q1009=
21-Dec-2021 SAID31 WIMK 210730 METAR WIMK 210730Z AUTO 31004KT 230V040 9999 BKN037 BKN047 BKN050 31/25 Q1008=
21-Dec-2021 SAID31 WIMK 210800 METAR WIMK 210800Z AUTO 33004KT 270V030 9999 FEW036 SCT038 BKN060 32/25 Q1008=
21-Dec-2021 SAID31 WIMK 210830 METAR WIMK 210830Z AUTO 33005KT 280V010 9999 SCT036 SCT047 OVC060 31/25 Q1008=
21-Dec-2021 SAID31 WIMK 210900 METAR WIMK 210900Z AUTO 31007KT 270V350 8000 BKN065 SCT110 31/25 Q1008=
21-Dec-2021 SPID31 WIMK 210919 SPECI WIMK 210919Z AUTO 33008KT 300V040 9999 VCTS SCT038 SCT040 BKN100 30/27 Q1008=
21-Dec-2021 SAID31 WIMK 210930 METAR WIMK 210930Z AUTO 33008KT 300V030 9999 VCTS FEW019 BKN039 BKN049 30/27 Q1008=
21-Dec-2021 SAID31 WIMK 211000 METAR WIMK 211000Z AUTO 33011KT 280V020 9999 FEW015 28/26 Q1008=
21-Dec-2021 SAID31 WIMK 211030 METAR WIMK 211030Z AUTO 33008KT 240V030 9999 FEW055 BKN110 BKN110 27/25 Q1009=
21-Dec-2021 SAID31 WIMK 211100 METAR WIMK 211100Z AUTO 33006KT 270V360 9999 BKN038 BKN040 BKN045 27/25 Q1009=
21-Dec-2021 SAID31 WIMK 211130 METAR WIMK 211130Z AUTO VRB04KT 9999 OVC038 BKN039 BKN049 27/26 Q1010=
21-Dec-2021 SAID31 WIMK 211200 METAR WIMK 211200Z AUTO 31005KT 250V040 9999 -DZ FEW003 SCT042 BKN044 26/26 Q1010=
21-Dec-2021 SPID31 WIMK 211210 SPECI WIMK 211210Z AUTO 31003KT 250V040 9999 -DZ BKN010 BKN042 BKN044 26/26 Q1010=
21-Dec-2021 SPID31 WIMK 211218 SPECI WIMK 211218Z AUTO 31004KT 240V010 9999 DZ FEW004 BKN010 BKN040 26/26 Q1010=
21-Dec-2021 SAID31 WIMK 211230 METAR WIMK 211230Z AUTO 32003KT 230V010 9999 -DZ BKN009 SCT010 BKN039 26/25 Q1011=
21-Dec-2021 SPID31 WIMK 211245 SPECI WIMK 211245Z AUTO 29004KT 220V320 9999 VCTS BKN009 BKN012 BKN014 26/25 Q1011=
21-Dec-2021 SAID31 WIMK 211300 METAR WIMK 211300Z AUTO 26005KT 210V320 9999 VCTS BKN009 BKN012 OVC014 26/25 Q1011=
21-Dec-2021 SPID31 WIMK 211310 SPECI WIMK 211310Z AUTO 19004KT 160V230 9999 BKN010 OVC011 OVC014 26/25 Q1012=
21-Dec-2021 SPID31 WIMK 211328 SPECI WIMK 211328Z AUTO 24003KT 210V270 4500 RA BKN012 OVC013 OVC017 25/25 Q1012=
21-Dec-2021 SAID31 WIMK 211330 METAR WIMK 211330Z AUTO VRB02KT 5000 -RA OVC012 OVC013 26/25 Q1012=
21-Dec-2021 SPID31 WIMK 211335 SPECI WIMK 211335Z AUTO 24005KT 210V280 2800 RA BKN003 OVC012 25/25 Q1012=
21-Dec-2021 SPID31 WIMK 211338 SPECI WIMK 211338Z AUTO 24006KT 220V280 2300 +RA BKN003 BKN010 OVC014 25/25 Q1012=
21-Dec-2021 SPID31 WIMK 211339 SPECI WIMK 211339Z AUTO 24006KT 220V280 2000 VCTSRA SCT002 BKN003 BKN010 25/25 Q1012=
21-Dec-2021 SPID31 WIMK 211343 SPECI WIMK 211343Z AUTO 24005KT 1400 R05/1900N VCTSRA BKN002 OVC003 OVC012 25/25 Q1012=
27-Dec-2021 SPID31 WIMK 271329 SPECI WIMK 271329Z AUTO VRB01KT 4700 BR FEW012 BKN013 OVC055 27/25 Q1012=
27-Dec-2021 SAID31 WIMK 271330 METAR WIMK 271330Z AUTO VRB01KT 5000 BKN012 SCT017 OVC055 26/25 Q1012=
27-Dec-2021 SPID31 WIMK 271342 SPECI WIMK 271342Z AUTO VRB01KT 7000 BKN013 BKN055 26/25 Q1012=
27-Dec-2021 SAID31 WIMK 271400 METAR WIMK 271400Z AUTO 25001KT 4900 BR FEW012 BKN055 25/25 Q1012=
27-Dec-2021 SPID31 WIMK 271407 SPECI WIMK 271407Z AUTO 25001KT 6000 FEW012 SCT013 BKN055 25/25 Q1012=
27-Dec-2021 SPID31 WIMK 271419 SPECI WIMK 271419Z AUTO 21003KT 4800 BR FEW002 SCT013 BKN050 25/25 Q1012=
27-Dec-2021 SAID31 WIMK 271430 METAR WIMK 271430Z AUTO 22004KT 3900 BR BKN002 OVC013 25/25 Q1012=
27-Dec-2021 SAID31 WIMK 271500 METAR WIMK 271500Z AUTO 22003KT 4500 BR OVC002 25/24 Q1012=
27-Dec-2021 SPID31 WIMK 271512 SPECI WIMK 271512Z AUTO 23003KT 5000 OVC002 25/25 Q1012=
27-Dec-2021 SPID31 WIMK 271519 SPECI WIMK 271519Z AUTO 24003KT 4900 BR OVC002 25/24 Q1012=
27-Dec-2021 SAID31 WIMK 271530 METAR WIMK 271530Z AUTO 24003KT 4300 BR OVC002 25/24 Q1012=
27-Dec-2021 SAID31 WIMK 271600 METAR WIMK 271600Z AUTO 23003KT 3300 BR OVC002 25/25 Q1012=
27-Dec-2021 SAID31 WIMK 271630 METAR WIMK 271630Z AUTO 24002KT 3900 BR OVC002 25/25 Q1012=
27-Dec-2021 SAID31 WIMK 271700 METAR WIMK 271700Z AUTO 23003KT 4100 BR OVC002 24/24 Q1012=
27-Dec-2021 SAID31 WIMK 271730 METAR WIMK 271730Z AUTO 24002KT 5000 BKN002 24/24 Q1012=
27-Dec-2021 SAID31 WIMK 271800 METAR WIMK 271800Z AUTO 24002KT 5000 BKN002 24/24 Q1012=
27-Dec-2021 SAID31 WIMK 271830 METAR WIMK 271830Z AUTO 23003KT 6000 BKN002 BKN003 24/24 Q1011=
27-Dec-2021 SPID31 WIMK 271849 SPECI WIMK 271849Z AUTO 23004KT 7000 FEW002 24/24 Q1011=
27-Dec-2021 SAID31 WIMK 271900 METAR WIMK 271900Z AUTO 23004KT 210V270 7000 NCD 24/24 Q1011=
27-Dec-2021 SAID31 WIMK 271930 METAR WIMK 271930Z AUTO VRB02KT 9000 NCD 24/24 Q1011=
27-Dec-2021 SAID31 WIMK 272000 METAR WIMK 272000Z AUTO 24003KT 9000 FEW049 24/23 Q1010=
27-Dec-2021 SAID31 WIMK 272030 METAR WIMK 272030Z AUTO VRB02KT 9999 FEW028 SCT029 24/23 Q1010=
27-Dec-2021 SAID31 WIMK 272100 METAR WIMK 272100Z AUTO 24003KT 210V270 9999 OVC029 24/23 Q1010=
27-Dec-2021 SAID31 WIMK 272130 METAR WIMK 272130Z AUTO VRB02KT 9999 OVC029 24/24 Q1010=
27-Dec-2021 SAID31 WIMK 272200 METAR WIMK 272200Z AUTO 25002KT 9999 FEW029 SCT030 24/23 Q1010=
27-Dec-2021 SAID31 WIMK 272230 METAR WIMK 272230Z AUTO 25003KT 9999 NCD 23/23 Q1010=
27-Dec-2021 SAID31 WIMK 272300 METAR WIMK 272300Z AUTO 26003KT 9999 NCD 23/23 Q1010=
27-Dec-2021 SAID31 WIMK 272330 METAR WIMK 272330Z AUTO 26002KT 9999 NCD 23/22 Q1011=
28-Dec-2021 SAID31 WIMK 280000 METAR WIMK 280000Z AUTO 22002KT 9000 NCD 24/23 Q1011=
28-Dec-2021 SAID31 WIMK 280030 METAR WIMK 280030Z AUTO VRB02KT 9999 NCD 25/23 Q1011=
28-Dec-2021 SAID31 WIMK 280100 METAR WIMK 280100Z AUTO 24004KT 220V280 9999 NCD 27/23 Q1012=
28-Dec-2021 SAID31 WIMK 280130 METAR WIMK 280130Z AUTO 24004KT 210V280 9999 NCD 28/24 Q1012=
28-Dec-2021 SAID31 WIMK 280200 METAR WIMK 280200Z AUTO 26005KT 220V310 9999 SCT026 BKN027 29/24 Q1013=
28-Dec-2021 SAID31 WIMK 280230 METAR WIMK 280230Z AUTO 27006KT 200V010 9999 BKN028 SCT029 BKN033 30/24 Q1013=
28-Dec-2021 SAID31 WIMK 280300 METAR WIMK 280300Z AUTO VRB04KT 9999 BKN031 BKN070 31/24 Q1013=
28-Dec-2021 SAID31 WIMK 280330 METAR WIMK 280330Z AUTO 30005KT 230V360 9999 SCT031 SCT042 BKN070 30/24 Q1013=
28-Dec-2021 SAID31 WIMK 280400 METAR WIMK 280400Z AUTO 31006KT 230V350 9999 SCT032 SCT033 BKN055 30/24 Q1013=
28-Dec-2021 SAID31 WIMK 280430 METAR WIMK 280430Z AUTO 32005KT 280V010 8000 SCT032 SCT041 BKN055 31/25 Q1012=
28-Dec-2021 SAID31 WIMK 280500 METAR WIMK 280500Z AUTO 29005KT 220V030 9999 FEW032 SCT055 BKN075 31/25 Q1012=
28-Dec-2021 SAID31 WIMK 280530 METAR WIMK 280530Z AUTO 32007KT 250V030 9999 FEW033 SCT034 BKN065 31/24 Q1012=
28-Dec-2021 SAID31 WIMK 280600 METAR WIMK 280600Z AUTO 30006KT 230V040 9999 FEW034 SCT036 BKN055 32/24 Q1011=
28-Dec-2021 SAID31 WIMK 280630 METAR WIMK 280630Z AUTO 30006KT 230V030 9999 FEW038 SCT040 32/23 Q1010=
28-Dec-2021 SAID31 WIMK 280700 METAR WIMK 280700Z AUTO 32005KT 260V060 9999 BKN042 BKN075 33/22 Q1009=
28-Dec-2021 SAID31 WIMK 280730 METAR WIMK 280730Z AUTO VRB04KT 9999 BKN043 BKN047 BKN050 32/24 Q1009=
28-Dec-2021 SAID31 WIMK 280800 METAR WIMK 280800Z AUTO 33006KT 290V020 9999 BKN041 SCT045 BKN050 32/24 Q1009=
28-Dec-2021 SAID31 WIMK 280830 METAR WIMK 280830Z AUTO 03005KT 330V080 9999 BKN041 OVC047 BKN060 32/25 Q1008=
28-Dec-2021 SAID31 WIMK 280900 METAR WIMK 280900Z AUTO 04008KT 340V070 9999 SCT036 SCT037 BKN042 31/26 Q1008=
28-Dec-2021 SAID31 WIMK 280930 METAR WIMK 280930Z AUTO 36006KT 310V040 9999 BKN032 BKN039 BKN049 31/25 Q1008=
28-Dec-2021 SAID31 WIMK 281000 METAR WIMK 281000Z AUTO 34008KT 280V030 9999 FEW029 SCT033 BKN048 30/25 Q1008=
28-Dec-2021 SAID31 WIMK 281030 METAR WIMK 281030Z AUTO 33007KT 300V030 9999 FEW032 30/25 Q1008=
28-Dec-2021 SAID31 WIMK 281100 METAR WIMK 281100Z AUTO 34005KT 280V040 9999 NCD 29/25 Q1009=
28-Dec-2021 SAID31 WIMK 281130 METAR WIMK 281130Z AUTO 33006KT 280V030 9999 NCD 29/25 Q1009=
28-Dec-2021 SAID31 WIMK 281200 METAR WIMK 281200Z AUTO 34005KT 300V040 9999 NCD 28/25 Q1009=
28-Dec-2021 SAID31 WIMK 281230 METAR WIMK 281230Z AUTO 33004KT 290V040 9999 SCT040 28/25 Q1009=
28-Dec-2021 SAID31 WIMK 281300 METAR WIMK 281300Z AUTO 31005KT 270V350 9999 NCD 28/25 Q1010=
28-Dec-2021 SAID31 WIMK 281330 METAR WIMK 281330Z AUTO 31003KT 280V340 9000 FEW002 27/25 Q1010=
28-Dec-2021 SAID31 WIMK 281400 METAR WIMK 281400Z AUTO 29003KT 9999 SCT320 27/26 Q1011=
28-Dec-2021 SPID31 WIMK 281429 SPECI WIMK 281429Z AUTO 26003KT 9999 BKN002 BKN018 BKN055 27/25 Q1011=
28-Dec-2021 SAID31 WIMK 281430 METAR WIMK 281430Z AUTO 27002KT 9999 SCT002 BKN018 BKN055 27/25 Q1011=
28-Dec-2021 SAID31 WIMK 281500 METAR WIMK 281500Z AUTO 25003KT 6000 OVC002 BKN020 26/26 Q1011=
28-Dec-2021 SAID31 WIMK 281530 METAR WIMK 281530Z AUTO 24004KT 220V280 5000 OVC002 26/25 Q1011=
28-Dec-2021 SAID31 WIMK 281600 METAR WIMK 281600Z AUTO 25003KT 220V280 4900 BR OVC002 26/25 Q1011=
28-Dec-2021 SPID31 WIMK 281607 SPECI WIMK 281607Z AUTO 25004KT 5000 OVC002 26/25 Q1011=
28-Dec-2021 SAID31 WIMK 281630 METAR WIMK 281630Z AUTO 25003KT 6000 OVC002 26/25 Q1011=
28-Dec-2021 SAID31 WIMK 281700 METAR WIMK 281700Z AUTO 24003KT 6000 BKN002 25/25 Q1011=
28-Dec-2021 SAID31 WIMK 281730 METAR WIMK 281730Z AUTO 26003KT 230V290 7000 BKN002 SCT003 25/25 Q1011=
28-Dec-2021 SAID31 WIMK 281800 METAR WIMK 281800Z AUTO 25003KT 230V290 7000 BKN003 25/24 Q1011=
28-Dec-2021 SPID31 WIMK 281809 SPECI WIMK 281809Z AUTO VRB02KT 8000 SCT002 25/25 Q1011=
28-Dec-2021 SAID31 WIMK 281830 METAR WIMK 281830Z AUTO VRB02KT 8000 BKN002 25/24 Q1011=
04-Jan-2022 SAID31 WIMK 041130 METAR WIMK 041130Z AUTO VRB01KT //// -RA SCT033 BKN055 OVC070 26/26 Q1009=
14-Apr-2022 SAID31 WIMK 140130 METAR WIMK 140130Z AUTO VRB01KT 9999 FEW017 29/26 Q1009=
14-Apr-2022 SAID31 WIMK 140200 METAR WIMK 140200Z AUTO VRB02KT 9999 FEW019 31/26 Q1009=
14-Apr-2022 SAID31 WIMK 140230 METAR WIMK 140230Z AUTO VRB03KT 9999 NCD 31/25 Q1009=
14-Apr-2022 SAID31 WIMK 140330 METAR WIMK 140330Z AUTO 28005KT 170V330 9999 NCD 32/25 Q1009=
14-Apr-2022 SAID31 WIMK 140400 METAR WIMK 140400Z AUTO 30004KT 260V060 9999 NCD 33/25 Q1009=
14-Apr-2022 SAID31 WIMK 140430 METAR WIMK 140430Z AUTO VRB03KT 9999 NCD 33/24 Q1008=
14-Apr-2022 SAID31 WIMK 140500 METAR WIMK 140500Z AUTO 32005KT 270V030 9999 FEW044 34/24 Q1008=
14-Apr-2022 SAID31 WIMK 140530 METAR WIMK 140530Z AUTO VRB04KT 9999 FEW050 34/24 Q1008=
14-Apr-2022 SAID31 WIMK 140600 METAR WIMK 140600Z AUTO 06006KT 010V150 9999 FEW050 SCT070 34/25 Q1007=
14-Apr-2022 SAID31 WIMK 140630 METAR WIMK 140630Z AUTO 36005KT 300V060 9999 BKN048 BKN055 OVC065 33/25 Q1006=
14-Apr-2022 SAID31 WIMK 140700 METAR WIMK 140700Z AUTO 03005KT 330V070 9999 SCT041 BKN045 BKN055 34/26 Q1006=
14-Apr-2022 SAID31 WIMK 140730 METAR WIMK 140730Z AUTO 05007KT 350V100 9999 SCT039 BKN045 BKN048 33/26 Q1005=
14-Apr-2022 SAID31 WIMK 140800 METAR WIMK 140800Z AUTO 05010KT 030V090 9999 OVC041 OVC055 32/26 Q1005=
14-Apr-2022 SAID31 WIMK 140830 METAR WIMK 140830Z AUTO 05009KT 020V080 9999 BKN042 BKN044 OVC048 33/26 Q1004=
14-Apr-2022 SAID31 WIMK 140900 METAR WIMK 140900Z AUTO 03010KT 350V060 9999 OVC047 34/25 Q1004=
14-Apr-2022 SAID31 WIMK 140930 METAR WIMK 140930Z AUTO 02011KT 350V050 9999 FEW047 34/25 Q1004=
14-Apr-2022 SAID31 WIMK 141000 METAR WIMK 141000Z AUTO 04011KT 010V070 9999 FEW045 33/26 Q1004=
14-Apr-2022 SAID31 WIMK 141030 METAR WIMK 141030Z AUTO 03009KT 9999 NCD 31/26 Q1005=
14-Apr-2022 SPID31 WIMK 141041 SPECI WIMK 141041Z AUTO 04009KT 9999 VCTS BKN065 31/26 Q1005=
14-Apr-2022 SAID31 WIMK 141100 METAR WIMK 141100Z AUTO 04007KT 010V070 9999 TS OVC065 OVC070 30/26 Q1005=
14-Apr-2022 SAID31 WIMK 141130 METAR WIMK 141130Z AUTO 03005KT 300V070 9999 VCTS FEW033 SCT035 OVC065 30/27 Q1006=
14-Apr-2022 SAID31 WIMK 141200 METAR WIMK 141200Z AUTO 25005KT 9999 TS BKN032 OVC075 OVC080 29/27 Q1007=
14-Apr-2022 SAID31 WIMK 141230 METAR WIMK 141230Z AUTO 23006KT 9999 VCTS SCT025 SCT028 BKN080 28/27 Q1007=
14-Apr-2022 SAID31 WIMK 141300 METAR WIMK 141300Z AUTO 22007KT 9999 VCTS BKN023 SCT025 OVC028 27/26 Q1008=
14-Apr-2022 SAID31 WIMK 141330 METAR WIMK 141330Z AUTO 23008KT 9999 VCTS SCT020 BKN021 BKN035 27/26 Q1009=
14-Apr-2022 SAID31 WIMK 141400 METAR WIMK 141400Z AUTO 27008KT 230V290 9999 VCTS BKN020 BKN021 OVC025 26/26 Q1009=
14-Apr-2022 SAID31 WIMK 141430 METAR WIMK 141430Z AUTO 24007KT 9999 VCTS FEW009 BKN022 BKN030 25/25 Q1010=
14-Apr-2022 SPID31 WIMK 141449 SPECI WIMK 141449Z AUTO 24008KT 4900 VCTSRA FEW003 SCT025 BKN060 25/24 Q1009=
14-Apr-2022 SAID31 WIMK 141500 METAR WIMK 141500Z AUTO 24008KT 6000 -RADZ FEW003 SCT019 BKN060 25/25 Q1009=
14-Apr-2022 SAID31 WIMK 141530 METAR WIMK 141530Z AUTO 27007KT 9999 -RA SCT006 SCT025 BKN047 25/25 Q1009=
14-Apr-2022 SPID31 WIMK 141546 SPECI WIMK 141546Z AUTO 26005KT 230V290 9999 VCTS FEW007 BKN042 OVC080 25/25 Q1009=
14-Apr-2022 SAID31 WIMK 141600 METAR WIMK 141600Z AUTO 26005KT 230V290 9999 VCTS FEW043 SCT050 BKN075 25/25 Q1009=
14-Apr-2022 SAID31 WIMK 141630 METAR WIMK 141630Z AUTO 28005KT 240V300 9999 FEW055 SCT070 OVC095 25/25 Q1009=
14-Apr-2022 SAID31 WIMK 141700 METAR WIMK 141700Z AUTO 25003KT 9999 FEW065 SCT070 BKN090 25/25 Q1009=
14-Apr-2022 SAID31 WIMK 141730 METAR WIMK 141730Z AUTO 25003KT 9999 FEW044 BKN047 BKN140 25/25 Q1009=
14-Apr-2022 SAID31 WIMK 141800 METAR WIMK 141800Z AUTO 23003KT 210V280 9999 FEW050 SCT055 OVC160 25/25 Q1009=
14-Apr-2022 SAID31 WIMK 141830 METAR WIMK 141830Z AUTO 23003KT 9999 FEW060 SCT110 BKN170 25/25 Q1008=
14-Apr-2022 SAID31 WIMK 141900 METAR WIMK 141900Z AUTO 27004KT 9999 FEW065 BKN170 OVC230 25/25 Q1007=
14-Apr-2022 SAID31 WIMK 141930 METAR WIMK 141930Z AUTO VRB02KT 9999 FEW180 SCT220 25/25 Q1007=
14-Apr-2022 SAID31 WIMK 142000 METAR WIMK 142000Z AUTO VRB02KT 9999 FEW080 SCT180 BKN290 25/25 Q1007=
14-Apr-2022 SAID31 WIMK 142030 METAR WIMK 142030Z AUTO 29003KT 250V310 9999 FEW280 25/25 Q1007=
14-Apr-2022 SAID31 WIMK 142100 METAR WIMK 142100Z AUTO VRB02KT 9999 FEW075 25/25 Q1007=
14-Apr-2022 SAID31 WIMK 142130 METAR WIMK 142130Z AUTO 29003KT 9999 FEW049 BKN070 BKN075 25/25 Q1007=
