20-May-2014 SAID34 WIHH 200600 METAR WIOI 200600Z 21005KT 6000 SCT018 30/24 Q1008=
26-May-2014 SAID34 WIHH 260300 METAR WIOI 260300Z 36005KT 6000 FEW018 29/25 Q1004=
29-May-2014 SAID34 WIHH 290000 METAR WIOI 290000Z 00000KT 5000 HZFEW018 24/23 Q1003=
29-May-2014 SAID34 WIHH 290300 METAR WIOI 290300Z 36005KT 7000 FEW018 30/25 Q1003=
29-May-2014 SAID34 WIHH 290600 METAR WIOI 290600Z 33007KT 7000 SCT018 32/25 Q1001=
30-May-2014 SAID34 WIHH 300000 METAR WIOI 300000Z 00000KT 6000 FEW018 25/23 Q1002=
30-May-2014 SAID34 WIHH 300300 METAR WIOI 300300Z 21005KT 9999 FEW018 30/25 Q1003=
24-Jun-2014 SAID34 WIHH 240000 METAR WIOI 240000Z 00000KT 4000 BR FEW010 25/24 Q1003=
27-Jun-2014 SAID34 WIHH 270000 METAR WIOI 270000Z 00000KT 4000 HZ FEW014 24/22 Q1005=
25-Aug-2014 SAID34 WIHH 250000 METAR WIOI 250000Z 00000KT 4000 BR NLC 23/23 Q1003=
04-Sep-2014 SAID34 WIHH 040000 METAR WIOI 040000Z 00000KT 4000 BR FEW010 23/22 Q1009=
25-Sep-2014 SAID34 WIHH 250000 METAR WIOI 250000Z 00000KT 1000 BR SCT010 23/23 Q1005=
04-Nov-2014 SAID34 WIHH 040000 METAR WIOI 040000Z 00000KT 2000 BR FEW018 25/24 Q1005=
06-Nov-2014 SAID34 WIHH 060000 METAR WIOI 060000Z 00000KT 1500 BR FEW004 24/23 Q1005=
26-Nov-2014 SAID34 WIHH 260400 METAR WIOI 260400Z 00000KT 9999 FEW018 29/25 Q1002=
27-Nov-2014 SAID34 WIHH 270000 METAR WIOI 270000Z 00000KT 2000 BR SCT010 25/24 Q1009=
05-Dec-2014 SAID34 WIHH 050000 METAR WIOI 050000Z 00000KT 1000 BR SCT018 24/23 Q1004=
08-Dec-2014 SAID34 WIHH 080000 METAR WIOI 080000Z 00000KT 8000 FEW018 25/23 Q1004=
12-Dec-2014 SAID34 WIHH 120000 METAR WIOI 120000Z 00000KT 5000 HZ FEW010 23/23 Q1009=
12-Dec-2014 SAID31 WIHH 120000 METAR WIOI 120000Z 00000KT 5000 HZ FEW010 23/23 Q1009=
12-Dec-2014 SAID34 WIHH 120300 METAR WIOI 120300Z 06005KT 6000 FEW018 30/24 Q1005=
17-Dec-2014 SAID34 WIHH 170300 METAR WIOI 170300Z 00000KT 8000 FEW018 27/25 Q1004=
18-Dec-2014 SAID34 WIHH 180600 METAR WIOI 180600Z 36006KT 7000 FEW018 31/24 Q1002=
18-Dec-2014 SAID34 WIHH 180900 METAR WIOI 180900Z 00000KT 7000 SCT020 30/24 Q1001=
20-Dec-2014 SAID34 WIHH 200300 METAR WIOI 200300Z 33003KT 6000 FEW018 25/24 Q1004=
20-Dec-2014 SAID34 WIHH 200600 METAR WIOI 200600Z 27006KT 6000 FEW018 32/24 Q1003=
24-Dec-2014 SAID34 WIHH 240000 METAR WIOI 240000Z 00000KT 4000 MIST FEW018 24/23 Q1003=
24-Dec-2014 SAID34 WIHH 240300 METAR WIOI 240300Z 00000KT 6000 SCT018 29/24 Q1004=
24-Dec-2014 SAID34 WIHH 240600 METAR WIOI 240600Z 18005KT 8000 SCT018 31/25 Q1002=
30-Dec-2014 SAID34 WIHH 300300 METAR WIOI 300300Z 00000KT 9999 FEW018 25/23 Q1004=
30-Dec-2014 SAID34 WIHH 300600 METAR WIOI 300600Z 24005KT 8000 SCT018 29/23 Q1002=
30-Dec-2014 SAID34 WIHH 300900 METAR WIOI 300900Z 00000KT 6000 SCT018 29/24 Q1000=
31-Dec-2014 SAID34 WIHH 310300 METAR WIOI 310300Z 00000KT 4000 HZ SCT016 26/22 Q1004=
31-Dec-2014 SAID34 WIHH 310600 METAR WIOI 310600Z 05022KT 4000 HZ FEW018CB FEW020 28/25 Q1004=
31-Dec-2014 SAID34 WIHH 310900 METAR WIOI 310900Z 33006KT 7000 FEW018CB FEW020 29/24 Q1001=
02-Jan-2015 SAID34 WIHH 020600 METAR WIOI 020600Z 03008KT 3000 HZ SCT018 28/23 Q1003=
03-Jan-2015 SAID34 WIHH 030300 METAR WIOI 030300Z 18004KT 4000 HZ SCT018 28/23 Q1004=
03-Jan-2015 SAID34 WIHH 030600 METAR WIOI 030600Z 18006KT 2000 HZ FW018CB SCT020 30/27 Q1002=
05-Jan-2015 SAID34 WIHH 050000 METAR WIOI 050000Z 20004KT 5000 HZ SCT018 26/23 Q1002=
05-Jan-2015 SAID34 WIHH 050300 METAR WIOI 050300Z 21008KT 6000 SCT018 29/24 Q1003=
05-Jan-2015 SAID34 WIHH 050600 METAR WIOI 050600Z 30006KT 3000 RA SCT018 24/23 Q1002=
06-Jan-2015 SAID34 WIHH 060000 METAR WIOI 060000Z 00000KT 5000 FEW018 25/24 Q1003=
06-Jan-2015 SAID34 WIHH 060300 METAR WIOI 060300Z 00000KT 8000 FEW018 29/24 Q1003=
06-Jan-2015 SAID34 WIHH 060600 METAR WIOI 060600Z 30006KT 7000 FEW018 29/25 Q1001=
06-Jan-2015 SAID34 WIHH 060900 METAR WIOI 060900Z 30007KT 9000 FEW017 28/24 Q1007=
08-Jan-2015 SAID34 WIHH 080000 METAR WIOI 080000Z 00000KT 5000 HZ SCT018 24/23 Q1003=
08-Jan-2015 SAID34 WIHH 080600 METAR WIOI 080600Z 05022KT 4000 HZ FEW018CB FEW020 30/24 Q1000=
08-Jan-2015 SAID34 WIHH 080900 METAR WIOI 080900Z 00000KT 1000 TSRA FEW018CB SCT020 25/23 Q1003=
09-Jan-2015 SAID34 WIHH 090000 METAR WIOI 090000Z 00000KT 500 FG 23/23 Q1013=
09-Jan-2015 SAID34 WIHH 090300 METAR WIOI 090300Z 27007KT 7000 FEW018 26/24 Q1004=
09-Jan-2015 SAID34 WIHH 090600 METAR WIOI 090600Z 00000KT 6000 FEW018CB FEW020 27/25 Q1002=
09-Jan-2015 SAID34 WIHH 090900 METAR WIOI 090900Z 36003KT 6000 -RA FEW018CB SCT020 27/24 Q1002=
12-Jan-2015 SAID34 WIHH 120000 METAR WIOI 120000Z 00000KT 3000 BR SCT018 23/23 Q1004=
12-Jan-2015 SAID34 WIHH 120300 METAR WIOI 120300Z 36002KT 3000 HZ SCT018 27/24 Q1004=
12-Jan-2015 SAID34 WIHH 120600 METAR WIOI 120600Z 33006KT 7000 FEW018CB FEW020 30/25 Q1001=
12-Jan-2015 SAID34 WIHH 120900 METAR WIOI 120900Z 15004KT 7000 FEW018CB FEW020 26/24 Q1001=
13-Jan-2015 SAID34 WIHH 130300 METAR WIOI 130300Z 03005KT 7000 FEW018 27/24 Q1005=
13-Jan-2015 SAID34 WIHH 130600 METAR WIOI 130600Z 00000KT 7000 FEW018 27/24 Q1003=
13-Jan-2015 SAID34 WIHH 130900 METAR WIOI 130900Z 00000KT 6000 SCT018 29/24 Q1001=
14-Jan-2015 SAID34 WIHH 140000 METAR WIOI 140000Z 00000KT 2000 BR SCT014 23/23 Q1004=
14-Jan-2015 SAID34 WIHH 140300 METAR WIOI 140300Z 36006KT 1000 -RA SCT018 27/25 Q1006=
14-Jan-2015 SAID34 WIHH 140900 METAR WIOI 140900Z 33006KT 5000 -TS FEW018CB SCT020 27/24 Q1003=
15-Jan-2015 SAID34 WIHH 150000 METAR WIOI 150000Z 00000KT 2000 BR FEW004 SCT014 24/23 Q1005=
15-Jan-2015 SAID34 WIHH 150300 METAR WIOI 150300Z 09005KT 2000 HZ FEW018 26/25 Q1005=
15-Jan-2015 SAID34 WIHH 150900 METAR WIOI 150900Z 33008KT 7000 FEW016 28/24 Q1009=
16-Jan-2015 SAID34 WIHH 160000 METAR WIOI 160000Z 00000KT 2000 MIST BKN014 23/23 Q1004=
16-Jan-2015 SAID34 WIHH 160300 METAR WIOI 160300Z 36003KT 2000 HZ FEW018 26/24 Q1004=
16-Jan-2015 SAID34 WIHH 160900 METAR WIOI 160900Z 36008KT 1000 RA FEW018CB SCT020 27/24 Q1001=
20-Jan-2015 SAID34 WIHH 200600 METAR WIOI 200600Z 06005KT 3000 HZ SCT018 27/24 Q1007=
26-Jan-2015 SAID34 WIHH 260300 METAR WIOI 260300Z 00000KT 4000 HZ FEW014 26/23 Q1007=
26-Jan-2015 SAID34 WIHH 260600 METAR WIOI 260600Z 36008KT 5000 HZ FEW018 28/23 Q1005=
26-Jan-2015 SAID34 WIHH 260900 METAR WIOI 260900Z 00000KT 5000 HZ FEW018 28/24 Q1003=
29-Jan-2015 SAID34 WIHH 290900 METAR WIOI 290900Z 00000KT 6000 SCT018 28/24 Q1001=
30-Jan-2015 SAID34 WIHH 300000 METAR WIOI 300000Z 00000KT 4000 BR FEW004 24/22 Q1005=
30-Jan-2015 SAID34 WIHH 300300 METAR WIOI 300300Z 09006KT 5000 HZ FEW014 26/25 Q1006=
03-Feb-2015 SAID34 WIHH 030300 METAR WIOI 030300Z 00000KT 5000 HZ FEW014 26/25 Q1006=
03-Feb-2015 SAID34 WIHH 030600 METAR WIOI 030600Z 33005KT 7000 -RA FEW014CB SCT018 29/24 Q1008=
03-Feb-2015 SAID34 WIHH 030900 METAR WIOI 030900Z 00000KT 7000 TS FEW014CB SCT018 25/24 Q1003=
06-Feb-2015 SAID34 WIHH 060000 METAR WIOI 060000Z 03004KT 2000 BR FEW014 24/22 Q1005=
09-Feb-2015 SAID41 WIHH 090300 METAR WIOI 090300Z 09006KT 60000 BR FEW04 23/23 Q1007=
10-Feb-2015 SAID34 WIHH 100600 METAR WIOI 100600Z 03010KT 5000 HZ FEW018 27/24 Q1004=
10-Feb-2015 SAID34 WIHH 100900 METAR WIOI 100900Z 03003KT 3000 HZ BKN018 25/23 Q1003=
11-Feb-2015 SAID34 WIHH 110000 METAR WIOI 110000Z 00000KT 500 -RA FEW004 23/22 Q1006=
11-Feb-2015 SAID34 WIHH 110300 METAR WIOI 110300Z 00000KT 200 -RA SCT004 23/23 Q1007=
11-Feb-2015 SAID34 WIHH 110600 METAR WIOI 110600Z 00000KT 200 -RA SCT004 25/25 Q1005=
11-Feb-2015 SAID34 WIHH 110900 METAR WIOI 110900Z 33005KT 300 -RA SCT004 24/23 Q1003=
12-Feb-2015 SAID34 WIHH 120900 METAR WIOI 120900Z 36004KT 500 RA FEW014 24/22 Q1002=
18-Feb-2015 SAID34 WIHH 180300 METAR WIOI 180300Z 00000KT 8000 SCT018 27/24 Q1005=
20-Feb-2015 SAID34 WIHH 200300 METAR WIOI 200300Z 03009KT 9000 FEW018 27/22 Q1006=
20-Feb-2015 SAID34 WIHH 200600 METAR WIOI 200600Z 00000KT 9999 FEW018 28/23 Q1004=
24-Feb-2015 SAID34 WIHH 240000 METAR WIOI 240000Z 00000KT 5000 HZ FEW004 22/21 Q1006=
25-Feb-2015 SAID34 WIHH 250300 METAR WIOI 250300Z 00000KT 5000 HZSCT018 26/24 Q1005=
26-Feb-2015 SAID34 WIHH 260600 METAR WIOI 260600Z 00000KT 4000 HZ FEW010 29/25 Q1002=
26-Feb-2015 SAID34 WIHH 260900 METAR WIOI 260900Z 00000KT 4000 TS FEW010CB FEW014 25/23 Q1001=
26-Feb-2015 SAID34 WIHH 261200 METAR WIOI 261200Z 03008KT 4000 FEW014 25/22 Q1003=
02-Mar-2015 SAID34 WIHH 020100 METAR WIOI 020100Z 00000KT 6000 FEW018 24/22 Q1004=
02-Mar-2015 SAID34 WIHH 020600 METAR WIOI 020600Z 03008KT 7000 RA SCT018 26/23 Q1004=
02-Mar-2015 SAID34 WIHH 020900 METAR WIOI 020900Z 36003KT 7000 SCT018 26/22 Q1002=
03-Mar-2015 SAID34 WIHH 030000 METAR WIOI 030000Z 00000KT 4000 HZ FEW018 23/22 Q1006=
03-Mar-2015 SAID34 WIHH 030300 METAR WIOI 030300Z 36009KT 5000 HZ FEW018 28/24 Q1005=
03-Mar-2015 SAID34 WIHH 030600 METAR WIOI 030600Z 06006KT 6000 FEW018 30/22 Q1002=
03-Mar-2015 SAID34 WIHH 030900 METAR WIOI 030900Z 03005KT 5000 HZ FEW018 31/27 Q1000=
05-Mar-2015 SAID34 WIHH 050300 METAR WIOI 050300Z 00000KT 7000 FEW018 28/23 Q1007=
05-Mar-2015 SAID34 WIHH 050600 METAR WIOI 050600Z 36008KT 7000 FEW018 30/21 Q1004=
05-Mar-2015 SAID34 WIHH 050900 METAR WIOI 050900Z 33003KT 5000 HZ FEW018 32/23 Q1002=
06-Mar-2015 SAID34 WIHH 060300 METAR WIOI 060300Z 00000KT 9999 FEW018 29/22 Q1005=
06-Mar-2015 SAID34 WIHH 060600 METAR WIOI 060600Z 27005KT 9999 FEW018 32/22 Q1003=
06-Mar-2015 SAID34 WIHH 060900 METAR WIOI 060900Z 33008KT 8000 SCT018 33/23 Q1001=
09-Mar-2015 SAID34 WIHH 090000 METAR WIOI 090000Z 00000KT 4000 SCT018 25/24 Q1005=
09-Mar-2015 SAID34 WIHH 090600 METAR WIOI 090600Z 00000KT 6000 FEW014 31/26 Q1004=
09-Mar-2015 SAID34 WIHH 090900 METAR WIOI 090900Z 03006KT 6000 FEW014 30/23 Q1002=
20-Mar-2015 SAID34 WIHH 200000 METAR WIOI 200000Z 00000KT 2000 BR FEW004 24/23 Q1005=
24-Mar-2015 SAID34 WIHH 240300 METAR WIOI 240300Z 06006KT 5000 HZ SCT010 26/23 Q1005=
25-Mar-2015 SAID34 WIHH 250300 METAR WIOI 250300Z 09010KT 7000 FEW018 30/24 Q1006=
27-Mar-2015 SAID34 WIHH 270000 METAR WIOI 270000Z 00000KT 2000 BR FEW010 25/23 Q1006=
27-Mar-2015 SAID34 WIHH 270300 METAR WIOI 270300Z 00000KT 2000 HZ SCT014 30/24 Q1006=
27-Mar-2015 SAID34 WIHH 270600 METAR WIOI 270600Z 24008KT 1000 -TSRA FEW014CB FEW018 24/23 Q1005=
01-Apr-2015 SAID34 WIHH 010000 METAR WIOI 010000Z 00000KT 5000 BR FEW010 24/24 Q1004=
01-Apr-2015 SAID34 WIHH 010300 METAR WIOI 010300Z 36003KT 6000 FEW010 29/25 Q1004=
01-Apr-2015 SAID34 WIHH 010600 METAR WIOI 010600Z 00000KT 7000 FEW010CB FEW014 32/24 Q1005=
01-Apr-2015 SAID34 WIHH 010900 METAR WIOI 010900Z 36008KT 500 -TSRA FEW014CB FEW018 25/23 Q1001=
02-Apr-2015 SAID34 WIHH 020000 METAR WIOI 020000Z 00000KT 1000 BR FEW010 24/23 Q1003=
02-Apr-2015 SAID34 WIHH 020300 METAR WIOI 020300Z 00000KT 7000 SCT018 26/21 Q1004=
07-Apr-2015 SAID34 WIHH 070000 METAR WIOI 070000Z 00000KT 1000 BR NLC 23/23 Q1003=
07-Apr-2015 SAID34 WIHH 070100 METAR WIOI 070100Z 00000KT 1000 BR NLC 23/23 Q1003=
08-Apr-2015 SAID34 WIHH 080000 METAR WIOI 080000Z 00000KT 1000 BR FEW010 25/23 Q1003=
08-Apr-2015 SAID34 WIHH 080300 METAR WIOI 080300Z 00000KT 7000 FEW018 28/25 Q1003=
08-Apr-2015 SAID34 WIHH 080600 METAR WIOI 080600Z 03006KT 5000 FEW018CB 30/25 Q1002=
13-Apr-2015 SAID34 WIHH 130300 METAR WIOI 130300Z 00000KT 7000 FEW010 28/25 Q1006=
13-Apr-2015 SAID34 WIHH 130600 METAR WIOI 130600Z 03003KT 9000 FEW010 31/23 Q1004=
15-Apr-2015 SAID34 WIHH 150000 METAR WIOI 150000Z 00000KT 5000 HZ FEW010 24/23 Q1004=
15-Apr-2015 SAID34 WIHH 150300 METAR WIOI 150300Z 36005KT 7000 SCT018 29/25 Q1006=
15-Apr-2015 SAID34 WIHH 150600 METAR WIOI 150600Z 00000KT 9000 SCT018 30/24 Q1003=
15-Apr-2015 SAID34 WIHH 150900 METAR WIOI 150900Z 03005KT 6000 FEW020 28/24 Q1002=
16-Apr-2015 SAID34 WIHH 160000 METAR WIOI 160000Z 00000KT 2000 BR FEW010 24/22 Q1005=
16-Apr-2015 SAID34 WIHH 160300 METAR WIOI 160300Z 03006KT 8000 FEW018 30/24 Q1007=
16-Apr-2015 SAID34 WIHH 160600 METAR WIOI 160600Z 36010KT 6000 TS FEW018CB SCT020 31/25 Q1004=
16-Apr-2015 SAID34 WIHH 160900 METAR WIOI 160900Z 00000KT 2000 TSRA FEW018CB SCT020 30/25 Q1002=
19-Apr-2015 SAID34 WIHH 190000 METAR WIOI 190000Z 00000KT 5000 HZ SCT010 24/23 Q1004=
19-Apr-2015 SAID34 WIHH 190300 METAR WIOI 190300Z 00000KT 9999 FEW018 28/25 Q1006=
19-Apr-2015 SAID34 WIHH 190600 METAR WIOI 190600Z 36005KT 9000 FEW018 31/24 Q1003=
21-Apr-2015 SAID34 WIHH 210000 METAR WIOI 210000Z 00000KT 3000 BR FEW010 23/22 Q1004=
22-Apr-2015 SAID34 WIHH 220900 METAR WIOI 220900Z 01005KT 9999 SCT016 33/24 Q1005=
28-Apr-2015 SAID34 WIHH 280000 METAR WIOI 280000Z 00000KT 4000 BR FEW010 24/22 Q1004=
29-Apr-2015 SAID34 WIHH 290000 METAR WIOI 290000Z 00000KT 6000 FEW010 24/23 Q1004=
30-Apr-2015 SAID34 WIHH 300100 METAR WIOI 300100Z 00000KT 3000 BR FEW010 25/14 Q1004=
06-May-2015 SAID34 WIHH 060300 METAR WIOI 060300Z 00000KT 8000 FEW018 30/23 Q1003=
06-May-2015 SAID34 WIHH 060600 METAR WIOI 060600Z 33005KT 8000 SCT018 32/22 Q1001=
07-May-2015 SAID34 WIHH 070000 METAR WIOI 070000Z 00000KT 5000 HZ FEW010 24/22 Q1004=
07-May-2015 SAID34 WIHH 070300 METAR WIOI 070300Z 21005KT 9999 FEW018 30/24 Q1004=
12-May-2015 SAID34 WIHH 120300 METAR WIOI 120300Z 00000KT 8000 SCT018 29/25 Q1004=
12-May-2015 SAID34 WIHH 120600 METAR WIOI 120600Z 00000KT 7000 BKN018 32/25 Q1002=
12-May-2015 SAID34 WIHH 120900 METAR WIOI 120900Z 24004KT 5000 TS FEW018CB SCT020 32/25 Q1000=
14-May-2015 SAID34 WIHH 140600 METAR WIOI 140600Z 27005KT 8000 SCT018 31/24 Q1003=
18-May-2015 SAID34 WIHH 180300 METAR WIOI 180300Z 00000KT 7000 FEW018 30/25 Q1004=
18-May-2015 SAID34 WIHH 180600 METAR WIOI 180600Z 36009KT 7000 FEW018 29/23 Q1003=
20-May-2015 SAID34 WIHH 200000 METAR WIOI 200000Z 00000KT 3000 BR FEW010 24/23 Q1004=
20-May-2015 SAID34 WIHH 200300 METAR WIOI 200300Z 00000KT 8000 SCT018 30/25 Q1004=
20-May-2015 SAID34 WIHH 200600 METAR WIOI 200600Z 00000KT 6000 TS FEW018CB SCT020 31/25 Q1003=
22-May-2015 SAID34 WIHH 220600 METAR WIOI 220600Z 20005KT 7000 FEW020 30/24 Q1004=
22-May-2015 SAID34 WIHH 220900 METAR WIOI 220900Z 13005KT 6000 TS FEW018CB FEW0020 29/25 Q1003=
23-May-2015 SAID34 WIHH 230000 METAR WIOI 230000Z 00000KT 6000 FEW010 24/23 Q1004=
25-May-2015 SAID34 WIHH 250000 METAR WIOI 250000Z 00000KT 3000 BR SCT010 24/23 Q1004=
25-May-2015 SAID34 WIHH 250600 METAR WIOI 250600Z 00000KT 9999 FEW018 32/23 Q1002=
25-May-2015 SAID34 WIHH 250900 METAR WIOI 250900Z 00000KT 9000 SCT018 33/23 Q1001=
26-May-2015 SAID34 WIHH 260000 METAR WIOI 260000Z 00000KT 5000 HZ FEW014 26/24 Q1006=
26-May-2015 SAID34 WIHH 260300 METAR WIOI 260300Z 20010KT 9999 FEW018 29/25 Q1006=
26-May-2015 SAID34 WIHH 260600 METAR WIOI 260600Z 00000KT 9999 FEW018 32/23 Q1002=
26-May-2015 SAID34 WIHH 260900 METAR WIOI 260900Z 00000KT 9000 SCT018 33/23 Q1001=
28-May-2015 SAID34 WIHH 280600 METAR WIOI 280600Z 00000KT 7000 FEW018 31/23 Q1003=
28-May-2015 SAID34 WIHH 280900 METAR WIOI 280900Z 00000KT 7000 FEW020 32/24 Q1000=
29-May-2015 SAID34 WIHH 290000 METAR WIOI 290000Z 00000KT 3000 BR FEW018 25/23 Q1005=
29-May-2015 SAID34 WIHH 290300 METAR WIOI 290300Z 33006KT 9000 FEW018 28/24 Q1005=
29-May-2015 SAID34 WIHH 290600 METAR WIOI 290600Z 00000KT 7000 FEW018 SCT017 31/23 Q1003=
29-May-2015 SAID34 WIHH 290900 METAR WIOI 290900Z 00000KT 7000 FEW018CB FEW020 32/24 Q1000=
01-Jun-2015 SAID34 WIHH 010000 METAR WIOI 010000Z 00000KT 6000 SCT010 24/21 Q1001=
01-Jun-2015 SAID34 WIHH 010300 METAR WIOI 010300Z 00000KT 6000 SCT010 25/22 Q1002=
01-Jun-2015 SAID34 WIHH 010600 METAR WIOI 010600Z 00000KT 7000 FEW018 31/22 Q1002=
03-Jun-2015 SAID34 WIHH 030000 METAR WIOI 030000Z 00000KT 7000 FEW014 24/23 Q1004=
03-Jun-2015 SAID34 WIHH 030300 METAR WIOI 030300Z 00000KT 9999 FEW018 29/24 Q1005=
04-Jun-2015 SAID34 WIHH 040300 METAR WIOI 040300Z 00000KT 9000 FEW018 29/25 Q1003=
04-Jun-2015 SAID34 WIHH 040600 METAR WIOI 040600Z 00000KT 6000 FEW018CB FEW020 33/27 Q1000=
05-Jun-2015 SAID34 WIHH 050000 METAR WIOI 050000Z 00000KT 3000 HZ FEW014 24/23 Q1002=
05-Jun-2015 SAID34 WIHH 050300 METAR WIOI 050300Z 24005KT 9999 SCT018 29/25 Q1002=
05-Jun-2015 SAID34 WIHH 050600 METAR WIOI 050600Z 00000KT 9999 SCT018 31/16 Q1000=
06-Jun-2015 SAID34 WIHH 060900 METAR WIOI 060900Z 00000KT 9999 SCT018 31/22 Q1009=
11-Jun-2015 SAID34 WIHH 110600 METAR WIOI 110600Z 21007KT 9999 FEW020 31/25 Q1001=
11-Jun-2015 SAID34 WIHH 110900 METAR WIOI 110900Z 00000KT 9000 FEW018 29/25 Q1000=
12-Jun-2015 SAID34 WIHH 120000 METAR WIOI 120000Z 00000KT 2000 FG SCT010 25/24 Q1003=
12-Jun-2015 SAID34 WIHH 120300 METAR WIOI 120300Z 00000KT 6000 SCT014 27/25 Q1004=
12-Jun-2015 SAID34 WIHH 120600 METAR WIOI 120600Z 00000KT 4000 TSRA FEW018CB SCT020 27/26 Q1003=
12-Jun-2015 SAID34 WIHH 120900 METAR WIOI 120900Z 00000KT 9000 FEW018CB 29/25 Q1000=
15-Jun-2015 SAID34 WIHH 150300 METAR WIOI 150300Z 00000KT 8000 FEW018 27/23 Q1002=
15-Jun-2015 SAID34 WIHH 150900 METAR WIOI 150900Z 21005KT 9999 SCT018 29/24 Q1000=
16-Jun-2015 SAID34 WIHH 160000 METAR WIOI 160000Z 00000KT 6000 SCT018 24/23 Q1003=
20-Jun-2015 SAID34 WIHH 200000 METAR WIOI 200000Z 00000KT 4000 HZ NSC 25/24 Q1003=
22-Jun-2015 SAID34 WIHH 220000 METAR WIOI 220000Z 18005KT 5000 HZ FEW014 27/25 Q1004=
22-Jun-2015 SAID34 WIHH 220300 METAR WIOI 220300Z 21005KT 7000 FEW018 30/25 Q1003=
22-Jun-2015 SAID34 WIHH 220900 METAR WIOI 220900Z 18008KT 6000 FEW018 33/25 Q1000=
25-Jun-2015 SAID34 WIHH 250000 METAR WIOI 250000Z 18005KT 5000 HZ FEW014 27/25 Q1004=
25-Jun-2015 SAID34 WIHH 250300 METAR WIOI 250300Z 00000KT 3000 HZ FEW018 29/25 Q1004=
25-Jun-2015 SAID34 WIHH 250600 METAR WIOI 250600Z 27006KT 4000 HZ FEW018 32/24 Q1002=
27-Jun-2015 SAID34 WIHH 270900 METAR WIOI 270900Z 21005KT 9999 SCT018 29/24 Q1000=
28-Jun-2015 SAID34 WIHH 280900 METAR WIOI 280900Z 21005KT 9999 SCT018 29/24 Q1000=
01-Jul-2015 SAID34 WIHH 010000 METAR WIOI 010000Z 18005KT 3000 BR FEW018 24/22 Q1006=
01-Jul-2015 SAID34 WIHH 010300 METAR WIOI 010300Z 18012KT 4000 HZ FEW018 29/26 Q1006=
02-Jul-2015 SAID34 WIHH 020300 METAR WIOI 020300Z 18013KT 3000 HZ FEW018 30/22 Q1005=
02-Jul-2015 SAID34 WIHH 020600 METAR WIOI 020600Z 21011KT 3000 HZ FEW018 32/22 Q1003=
02-Jul-2015 SAID34 WIHH 020900 METAR WIOI 020900Z 24008KT 3000 FEW018 34/21 Q1001=
07-Jul-2015 SAID34 WIHH 070300 METAR WIOI 070300Z 21010KT 2000 FEW018 29/23 Q1002=
08-Jul-2015 SAID34 WIHH 080600 METAR WIOI 080600Z 21005KT 5000 NSC 29/24 Q1007=
23-Jul-2015 SAID34 WIHH 230000 METAR WIOI 230000Z 00000KT 5000 HZ FEW018 23/22 Q1007=
23-Jul-2015 SAID34 WIHH 230600 METAR WIOI 230600Z 24005KT 9999 FEW018 32/23 Q1004=
23-Jul-2015 SAID34 WIHH 230900 METAR WIOI 230900Z 06008KT 8000 SCT018 29/24 Q1010=
24-Jul-2015 SAID34 WIHH 240000 METAR WIOI 240000Z 00000KT 5000 HZ FEW018 23/22 Q1007=
29-Jul-2015 SAID34 WIHH 290300 METAR WIOI 290300Z 27003KT 8000 FEW018 27/21 Q1006=
29-Jul-2015 SAID34 WIHH 290900 METAR WIOI 290900Z 21005KT 9999 NSC 29/24 Q1000=
01-Aug-2015 SAID34 WIHH 010900 METAR WIOI 010900Z 21005KT 9999 SCT018 31/28 Q1008=
05-Aug-2015 SAID34 WIHH 050300 METAR WIOI 050300Z 18005KT 4000 HZ SCT018 29/23 Q1003=
05-Aug-2015 SAID34 WIHH 050600 METAR WIOI 050600Z 21005KT 6000 FEW018 34/27 Q1001=
06-Aug-2015 SAID34 WIHH 060000 METAR WIOI 060000Z 00000KT 3000 HZ FEW018 25/22 Q1002=
06-Aug-2015 SAID34 WIHH 060600 METAR WIOI 060600Z 27003KT 4000 HZ FEW018 33/23 Q1009=
11-Aug-2015 SAID34 WIHH 110000 METAR WIOI 110000Z 00000KT 5000 BR SCT010 26/25 Q1003=
11-Aug-2015 SAID34 WIHH 110300 METAR WIOI 110300Z 36004KT 1000 SMOKE SCT018 30/26 Q1003=
11-Aug-2015 SAID34 WIHH 110600 METAR WIOI 110600Z 24004KT 1000 SMOKE SCT018 33/25 Q1001=
13-Aug-2015 SAID34 WIHH 130600 METAR WIOI 130600Z 33006KT 4000 TS FEW018CB SCT020 31/25 Q1003=
18-Aug-2015 SAID34 WIHH 180000 METAR WIOI 180000Z 00000KT 3000 HZ SCT010 23/21 Q1005=
18-Aug-2015 SAID34 WIHH 180300 METAR WIOI 180300Z 00000KT 5000 HZ FEW018 28/23 Q1005=
18-Aug-2015 SAID34 WIHH 180600 METAR WIOI 180600Z 00000KT 4000 HZ SCT018 32/24 Q1002=
19-Aug-2015 SAID34 WIHH 190000 METAR WIOI 190000Z 00000KT 2000 HZ FEW010 24/23 Q1004=
20-Aug-2015 SAID34 WIHH 200000 METAR WIOI 200000Z 21005KT 1000 BR FEW010 25/24 Q1005=
20-Aug-2015 SAID34 WIHH 200300 METAR WIOI 200300Z 18007KT 2000 HZ SCT018 29/24 Q1004=
20-Aug-2015 SAID34 WIHH 200600 METAR WIOI 200600Z 18003KT 2000 SCT018 31/24 Q1003=
24-Aug-2015 SAID34 WIHH 240000 METAR WIOI 240000Z 00000KT 500 BR SCT010 24/22 Q1004=
24-Aug-2015 SAID34 WIHH 240600 METAR WIOI 240600Z 21007KT 5000 HZ SCT018 29/25 Q1004=
26-Aug-2015 SAID34 WIHH 260000 METAR WIOI 260000Z 18004KT 8000 HZ FEW015CB FEW018 29/25 Q1011=
27-Aug-2015 SAID34 WIHH 270900 METAR WIOI 270900Z 12005KT 1000 TSRA FEW018CB SCT020 24/24 Q1003=
28-Aug-2015 SAID34 WIHH 280000 METAR WIOI 280000Z 00000KT 1000 BR SCT010 23/23 Q1005=
28-Aug-2015 SAID34 WIHH 280300 METAR WIOI 280300Z 20006KT 3000 HZ BKN018 28/24 Q1006=
31-Aug-2015 SAID34 WIHH 310600 METAR WIOI 310600Z 00000KT 2000 FU SCT018 28/25 Q1004=
01-Sep-2015 SAID34 WIHH 010900 METAR WIOI 010900Z 21003KT 3000 SCT018 32/24 Q1001=
03-Sep-2015 SAID34 WIHH 030000 METAR WIOI 030000Z 00000KT 2000 BR FEW010 23/23 Q1005=
03-Sep-2015 SAID34 WIHH 030300 METAR WIOI 030300Z 00000KT 2000 HZ FEW018 28/24 Q1006=
04-Sep-2015 SAID34 WIHH 040300 METAR WIOI 040300Z 00000KT 2000 FU FEW018 29/25 Q1006=
04-Sep-2015 SAID34 WIHH 040600 METAR WIOI 040600Z 00000KT 2000 FU SCT018 31/25 Q1004 METAR WILM 040600Z 10005KT 9999 SCT0115 34/20 Q1011=
04-Sep-2015 SAID34 WIHH 040900 METAR WIOI 040900Z 00000KT 2000 FU SCT018 32/24 Q1003=
07-Sep-2015 SAID34 WIHH 070000 METAR WIOI 070000Z 00000KT 1000 BR SCT010 23/22 Q1006=
08-Sep-2015 SAID34 WIHH 080000 METAR WIOI 080000Z 18004KT 500 BR FEW010 25/24 Q1005=
08-Sep-2015 SAID34 WIHH 080300 METAR WIOI 080300Z 21010KT 500 FU SCT018 29/25 Q1004=
08-Sep-2015 SAID34 WIHH 080600 METAR WIOI 080600Z 18010KT 500 FU SCT018 32/23 Q1002=
11-Sep-2015 SAID34 WIHH 110000 METAR WIOI 110000Z 21008KT 1000 NSC 25/23 Q1005=
11-Sep-2015 SAID34 WIHH 110600 METAR WIOI 110600Z 36005KT 9999 NSC 30/25 Q1003=
15-Sep-2015 SAID34 WIHH 150600 METAR WIOI 150600Z 18005KT 100 FU 28/23 Q1004=
17-Sep-2015 SAID34 WIHH 170000 METAR WIOI 170000Z 00000KT 10 FU 25/23 Q1003=
18-Sep-2015 SAID34 WIHH 180600 METAR WIOI 180600Z 00000KT 10 FU 32/25 Q1000=
08-Oct-2015 SAID34 WIHH 080300 METAR WIOI 080300Z 21011KT 1000 HZ FEW018 29/24 Q1006=
12-Oct-2015 SAID34 WIHH 120000 METAR WIOI 120000Z 00000KT 1000 BR FEW010 23/22 Q1006=
12-Oct-2015 SAID34 WIHH 120300 METAR WIOI 120300Z 00000KT 1000 FU NLC 29/25 Q1007=
27-Oct-2015 SAID34 WIHH 270000 METAR WIOI 270000Z 00000KT 1000 FU NSC 25/24 Q1004=
27-Oct-2015 SAID34 WIHH 270300 METAR WIOI 270300Z 18006KT 1000 FU NSC 29/24 Q1004=
27-Oct-2015 SAID34 WIHH 270600 METAR WIOI 270600Z 21005KT 1000 TS FEW018CB SCT020 29/25 Q1001=
02-Nov-2015 SAID34 WIHH 020600 METAR WIOI 020600Z 00000KT 7000 -RA FEW018 32/23 Q1002=
04-Nov-2015 SAID34 WIHH 040000 METAR WIOI 040000Z 00000KT 7000 SCT018 25/24 Q1004=
04-Nov-2015 SAID34 WIHH 040300 METAR WIOI 040300Z 00000KT 8000 SCT018 28/25 Q1004=
04-Nov-2015 SAID34 WIHH 040600 METAR WIOI 040600Z 09010KT 8000 FEW018 30/25 Q1001=
05-Nov-2015 SAID34 WIHH 050600 METAR WIOI 050600Z 00000KT 6000 SCT018 31/24 Q1001=
10-Nov-2015 SAID34 WIHH 100000 METAR WIOI 100000Z 00000KT 4000 HZ FEW018 25/24 Q1003=
10-Nov-2015 SAID34 WIHH 100900 METAR WIOI 100900Z 00000KT 3000 TSRA FEW018CB SCT020 26/24 Q1000=
12-Nov-2015 SAID34 WIHH 120000 METAR WIOI 120000Z 00000KT 6000 SCT01`8 24/23 Q1005=
16-Nov-2015 SAID34 WIHH 160300 METAR WIOI 160300Z 00000KT 8000 FEW018 28/25 Q1004=
17-Nov-2015 SAID34 WIHH 170300 METAR WIOI 170300Z 33005KT 8000 SCT018 31/22 Q1009=
24-Nov-2015 SAID34 WIHH 240000 METAR WIOI 240000Z 00000KT 6000 SCT018 24/23 Q1002=
22-Dec-2015 SAID34 WIHH 220900 METAR WIOI 220900Z 33005KT 8000 SCT018 33/22 Q1001=
29-Dec-2015 SAID34 WIHH 290000 METAR WIOI 290000Z 00000KT 6000 SCT018 25/23 Q1006=
29-Dec-2015 SAID34 WIHH 290300 METAR WIOI 290300Z 36007KT 8000 FEW018 29/24 Q1006=
29-Dec-2015 SAID34 WIHH 290600 METAR WIOI 290600Z 36005KT 8000 SCT018 30/24 Q1004=
04-Jan-2016 SAID34 WIHH 040300 METAR WIOI 040300Z 36006KT 7000 FEW018 27/23 Q1007=
06-Jan-2016 SAID34 WIHH 060000 METAR WIOI 060000Z 00000KT 7000 FEW018 25/24 Q1006=
08-Jan-2016 SAID34 WIHH 080000 METAR WIOI 080000Z 00000KT 5000 HZ SCT010 25/24 Q1006=
08-Jan-2016 SAID34 WIHH 080300 METAR WIOI 080300Z 00000KT 5000 HZ SCT018 28/25 Q1006=
18-Jan-2016 SAID34 WIHH 180000 METAR WIOI 180000Z 00000KT 7000 SCT010 24/23 Q1002=
06-Oct-2016 SAID34 WIHH 060600 METAR WIOI 060600Z 06006KT 7000 SCT018 32/24 Q1001=
06-Oct-2016 SAID34 WIHH 060900 METAR WIOI 060900Z 03006KT 4000 TSRA FEW018CB SCT020 26/23 Q1001=
11-Oct-2016 SAID34 WIHH 110900 METAR WIOI 110900Z 06008KT 5000 TS FEW018CB FEW020 33/25 Q9998=
15-Oct-2016 SAID34 WIHH 150300 METAR WIOI 150300Z 06006KT 6000 FEW018 30/24 Q1002 NOSIG=
19-Oct-2016 SAID34 WIHH 190000 METAR WIOI 190000Z 00000KT 6000 FEW018 25/24 Q1018=
19-Oct-2016 SAID34 WIHH 190300 METAR WIOI 190300Z 00000KT 7000 SCT018 30/25 Q1001=
19-Oct-2016 SAID34 WIHH 190600 METAR WIOI 190600Z 06007KT 7000 SCT018 33/25 Q9999=
26-Oct-2016 SAID34 WIHH 260300 METAR WIOI 260300Z 06006KT 7000 FEW018 30/23 Q1004=
28-Oct-2016 SAID34 WIHH 280300 METAR WIOI 280300Z 06008KT 7000 FEW018 28/24 Q1004=
28-Oct-2016 SAID34 WIHH 280600 METAR WIOI 280600Z 03006KT 7000 SCT018 31/23 Q1000=
31-Oct-2016 SAID34 WIHH 310000 METAR WIOI 310000Z 00000KT 6000 SCT010 24/23 Q1003=
01-Nov-2016 SAID31 WIHH 010300 METAR WIOI 010300Z 06005KT 7000 FEW018 28/24 Q1003=
01-Nov-2016 SAID34 WIHH 010600 METAR WIOI 010600Z 06009KT 1000 TSRA FEW018CB FEW020 28/19 Q1001=
02-Nov-2016 SAID34 WIHH 020300 METAR WIOI 020300Z 06006KT 7000 FEW018 28/24 Q1003=
04-Nov-2016 SAID34 WIHH 040000 METAR WIOI 040000Z 06004KT 1000 RA SCT018 25/23 Q1009=
04-Nov-2016 SAID34 WIHH 040300 METAR WIOI 040300Z 36007KT 2000 SCT018 27/26 Q1003=
04-Nov-2016 SAID34 WIHH 040600 METAR WIOI 040600Z 06009KT 1000 TSRA FEW018CB FEW020 29/25 Q1000=
04-Nov-2016 SAID34 WIHH 040900 METAR WIOI 040900Z 06006KT 2000 TS FEW018CB FEW020 25/23 Q999=
14-Nov-2016 SAID34 WIHH 140000 METAR WIOI 140000Z 00000KT 7000 SCT018 24/23 Q1003=
14-Nov-2016 SAID34 WIHH 140300 METAR WIOI 140300Z 00000KT 7000 FEW018 27/23 Q1004=
14-Nov-2016 SAID34 WIHH 140600 METAR WIOI 140600Z 00000KT 7000 FEW020 30/23 Q1000=
15-Nov-2016 SAID34 WIHH 150000 METAR WIOI 150000Z 00000KT 7000 SCT018 24/23 Q1002 NOSIG=
16-Nov-2016 SAID34 WIHH 160300 METAR WIOI 160300Z 06004KT 7000 SCT018 30/24 Q1003 NOSIG=
17-Nov-2016 SAID34 WIHH 170900 METAR WIOI 170900Z 00000KT 1000 RA SCT020 27/25 Q9999=
18-Nov-2016 SAID34 WIHH 180000 METAR WIOI 180000Z 00000KT 6000 SCT018 24/23 Q1001=
18-Nov-2016 SAID34 WIHH 180600 METAR WIOI 180600Z 06007KT 7000 SCT018 30/24 Q9999=
18-Nov-2016 SAID34 WIHH 180900 METAR WIOI 180900Z 06008KT 5000 -TSRA FEW018CB FEW020 29/23 Q9997=
21-Nov-2016 SAID34 WIHH 210000 METAR WIOI 210000Z 00000KT 5000 BR SCT010 25/24 Q1001=
23-Nov-2016 SAID31 WIHH 230300 METAR WIOI 230300Z 06005KT 7000 SCT018 30/24 Q1002 NOSIG=
07-Dec-2016 SAID34 WIHH 070000 METAR WIOI 070000Z 00000KT 7000 FEW018 25/23 Q1001=
07-Dec-2016 SAID31 WIHH 070300 METAR WIOI 070300Z 00000KT 6000 FEW018 30/24 Q1001=
14-Dec-2016 SAID34 WIHH 140300 METAR WIOI 140300Z 00000KT 7000 SCT018 29/23 Q1003 NOSIG=
15-Dec-2016 SAID31 WIHH 150000 METAR WIOI 150000Z 00000KT 5000 BR SCT010 23/21 Q1003=
15-Dec-2016 SAID31 WIHH 150600 METAR WIOI 150600Z 00000KT 6000 SCT018 32/22 Q1001=
16-Dec-2016 SAID31 WIHH 160300 METAR WIOI 160300Z 06006KT 5000 HZ FEW018 29/24 Q1003=
16-Dec-2016 SAID31 WIHH 160600 METAR WIOI 160600Z 00000KT 5000 HZ FEW018 32/23 Q1000=
20-Dec-2016 SAID31 WIHH 200300 METAR WIOI 200300Z 06006KT 5000 RA FEW018CB FEW020 29/25 Q1002=
20-Dec-2016 SAID31 WIHH 200600 METAR WIOI 200600Z 06005KT 7000 SCT018 30/25 Q1000=
23-Dec-2016 SAID31 WIHH 230300 METAR WIOI 230300Z 00000KT 6000 TS FEW018CB FEW020 28/25 Q1002=
23-Dec-2016 SAID31 WIHH 230600 METAR WIOI 230600Z 06004KT 4000 TSRA FEW018CB SCT020 25/23 Q1000=
26-Dec-2016 SAID31 WIHH 260300 METAR WIOI 260300Z 06009KT 3000 HZ SCT018 26/24 Q1001=
26-Dec-2016 SAID31 WIHH 260600 METAR WIOI 260600Z 00000KT 2000 RA FEW018CB FEW020 29/23 Q1000=
03-Jan-2017 SAID31 WIHH 030000 METAR WIOI 030000Z 00000KT 2000 BR SCT010 25/23 Q1001=
03-Jan-2017 SAID34 WIHH 030300 METAR WIOI 030300Z 00000KT 5000 HZ FEW018 28/25 Q1002=
17-Jan-2017 SAID31 WIHH 170000 METAR WIOI 170000Z 00000KT 4000 BR SCT010 23/22 Q1003=
17-Jan-2017 SAID31 WIHH 170300 METAR WIOI 170300Z 00000KT 4000 HZ FEW018 27/24 Q1004=
20-Jan-2017 SAID31 WIHH 200300 METAR WIOI 200300Z 06003KT 7000 FEW018 27/23 Q1004=
24-Jan-2017 SAID31 WIHH 240000 METAR WIOI 240000Z 00000KT 500 BR FEW01024/14 Q1004=
24-Jan-2017 SAID34 WIHH 250000 METAR WIOI 240000Z 00000KT 500 BR FEW010 24/14 Q1004=
24-Jan-2017 SAID31 WIHH 240300 METAR WIOI 240300Z 00000KT 2000 HZ FEW015 26/24 Q1004=
24-Jan-2017 SAID31 WIHH 240600 METAR WIOI 240600Z 06005KT 6000 FEW020 30/24 Q1002=
27-Jan-2017 SAID34 WIHH 270000 METAR WIOI 270000Z 00000KT 7000 SCT015 24/23 Q1003 NOSIG=
27-Jan-2017 SAID34 WIHH 270300 METAR WIOI 270300Z 00000KT 6000 SCT018 27/25 Q1004 NOSIG=
27-Jan-2017 SAID34 WIHH 270600 METAR WIOI 270600Z 36004KT 4000 -RA BKN024 27/25 Q1002=
27-Jan-2017 SAID34 WIHH 270800 METAR WIOI 270800Z 36006KT 2000 TS FEW016CB BKN036 27/23 Q1000 CB TO SW AREA=
31-Jan-2017 SAID34 WIHH 310300 METAR WIOI 310300Z 06005KT 5000 HZ SCT018 27/24 Q1003 NOSIG=
31-Jan-2017 SAID34 WIHH 310600 METAR WIOI 310600Z 06005KT 7000 FEW018 29/24 Q1000 NOSIG=
01-Feb-2017 SAID35 WIOI 010000 METAR WIOI 010000Z 00000KT 6000 BKN010 24/23 Q1004=
01-Feb-2017 SAID31 WIHH 010600 METAR WIOI 010600Z 36003KT 6000 BKN020 29/24 Q1002=
01-Feb-2017 SAID31 WIHH 010900 METAR WIOI 010900Z 00000KT 5000 TS FEW018CB BKN036 24/21 Q1001 CB TO SW=
03-Feb-2017 SAID34 WIHH 030000 METAR WIOI 030000Z 00000KT 7000 BKN036 23/22 Q1003 NOSIG=
08-Feb-2017 SAID34 WIHH 080000 METAR WIOI 080000Z 00000KT 5000 BR FEW010 22/20 Q1003 NOSIG=
08-Feb-2017 SAID34 WIHH 080300 METAR WIOI 080300Z 00000KT 5000 HZ FEW018 27/22 Q1004 NOSIG=
08-Feb-2017 SAID34 WIHH 080600 METAR WIOI 080600Z 06006KT 5000 HZ FEW018CB BKN036 29/21 Q1002=
08-Feb-2017 SAID34 WIHH 080900 METAR WIOI 080900Z 00000KT 5000 HZ FEW018CB BKN036 28/22 Q1000 NOSIG=
09-Feb-2017 SAID31 WIHH 090300 METAR WIOI 090300Z 01008KT 5000 HZ FEW015 27/22 Q1003=
09-Feb-2017 SAID31 WIHH 090600 METAR WIOI 090600Z 01010KT 6000 FEW015 29/20 Q1001=
13-Feb-2017 SAID31 WIHH 130000 METAR WIOI 130000Z 00000KT 5000 BR SCT010 24/22 Q1005=
13-Feb-2017 SAID31 WIHH 130300 METAR WIOI 130300Z 36005KT 4000 BKN015 28/24 Q1006=
13-Feb-2017 SAID31 WIHH 130600 METAR WIOI 130600Z 26004KT 4000 TS FEW018CB FEW020 30/25 Q1003 CB TO SW=
13-Feb-2017 SAID34 WIHH 140600 METAR WIOI 130600Z 26004KT 4000 TS FEW018CB FEW020 30/25 Q1003 REMAK CB TO SW=
13-Feb-2017 SAID31 WIHH 140600 METAR WIOI 130600Z 26004KT 4000 TS FEW018CB FEW020 30/25 Q1003 REMAK CB TO SW=
13-Feb-2017 SAID31 WIHH 130900 METAR WIOI 130900Z 36008KT 2000 TS FFEW018CB BKN036 24/23 Q1002 CB TO SW=
14-Feb-2017 SAID34 WIHH 140000 METAR WIOI 140000Z 00000KT 6000 BKN018 23/22 Q1006=
14-Feb-2017 SAID34 WIHH 140300 METAR WIOI 140300Z 36006KT 4000 HZ BKN015 27/24 Q1006 NOSIG=
14-Feb-2017 SAID34 WIHH 140900 METAR WIOI 140900Z 36004KT 1000 TSRA FEW015CB FEW020 25/14=
16-Feb-2017 SAID34 WIHH 160600 METAR WIOI 160600Z 36005KT 6000 FEW018 27/23 Q1003 NOSIG=
16-Feb-2017 SAID34 WIHH 160900 METAR WIOI 160900Z 00000KT 6000 SCT018 27/24 Q1002 NOSIG=
17-Feb-2017 SAID31 WIHH 170000 METAR WIOI 170000Z 00000KT 7000 SCT010 23/22 Q1004=
17-Feb-2017 SAID31 WIHH 170300 METAR WIOI 170300Z 36006KT 7000 SCT015 28/23 Q1005=
17-Feb-2017 SAID31 WIHH 170600 METAR WIOI 170600Z 36005KT 3000 TSRA FEW018CB BKN036 28/23 Q1003 CB TO NW=
17-Feb-2017 SAID31 WIHH 170900 METAR WIOI 170900Z 00000KT 7000 TS FEW018CB BKN036 28/24 Q1001 CB TO NW=
20-Feb-2017 SAID34 WIHH 200000 METAR WIOI 200000Z 00000KT 5000 BR SCT010 23/22 Q1002 NOSIG=
21-Feb-2017 SAID31 WIHH 210300 METAR WIOI 210300Z 36003KT 6000 BKN015 28/25 Q1004=
21-Feb-2017 SAID31 WIHH 210600 METAR WIOI 210600Z 36005KT 4000 TS FEW015CB BKN036 28/25 Q1002 CB TO NW=
21-Feb-2017 SAID31 WIHH 210900 METAR WIOI 210900Z 36008KT 5000 TS FEW018CB BKN036 29/25 Q1000 CB TO NW=
22-Feb-2017 SAID34 WIHH 220000 METAR WIOI 220000Z 00000KT 7000 BKN015 24/23 Q1004 NOSIG=
22-Feb-2017 SAID34 WIHH 220900 METAR WIOI 220900Z 36006KT 5000 TSRA FEW018CB BKN036 28/24 Q1000 REMAK CB TO NW=
24-Feb-2017 SAID31 WIHH 240000 METAR WIOI 240000Z 00000KT 0700 BKN036 22/21 Q1006 NOSIG=
24-Feb-2017 SAID31 WIHH 240600 METAR WIOI 240600Z 36006KT 8000 FEW015CB BKN036 29/23 Q1003 NOSIG=
24-Feb-2017 SAID34 WIHH 240900 METAR WIOI 240900Z 00000KT 6000 FEW018CB BKN036 30/23 Q1001 RERA=
28-Feb-2017 SAID31 WIHH 280000 METAR WIOI 280000Z 00000KT 4000 HZ SCT010 24/23 Q1002=
28-Feb-2017 SAID31 WIHH 280300 METAR WIOI 280300Z 36005KT 6000 NSC 27/24 Q1003=
28-Feb-2017 SAID31 WIHH 280600 METAR WIOI 280600Z 36005KT 6000 FEW018CB FEW020 30/23 Q1000=
01-Mar-2017 SAID31 WIHH 010000 METAR WIOI 010000Z 00000KT 4000 BR SCT010 22/22 Q1003 NOSIG=
01-Mar-2017 SAID31 WIHH 010600 METAR WIOI 010600Z 36008KT 6000 SCT018 29/24 Q1008 NOSIG=
02-Mar-2017 SAID34 WIHH 020300 METAR WIOI 020300Z 00000KT 7000 BKN015 27/24 Q1004 NOSIG=
02-Mar-2017 SAID34 WIHH 020600 METAR WIOI 020600Z 36006KT 5000 FEW018CB BKN036 30/24 Q1002=
02-Mar-2017 SAID34 WIHH 020900 METAR WIOI 020900Z 36004KT 6000 SCT018 27/23 Q999 NOSIG=
08-Mar-2017 SAID31 WIHH 080000 METAR WIOI 080000Z 00000KT 5000 HZ SCT018 24/22 Q1002 NOSIG=
09-Mar-2017 SAID31 WIHH 090300 METAR WIOI 090300Z 00000KT 5000 HZ SCT018 27/24 Q1003 NOSIG=
09-Mar-2017 SAID31 WIHH 090600 METAR WIOI 090600Z 36005KT 5000 HZ SCT018 30/23 Q1000 NOSIG=
09-Mar-2017 SAID31 WIHH 090900 METAR WIOI 090900Z 36005KT 5000 HZ SCT018 29/24 Q998 NOSIG=
10-Mar-2017 SAID34 WIHH 100000 METAR WIOI 100000Z 00000KT 5000 HZ SCT010 24/23 Q1002=
10-Mar-2017 SAID34 WIHH 100300 METAR WIOI 100300Z 36005KT 5000 SCT018 29/23 Q1002 NOSIG=
10-Mar-2017 SAID34 WIHH 100600 METAR WIOI 100600Z 36005KT 5000 HZ SCT018 30/23 Q1000 NOSIG=
10-Mar-2017 SAID34 WIHH 100900 METAR WIOI 100900Z 36005KT 5000 HZ SCT018 29/24 Q998 NOSIG=
15-Mar-2017 SAID31 WIHH 150000 METAR WIOI 150000Z 00000KT 4000 BR FEW010 22/22 Q1004 NOSIG=
15-Mar-2017 SAID31 WIHH 150300 METAR WIOI 150300Z 00000KT 6000 SCT018 28/23 Q1004 NOSIG=
16-Mar-2017 SAID31 WIHH 160000 METAR WIOI 160000Z 00000KT 4000 BR SCT010 24/23 Q1003 NOSIG=
22-Mar-2017 SAID34 WIHH 220000 METAR WIOI 220000Z 00000KT 5000 HZ SCT015 25/23 Q1003 NOSIG=
22-Mar-2017 SAID34 WIHH 220300 METAR WIOI 220300Z 00000KT 5000 HZ SCT015 32/24 Q1004 NOSIG=
22-Mar-2017 SAID34 WIHH 220600 METAR WIOI 220600Z 36005KT 5000 HZ BKN018 32/24 Q1002 NOSIG=
24-Mar-2017 SAID31 WIHH 240000 METAR WIOI 240000Z 00000KT 4000 RA BKN018 24/24 Q1004 NOSIG=
24-Mar-2017 SAID31 WIHH 240900 METAR WIOI 240900Z 00000KT TS FEW015CB BKN018 31/24 Q999 RMK CB TO NW=
30-Mar-2017 SAID31 WIHH 300300 METAR WIOI 300300Z 36005KT 3000 HZ SCT015 27/26 Q1007 NOSIG=
30-Mar-2017 SAID31 WIHH 300600 METAR WIOI 300600Z 36006KT 6000 SCT018 BKN020 30/25 Q1004 NOSIG=
30-Mar-2017 SAID34 WIHH 300900 METAR WIOI 300900Z 00000KT 5000 TS FEW018CB BKN036 26/25 Q1002 RMK CB TO NW=
31-Mar-2017 SAID34 WIHH 310000 METAR WIOI 310000Z 00000KT 6000 BKN018 25/24 Q1005 NOSIG=
05-Apr-2017 SAID31 WIHH 050000 METAR WIOI 050000Z 00000KT 5000 BR FEW018 24/22 Q1003 NOSIG=
05-Apr-2017 SAID31 WIHH 050300 METAR WIOI 050300Z 00000KT 7000 SCT018 29/23 Q1003 NOSIG=
05-Apr-2017 SAID34 WIHH 050600 METAR WIOI 050600Z 36004KT 6000 SCT018 32/24 Q1000 NOSIG=
05-Apr-2017 SAID34 WIHH 050900 METAR WIOI 050900Z 00000KT 6000 TS FEW018CB 29/25 Q998 NOSIG=
06-Apr-2017 SAID34 WIHH 060300 METAR WIOI 060300Z 00000KT 7000 SCT020 30/25 Q1002 NOSIG=
17-Apr-2017 SAID31 WIHH 170300 METAR WIOI 170300Z 36004KT 6000 SCT018 27/24 Q1004 NOSIG=
17-Apr-2017 SAID31 WIHH 170900 METAR WIOI 170900Z 18006KT 7000 SCT018 32/24 Q999 NOSIG=
18-Apr-2017 SAID34 WIHH 180000 METAR WIOI 180000Z 00000KT 4000 SCT010 23/22 Q1004 NOSIG=
20-Apr-2017 SAID31 WIHH 200000 METAR WIOI 200000Z 00000KT 5000 HZ FEW018 25/23 Q1004 NOSIG=
20-Apr-2017 SAID31 WIHH 200300 METAR WIOI 200300Z 00000KT 7000 NSC 29/24 Q1006 NOSIG=
20-Apr-2017 SAID31 WIHH 200600 METAR WIOI 200600Z 00000KT 7000 SCT018 32/24 Q1001 NOSIG=
21-Apr-2017 SAID34 WIHH 210000 METAR WIOI 210000Z 00000KT 5000 HZ FEW018 25/23 Q1004 NOSIG=
21-Apr-2017 SAID34 WIHH 210600 METAR WIOI 210600Z 00000KT 7000 SCT018 32/24 Q1001 NOSIG=
22-Apr-2017 SAID34 WIHH 220000 METAR WIOI 220000Z 00000KT 5000 HZ FEW018 25/23 Q1004 NOSIG=
26-Apr-2017 SAID31 WIHH 260000 METAR WIOI 260000Z 00000KT 5000 HZ SCT018 24/23 Q1003 NOSIG=
26-Apr-2017 SAID31 WIHH 260300 METAR WIOI 260300Z 00000KT 7000 FEW018 30/23 Q1004 NOSIG=
27-Apr-2017 SAID34 WIHH 270300 METAR WIOI 270300Z 00000KT 7000 FEW018 30/23 Q1004 NOSIG=
27-Apr-2017 SAID34 WIHH 270600 METAR WIOI 270600Z 19004KT 7000 SCT015 31/23 Q1014 NOSIG=
27-Apr-2017 SAID34 WIHH 270900 METAR WIOI 270900Z 00000KT 3000 TS FEW015CB SCT018 25/23 Q1010=
28-Apr-2017 SAID34 WIHH 280000 METAR WIOI 280000Z 00000KT 5000 HZ SCT018 24/23 Q1003 NOSIG=
05-May-2017 SAID31 WIHH 050600 METAR WIOI 050600Z 00000KT 6000 SCT018 30/25 Q1002 NOSIG=
08-May-2017 SAID31 WIHH 080300 METAR WIOI 080300Z 00000KT 7000 SCT018 30/25 Q1004 NOSIG=
08-May-2017 SAID31 WIHH 080600 METAR WIOI 080600Z 18007KT 4000 TSRA FEW018CB FEW020 25/23 Q1002 RMK CB OTF=
09-May-2017 SAID34 WIHH 090600 METAR WIOI 090600Z 18007KT 4000 TSRA FEW018CB FEW020 25/23 Q1002 RMK CB OTF=
22-May-2017 SAID31 WIHH 220600 METAR WIOI 220600Z 18005KT 6000 FEW018CB FEW020 31/26 Q999 CB TO=
22-May-2017 SAID31 WIHH 220900 METAR WIOI 220900Z 36005KT 4000 TSRA FEW018CB FEW020 27/25 Q999 RMK CB TO=
24-May-2017 SAID34 WIHH 240000 METAR WIOI 240000Z 00000KT 4000 BR SCT010 24/24 Q1001 NOSIG=
25-May-2017 SAID34 WIHH 250000 METAR WIOI 250000Z 00000KT 4000 BR SCT010 24/24 Q1001 NOSIG=
16-Jun-2017 SAID31 WIHH 160600 METAR WIOI 160600Z 30006KT 8000 SCT018 32/23 Q1000 NOSIG=
16-Jun-2017 SAID31 WIHH 160900 METAR WIOI 160900Z 00000KT 8000 SCT018 34/24 Q999 NOSIG=
20-Jun-2017 SAID31 WIHH 200000 METAR WIOI 200000Z 00000KT 5000 HZ SCT018 23/22 Q1003 NOSIG=
20-Jun-2017 SAID31 WIHH 200300 METAR WIOI 200300Z 00000KT 7000 SCT018 29/23 Q1003 NOSIG=
20-Jun-2017 SAID34 WIHH 200600 METAR WIOI 200600Z 18003KT 6000 SCT018 30/24 Q1001 NOSIG=
20-Jun-2017 SAID34 WIHH 200900 METAR WIOI 200900Z 00000KT 6000 SCT018 30/24 Q999 NOSIG=
03-Jul-2017 SAID31 WIHH 030000 METAR WIOI 030000Z 00000KT 8000 FEW018 24/23 Q1002 NOSIG=
03-Jul-2017 SAID31 WIHH 030600 METAR WIOI 030600Z 27003KT 8000 SCT018 32/24 Q1001 NOSIG=
06-Jul-2017 SAID31 WIHH 060300 METAR WIOI 060300Z 00000KT 7000 SCT018 26/24 Q1005 NOSIG=
06-Jul-2017 SAID31 WIHH 060900 METAR WIOI 060900Z 00000KT 4000 TSRA FEW018CB FEW020 25/23 Q1002 RMK CB OTF=
12-Jul-2017 SAID34 WIHH 120600 METAR WIOI 120600Z 27005KT 7000 SCT018 28/25 Q1003 NOSIG=
18-Jul-2017 SAID31 WIHH 180300 METAR WIOI 180300Z 20004KT 7000 SCT018 29/25 Q1004 NOSIG=
20-Jul-2017 SAID31 WIHH 200000 METAR WIOI 200000Z 00000KT 6000 SCT018 25/23 Q1002 NOSIG=
20-Jul-2017 SAID31 WIHH 200300 METAR WIOI 200300Z 18008KT 9999 FEW018 29/24 Q1003 NOSIG=
21-Jul-2017 SAID31 WIHH 210000 METAR WIOI 210000Z 00000KT 5000 HZ SCT018 23/22 Q1003 NOSIG=
24-Jul-2017 SAID31 WIHH 240000 METAR WIOI 240000Z 00000KT 4000 HZ FEW018 24/23 Q10002 NOSIG=
24-Jul-2017 SAID31 WIHH 240600 METAR WIOI 240600Z 18007KT 6000 SCT018 33/24 Q999 NOSIG=
24-Jul-2017 SAID31 WIHH 240900 METAR WIOI 240900Z 18005KT 6000 SCT018 34/24 Q1002 NOSIG=
27-Jul-2017 SAID34 WIHH 270300 METAR WIOI 270300Z 18009KT 8000 FEW018 30/23 Q1011 NOSIG=
27-Jul-2017 SAID31 WIHH 270600 METAR WIOI 270600Z 22009KT 8000 FEW0018 33/23 Q1000 NOSIG=
02-Aug-2017 SAID31 WIHH 020000 METAR WIOI 020000Z 00000KT 4000 RA SCT010 23/23 Q1004 NOSIG=
08-Aug-2017 SAID31 WIHH 080000 METAR WIOI 080000Z 00000KT 4000 BR SCT010 24/23 Q1004 NOSIG=
08-Aug-2017 SAID31 WIHH 080300 METAR WIOI 080300Z 18003KT 5000 -RA BKN016 26/24 Q1005 NOSIG=
11-Aug-2017 SAID31 WIHH 110300 METAR WIOI 110300Z 18004KT 7000 SCT018 27/24 Q1004 NOSIG=
11-Aug-2017 SAID31 WIHH 110900 METAR WIOI 110900Z 03002KT 7000 FEW018CB FEW020 25/24 Q1000 RERA AND CB TO=
17-Aug-2017 SAID31 WIHH 170000 METAR WIOI 170000Z 000000KT 4000 BR BKN015 22/22 Q1002 NOSIG=
18-Aug-2017 SAID34 WIHH 180000 METAR WIOI 180000Z 00000KT 4000 BR BKN015 22/22 Q1002 NOSIG=
19-Aug-2017 SAID34 WIHH 190000 METAR WIOI 190000Z 00000KT 4000 BR BKN015 22/22 Q1002 NOSIG=
26-Oct-2017 SAID31 WIHH 260300 METAR WIOI 260300Z 27004KT 5000 HZ SCT018 30/24 Q1004 NOSIG=
28-Nov-2017 SAID31 WIHH 280600 METAR WIOI 280600Z 18006KT 7000 SCT018 31/24 Q997 NOSIG=
12-Dec-2017 SAID31 WIHH 120600 METAR WIOI 120600Z 35007KT 5000 HZ SCT015 30/24 Q1002 NOSIG=
13-Dec-2017 SAID34 WIHH 130600 METAR WIOI 130600Z 36004KT 5000 HZ FEW015 28/25 Q1003 NOSIG=
28-Dec-2017 SAID31 WIHH 280100 METAR WIOI 280100Z 27002KT HZ SCT020 24/23 Q1003 NOSIG=
06-Feb-2018 SAID31 WIHH 060300 METAR WIOI 060300Z 03004KT 4000 FEW015CB SCT017 26/24 Q1005 CB AND RA TO NW=
06-Feb-2018 SAID31 WIHH 060600 METAR WIOI 060600Z 06004KT 4000 BKN017 26/24 Q1003 NOSIG=
08-Feb-2018 SAID31 WIHH 080300 METAR WIOI 080300Z 06005KT 5000 SCT018 27/24 Q1005 NOSIG=
08-Feb-2018 SAID31 WIHH 080600 METAR WIOI 080600Z 03008KT 5000 SCT018 30/24 Q1002 NOSIG=
09-Feb-2018 SAID31 WIHH 090300 METAR WIOI 090300Z 03004KT 5000 SCT018 26/23 Q1005 NOSIG=
13-Feb-2018 SAID31 WIHH 130300 METAR WIOI 130300Z 30507KT 5000M HZ SCT015 28/22 Q1007 NOSIG=
15-Feb-2018 SAID31 WIHH 150300 METAR WIOI 150300Z 03007KT 5000 SCT018 28/25 Q1006 NOSIG=
15-Feb-2018 SAID31 WIHH 150600 METAR WIOI 150600Z 03006KT 5000 SCT018 31/25 Q1004 NOSIG=
21-Feb-2018 SAID31 WIHH 210300 METAR WIOI 210300Z 24002KT 5000 HZ SCT018 27/24 Q1001 NOSIG=
23-Feb-2018 SAID34 WIHH 230300 METAR WIOI 230300Z 27004KT 5000 SCT018 27/25 Q1003 NOSIG=
23-Feb-2018 SAID31 WIHH 230600 METAR WIOI 230600Z 18007KT 5000 TSRA FEW015CB SCT017 27/25 Q1000 RMK CB TO NW=
01-Mar-2018 SAID31 WIHH 010600 METAR WIOI 010600Z 27004KT 6000 FEWCB1500FT BKN017 29/24 Q1001 RMK CB TO NE=
02-Mar-2018 SAID31 WIHH 020300 METAR WIOI 020300Z 32005KT 6000 SCT018 29/24 Q1002 NOSIG=
02-Mar-2018 SAID31 WIHH 020600 METAR WIOI 020600Z 33005KT 7000 SCT018 32/22 Q1000 NOSIG=
07-Mar-2018 SAID34 WIHH 070300 METAR WIOI 070300Z 26005KT 6000 SCT018 27/23 Q1003 NOSIG=
08-Mar-2018 SAID31 WIHH 080300 METAR WIOI 080300Z 03005KT 8000 FEW018 29/21 Q1003 NOSIG=
12-Mar-2018 SAID31 WIHH 120300 METAR WIOI 120300Z 03008KT 4000 FEW015CB SCT017 27/25 Q1005 RMK CB RA TO N=
11-Apr-2018 SAID35 WIHH 110300 METAR WIOI 110300Z 02003KT 3000 TSRA FEW015CB SCT017 25/24 Q1004 RMK CB TO NE=
14-May-2018 SAID35 WICM 140300 METAR WIOI 140300Z 16003KT 6000 SCT018 30/24 Q1002 NOSIG=
14-May-2018 SAID35 WIHH 140300 METAR WIOI 140300Z 16003KT 6000 SCT018 30/24 Q1002 NOSIG=
14-May-2018 SAID35 WIHH 140600 METAR WIOI 140600Z 04003KT 6000 SCT018 32/24 Q1000 NOSIG=
17-May-2018 SAID35 WIHH 170600 METAR WIOI 170600Z 12003KT 5000 FEW015CB SCT017 31/24 Q999 RMK CB RA TO SE=
18-May-2018 SAID35 WIHH 180300 METAR WIOI 180300Z 08004KT 6000 SCT018 29/25 Q1000 NOSIG=
23-May-2018 SAID35 WIHH 230300 METAR WIOI 230300Z 01004KT 5000 SCT017 27/24 Q1003 NOSIG=
30-May-2018 SAID35 WIHH 300600 METAR WIOI 300600Z 18004KT 6000 SCT017 31/25 Q1000 NOSIG=
31-May-2018 SAID35 WIHH 310300 METAR WIOI 310300Z 02006KT 6000 BKN017 27/25 Q1003 NOSIG=
31-May-2018 SAID35 WIHH 310600 METAR WIOI 310600Z 27006KT 6000 SCT017 30/25 1002 NOSIG=
04-Jun-2018 SAID35 WIHH 040300 METAR WIOI 040300Z 12003KT 5000 SCT017 30/25 Q1001 NOSIG=
05-Jun-2018 SAID35 WIHH 050300 METAR WIOI 050300Z 12007KT 5000 SCT017 30/25 Q1002 NOSIG=
11-Jun-2018 SAID35 WIHH 110300 METAR WIOI 110300Z 22003KT 4000 SCT017 29/24 Q1004 NOSIG=
13-Jun-2018 SAID35 WIHH 130300 METAR WIOI 130300Z 22003KT 4000 BKN017 28/25 Q1003 NOSIG=
13-Jun-2018 SAID35 WIHH 130600 METAR WIOI 130600Z 12004KT 5000 SCT017 30/24 Q1001 NOSIG=
28-Jun-2018 SAID35 WIHH 280300 METAR WIOI 280300Z 09005KT 6000 SCT017 30/23 Q1003 NOSIG=
06-Jul-2018 SAID35 WIHH 060300 METAR WIOI 060300Z 16006KT 5000 SCT017 30/24 Q1001 NOSIG=
11-Jul-2018 SAID35 WIHH 120300 METAR WIOI 110300Z 18005KT 4000 SCT017 30/23 Q1002 NOSIG=
18-Jul-2018 SAID35 WIHH 180300 METAR WIOI 180300Z 16010KT 5000 SCT017 30/24 Q1001 NOSIG=
18-Jul-2018 SAID35 WIHH 180600 METAR WIOI 180600Z 18010KT 5000 SCT017 33/22 Q999 NOSIG=
05-Sep-2018 SAID35 WIHH 050300 METAR WIOI 050300Z 21006KT 5000 SCT017 30/23 Q1004 NOSIG=
13-Sep-2018 SAID35 WIHH 130300 METAR WIOI 130300Z 21006KT 5000 SCT017 30/24 Q1003 NOSIG=
20-Apr-2020 SAID35 WIOI 200100 METAR WIOI 200100Z 090/04KT 5000 HZ SCT1800 27/24 Q 1004=
20-Apr-2020 SAID35 WIOI 200200 METAR WIOI 200200Z 050/04KT 5000 HZ FEW1800 29/24 Q 1004=
20-Apr-2020 SAID35 WIOI 200500 METAR WIOI 200500Z 350/04KT 6000 SCT1800 32/24 Q 1002=
20-Apr-2020 SAID35 WIOI 200800 METAR WIOI 200800Z 330/04KT 5000 TS FEWCB1600 SCT1800 32/25 Q 999 CB TO NE.=
21-Apr-2020 SAID35 WIOI 210200 METAR WIOI 210200Z 350/04KT 4000 TS FEWCB1600 SCT1800 28/25 Q 1003 CB TO NE=
24-Apr-2020 SAID35 WIOI 240100 METAR WIOI 240100Z 00000 5000 HZ FEW1700 26/24 Q 1003.=
24-Apr-2020 SAID35 WIOI 240200 METAR WIOI 240200Z 280/04KT 5000 HZ FEW1700 28/24 Q 1003=
24-Apr-2020 SAID35 WIOI 240400 METAR WIOI 240400Z 260/05KT 6000 FEW1700 30/24 Q 1002=
01-Jul-2020 SAID35 WIOI 010600 METAR WIOI 010600Z 18005KT 4000 TSRA FEWCB1500FT BKN1600FT 25/23 Q1000 CB TO S=
02-Jul-2020 SAID35 WIOI 020000 METAR WIOI 020000Z 16003KT 5000 BKN1500FT 24/22 Q1002=
02-Jul-2020 SAID35 WIOI 020300 METAR WIOI 020300Z 18005KT 5000 BKN1600FT 26/24 Q1003=
02-Jul-2020 SAID35 WIOI 020600 METAR WIOI 020600Z 18007KT 5000 SCT1600FT 30/24 Q1001=
03-Jul-2020 SAID35 WIOI 030900 METAR WIOI 030900Z 06003KT 6000 SCT1600FT 31/24 Q999 NOSIG=
07-Jul-2020 SAID35 WIOI 070600 METAR WIOI 070600Z 21005KT 5000 25/24 Q1001=
08-Jul-2020 SAID35 WIOI 080000 METAR WIOI 080000Z 06003KT 5000 SCT1600FT 25/24 Q1002=
08-Jul-2020 SAID35 WIOI 080300 METAR WIOI 080300Z 06004KT 5000 SCT1600FT 28/24 Q1002=
08-Jul-2020 SAID35 WIOI 080900 METAR WIOI 080900Z 03004KT 2000 TSRA FEW1500FT BKN1600FT 23/22 Q1000 CB TO W=
10-Jul-2020 SAID35 WIOI 100000 METAR WIOI 100000Z 34004KT 4000 RA BKN1500FT 22/22 Q1003=
20-Jul-2020 SAID35 WIOI 200000 METAR WIOI 200000Z 18003KT 5000M HZ BKN1500FT 24/23 Q1001=
21-Jul-2020 SAID35 WIOI 210000 METAR WIOI 210000Z 16003KT 5000M HZ SCT1600FT 24/23 Q1002=
22-Jul-2020 SAID35 WIOI 220300 METAR WIOI 220300Z 21003KT 5000M HZ SCT1600FT 26/24 Q1002=
13-Oct-2020 SAID35 WIOI 130000 METAR WIOI 130000Z 03003KT 5000M HZ SCT1600FT 25/23 Q1002=
15-Oct-2020 SAID35 WIOI 150000 METAR WIOI 150000Z 06003KT 4000M HZ BKN1500FT 23/22 Q1001=
21-Oct-2020 SAID35 WIOI 210300 METAR WIOI 210300Z 21005KT 5000M HZ SCT1600FT 29/24 Q1001=
26-Oct-2020 SAID35 WIOI 260000 METAR WIOI 260000Z 18005KT 5000M HZ SCT1600FT 24/23 Q1003=
26-Oct-2020 SAID35 WIOI 260300 METAR WIOI 260300Z 21004KT 5000M HZ SCT1600FT 27/23 Q1002=
10-Nov-2020 SAID35 WIOI 100000 METAR WIOI 100000Z 09003KT 5000 HZ SCT1600FT 24/22 Q1003=
12-Nov-2020 SAID35 WIOI 120000 METAR WIOI 120000Z 18004KT 5000 HZ SCT1600FT 25/23 Q1002=
23-Nov-2020 SAID35 WIOI 230300 METAR WIOI 230300Z 27005KT 5000M HZ SCT1600FT 29/23 Q1001=
24-Nov-2020 SAID35 WIOI 240000 METAR WIOI 240000Z 16003KT 5000M HZ SCT1600FT 24/23 Q1003=
26-Nov-2020 SAID35 WIOI 260300 METAR WIOI 260300Z 24005KT 5000M HZ BKN1500FT 28/24 Q1004=
27-Nov-2020 SAID35 WIOI 270000 METAR WIOI 270000Z 03004KT 4000M HZ BKN1500FT 23/22 Q1004=
07-Dec-2020 SAID35 WIOI 070000 METAR WIOI 070000Z 06005KT 4000M HZ BKN 1500FT 23/22 Q1004=
08-Dec-2020 SAID35 WIOI 080300 METAR WIOI 080300Z 32004KT 5000M HZ SCT1600FT 28/25 Q1002=
23-Dec-2020 SAID35 WIOI 230000 METAR WIOI 230000Z 06003KT 5000M HZ SCT 1600FT 25/24 Q1003=
06-Jan-2021 SAID35 WIOI 060000 METAR WIOI 060000Z 09004KT 4000M HZ BKN1500FT 22/21 Q1003=
07-Jan-2021 SAID35 WIOI 070000 METAR WIOI 070000Z 16003KT 4000M HZ BKN1500FT 24/23 Q1004=
16-Feb-2021 SAID35 WIOI 160000 METAR WIOI 160000Z 03004KT 5000M HZ SCT1700FT 23/22 Q1004=
02-Mar-2021 SAID35 WIOI 020000 METAR WIOI 020000Z 03004KT 5000M HZ SCT1700FT 23/22 Q1006=
04-Mar-2021 SAID35 WIOI 040000 METAR WIOI 040000Z 23004KT 5000M HZ SCT1600FT 24/23 Q1004=
25-Oct-2021 SAID35 WIOI 250000 METAR WIOI 250000Z 09004KT 5000M HZ SCT1400FT 25/23 Q1010=
26-Oct-2021 SAID35 WIOI 260000 METAR WIOI 260000Z 06004KT 5000M HZ SCT1400FT 25/23 Q1010=
27-Oct-2021 SAID35 WIOI 270000 METAR WIOI 270000Z 03004KT 5000M HZ SCT1400FT 25/23 Q1010=
01-Nov-2021 SAID35 WIOI 010000 METAR WIOI 010000Z 06004KT 5000M HZ SCT1400FT 24/23 Q1010=
05-Nov-2021 SAID35 WIOI 050000 METAR WIOI 050000Z 09004KT 5000M HZ SCT1400FT 24/23 Q1010=
13-Nov-2021 SAID35 WIOI 130000 METAR WIOI 130000Z 18004KT 5000M HZ BKN1400FT 24/23 Q1013=
16-Nov-2021 SAID35 WIOI 160000 METAR WIOI 160000Z 16003KT 5000M HZ BKN1400FT 23/22 Q1012=
18-Nov-2021 SAID35 WIOI 180000 METAR WIOI 180000Z 26004KT 5000M HZ BKN1400FT 23/23 Q1011=
19-Nov-2021 SAID35 WIOI 190000 METAR WIOI 190000Z 09004KT 5000M HZ SCT1400FT 25/23 Q1011=
22-Nov-2021 SAID35 WIOI 220000 METAR WIOI 220000Z 09003KT 5000M HZ BKN1400FT 25/23 Q1013=
23-Nov-2021 SAID35 WIOI 230000 METAR WIOI 230000Z 12003KT 5000M HZ BKN1400FT 24/23 Q1012=
29-Nov-2021 SAID35 WIOI 290000 METAR WIOI 290000Z 09003KT 5000M HZ SCT1400FT 24/23 Q1011=
03-Dec-2021 SAID35 WIOI 030000 METAR WIOI 030000Z 13004KT 5000M HZ BKN1400FT 25/24 Q1015=
07-Dec-2021 SAID35 WIOI 070000 METAR WIOI 070000Z 09004KT 5000M HZ SCT1400FT 24/23 Q1013=
09-Dec-2021 SAID35 WIOI 090000 METAR WIOI 090000Z 11003KT 5000M HZ SCT1400FT 25/24 Q1014=
10-Dec-2021 SAID35 WIOI 100000 METAR WIOI 100000Z 18003KT 5000M HZ SCT1400FT 25/24 Q1013=
15-Dec-2021 SAID35 WIOI 150000 METAR WIOI 150000Z 21006KT 5000 HZ SCT1400FT 25/24 Q1010 NOSIG=
16-Dec-2021 SAID35 WIOI 160000 METAR WIOI 160000Z 18004KT 5000M HZ BKN1400FT 25/23 Q1012=
20-Dec-2021 SAID35 WIOI 200000 METAR WIOI 200000Z 14003KT 5000M HZ BKN1400FT 23/22 Q1014=
21-Dec-2021 SAID35 WIOI 210000 METAR WIOI 210000Z 13004KT 5000M HZ BKN1400FT 24/23 Q1015=
27-Dec-2021 SAID35 WIOI 270000 METAR WIOI 270000Z 09004KT 4000M HZ BKN1400FT 25/24 Q1015=
29-Dec-2021 SAID35 WIOI 290000 METAR WIOI 290000Z 09003KT 5000M HZ SCT1400FT 24/23 Q1013=
30-Dec-2021 SAID35 WIOI 300000 METAR WIOI 300000Z 03004KT 5000M HZ BKN1400FT 25/24 Q1014=
10-Jan-2022 SAID35 WIOI 100000 METAR WIOI 100000Z 09003KT 5000M HZ BKN1400FT 24/23 Q1014=
12-Jan-2022 SAID35 WIOI 120000 METAR WIOI 120000Z 32004KT 4000M BR BKN1400FT 24/23 Q1015=
12-Jan-2022 SAID35 WIOI 120300 METAR WIOI 120300Z 16008KT 5000M HZ SCT1400FT 27/23 Q1016=
12-Jan-2022 SAID35 WIOI 120600 METAR WIOI 120600Z 09008KT 4000 TSRA FEWCB1400FT BKN1500FT 27/24 Q1014 CB TO SW=
14-Jan-2022 SAID35 WIOI 140000 METAR WIOI 140000Z 27004KT 4000M BR BKN1400FT 23/22 Q1015=
14-Jan-2022 SAID35 WIOI 140300 METAR WIOI 140300Z 06006KT 5000 BKN1400FT 26/23 Q1016=
18-Jan-2022 SAID35 WIOI 180000 METAR WIOI 180000Z 03004KT 5000M HZ BKN1400FT 23/22 Q1014=
18-Jan-2022 SAID35 WIOI 180300 METAR WIOI 180300Z 06006KT 5000 FEWCB1400FT BKN1500FT 26/24 Q1014 CB TO SE=
20-Jan-2022 SAID35 WIOI 200000 METAR WIOI 200000Z 27004KT 4000M BR BKN1400FT 23/23 Q1013=
20-Jan-2022 SAID35 WIOI 200300 METAR WIOI 200300Z 32004KT 4000M -RA BKN1400FT 25/23 Q1014=
24-Jan-2022 SAID35 WIOI 240000 METAR WIOI 240000Z 09004KT 4000M BR BKN1400FT 24/23 Q1012=
24-Jan-2022 SAID35 WIOI 240300 METAR WIOI 240300Z 32005KT 5000 HZ BKN1400FT 28/24 Q1013=
26-Jan-2022 SAID35 WIOI 260000 METAR WIOI 260000Z 06004KT 5000M HZ SCT1400FT 23/22 Q1012=
28-Jan-2022 SAID35 WIOI 280300 METAR WIOI 280300Z 34004KT 5000 BKN1400FT 28/24 Q1015=
07-Feb-2022 SAID35 WIOI 070000 METAR WIOI 070000Z 09004KT 5000M HZ BKN1400FT 24/23 Q1012=
09-Feb-2022 SAID35 WIOI 090000 METAR WIOI 090000Z 13004KT 5000M HZ SCT1400FT 23/23 Q1014=
09-Feb-2022 SAID35 WIOI 090300 METAR WIOI 090300Z 34003KT 6000M HZ SCT1400FT 27/24 Q1013=
11-Feb-2022 SAID35 WIOI 110000 METAR WIOI 110000Z 09004KT 5000M HZ BKN1400FT 23/22 Q1013=
15-Feb-2022 SAID35 WIOI 150000 METAR WIOI 150000Z 03003KT 5000M BKN1400FT 23/22 Q1011=
15-Feb-2022 SAID35 WIOI 150300 METAR WIOI 150300Z 03005KT 5000 BKN1400FT 26/24 Q1012=
15-Feb-2022 SAID35 WIOI 150600 METAR WIOI 150600Z 13004KT 6000 BKN1400FT 30/24 Q1010=
21-Feb-2022 SAID35 WIOI 210000 METAR WIOI 210000Z 13004KT 5000M BKN1400FT 24/23 Q1013=
21-Feb-2022 SAID35 WIOI 210300 METAR WIOI 210300Z 21004KT 5000M HZ SCT1400FT 29/24 Q1014=
02-Mar-2022 SAID35 WIOI 020300 METAR WIOI 020300Z 09005KT 6000M SCT1400FT 30/24 Q1014=
02-Mar-2022 SAID35 WIOI 020600 METAR WIOI 020600Z 33005KT 6000 SCT1400FT 32/23 Q1011=
04-Mar-2022 SAID35 WIOI 040000 METAR WIOI 040000Z 13004KT 6000M SCT1400FT 24/22 Q1012=
08-Mar-2022 SAID35 WIOI 080300 METAR WIOI 080300Z 26005KT 6000M SCT1400FT 30/23 Q1001=
10-Mar-2022 SAID35 WIOI 100000 METAR WIOI 100000Z 09004KT 5000M SCT1400FT 24/23 Q1011=
10-Mar-2022 SAID35 WIOI 100300 METAR WIOI 100300Z 06003KT 5000M SCT1400FT 30/24 Q1012=
16-Mar-2022 SAID35 WIOI 160300 METAR WIOI 160300Z 06004KT 6000 SCT1400FT 29/23 Q1012=
18-Mar-2022 SAID35 WIOI 180000 METAR WIOI 180000Z 09004KT 4000M BR BKN1400FT 24/23 Q1011=
22-Mar-2022 SAID35 WIOI 220000 METAR WIOI 220000Z 16003KT 4000M BR BKN1400FT 23/22 Q1015=
24-Mar-2022 SAID35 WIOI 240000 METAR WIOI 240000Z 12004KT 5000M SCT1400FT 24/23 Q1013=
24-Mar-2022 SAID35 WIOI 240300 METAR WIOI 240300Z 03005KT 6000 SCT1600FT 30/24 Q1014=
24-Mar-2022 SAID35 WIOI 240600 METAR WIOI 240600Z 09005KT 6000 SCT1400FT 33/23 Q1011=
30-Mar-2022 SAID35 WIOI 300000 METAR WIOI 300000Z 09004KT 5000M SCT1400FT 23/22 Q1013=
05-Apr-2022 SAID35 WIOI 050600 METAR WIOI 050600Z 31012KT 5000 FEWCB1400FT BKN1500FT 28/23 Q1013 CB TO W=
07-Apr-2022 SAID35 WIOI 070300 METAR WIOI 070300Z 26005KT 6000 SCT1400FT 29/24 Q1014=
20-Apr-2022 SAID35 WIOI 200000 METAR WIOI 200000Z 14004KT 5000M SCT1400FT 24/23 Q1012=
26-Apr-2022 SAID35 WIOI 260000 METAR WIOI 260000Z 31004KT 5000M SCT1400FT 24/23 Q1011=
28-Apr-2022 SAID35 WIOI 280000 METAR WIOI 280000Z 14004KT 5000M SCT1400FT 24/23 Q1011=
28-Apr-2022 SAID35 WIOI 280300 METAR WIOI 280300Z 21004KT 6000 SCT1400FT 30/24 Q1012=
10-May-2022 SAID35 WIOI 100000 METAR WIOI 100000Z 06004KT 5000M HZ SCT1400FT 25/23 Q1011=
12-May-2022 SAID35 WIOI 120000 METAR WIOI 120000Z 06004KT 5000M HZ SCT1400FT 26/24 Q1012=
17-May-2022 SAID35 WIOI 170000 METAR WIOI 170000Z 06004KT 5000 SCT1400FT 25/24 Q1014=
19-May-2022 SAID35 WIOI 190000 METAR WIOI 190000Z 06004KT 5000 SCT1400FT 25/24 Q1014=
25-May-2022 SAID35 WIOI 250000 METAR WIOI 250000Z 06004KT 5000 SCT1400FT 24/23 Q1013=
27-May-2022 SAID35 WIOI 270000 METAR WIOI 270000Z 06004KT 5000 SCT1400FT 24/23 Q1012=
27-May-2022 SAID35 WIOI 270300 METAR WIOI 270300Z 31005KT 6000 SCT1400FT 30/23 Q1013=
31-May-2022 SAID35 WIOI 310000 METAR WIOI 310000Z 06004KT 5000 SCT1400FT 24/23 Q1011=
01-Jun-2022 SAID35 WIOI 010000 METAR WIOI 010000Z 06004KT 5000 BKN1400FT 24/23 Q1012=
03-Jun-2022 SAID35 WIOI 030000 METAR WIOI 030000Z 03004KT 5000 BKN1400FT 24/23 Q1013=
03-Jun-2022 SAID35 WIOI 030300 METAR WIOI 030300Z 18005KT 6000 SCT1400FT 30/24 Q1013=
07-Jun-2022 SAID35 WIOI 070000 METAR WIOI 070000Z 16004KT 5000 SCT1400FT 24/23 Q1012=
08-Jun-2022 SAID35 WIOI 080000 METAR WIOI 080000Z 03004KT 5000 SCT1400FT 24/23 Q1013=
16-Jun-2022 SAID35 WIOI 160000 METAR WIOI 160000Z 13004KT 5000 BKN1400FT 24/23 Q1013=
21-Jun-2022 SAID35 WIOI 210000 METAR WIOI 210000Z 06004KT 5000 SCT1400FT 24/23 Q1011=
22-Jun-2022 SAID35 WIOI 220000 METAR WIOI 220000Z 03004KT 5000 SCT1400FT 24/23 Q1012=
23-Jun-2022 SAID35 WIOI 230000 METAR WIOI 230000Z 06004KT 5000 SCT1400FT 24/23 Q1013=
28-Jun-2022 SAID35 WIOI 280300 METAR WIOI 280300Z 06004KT 5000 SCT1400FT 29/24 Q1012=
01-Jul-2022 SAID35 WIOI 010000 METAR WIOI 010000Z 06004KT 5000 BKN1400FT 24/23 Q1010=
04-Jul-2022 SAID35 WIOI 040000 METAR WIOI 040000Z 03004KT 5000 SCT1400FT 25/24 Q1011=
05-Jul-2022 SAID35 WIOI 050000 METAR WIOI 050000Z 14004KT 5000 SCT1400FT 24/23 Q1011=
07-Jul-2022 SAID35 WIOI 070000 METAR WIOI 070000Z 12004KT 5000 SCT1400FT 24/23 Q1013=
08-Jul-2022 SAID35 WIOI 080000 METAR WIOI 080000Z 06004KT 5000 SCT1400FT 24/23 Q1012=
14-Jul-2022 SAID35 WIOI 140000 METAR WIOI 140000Z 06004KT 5000 SCT1400FT 24/23 Q1012=
15-Jul-2022 SAID35 WIOI 150000 METAR WIOI 150000Z 24005KT 6000 SCT1400FT 30/23 Q1012=
18-Jul-2022 SAID35 WIOI 180000 METAR WIOI 180000Z 06004KT 5000 BKN1400FT 23/22 Q1012=
19-Jul-2022 SAID35 WIOI 190000 METAR WIOI 190000Z 12003KT 5000 SCT1400FT 23/22 Q1012=
26-Jul-2022 SAID35 WIOI 260000 METAR WIOI 260000Z 03004KT 5000 SCT1400FT 24/23 Q1012=
27-Jul-2022 SAID35 WIOI 270000 METAR WIOI 270000Z 09004KT 5000 SCT1400FT 24/23 Q1011=
02-Aug-2022 SAID35 WIOI 020000 METAR WIOI 020000Z 14004KT 5000 SCT1400FT 24/23 Q1011=
02-Aug-2022 SAID35 WIOI 020300 METAR WIOI 020300Z 18005KT 5000 BKN1600FT 26/24 Q1003=
05-Aug-2022 SAID35 WIOI 050000 METAR WIOI 050000Z 09004KT 5000 BKN1400FT 24/23 Q1014=
08-Aug-2022 SAID35 WIOI 080300 METAR WIOI 080300Z 16008KT 5000 SCT1400FT 29/24 Q1011=
08-Aug-2022 SAID35 WIOI 080600 METAR WIOI 080600Z 16007KT 5000 SCT1400FT 33/23 Q1009=
08-Aug-2022 SAID35 WIOI 080900 METAR WIOI 080900Z 18007KT 5000 SCT1400FT 32/22 Q1008=
09-Aug-2022 SAID35 WIOI 090000 METAR WIOI 090000Z 21004KT 4000 BKN1400FT 24/23 Q1012=
09-Aug-2022 SAID35 WIOI 090300 METAR WIOI 090300Z 21004KT 5000 SCT1400FT 30/24 Q1012=
09-Aug-2022 SAID35 WIOI 090900 METAR WIOI 090900Z 21005KT 5000 SCT1400FT 33/23 Q1007=
10-Aug-2022 SAID35 WIOI 100000 METAR WIOI 100000Z 14004KT 5000 SCT1400FT 24/23 Q1012=
10-Aug-2022 SAID35 WIOI 100300 METAR WIOI 100300Z 16005KT 5000 SCT1400FT 29/25 Q1011=
11-Aug-2022 SAID35 WIOI 110000 METAR WIOI 110000Z 09004KT 5000 BKN1400FT 23/23 Q1012=
11-Aug-2022 SAID35 WIOI 110300 METAR WIOI 110300Z 26005KT 6000 SCT1400FT 30/24 Q1012=
15-Aug-2022 SAID35 WIOI 150000 METAR WIOI 150000Z 14004KT 5000 SCT1400FT 24/23 Q1013=
15-Aug-2022 SAID35 WIOI 150300 METAR WIOI 150300Z 23005KT 5000 SCT1400FT 30/24 Q1014=
16-Aug-2022 SAID35 WIOI 160300 METAR WIOI 160300Z 23005KT 6000 SCT1400FT 30/24 Q1012=
16-Aug-2022 SAID35 WIOI 160600 METAR WIOI 160600Z 27005KT 6000 SCT1400FT 33/23 Q1011=
19-Aug-2022 SAID35 WIOI 190000 METAR WIOI 190000Z 09003KT 5000 SCT1400FT 24/23 Q1012=
19-Aug-2022 SAID35 WIOI 190300 METAR WIOI 190300Z 27005KT 6000 SCT1400FT 30/24 Q1012=
19-Aug-2022 SAID35 WIOI 190600 METAR WIOI 190600Z 34005KT 5000 TS FEWCB1400FT BKN1500FT 32/23 Q1009 CB RA TO E=
22-Aug-2022 SAID35 WIOI 220000 METAR WIOI 220000Z 21004KT 5000 SCT1400FT 24/23 Q1013=
23-Aug-2022 SAID35 WIOI 230000 METAR WIOI 230000Z 03004KT 5000 BKN1400FT 24/23 Q1012=
23-Aug-2022 SAID35 WIOI 230300 METAR WIOI 230300Z 03005KT 6000 SCT1400FT 29/23 Q1013=
25-Aug-2022 SAID35 WIOI 250000 METAR WIOI 250000Z 03004KT 4000 BKN1400FT 23/22 Q1012=
31-Aug-2022 SAID35 WIOI 310000 METAR WIOI 310000Z 21004KT 5000 SCT1400FT 24/23 Q1011=
31-Aug-2022 SAID35 WIOI 310300 METAR WIOI 310300Z 12004KT 6000 SCT1400FT 28/24 Q1013=
01-Sep-2022 SAID35 WIOI 010000 METAR WIOI 010000Z 14004KT 6000 SCT1400FT 24/23 Q1012=
06-Sep-2022 SAID35 WIOI 060000 METAR WIOI 060000Z 06004KT 5000 BKN1400FT 24/23 Q1013=
08-Sep-2022 SAID35 WIOI 080300 METAR WIOI 080300Z 33004KT 6000 SCT1400FT 27/22 Q1017=
08-Sep-2022 SAID35 WIOI 080600 METAR WIOI 080600Z 27005KT 6000 BKN1400FT 29/22 Q1014=
12-Sep-2022 SAID35 WIOI 120000 METAR WIOI 120000Z 09004KT 6000 SCT1400FT 25/24 Q1013=
26-Sep-2022 SAID35 WIOI 260000 METAR WIOI 260000Z 09004KT 5000 SCT1400FT 24/23 Q1013=
30-Sep-2022 SAID35 WIOI 300300 METAR WIOI 300300Z 03007KT 6000 SCT1400FT 30/23 Q1013=
26-Oct-2022 SAID35 WIOI 260000 METAR WIOI 260000Z 24004KT 5000 BKN1400FT 24/23 Q1013=
26-Oct-2022 SAID35 WIOI 260300 METAR WIOI 260300Z 21008KT 6000 SCT1400FT 30/24 Q1014=
09-Nov-2022 SAID35 WIOI 090000 METAR WIOI 090000Z 16004KT 5000 BKN1400FT 24/23 Q1013=
10-Nov-2022 SAID35 WIOI 100000 METAR WIOI 100000Z 32004KT 5000 BKN1400FT 24/23 Q1012=
11-Nov-2022 SAID35 WIOI 110000 METAR WIOI 110000Z 09004KT 5000 SCT1400FT 23/23 Q1012=
16-Nov-2022 SAID35 WIOI 160000 METAR WIOI 160000Z 28004KT 6000 BKN1400FT 23/22 Q1011=
16-Nov-2022 SAID31 WIHH 160400 METAR WIOI 160400Z 32003KT 6000 SCT014 29/24 Q1011 NOSIG=
16-Nov-2022 SAID31 WIHH 160800 METAR WIOI 160800Z 23006KT 3000 TSRA FEWCB014 BKN015 25/14 1009 CB TO S=
20-Nov-2022 SAID35 WIOI 200000 METAR WIOI 200000Z 27004KT 6000 SCT1400FT 24/23 Q1011=
21-Nov-2022 SAID35 WIOI 210300 METAR WIOI 210300Z 18007KT 6000 SCT1400FT 30/24 Q1012=
22-Nov-2022 SAID35 WIOI 220000 METAR WIOI 220000Z 32004KT 6000 SCT1400FT 24/23 Q1012=
22-Nov-2022 SAID35 WIOI 220300 METAR WIOI 220300Z 14005KT 6000 SCT1400FT 30/23 Q1012=
25-Nov-2022 SAID35 WIOI 250300 METAR WIOI 250300Z 31005KT 6000 SCT1400FT 29/23 Q1015=
28-Nov-2022 SAID35 WIOI 280000 METAR WIOI 280000Z 32003KT 5000 SCT1400FT 24/23 Q1012=
29-Nov-2022 SAID35 WIOI 290000 METAR WIOI 290000Z 14003KT 6000 SCT1400FT 24/23 Q1013=
01-Dec-2022 SAID35 WIOI 010000 METAR WIOI 010000Z 16004KT 5000 BKN1400FT 23/23 Q1011=
02-Dec-2022 SAID35 WIOI 020000 METAR WIOI 020000Z 06004KT 5000 SCT1400FT 24/23 Q1010=
05-Dec-2022 SAID35 WIOI 050300 METAR WIOI 050300Z 18005KT 6000 SCT1400FT 29/22 Q1013=
05-Dec-2022 SAID35 WIOI 050600 METAR WIOI 050600Z 18006KT 6000 SCT1400FT 3091/23 Q1010=
06-Dec-2022 SAID35 WIOI 060000 METAR WIOI 060000Z 21003KT 6000 SCT1400FT 24/23 Q1011=
06-Dec-2022 SAID35 WIOI 060300 METAR WIOI 060300Z 26005KT 6000 SCT1400FT 29/24 Q1012=
07-Dec-2022 SAID35 WIOI 070000 METAR WIOI 070000Z 12004KT 6000 SCT1400FT 24/23 Q1011=
02-Jan-2023 SAID35 WIOI 020000 METAR WIOI 020000Z 12004KT 5000 BKN1400FT 24/23 Q1015=
02-Jan-2023 SAID35 WIOI 020300 METAR WIOI 020300Z 34004KT 6000 BKN1600FT 27/23 Q1016=
04-Jan-2023 SAID35 WIOI 040000 METAR WIOI 040000Z 09004KT 5000 BKN1400FT 24/23 Q1013=
05-Jan-2023 SAID35 WIOI 050000 METAR WIOI 050000Z 13004KT 5000 BKN1400FT 24/23 Q1013=
06-Jan-2023 SAID35 WIOI 060000 METAR WIOI 060000Z 09004KT 4000 BKN1400FT 24/23 Q1013=
06-Jan-2023 SAID35 WIOI 060300 METAR WIOI 060300Z 24005KT 5000 FEW1400FT BKN1500FT 27/24 Q1014 CB TO E=
09-Jan-2023 SAID35 WIOI 090000 METAR WIOI 090000Z 09004KT 5000 BKN1400FT 24/23 Q1015=
09-Jan-2023 SAID35 WIOI 090130 METAR WIOI 090130Z 00000KT 6000 SCTO14 22/21 Q1016=
09-Jan-2023 SAID35 WIOI 090300 METAR WIOI 090300Z 00000KT 6000 SCT014 28/23 Q1016=
09-Jan-2023 SAID35 WIOI 090600 METAR WIOI 090600Z 27005KT 6000 SCT1600 30/23 Q1014=
09-Jan-2023 SAID35 WIOI 090700 METAR WIOI 090700Z 24004KT 6000 SCT014 28/24 Q1012=
09-Jan-2023 SAID35 WIOI 090800 METAR WIOI 090800Z 24004KT 6000 SCT014 28/24 Q1012=
09-Jan-2023 SAID35 WIOI 090900 METAR WIOI 090900Z 14005KT 6000 FEWCB1400FT BKN1500FT 28/24 Q999 CB TO N=
09-Jan-2023 SAID31 WIOI 090900 METAR WIOI 090900Z 14005KT 6000 HZ SCT014 28/24 Q1012=
10-Jan-2023 SAID35 WIOI 100200 METAR WIOI 100200Z 21004KT 5000 SCT015 25/23 Q1015 NOSIG=
10-Jan-2023 SAID35 WIOI 100300 METAR WIOI 100300Z 27005KT 6000 SCT1400FT 27/24 Q1015=
11-Jan-2023 SAID35 WIOI 110000 METAR WIOI 110000Z 14003KT 6000 SCT1400FT 24/23 Q1014=
11-Jan-2023 SAID35 WIOI 110300 METAR WIOI 110300Z 34005KT 6000 SCT1400FT 29/24 Q1015=
12-Jan-2023 SAID35 WIOI 120000 METAR WIOI 120000Z 09004KT 5000 SCT1400FT 24/23 Q1014=
13-Jan-2023 SAID35 WIOI 130000 METAR WIOI 130000Z 09004KT 5000 BKN1400FT 24/23 Q1015=
13-Jan-2023 SAID35 WIOI 130900 METAR WIOI 130900Z 12005KT 4000 TSRA FEW1400FT BKN1500FT 25/23 Q1012 CB TO NE=
16-Jan-2023 SAID35 WIOI 160000 METAR WIOI 160000Z 09004KT 6000 SCT1400FT 24/23 Q1014=
17-Jan-2023 SAID35 WIOI 170000 METAR WIOI 170000Z 12004KT 6000 SCT014 24/23 Q1014=
17-Jan-2023 SAID35 WIOI 170300 METAR WIOI 170300Z 06005KT 6000 SCT1400FT 29/23 Q1014=
17-Jan-2023 SAID35 WIOI 170900 METAR WIOI 170900Z 06005KT 6000 SCT1600FT 31/24 Q1010=
18-Jan-2023 SAID35 WIOI 180000 METAR WIOI 180000Z 09004KT 6000 BKN1400FT 24/23 Q1015=
18-Jan-2023 SAID35 WIOI 180300 METAR WIOI 180300Z 32005KT 6000M SCT1400FT 29/23 Q1016=
18-Jan-2023 SAID35 WIOI 180900 METAR WIOI 180900Z 06005KT 6000 FEW1400FT SCT1500FT 28/23 Q1011 CB TO SE=
19-Jan-2023 SAID35 WIOI 190000 METAR WIOI 190000Z 09004KT 6000 SCT1400FT 24/23 Q1013=
19-Jan-2023 SAID35 WIOI 190900 METAR WIOI 190900Z 09005KT 5000 TS FEWCB1400FT BKN1500FT 26/23 Q1010 CB RA TO E=
20-Jan-2023 SAID35 WIOI 200000 METAR WIOI 200000Z 03004KT 4000 BKN1400FT 23/22 Q1014=
20-Jan-2023 SAID35 WIOI 200600 METAR WIOI 200600Z 16005KT 6000 SCT1400FT 29/23 Q1011=
24-Jan-2023 SAID35 WIOI 240000 METAR WIOI 240000Z 09004KT 5000 BKN1400FT 24/23 Q1011=
24-Jan-2023 SAID35 WIOI 240300 METAR WIOI 240300Z 31005KT 6000 FEWCB1400FT BKN1400FT 29/23 Q1011 CB TO S=
27-Jan-2023 SAID35 WIOI 270000 METAR WIOI 270000Z 09004KT 5000 BKN1400FT 24/23 Q1014=
27-Jan-2023 SAID35 WIOI 270300 METAR WIOI 270300Z 16005KT 5000 BKN1400FT 26/23 Q1012=
30-Jan-2023 SAID35 WIOI 300000 METAR WIOI 300000Z 06004KT 5000 BKN014 24/23 Q1014=
30-Jan-2023 SAID35 WIOI 300400 METAR WIOI 300400Z 00000KT 6000 SCT015 24/23 Q1012 NOSIG=
30-Jan-2023 SAID35 WIOI 300600 METAR WIOI 300600Z 09006KT 6000 SCT1400FT 29/24 Q1010=
31-Jan-2023 SAID35 WIOI 310700 METAR WIOI 310700Z 12005KT 5000 HZ SCT015 26/24 Q1009 NOSIG=
31-Jan-2023 SAID35 WIOI 310800 METAR WIOI 310800Z 34004KT 5000 RA FEWCB014 27/24 Q1008=
31-Jan-2023 SAID35 WIOI 310900 METAR WIOI 310900Z 21006KT 5000 FEW1400FT BKN1500FT 26/24 SLRA Q1008 CB TO SW=
01-Feb-2023 SAID35 WIOI 010200 METAR WIOI 010200Z 35005KT 5000 HZ SCT015 25/23 Q1012 NOSIG=
01-Feb-2023 SAID35 WIOI 010300 METAR WIOI 010300Z 6000 FEWCB1400FT BKN1500FT 26/23 Q1012 CB TO NE=
02-Feb-2023 SAID35 WIOI 020100 METAR WIOI 020100Z 16005KT 6000 FEW015 25/23 Q1013=
02-Feb-2023 SAID35 WIOI 020200 METAR WIOI 020200Z 14004KT 6000 FEW 015 26/23 Q1013=
02-Feb-2023 SAID62 WIOI 020400 METAR WIOI 020400Z 26004KT 6000 SCT014 28/24 Q1012=
02-Feb-2023 SAID62 WIOI 020500 METAR WIOI 020500Z 23004KT 7000 SCT014 29/23 Q1011 NOSIG=
02-Feb-2023 SAID62 WIOI 020600 METAR WIOI 020600Z 23004KT 7000 SCT014 30/23 Q1010=
02-Feb-2023 SAID62 WIOI 020700 METAR WIOI 020700Z 19004KT 7000 SCT014 29/23 Q1009=
02-Feb-2023 SAID62 WIOI 020800 METAR WIOI 020800Z 21004KT 7000 SCT 014 31/22 Q1009=
03-Feb-2023 SAID35 WIOI 030000 METAR WIOI 030000Z 13004KT 5000 HZ FEW015 22/21 Q1012 NOSIG=
03-Feb-2023 SAID62 WIOI 030100 METAR WIOI 030100Z 13005KT 5000 HZ FEW015 24/23 Q1013=
03-Feb-2023 SAID62 WIOI 030500 METAR WIOI 030500Z 31004KT 7000 NIL SCT014 28/23 Q1012=
03-Feb-2023 SAID62 WIOI 030700 METAR WIOI 030700Z 25004KT 7000 SCT014 30/23 Q1009=
03-Feb-2023 SAID62 WIOI 030800 METAR WIOI 030800Z 34005KT 7000 SCT014 30/23 Q1008=
03-Feb-2023 SAID62 WIOI 030900 METAR WIOI 030900Z 34008KT 4000 RA SCT014 24/22 Q1009=
07-Feb-2023 SAID62 WIOI 070100 METAR WIOI 070100Z 08004KT 5000 HZ FEW015 25/23 Q1014=
07-Feb-2023 SAID62 WIOI 070200 METAR WIOI 070200Z 25004KT 5000 HZ FEW015 26/24 Q1014=
07-Feb-2023 SAID62 WIOI 070300 METAR WIOI 070300Z 31005KT 6000 SCT015 27/23 Q1014 =
07-Feb-2023 SAID62 WIOI 070400 METAR WIOI 070400Z 01007KT 6000 SCT 015 29/23 Q1013=
07-Feb-2023 SAID62 WI0I 070500 METAR WIOI 070500Z 26004KT 6000 SCT015 30/23 Q1012=
07-Feb-2023 SAID62 WIOI 070500 METAR WIOI 070500Z 32005KT 7000 FEW015 31/22 Q1011=
07-Feb-2023 SAID62 WIOI 070700 METAR WIOI 070700Z 23005KT 7000 SCT015 31/23 Q1010=
07-Feb-2023 SAID62 WIOI 070800 METAR WIOI 070800Z 33004KT 7000 SCT015 31/22 Q1010 =
08-Feb-2023 SAID62 WIOI 080000 METAR WIOI 080000Z 01004KT 6000 FEW015 23/23 Q1011=
08-Feb-2023 SAID62 WIOI 080300 METAR WIOI 080300Z 32004KT 6000 FEW015 29/23 Q1012=
08-Feb-2023 SAID62 WIOI 080400 METAR WIOI 080400Z 32004KT 6000 FEW015 29/23 Q1012 =
08-Feb-2023 SAID62 WIOI 080500 METAR WIOI 080500Z 32005KT 7000 FEW015 31/22 Q1011=
08-Feb-2023 SAID62 WIOI 080600 METAR WIOI 080600Z 30004KT 7000 FEW015 32/22 Q1010 =
08-Feb-2023 SAID62 WIOI 080700 METAR WIOI 080700Z 25005KT 7000 FEW015 32/22 Q1010=
08-Feb-2023 SAID62 WIOI 080800 METAR WIOI 080800Z 25004KT 7000 FEW015 31/22 Q1009=
08-Feb-2023 SAID62 WIOI 080900 METAR WIOI 080900Z 26006KT 7000 FEW015 31/22 Q1009=
09-Feb-2023 SAID35 WIOI 090900 METAR WIOI 090900Z 16004KT 5000 FEWCB1400FT BKN1500FT 31/22 Q1008 CB RA TO SW=
10-Feb-2023 SAID35 WIOI 100000 METAR WIOI 100000Z 09004KT 5000 BKN1400FT 23/22 Q1012=
10-Feb-2023 SAID62 WIOI 100800 METAR WIOI 100800Z 06004KT 6000 SCT014 30/24 Q1009=
13-Feb-2023 SAID35 WIOI 130000 METAR WIOI 130000Z 16004KT 5000 BKN014 23/23 Q1014=
13-Feb-2023 SAID62 WI0I 130400 METAR WIOI 130400Z 03004KT 6000 SCT015 27/23 Q1015=
13-Feb-2023 SAID62 WIOI 130600 METAR WIOI 130600Z 09004KT 4000 RA SCT015 24/22 Q1013=
13-Feb-2023 SAID62 WIOI 130700 METAR WIOI 130700Z 17004KT 4000 RA SCT015 24/23 Q1012=
13-Feb-2023 SAID62 WIOI 130800 METAR WIOI 130800Z 16004KT 4000 RA FEWCB014 26/24 Q1012=
14-Feb-2023 SAID62 WIOI 140300 METAR WIOI 140300Z 03005KT 6000 SCT015 28/23 Q1014 =
14-Feb-2023 SAID62 WIOI 140400 METAR WIOI 140400Z 6000 SCT015 29/23 Q1014=
14-Feb-2023 SAID62 WIOI 140600 METAR WIOI 140600Z 6000 HZ SCT015 31/22 Q1011=
14-Feb-2023 SAID62 WIOI 140700 METAR WIOI 140700Z 31007KT 6000 SCT015 31/22 Q1010=
15-Feb-2023 SAID62 WIOI 150700 METAR WIOI 150700Z 03016KT 5000 TS FEW015CB 28/24 Q 1010=
16-Feb-2023 SAID35 WIOI 160000 METAR WIOI 160000Z 09004KT 5000 SCT1400FT 23/22 Q1013=
16-Feb-2023 SAID62 WIOI 160700 METAR WIOI 160700Z 03005KT 6000 SCT014 31/22 Q1011=
16-Feb-2023 SAID62 WIOI 160800 METAR WIOI 160800Z 03004KT 6000 SCT014 31/22 Q1010 =
17-Feb-2023 SAID35 WIOI 170000 METAR WIOI 170000Z 09003KT 5000 SCT1400FT 23/23 Q1014=
22-Feb-2023 SAID35 WIOI 220300 METAR WIOI 220300Z 83005KT 6000 SCT1400FT 28/23 Q1015=
23-Feb-2023 SAID35 WIOI 230000 METAR WIOI 230000Z 09004KT 6000 SCT1400FT 24/23 Q1013=
23-Feb-2023 SAID35 WIOI 230300 METAR WIOI 230300Z 03007KT 6000 SCT1400FT 28/23 Q1013=
23-Feb-2023 SAID62 WIOI 230700 METAR WIOI 230700Z 01013KT 6000 SCT015 30/23 Q1009=
27-Feb-2023 SAID35 WIOI 270000 METAR WIOI 270000Z 03004KT 5000 BKN1400FT 23/22 Q1014=
01-Mar-2023 SAID35 WIOI 010000 METAR WIOI 010000Z 09003KT 4000 RA BKN1400FT 23/23 Q1016=
01-Mar-2023 SAID35 WIOI 010300 METAR WIOI 010300Z 03004KT 4000 RA BKN1400FT 24/23 Q1017=
03-Mar-2023 SAID35 WIOI 030000 METAR WIOI 030000Z 34004KT 5000 HZ SCT015 24/23 Q1015=
03-Mar-2023 SAID35 WIOI 030100 METAR WIOI 030100Z 36004KT 5000 HZ BKN014 25/24 Q1016 =
03-Mar-2023 SAID35 WIOI 030200 METAR WIOI 030200Z 21004KT 6000 BKN014 27/24 Q1017 =
03-Mar-2023 SAID35 WIOI 030300 METAR WIOI 030300Z 21008KT 6000 BKN014 28/24 Q1017=
03-Mar-2023 SAID62 WIOI 030500 METAR WIOI 030500Z 02013KT 6000 HZ OVC014 27/25 Q1015 =
03-Mar-2023 SAID62 WIOI 030600 METAR WIOI 030600Z 33008KT 6000 OVC014 25/23 Q1015 =
03-Mar-2023 SAID62 WIOI 030700 METAR WIOI 030700Z 33008KT 5000 TS FEWCB015 OVC014 24/23 Q1015=
03-Mar-2023 SAID62 WIOI 030800 METAR WIOI 030800Z 33004KT 4000 TSRA FEWCB015 OVC014 23/22 Q1014=
07-Mar-2023 SAID35 WIOI 070000 METAR WIOI 070000Z 24003KT 5000 SCT1400FT 24/23 Q1015=
07-Mar-2023 SAID35 WIOI 070300 METAR WIOI 070300Z 22004KT 6000 SCT015 27/23 Q1016 =
07-Mar-2023 SAID35 WIOI 070400 METAR WIOI 070400Z 34003KT 6000 SCT015 28/23 Q1015=
09-Mar-2023 SAID35 WIOI 090300 METAR WIOI 090300Z 08005KT 4000 RA OVC014 24/23 Q1016=
09-Mar-2023 SAID35 WIOI 090400 METAR WIOI 090400Z 11004KT 4000 RA BKN014 24/23 Q1015=
09-Mar-2023 SAID35 WIOI 090500 METAR WIOI 090500Z 11004KT 4000 RA BKN014 24/23 Q1014=
09-Mar-2023 SAID35 WIOI 090700 METAR WIOI 090700Z 33004KT 5000 HZ BKN014 27/24 Q1012=
27-Mar-2023 SAID62 WIOI 270100 METAR WIOI 270100Z 10004KT 6000 FEW015 27/24 Q1013 =
27-Mar-2023 SAID62 WIOI 270300 METAR WIOI 270300Z 05004KT 7000 FEW015 29/24 Q1013=
27-Mar-2023 SAID62 WIOI 270400 METAR WIOI 270400Z 02004KT 7000 FEW015 30/24 Q1012=
29-Mar-2023 SAID35 WIOI 290000 METAR WIOI 290000Z 03004KT 5000 BKN1400FT 24/23 Q1013=
31-Mar-2023 SAID35 WIOI 310000 METAR WIOI 310000Z 21004KT 6000 SCT014 24/23 Q1013=
31-Mar-2023 SAID35 WIOI 310300 METAR WIOI 310300Z 32004KT 6000 SCT1400FT 29/23 Q1014=
05-Apr-2023 SAID35 WIOI 050300 METAR WIOI 050300Z 21004KT 6000 SCT1400FT 29/23 Q1014=
06-Apr-2023 SAID35 WIOI 060300 METAR WIOI 060300Z 22007KT 6000 SCT1400FT 30/24 Q1015=
06-Apr-2023 SAID35 WIOI 060400 METAR WIOI 060400Z 21005KT 6000 SCT015 30/24 Q1014=
12-Apr-2023 SAID35 WIOI 120000 METAR WIOI 120000Z 14003KT 6000 SCT1400FT 24/23 Q1013=
03-May-2023 SAID35 WIOI 030000 METAR WIOI 030000Z 09004KT 6000 SCT1400FT 24/23 Q1013=
04-May-2023 SAID35 WIOI 040000 METAR WIOI 040000Z 14003KT 6000 SCT1400FT 24/23 Q1012=
10-May-2023 SAID35 WIOI 100000 METAR WIOI 100000Z 09004KT 5000 SCT014 23/22 Q1013=
10-May-2023 SAID35 WIOI 100100 METAR WIOI 100100Z 13004KT 5000 HZ SCT012 25/23 Q1013 =
10-May-2023 SAID35 WIOI 100130 METAR WIOI 100130Z 17004KT 5000 HZ SCT012 26/23 Q1013=
10-May-2023 SAID35 WIOI 100200 METAR WIOI 100200Z 14005KT 6000 SCT014 28/23 Q1014=
10-May-2023 SAID35 WIOI 100230 METAR WIOI 100230Z 12005KT 6000 SCT014 28/23 Q1014=
10-May-2023 SAID35 WIOI 100400 METAR WIOI 100400Z 16004KT 7000 SCT018 31/23 Q1012=
10-May-2023 SAID35 WIOI 100430 METAR WIOI 100430Z 14004KT 8000 FEW018 31/23 Q 1012=
10-May-2023 SAID35 WIOI 100500 METAR WIOI 100500Z 23005KT 7000 FEW020 32/23 Q1010=
12-May-2023 SAID35 WIOI 120000 METAR WIOI 120000Z 21003KT 6000 SCT016 25/24 Q1014=
24-May-2023 SAID35 WIOI 240000 METAR WIOI 240000Z 24003KT 5000 HZ SCT015 24/23 Q1016=
24-May-2023 SAID35 WIOI 240030 METAR WIOI 240030Z 22004KT 5000 HZ SCT015 24/23 Q1016=
24-May-2023 SAID35 WIOI 240100 METAR WIOI 240100Z 18003KT 5000 HZ SCT015 25/23 Q1015=
24-May-2023 SAID35 WIOI 240130 METAR WIOI 240130Z 26005KT 5000 HZ SCT015 27/24 Q1014 =
24-May-2023 SAID35 WIOI 240300 METAR WIOI 240300Z 12005KT 6000 SCT015 29/24 Q1014=
24-May-2023 SAID35 WIOI 240330 METAR WIOI 240330Z 24004KT 6000 SCT015 29/24 Q1014=
24-May-2023 SAID35 WIOI 240600 METAR WIOI 240600Z 22007KT 6000 FEW015 31/24 Q1013=
24-May-2023 SAID35 WIOI 240630 METAR WIOI 240630Z 21006KT 6000 FEW015 31/24 Q1012=
24-May-2023 SAID35 WIOI 240700 METAR WIOI 240700Z 15004KT 6000 FEW015 31/23 Q1012=
24-May-2023 SAID35 WIOI 240730 METAR WIOI 240730Z 21007KT 6000 FEW015 31/23 Q1012=
24-May-2023 SAID35 WIOI 240800 METAR WIOI 240800Z 22009KT 6000 FEW015 30/23 Q1012=
25-May-2023 SAID35 WIOI 250030 METAR WIOI 250030Z 24003KT 5000 HZ FEW015 26/23 Q1015=
25-May-2023 SAID35 WIOI 250100 METAR WIOI 250100Z 23003KT 5000 HZ FEW015 27/23 Q1015=
31-May-2023 SAID35 WIOI 310000 METAR WIOI 310000Z 09004KT 6000 SCT1400FT 23/22 Q1013=
05-Jun-2023 SAID35 WIOI 050000 METAR WIOI 050000Z 18004KT 5000 BKN1400FT 23/22 Q1012=
05-Jun-2023 SAID35 WIOI 050300 METAR WIOI 050300Z 02104KT 6000 SCT014 29/23 Q1012=
05-Jun-2023 SAID35 WIOI 050400 METAR WIOI 050400Z 01003KT 7000 SCT015 29/25 1012=
07-Jun-2023 SAID35 WIOI 070000 METAR WIOI 070000Z 21004KT 6000 SCT014 24/23 Q1013=
07-Jun-2023 SAID35 WIOI 070300 METAR WIOI 070300Z 21004KT 7000 SCT1400FT 29/24 Q1014=
13-Jun-2023 SAID35 WIOI 130000 METAR WIOI 130000Z 09004KT 6000 SCT1400FT 24/23 Q1013=
14-Jun-2023 SAID35 WIOI 140300 METAR WIOI 140300Z 06006KT 5000 BKN1400FT 28/26 Q1015=
19-Jun-2023 SAID35 WIOI 190000 METAR WIOI 190000Z 03005KT 5000 BKN1400FT 24/23 Q1015=
20-Jun-2023 SAID35 WIOI 200300 METAR WIOI 200300Z 21006KT 6000 SCT1400FT 30/24 Q1014=
21-Jun-2023 SAID35 WIOI 210000 METAR WIOI 210000Z 12004KT 5000 SCT1400FT 24/23 Q1013=
22-Jun-2023 SAID35 WIOI 220000 METAR WIOI 220000Z 13004KT 5000 SCT1400FT 23/22 Q1013=
22-Jun-2023 SAID35 WIOI 220300 METAR WIOI 220300Z 03003KT 7000 SCT1600FT 31/24 Q1013=
23-Jun-2023 SAID35 WIOI 230000 METAR WIOI 230000Z 09004KT 5000 SCT1400FT 24/23 Q1012=
23-Jun-2023 SAID35 WIOI 230200 METAR WIOI 230200Z 34003KT 6000 SCT015 29/24 Q1013=
23-Jun-2023 SAID35 WIOI 230230 METAR WIOI 230230Z 15003KT 6000 SCT015 29/24 Q1013=
23-Jun-2023 SAID35 WIOI 230300 METAR WIOI 230300Z 03004KT 7000 SCT014 31/24 Q1013=
23-Jun-2023 SAID35 WIOI 230330 METAR WIOI 230330Z 33003KT 7000 SCT015 31/24 Q1012=
23-Jun-2023 SAID35 WIOI 230400 METAR WIOI 230400Z 33003KT 7000 SCT015 31/24 Q1012=
26-Jun-2023 SAID35 WIOI 260000 METAR WIOI 260000Z 26004KT 5000 SCT1400FT 24/23 Q1013=
27-Jun-2023 SAID35 WIOI 270000 METAR WIOI 270000Z 12004KT 6000 SCT016 24/23 Q1013=
03-Jul-2023 SAID35 WIOI 030300 METAR WIOI 030300Z 03004KT 7000 SCT1600FT 28/24 Q1014=
04-Jul-2023 SAID35 WIOI 040000 METAR WIOI 040000Z 12004KT 6000 SCT014 24/23 Q1012=
04-Jul-2023 SAID35 WIOI 040200 METAR WIOI 040200Z 02003KT 6000 SCT015 27/24 Q1014=
10-Jul-2023 SAID35 WIOI 100000 METAR WIOI 100000Z 03004KT 5000 SCT014 24/23 Q1013=
11-Jul-2023 SAID35 WIOI 110300 METAR WIOI 110300Z 18005KT 6000 BKN1400FT 26/24 Q1015=
17-Jul-2023 SAID35 WIOI 170000 METAR WIOI 170000Z 12004KT 6000 SCT1400FT 24/23 Q1012=
17-Jul-2023 SAID35 WIOI 170300 METAR WIOI 170300Z 21005KT 7000 SCT1600FT 31/23 Q1011=
20-Jul-2023 SAID35 WIOI 200000 METAR WIOI 200000Z 24003KT 6000 BKN1400FT 24/23 Q1012=
25-Jul-2023 SAID35 WIOI 250000 METAR WIOI 250000Z 12005KT 6000 SCT1400FT 25/23 Q1013=
25-Jul-2023 SAID35 WIOI 250300 METAR WIOI 250300Z 18007KT 7000 SCT1600FT 30/22 Q1014=
26-Jul-2023 SAID35 WIOI 260000 METAR WIOI 260000Z 18004KT 6000 SCT1600FT 24/23 Q1014=
27-Jul-2023 SAID35 WIOI 270000 METAR WIOI 270000Z 18007KT 5000 FEW1800FT 26/23 Q1014=
28-Jul-2023 SAID35 WIOI 280000 METAR WIOI 280000Z 21008KT 5000 SCT1400FT 24/23 Q1013=
28-Jul-2023 SAID35 WIOI 280300 METAR WIOI 280300Z 18007KT 5000 SCT1600FT 30/22 Q1013=
02-Aug-2023 SAID35 WIOI 020000 METAR WIOI 020000Z 21004KT 5000 SCT014 24/23 Q1014=
02-Aug-2023 SAID35 WIOI 020200 METAR WIOI 020200Z 21004KT 5000 SCT014 24/23 Q1014=
02-Aug-2023 SAID35 WIOI 020300 METAR WIOI 020300Z 17009KT 5000 HZ SCT015 29/23 Q1015 =
02-Aug-2023 SAID35 WIOI 020400 METAR WIOI 020400Z 21006KT 6000 SCT015 30/24 Q1014=
04-Aug-2023 SAID35 WIOI 040000 METAR WIOI 040000Z 12005KT 6000 SCT1600FT 25/23 Q1016=
04-Aug-2023 SAID35 WIOI 040300 METAR WIOI 040300Z 16004KT 7000 SCT016 30/24 Q1016=
07-Aug-2023 SAID35 WIOI 070000 METAR WIOI 070000Z 27004KT 4000 SCT1400FT 24/23 Q1015=
09-Aug-2023 SAID35 WIOI 090000 METAR WIOI 090000Z 14003KT 4000 BKN1400FT 23/22 Q1015=
09-Aug-2023 SAID35 WIOI 090600 METAR WIOI 090600Z 28004KT 6000 SCT1600FT 31/22 Q1014=
15-Aug-2023 SAID35 WIOI 150000 METAR WIOI 150000Z 18003KT 4000 BKN1400FT 25/23 Q1015=
16-Aug-2023 SAID35 WIOI 160000 METAR WIOI 160000Z 18003KT 3000 BKN1200FT 25/23 Q1015=
18-Aug-2023 SAID35 WIOI 180000 METAR WIOI 180000Z 09003KT 5000 SCT1400FT 24/23 Q1012=
24-Aug-2023 SAID35 WIOI 240000 METAR WIOI 240000Z 16004KT 5000 SCT1400FT 24/23 Q1014=
25-Aug-2023 SAID35 WIOI 250000 METAR WIOI 250000Z 28004KT 5000 BKN014 23/23 Q1014=
28-Aug-2023 SAID35 WIOI 280000 METAR WIOI 280000Z 12004KT 5000 SCT1400FT 23/22 Q1012=
29-Aug-2023 SAID35 WIOI 290000 METAR WIOI 290000Z 18007KT 6000 SCT1400FT 24/23 Q1012=
30-Aug-2023 SAID35 WIOI 300000 METAR WIOI 300000Z 13004KT 4000 BKN1400FT 23/22 Q1013=
04-Sep-2023 SAID35 WIOI 040000 METAR WIOI 040000Z 18006KT 4000 SCT1600FT 25/24 Q1011=
04-Sep-2023 SAID35 WIOI 040300 METAR WIOI 040300Z 18006KT 4000 HZ SCT016 29/23 Q1011=
05-Sep-2023 SAID35 WIOI 050000 METAR WIOI 050000Z 18003KT 4000 SCT1400FT 25/23 Q1012=
06-Sep-2023 SAID31 WIHH 060300 METAR WIOI 060300Z 34004KT 4000 HZ SCT 015 25/24 Q 1015=
06-Sep-2023 SAID35 WIOI 060300 METAR WIOI 060300Z 34004KT 4000 SCT16400FT 26/25 Q1015=
06-Sep-2023 SAID62 WIOI 060300 METAR WIOI 060300Z 34004 KT 4000 HZ SCT 015 25/24 Q1015=
06-Sep-2023 SAID62 WIOI 060330 METAR WIOI 060330Z 24003KT 4000 HZ SCT 015 25/24 Q 1015=
06-Sep-2023 SAID62 WIOI 060400 METAR WIOI 060400Z 02005KT 4000 HZ SCT 015 26/24 Q 1015=
06-Sep-2023 SAID62 WIOI 060400 METAR WIOI 060500Z 06003KT 4000 SMOKE SCT015 27/24 Q 1014 =
06-Sep-2023 SAID62 WIOI 060530 METAR WIOI 060530Z 25005KT 3000 RA OVC014 25/23 Q1013 =
06-Sep-2023 SAID62 WIOI 060600 METAR WIOI 060600Z 32005KT 3000 RA OVC014 25/23 Q1013 =
06-Sep-2023 SAID62 WIOI 060630 METAR WIOI 060630Z 08003KT 3000 RA OVC014 25/23 Q1013=
07-Sep-2023 SAID35 WIOI 070000 METAR WIOI 070000Z 18004KT 5000 BKN1400FT 24/23 Q1015=
08-Sep-2023 SAID62 WIOI 080000 METAR WIOI 080000Z 17003KT 6000 HZ SCT 015 24/23 Q1014=
08-Sep-2023 SAID62 WIOI 080130 METAR WIOI 080130Z 21004KT 6000 HZ SCT015 28/23 Q1015=
08-Sep-2023 SAID62 WIOI 080200 METAR WIOI 080200Z 22005KT 6000 HZ SCT015 29/23 Q1015=
08-Sep-2023 SAID62 WIOI 080230 METAR WIOI 080230Z 14004KT 6000 HZ SCT015 29/23 Q1015=
08-Sep-2023 SAID62 WIOI 080300 METAR WIOI 080300Z 24006KT 6000 HZ FEW015 30/22 Q1014=
08-Sep-2023 SAID62 WIOI 080330 METAR WIOI 080330Z 24006KT 7000 HZ FEW016 30/22 Q1014=
08-Sep-2023 SAID62 WIOI 080400 METAR WIOI 080400Z 22008KT 7000 HZ FEW016 31/22 Q1013=
08-Sep-2023 SAID62 WIOI 080530 METAR WIOI 080530Z 14003KT 7000 HZ SCT016 32/23 Q1012=
08-Sep-2023 SAID62 WIOI 080600 METAR WIOI 080600Z 22004KT 7000 HZ SCT015 33/22 Q1012=
08-Sep-2023 SAID62 WIOI 080630 METAR WIOI 080630Z 26003KT 7000 HZ SCT015 33/22 Q1011=
08-Sep-2023 SAID62 WIOI 080700 METAR WIOI 080700Z 27003KT 7000 HZ SCT015 33/22 Q1011=
08-Sep-2023 SAID62 WIOI 080800 METAR WIOI 080800Z 28004KT 7000 HZ SCT015 32/22 Q1011=
11-Sep-2023 SAID35 WIOI 110000 METAR WIOI 110000Z 12003KT 4000 BKN1400FT 23/22 Q1014=
13-Sep-2023 SAID35 WIOI 130000 METAR WIOI 130000Z 24003KT 5000 BKN1400FT 24/23 Q1014=
18-Sep-2023 SAID35 WIOI 180000 METAR WIOI 180000Z 14003KT 6000 SCT014 25/23 Q1013=
19-Sep-2023 SAID35 WIOI 190000 METAR WIOI 190000Z 21004KT 5000 BKN1400FT 23/22 Q1014=
19-Sep-2023 SAID35 WIOI 190300 METAR WIOI 190300Z 23005KT 6000 SCT1600FT 28/23 Q1014=
26-Sep-2023 SAID35 WIOI 260300 METAR WIOI 260300Z 18007KT 4000 SCT1600FT 31/25 Q1013=
27-Sep-2023 SAID35 WIOI 270000 METAR WIOI 270000Z 09003KT 4000 SCT1400FT 24/23 Q1013=
02-Oct-2023 SAID35 WIOI 020000 METAR WIOI 020000Z 12003KT 4000 BKN1400FT 23/22 Q1014=
02-Oct-2023 SAID35 WIOI 020300 METAR WIOI 020300Z 16003KT 4000 SCT1600FT 29/24 Q1015=
03-Oct-2023 SAID35 WIOI 030000 METAR WIOI 030000Z 16003KT 4000 SMOKE SCT1400FT 24/23 Q1015=
04-Oct-2023 SAID35 WIOI 040300 METAR WIOI 040300Z 12005KT 4000 SMOKE SCT1600FT 30/24 Q1016=
06-Oct-2023 SAID35 WIOI 060000 METAR WIOI 060000Z 09003KT 4000 SMOKE BKN1400FT 25/24 Q1014=
06-Oct-2023 SAID62 WIOI 060300 METAR WIOI 060300Z 21004KT 4000 SMOKE BKN015 30/25 Q1015=
06-Oct-2023 SAID35 WIOI 060300 METAR WIOI 060300Z 21004KT 4000 BKN1400FT 29/25 Q1015=
06-Oct-2023 SAID62 WIOI 060330 METAR WIOI 060330Z 19003KT 4000 SMOKE BKN015 30/25 Q1015=
10-Oct-2023 SAID35 WIOI 100000 METAR WIOI 100000Z 13004KT 5000 SCT1400FT 25/24 Q1015=
10-Oct-2023 SAID35 WIOI 100300 METAR WIOI 100300Z 19005KT 5000 SCT1600FT 29/24 Q1016=
12-Oct-2023 SAID35 WIOI 120000 METAR WIOI 120000Z 09004KT 5000 SCT1400FT 25/24 Q1015=
12-Oct-2023 SAID35 WIOI 120300 METAR WIOI 120300Z 28004KT 6000 SCT1600FT 30/24 Q1015=
12-Oct-2023 SAID35 WIOI 120600 METAR WIOI 120600Z 09004KT 5000 FEWCB1400FT BKN1500FT 27/23 Q1013 CB RA TO NW=
13-Oct-2023 SAID35 WIOI 130000 METAR WIOI 130000Z 09004KT 5000 BKN014 23/22 Q1015=
16-Oct-2023 SAID35 WIOI 160000 METAR WIOI 160000Z 14003KT 5000 SCT1400FT 24/23 Q1013=
16-Oct-2023 SAID62 WIOI 160200 METAR WIOI 160200Z 33003KT 5000 HZ SCT015 28/23 Q1013=
16-Oct-2023 SAID62 WIOI 160230 METAR WIOI 160230Z 35005KT 6000 HZ SCT015 29/23 Q1013=
16-Oct-2023 SAID35 WIOI 160300 METAR WIOI 160300Z 06004KT 6000 SCT1600FT 29/24 Q1014=
16-Oct-2023 SAID62 WIOI 160300 METAR WIOI 160300Z 06004 KT 6000 HZ SCT 016 29/24 Q1014=
16-Oct-2023 SAID62 WIOI 160330 METAR WIOI 160330Z 22004KT 6000 HZ SCT016 30/24 Q1013=
16-Oct-2023 SAID35 WIOI 160600 METAR WIOI 160600Z 28007KT 6000 SCT1600FT 32/24 Q1011=
18-Oct-2023 SAID35 WIOI 180000 METAR WIOI 180000Z 08004KT 5000 BKN1400FT 24/23 Q1015=
18-Oct-2023 SAID35 WIOI 180600 METAR WIOI 180600Z 03005KT 6000 BKN1400FT 28/23 Q1014=
19-Oct-2023 SAID35 WIOI 190000 METAR WIOI 190000Z 09003KT 5000 BKN1400FT 24/23 Q1015=
19-Oct-2023 SAID35 WIOI 190300 METAR WIOI 190300Z 06004KT 5000 BKN1400FT 26/23 Q1017=
24-Oct-2023 SAID35 WIOI 240000 METAR WIOI 240000Z 12003KT 6000 SCT1600FT 24/23 Q1016=
24-Oct-2023 SAID35 WIOI 240300 METAR WIOI 240300Z 18003KT 7000 SCT1600FT 29/24 Q1016=
24-Oct-2023 SAID35 WIOI 240600 METAR WIOI 240600Z 09004KT 4000 TSRA FEW1400FT BKN1500FT 28/25 Q1014 CB TO NE=
25-Oct-2023 SAID35 WIOI 250000 METAR WIOI 250000Z 21004KT 6000 SCT014 25/23 Q1014=
30-Oct-2023 SAID35 WIOI 300000 METAR WIOI 300000Z 09003KT 7000 SCT1600FT 24/23 Q1013=
