11-Sep-2018 SAID34 WION 111200 METAR WION 111200Z 18012KT 5000 +RA BKN012 26/24 Q1010=
12-Sep-2018 SAID34 WION 120000 METAR WION 120000Z 18008KT 7000 BKN013 28/25 Q1009 NOSIG=
12-Sep-2018 SAID31 WION 120000 METAR WION 120000Z 18008KT 7000 BKN013 28/25 Q1009 NOSIG=
15-Sep-2018 SAID34 WION 150600 METAR WION 150600Z 18014KT 8000 BKN013 31/24 Q1007 NOSIG=
15-Sep-2018 SAID35 WIHH 151200 METAR WION 151200Z 18008KT 7000 BKN013 28/24 Q1007 NOSIG=
15-Sep-2018 SAID34 WION 151200 METAR WION 151200Z 18008KT 7000 BKN013 28/24 Q1007 NOSIG=
26-Sep-2018 SAID34 WION 260000 METAR WION 260000Z 2703KT 7000 SCT015 26/25 Q1010 NOSIG=
27-Sep-2018 SAID35 WIHH 270300 METAR WION 270300Z 15004KT 8000 FEW017 31/26 Q1011 NOSIG=
27-Sep-2018 SAID34 WION 270300 METAR WION 270300Z 15004KT 8000 FEW017 31/26 Q1011 NOSIG=
27-Sep-2018 SAID35 WIHH 270600 METAR WION 270600Z 15010KT 1000 BKN014 30/25 Q1008 NOSIG=
27-Sep-2018 SAID34 WION 270600 METAR WION 270600Z 15010KT 1000 BKN014 30/25 Q1008 NOSIG=
29-Sep-2018 SAID34 WION 290300 METAR WION 290300Z 07008KT 8000 SCT015 31/25 Q1010 NOSIG=
30-Sep-2018 SAID34 WION 300000 METAR WION 300000Z 24002KT 8000 SCT016 27/25 Q1009 NOSIG=
30-Sep-2018 SAID34 WION 300300 METAR WION 300300Z 18008KT 8000 SCT016 30/26 Q1010 NOSIG=
30-Sep-2018 SAID34 WION 300600 METAR WION 300600Z 24012KT 4000 -RA BKN013 25/24 Q1008=
30-Sep-2018 SAID34 WION 300900 METAR WION 300900Z 18004KT 7000 BKN013 28/26 Q1007 NOSIG=
30-Sep-2018 SAID34 WION 301200 METAR WION 301200Z 18002KT 7000 SCT013 28/25 Q1007 NOSIG=
06-Oct-2018 SAID34 WION 060000 METAR WION 060000Z 33004KT 8000 SCT015 28/26 Q1010 NOSIG=
06-Oct-2018 SAID34 WION 060300 METAR WION 060300Z 03010KT 8000 BKN014 30/27 Q1012 NOSIG=
06-Oct-2018 SAID34 WION 060900 METAR WION 060900Z 03008KT 8000 BKN014 30/26 Q1008 NOSIG=
06-Oct-2018 SAID34 WION 061200 METAR WION 061200Z 03006KT 7000 BKN014 27/25 Q1009 NOSIG=
09-Oct-2018 SAID35 WIHH 090000 METAR WION 090000Z 24002KT 8000 SCT014 27/25 Q1009 NOSIG=
09-Oct-2018 SAID34 WION 090000 METAR WION 090000Z 24002KT 8000 SCT014 27/25 Q1009 NOSIG=
15-Oct-2018 SAID34 WION 150000 METAR WION 150000Z 18002KT 7000 SCT014 25/25 Q1012 NOSIG=
15-Oct-2018 SAID34 WION 150300 METAR WION 150300Z 12006KT 8000 SCT014 30/25 Q1013 NOSIG=
15-Oct-2018 SAID34 WION 150900 METAR WION 150900Z 12006KT 7000 BKN014 29/25 Q1009 NOSIG=
15-Oct-2018 SAID34 WION 151200 METAR WION 151200Z 12004KT 7000 BKN014 28/26 Q1010 NOSIG=
20-Oct-2018 SAID34 WION 200000 METAR WION 200000Z 24004KT 8000 SCT016 27/26 Q1012 NOSIG=
30-Oct-2018 SAID34 WION 300000 METAR WION 300000Z 27002KT 8000 SCT014 26/25 Q1009 NOSIG=
30-Oct-2018 SAID34 WION 300300 METAR WION 300300Z 03010KT 8000 BKN014 32/26 Q1010 NOSIG=
30-Oct-2018 SAID34 WION 300600 METAR WION 300600Z 03014KT 7000 BKN014 31/26 Q1008 NOSIG=
30-Oct-2018 SAID34 WION 300900 METAR WION 300900Z 03010KT 5000 HZ BKN014 30/25 Q1006 NOSIG=
08-Nov-2018 SAID34 WION 080900 METAR WION 080900Z 06008KT 8000 BKN014 30/25 Q1008 NOSIG=
13-Nov-2018 SAID34 WION 130300 METAR WION 130300Z 09004KT 8000 BKN013 30/26 Q1009 NOSIG =
14-Nov-2018 SAID34 WION 140600 METAR WION 140600Z 32004KT 5000 -RA BKN012 27/26 Q1008 NOSIG=
17-Nov-2018 SAID34 WION 170000 METAR WION 170000Z 24004KT 7000 BKN012 25/25 Q1011 NOSIG=
14-Dec-2018 SAID34 WION 140000 METAR WION 140000Z 03014KT 6000 -RA BKN012 28/25 Q1010=
18-Dec-2018 SAID34 WION 180000 METAR WION 180000Z 27002KT 8000 SCT014 25/24 Q1011 NOSIG=
18-Dec-2018 SAID34 WION 180300 METAR WION 180300Z 03006KT 8000 SCT014 30/26 Q1013 NOSIG =
21-Jan-2019 SAID34 WION 210300 METAR WION 210300Z 03018KT 7000 BKN012 28/24 Q1012 =
23-Jan-2019 SAID34 WION 230300 METAR WION 230300Z 03022KT 6000 BKN012 27/24 Q1013=
11-Mar-2019 SAID34 WION 110300 METAR WION 110300Z 09008KT 8000 BKN014 30/26 Q1014 NOSIG=
11-Mar-2019 SAID34 WION 110600 METAR WION 110600Z 03010KT 8000 BKN014 29/25 Q1012 =
15-Mar-2019 SAID34 WION 150300 METAR WION 150300Z 06020KT 8000 BKN015 30/24 Q1014 NOSIG=
24-Apr-2019 SAID34 WION 240000 METAR WION 240000Z 05008KT 7000 SCT014 29/27 Q1008 =
25-Apr-2019 SAID34 WION 250000 METAR WION 250000Z 27005KT 6000 FEW CB 014 SCT014 27/25 Q1008 =
